{"type":"FeatureCollection","features":[{"type":"Feature","properties":{"territory_id":"mg-3100401-centro","name":"Centro","municipality_id":"mg-3100401","polling_places":2,"approx":true,"official":false,"method":"voronoi-polling-places","whole_municipality":false,"approx_coords_only":false},"geometry":{"type":"MultiPolygon","coordinates":[[[[-43.1684,-20.4001],[-43.14439,-20.41593],[-43.08589,-20.37846],[-43.0789,-20.3652],[-43.0794,-20.3645],[-43.1329,-20.3407],[-43.1639,-20.3626],[-43.1684,-20.4001]]]]}},{"type":"Feature","properties":{"territory_id":"mg-3100401-maracuja","name":"Maracujá","municipality_id":"mg-3100401","polling_places":1,"approx":true,"official":false,"method":"voronoi-polling-places","whole_municipality":false,"approx_coords_only":false},"geometry":{"type":"MultiPolygon","coordinates":[[[[-43.14439,-20.41593],[-43.1229,-20.4301],[-43.1248,-20.4487],[-43.0769,-20.432],[-43.06835,-20.44034],[-43.08589,-20.37846],[-43.14439,-20.41593]]]]}},{"type":"Feature","properties":{"territory_id":"mg-3100401-palmeiras-de-fora","name":"Palmeiras de Fora","municipality_id":"mg-3100401","polling_places":1,"approx":true,"official":false,"method":"voronoi-polling-places","whole_municipality":false,"approx_coords_only":false},"geometry":{"type":"MultiPolygon","coordinates":[[[[-43.08589,-20.37846],[-43.06835,-20.44034],[-43.0525,-20.4558],[-43.0362,-20.4489],[-43.0239,-20.4102],[-43.0519,-20.4032],[-43.0789,-20.3652],[-43.08589,-20.37846]]]]}}]}