{"type":"FeatureCollection","features":[{"type":"Feature","properties":{"territory_id":"mg-3100906-agua-quente","name":"Água Quente","municipality_id":"mg-3100906","polling_places":1,"approx":true,"official":false,"method":"voronoi-polling-places","whole_municipality":false,"approx_coords_only":false},"geometry":{"type":"MultiPolygon","coordinates":[[[[-41.1941,-17.038],[-41.1601,-17.0429],[-41.1211,-17.1143],[-41.1261,-17.1249],[-41.1004,-17.1287],[-41.0552,-17.1641],[-41.04677,-17.15236],[-41.04755,-16.94253],[-41.0571,-16.9601],[-41.0937,-16.9444],[-41.1224,-16.965],[-41.1566,-17.0183],[-41.1941,-17.038]]]]}},{"type":"Feature","properties":{"territory_id":"mg-3100906-centro","name":"Centro","municipality_id":"mg-3100906","polling_places":4,"approx":true,"official":false,"method":"voronoi-polling-places","whole_municipality":false,"approx_coords_only":false},"geometry":{"type":"MultiPolygon","coordinates":[[[[-40.95853,-16.97721],[-40.94181,-17.06539],[-40.93921,-17.08099],[-40.93913,-17.08323],[-40.93781,-17.0846],[-40.93843,-17.08709],[-40.88881,-17.12499],[-40.88163,-17.12073],[-40.93346,-17.08327],[-40.94625,-16.94664],[-40.95853,-16.97721]]]]}},{"type":"Feature","properties":{"territory_id":"mg-3100906-copasa","name":"Copasa","municipality_id":"mg-3100906","polling_places":2,"approx":true,"official":false,"method":"voronoi-polling-places","whole_municipality":false,"approx_coords_only":false},"geometry":{"type":"MultiPolygon","coordinates":[[[[-41.02566,-17.13098],[-40.93843,-17.08709],[-40.93781,-17.0846],[-40.93913,-17.08323],[-40.93921,-17.08099],[-40.94181,-17.06539],[-40.95853,-16.97721],[-41.00782,-17.0921],[-41.02566,-17.13098]]]]}},{"type":"Feature","properties":{"territory_id":"mg-3100906-distrito-de-agua-quente","name":"Distrito de Água Quente","municipality_id":"mg-3100906","polling_places":1,"approx":true,"official":false,"method":"voronoi-polling-places","whole_municipality":false,"approx_coords_only":false},"geometry":{"type":"MultiPolygon","coordinates":[[[[-41.04755,-16.94253],[-41.04677,-17.15236],[-41.0318,-17.1315],[-41.02746,-17.1346],[-41.02566,-17.13098],[-41.00782,-17.0921],[-40.95853,-16.97721],[-40.94625,-16.94664],[-40.93269,-16.91087],[-40.9657,-16.8987],[-41,-16.9303],[-41.0389,-16.9266],[-41.04755,-16.94253]]]]}},{"type":"Feature","properties":{"territory_id":"mg-3100906-nossa-senhora-das-gracas","name":"Nossa Senhora das Graças","municipality_id":"mg-3100906","polling_places":1,"approx":true,"official":false,"method":"voronoi-polling-places","whole_municipality":false,"approx_coords_only":false},"geometry":{"type":"MultiPolygon","coordinates":[[[[-40.94625,-16.94664],[-40.93346,-17.08327],[-40.88163,-17.12073],[-40.8804,-17.12],[-40.8423,-17.1079],[-40.7987,-17.1365],[-40.7743,-17.1037],[-40.7869,-17.0456],[-40.8084,-17.0024],[-40.8049,-16.9746],[-40.8799,-16.9642],[-40.9147,-16.9175],[-40.93269,-16.91087],[-40.94625,-16.94664]]]]}},{"type":"Feature","properties":{"territory_id":"mg-3100906-sao-vicente","name":"São Vicente","municipality_id":"mg-3100906","polling_places":1,"approx":true,"official":false,"method":"voronoi-polling-places","whole_municipality":false,"approx_coords_only":false},"geometry":{"type":"MultiPolygon","coordinates":[[[[-41.02746,-17.1346],[-40.9719,-17.1743],[-40.88881,-17.12499],[-40.93843,-17.08709],[-41.02566,-17.13098],[-41.02746,-17.1346]]]]}}]}