{"type":"FeatureCollection","features":[{"type":"Feature","properties":{"territory_id":"mg-3100500-centro","name":"Centro","municipality_id":"mg-3100500","polling_places":1,"approx":true,"official":false,"method":"voronoi-polling-places","whole_municipality":false,"approx_coords_only":false},"geometry":{"type":"MultiPolygon","coordinates":[[[[-42.57619,-19.10233],[-42.52668,-19.15895],[-42.5189,-19.1574],[-42.50977,-19.15687],[-42.49786,-19.14383],[-42.51833,-19.03812],[-42.53354,-19.02489],[-42.56075,-19.02983],[-42.57619,-19.10233]]]]}},{"type":"Feature","properties":{"territory_id":"mg-3100500-distrito-de-aramirim","name":"Distrito de Aramirim","municipality_id":"mg-3100500","polling_places":1,"approx":true,"official":false,"method":"voronoi-polling-places","whole_municipality":false,"approx_coords_only":false},"geometry":{"type":"MultiPolygon","coordinates":[[[[-42.53354,-19.02489],[-42.51833,-19.03812],[-42.42987,-19.0232],[-42.43035,-19.01481],[-42.51575,-18.95747],[-42.53354,-19.02489]]]]}},{"type":"Feature","properties":{"territory_id":"mg-3100500-distrito-de-felicina","name":"Distrito de Felicina","municipality_id":"mg-3100500","polling_places":1,"approx":true,"official":false,"method":"voronoi-polling-places","whole_municipality":false,"approx_coords_only":false},"geometry":{"type":"MultiPolygon","coordinates":[[[[-42.43593,-19.09011],[-42.34984,-19.10417],[-42.3499,-19.0917],[-42.2955,-19.0842],[-42.26835,-19.05309],[-42.42559,-19.03042],[-42.43593,-19.09011]]]]}},{"type":"Feature","properties":{"territory_id":"mg-3100500-distrito-de-gama","name":"Distrito de Gama","municipality_id":"mg-3100500","polling_places":1,"approx":true,"official":false,"method":"voronoi-polling-places","whole_municipality":false,"approx_coords_only":false},"geometry":{"type":"MultiPolygon","coordinates":[[[[-42.46283,-19.12853],[-42.37662,-19.16717],[-42.3529,-19.1469],[-42.3498,-19.1121],[-42.34984,-19.10417],[-42.43593,-19.09011],[-42.46283,-19.12853]]]]}},{"type":"Feature","properties":{"territory_id":"mg-3100500-distrito-de-naque-nanuque","name":"Distrito de Naque Nanuque","municipality_id":"mg-3100500","polling_places":1,"approx":true,"official":false,"method":"voronoi-polling-places","whole_municipality":false,"approx_coords_only":false},"geometry":{"type":"MultiPolygon","coordinates":[[[[-42.50977,-19.15687],[-42.4828,-19.1553],[-42.4104,-19.1908],[-42.3826,-19.2213],[-42.3532,-19.224],[-42.3996,-19.1868],[-42.37662,-19.16717],[-42.46283,-19.12853],[-42.49786,-19.14383],[-42.50977,-19.15687]]]]}},{"type":"Feature","properties":{"territory_id":"mg-3100500-distrito-de-penha-de-aramirim","name":"Distrito de Penha de Aramirim","municipality_id":"mg-3100500","polling_places":1,"approx":true,"official":false,"method":"voronoi-polling-places","whole_municipality":false,"approx_coords_only":false},"geometry":{"type":"MultiPolygon","coordinates":[[[[-42.5167,-18.95233],[-42.51575,-18.95747],[-42.43035,-19.01481],[-42.39836,-18.92919],[-42.4449,-18.9386],[-42.4847,-18.9627],[-42.5167,-18.95233]]]]}},{"type":"Feature","properties":{"territory_id":"mg-3100500-distrito-de-pompeu","name":"Distrito de Pompeu","municipality_id":"mg-3100500","polling_places":1,"approx":true,"official":false,"method":"voronoi-polling-places","whole_municipality":false,"approx_coords_only":false},"geometry":{"type":"MultiPolygon","coordinates":[[[[-42.6164,-18.9906],[-42.59241,-19.01895],[-42.56075,-19.02983],[-42.53354,-19.02489],[-42.51575,-18.95747],[-42.5167,-18.95233],[-42.556,-18.9396],[-42.5954,-18.9622],[-42.6164,-18.9906]]]]}},{"type":"Feature","properties":{"territory_id":"mg-3100500-povoado-de-belo-monte","name":"Povoado de Belo Monte","municipality_id":"mg-3100500","polling_places":1,"approx":true,"official":false,"method":"voronoi-polling-places","whole_municipality":false,"approx_coords_only":false},"geometry":{"type":"MultiPolygon","coordinates":[[[[-42.64782,-19.08154],[-42.57619,-19.10233],[-42.56075,-19.02983],[-42.59241,-19.01895],[-42.5894,-19.0225],[-42.64782,-19.08154]]]]}},{"type":"Feature","properties":{"territory_id":"mg-3100500-povoado-de-coqueiros","name":"Povoado de Coqueiros","municipality_id":"mg-3100500","polling_places":1,"approx":true,"official":false,"method":"voronoi-polling-places","whole_municipality":false,"approx_coords_only":false},"geometry":{"type":"MultiPolygon","coordinates":[[[[-42.664,-19.0979],[-42.6615,-19.1255],[-42.6228,-19.1188],[-42.5702,-19.1676],[-42.52668,-19.15895],[-42.57619,-19.10233],[-42.64782,-19.08154],[-42.664,-19.0979]]]]}},{"type":"Feature","properties":{"territory_id":"mg-3100500-povoado-de-sao-francisco","name":"Povoado de São Francisco","municipality_id":"mg-3100500","polling_places":1,"approx":true,"official":false,"method":"voronoi-polling-places","whole_municipality":false,"approx_coords_only":false},"geometry":{"type":"MultiPolygon","coordinates":[[[[-42.51833,-19.03812],[-42.49786,-19.14383],[-42.46283,-19.12853],[-42.43593,-19.09011],[-42.42559,-19.03042],[-42.42987,-19.0232],[-42.51833,-19.03812]]]]}},{"type":"Feature","properties":{"territory_id":"mg-3100500-povoado-de-sao-pedro","name":"Povoado de São Pedro","municipality_id":"mg-3100500","polling_places":1,"approx":true,"official":false,"method":"voronoi-polling-places","whole_municipality":false,"approx_coords_only":false},"geometry":{"type":"MultiPolygon","coordinates":[[[[-42.43035,-19.01481],[-42.42987,-19.0232],[-42.42559,-19.03042],[-42.26835,-19.05309],[-42.2084,-18.9844],[-42.2463,-18.9932],[-42.2771,-18.972],[-42.355,-18.9607],[-42.3621,-18.9257],[-42.3905,-18.9276],[-42.39836,-18.92919],[-42.43035,-19.01481]]]]}}]}