{"type":"FeatureCollection","features":[{"type":"Feature","properties":{"territory_id":"mg-3100302-cachoeira-do-livramento","name":"Cachoeira do Livramento","municipality_id":"mg-3100302","polling_places":1,"approx":true,"official":false,"method":"voronoi-polling-places","whole_municipality":false,"approx_coords_only":false},"geometry":{"type":"MultiPolygon","coordinates":[[[[-42.5576,-20.3439],[-42.543,-20.3598],[-42.5135,-20.3704],[-42.5266,-20.425],[-42.5039,-20.4188],[-42.4343,-20.4354],[-42.4192,-20.414],[-42.4152,-20.35],[-42.41421,-20.34251],[-42.47539,-20.32456],[-42.55049,-20.32325],[-42.5576,-20.3439]]]]}},{"type":"Feature","properties":{"territory_id":"mg-3100302-central","name":"Central","municipality_id":"mg-3100302","polling_places":1,"approx":true,"official":false,"method":"voronoi-polling-places","whole_municipality":false,"approx_coords_only":false},"geometry":{"type":"MultiPolygon","coordinates":[[[[-42.5551,-20.2677],[-42.5416,-20.2974],[-42.54221,-20.29918],[-42.48285,-20.30358],[-42.47856,-20.30333],[-42.48044,-20.29994],[-42.53001,-20.249],[-42.531,-20.252],[-42.5521,-20.2616],[-42.5551,-20.2677]]]]}},{"type":"Feature","properties":{"territory_id":"mg-3100302-centro","name":"Centro","municipality_id":"mg-3100302","polling_places":4,"approx":true,"official":false,"method":"voronoi-polling-places","whole_municipality":false,"approx_coords_only":false},"geometry":{"type":"MultiPolygon","coordinates":[[[[-42.55049,-20.32325],[-42.47539,-20.32456],[-42.47493,-20.30645],[-42.48285,-20.30358],[-42.54221,-20.29918],[-42.55049,-20.32325]]],[[[-42.53001,-20.249],[-42.48044,-20.29994],[-42.47856,-20.30333],[-42.47486,-20.30569],[-42.47447,-20.30472],[-42.4701,-20.29675],[-42.43308,-20.23385],[-42.49284,-20.19422],[-42.4965,-20.1948],[-42.5181,-20.213],[-42.53001,-20.249]]]]}},{"type":"Feature","properties":{"territory_id":"mg-3100302-recanto-das-aguas","name":"Recanto das Águas","municipality_id":"mg-3100302","polling_places":1,"approx":true,"official":false,"method":"voronoi-polling-places","whole_municipality":false,"approx_coords_only":false},"geometry":{"type":"MultiPolygon","coordinates":[[[[-42.47539,-20.32456],[-42.41421,-20.34251],[-42.4111,-20.319],[-42.37653,-20.26668],[-42.43308,-20.23385],[-42.4701,-20.29675],[-42.47447,-20.30472],[-42.47486,-20.30569],[-42.47493,-20.30645],[-42.47539,-20.32456]]]]}},{"type":"Feature","properties":{"territory_id":"mg-3100302-zona-rural","name":"Zona Rural","municipality_id":"mg-3100302","polling_places":2,"approx":true,"official":false,"method":"voronoi-polling-places","whole_municipality":false,"approx_coords_only":false},"geometry":{"type":"MultiPolygon","coordinates":[[[[-42.49284,-20.19422],[-42.43308,-20.23385],[-42.37653,-20.26668],[-42.3665,-20.2515],[-42.3212,-20.2332],[-42.315,-20.202],[-42.3107,-20.1428],[-42.356,-20.1402],[-42.381,-20.1217],[-42.4197,-20.1438],[-42.4401,-20.1859],[-42.49284,-20.19422]]],[[[-42.48285,-20.30358],[-42.47493,-20.30645],[-42.47486,-20.30569],[-42.47856,-20.30333],[-42.48285,-20.30358]]]]}}]}