{"type":"FeatureCollection","features":[{"type":"Feature","properties":{"territory_id":"mg-3100609-centro","name":"Centro","municipality_id":"mg-3100609","polling_places":4,"approx":true,"official":false,"method":"voronoi-polling-places","whole_municipality":false,"approx_coords_only":false},"geometry":{"type":"MultiPolygon","coordinates":[[[[-42.43918,-17.96813],[-42.4205,-18.0055],[-42.4092,-18.0256],[-42.41,-18.03559],[-42.29932,-18.04273],[-42.26322,-17.9829],[-42.28107,-17.97212],[-42.28721,-17.96827],[-42.30054,-17.95978],[-42.43918,-17.96813]]]]}},{"type":"Feature","properties":{"territory_id":"mg-3100609-zona-rural-bonfim","name":"Zona Rural - Bonfim","municipality_id":"mg-3100609","polling_places":1,"approx":true,"official":false,"method":"voronoi-polling-places","whole_municipality":false,"approx_coords_only":false},"geometry":{"type":"MultiPolygon","coordinates":[[[[-42.38292,-17.86706],[-42.38265,-17.86847],[-42.30054,-17.95978],[-42.28721,-17.96827],[-42.28107,-17.97212],[-42.26322,-17.9829],[-42.1952,-17.95556],[-42.1955,-17.9546],[-42.2457,-17.9103],[-42.2816,-17.8503],[-42.2667,-17.7883],[-42.3227,-17.7843],[-42.33144,-17.78125],[-42.38292,-17.86706]]]]}},{"type":"Feature","properties":{"territory_id":"mg-3100609-zona-rural-cachoeira-da-luz","name":"Zona Rural - Cachoeira da Luz","municipality_id":"mg-3100609","polling_places":1,"approx":true,"official":false,"method":"voronoi-polling-places","whole_municipality":false,"approx_coords_only":false},"geometry":{"type":"MultiPolygon","coordinates":[[[[-42.44907,-17.94837],[-42.43918,-17.96813],[-42.30054,-17.95978],[-42.38265,-17.86847],[-42.44907,-17.94837]]]]}},{"type":"Feature","properties":{"territory_id":"mg-3100609-zona-rural-catequese","name":"Zona Rural - Catequese","municipality_id":"mg-3100609","polling_places":1,"approx":true,"official":false,"method":"voronoi-polling-places","whole_municipality":false,"approx_coords_only":false},"geometry":{"type":"MultiPolygon","coordinates":[[[[-42.31126,-18.13559],[-42.06838,-18.09895],[-42.0942,-18.0834],[-42.1485,-18.0156],[-42.1837,-17.9931],[-42.1952,-17.95556],[-42.26322,-17.9829],[-42.29932,-18.04273],[-42.31126,-18.13559]]]]}},{"type":"Feature","properties":{"territory_id":"mg-3100609-zona-rural-graminha","name":"Zona Rural - Graminha","municipality_id":"mg-3100609","polling_places":1,"approx":true,"official":false,"method":"voronoi-polling-places","whole_municipality":false,"approx_coords_only":false},"geometry":{"type":"MultiPolygon","coordinates":[[[[-42.35273,-18.17401],[-42.3011,-18.1735],[-42.2511,-18.2333],[-42.2086,-18.244],[-42.1994,-18.2197],[-42.17725,-18.22289],[-42.31297,-18.14059],[-42.35273,-18.17401]]]]}},{"type":"Feature","properties":{"territory_id":"mg-3100609-zona-rural-resplendor","name":"Zona Rural - Resplendor","municipality_id":"mg-3100609","polling_places":1,"approx":true,"official":false,"method":"voronoi-polling-places","whole_municipality":false,"approx_coords_only":false},"geometry":{"type":"MultiPolygon","coordinates":[[[[-42.46451,-17.83485],[-42.38292,-17.86706],[-42.33144,-17.78125],[-42.3732,-17.7667],[-42.3758,-17.7996],[-42.4115,-17.7947],[-42.46451,-17.83485]]]]}},{"type":"Feature","properties":{"territory_id":"mg-3100609-zona-rural-ribeirao-dos-pegos","name":"Zona Rural - Ribeirão dos Pêgos","municipality_id":"mg-3100609","polling_places":1,"approx":true,"official":false,"method":"voronoi-polling-places","whole_municipality":false,"approx_coords_only":false},"geometry":{"type":"MultiPolygon","coordinates":[[[[-42.4152,-18.1001],[-42.3869,-18.1222],[-42.3623,-18.1741],[-42.35273,-18.17401],[-42.31297,-18.14059],[-42.31126,-18.13559],[-42.29932,-18.04273],[-42.41,-18.03559],[-42.4152,-18.1001]]]]}},{"type":"Feature","properties":{"territory_id":"mg-3100609-zona-rural-ribeirao-vermelho","name":"Zona Rural - Ribeirão Vermelho","municipality_id":"mg-3100609","polling_places":1,"approx":true,"official":false,"method":"voronoi-polling-places","whole_municipality":false,"approx_coords_only":false},"geometry":{"type":"MultiPolygon","coordinates":[[[[-42.4884,-17.8822],[-42.4866,-17.9266],[-42.4616,-17.9233],[-42.44907,-17.94837],[-42.38265,-17.86847],[-42.38292,-17.86706],[-42.46451,-17.83485],[-42.4655,-17.8356],[-42.4884,-17.8822]]]]}},{"type":"Feature","properties":{"territory_id":"mg-3100609-zona-rural-santo-antonio-do-suruby","name":"Zona Rural - Santo Antônio do Suruby","municipality_id":"mg-3100609","polling_places":1,"approx":true,"official":false,"method":"voronoi-polling-places","whole_municipality":false,"approx_coords_only":false},"geometry":{"type":"MultiPolygon","coordinates":[[[[-42.31297,-18.14059],[-42.17725,-18.22289],[-42.1494,-18.2269],[-42.0878,-18.2613],[-42.0661,-18.2614],[-42.0889,-18.2118],[-42.0479,-18.1952],[-42.0496,-18.1458],[-42.0605,-18.1037],[-42.06838,-18.09895],[-42.31126,-18.13559],[-42.31297,-18.14059]]]]}}]}