{"type":"FeatureCollection","features":[{"type":"Feature","properties":{"territory_id":"mg-3100807-centro","name":"Centro","municipality_id":"mg-3100807","polling_places":2,"approx":true,"official":false,"method":"voronoi-polling-places","whole_municipality":false,"approx_coords_only":false},"geometry":{"type":"MultiPolygon","coordinates":[[[[-45.44898,-20.90958],[-45.42191,-21.00126],[-45.41477,-21.00025],[-45.34791,-20.99729],[-45.361,-20.9574],[-45.3639,-20.9125],[-45.3816,-20.896],[-45.4312,-20.8912],[-45.44898,-20.90958]]]]}},{"type":"Feature","properties":{"territory_id":"mg-3100807-zona-rural","name":"Zona Rural","municipality_id":"mg-3100807","polling_places":2,"approx":true,"official":false,"method":"voronoi-polling-places","whole_municipality":false,"approx_coords_only":false},"geometry":{"type":"MultiPolygon","coordinates":[[[[-45.5372,-20.9378],[-45.5246,-20.9725],[-45.4687,-21.0212],[-45.4188,-21.0227],[-45.3944,-21.0778],[-45.3425,-21.0688],[-45.3423,-21.0144],[-45.34791,-20.99729],[-45.41477,-21.00025],[-45.42191,-21.00126],[-45.44898,-20.90958],[-45.4636,-20.9247],[-45.5372,-20.9378]]]]}}]}