{"type":"FeatureCollection","features":[{"type":"Feature","properties":{"territory_id":"mg-3100708-centro","name":"Centro","municipality_id":"mg-3100708","polling_places":1,"approx":true,"official":false,"method":"voronoi-polling-places","whole_municipality":true,"approx_coords_only":false},"geometry":{"type":"MultiPolygon","coordinates":[[[[-48.1545,-19.8828],[-48.1681,-19.9469],[-48.1272,-19.9843],[-48.1373,-20.0109],[-48.2034,-20.0455],[-48.1786,-20.0962],[-48.1055,-20.1464],[-48.0768,-20.1484],[-48.0202,-20.124],[-48.0011,-20.1013],[-47.9812,-20.0364],[-47.9944,-19.9935],[-48.0351,-19.9541],[-48.0092,-19.911],[-48.0146,-19.8952],[-48.068,-19.8527],[-48.1064,-19.8443],[-48.1545,-19.8828]]]]}}]}