{"type":"FeatureCollection","features":[{"type":"Feature","properties":{"territory_id":"mg-3100104-centro","name":"Centro","municipality_id":"mg-3100104","polling_places":2,"approx":true,"official":false,"method":"voronoi-polling-places","whole_municipality":false,"approx_coords_only":false},"geometry":{"type":"MultiPolygon","coordinates":[[[[-47.48241,-18.44974],[-47.4812,-18.4558],[-47.4534,-18.4673],[-47.4503,-18.5121],[-47.4151,-18.5323],[-47.3721,-18.5362],[-47.3412,-18.5606],[-47.3319,-18.5884],[-47.2967,-18.5532],[-47.3296,-18.5355],[-47.3326,-18.5048],[-47.32479,-18.48607],[-47.35563,-18.46602],[-47.39963,-18.42453],[-47.48241,-18.44974]]]]}},{"type":"Feature","properties":{"territory_id":"mg-3100104-zona-rural","name":"Zona Rural","municipality_id":"mg-3100104","polling_places":4,"approx":true,"official":false,"method":"voronoi-polling-places","whole_municipality":false,"approx_coords_only":false},"geometry":{"type":"MultiPolygon","coordinates":[[[[-47.6797,-18.3561],[-47.6471,-18.3524],[-47.5782,-18.408],[-47.5116,-18.3976],[-47.4885,-18.4192],[-47.48241,-18.44974],[-47.39963,-18.42453],[-47.35563,-18.46602],[-47.32479,-18.48607],[-47.3148,-18.4621],[-47.3129,-18.4227],[-47.3598,-18.3465],[-47.347,-18.3175],[-47.3812,-18.2617],[-47.3706,-18.224],[-47.4108,-18.2208],[-47.4298,-18.1652],[-47.4511,-18.1595],[-47.497,-18.199],[-47.5395,-18.2169],[-47.5675,-18.2111],[-47.607,-18.2462],[-47.6328,-18.2916],[-47.6102,-18.3157],[-47.6797,-18.3561]]]]}}]}