{"type":"FeatureCollection","features":[{"type":"Feature","properties":{"territory_id":"mg-3101631-centro","name":"Centro","municipality_id":"mg-3101631","polling_places":2,"approx":true,"official":false,"method":"voronoi-polling-places","whole_municipality":false,"approx_coords_only":false},"geometry":{"type":"MultiPolygon","coordinates":[[[[-43.8305,-21.1458],[-43.73371,-21.18194],[-43.73542,-21.12068],[-43.7606,-21.1109],[-43.8114,-21.113],[-43.8305,-21.1458]]]]}},{"type":"Feature","properties":{"territory_id":"mg-3101631-zona-rural","name":"Zona Rural","municipality_id":"mg-3101631","polling_places":3,"approx":true,"official":false,"method":"voronoi-polling-places","whole_municipality":false,"approx_coords_only":false},"geometry":{"type":"MultiPolygon","coordinates":[[[[-43.73542,-21.12068],[-43.73371,-21.18194],[-43.7148,-21.189],[-43.6068,-21.1295],[-43.6008,-21.1119],[-43.6313,-21.0953],[-43.659,-21.0917],[-43.6872,-21.121],[-43.7158,-21.1283],[-43.73542,-21.12068]]]]}}]}