{"type":"FeatureCollection","features":[{"type":"Feature","properties":{"territory_id":"mg-3101102-centro","name":"Centro","municipality_id":"mg-3101102","polling_places":3,"approx":true,"official":false,"method":"voronoi-polling-places","whole_municipality":false,"approx_coords_only":false},"geometry":{"type":"MultiPolygon","coordinates":[[[[-41.07421,-19.49108],[-41.06702,-19.49696],[-41.06297,-19.50345],[-41.06089,-19.49466],[-41.03546,-19.41076],[-41.02635,-19.38203],[-41.0336,-19.377],[-41.07421,-19.38883],[-41.07421,-19.49108]]]]}},{"type":"Feature","properties":{"territory_id":"mg-3101102-distrito-de-alto-capim","name":"Distrito de Alto Capim","municipality_id":"mg-3101102","polling_places":1,"approx":true,"official":false,"method":"voronoi-polling-places","whole_municipality":false,"approx_coords_only":false},"geometry":{"type":"MultiPolygon","coordinates":[[[[-41.32489,-19.8389],[-41.287,-19.8627],[-41.2979,-19.9376],[-41.2714,-19.9422],[-41.2445,-19.9373],[-41.2296,-19.907],[-41.187,-19.8915],[-41.184,-19.8488],[-41.1641,-19.8064],[-41.17168,-19.77812],[-41.32489,-19.8389]]]]}},{"type":"Feature","properties":{"territory_id":"mg-3101102-distrito-de-conceicao-do-capim","name":"Distrito de Conceição do Capim","municipality_id":"mg-3101102","polling_places":1,"approx":true,"official":false,"method":"voronoi-polling-places","whole_municipality":false,"approx_coords_only":false},"geometry":{"type":"MultiPolygon","coordinates":[[[[-41.29647,-19.5696],[-41.24934,-19.6155],[-41.12407,-19.64795],[-41.1086,-19.6395],[-41.10586,-19.62911],[-41.12,-19.59709],[-41.18718,-19.46584],[-41.22645,-19.48239],[-41.29647,-19.5696]]]]}},{"type":"Feature","properties":{"territory_id":"mg-3101102-distrito-de-expedicionario-alicio","name":"Distrito de Expedicionário Alício","municipality_id":"mg-3101102","polling_places":1,"approx":true,"official":false,"method":"voronoi-polling-places","whole_municipality":false,"approx_coords_only":false},"geometry":{"type":"MultiPolygon","coordinates":[[[[-41.38417,-19.66016],[-41.31013,-19.70078],[-41.30502,-19.70024],[-41.24934,-19.6155],[-41.29647,-19.5696],[-41.30475,-19.57033],[-41.38417,-19.66016]]]]}},{"type":"Feature","properties":{"territory_id":"mg-3101102-distrito-de-mundo-novo-de-minas","name":"Distrito de Mundo Novo de Minas","municipality_id":"mg-3101102","polling_places":1,"approx":true,"official":false,"method":"voronoi-polling-places","whole_municipality":false,"approx_coords_only":false},"geometry":{"type":"MultiPolygon","coordinates":[[[[-41.393,-19.7492],[-41.3588,-19.7623],[-41.33128,-19.81321],[-41.31013,-19.70078],[-41.38417,-19.66016],[-41.38627,-19.6604],[-41.3807,-19.7125],[-41.393,-19.7492]]],[[[-41.337,-19.8313],[-41.33493,-19.8326],[-41.33338,-19.82434],[-41.337,-19.8313]]]]}},{"type":"Feature","properties":{"territory_id":"mg-3101102-distrito-de-penha-capim","name":"Distrito de Penha Capim","municipality_id":"mg-3101102","polling_places":1,"approx":true,"official":false,"method":"voronoi-polling-places","whole_municipality":false,"approx_coords_only":false},"geometry":{"type":"MultiPolygon","coordinates":[[[[-41.30502,-19.70024],[-41.18896,-19.74204],[-41.1743,-19.7156],[-41.1685,-19.6722],[-41.12407,-19.64795],[-41.24934,-19.6155],[-41.30502,-19.70024]]]]}},{"type":"Feature","properties":{"territory_id":"mg-3101102-distrito-de-sao-sebastiao-da-vala","name":"Distrito de São Sebastião da Vala","municipality_id":"mg-3101102","polling_places":1,"approx":true,"official":false,"method":"voronoi-polling-places","whole_municipality":false,"approx_coords_only":false},"geometry":{"type":"MultiPolygon","coordinates":[[[[-41.33493,-19.8326],[-41.32489,-19.8389],[-41.17168,-19.77812],[-41.1746,-19.7672],[-41.1911,-19.7459],[-41.18896,-19.74204],[-41.30502,-19.70024],[-41.31013,-19.70078],[-41.33128,-19.81321],[-41.3294,-19.8167],[-41.33338,-19.82434],[-41.33493,-19.8326]]]]}},{"type":"Feature","properties":{"territory_id":"mg-3101102-distrito-de-tabauna","name":"Distrito de Tabauna","municipality_id":"mg-3101102","polling_places":1,"approx":true,"official":false,"method":"voronoi-polling-places","whole_municipality":false,"approx_coords_only":false},"geometry":{"type":"MultiPolygon","coordinates":[[[[-41.37504,-19.50525],[-41.30475,-19.57033],[-41.29647,-19.5696],[-41.22645,-19.48239],[-41.2566,-19.4951],[-41.2756,-19.4922],[-41.2961,-19.5005],[-41.3505,-19.49],[-41.37504,-19.50525]]]]}},{"type":"Feature","properties":{"territory_id":"mg-3101102-distrito-st-antonio-do-rio-doce","name":"Distrito Stº Antônio do Rio Doce","municipality_id":"mg-3101102","polling_places":1,"approx":true,"official":false,"method":"voronoi-polling-places","whole_municipality":false,"approx_coords_only":false},"geometry":{"type":"MultiPolygon","coordinates":[[[[-41.04857,-19.5768],[-41.0369,-19.5705],[-41.0405,-19.52129],[-41.04857,-19.5768]]],[[[-41.03969,-19.51572],[-40.9883,-19.5079],[-40.9447,-19.461],[-40.9664,-19.4236],[-41.02083,-19.38586],[-41.03969,-19.51572]]]]}},{"type":"Feature","properties":{"territory_id":"mg-3101102-igrejinha","name":"Igrejinha","municipality_id":"mg-3101102","polling_places":1,"approx":true,"official":false,"method":"voronoi-polling-places","whole_municipality":false,"approx_coords_only":false},"geometry":{"type":"MultiPolygon","coordinates":[[[[-41.18718,-19.46584],[-41.12,-19.59709],[-41.07421,-19.49108],[-41.07421,-19.38883],[-41.0837,-19.3916],[-41.1591,-19.454],[-41.18718,-19.46584]]]]}},{"type":"Feature","properties":{"territory_id":"mg-3101102-sao-jose-do-limoeiro","name":"São José do Limoeiro","municipality_id":"mg-3101102","polling_places":1,"approx":true,"official":false,"method":"voronoi-polling-places","whole_municipality":false,"approx_coords_only":false},"geometry":{"type":"MultiPolygon","coordinates":[[[[-41.4321,-19.5407],[-41.3817,-19.588],[-41.3639,-19.6318],[-41.3865,-19.6583],[-41.38627,-19.6604],[-41.38417,-19.66016],[-41.30475,-19.57033],[-41.37504,-19.50525],[-41.4321,-19.5407]]]]}},{"type":"Feature","properties":{"territory_id":"mg-3101102-triangulo","name":"Triângulo","municipality_id":"mg-3101102","polling_places":1,"approx":true,"official":false,"method":"voronoi-polling-places","whole_municipality":false,"approx_coords_only":false},"geometry":{"type":"MultiPolygon","coordinates":[[[[-41.06297,-19.50345],[-41.04935,-19.57722],[-41.04857,-19.5768],[-41.0405,-19.52129],[-41.0409,-19.5159],[-41.03969,-19.51572],[-41.02083,-19.38586],[-41.02635,-19.38203],[-41.03546,-19.41076],[-41.06089,-19.49466],[-41.06297,-19.50345]]]]}},{"type":"Feature","properties":{"territory_id":"mg-3101102-vila-fonseca","name":"Vila Fonseca","municipality_id":"mg-3101102","polling_places":1,"approx":true,"official":false,"method":"voronoi-polling-places","whole_municipality":false,"approx_coords_only":false},"geometry":{"type":"MultiPolygon","coordinates":[[[[-41.12,-19.59709],[-41.10586,-19.62911],[-41.0993,-19.6042],[-41.04935,-19.57722],[-41.06297,-19.50345],[-41.06702,-19.49696],[-41.07421,-19.49108],[-41.12,-19.59709]]]]}}]}