{"type":"FeatureCollection","features":[{"type":"Feature","properties":{"territory_id":"mg-3101805-centro","name":"Centro","municipality_id":"mg-3101805","polling_places":2,"approx":true,"official":false,"method":"voronoi-polling-places","whole_municipality":false,"approx_coords_only":false},"geometry":{"type":"MultiPolygon","coordinates":[[[[-42.1266,-19.025],[-42.0899,-19.0525],[-42.0538,-19.0445],[-41.97109,-18.99331],[-41.98156,-18.98954],[-42.0558,-18.95046],[-42.0909,-18.9738],[-42.0959,-19.0008],[-42.1266,-19.025]]]]}},{"type":"Feature","properties":{"territory_id":"mg-3101805-era-nova","name":"Era Nova","municipality_id":"mg-3101805","polling_places":1,"approx":true,"official":false,"method":"voronoi-polling-places","whole_municipality":false,"approx_coords_only":false},"geometry":{"type":"MultiPolygon","coordinates":[[[[-42.00506,-18.92935],[-41.95194,-18.9873],[-41.9375,-18.987],[-41.9373,-18.9831],[-41.8923,-18.9334],[-41.963,-18.9351],[-42.00506,-18.92935]]]]}},{"type":"Feature","properties":{"territory_id":"mg-3101805-vila-eugenio-franklin","name":"Vila Eugenio Franklin","municipality_id":"mg-3101805","polling_places":1,"approx":true,"official":false,"method":"voronoi-polling-places","whole_municipality":false,"approx_coords_only":false},"geometry":{"type":"MultiPolygon","coordinates":[[[[-42.0558,-18.95046],[-41.98156,-18.98954],[-41.97109,-18.99331],[-41.9617,-18.9875],[-41.95194,-18.9873],[-42.00506,-18.92935],[-42.0208,-18.9272],[-42.0558,-18.95046]]]]}}]}