{"type":"FeatureCollection","features":[{"type":"Feature","properties":{"territory_id":"mg-3101706-centro","name":"Centro","municipality_id":"mg-3101706","polling_places":2,"approx":true,"official":false,"method":"voronoi-polling-places","whole_municipality":false,"approx_coords_only":false},"geometry":{"type":"MultiPolygon","coordinates":[[[[-40.75359,-16.15438],[-40.69935,-16.16944],[-40.69551,-16.17051],[-40.69589,-16.17114],[-40.69828,-16.17718],[-40.69765,-16.17754],[-40.69331,-16.17714],[-40.69406,-16.1702],[-40.69357,-16.16981],[-40.69602,-16.16345],[-40.70536,-16.14928],[-40.75359,-16.15438]]]]}},{"type":"Feature","properties":{"territory_id":"mg-3101706-cidade-nova","name":"Cidade Nova","municipality_id":"mg-3101706","polling_places":2,"approx":true,"official":false,"method":"voronoi-polling-places","whole_municipality":false,"approx_coords_only":false},"geometry":{"type":"MultiPolygon","coordinates":[[[[-40.78843,-16.23999],[-40.78731,-16.26461],[-40.7733,-16.2748],[-40.7525,-16.2315],[-40.7075,-16.27],[-40.7223,-16.3029],[-40.6704,-16.3215],[-40.6449,-16.3711],[-40.6724,-16.4543],[-40.6354,-16.4417],[-40.6142,-16.3783],[-40.5689,-16.324],[-40.55,-16.2737],[-40.53136,-16.26438],[-40.66565,-16.19163],[-40.67159,-16.1889],[-40.67776,-16.18766],[-40.68838,-16.18471],[-40.69585,-16.18586],[-40.70385,-16.18973],[-40.72536,-16.20326],[-40.78843,-16.23999]]]]}},{"type":"Feature","properties":{"territory_id":"mg-3101706-corrego-da-prata","name":"Corrego da Prata","municipality_id":"mg-3101706","polling_places":1,"approx":true,"official":false,"method":"voronoi-polling-places","whole_municipality":false,"approx_coords_only":false},"geometry":{"type":"MultiPolygon","coordinates":[[[[-40.94504,-16.09435],[-40.89911,-16.25005],[-40.8654,-16.2366],[-40.8122,-16.2465],[-40.78731,-16.26461],[-40.78843,-16.23999],[-40.79546,-16.18316],[-40.91348,-16.03612],[-40.9124,-16.0452],[-40.9382,-16.0968],[-40.94504,-16.09435]]]]}},{"type":"Feature","properties":{"territory_id":"mg-3101706-corrego-do-meio","name":"Corrego do Meio","municipality_id":"mg-3101706","polling_places":1,"approx":true,"official":false,"method":"voronoi-polling-places","whole_municipality":false,"approx_coords_only":true},"geometry":{"type":"MultiPolygon","coordinates":[[[[-40.7536,-16.15438],[-40.75359,-16.15438],[-40.70536,-16.14928],[-40.67796,-16.14186],[-40.57721,-16.07991],[-40.64641,-15.97913],[-40.7536,-16.15438]]]]}},{"type":"Feature","properties":{"territory_id":"mg-3101706-distrito-de-pedra-grande","name":"Distrito de Pedra Grande","municipality_id":"mg-3101706","polling_places":1,"approx":true,"official":false,"method":"voronoi-polling-places","whole_municipality":false,"approx_coords_only":false},"geometry":{"type":"MultiPolygon","coordinates":[[[[-40.68445,-16.16188],[-40.66565,-16.19163],[-40.53136,-16.26438],[-40.5098,-16.2536],[-40.4686,-16.1953],[-40.46884,-16.19303],[-40.57721,-16.07991],[-40.67796,-16.14186],[-40.68445,-16.16188]]]]}},{"type":"Feature","properties":{"territory_id":"mg-3101706-joao-fazendeiro","name":"Joao Fazendeiro","municipality_id":"mg-3101706","polling_places":1,"approx":true,"official":false,"method":"voronoi-polling-places","whole_municipality":false,"approx_coords_only":false},"geometry":{"type":"MultiPolygon","coordinates":[[[[-40.79546,-16.18316],[-40.78843,-16.23999],[-40.72536,-16.20326],[-40.70385,-16.18973],[-40.69882,-16.17716],[-40.70225,-16.1757],[-40.76189,-16.16062],[-40.79546,-16.18316]]]]}},{"type":"Feature","properties":{"territory_id":"mg-3101706-pedro-gomes","name":"Pedro Gomes","municipality_id":"mg-3101706","polling_places":1,"approx":true,"official":false,"method":"voronoi-polling-places","whole_municipality":false,"approx_coords_only":false},"geometry":{"type":"MultiPolygon","coordinates":[[[[-40.69228,-16.17793],[-40.68838,-16.18471],[-40.67776,-16.18766],[-40.67159,-16.1889],[-40.68702,-16.17109],[-40.69228,-16.17793]]]]}},{"type":"Feature","properties":{"territory_id":"mg-3101706-planalto","name":"Planalto","municipality_id":"mg-3101706","polling_places":1,"approx":true,"official":false,"method":"voronoi-polling-places","whole_municipality":false,"approx_coords_only":false},"geometry":{"type":"MultiPolygon","coordinates":[[[[-40.68806,-16.16902],[-40.68702,-16.17109],[-40.67159,-16.1889],[-40.66565,-16.19163],[-40.68445,-16.16188],[-40.68623,-16.1649],[-40.68806,-16.16902]]]]}},{"type":"Feature","properties":{"territory_id":"mg-3101706-santo-antonio","name":"Santo Antonio","municipality_id":"mg-3101706","polling_places":2,"approx":true,"official":false,"method":"voronoi-polling-places","whole_municipality":false,"approx_coords_only":false},"geometry":{"type":"MultiPolygon","coordinates":[[[[-40.76189,-16.16062],[-40.70225,-16.1757],[-40.69882,-16.17716],[-40.69828,-16.17718],[-40.69589,-16.17114],[-40.69935,-16.17362],[-40.69935,-16.16944],[-40.75359,-16.15438],[-40.7536,-16.15438],[-40.76189,-16.16062]]]]}},{"type":"Feature","properties":{"territory_id":"mg-3101706-sao-francisco","name":"São Francisco","municipality_id":"mg-3101706","polling_places":2,"approx":true,"official":false,"method":"voronoi-polling-places","whole_municipality":false,"approx_coords_only":false},"geometry":{"type":"MultiPolygon","coordinates":[[[[-40.70536,-16.14928],[-40.69602,-16.16345],[-40.69357,-16.16981],[-40.68806,-16.16902],[-40.68623,-16.1649],[-40.68445,-16.16188],[-40.67796,-16.14186],[-40.70536,-16.14928]]]]}},{"type":"Feature","properties":{"territory_id":"mg-3101706-sao-jose-do-prata","name":"Sao Jose do Prata","municipality_id":"mg-3101706","polling_places":1,"approx":true,"official":false,"method":"voronoi-polling-places","whole_municipality":false,"approx_coords_only":false},"geometry":{"type":"MultiPolygon","coordinates":[[[[-40.9892,-16.2126],[-40.9625,-16.2575],[-40.9283,-16.2617],[-40.89911,-16.25005],[-40.94504,-16.09435],[-40.9698,-16.0855],[-40.9637,-16.1104],[-40.9891,-16.1442],[-40.9624,-16.1763],[-40.9892,-16.2126]]]]}},{"type":"Feature","properties":{"territory_id":"mg-3101706-tereza-cristina","name":"Tereza Cristina","municipality_id":"mg-3101706","polling_places":1,"approx":true,"official":false,"method":"voronoi-polling-places","whole_municipality":false,"approx_coords_only":false},"geometry":{"type":"MultiPolygon","coordinates":[[[[-40.69406,-16.1702],[-40.69331,-16.17714],[-40.69228,-16.17793],[-40.68702,-16.17109],[-40.68806,-16.16902],[-40.69357,-16.16981],[-40.69406,-16.1702]]]]}},{"type":"Feature","properties":{"territory_id":"mg-3101706-universitario","name":"Universitario","municipality_id":"mg-3101706","polling_places":2,"approx":true,"official":false,"method":"voronoi-polling-places","whole_municipality":false,"approx_coords_only":false},"geometry":{"type":"MultiPolygon","coordinates":[[[[-40.70385,-16.18973],[-40.69585,-16.18586],[-40.69765,-16.17754],[-40.69828,-16.17718],[-40.69882,-16.17716],[-40.70385,-16.18973]]],[[[-40.69935,-16.17362],[-40.69589,-16.17114],[-40.69551,-16.17051],[-40.69935,-16.16944],[-40.69935,-16.17362]]]]}},{"type":"Feature","properties":{"territory_id":"mg-3101706-zona-rural","name":"Zona Rural","municipality_id":"mg-3101706","polling_places":2,"approx":true,"official":false,"method":"voronoi-polling-places","whole_municipality":false,"approx_coords_only":false},"geometry":{"type":"MultiPolygon","coordinates":[[[[-41.0096,-15.8283],[-41.0042,-15.8626],[-40.964,-15.8841],[-40.9812,-15.9357],[-40.9627,-15.9574],[-40.9208,-15.9748],[-40.91348,-16.03612],[-40.79546,-16.18316],[-40.76189,-16.16062],[-40.7536,-16.15438],[-40.64641,-15.97913],[-40.65672,-15.95476],[-40.676,-16.0106],[-40.7097,-15.974],[-40.7176,-15.904],[-40.7278,-15.8952],[-40.7949,-15.8388],[-40.8409,-15.817],[-40.9018,-15.8332],[-40.9632,-15.8066],[-40.9925,-15.8382],[-41.0096,-15.8283]]],[[[-40.69765,-16.17754],[-40.69585,-16.18586],[-40.68838,-16.18471],[-40.69228,-16.17793],[-40.69331,-16.17714],[-40.69765,-16.17754]]]]}},{"type":"Feature","properties":{"territory_id":"mg-3101706-zona-rural-sapata","name":"Zona Rural Sapata","municipality_id":"mg-3101706","polling_places":1,"approx":true,"official":false,"method":"voronoi-polling-places","whole_municipality":false,"approx_coords_only":false},"geometry":{"type":"MultiPolygon","coordinates":[[[[-40.65672,-15.95476],[-40.64641,-15.97913],[-40.57721,-16.07991],[-40.46884,-16.19303],[-40.47,-16.1818],[-40.4158,-16.1207],[-40.4264,-16.0532],[-40.4609,-16.046],[-40.4908,-16.0148],[-40.4978,-15.9728],[-40.5198,-15.95],[-40.611,-15.9356],[-40.646,-15.9237],[-40.65672,-15.95476]]]]}}]}