{"type":"FeatureCollection","features":[{"type":"Feature","properties":{"territory_id":"mg-3101300-centro","name":"Centro","municipality_id":"mg-3101300","polling_places":1,"approx":true,"official":false,"method":"voronoi-polling-places","whole_municipality":true,"approx_coords_only":false},"geometry":{"type":"MultiPolygon","coordinates":[[[[-44.5599,-22.1598],[-44.5996,-22.1575],[-44.6552,-22.128],[-44.6795,-22.1351],[-44.7226,-22.1494],[-44.7198,-22.1792],[-44.7665,-22.2014],[-44.761,-22.2217],[-44.6066,-22.2255],[-44.5717,-22.201],[-44.5599,-22.1598]]]]}}]}