{"type":"FeatureCollection","features":[{"type":"Feature","properties":{"territory_id":"mg-3101003-centro","name":"Centro","municipality_id":"mg-3101003","polling_places":2,"approx":true,"official":false,"method":"voronoi-polling-places","whole_municipality":false,"approx_coords_only":false},"geometry":{"type":"MultiPolygon","coordinates":[[[[-41.69511,-15.80113],[-41.6568,-15.8122],[-41.6039,-15.7934],[-41.5906,-15.8571],[-41.6427,-15.8806],[-41.6515,-15.9014],[-41.6195,-15.9368],[-41.6336,-15.9654],[-41.6115,-15.9558],[-41.5874,-15.9026],[-41.5301,-15.9119],[-41.5192,-15.8793],[-41.4888,-15.8585],[-41.4633,-15.8813],[-41.4345,-15.8697],[-41.3836,-15.8122],[-41.3426,-15.8012],[-41.3809,-15.7363],[-41.428,-15.712],[-41.41518,-15.66578],[-41.45531,-15.65366],[-41.53354,-15.68004],[-41.56058,-15.68855],[-41.65268,-15.76562],[-41.667,-15.795],[-41.694,-15.8002],[-41.69511,-15.80113]]]]}},{"type":"Feature","properties":{"territory_id":"mg-3101003-comunidade-rural-bom-jardim","name":"Comunidade Rural Bom Jardim","municipality_id":"mg-3101003","polling_places":1,"approx":true,"official":false,"method":"voronoi-polling-places","whole_municipality":false,"approx_coords_only":false},"geometry":{"type":"MultiPolygon","coordinates":[[[[-41.7479,-15.5892],[-41.7127,-15.6112],[-41.669,-15.6169],[-41.6468,-15.6054],[-41.6032,-15.6347],[-41.6157,-15.6552],[-41.6726,-15.6675],[-41.6402,-15.7165],[-41.6435,-15.7468],[-41.65268,-15.76562],[-41.56058,-15.68855],[-41.55592,-15.59046],[-41.59374,-15.51989],[-41.6778,-15.5054],[-41.7044,-15.5089],[-41.6918,-15.5243],[-41.7134,-15.5761],[-41.7479,-15.5892]]],[[[-41.6966,-15.8007],[-41.69511,-15.80113],[-41.694,-15.8002],[-41.6966,-15.8007]]]]}},{"type":"Feature","properties":{"territory_id":"mg-3101003-distrito-de-campo-novo","name":"Distrito de Campo Novo","municipality_id":"mg-3101003","polling_places":1,"approx":true,"official":false,"method":"voronoi-polling-places","whole_municipality":false,"approx_coords_only":false},"geometry":{"type":"MultiPolygon","coordinates":[[[[-41.59374,-15.51989],[-41.55592,-15.59046],[-41.51159,-15.55239],[-41.52662,-15.51843],[-41.5282,-15.5179],[-41.5879,-15.5209],[-41.59374,-15.51989]]]]}},{"type":"Feature","properties":{"territory_id":"mg-3101003-distrito-de-itamarati","name":"Distrito de Itamarati","municipality_id":"mg-3101003","polling_places":1,"approx":true,"official":false,"method":"voronoi-polling-places","whole_municipality":false,"approx_coords_only":false},"geometry":{"type":"MultiPolygon","coordinates":[[[[-41.45926,-15.56676],[-41.45531,-15.65366],[-41.41518,-15.66578],[-41.413,-15.6579],[-41.4171,-15.6357],[-41.3422,-15.6386],[-41.3564,-15.5003],[-41.3619,-15.495],[-41.3643,-15.493],[-41.41161,-15.48402],[-41.45926,-15.56676]]]]}},{"type":"Feature","properties":{"territory_id":"mg-3101003-distrito-de-machado-mineiro","name":"Distrito de Machado Mineiro","municipality_id":"mg-3101003","polling_places":1,"approx":true,"official":false,"method":"voronoi-polling-places","whole_municipality":false,"approx_coords_only":false},"geometry":{"type":"MultiPolygon","coordinates":[[[[-41.52662,-15.51843],[-41.51159,-15.55239],[-41.45926,-15.56676],[-41.41161,-15.48402],[-41.4207,-15.4823],[-41.4468,-15.4873],[-41.5026,-15.5265],[-41.52662,-15.51843]]]]}},{"type":"Feature","properties":{"territory_id":"mg-3101003-distrito-de-moco","name":"Distrito de Mocó","municipality_id":"mg-3101003","polling_places":1,"approx":true,"official":false,"method":"voronoi-polling-places","whole_municipality":false,"approx_coords_only":false},"geometry":{"type":"MultiPolygon","coordinates":[[[[-41.56058,-15.68855],[-41.53354,-15.68004],[-41.45531,-15.65366],[-41.45926,-15.56676],[-41.51159,-15.55239],[-41.55592,-15.59046],[-41.56058,-15.68855]]]]}}]}