{"type":"FeatureCollection","features":[{"type":"Feature","properties":{"territory_id":"mg-3101201-campina","name":"Campina","municipality_id":"mg-3101201","polling_places":1,"approx":true,"official":false,"method":"voronoi-polling-places","whole_municipality":false,"approx_coords_only":false},"geometry":{"type":"MultiPolygon","coordinates":[[[[-44.6795,-22.1351],[-44.6552,-22.128],[-44.5996,-22.1575],[-44.59819,-22.15758],[-44.61096,-22.11264],[-44.67644,-22.11005],[-44.6795,-22.1351]]]]}},{"type":"Feature","properties":{"territory_id":"mg-3101201-centro","name":"Centro","municipality_id":"mg-3101201","polling_places":3,"approx":true,"official":false,"method":"voronoi-polling-places","whole_municipality":false,"approx_coords_only":false},"geometry":{"type":"MultiPolygon","coordinates":[[[[-44.68867,-21.99109],[-44.64327,-22.00622],[-44.61016,-22.01794],[-44.57476,-22.01271],[-44.5565,-21.9692],[-44.5663,-21.9404],[-44.5578,-21.9044],[-44.59333,-21.87437],[-44.6851,-21.98693],[-44.68867,-21.99109]]]]}},{"type":"Feature","properties":{"territory_id":"mg-3101201-guapiara","name":"Guapiara","municipality_id":"mg-3101201","polling_places":1,"approx":true,"official":false,"method":"voronoi-polling-places","whole_municipality":false,"approx_coords_only":false},"geometry":{"type":"MultiPolygon","coordinates":[[[[-44.61134,-22.06616],[-44.59679,-22.07717],[-44.54611,-22.05371],[-44.5468,-22.0526],[-44.5818,-22.0295],[-44.57476,-22.01271],[-44.61016,-22.01794],[-44.61134,-22.06616]]]]}},{"type":"Feature","properties":{"territory_id":"mg-3101201-nogueira","name":"Nogueira","municipality_id":"mg-3101201","polling_places":1,"approx":true,"official":false,"method":"voronoi-polling-places","whole_municipality":false,"approx_coords_only":false},"geometry":{"type":"MultiPolygon","coordinates":[[[[-44.61096,-22.11264],[-44.59819,-22.15758],[-44.5599,-22.1598],[-44.5408,-22.1286],[-44.53969,-22.12467],[-44.59615,-22.10393],[-44.61096,-22.11264]]]]}},{"type":"Feature","properties":{"territory_id":"mg-3101201-pedra-da-cangalha","name":"Pedra da Cangalha","municipality_id":"mg-3101201","polling_places":1,"approx":true,"official":false,"method":"voronoi-polling-places","whole_municipality":false,"approx_coords_only":false},"geometry":{"type":"MultiPolygon","coordinates":[[[[-44.67644,-22.11005],[-44.61096,-22.11264],[-44.59615,-22.10393],[-44.59679,-22.07717],[-44.61134,-22.06616],[-44.67434,-22.09286],[-44.67644,-22.11005]]]]}},{"type":"Feature","properties":{"territory_id":"mg-3101201-pedra-do-papagaio","name":"Pedra do Papagaio","municipality_id":"mg-3101201","polling_places":1,"approx":true,"official":false,"method":"voronoi-polling-places","whole_municipality":false,"approx_coords_only":false},"geometry":{"type":"MultiPolygon","coordinates":[[[[-44.71302,-22.00009],[-44.7102,-22.0044],[-44.6737,-22.0876],[-44.67434,-22.09286],[-44.61134,-22.06616],[-44.61016,-22.01794],[-44.64327,-22.00622],[-44.68867,-21.99109],[-44.71302,-22.00009]]]]}},{"type":"Feature","properties":{"territory_id":"mg-3101201-pinhal","name":"Pinhal","municipality_id":"mg-3101201","polling_places":1,"approx":true,"official":false,"method":"voronoi-polling-places","whole_municipality":false,"approx_coords_only":false},"geometry":{"type":"MultiPolygon","coordinates":[[[[-44.7553,-21.9355],[-44.71302,-22.00009],[-44.68867,-21.99109],[-44.6851,-21.98693],[-44.59333,-21.87437],[-44.6004,-21.8684],[-44.5817,-21.8364],[-44.6263,-21.8117],[-44.6458,-21.7741],[-44.6916,-21.7433],[-44.7242,-21.7645],[-44.7518,-21.8243],[-44.7543,-21.8571],[-44.7553,-21.9355]]]]}},{"type":"Feature","properties":{"territory_id":"mg-3101201-tamandua","name":"Tamanduá","municipality_id":"mg-3101201","polling_places":1,"approx":true,"official":false,"method":"voronoi-polling-places","whole_municipality":false,"approx_coords_only":false},"geometry":{"type":"MultiPolygon","coordinates":[[[[-44.59679,-22.07717],[-44.59615,-22.10393],[-44.53969,-22.12467],[-44.5279,-22.0828],[-44.54611,-22.05371],[-44.59679,-22.07717]]]]}}]}