{"type":"FeatureCollection","features":[{"type":"Feature","properties":{"territory_id":"mg-3101904-centro","name":"Centro","municipality_id":"mg-3101904","polling_places":1,"approx":true,"official":false,"method":"voronoi-polling-places","whole_municipality":false,"approx_coords_only":false},"geometry":{"type":"MultiPolygon","coordinates":[[[[-46.5282,-20.9306],[-46.4733,-20.9492],[-46.4574,-20.9737],[-46.4122,-20.962],[-46.39295,-20.97186],[-46.38946,-20.8617],[-46.39083,-20.86017],[-46.44458,-20.82626],[-46.469,-20.8855],[-46.5038,-20.9252],[-46.5282,-20.9306]]]]}},{"type":"Feature","properties":{"territory_id":"mg-3101904-rosario","name":"Rosário","municipality_id":"mg-3101904","polling_places":1,"approx":true,"official":false,"method":"voronoi-polling-places","whole_municipality":false,"approx_coords_only":false},"geometry":{"type":"MultiPolygon","coordinates":[[[[-46.39295,-20.97186],[-46.3583,-20.9896],[-46.34612,-20.97983],[-46.38079,-20.86233],[-46.38946,-20.8617],[-46.39295,-20.97186]]]]}},{"type":"Feature","properties":{"territory_id":"mg-3101904-sao-benedito","name":"São Benedito","municipality_id":"mg-3101904","polling_places":2,"approx":true,"official":false,"method":"voronoi-polling-places","whole_municipality":false,"approx_coords_only":false},"geometry":{"type":"MultiPolygon","coordinates":[[[[-46.44458,-20.82626],[-46.39083,-20.86017],[-46.38946,-20.8617],[-46.38079,-20.86233],[-46.37893,-20.85321],[-46.33301,-20.7255],[-46.3354,-20.713],[-46.3579,-20.6864],[-46.399,-20.6738],[-46.3808,-20.6929],[-46.4063,-20.7379],[-46.4122,-20.8064],[-46.4394,-20.8137],[-46.44458,-20.82626]]]]}},{"type":"Feature","properties":{"territory_id":"mg-3101904-vila-betania","name":"Vila Betânia","municipality_id":"mg-3101904","polling_places":1,"approx":true,"official":false,"method":"voronoi-polling-places","whole_municipality":false,"approx_coords_only":false},"geometry":{"type":"MultiPolygon","coordinates":[[[[-46.38079,-20.86233],[-46.34612,-20.97983],[-46.261,-20.9115],[-46.268,-20.866],[-46.2902,-20.8372],[-46.2956,-20.7872],[-46.3267,-20.7584],[-46.33301,-20.7255],[-46.37893,-20.85321],[-46.38079,-20.86233]]]]}}]}