{"type":"FeatureCollection","features":[{"type":"Feature","properties":{"territory_id":"mg-3102308-baixada","name":"Baixada","municipality_id":"mg-3102308","polling_places":1,"approx":true,"official":false,"method":"voronoi-polling-places","whole_municipality":false,"approx_coords_only":false},"geometry":{"type":"MultiPolygon","coordinates":[[[[-43.10746,-20.04668],[-43.06131,-20.10465],[-43.05455,-20.10964],[-43.04047,-20.05527],[-43.06829,-20.03468],[-43.0858,-20.0353],[-43.10746,-20.04668]]]]}},{"type":"Feature","properties":{"territory_id":"mg-3102308-barretos","name":"Barretos","municipality_id":"mg-3102308","polling_places":1,"approx":true,"official":false,"method":"voronoi-polling-places","whole_municipality":false,"approx_coords_only":false},"geometry":{"type":"MultiPolygon","coordinates":[[[[-43.29659,-20.06111],[-43.18162,-20.17535],[-43.16532,-20.17695],[-43.11775,-20.05208],[-43.1315,-20.0593],[-43.1832,-20.0411],[-43.2359,-20.0453],[-43.2644,-20.0641],[-43.288,-20.0536],[-43.29659,-20.06111]]]]}},{"type":"Feature","properties":{"territory_id":"mg-3102308-centro","name":"Centro","municipality_id":"mg-3102308","polling_places":1,"approx":true,"official":false,"method":"voronoi-polling-places","whole_municipality":false,"approx_coords_only":false},"geometry":{"type":"MultiPolygon","coordinates":[[[[-43.06131,-20.10465],[-43.05493,-20.11481],[-43.05455,-20.10964],[-43.06131,-20.10465]]]]}},{"type":"Feature","properties":{"territory_id":"mg-3102308-fonseca","name":"Fonseca","municipality_id":"mg-3102308","polling_places":1,"approx":true,"official":false,"method":"voronoi-polling-places","whole_municipality":false,"approx_coords_only":false},"geometry":{"type":"MultiPolygon","coordinates":[[[[-43.3556,-20.1967],[-43.292,-20.2142],[-43.2533,-20.189],[-43.2275,-20.2017],[-43.1923,-20.1743],[-43.18162,-20.17535],[-43.29659,-20.06111],[-43.3158,-20.0779],[-43.3451,-20.1397],[-43.3556,-20.1967]]]]}},{"type":"Feature","properties":{"territory_id":"mg-3102308-gaspar","name":"Gaspar","municipality_id":"mg-3102308","polling_places":1,"approx":true,"official":false,"method":"voronoi-polling-places","whole_municipality":false,"approx_coords_only":false},"geometry":{"type":"MultiPolygon","coordinates":[[[[-43.16532,-20.17695],[-43.1628,-20.1772],[-43.1509,-20.1664],[-43.0957,-20.1732],[-43.0597,-20.1893],[-43.04702,-20.17928],[-43.05493,-20.11481],[-43.06131,-20.10465],[-43.10746,-20.04668],[-43.11775,-20.05208],[-43.16532,-20.17695]]]]}},{"type":"Feature","properties":{"territory_id":"mg-3102308-major-ezequiel","name":"Major Ezequiel","municipality_id":"mg-3102308","polling_places":1,"approx":true,"official":false,"method":"voronoi-polling-places","whole_municipality":false,"approx_coords_only":false},"geometry":{"type":"MultiPolygon","coordinates":[[[[-43.06829,-20.03468],[-43.04047,-20.05527],[-42.97359,-20.09975],[-42.9588,-20.0821],[-42.9603,-20.0555],[-42.9275,-20.0349],[-42.9513,-20.0065],[-42.9744,-20.0177],[-43.0225,-20.0137],[-43.0378,-20.0336],[-43.06829,-20.03468]]]]}},{"type":"Feature","properties":{"territory_id":"mg-3102308-parte-alta","name":"Parte Alta","municipality_id":"mg-3102308","polling_places":1,"approx":true,"official":false,"method":"voronoi-polling-places","whole_municipality":false,"approx_coords_only":false},"geometry":{"type":"MultiPolygon","coordinates":[[[[-43.05493,-20.11481],[-43.04702,-20.17928],[-43.0269,-20.1634],[-42.97359,-20.09975],[-43.04047,-20.05527],[-43.05455,-20.10964],[-43.05493,-20.11481]]]]}}]}