{"type":"FeatureCollection","features":[{"type":"Feature","properties":{"territory_id":"mg-3102001-centro","name":"Centro","municipality_id":"mg-3102001","polling_places":2,"approx":true,"official":false,"method":"voronoi-polling-places","whole_municipality":false,"approx_coords_only":false},"geometry":{"type":"MultiPolygon","coordinates":[[[[-46.1721,-21.2363],[-46.1431,-21.25596],[-46.14101,-21.25512],[-46.13025,-21.25186],[-46.14754,-21.24585],[-46.1721,-21.2363]]]]}},{"type":"Feature","properties":{"territory_id":"mg-3102001-cruzeiro","name":"Cruzeiro","municipality_id":"mg-3102001","polling_places":3,"approx":true,"official":false,"method":"voronoi-polling-places","whole_municipality":false,"approx_coords_only":false},"geometry":{"type":"MultiPolygon","coordinates":[[[[-46.3493,-21.1794],[-46.3339,-21.2031],[-46.2929,-21.2177],[-46.2598,-21.2567],[-46.2405,-21.2566],[-46.1495,-21.2945],[-46.1178,-21.3211],[-46.0555,-21.3079],[-46.02418,-21.26011],[-46.13025,-21.25186],[-46.14101,-21.25512],[-46.1431,-21.25596],[-46.1721,-21.2363],[-46.30775,-21.17031],[-46.32,-21.1838],[-46.3493,-21.1794]]]]}},{"type":"Feature","properties":{"territory_id":"mg-3102001-jardim-das-orquideas","name":"Jardim das Orquideas","municipality_id":"mg-3102001","polling_places":1,"approx":true,"official":false,"method":"voronoi-polling-places","whole_municipality":false,"approx_coords_only":false},"geometry":{"type":"MultiPolygon","coordinates":[[[[-46.30775,-21.17031],[-46.1721,-21.2363],[-46.14754,-21.24585],[-46.13025,-21.25186],[-46.02418,-21.26011],[-46.01842,-21.25131],[-46.16377,-21.1794],[-46.1766,-21.1969],[-46.2923,-21.1533],[-46.30775,-21.17031]]]]}},{"type":"Feature","properties":{"territory_id":"mg-3102001-por-do-sol-cavacos","name":"Por do Sol - Cavacos","municipality_id":"mg-3102001","polling_places":1,"approx":true,"official":false,"method":"voronoi-polling-places","whole_municipality":false,"approx_coords_only":false},"geometry":{"type":"MultiPolygon","coordinates":[[[[-46.16377,-21.1794],[-46.01842,-21.25131],[-46.0171,-21.2493],[-46.0447,-21.2152],[-46.0437,-21.1922],[-46.0701,-21.147],[-46.1455,-21.1545],[-46.16377,-21.1794]]]]}}]}