{"type":"FeatureCollection","features":[{"type":"Feature","properties":{"territory_id":"mg-3102209-alvarenguinha-dos-mutucas-i","name":"Alvarenguinha dos Mutucas I","municipality_id":"mg-3102209","polling_places":1,"approx":true,"official":false,"method":"voronoi-polling-places","whole_municipality":false,"approx_coords_only":false},"geometry":{"type":"MultiPolygon","coordinates":[[[[-41.76963,-19.4672],[-41.69554,-19.45753],[-41.69593,-19.44723],[-41.75976,-19.42652],[-41.76482,-19.42497],[-41.76963,-19.4672]]]]}},{"type":"Feature","properties":{"territory_id":"mg-3102209-barra-mansa","name":"Barra Mansa","municipality_id":"mg-3102209","polling_places":1,"approx":true,"official":false,"method":"voronoi-polling-places","whole_municipality":false,"approx_coords_only":false},"geometry":{"type":"MultiPolygon","coordinates":[[[[-41.69593,-19.44723],[-41.69554,-19.45753],[-41.68616,-19.48202],[-41.6636,-19.4547],[-41.6375,-19.4179],[-41.60426,-19.43404],[-41.64244,-19.38185],[-41.67913,-19.39729],[-41.68447,-19.41274],[-41.69593,-19.44723]]]]}},{"type":"Feature","properties":{"territory_id":"mg-3102209-centro","name":"Centro","municipality_id":"mg-3102209","polling_places":2,"approx":true,"official":false,"method":"voronoi-polling-places","whole_municipality":false,"approx_coords_only":false},"geometry":{"type":"MultiPolygon","coordinates":[[[[-41.77045,-19.40754],[-41.76482,-19.42497],[-41.75976,-19.42652],[-41.69593,-19.44723],[-41.68447,-19.41274],[-41.67913,-19.39729],[-41.74995,-19.36693],[-41.7677,-19.4065],[-41.77045,-19.40754]]]]}},{"type":"Feature","properties":{"territory_id":"mg-3102209-comunidade-dos-pinhanos","name":"Comunidade dos Pinhanos","municipality_id":"mg-3102209","polling_places":1,"approx":true,"official":false,"method":"voronoi-polling-places","whole_municipality":false,"approx_coords_only":false},"geometry":{"type":"MultiPolygon","coordinates":[[[[-41.7796,-19.48561],[-41.7582,-19.508],[-41.7001,-19.4989],[-41.68616,-19.48202],[-41.69554,-19.45753],[-41.76963,-19.4672],[-41.7796,-19.48561]]]]}},{"type":"Feature","properties":{"territory_id":"mg-3102209-corrego-sobreiro","name":"Corrego Sobreiro","municipality_id":"mg-3102209","polling_places":1,"approx":true,"official":false,"method":"voronoi-polling-places","whole_municipality":false,"approx_coords_only":false},"geometry":{"type":"MultiPolygon","coordinates":[[[[-41.8228,-19.4273],[-41.8078,-19.4561],[-41.7796,-19.48561],[-41.76963,-19.4672],[-41.76482,-19.42497],[-41.77045,-19.40754],[-41.8228,-19.4273]]]]}},{"type":"Feature","properties":{"territory_id":"mg-3102209-vista-alegre","name":"Vista Alegre","municipality_id":"mg-3102209","polling_places":1,"approx":true,"official":false,"method":"voronoi-polling-places","whole_municipality":false,"approx_coords_only":false},"geometry":{"type":"MultiPolygon","coordinates":[[[[-41.64244,-19.38185],[-41.60426,-19.43404],[-41.586,-19.4429],[-41.5725,-19.4342],[-41.5611,-19.3734],[-41.57,-19.3442],[-41.63669,-19.36641],[-41.64244,-19.38185]]]]}},{"type":"Feature","properties":{"territory_id":"mg-3102209-zona-rural","name":"Zona Rural","municipality_id":"mg-3102209","polling_places":1,"approx":true,"official":false,"method":"voronoi-polling-places","whole_municipality":false,"approx_coords_only":false},"geometry":{"type":"MultiPolygon","coordinates":[[[[-41.74995,-19.36693],[-41.67913,-19.39729],[-41.64244,-19.38185],[-41.63669,-19.36641],[-41.6778,-19.3801],[-41.7037,-19.3323],[-41.7459,-19.3579],[-41.74995,-19.36693]]]]}}]}