{"type":"FeatureCollection","features":[{"type":"Feature","properties":{"territory_id":"mg-3102407-centro","name":"Centro","municipality_id":"mg-3102407","polling_places":2,"approx":true,"official":false,"method":"voronoi-polling-places","whole_municipality":false,"approx_coords_only":false},"geometry":{"type":"MultiPolygon","coordinates":[[[[-43.41177,-18.73958],[-43.36382,-18.80726],[-43.33795,-18.79963],[-43.29693,-18.68785],[-43.3364,-18.6718],[-43.3765,-18.6954],[-43.41177,-18.73958]]]]}},{"type":"Feature","properties":{"territory_id":"mg-3102407-rua-do-rosario","name":"Rua do Rosário","municipality_id":"mg-3102407","polling_places":1,"approx":true,"official":false,"method":"voronoi-polling-places","whole_municipality":false,"approx_coords_only":false},"geometry":{"type":"MultiPolygon","coordinates":[[[[-43.5181,-18.7783],[-43.4846,-18.8104],[-43.4638,-18.8104],[-43.4535,-18.8635],[-43.4273,-18.881],[-43.41825,-18.87649],[-43.36382,-18.80726],[-43.41177,-18.73958],[-43.4256,-18.7569],[-43.4938,-18.7465],[-43.5181,-18.7783]]]]}},{"type":"Feature","properties":{"territory_id":"mg-3102407-sao-jose-do-jassem","name":"Sao José do Jassem","municipality_id":"mg-3102407","polling_places":1,"approx":true,"official":false,"method":"voronoi-polling-places","whole_municipality":false,"approx_coords_only":false},"geometry":{"type":"MultiPolygon","coordinates":[[[[-43.41825,-18.87649],[-43.3793,-18.8571],[-43.3078,-18.8678],[-43.3257,-18.814],[-43.31411,-18.81077],[-43.33795,-18.79963],[-43.36382,-18.80726],[-43.41825,-18.87649]]]]}},{"type":"Feature","properties":{"territory_id":"mg-3102407-zona-rural","name":"Zona Rural","municipality_id":"mg-3102407","polling_places":1,"approx":true,"official":false,"method":"voronoi-polling-places","whole_municipality":false,"approx_coords_only":false},"geometry":{"type":"MultiPolygon","coordinates":[[[[-43.33795,-18.79963],[-43.31411,-18.81077],[-43.2655,-18.7972],[-43.2466,-18.7722],[-43.2291,-18.7421],[-43.2941,-18.689],[-43.29693,-18.68785],[-43.33795,-18.79963]]]]}}]}