{"type":"FeatureCollection","features":[{"type":"Feature","properties":{"territory_id":"mg-3102100-abreus","name":"Abreus","municipality_id":"mg-3102100","polling_places":1,"approx":true,"official":false,"method":"voronoi-polling-places","whole_municipality":false,"approx_coords_only":false},"geometry":{"type":"MultiPolygon","coordinates":[[[[-43.36448,-20.96599],[-43.33821,-21.08252],[-43.33491,-21.08511],[-43.2717,-21.0583],[-43.2434,-21.0835],[-43.233,-21.0478],[-43.2557,-21.0108],[-43.2391,-20.969],[-43.2906,-20.9551],[-43.3245,-20.9787],[-43.3474,-20.9496],[-43.36448,-20.96599]]]]}},{"type":"Feature","properties":{"territory_id":"mg-3102100-arco-verde","name":"Arco Verde","municipality_id":"mg-3102100","polling_places":1,"approx":true,"official":false,"method":"voronoi-polling-places","whole_municipality":false,"approx_coords_only":false},"geometry":{"type":"MultiPolygon","coordinates":[[[[-43.50051,-21.10623],[-43.498,-21.115],[-43.4172,-21.1581],[-43.3639,-21.1518],[-43.3528,-21.0927],[-43.33491,-21.08511],[-43.33821,-21.08252],[-43.45065,-21.08559],[-43.4689,-21.08658],[-43.50051,-21.10623]]]]}},{"type":"Feature","properties":{"territory_id":"mg-3102100-centro","name":"Centro","municipality_id":"mg-3102100","polling_places":2,"approx":true,"official":false,"method":"voronoi-polling-places","whole_municipality":false,"approx_coords_only":false},"geometry":{"type":"MultiPolygon","coordinates":[[[[-43.4689,-21.08658],[-43.45065,-21.08559],[-43.33821,-21.08252],[-43.36448,-20.96599],[-43.3749,-20.976],[-43.4193,-20.9779],[-43.43969,-20.96261],[-43.4689,-21.08658]]]]}},{"type":"Feature","properties":{"territory_id":"mg-3102100-missionarios","name":"Missionarios","municipality_id":"mg-3102100","polling_places":1,"approx":true,"official":false,"method":"voronoi-polling-places","whole_municipality":false,"approx_coords_only":false},"geometry":{"type":"MultiPolygon","coordinates":[[[[-43.52614,-21.02409],[-43.5124,-21.0646],[-43.50051,-21.10623],[-43.4689,-21.08658],[-43.43969,-20.96261],[-43.4705,-20.9395],[-43.49229,-20.93871],[-43.52614,-21.02409]]]]}},{"type":"Feature","properties":{"territory_id":"mg-3102100-vitorinos","name":"Vitorinos","municipality_id":"mg-3102100","polling_places":1,"approx":true,"official":false,"method":"voronoi-polling-places","whole_municipality":false,"approx_coords_only":false},"geometry":{"type":"MultiPolygon","coordinates":[[[[-43.5809,-20.9494],[-43.5358,-20.9956],[-43.52614,-21.02409],[-43.49229,-20.93871],[-43.5227,-20.9376],[-43.5809,-20.9494]]]]}}]}