{"type":"FeatureCollection","features":[{"type":"Feature","properties":{"territory_id":"mg-3102506-centro","name":"Centro","municipality_id":"mg-3102506","polling_places":1,"approx":true,"official":false,"method":"voronoi-polling-places","whole_municipality":false,"approx_coords_only":false},"geometry":{"type":"MultiPolygon","coordinates":[[[[-42.86895,-20.53589],[-42.82118,-20.54794],[-42.76943,-20.45363],[-42.7737,-20.4529],[-42.8406,-20.4877],[-42.8688,-20.5309],[-42.86895,-20.53589]]]]}},{"type":"Feature","properties":{"territory_id":"mg-3102506-conceicao","name":"Conceição","municipality_id":"mg-3102506","polling_places":1,"approx":true,"official":false,"method":"voronoi-polling-places","whole_municipality":false,"approx_coords_only":false},"geometry":{"type":"MultiPolygon","coordinates":[[[[-42.82118,-20.54794],[-42.77921,-20.56166],[-42.7279,-20.5396],[-42.7244,-20.5202],[-42.7574,-20.4557],[-42.76943,-20.45363],[-42.82118,-20.54794]]]]}},{"type":"Feature","properties":{"territory_id":"mg-3102506-zona-rural","name":"Zona Rural","municipality_id":"mg-3102506","polling_places":1,"approx":true,"official":false,"method":"voronoi-polling-places","whole_municipality":false,"approx_coords_only":false},"geometry":{"type":"MultiPolygon","coordinates":[[[[-42.8697,-20.5605],[-42.8012,-20.606],[-42.7793,-20.5617],[-42.77921,-20.56166],[-42.82118,-20.54794],[-42.86895,-20.53589],[-42.8697,-20.5605]]]]}}]}