{"type":"FeatureCollection","features":[{"type":"Feature","properties":{"territory_id":"mg-3102605-alto-alegre","name":"Alto Alegre","municipality_id":"mg-3102605","polling_places":3,"approx":true,"official":false,"method":"voronoi-polling-places","whole_municipality":false,"approx_coords_only":false},"geometry":{"type":"MultiPolygon","coordinates":[[[[-46.57138,-22.06702],[-46.56768,-22.07281],[-46.5414,-22.09792],[-46.53728,-22.10038],[-46.51596,-22.11407],[-46.47581,-22.05514],[-46.56518,-22.06238],[-46.56916,-22.06451],[-46.57067,-22.06454],[-46.57103,-22.06597],[-46.57138,-22.06702]]]]}},{"type":"Feature","properties":{"territory_id":"mg-3102605-centro","name":"Centro","municipality_id":"mg-3102605","polling_places":3,"approx":true,"official":false,"method":"voronoi-polling-places","whole_municipality":false,"approx_coords_only":false},"geometry":{"type":"MultiPolygon","coordinates":[[[[-46.57825,-22.0688],[-46.57698,-22.07254],[-46.57695,-22.07269],[-46.57224,-22.07886],[-46.56716,-22.085],[-46.5414,-22.09792],[-46.56768,-22.07281],[-46.57138,-22.06702],[-46.57383,-22.0683],[-46.57825,-22.0688]]]]}},{"type":"Feature","properties":{"territory_id":"mg-3102605-distrito-de-graminea","name":"Distrito de Gramínea","municipality_id":"mg-3102605","polling_places":1,"approx":true,"official":false,"method":"voronoi-polling-places","whole_municipality":false,"approx_coords_only":false},"geometry":{"type":"MultiPolygon","coordinates":[[[[-46.7195,-22.0833],[-46.7001,-22.0951],[-46.67021,-22.09331],[-46.70019,-22.07822],[-46.7195,-22.0833]]],[[[-46.6456,-22.1806],[-46.5672,-22.1759],[-46.53542,-22.18482],[-46.53826,-22.16604],[-46.62133,-22.11923],[-46.613,-22.1503],[-46.6456,-22.1806]]]]}},{"type":"Feature","properties":{"territory_id":"mg-3102605-distrito-do-campestrinho","name":"Distrito do Campestrinho","municipality_id":"mg-3102605","polling_places":1,"approx":true,"official":false,"method":"voronoi-polling-places","whole_municipality":false,"approx_coords_only":false},"geometry":{"type":"MultiPolygon","coordinates":[[[[-46.53826,-22.16604],[-46.53542,-22.18482],[-46.533,-22.1855],[-46.4895,-22.1839],[-46.4302,-22.1484],[-46.4319,-22.1208],[-46.4526,-22.0945],[-46.4363,-22.0374],[-46.46039,-22.03409],[-46.47581,-22.05514],[-46.51596,-22.11407],[-46.53826,-22.16604]]]]}},{"type":"Feature","properties":{"territory_id":"mg-3102605-jardim-da-sovis","name":"Jardim da Sóvis","municipality_id":"mg-3102605","polling_places":1,"approx":true,"official":false,"method":"voronoi-polling-places","whole_municipality":false,"approx_coords_only":false},"geometry":{"type":"MultiPolygon","coordinates":[[[[-46.70019,-22.07822],[-46.67021,-22.09331],[-46.6468,-22.0919],[-46.63183,-22.1029],[-46.57619,-22.08329],[-46.58401,-22.07743],[-46.67156,-22.05856],[-46.6648,-22.0689],[-46.70019,-22.07822]]]]}},{"type":"Feature","properties":{"territory_id":"mg-3102605-jardim-nova-andradas","name":"Jardim Nova Andradas","municipality_id":"mg-3102605","polling_places":2,"approx":true,"official":false,"method":"voronoi-polling-places","whole_municipality":false,"approx_coords_only":false},"geometry":{"type":"MultiPolygon","coordinates":[[[[-46.58401,-22.07743],[-46.57619,-22.08329],[-46.56716,-22.085],[-46.57224,-22.07886],[-46.57695,-22.07269],[-46.58131,-22.07585],[-46.58401,-22.07743]]]]}},{"type":"Feature","properties":{"territory_id":"mg-3102605-jardim-primavera","name":"Jardim Primavera","municipality_id":"mg-3102605","polling_places":2,"approx":true,"official":false,"method":"voronoi-polling-places","whole_municipality":false,"approx_coords_only":false},"geometry":{"type":"MultiPolygon","coordinates":[[[[-46.64381,-22.00674],[-46.62481,-22.02274],[-46.57641,-22.05751],[-46.57006,-22.05902],[-46.56518,-22.06238],[-46.47581,-22.05514],[-46.46039,-22.03409],[-46.4691,-22.0329],[-46.5003,-22.0088],[-46.5148,-21.9654],[-46.5653,-21.9333],[-46.6027,-21.9587],[-46.6179,-21.995],[-46.64381,-22.00674]]]]}},{"type":"Feature","properties":{"territory_id":"mg-3102605-jardim-satelite","name":"Jardim Satélite","municipality_id":"mg-3102605","polling_places":1,"approx":true,"official":false,"method":"voronoi-polling-places","whole_municipality":false,"approx_coords_only":false},"geometry":{"type":"MultiPolygon","coordinates":[[[[-46.62481,-22.02274],[-46.57825,-22.0688],[-46.57383,-22.0683],[-46.57138,-22.06702],[-46.57103,-22.06597],[-46.57067,-22.06454],[-46.57641,-22.05751],[-46.62481,-22.02274]]]]}},{"type":"Feature","properties":{"territory_id":"mg-3102605-manoel-alves-dos-santos","name":"Manoel Alves dos Santos","municipality_id":"mg-3102605","polling_places":1,"approx":true,"official":false,"method":"voronoi-polling-places","whole_municipality":false,"approx_coords_only":false},"geometry":{"type":"MultiPolygon","coordinates":[[[[-46.57641,-22.05751],[-46.57067,-22.06454],[-46.56916,-22.06451],[-46.56518,-22.06238],[-46.57006,-22.05902],[-46.57641,-22.05751]]]]}},{"type":"Feature","properties":{"territory_id":"mg-3102605-vila-caracol","name":"Vila Caracol","municipality_id":"mg-3102605","polling_places":1,"approx":true,"official":false,"method":"voronoi-polling-places","whole_municipality":false,"approx_coords_only":false},"geometry":{"type":"MultiPolygon","coordinates":[[[[-46.6854,-22.0374],[-46.67156,-22.05856],[-46.58401,-22.07743],[-46.58131,-22.07585],[-46.57695,-22.07269],[-46.57698,-22.07254],[-46.57825,-22.0688],[-46.62481,-22.02274],[-46.64381,-22.00674],[-46.6499,-22.0095],[-46.6854,-22.0374]]]]}},{"type":"Feature","properties":{"territory_id":"mg-3102605-vila-leandro-previato","name":"Vila Leandro Previato","municipality_id":"mg-3102605","polling_places":1,"approx":true,"official":false,"method":"voronoi-polling-places","whole_municipality":false,"approx_coords_only":false},"geometry":{"type":"MultiPolygon","coordinates":[[[[-46.63183,-22.1029],[-46.6242,-22.1085],[-46.62133,-22.11923],[-46.53826,-22.16604],[-46.51596,-22.11407],[-46.53728,-22.10038],[-46.5414,-22.09792],[-46.56716,-22.085],[-46.57619,-22.08329],[-46.63183,-22.1029]]]]}}]}