{"type":"FeatureCollection","features":[{"type":"Feature","properties":{"territory_id":"mg-3102803-areao","name":"Areão","municipality_id":"mg-3102803","polling_places":1,"approx":true,"official":false,"method":"voronoi-polling-places","whole_municipality":false,"approx_coords_only":false},"geometry":{"type":"MultiPolygon","coordinates":[[[[-44.497,-21.7726],[-44.4924,-21.7898],[-44.4563,-21.7961],[-44.4407,-21.873],[-44.3986,-21.8664],[-44.3266,-21.8699],[-44.3188,-21.9246],[-44.2857,-21.9286],[-44.2706,-21.8937],[-44.2316,-21.8929],[-44.2281,-21.8443],[-44.21091,-21.83895],[-44.30391,-21.74713],[-44.31173,-21.7431],[-44.47876,-21.75326],[-44.497,-21.7726]]]]}},{"type":"Feature","properties":{"territory_id":"mg-3102803-centro","name":"Centro","municipality_id":"mg-3102803","polling_places":10,"approx":true,"official":false,"method":"voronoi-polling-places","whole_municipality":false,"approx_coords_only":false},"geometry":{"type":"MultiPolygon","coordinates":[[[[-44.47876,-21.75326],[-44.31173,-21.7431],[-44.30391,-21.74713],[-44.30588,-21.74224],[-44.30643,-21.73865],[-44.30642,-21.73712],[-44.30771,-21.73561],[-44.3087,-21.73235],[-44.31217,-21.73031],[-44.35877,-21.69482],[-44.3846,-21.7142],[-44.4208,-21.7124],[-44.4588,-21.7321],[-44.47876,-21.75326]]]]}},{"type":"Feature","properties":{"territory_id":"mg-3102803-rosario","name":"Rosário","municipality_id":"mg-3102803","polling_places":2,"approx":true,"official":false,"method":"voronoi-polling-places","whole_municipality":false,"approx_coords_only":false},"geometry":{"type":"MultiPolygon","coordinates":[[[[-44.3087,-21.73235],[-44.30771,-21.73561],[-44.30642,-21.73712],[-44.30643,-21.73865],[-44.30588,-21.74224],[-44.30391,-21.74713],[-44.21091,-21.83895],[-44.1744,-21.8276],[-44.1365,-21.8285],[-44.1209,-21.8037],[-44.0909,-21.7969],[-44.0713,-21.7305],[-44.07309,-21.71028],[-44.3087,-21.73235]]]]}},{"type":"Feature","properties":{"territory_id":"mg-3102803-santa-clara","name":"Santa Clara","municipality_id":"mg-3102803","polling_places":1,"approx":true,"official":false,"method":"voronoi-polling-places","whole_municipality":false,"approx_coords_only":false},"geometry":{"type":"MultiPolygon","coordinates":[[[[-44.3992,-21.6213],[-44.3557,-21.6564],[-44.349,-21.6875],[-44.35877,-21.69482],[-44.31217,-21.73031],[-44.3087,-21.73235],[-44.07309,-21.71028],[-44.0773,-21.6629],[-44.1367,-21.6563],[-44.1647,-21.6117],[-44.1636,-21.5894],[-44.1879,-21.5644],[-44.2208,-21.5668],[-44.2435,-21.6125],[-44.2706,-21.5767],[-44.3285,-21.5971],[-44.3864,-21.5861],[-44.3992,-21.6213]]]]}}]}