{"type":"FeatureCollection","features":[{"type":"Feature","properties":{"territory_id":"mg-3102050-agua-verde","name":"Água Verde","municipality_id":"mg-3102050","polling_places":1,"approx":true,"official":false,"method":"voronoi-polling-places","whole_municipality":false,"approx_coords_only":false},"geometry":{"type":"MultiPolygon","coordinates":[[[[-41.9625,-20.5045],[-41.9212,-20.5136],[-41.9143,-20.4881],[-41.8502,-20.4982],[-41.83466,-20.48886],[-41.87167,-20.44037],[-41.88791,-20.43266],[-41.9625,-20.5045]]]]}},{"type":"Feature","properties":{"territory_id":"mg-3102050-centro","name":"Centro","municipality_id":"mg-3102050","polling_places":2,"approx":true,"official":false,"method":"voronoi-polling-places","whole_municipality":false,"approx_coords_only":false},"geometry":{"type":"MultiPolygon","coordinates":[[[[-41.88791,-20.43266],[-41.87167,-20.44037],[-41.83466,-20.48886],[-41.8254,-20.4833],[-41.7995,-20.477],[-41.8034,-20.4222],[-41.8366,-20.4091],[-41.8728,-20.4181],[-41.88791,-20.43266]]]]}}]}