{"type":"FeatureCollection","features":[{"type":"Feature","properties":{"territory_id":"mg-3102852-centro","name":"Centro","municipality_id":"mg-3102852","polling_places":2,"approx":true,"official":false,"method":"voronoi-polling-places","whole_municipality":false,"approx_coords_only":false},"geometry":{"type":"MultiPolygon","coordinates":[[[[-42.29824,-17.72984],[-42.27958,-17.74743],[-42.26581,-17.71965],[-42.2513,-17.78322],[-42.2143,-17.771],[-42.2135,-17.7396],[-42.2345,-17.6768],[-42.23981,-17.67088],[-42.25994,-17.69842],[-42.29824,-17.72984]]]]}},{"type":"Feature","properties":{"territory_id":"mg-3102852-esplanada","name":"Esplanada","municipality_id":"mg-3102852","polling_places":1,"approx":true,"official":false,"method":"voronoi-polling-places","whole_municipality":false,"approx_coords_only":false},"geometry":{"type":"MultiPolygon","coordinates":[[[[-42.27958,-17.74743],[-42.25854,-17.78561],[-42.2513,-17.78322],[-42.26581,-17.71965],[-42.27958,-17.74743]]]]}},{"type":"Feature","properties":{"territory_id":"mg-3102852-zona-rural-corrego-sao-benedito","name":"Zona Rural - Córrego São Benedito","municipality_id":"mg-3102852","polling_places":1,"approx":true,"official":false,"method":"voronoi-polling-places","whole_municipality":false,"approx_coords_only":false},"geometry":{"type":"MultiPolygon","coordinates":[[[[-42.3227,-17.7843],[-42.2667,-17.7883],[-42.25854,-17.78561],[-42.27958,-17.74743],[-42.29824,-17.72984],[-42.29969,-17.72957],[-42.2995,-17.7297],[-42.3227,-17.7843]]]]}},{"type":"Feature","properties":{"territory_id":"mg-3102852-zona-rural-santo-antonio-dos-moreiras","name":"Zona Rural - Santo Antônio dos Moreiras","municipality_id":"mg-3102852","polling_places":1,"approx":true,"official":false,"method":"voronoi-polling-places","whole_municipality":false,"approx_coords_only":false},"geometry":{"type":"MultiPolygon","coordinates":[[[[-42.369,-17.6802],[-42.34973,-17.69393],[-42.25702,-17.6517],[-42.2572,-17.6515],[-42.2509,-17.6152],[-42.2882,-17.5957],[-42.2827,-17.6322],[-42.3273,-17.6367],[-42.369,-17.6802]]]]}},{"type":"Feature","properties":{"territory_id":"mg-3102852-zona-rural-timirim-sape","name":"Zona Rural - Timirim/sape","municipality_id":"mg-3102852","polling_places":1,"approx":true,"official":false,"method":"voronoi-polling-places","whole_municipality":false,"approx_coords_only":false},"geometry":{"type":"MultiPolygon","coordinates":[[[[-42.34973,-17.69393],[-42.29969,-17.72957],[-42.29824,-17.72984],[-42.25994,-17.69842],[-42.23981,-17.67088],[-42.25702,-17.6517],[-42.34973,-17.69393]]]]}}]}