{"type":"FeatureCollection","features":[{"type":"Feature","properties":{"territory_id":"mg-3102704-centro","name":"Centro","municipality_id":"mg-3102704","polling_places":3,"approx":true,"official":false,"method":"voronoi-polling-places","whole_municipality":false,"approx_coords_only":false},"geometry":{"type":"MultiPolygon","coordinates":[[[[-41.60347,-15.93807],[-41.57779,-15.9791],[-41.55258,-16.02127],[-41.4466,-16.03062],[-41.42442,-15.99619],[-41.4323,-15.9781],[-41.45482,-15.92177],[-41.51761,-15.87821],[-41.5192,-15.8793],[-41.5301,-15.9119],[-41.5874,-15.9026],[-41.60347,-15.93807]]]]}},{"type":"Feature","properties":{"territory_id":"mg-3102704-distrito-de-aguas-altas","name":"Distrito de Águas Altas","municipality_id":"mg-3102704","polling_places":1,"approx":true,"official":false,"method":"voronoi-polling-places","whole_municipality":false,"approx_coords_only":false},"geometry":{"type":"MultiPolygon","coordinates":[[[[-41.45482,-15.92177],[-41.4323,-15.9781],[-41.42442,-15.99619],[-41.4013,-15.9603],[-41.301,-15.9254],[-41.2751,-15.8638],[-41.2928,-15.8445],[-41.32224,-15.84194],[-41.45482,-15.92177]]]]}},{"type":"Feature","properties":{"territory_id":"mg-3102704-distrito-de-cateriangongo","name":"Distrito de Cateriangongo","municipality_id":"mg-3102704","polling_places":1,"approx":true,"official":false,"method":"voronoi-polling-places","whole_municipality":false,"approx_coords_only":false},"geometry":{"type":"MultiPolygon","coordinates":[[[[-41.56965,-16.07479],[-41.5458,-16.0657],[-41.5417,-16.1085],[-41.4774,-16.0917],[-41.4813,-16.0623],[-41.4574,-16.0474],[-41.4466,-16.03062],[-41.55258,-16.02127],[-41.56965,-16.07479]]]]}},{"type":"Feature","properties":{"territory_id":"mg-3102704-distrito-de-marcela","name":"Distrito de Marcela","municipality_id":"mg-3102704","polling_places":2,"approx":true,"official":false,"method":"voronoi-polling-places","whole_municipality":false,"approx_coords_only":false},"geometry":{"type":"MultiPolygon","coordinates":[[[[-41.7064,-16.0852],[-41.6818,-16.1109],[-41.618,-16.08],[-41.5941,-16.0841],[-41.56965,-16.07479],[-41.55258,-16.02127],[-41.57779,-15.9791],[-41.60347,-15.93807],[-41.6115,-15.9558],[-41.6336,-15.9654],[-41.6627,-16.02],[-41.7002,-16.037],[-41.7064,-16.0852]]]]}},{"type":"Feature","properties":{"territory_id":"mg-3102704-distrito-de-tancredo-neves","name":"Distrito de Tancredo Neves","municipality_id":"mg-3102704","polling_places":1,"approx":true,"official":false,"method":"voronoi-polling-places","whole_municipality":false,"approx_coords_only":false},"geometry":{"type":"MultiPolygon","coordinates":[[[[-41.51761,-15.87821],[-41.45482,-15.92177],[-41.32224,-15.84194],[-41.3273,-15.8415],[-41.3836,-15.8122],[-41.4345,-15.8697],[-41.4633,-15.8813],[-41.4888,-15.8585],[-41.51761,-15.87821]]]]}}]}