{"type":"FeatureCollection","features":[{"type":"Feature","properties":{"territory_id":"mg-3102902-campolide","name":"Campolide","municipality_id":"mg-3102902","polling_places":2,"approx":true,"official":false,"method":"voronoi-polling-places","whole_municipality":false,"approx_coords_only":false},"geometry":{"type":"MultiPolygon","coordinates":[[[[-43.85079,-21.37086],[-43.81532,-21.35537],[-43.80626,-21.33805],[-43.78946,-21.29963],[-43.78947,-21.29858],[-43.78967,-21.27908],[-43.7912,-21.2763],[-43.82692,-21.2832],[-43.85079,-21.37086]]]]}},{"type":"Feature","properties":{"territory_id":"mg-3102902-centro","name":"Centro","municipality_id":"mg-3102902","polling_places":6,"approx":true,"official":false,"method":"voronoi-polling-places","whole_municipality":false,"approx_coords_only":false},"geometry":{"type":"MultiPolygon","coordinates":[[[[-43.83556,-21.47478],[-43.8234,-21.5092],[-43.8146,-21.5262],[-43.75256,-21.53076],[-43.75256,-21.42014],[-43.83556,-21.47478]]],[[[-43.75275,-21.31988],[-43.75146,-21.31955],[-43.75089,-21.31979],[-43.75032,-21.32003],[-43.75002,-21.31747],[-43.74914,-21.31617],[-43.74829,-21.31954],[-43.74827,-21.32093],[-43.74743,-21.32331],[-43.74638,-21.3241],[-43.7427,-21.31679],[-43.73306,-21.30181],[-43.74201,-21.30067],[-43.74905,-21.30172],[-43.74991,-21.30172],[-43.75275,-21.31988]]],[[[-43.74472,-21.32743],[-43.7388,-21.34314],[-43.69053,-21.33242],[-43.7102,-21.3047],[-43.73211,-21.30193],[-43.74472,-21.32743]]]]}},{"type":"Feature","properties":{"territory_id":"mg-3102902-curral-novo","name":"Curral Novo","municipality_id":"mg-3102902","polling_places":2,"approx":true,"official":false,"method":"voronoi-polling-places","whole_municipality":false,"approx_coords_only":false},"geometry":{"type":"MultiPolygon","coordinates":[[[[-43.8872,-21.38686],[-43.8572,-21.4135],[-43.83556,-21.47478],[-43.75256,-21.42014],[-43.73061,-21.40568],[-43.78001,-21.36407],[-43.81532,-21.35537],[-43.85079,-21.37086],[-43.8872,-21.38686]]],[[[-43.75592,-21.32283],[-43.75089,-21.32311],[-43.75089,-21.31979],[-43.75146,-21.31955],[-43.75275,-21.31988],[-43.75592,-21.32283]]]]}},{"type":"Feature","properties":{"territory_id":"mg-3102902-dr-sa-fortes","name":"Dr. Sa Fortes","municipality_id":"mg-3102902","polling_places":2,"approx":true,"official":false,"method":"voronoi-polling-places","whole_municipality":false,"approx_coords_only":false},"geometry":{"type":"MultiPolygon","coordinates":[[[[-43.78967,-21.27908],[-43.78947,-21.29858],[-43.78946,-21.29963],[-43.74991,-21.30172],[-43.74905,-21.30172],[-43.74201,-21.30067],[-43.7805,-21.2958],[-43.78967,-21.27908]]]]}},{"type":"Feature","properties":{"territory_id":"mg-3102902-sagrada-familia","name":"Sagrada Familia","municipality_id":"mg-3102902","polling_places":2,"approx":true,"official":false,"method":"voronoi-polling-places","whole_municipality":false,"approx_coords_only":false},"geometry":{"type":"MultiPolygon","coordinates":[[[[-43.81532,-21.35537],[-43.78001,-21.36407],[-43.7388,-21.34314],[-43.74472,-21.32743],[-43.73211,-21.30193],[-43.73306,-21.30181],[-43.7427,-21.31679],[-43.74638,-21.3241],[-43.74743,-21.32331],[-43.75089,-21.32311],[-43.75592,-21.32283],[-43.80626,-21.33805],[-43.81532,-21.35537]]]]}},{"type":"Feature","properties":{"territory_id":"mg-3102902-zona-rural","name":"Zona Rural","municipality_id":"mg-3102902","polling_places":9,"approx":true,"official":false,"method":"voronoi-polling-places","whole_municipality":false,"approx_coords_only":false},"geometry":{"type":"MultiPolygon","coordinates":[[[[-43.8911,-21.3834],[-43.8872,-21.38686],[-43.85079,-21.37086],[-43.82692,-21.2832],[-43.8611,-21.2898],[-43.8859,-21.322],[-43.8802,-21.3531],[-43.8911,-21.3834]]],[[[-43.80626,-21.33805],[-43.75592,-21.32283],[-43.75275,-21.31988],[-43.74991,-21.30172],[-43.78946,-21.29963],[-43.80626,-21.33805]]],[[[-43.78001,-21.36407],[-43.73061,-21.40568],[-43.75256,-21.42014],[-43.75256,-21.53076],[-43.7397,-21.5317],[-43.7061,-21.5853],[-43.6822,-21.5704],[-43.6854,-21.5293],[-43.6489,-21.4975],[-43.6731,-21.4635],[-43.6771,-21.4322],[-43.7096,-21.4133],[-43.6873,-21.3849],[-43.6311,-21.3757],[-43.6809,-21.346],[-43.69053,-21.33242],[-43.7388,-21.34314],[-43.78001,-21.36407]]],[[[-43.75089,-21.32311],[-43.74743,-21.32331],[-43.74827,-21.32093],[-43.74829,-21.31954],[-43.74914,-21.31617],[-43.75002,-21.31747],[-43.75032,-21.32003],[-43.75089,-21.31979],[-43.75089,-21.32311]]]]}}]}