{"type":"FeatureCollection","features":[{"type":"Feature","properties":{"territory_id":"mg-3103751-centro","name":"Centro","municipality_id":"mg-3103751","polling_places":1,"approx":true,"official":false,"method":"voronoi-polling-places","whole_municipality":true,"approx_coords_only":false},"geometry":{"type":"MultiPolygon","coordinates":[[[[-49.2493,-18.5228],[-49.205,-18.5292],[-49.1726,-18.5642],[-49.1519,-18.5557],[-49.1146,-18.5311],[-49.0794,-18.545],[-49.0283,-18.5246],[-49.0047,-18.537],[-49.0428,-18.5066],[-49.0452,-18.4759],[-49.026,-18.4308],[-49.0538,-18.4026],[-49.0791,-18.4167],[-49.1263,-18.3843],[-49.1593,-18.4167],[-49.2108,-18.4233],[-49.2014,-18.4612],[-49.2284,-18.4792],[-49.2493,-18.5228]]]]}}]}