{"type":"FeatureCollection","features":[{"type":"Feature","properties":{"territory_id":"mg-3103603-centro","name":"Centro","municipality_id":"mg-3103603","polling_places":5,"approx":true,"official":false,"method":"voronoi-polling-places","whole_municipality":true,"approx_coords_only":false},"geometry":{"type":"MultiPolygon","coordinates":[[[[-44.1744,-21.8276],[-44.2281,-21.8443],[-44.2316,-21.8929],[-44.2706,-21.8937],[-44.2857,-21.9286],[-44.2566,-21.9754],[-44.2254,-21.9459],[-44.1968,-21.8909],[-44.1709,-21.8843],[-44.1744,-21.8276]]]]}}]}