{"type":"FeatureCollection","features":[{"type":"Feature","properties":{"territory_id":"mg-3103108-centro","name":"Centro","municipality_id":"mg-3103108","polling_places":2,"approx":true,"official":false,"method":"voronoi-polling-places","whole_municipality":true,"approx_coords_only":false},"geometry":{"type":"MultiPolygon","coordinates":[[[[-42.0848,-21.023],[-42.141,-20.993],[-42.1509,-20.974],[-42.1647,-20.9737],[-42.2175,-21.0084],[-42.2189,-21.0248],[-42.1731,-21.0408],[-42.1447,-21.0719],[-42.1185,-21.0748],[-42.0801,-21.0302],[-42.0848,-21.023]]]]}}]}