{"type":"FeatureCollection","features":[{"type":"Feature","properties":{"territory_id":"mg-3103900-capivari-dos-eleuterios","name":"Capivari dos Eleuterios","municipality_id":"mg-3103900","polling_places":1,"approx":true,"official":false,"method":"voronoi-polling-places","whole_municipality":false,"approx_coords_only":false},"geometry":{"type":"MultiPolygon","coordinates":[[[[-45.25823,-19.88292],[-45.14317,-19.85982],[-45.18282,-19.81483],[-45.1889,-19.8227],[-45.2236,-19.8235],[-45.2461,-19.8485],[-45.25823,-19.88292]]]]}},{"type":"Feature","properties":{"territory_id":"mg-3103900-centro","name":"Centro","municipality_id":"mg-3103900","polling_places":3,"approx":true,"official":false,"method":"voronoi-polling-places","whole_municipality":false,"approx_coords_only":false},"geometry":{"type":"MultiPolygon","coordinates":[[[[-45.24145,-19.94304],[-45.222,-19.9715],[-45.1941,-19.9846],[-45.1434,-19.9779],[-45.1519,-19.9453],[-45.116,-19.893],[-45.11516,-19.89063],[-45.1604,-19.91411],[-45.18294,-19.92516],[-45.24145,-19.94304]]]]}},{"type":"Feature","properties":{"territory_id":"mg-3103900-malaquias","name":"Malaquias","municipality_id":"mg-3103900","polling_places":1,"approx":true,"official":false,"method":"voronoi-polling-places","whole_municipality":false,"approx_coords_only":false},"geometry":{"type":"MultiPolygon","coordinates":[[[[-45.18282,-19.81483],[-45.14317,-19.85982],[-45.10832,-19.87143],[-45.1013,-19.8517],[-45.1243,-19.831],[-45.1103,-19.8059],[-45.1282,-19.781],[-45.1689,-19.7968],[-45.18282,-19.81483]]]]}},{"type":"Feature","properties":{"territory_id":"mg-3103900-pintores","name":"Pintores","municipality_id":"mg-3103900","polling_places":1,"approx":true,"official":false,"method":"voronoi-polling-places","whole_municipality":false,"approx_coords_only":false},"geometry":{"type":"MultiPolygon","coordinates":[[[[-45.2665,-19.9064],[-45.24145,-19.94304],[-45.18294,-19.92516],[-45.1604,-19.91411],[-45.11516,-19.89063],[-45.10832,-19.87143],[-45.14317,-19.85982],[-45.25823,-19.88292],[-45.2665,-19.9064]]]]}}]}