{"type":"FeatureCollection","features":[{"type":"Feature","properties":{"territory_id":"mg-3103207-centro","name":"Centro","municipality_id":"mg-3103207","polling_places":3,"approx":true,"official":false,"method":"voronoi-polling-places","whole_municipality":true,"approx_coords_only":false},"geometry":{"type":"MultiPolygon","coordinates":[[[[-44.2729,-19.3397],[-44.2314,-19.3068],[-44.1604,-19.2927],[-44.1383,-19.2435],[-44.1607,-19.2268],[-44.1808,-19.1611],[-44.2049,-19.174],[-44.2419,-19.1642],[-44.2969,-19.215],[-44.2978,-19.2428],[-44.2405,-19.2674],[-44.2729,-19.3397]]]]}}]}