{"type":"FeatureCollection","features":[{"type":"Feature","properties":{"territory_id":"mg-3103504-aeroporto","name":"Aeroporto","municipality_id":"mg-3103504","polling_places":2,"approx":true,"official":false,"method":"voronoi-polling-places","whole_municipality":false,"approx_coords_only":false},"geometry":{"type":"MultiPolygon","coordinates":[[[[-48.1965,-18.65578],[-48.19409,-18.66062],[-48.19532,-18.66783],[-48.18719,-18.66748],[-48.18677,-18.66627],[-48.18714,-18.66092],[-48.1891,-18.66066],[-48.19354,-18.65451],[-48.19545,-18.65444],[-48.19632,-18.65507],[-48.1965,-18.65578]]]]}},{"type":"Feature","properties":{"territory_id":"mg-3103504-alan-kardec","name":"Alan Kardec","municipality_id":"mg-3103504","polling_places":1,"approx":true,"official":false,"method":"voronoi-polling-places","whole_municipality":false,"approx_coords_only":false},"geometry":{"type":"MultiPolygon","coordinates":[[[[-48.21917,-18.64068],[-48.21027,-18.63656],[-48.20656,-18.63061],[-48.20783,-18.62616],[-48.21232,-18.62614],[-48.21917,-18.64068]]]]}},{"type":"Feature","properties":{"territory_id":"mg-3103504-alto-sao-joao","name":"Alto São João","municipality_id":"mg-3103504","polling_places":1,"approx":true,"official":false,"method":"voronoi-polling-places","whole_municipality":false,"approx_coords_only":true},"geometry":{"type":"MultiPolygon","coordinates":[[[[-48.38711,-18.63475],[-48.3294,-18.6422],[-48.32625,-18.65563],[-48.26165,-18.6411],[-48.23033,-18.62195],[-48.23033,-18.56088],[-48.31893,-18.5163],[-48.38711,-18.63475]]]]}},{"type":"Feature","properties":{"territory_id":"mg-3103504-alvorada","name":"Alvorada","municipality_id":"mg-3103504","polling_places":1,"approx":true,"official":false,"method":"voronoi-polling-places","whole_municipality":false,"approx_coords_only":false},"geometry":{"type":"MultiPolygon","coordinates":[[[[-48.17876,-18.63457],[-48.12116,-18.65101],[-48.12076,-18.651],[-47.95602,-18.64363],[-47.9741,-18.6388],[-47.9811,-18.5948],[-47.9509,-18.5391],[-47.9514,-18.53383],[-48.15852,-18.57695],[-48.17876,-18.63457]]]]}},{"type":"Feature","properties":{"territory_id":"mg-3103504-amorim","name":"Amorim","municipality_id":"mg-3103504","polling_places":2,"approx":true,"official":false,"method":"voronoi-polling-places","whole_municipality":false,"approx_coords_only":false},"geometry":{"type":"MultiPolygon","coordinates":[[[[-48.18719,-18.66748],[-48.18209,-18.6753],[-48.16728,-18.66176],[-48.17502,-18.66124],[-48.18122,-18.65901],[-48.18639,-18.65969],[-48.18652,-18.6598],[-48.18714,-18.66092],[-48.18677,-18.66627],[-48.18719,-18.66748]]]]}},{"type":"Feature","properties":{"territory_id":"mg-3103504-ararapira-povoado","name":"Ararapira Povoado","municipality_id":"mg-3103504","polling_places":1,"approx":true,"official":false,"method":"voronoi-polling-places","whole_municipality":false,"approx_coords_only":false},"geometry":{"type":"MultiPolygon","coordinates":[[[[-48.20783,-18.62616],[-48.20656,-18.63061],[-48.20135,-18.6323],[-48.19708,-18.63246],[-48.19328,-18.61596],[-48.18836,-18.59198],[-48.18818,-18.58861],[-48.20783,-18.62616]]]]}},{"type":"Feature","properties":{"territory_id":"mg-3103504-bosque","name":"Bosque","municipality_id":"mg-3103504","polling_places":1,"approx":true,"official":false,"method":"voronoi-polling-places","whole_municipality":false,"approx_coords_only":false},"geometry":{"type":"MultiPolygon","coordinates":[[[[-48.18341,-18.651],[-48.18122,-18.65901],[-48.17502,-18.66124],[-48.16728,-18.66176],[-48.14751,-18.65431],[-48.17408,-18.64888],[-48.17712,-18.64914],[-48.18259,-18.65035],[-48.18339,-18.65089],[-48.18341,-18.651]]]]}},{"type":"Feature","properties":{"territory_id":"mg-3103504-brasilia","name":"Brasilia","municipality_id":"mg-3103504","polling_places":1,"approx":true,"official":false,"method":"voronoi-polling-places","whole_municipality":false,"approx_coords_only":false},"geometry":{"type":"MultiPolygon","coordinates":[[[[-48.26002,-18.75274],[-48.258,-18.7752],[-48.23869,-18.76584],[-48.19929,-18.67037],[-48.20331,-18.66134],[-48.20819,-18.65926],[-48.21107,-18.66021],[-48.26002,-18.75274]]]]}},{"type":"Feature","properties":{"territory_id":"mg-3103504-centro","name":"Centro","municipality_id":"mg-3103504","polling_places":10,"approx":true,"official":false,"method":"voronoi-polling-places","whole_municipality":false,"approx_coords_only":false},"geometry":{"type":"MultiPolygon","coordinates":[[[[-48.20125,-18.64752],[-48.20102,-18.65182],[-48.19632,-18.65507],[-48.19545,-18.65444],[-48.19354,-18.65451],[-48.1891,-18.66066],[-48.18714,-18.66092],[-48.18652,-18.6598],[-48.19175,-18.65447],[-48.18579,-18.65486],[-48.18341,-18.651],[-48.18339,-18.65089],[-48.18259,-18.65035],[-48.17712,-18.64914],[-48.1859,-18.64046],[-48.18475,-18.63574],[-48.18992,-18.63545],[-48.19087,-18.63546],[-48.19357,-18.64222],[-48.19427,-18.64276],[-48.19704,-18.64239],[-48.19644,-18.64743],[-48.20125,-18.64752]]]]}},{"type":"Feature","properties":{"territory_id":"mg-3103504-goias","name":"Goias","municipality_id":"mg-3103504","polling_places":2,"approx":true,"official":false,"method":"voronoi-polling-places","whole_municipality":false,"approx_coords_only":false},"geometry":{"type":"MultiPolygon","coordinates":[[[[-48.22093,-18.6418],[-48.216,-18.64339],[-48.20766,-18.64553],[-48.2064,-18.64688],[-48.2017,-18.64671],[-48.20046,-18.64177],[-48.20394,-18.64028],[-48.20402,-18.64027],[-48.21027,-18.63656],[-48.21917,-18.64068],[-48.22093,-18.6418]]]]}},{"type":"Feature","properties":{"territory_id":"mg-3103504-independencia","name":"Independencia","municipality_id":"mg-3103504","polling_places":2,"approx":true,"official":false,"method":"voronoi-polling-places","whole_municipality":false,"approx_coords_only":false},"geometry":{"type":"MultiPolygon","coordinates":[[[[-48.21027,-18.63656],[-48.20402,-18.64027],[-48.20394,-18.64028],[-48.20046,-18.64177],[-48.1991,-18.64121],[-48.1962,-18.6337],[-48.19708,-18.63246],[-48.20135,-18.6323],[-48.20656,-18.63061],[-48.21027,-18.63656]]]]}},{"type":"Feature","properties":{"territory_id":"mg-3103504-industrial","name":"Industrial","municipality_id":"mg-3103504","polling_places":2,"approx":true,"official":false,"method":"voronoi-polling-places","whole_municipality":false,"approx_coords_only":false},"geometry":{"type":"MultiPolygon","coordinates":[[[[-48.20819,-18.65926],[-48.20331,-18.66134],[-48.1965,-18.65578],[-48.19632,-18.65507],[-48.20102,-18.65182],[-48.20125,-18.64752],[-48.2017,-18.64671],[-48.2064,-18.64688],[-48.20713,-18.65096],[-48.20714,-18.65228],[-48.20648,-18.65344],[-48.20819,-18.65926]]]]}},{"type":"Feature","properties":{"territory_id":"mg-3103504-jardim-milenium","name":"Jardim Milenium","municipality_id":"mg-3103504","polling_places":1,"approx":true,"official":false,"method":"voronoi-polling-places","whole_municipality":false,"approx_coords_only":false},"geometry":{"type":"MultiPolygon","coordinates":[[[[-48.23869,-18.76584],[-48.2221,-18.7578],[-48.20062,-18.76499],[-48.18291,-18.6806],[-48.18209,-18.6753],[-48.18719,-18.66748],[-48.19532,-18.66783],[-48.19929,-18.67037],[-48.23869,-18.76584]]]]}},{"type":"Feature","properties":{"territory_id":"mg-3103504-jardim-regina","name":"Jardim Regina","municipality_id":"mg-3103504","polling_places":1,"approx":true,"official":false,"method":"voronoi-polling-places","whole_municipality":false,"approx_coords_only":false},"geometry":{"type":"MultiPolygon","coordinates":[[[[-48.19175,-18.65447],[-48.18652,-18.6598],[-48.18639,-18.65969],[-48.18579,-18.65486],[-48.19175,-18.65447]]]]}},{"type":"Feature","properties":{"territory_id":"mg-3103504-joquey-clube","name":"Joquey Clube","municipality_id":"mg-3103504","polling_places":2,"approx":true,"official":false,"method":"voronoi-polling-places","whole_municipality":false,"approx_coords_only":false},"geometry":{"type":"MultiPolygon","coordinates":[[[[-48.19708,-18.63246],[-48.1962,-18.6337],[-48.19087,-18.63546],[-48.18992,-18.63545],[-48.18475,-18.63574],[-48.18445,-18.63554],[-48.18836,-18.59198],[-48.19328,-18.61596],[-48.19708,-18.63246]]]]}},{"type":"Feature","properties":{"territory_id":"mg-3103504-morada-de-fatima","name":"Morada de Fatima","municipality_id":"mg-3103504","polling_places":3,"approx":true,"official":false,"method":"voronoi-polling-places","whole_municipality":false,"approx_coords_only":false},"geometry":{"type":"MultiPolygon","coordinates":[[[[-48.22778,-18.64381],[-48.22336,-18.64726],[-48.21107,-18.66021],[-48.20819,-18.65926],[-48.20648,-18.65344],[-48.20714,-18.65228],[-48.20713,-18.65096],[-48.2064,-18.64688],[-48.20766,-18.64553],[-48.216,-18.64339],[-48.22093,-18.6418],[-48.22778,-18.64381]]]]}},{"type":"Feature","properties":{"territory_id":"mg-3103504-novo-horizonte","name":"Novo Horizonte","municipality_id":"mg-3103504","polling_places":2,"approx":true,"official":false,"method":"voronoi-polling-places","whole_municipality":false,"approx_coords_only":false},"geometry":{"type":"MultiPolygon","coordinates":[[[[-48.20062,-18.76499],[-48.1683,-18.7758],[-48.1502,-18.8144],[-48.111,-18.8165],[-48.1135,-18.8427],[-48.0614,-18.8858],[-48.0191,-18.8666],[-47.985,-18.877],[-47.9553,-18.8467],[-47.8737,-18.8292],[-47.8728,-18.7122],[-47.8926,-18.676],[-47.8933,-18.6604],[-47.95602,-18.64363],[-48.12076,-18.651],[-48.12116,-18.65101],[-48.14751,-18.65431],[-48.16728,-18.66176],[-48.18209,-18.6753],[-48.18291,-18.6806],[-48.20062,-18.76499]]]]}},{"type":"Feature","properties":{"territory_id":"mg-3103504-ouro-verde","name":"Ouro Verde","municipality_id":"mg-3103504","polling_places":1,"approx":true,"official":false,"method":"voronoi-polling-places","whole_municipality":false,"approx_coords_only":false},"geometry":{"type":"MultiPolygon","coordinates":[[[[-48.18836,-18.59198],[-48.18445,-18.63554],[-48.1843,-18.63556],[-48.17876,-18.63457],[-48.15852,-18.57695],[-48.18662,-18.58144],[-48.18818,-18.58861],[-48.18836,-18.59198]]]]}},{"type":"Feature","properties":{"territory_id":"mg-3103504-paraiso","name":"Paraiso","municipality_id":"mg-3103504","polling_places":1,"approx":true,"official":false,"method":"voronoi-polling-places","whole_municipality":false,"approx_coords_only":false},"geometry":{"type":"MultiPolygon","coordinates":[[[[-48.1843,-18.63556],[-48.17408,-18.64888],[-48.14751,-18.65431],[-48.12116,-18.65101],[-48.17876,-18.63457],[-48.1843,-18.63556]]]]}},{"type":"Feature","properties":{"territory_id":"mg-3103504-portal-dos-ipes-i","name":"Portal dos Ipes I","municipality_id":"mg-3103504","polling_places":1,"approx":true,"official":false,"method":"voronoi-polling-places","whole_municipality":false,"approx_coords_only":false},"geometry":{"type":"MultiPolygon","coordinates":[[[[-48.18639,-18.65969],[-48.18122,-18.65901],[-48.18341,-18.651],[-48.18579,-18.65486],[-48.18639,-18.65969]]]]}},{"type":"Feature","properties":{"territory_id":"mg-3103504-povoado-de-amanhece","name":"Povoado de Amanhece","municipality_id":"mg-3103504","polling_places":1,"approx":true,"official":false,"method":"voronoi-polling-places","whole_municipality":false,"approx_coords_only":false},"geometry":{"type":"MultiPolygon","coordinates":[[[[-48.31893,-18.5163],[-48.23033,-18.56088],[-48.19149,-18.58042],[-48.18662,-18.58144],[-48.15852,-18.57695],[-47.9514,-18.53383],[-47.9546,-18.5],[-47.9967,-18.4535],[-48.027,-18.4361],[-48.0475,-18.4176],[-48.0941,-18.431],[-48.1465,-18.4095],[-48.1594,-18.3755],[-48.2215,-18.362],[-48.2272,-18.346],[-48.2718,-18.3294],[-48.28288,-18.33842],[-48.31893,-18.5163]]]]}},{"type":"Feature","properties":{"territory_id":"mg-3103504-povoado-de-barracao","name":"Povoado de Barracao","municipality_id":"mg-3103504","polling_places":1,"approx":true,"official":false,"method":"voronoi-polling-places","whole_municipality":false,"approx_coords_only":false},"geometry":{"type":"MultiPolygon","coordinates":[[[[-48.6538,-18.3428],[-48.593,-18.4118],[-48.6043,-18.4777],[-48.5699,-18.5],[-48.5598,-18.5543],[-48.54407,-18.55726],[-48.44197,-18.35661],[-48.442,-18.3566],[-48.4695,-18.3707],[-48.5156,-18.3664],[-48.5545,-18.3469],[-48.5614,-18.3239],[-48.6538,-18.3428]]]]}},{"type":"Feature","properties":{"territory_id":"mg-3103504-povoado-de-contenda","name":"Povoado de Contenda","municipality_id":"mg-3103504","polling_places":1,"approx":true,"official":false,"method":"voronoi-polling-places","whole_municipality":false,"approx_coords_only":false},"geometry":{"type":"MultiPolygon","coordinates":[[[[-48.2017,-18.64671],[-48.20125,-18.64752],[-48.19644,-18.64743],[-48.19704,-18.64239],[-48.1991,-18.64121],[-48.20046,-18.64177],[-48.2017,-18.64671]]]]}},{"type":"Feature","properties":{"territory_id":"mg-3103504-povoado-de-florestina","name":"Povoado de Florestina","municipality_id":"mg-3103504","polling_places":1,"approx":true,"official":false,"method":"voronoi-polling-places","whole_municipality":false,"approx_coords_only":true},"geometry":{"type":"MultiPolygon","coordinates":[[[[-48.23033,-18.62195],[-48.2279,-18.62047],[-48.19149,-18.58042],[-48.23033,-18.56088],[-48.23033,-18.62195]]]]}},{"type":"Feature","properties":{"territory_id":"mg-3103504-povoado-de-piracaiba","name":"Povoado de Piracaiba","municipality_id":"mg-3103504","polling_places":1,"approx":true,"official":false,"method":"voronoi-polling-places","whole_municipality":false,"approx_coords_only":false},"geometry":{"type":"MultiPolygon","coordinates":[[[[-48.54407,-18.55726],[-48.5332,-18.5593],[-48.5174,-18.5947],[-48.4897,-18.5991],[-48.4384,-18.66],[-48.3952,-18.6337],[-48.38711,-18.63475],[-48.31893,-18.5163],[-48.28288,-18.33842],[-48.3181,-18.3671],[-48.3418,-18.3708],[-48.4,-18.3728],[-48.44197,-18.35661],[-48.54407,-18.55726]]]]}},{"type":"Feature","properties":{"territory_id":"mg-3103504-residencial-madri","name":"Residencial Madri","municipality_id":"mg-3103504","polling_places":1,"approx":true,"official":false,"method":"voronoi-polling-places","whole_municipality":false,"approx_coords_only":false},"geometry":{"type":"MultiPolygon","coordinates":[[[[-48.32625,-18.65563],[-48.3099,-18.7253],[-48.2613,-18.7386],[-48.26002,-18.75274],[-48.21107,-18.66021],[-48.22336,-18.64726],[-48.22778,-18.64381],[-48.26165,-18.6411],[-48.32625,-18.65563]]]]}},{"type":"Feature","properties":{"territory_id":"mg-3103504-santa-helena","name":"Santa Helena","municipality_id":"mg-3103504","polling_places":1,"approx":true,"official":false,"method":"voronoi-polling-places","whole_municipality":false,"approx_coords_only":false},"geometry":{"type":"MultiPolygon","coordinates":[[[[-48.20331,-18.66134],[-48.19929,-18.67037],[-48.19532,-18.66783],[-48.19409,-18.66062],[-48.1965,-18.65578],[-48.20331,-18.66134]]]]}},{"type":"Feature","properties":{"territory_id":"mg-3103504-santa-terezinha","name":"Santa Terezinha","municipality_id":"mg-3103504","polling_places":1,"approx":true,"official":false,"method":"voronoi-polling-places","whole_municipality":false,"approx_coords_only":false},"geometry":{"type":"MultiPolygon","coordinates":[[[[-48.1991,-18.64121],[-48.19704,-18.64239],[-48.19427,-18.64276],[-48.19357,-18.64222],[-48.19087,-18.63546],[-48.1962,-18.6337],[-48.1991,-18.64121]]]]}},{"type":"Feature","properties":{"territory_id":"mg-3103504-sao-sebastiao","name":"Sao Sebastiao","municipality_id":"mg-3103504","polling_places":1,"approx":true,"official":false,"method":"voronoi-polling-places","whole_municipality":false,"approx_coords_only":false},"geometry":{"type":"MultiPolygon","coordinates":[[[[-48.26165,-18.6411],[-48.22778,-18.64381],[-48.22093,-18.6418],[-48.21917,-18.64068],[-48.21232,-18.62614],[-48.2279,-18.62047],[-48.23033,-18.62195],[-48.26165,-18.6411]]]]}},{"type":"Feature","properties":{"territory_id":"mg-3103504-sibipiruna","name":"Sibipiruna","municipality_id":"mg-3103504","polling_places":1,"approx":true,"official":false,"method":"voronoi-polling-places","whole_municipality":false,"approx_coords_only":false},"geometry":{"type":"MultiPolygon","coordinates":[[[[-48.1859,-18.64046],[-48.17712,-18.64914],[-48.17408,-18.64888],[-48.1843,-18.63556],[-48.18445,-18.63554],[-48.18475,-18.63574],[-48.1859,-18.64046]]]]}},{"type":"Feature","properties":{"territory_id":"mg-3103504-vieno","name":"Vieno","municipality_id":"mg-3103504","polling_places":1,"approx":true,"official":false,"method":"voronoi-polling-places","whole_municipality":false,"approx_coords_only":false},"geometry":{"type":"MultiPolygon","coordinates":[[[[-48.2279,-18.62047],[-48.21232,-18.62614],[-48.20783,-18.62616],[-48.18818,-18.58861],[-48.18662,-18.58144],[-48.19149,-18.58042],[-48.2279,-18.62047]]]]}}]}