{"type":"FeatureCollection","features":[{"type":"Feature","properties":{"territory_id":"mg-3103405-agua-branca-bois","name":"Agua Branca-bois","municipality_id":"mg-3103405","polling_places":1,"approx":true,"official":false,"method":"voronoi-polling-places","whole_municipality":false,"approx_coords_only":false},"geometry":{"type":"MultiPolygon","coordinates":[[[[-41.76429,-17.00942],[-41.76057,-17.01537],[-41.7514,-16.9934],[-41.7079,-16.9703],[-41.674,-16.9871],[-41.6274,-16.9449],[-41.6482,-16.9239],[-41.6928,-16.9108],[-41.711,-16.8893],[-41.743,-16.8987],[-41.757,-16.8647],[-41.75962,-16.86126],[-41.76429,-17.00942]]]]}},{"type":"Feature","properties":{"territory_id":"mg-3103405-alto-santuario","name":"Alto Santuario","municipality_id":"mg-3103405","polling_places":1,"approx":true,"official":false,"method":"voronoi-polling-places","whole_municipality":false,"approx_coords_only":false},"geometry":{"type":"MultiPolygon","coordinates":[[[[-42.15031,-16.86613],[-42.14956,-16.86703],[-42.0755,-16.85767],[-42.06755,-16.84883],[-42.06763,-16.84655],[-42.07272,-16.84535],[-42.15031,-16.86613]]]]}},{"type":"Feature","properties":{"territory_id":"mg-3103405-barra-de-setubal","name":"Barra de Setubal","municipality_id":"mg-3103405","polling_places":1,"approx":true,"official":false,"method":"voronoi-polling-places","whole_municipality":false,"approx_coords_only":false},"geometry":{"type":"MultiPolygon","coordinates":[[[[-42.17489,-16.83937],[-42.15031,-16.86613],[-42.07272,-16.84535],[-42.06324,-16.82754],[-42.05645,-16.79132],[-42.12644,-16.73609],[-42.1511,-16.7426],[-42.1739,-16.7675],[-42.1401,-16.7846],[-42.1422,-16.8159],[-42.17489,-16.83937]]]]}},{"type":"Feature","properties":{"territory_id":"mg-3103405-calhauzinho","name":"Calhauzinho","municipality_id":"mg-3103405","polling_places":1,"approx":true,"official":false,"method":"voronoi-polling-places","whole_municipality":false,"approx_coords_only":false},"geometry":{"type":"MultiPolygon","coordinates":[[[[-42.07246,-16.85798],[-42.06156,-16.8628],[-42.06165,-16.85923],[-42.06424,-16.85377],[-42.06484,-16.85329],[-42.07246,-16.85798]]]]}},{"type":"Feature","properties":{"territory_id":"mg-3103405-canoeiro","name":"Canoeiro","municipality_id":"mg-3103405","polling_places":1,"approx":true,"official":false,"method":"voronoi-polling-places","whole_municipality":false,"approx_coords_only":false},"geometry":{"type":"MultiPolygon","coordinates":[[[[-42.07272,-16.84535],[-42.06763,-16.84655],[-42.06433,-16.84376],[-42.06324,-16.82754],[-42.07272,-16.84535]]]]}},{"type":"Feature","properties":{"territory_id":"mg-3103405-centro","name":"Centro","municipality_id":"mg-3103405","polling_places":2,"approx":true,"official":false,"method":"voronoi-polling-places","whole_municipality":false,"approx_coords_only":false},"geometry":{"type":"MultiPolygon","coordinates":[[[[-42.06484,-16.85329],[-42.06424,-16.85377],[-42.06165,-16.85923],[-42.05988,-16.85384],[-42.05895,-16.85288],[-42.05973,-16.85105],[-42.06273,-16.85054],[-42.06324,-16.85083],[-42.0646,-16.85168],[-42.06484,-16.85329]]]]}},{"type":"Feature","properties":{"territory_id":"mg-3103405-corredor","name":"Corredor","municipality_id":"mg-3103405","polling_places":1,"approx":true,"official":false,"method":"voronoi-polling-places","whole_municipality":false,"approx_coords_only":false},"geometry":{"type":"MultiPolygon","coordinates":[[[[-42.14956,-16.86703],[-42.11397,-16.91968],[-42.03695,-16.89011],[-42.06156,-16.8628],[-42.07246,-16.85798],[-42.0755,-16.85767],[-42.14956,-16.86703]]]]}},{"type":"Feature","properties":{"territory_id":"mg-3103405-corrego-das-velhas","name":"Corrego das Velhas","municipality_id":"mg-3103405","polling_places":1,"approx":true,"official":false,"method":"voronoi-polling-places","whole_municipality":false,"approx_coords_only":false},"geometry":{"type":"MultiPolygon","coordinates":[[[[-42.2565,-16.9919],[-42.2349,-17.0621],[-42.2235,-17.098],[-42.19349,-17.13663],[-42.12958,-17.09295],[-42.13924,-16.9806],[-42.25615,-16.99145],[-42.2565,-16.9919]]]]}},{"type":"Feature","properties":{"territory_id":"mg-3103405-distrito-de-engenheiro-schnoor","name":"Distrito de Engenheiro Schnoor","municipality_id":"mg-3103405","polling_places":1,"approx":true,"official":false,"method":"voronoi-polling-places","whole_municipality":false,"approx_coords_only":false},"geometry":{"type":"MultiPolygon","coordinates":[[[[-42.19349,-17.13663],[-42.1713,-17.1652],[-42.151,-17.1671],[-42.1118,-17.2038],[-42.0798,-17.2121],[-42.0635,-17.1834],[-42.02961,-17.1863],[-42.08528,-17.08873],[-42.12958,-17.09295],[-42.19349,-17.13663]]]]}},{"type":"Feature","properties":{"territory_id":"mg-3103405-distrito-de-itira","name":"Distrito de Itira","municipality_id":"mg-3103405","polling_places":1,"approx":true,"official":false,"method":"voronoi-polling-places","whole_municipality":false,"approx_coords_only":false},"geometry":{"type":"MultiPolygon","coordinates":[[[[-42.12644,-16.73609],[-42.05645,-16.79132],[-42.02715,-16.8088],[-41.9204,-16.86415],[-41.87942,-16.80739],[-41.8979,-16.811],[-41.9124,-16.7892],[-41.8993,-16.7278],[-41.9018,-16.6767],[-41.9719,-16.6426],[-41.9891,-16.596],[-42.0088,-16.5789],[-42.0431,-16.5836],[-42.042,-16.6305],[-42.0947,-16.7277],[-42.12644,-16.73609]]]]}},{"type":"Feature","properties":{"territory_id":"mg-3103405-esplanada","name":"Esplanada","municipality_id":"mg-3103405","polling_places":1,"approx":true,"official":false,"method":"voronoi-polling-places","whole_municipality":false,"approx_coords_only":false},"geometry":{"type":"MultiPolygon","coordinates":[[[[-42.06165,-16.85923],[-42.06156,-16.8628],[-42.03695,-16.89011],[-41.98993,-16.88054],[-42.03612,-16.86058],[-42.05895,-16.85288],[-42.05988,-16.85384],[-42.06165,-16.85923]]]]}},{"type":"Feature","properties":{"territory_id":"mg-3103405-narciso-de-baixo","name":"Narciso de Baixo","municipality_id":"mg-3103405","polling_places":1,"approx":true,"official":false,"method":"voronoi-polling-places","whole_municipality":false,"approx_coords_only":false},"geometry":{"type":"MultiPolygon","coordinates":[[[[-42.05838,-16.847],[-42.05826,-16.84755],[-42.03612,-16.86058],[-41.98993,-16.88054],[-41.92238,-16.87129],[-41.9204,-16.86415],[-42.02715,-16.8088],[-42.05838,-16.847]]]]}},{"type":"Feature","properties":{"territory_id":"mg-3103405-palmital","name":"Palmital","municipality_id":"mg-3103405","polling_places":1,"approx":true,"official":false,"method":"voronoi-polling-places","whole_municipality":false,"approx_coords_only":false},"geometry":{"type":"MultiPolygon","coordinates":[[[[-42.08528,-17.08873],[-42.02961,-17.1863],[-41.9513,-17.193],[-41.9543,-17.1222],[-41.9649,-17.0852],[-41.96213,-17.08588],[-41.99236,-17.02544],[-42.08528,-17.08873]]]]}},{"type":"Feature","properties":{"territory_id":"mg-3103405-povoado-de-alfredo-graca","name":"Povoado de Alfredo Graca","municipality_id":"mg-3103405","polling_places":1,"approx":true,"official":false,"method":"voronoi-polling-places","whole_municipality":false,"approx_coords_only":false},"geometry":{"type":"MultiPolygon","coordinates":[[[[-42.13924,-16.9806],[-42.12958,-17.09295],[-42.08528,-17.08873],[-41.99236,-17.02544],[-41.99173,-17.02199],[-42.11142,-16.95094],[-42.13924,-16.9806]]]]}},{"type":"Feature","properties":{"territory_id":"mg-3103405-povoado-de-baixa-quente","name":"Povoado de Baixa Quente","municipality_id":"mg-3103405","polling_places":1,"approx":true,"official":false,"method":"voronoi-polling-places","whole_municipality":false,"approx_coords_only":false},"geometry":{"type":"MultiPolygon","coordinates":[[[[-42.11397,-16.91968],[-42.11142,-16.95094],[-41.99173,-17.02199],[-41.95752,-16.9816],[-41.92143,-16.89315],[-41.92238,-16.87129],[-41.98993,-16.88054],[-42.03695,-16.89011],[-42.11397,-16.91968]]]]}},{"type":"Feature","properties":{"territory_id":"mg-3103405-povoado-de-barreiros","name":"Povoado de Barreiros","municipality_id":"mg-3103405","polling_places":1,"approx":true,"official":false,"method":"voronoi-polling-places","whole_municipality":false,"approx_coords_only":false},"geometry":{"type":"MultiPolygon","coordinates":[[[[-42.06439,-16.84884],[-42.06324,-16.85083],[-42.06273,-16.85054],[-42.06296,-16.84635],[-42.06439,-16.84884]]]]}},{"type":"Feature","properties":{"territory_id":"mg-3103405-povoado-de-igrejinha","name":"Povoado de Igrejinha","municipality_id":"mg-3103405","polling_places":1,"approx":true,"official":false,"method":"voronoi-polling-places","whole_municipality":false,"approx_coords_only":false},"geometry":{"type":"MultiPolygon","coordinates":[[[[-42.06763,-16.84655],[-42.06755,-16.84883],[-42.06754,-16.84884],[-42.06439,-16.84884],[-42.06296,-16.84635],[-42.06299,-16.84513],[-42.06433,-16.84376],[-42.06763,-16.84655]]]]}},{"type":"Feature","properties":{"territory_id":"mg-3103405-povoado-de-machado","name":"Povoado de Machado","municipality_id":"mg-3103405","polling_places":1,"approx":true,"official":false,"method":"voronoi-polling-places","whole_municipality":false,"approx_coords_only":false},"geometry":{"type":"MultiPolygon","coordinates":[[[[-42.0755,-16.85767],[-42.07246,-16.85798],[-42.06484,-16.85329],[-42.0646,-16.85168],[-42.06754,-16.84884],[-42.06755,-16.84883],[-42.0755,-16.85767]]]]}},{"type":"Feature","properties":{"territory_id":"mg-3103405-povoado-de-neves","name":"Povoado de Neves","municipality_id":"mg-3103405","polling_places":1,"approx":true,"official":false,"method":"voronoi-polling-places","whole_municipality":false,"approx_coords_only":false},"geometry":{"type":"MultiPolygon","coordinates":[[[[-41.99236,-17.02544],[-41.96213,-17.08588],[-41.8682,-17.1088],[-41.8533,-17.0914],[-41.8664,-17.0564],[-41.8549,-17.04461],[-41.95752,-16.9816],[-41.99173,-17.02199],[-41.99236,-17.02544]]]]}},{"type":"Feature","properties":{"territory_id":"mg-3103405-povoado-de-tesouras","name":"Povoado de Tesouras","municipality_id":"mg-3103405","polling_places":1,"approx":true,"official":false,"method":"voronoi-polling-places","whole_municipality":false,"approx_coords_only":false},"geometry":{"type":"MultiPolygon","coordinates":[[[[-42.05973,-16.85105],[-42.05895,-16.85288],[-42.03612,-16.86058],[-42.05826,-16.84755],[-42.05973,-16.85105]]]]}},{"type":"Feature","properties":{"territory_id":"mg-3103405-sao-geraldo","name":"Sao Geraldo","municipality_id":"mg-3103405","polling_places":1,"approx":true,"official":false,"method":"voronoi-polling-places","whole_municipality":false,"approx_coords_only":false},"geometry":{"type":"MultiPolygon","coordinates":[[[[-42.06433,-16.84376],[-42.06299,-16.84513],[-42.05838,-16.847],[-42.02715,-16.8088],[-42.05645,-16.79132],[-42.06324,-16.82754],[-42.06433,-16.84376]]]]}},{"type":"Feature","properties":{"territory_id":"mg-3103405-setubal","name":"Setubal","municipality_id":"mg-3103405","polling_places":1,"approx":true,"official":false,"method":"voronoi-polling-places","whole_municipality":false,"approx_coords_only":false},"geometry":{"type":"MultiPolygon","coordinates":[[[[-42.25615,-16.99145],[-42.13924,-16.9806],[-42.11142,-16.95094],[-42.11397,-16.91968],[-42.14956,-16.86703],[-42.15031,-16.86613],[-42.17489,-16.83937],[-42.1922,-16.8518],[-42.187,-16.8649],[-42.1625,-16.9081],[-42.1666,-16.9275],[-42.2306,-16.9585],[-42.25615,-16.99145]]]]}},{"type":"Feature","properties":{"territory_id":"mg-3103405-vila-magnolia","name":"Vila Magnolia","municipality_id":"mg-3103405","polling_places":1,"approx":true,"official":false,"method":"voronoi-polling-places","whole_municipality":false,"approx_coords_only":false},"geometry":{"type":"MultiPolygon","coordinates":[[[[-42.06299,-16.84513],[-42.06296,-16.84635],[-42.06273,-16.85054],[-42.05973,-16.85105],[-42.05826,-16.84755],[-42.05838,-16.847],[-42.06299,-16.84513]]]]}},{"type":"Feature","properties":{"territory_id":"mg-3103405-z-rural","name":"Z Rural","municipality_id":"mg-3103405","polling_places":3,"approx":true,"official":false,"method":"voronoi-polling-places","whole_municipality":false,"approx_coords_only":false},"geometry":{"type":"MultiPolygon","coordinates":[[[[-42.06754,-16.84884],[-42.0646,-16.85168],[-42.06324,-16.85083],[-42.06439,-16.84884],[-42.06754,-16.84884]]],[[[-41.95752,-16.9816],[-41.8549,-17.04461],[-41.8429,-17.0323],[-41.8142,-17.0564],[-41.7971,-17.0243],[-41.7625,-17.02],[-41.76057,-17.01537],[-41.76429,-17.00942],[-41.75962,-16.86126],[-41.7976,-16.8115],[-41.8528,-16.8022],[-41.87942,-16.80739],[-41.9204,-16.86415],[-41.92238,-16.87129],[-41.92143,-16.89315],[-41.95752,-16.9816]]]]}}]}