{"type":"FeatureCollection","features":[{"type":"Feature","properties":{"territory_id":"mg-3103306-centro","name":"Centro","municipality_id":"mg-3103306","polling_places":4,"approx":true,"official":false,"method":"voronoi-polling-places","whole_municipality":false,"approx_coords_only":false},"geometry":{"type":"MultiPolygon","coordinates":[[[[-43.4721,-21.4119],[-43.398,-21.3869],[-43.3527,-21.358],[-43.33844,-21.32724],[-43.37583,-21.33893],[-43.38254,-21.34002],[-43.42062,-21.33344],[-43.4239,-21.3367],[-43.4698,-21.3715],[-43.4721,-21.4119]]]]}},{"type":"Feature","properties":{"territory_id":"mg-3103306-nossa-senhora-de-lourdes","name":"Nossa Senhora de Lourdes","municipality_id":"mg-3103306","polling_places":1,"approx":true,"official":false,"method":"voronoi-polling-places","whole_municipality":false,"approx_coords_only":false},"geometry":{"type":"MultiPolygon","coordinates":[[[[-43.42062,-21.33344],[-43.38254,-21.34002],[-43.37583,-21.33893],[-43.33844,-21.32724],[-43.3242,-21.2965],[-43.3717,-21.2847],[-43.42062,-21.33344]]]]}}]}