{"type":"FeatureCollection","features":[{"type":"Feature","properties":{"territory_id":"mg-3103702-centro","name":"Centro","municipality_id":"mg-3103702","polling_places":1,"approx":true,"official":false,"method":"voronoi-polling-places","whole_municipality":false,"approx_coords_only":false},"geometry":{"type":"MultiPolygon","coordinates":[[[[-42.57224,-20.70386],[-42.47088,-20.71305],[-42.43729,-20.68159],[-42.49905,-20.62968],[-42.5629,-20.64573],[-42.568,-20.6929],[-42.57224,-20.70386]]]]}},{"type":"Feature","properties":{"territory_id":"mg-3103702-distrito-de-estevao","name":"Distrito de Estêvao","municipality_id":"mg-3103702","polling_places":1,"approx":true,"official":false,"method":"voronoi-polling-places","whole_municipality":false,"approx_coords_only":false},"geometry":{"type":"MultiPolygon","coordinates":[[[[-42.5629,-20.64573],[-42.49905,-20.62968],[-42.50414,-20.58271],[-42.5578,-20.5985],[-42.5629,-20.64573]]]]}},{"type":"Feature","properties":{"territory_id":"mg-3103702-zona-rural","name":"Zona Rural","municipality_id":"mg-3103702","polling_places":2,"approx":true,"official":false,"method":"voronoi-polling-places","whole_municipality":false,"approx_coords_only":false},"geometry":{"type":"MultiPolygon","coordinates":[[[[-42.6505,-20.7586],[-42.6057,-20.7527],[-42.5747,-20.7747],[-42.5421,-20.7772],[-42.5135,-20.7533],[-42.4792,-20.7602],[-42.471,-20.75],[-42.4799,-20.7215],[-42.47088,-20.71305],[-42.57224,-20.70386],[-42.5887,-20.7464],[-42.6505,-20.7586]]],[[[-42.50414,-20.58271],[-42.49905,-20.62968],[-42.43729,-20.68159],[-42.4089,-20.655],[-42.4101,-20.635],[-42.3791,-20.589],[-42.4074,-20.5774],[-42.4398,-20.5586],[-42.4863,-20.5573],[-42.4871,-20.5777],[-42.50414,-20.58271]]]]}}]}