{"type":"FeatureCollection","features":[{"type":"Feature","properties":{"territory_id":"mg-3103009-centro","name":"Centro","municipality_id":"mg-3103009","polling_places":3,"approx":true,"official":false,"method":"voronoi-polling-places","whole_municipality":false,"approx_coords_only":false},"geometry":{"type":"MultiPolygon","coordinates":[[[[-42.95065,-19.6986],[-42.88517,-19.69552],[-42.88404,-19.69549],[-42.87655,-19.69537],[-42.82418,-19.65618],[-42.86428,-19.63167],[-42.86565,-19.63079],[-42.89788,-19.60829],[-42.91522,-19.60861],[-42.95065,-19.6986]]]]}},{"type":"Feature","properties":{"territory_id":"mg-3103009-hematita","name":"Hematita","municipality_id":"mg-3103009","polling_places":1,"approx":true,"official":false,"method":"voronoi-polling-places","whole_municipality":false,"approx_coords_only":false},"geometry":{"type":"MultiPolygon","coordinates":[[[[-43.0641,-19.4673],[-43.0441,-19.5167],[-43.0445,-19.5648],[-43.03641,-19.56758],[-42.94099,-19.53006],[-42.94002,-19.52286],[-42.9671,-19.5314],[-42.9814,-19.4987],[-43.0463,-19.4229],[-43.0641,-19.4673]]]]}},{"type":"Feature","properties":{"territory_id":"mg-3103009-zona-rural","name":"Zona Rural","municipality_id":"mg-3103009","polling_places":12,"approx":true,"official":false,"method":"voronoi-polling-places","whole_municipality":false,"approx_coords_only":false},"geometry":{"type":"MultiPolygon","coordinates":[[[[-43.03641,-19.56758],[-43.0064,-19.5779],[-43.0023,-19.6288],[-42.9841,-19.6362],[-42.9502,-19.7141],[-42.9171,-19.7136],[-42.9084,-19.7497],[-42.8567,-19.7399],[-42.8001,-19.7115],[-42.8077,-19.691],[-42.7835,-19.6205],[-42.7133,-19.5699],[-42.689,-19.5407],[-42.667,-19.5281],[-42.7246,-19.531],[-42.7422,-19.5138],[-42.7459,-19.4696],[-42.7697,-19.4123],[-42.7921,-19.4079],[-42.8205,-19.4089],[-42.8767,-19.4322],[-42.9109,-19.4815],[-42.9116,-19.5139],[-42.94002,-19.52286],[-42.94099,-19.53006],[-43.03641,-19.56758]],[[-42.95065,-19.6986],[-42.91522,-19.60861],[-42.89788,-19.60829],[-42.86565,-19.63079],[-42.86428,-19.63167],[-42.82418,-19.65618],[-42.87655,-19.69537],[-42.88404,-19.69549],[-42.88517,-19.69552],[-42.95065,-19.6986]]]]}}]}