{"type":"FeatureCollection","features":[{"type":"Feature","properties":{"territory_id":"mg-3103801-centro","name":"Centro","municipality_id":"mg-3103801","polling_places":2,"approx":true,"official":false,"method":"voronoi-polling-places","whole_municipality":true,"approx_coords_only":false},"geometry":{"type":"MultiPolygon","coordinates":[[[[-46.2174,-19.0629],[-46.1964,-19.081],[-46.1324,-19.1064],[-46.0886,-19.1076],[-46.0558,-19.079],[-46.0386,-18.9935],[-46.084,-18.9983],[-46.1213,-18.949],[-46.1633,-19.0341],[-46.2174,-19.0629]]]]}}]}