{"type":"FeatureCollection","features":[{"type":"Feature","properties":{"territory_id":"mg-3104452-alvorada","name":"Alvorada","municipality_id":"mg-3104452","polling_places":1,"approx":true,"official":false,"method":"voronoi-polling-places","whole_municipality":false,"approx_coords_only":false},"geometry":{"type":"MultiPolygon","coordinates":[[[[-42.58281,-17.98877],[-42.5708,-17.9871],[-42.5619,-17.9479],[-42.5221,-17.9489],[-42.4866,-17.9266],[-42.5109,-17.9291],[-42.5568,-17.8984],[-42.5476,-17.8704],[-42.55293,-17.86249],[-42.58281,-17.98877]]]]}},{"type":"Feature","properties":{"territory_id":"mg-3104452-carneiros","name":"Carneiros","municipality_id":"mg-3104452","polling_places":1,"approx":true,"official":false,"method":"voronoi-polling-places","whole_municipality":false,"approx_coords_only":false},"geometry":{"type":"MultiPolygon","coordinates":[[[[-42.6832,-17.882],[-42.6436,-17.9227],[-42.6071,-17.99154],[-42.61276,-17.87144],[-42.65648,-17.8342],[-42.6832,-17.882]]]]}},{"type":"Feature","properties":{"territory_id":"mg-3104452-centro","name":"Centro","municipality_id":"mg-3104452","polling_places":1,"approx":true,"official":false,"method":"voronoi-polling-places","whole_municipality":false,"approx_coords_only":false},"geometry":{"type":"MultiPolygon","coordinates":[[[[-42.61276,-17.87144],[-42.6071,-17.99154],[-42.6068,-17.9921],[-42.58281,-17.98877],[-42.55293,-17.86249],[-42.57612,-17.82808],[-42.61276,-17.87144]]]]}},{"type":"Feature","properties":{"territory_id":"mg-3104452-juazeiro","name":"Juazeiro","municipality_id":"mg-3104452","polling_places":1,"approx":true,"official":false,"method":"voronoi-polling-places","whole_municipality":false,"approx_coords_only":false},"geometry":{"type":"MultiPolygon","coordinates":[[[[-42.65648,-17.8342],[-42.61276,-17.87144],[-42.57612,-17.82808],[-42.616,-17.7689],[-42.5998,-17.7221],[-42.6445,-17.7783],[-42.6515,-17.8253],[-42.65648,-17.8342]]]]}}]}