{"type":"FeatureCollection","features":[{"type":"Feature","properties":{"territory_id":"mg-3104502-centro","name":"Centro","municipality_id":"mg-3104502","polling_places":6,"approx":true,"official":false,"method":"voronoi-polling-places","whole_municipality":false,"approx_coords_only":false},"geometry":{"type":"MultiPolygon","coordinates":[[[[-46.21525,-16.00919],[-46.1926,-16.02748],[-46.16279,-16.03542],[-46.10759,-16.05167],[-46.07136,-16.0068],[-46.10155,-15.91658],[-46.10091,-15.91459],[-46.05178,-15.84785],[-46.10401,-15.85183],[-46.10401,-15.91331],[-46.10568,-15.91262],[-46.12084,-15.85311],[-46.17163,-15.85547],[-46.1902,-15.85581],[-46.21525,-16.00919]]]]}},{"type":"Feature","properties":{"territory_id":"mg-3104502-crispim-santana","name":"Crispim Santana","municipality_id":"mg-3104502","polling_places":1,"approx":true,"official":false,"method":"voronoi-polling-places","whole_municipality":false,"approx_coords_only":false},"geometry":{"type":"MultiPolygon","coordinates":[[[[-46.10155,-15.91658],[-46.07136,-16.0068],[-45.93505,-15.85148],[-45.94114,-15.83391],[-46.05178,-15.84785],[-46.10091,-15.91459],[-46.10155,-15.91658]]]]}},{"type":"Feature","properties":{"territory_id":"mg-3104502-zona-rural","name":"Zona Rural","municipality_id":"mg-3104502","polling_places":12,"approx":true,"official":false,"method":"voronoi-polling-places","whole_municipality":false,"approx_coords_only":false},"geometry":{"type":"MultiPolygon","coordinates":[[[[-46.4577,-15.8515],[-46.447,-15.8752],[-46.3739,-15.938],[-46.3158,-15.9752],[-46.2882,-15.969],[-46.2478,-15.9829],[-46.21525,-16.00919],[-46.1902,-15.85581],[-46.17163,-15.85547],[-46.12084,-15.85311],[-46.10568,-15.91262],[-46.10401,-15.91331],[-46.10401,-15.85183],[-46.05178,-15.84785],[-45.94114,-15.83391],[-45.93505,-15.85148],[-46.07136,-16.0068],[-46.10759,-16.05167],[-46.16279,-16.03542],[-46.1926,-16.02748],[-46.188,-16.0312],[-46.2323,-16.0892],[-46.2346,-16.1304],[-46.2942,-16.1724],[-46.2629,-16.2246],[-46.2309,-16.2377],[-46.1346,-16.2452],[-46.0834,-16.2112],[-46.0791,-16.1699],[-46.0557,-16.1318],[-46.0399,-16.0528],[-45.9879,-16.0155],[-45.9364,-16.0528],[-45.9476,-16.0753],[-45.9061,-16.107],[-45.8422,-16.0876],[-45.8057,-16.0621],[-45.7767,-15.951],[-45.7374,-15.9103],[-45.7221,-15.8659],[-45.6583,-15.791],[-45.5861,-15.7184],[-45.56,-15.6895],[-45.5876,-15.6548],[-45.5836,-15.5803],[-45.6007,-15.5492],[-45.5843,-15.512],[-45.6004,-15.4414],[-45.66,-15.4168],[-45.7274,-15.4381],[-45.7559,-15.4107],[-45.7927,-15.4309],[-45.8183,-15.4051],[-45.8437,-15.4255],[-45.901,-15.4227],[-45.9344,-15.3833],[-45.9896,-15.3813],[-46.0217,-15.3666],[-46.0328,-15.4059],[-46.0621,-15.4219],[-46.1124,-15.4026],[-46.151,-15.4132],[-46.1948,-15.4071],[-46.2107,-15.4246],[-46.2554,-15.3976],[-46.2877,-15.4122],[-46.2791,-15.4541],[-46.2828,-15.5045],[-46.2701,-15.5598],[-46.2483,-15.6066],[-46.2643,-15.6805],[-46.2658,-15.727],[-46.2548,-15.7955],[-46.3779,-15.8368],[-46.4085,-15.8351],[-46.4577,-15.8515]]]]}}]}