{"type":"FeatureCollection","features":[{"type":"Feature","properties":{"territory_id":"mg-3104106-centro","name":"Centro","municipality_id":"mg-3104106","polling_places":3,"approx":true,"official":false,"method":"voronoi-polling-places","whole_municipality":true,"approx_coords_only":false},"geometry":{"type":"MultiPolygon","coordinates":[[[[-46.9967,-21.3573],[-47.013,-21.4191],[-46.9329,-21.425],[-46.8846,-21.4072],[-46.8933,-21.3821],[-46.8785,-21.2909],[-46.9427,-21.2913],[-46.9673,-21.2819],[-46.9967,-21.3573]]]]}}]}