{"type":"FeatureCollection","features":[{"type":"Feature","properties":{"territory_id":"mg-3104700-acari","name":"Acarí","municipality_id":"mg-3104700","polling_places":1,"approx":true,"official":false,"method":"voronoi-polling-places","whole_municipality":false,"approx_coords_only":false},"geometry":{"type":"MultiPolygon","coordinates":[[[[-41.19387,-17.93698],[-41.11591,-18.03633],[-40.97197,-18.14027],[-40.9093,-18.1148],[-40.8785,-18.12],[-40.8451,-18.1498],[-40.7715,-18.1559],[-40.7733,-18.1076],[-40.9024,-17.9862],[-40.9686,-17.9512],[-41.0484,-17.9923],[-41.0835,-17.9996],[-41.1035,-17.9505],[-41.142,-17.9494],[-41.19387,-17.93698]]]]}},{"type":"Feature","properties":{"territory_id":"mg-3104700-centro","name":"Centro","municipality_id":"mg-3104700","polling_places":1,"approx":true,"official":false,"method":"voronoi-polling-places","whole_municipality":false,"approx_coords_only":false},"geometry":{"type":"MultiPolygon","coordinates":[[[[-41.2535,-17.9985],[-41.2194,-18.0532],[-41.2169,-18.077],[-41.22428,-18.08233],[-41.15651,-18.1378],[-41.11424,-18.04534],[-41.11591,-18.03633],[-41.19387,-17.93698],[-41.2155,-17.9318],[-41.2521,-17.9542],[-41.2535,-17.9985]]]]}},{"type":"Feature","properties":{"territory_id":"mg-3104700-cidade-nova","name":"Cidade Nova","municipality_id":"mg-3104700","polling_places":2,"approx":true,"official":false,"method":"voronoi-polling-places","whole_municipality":false,"approx_coords_only":false},"geometry":{"type":"MultiPolygon","coordinates":[[[[-41.15651,-18.1378],[-41.11408,-18.17386],[-41.06779,-18.17958],[-41.0519,-18.1651],[-41.0146,-18.1576],[-40.97197,-18.14027],[-41.11591,-18.03633],[-41.11424,-18.04534],[-41.15651,-18.1378]]]]}},{"type":"Feature","properties":{"territory_id":"mg-3104700-distrito-de-fidelandia","name":"Distrito de Fidelândia","municipality_id":"mg-3104700","polling_places":1,"approx":true,"official":false,"method":"voronoi-polling-places","whole_municipality":false,"approx_coords_only":false},"geometry":{"type":"MultiPolygon","coordinates":[[[[-41.32792,-18.27551],[-41.30466,-18.30597],[-41.25604,-18.30541],[-41.11408,-18.17386],[-41.15651,-18.1378],[-41.22428,-18.08233],[-41.2625,-18.1099],[-41.29955,-18.11429],[-41.32792,-18.27551]]]]}},{"type":"Feature","properties":{"territory_id":"mg-3104700-distrito-de-novo-horizonte","name":"Distrito de Novo Horizonte","municipality_id":"mg-3104700","polling_places":1,"approx":true,"official":false,"method":"voronoi-polling-places","whole_municipality":false,"approx_coords_only":false},"geometry":{"type":"MultiPolygon","coordinates":[[[[-41.25604,-18.30541],[-41.14676,-18.38841],[-41.1589,-18.3082],[-41.0965,-18.2556],[-41.1039,-18.2125],[-41.06779,-18.17958],[-41.11408,-18.17386],[-41.25604,-18.30541]]]]}},{"type":"Feature","properties":{"territory_id":"mg-3104700-povoado-de-sao-miguel","name":"Povoado de São Miguel","municipality_id":"mg-3104700","polling_places":1,"approx":true,"official":false,"method":"voronoi-polling-places","whole_municipality":false,"approx_coords_only":false},"geometry":{"type":"MultiPolygon","coordinates":[[[[-41.4405,-18.138],[-41.4227,-18.1695],[-41.4252,-18.2018],[-41.3696,-18.2478],[-41.3636,-18.2719],[-41.328,-18.2754],[-41.32792,-18.27551],[-41.29955,-18.11429],[-41.2996,-18.1143],[-41.3298,-18.0918],[-41.3733,-18.1026],[-41.3716,-18.062],[-41.4088,-18.0748],[-41.4141,-18.1037],[-41.4405,-18.138]]]]}},{"type":"Feature","properties":{"territory_id":"mg-3104700-povoado-de-tipiti","name":"Povoado de Tipití","municipality_id":"mg-3104700","polling_places":1,"approx":true,"official":false,"method":"voronoi-polling-places","whole_municipality":false,"approx_coords_only":false},"geometry":{"type":"MultiPolygon","coordinates":[[[[-41.3339,-18.4317],[-41.3118,-18.4767],[-41.2823,-18.5015],[-41.239,-18.4889],[-41.1831,-18.4424],[-41.1818,-18.4396],[-41.1442,-18.4053],[-41.14676,-18.38841],[-41.25604,-18.30541],[-41.30466,-18.30597],[-41.288,-18.3278],[-41.3228,-18.3368],[-41.3071,-18.3761],[-41.3339,-18.4317]]]]}}]}