{"type":"FeatureCollection","features":[{"type":"Feature","properties":{"territory_id":"mg-3104304-centro","name":"Centro","municipality_id":"mg-3104304","polling_places":2,"approx":true,"official":false,"method":"voronoi-polling-places","whole_municipality":false,"approx_coords_only":false},"geometry":{"type":"MultiPolygon","coordinates":[[[[-46.2416,-21.30058],[-46.15585,-21.35663],[-46.14609,-21.36531],[-46.14244,-21.35655],[-46.14193,-21.35594],[-46.19941,-21.27371],[-46.2405,-21.2566],[-46.2416,-21.30058]]]]}},{"type":"Feature","properties":{"territory_id":"mg-3104304-nova-areado","name":"Nova Areado","municipality_id":"mg-3104304","polling_places":1,"approx":true,"official":false,"method":"voronoi-polling-places","whole_municipality":false,"approx_coords_only":false},"geometry":{"type":"MultiPolygon","coordinates":[[[[-46.2422,-21.3245],[-46.2064,-21.3561],[-46.2404,-21.4217],[-46.2096,-21.4466],[-46.1851,-21.4409],[-46.1429,-21.4151],[-46.12875,-21.41397],[-46.14609,-21.36531],[-46.15585,-21.35663],[-46.2416,-21.30058],[-46.2422,-21.3245]]]]}},{"type":"Feature","properties":{"territory_id":"mg-3104304-rosario","name":"Rosario","municipality_id":"mg-3104304","polling_places":1,"approx":true,"official":false,"method":"voronoi-polling-places","whole_municipality":false,"approx_coords_only":false},"geometry":{"type":"MultiPolygon","coordinates":[[[[-46.14609,-21.36531],[-46.12875,-21.41397],[-46.0767,-21.4098],[-46.0369,-21.3908],[-46.02148,-21.34843],[-46.14193,-21.35594],[-46.14244,-21.35655],[-46.14609,-21.36531]]]]}},{"type":"Feature","properties":{"territory_id":"mg-3104304-sao-vicente","name":"Sao Vicente","municipality_id":"mg-3104304","polling_places":1,"approx":true,"official":false,"method":"voronoi-polling-places","whole_municipality":false,"approx_coords_only":false},"geometry":{"type":"MultiPolygon","coordinates":[[[[-46.19941,-21.27371],[-46.14193,-21.35594],[-46.02148,-21.34843],[-46.0123,-21.3232],[-46.0555,-21.3079],[-46.1178,-21.3211],[-46.1495,-21.2945],[-46.19941,-21.27371]]]]}}]}