{"type":"FeatureCollection","features":[{"type":"Feature","properties":{"territory_id":"mg-3104403-centro","name":"Centro","municipality_id":"mg-3104403","polling_places":4,"approx":true,"official":false,"method":"voronoi-polling-places","whole_municipality":true,"approx_coords_only":false},"geometry":{"type":"MultiPolygon","coordinates":[[[[-42.7462,-21.651],[-42.7478,-21.624],[-42.791,-21.5902],[-42.831,-21.5438],[-42.8657,-21.5846],[-42.8692,-21.6163],[-42.9133,-21.664],[-42.8993,-21.6928],[-42.8683,-21.7033],[-42.823,-21.6992],[-42.8066,-21.658],[-42.7462,-21.651]]]]}}]}