{"type":"FeatureCollection","features":[{"type":"Feature","properties":{"territory_id":"mg-3104908-centro","name":"Centro","municipality_id":"mg-3104908","polling_places":4,"approx":true,"official":false,"method":"voronoi-polling-places","whole_municipality":false,"approx_coords_only":false},"geometry":{"type":"MultiPolygon","coordinates":[[[[-44.97519,-21.85093],[-44.9034,-21.9452],[-44.89705,-21.95907],[-44.89458,-21.96693],[-44.8936,-21.96687],[-44.87423,-21.97267],[-44.87847,-21.95966],[-44.883,-21.83786],[-44.8848,-21.8368],[-44.9396,-21.8295],[-44.97519,-21.85093]]]]}},{"type":"Feature","properties":{"territory_id":"mg-3104908-cohab","name":"Cohab","municipality_id":"mg-3104908","polling_places":1,"approx":true,"official":false,"method":"voronoi-polling-places","whole_municipality":false,"approx_coords_only":false},"geometry":{"type":"MultiPolygon","coordinates":[[[[-44.9271,-22.0824],[-44.92197,-22.08676],[-44.90624,-22.07865],[-44.8556,-21.99723],[-44.87423,-21.97267],[-44.8936,-21.96687],[-44.89458,-21.96693],[-44.91385,-21.97337],[-44.9271,-22.0824]]]]}},{"type":"Feature","properties":{"territory_id":"mg-3104908-lavrinha","name":"Lavrinha","municipality_id":"mg-3104908","polling_places":1,"approx":true,"official":false,"method":"voronoi-polling-places","whole_municipality":false,"approx_coords_only":false},"geometry":{"type":"MultiPolygon","coordinates":[[[[-44.883,-21.83786],[-44.87847,-21.95966],[-44.87423,-21.97267],[-44.8556,-21.99723],[-44.83012,-21.97803],[-44.82682,-21.90337],[-44.8333,-21.9093],[-44.8578,-21.8846],[-44.862,-21.8502],[-44.883,-21.83786]]]]}},{"type":"Feature","properties":{"territory_id":"mg-3104908-piracicaba","name":"Piracicaba","municipality_id":"mg-3104908","polling_places":1,"approx":true,"official":false,"method":"voronoi-polling-places","whole_municipality":false,"approx_coords_only":false},"geometry":{"type":"MultiPolygon","coordinates":[[[[-44.81105,-22.07526],[-44.70204,-22.14258],[-44.6795,-22.1351],[-44.6737,-22.0876],[-44.7102,-22.0044],[-44.72164,-21.98693],[-44.77359,-22.00206],[-44.81105,-22.07526]]]]}},{"type":"Feature","properties":{"territory_id":"mg-3104908-rego-d-agua","name":"Rego D'água","municipality_id":"mg-3104908","polling_places":1,"approx":true,"official":false,"method":"voronoi-polling-places","whole_municipality":false,"approx_coords_only":false},"geometry":{"type":"MultiPolygon","coordinates":[[[[-44.83012,-21.97803],[-44.77359,-22.00206],[-44.72164,-21.98693],[-44.7553,-21.9355],[-44.7543,-21.8571],[-44.7888,-21.8686],[-44.82682,-21.90337],[-44.83012,-21.97803]]]]}},{"type":"Feature","properties":{"territory_id":"mg-3104908-sao-pedro","name":"São Pedro","municipality_id":"mg-3104908","polling_places":1,"approx":true,"official":false,"method":"voronoi-polling-places","whole_municipality":false,"approx_coords_only":false},"geometry":{"type":"MultiPolygon","coordinates":[[[[-44.90624,-22.07865],[-44.81105,-22.07526],[-44.77359,-22.00206],[-44.83012,-21.97803],[-44.8556,-21.99723],[-44.90624,-22.07865]]]]}},{"type":"Feature","properties":{"territory_id":"mg-3104908-serra-santa-maria","name":"Serra Santa Maria","municipality_id":"mg-3104908","polling_places":1,"approx":true,"official":false,"method":"voronoi-polling-places","whole_municipality":false,"approx_coords_only":false},"geometry":{"type":"MultiPolygon","coordinates":[[[[-44.9979,-21.9042],[-44.9464,-21.9084],[-44.9137,-21.9721],[-44.91385,-21.97337],[-44.89458,-21.96693],[-44.89705,-21.95907],[-44.9034,-21.9452],[-44.97519,-21.85093],[-44.9763,-21.8516],[-44.995,-21.8627],[-44.9979,-21.9042]]]]}},{"type":"Feature","properties":{"territory_id":"mg-3104908-vargem-da-lage","name":"Vargem da Lage","municipality_id":"mg-3104908","polling_places":1,"approx":true,"official":false,"method":"voronoi-polling-places","whole_municipality":false,"approx_coords_only":false},"geometry":{"type":"MultiPolygon","coordinates":[[[[-44.92197,-22.08676],[-44.8708,-22.1303],[-44.8712,-22.149],[-44.8169,-22.1925],[-44.7665,-22.2014],[-44.7198,-22.1792],[-44.7226,-22.1494],[-44.70204,-22.14258],[-44.81105,-22.07526],[-44.90624,-22.07865],[-44.92197,-22.08676]]]]}}]}