{"type":"FeatureCollection","features":[{"type":"Feature","properties":{"territory_id":"mg-3104007-alvorada","name":"Alvorada","municipality_id":"mg-3104007","polling_places":1,"approx":false,"official":true,"method":"official-ibge-cd2022","whole_municipality":false,"approx_coords_only":false,"official_name":"Alvorada","official_code":"3104007016","match":"direct"},"geometry":{"type":"MultiPolygon","coordinates":[[[[-46.94612,-19.58748],[-46.94629,-19.58779],[-46.94661,-19.5884],[-46.9471,-19.58928],[-46.9473,-19.58966],[-46.94742,-19.58996],[-46.94754,-19.5906],[-46.94757,-19.59142],[-46.9476,-19.59308],[-46.94777,-19.59418],[-46.94795,-19.59485],[-46.94811,-19.5956],[-46.94817,-19.59617],[-46.94826,-19.59623],[-46.94976,-19.597],[-46.95037,-19.59725],[-46.95104,-19.5974],[-46.95179,-19.59744],[-46.95342,-19.59748],[-46.95353,-19.59745],[-46.95359,-19.59677],[-46.95363,-19.59656],[-46.95434,-19.5948],[-46.9546,-19.59391],[-46.95471,-19.59315],[-46.9548,-19.59276],[-46.95517,-19.59207],[-46.95466,-19.59152],[-46.95425,-19.59097],[-46.95397,-19.59033],[-46.95362,-19.58944],[-46.95347,-19.58915],[-46.9532,-19.58877],[-46.95298,-19.58804],[-46.95185,-19.58803],[-46.95184,-19.58655],[-46.95169,-19.58639],[-46.95154,-19.58631],[-46.95109,-19.58618],[-46.95086,-19.58617],[-46.9504,-19.58555],[-46.95006,-19.58493],[-46.95001,-19.58462],[-46.95001,-19.58425],[-46.94989,-19.58414],[-46.94889,-19.58284],[-46.9479,-19.58277],[-46.94746,-19.58318],[-46.94612,-19.58416],[-46.94532,-19.58473],[-46.94516,-19.58483],[-46.94497,-19.58501],[-46.94478,-19.58517],[-46.94484,-19.58522],[-46.94537,-19.58613],[-46.94603,-19.58732],[-46.94612,-19.58748]]]]}},{"type":"Feature","properties":{"territory_id":"mg-3104007-ana-pinto-de-almeida","name":"Ana Pinto de Almeida","municipality_id":"mg-3104007","polling_places":1,"approx":false,"official":true,"method":"official-ibge-cd2022","whole_municipality":false,"approx_coords_only":false,"official_name":"Ana Pinto de Almeida","official_code":"3104007027","match":"direct"},"geometry":{"type":"MultiPolygon","coordinates":[[[[-46.94579,-19.56991],[-46.94586,-19.56955],[-46.94587,-19.56935],[-46.9458,-19.56916],[-46.94602,-19.56905],[-46.94617,-19.569],[-46.94625,-19.56892],[-46.94628,-19.56887],[-46.94671,-19.5685],[-46.94684,-19.56829],[-46.94689,-19.56816],[-46.94684,-19.5681],[-46.94666,-19.56765],[-46.94651,-19.56741],[-46.94641,-19.56728],[-46.94603,-19.56677],[-46.94599,-19.56654],[-46.94581,-19.56644],[-46.94564,-19.56651],[-46.94551,-19.56646],[-46.94531,-19.56624],[-46.94516,-19.56632],[-46.94501,-19.56633],[-46.94489,-19.56648],[-46.94455,-19.56661],[-46.94449,-19.56662],[-46.94441,-19.56661],[-46.94421,-19.56688],[-46.94321,-19.56836],[-46.9422,-19.56974],[-46.94208,-19.56996],[-46.9416,-19.57069],[-46.94048,-19.57227],[-46.94154,-19.57267],[-46.94142,-19.57282],[-46.94237,-19.57303],[-46.94346,-19.57323],[-46.94483,-19.57318],[-46.94441,-19.57403],[-46.9439,-19.57429],[-46.94385,-19.57428],[-46.94389,-19.57441],[-46.94439,-19.57433],[-46.94448,-19.5743],[-46.94464,-19.57418],[-46.94498,-19.57373],[-46.94522,-19.57316],[-46.94529,-19.57293],[-46.94547,-19.57277],[-46.94551,-19.57238],[-46.94558,-19.57206],[-46.9456,-19.57174],[-46.9457,-19.57133],[-46.94583,-19.5704],[-46.94576,-19.57007],[-46.94579,-19.56991]]]]}},{"type":"Feature","properties":{"territory_id":"mg-3104007-boa-vista","name":"Boa Vista","municipality_id":"mg-3104007","polling_places":1,"approx":false,"official":true,"method":"official-ibge-cd2022","whole_municipality":false,"approx_coords_only":false,"official_name":"Boa Vista","official_code":"3104007018","match":"direct"},"geometry":{"type":"MultiPolygon","coordinates":[[[[-46.96561,-19.59612],[-46.96569,-19.59611],[-46.96635,-19.59435],[-46.96653,-19.59396],[-46.96767,-19.59046],[-46.96922,-19.59081],[-46.96948,-19.58948],[-46.96799,-19.58952],[-46.96526,-19.58944],[-46.96481,-19.58954],[-46.96342,-19.5901],[-46.96232,-19.5905],[-46.96172,-19.59064],[-46.96174,-19.59095],[-46.96177,-19.5911],[-46.96198,-19.59116],[-46.96175,-19.59179],[-46.96147,-19.59245],[-46.96106,-19.59363],[-46.95974,-19.59707],[-46.96032,-19.59714],[-46.96075,-19.59723],[-46.96081,-19.59745],[-46.96094,-19.59772],[-46.96208,-19.59883],[-46.96264,-19.59951],[-46.96302,-19.59985],[-46.96339,-19.60014],[-46.96383,-19.60037],[-46.96427,-19.6005],[-46.96488,-19.60053],[-46.9655,-19.60052],[-46.96559,-19.60053],[-46.966,-19.60066],[-46.96646,-19.60079],[-46.96684,-19.60088],[-46.96692,-19.60087],[-46.96719,-19.60093],[-46.96799,-19.60082],[-46.96832,-19.59998],[-46.96827,-19.5996],[-46.96777,-19.59894],[-46.96754,-19.59905],[-46.96705,-19.59901],[-46.9668,-19.59877],[-46.96658,-19.59883],[-46.96654,-19.59894],[-46.96629,-19.59892],[-46.96587,-19.59875],[-46.96544,-19.5987],[-46.96503,-19.5985],[-46.9649,-19.5985],[-46.9648,-19.59843],[-46.96561,-19.59612]]]]}},{"type":"Feature","properties":{"territory_id":"mg-3104007-centro","name":"Centro","municipality_id":"mg-3104007","polling_places":7,"approx":false,"official":true,"method":"official-ibge-cd2022","whole_municipality":false,"approx_coords_only":false,"official_name":"Centro","official_code":"3104007001","match":"direct"},"geometry":{"type":"MultiPolygon","coordinates":[[[[-46.93237,-19.59619],[-46.93228,-19.59658],[-46.93216,-19.59733],[-46.9319,-19.60066],[-46.93184,-19.60081],[-46.93281,-19.59991],[-46.93368,-19.59919],[-46.93375,-19.59923],[-46.93432,-19.59971],[-46.93533,-19.60062],[-46.9355,-19.60081],[-46.93554,-19.60104],[-46.93658,-19.60116],[-46.9367,-19.60009],[-46.93793,-19.59923],[-46.93865,-19.60012],[-46.93874,-19.60028],[-46.9401,-19.60204],[-46.9401,-19.60193],[-46.94029,-19.6002],[-46.94158,-19.60031],[-46.94264,-19.59954],[-46.94194,-19.59818],[-46.94349,-19.59771],[-46.94332,-19.59724],[-46.94326,-19.5971],[-46.94326,-19.59668],[-46.94339,-19.59666],[-46.94353,-19.59674],[-46.9438,-19.59679],[-46.94489,-19.59654],[-46.94498,-19.5963],[-46.94528,-19.59574],[-46.94648,-19.59496],[-46.94777,-19.59418],[-46.9476,-19.59308],[-46.94757,-19.59142],[-46.94754,-19.5906],[-46.94742,-19.58996],[-46.9473,-19.58966],[-46.9471,-19.58928],[-46.94661,-19.5884],[-46.94629,-19.58779],[-46.94537,-19.58613],[-46.94484,-19.58522],[-46.94395,-19.58426],[-46.94386,-19.58423],[-46.94352,-19.58519],[-46.94329,-19.58521],[-46.94255,-19.58535],[-46.94216,-19.58545],[-46.94166,-19.58539],[-46.94111,-19.58592],[-46.9404,-19.58654],[-46.9399,-19.58685],[-46.93941,-19.58703],[-46.93888,-19.58718],[-46.9372,-19.58783],[-46.935,-19.58498],[-46.93443,-19.58538],[-46.93413,-19.58563],[-46.93376,-19.58615],[-46.93369,-19.58636],[-46.93368,-19.58656],[-46.93371,-19.58738],[-46.93369,-19.58769],[-46.93368,-19.58857],[-46.93326,-19.59116],[-46.9331,-19.59159],[-46.93287,-19.59184],[-46.93259,-19.59195],[-46.93272,-19.59231],[-46.93316,-19.59302],[-46.93303,-19.59314],[-46.93275,-19.59345],[-46.93204,-19.59388],[-46.93078,-19.59453],[-46.93032,-19.59482],[-46.93019,-19.59544],[-46.93015,-19.59608],[-46.93051,-19.59605],[-46.93142,-19.59565],[-46.93209,-19.59605],[-46.93237,-19.59619]]]]}},{"type":"Feature","properties":{"territory_id":"mg-3104007-itaipu","name":"Itaipu","municipality_id":"mg-3104007","polling_places":1,"approx":true,"official":false,"method":"voronoi-polling-places","whole_municipality":false,"approx_coords_only":false},"geometry":{"type":"MultiPolygon","coordinates":[[[[-47.2342,-19.6422],[-47.1316,-19.6762],[-47.0713,-19.6882],[-47.085,-19.7397],[-47.1077,-19.7673],[-47.0819,-19.7848],[-47.0735,-19.8368],[-47.05184,-19.81697],[-47.06319,-19.67862],[-47.0839,-19.56128],[-47.1193,-19.5581],[-47.1375,-19.5361],[-47.1681,-19.5463],[-47.2064,-19.5893],[-47.2342,-19.6422]]]]}},{"type":"Feature","properties":{"territory_id":"mg-3104007-lamartine","name":"Lamartine","municipality_id":"mg-3104007","polling_places":1,"approx":false,"official":true,"method":"official-ibge-cd2022","whole_municipality":false,"approx_coords_only":false,"official_name":"Lamartine","official_code":"3104007051","match":"direct"},"geometry":{"type":"MultiPolygon","coordinates":[[[[-46.92822,-19.6131],[-46.9282,-19.61327],[-46.92783,-19.61353],[-46.92781,-19.6137],[-46.92778,-19.61378],[-46.9276,-19.6142],[-46.92762,-19.61451],[-46.92759,-19.61486],[-46.92763,-19.61554],[-46.92777,-19.616],[-46.92779,-19.61622],[-46.92927,-19.61609],[-46.93107,-19.61599],[-46.93116,-19.61593],[-46.93129,-19.61496],[-46.9313,-19.61434],[-46.93132,-19.61395],[-46.9314,-19.61149],[-46.92986,-19.61146],[-46.92928,-19.61143],[-46.92806,-19.61139],[-46.92803,-19.61191],[-46.92811,-19.61235],[-46.92812,-19.61269],[-46.92818,-19.61301],[-46.92822,-19.6131]]]]}},{"type":"Feature","properties":{"territory_id":"mg-3104007-max-neumann","name":"Max Neumann","municipality_id":"mg-3104007","polling_places":1,"approx":true,"official":false,"method":"voronoi-polling-places","whole_municipality":false,"approx_coords_only":false},"geometry":{"type":"MultiPolygon","coordinates":[[[[-47.0839,-19.56128],[-47.06319,-19.67862],[-46.967,-19.59251],[-46.96767,-19.59046],[-46.96922,-19.59081],[-46.96948,-19.58948],[-46.96799,-19.58952],[-46.96526,-19.58944],[-46.96481,-19.58954],[-46.96403,-19.58986],[-46.95415,-19.58101],[-46.95416,-19.58082],[-46.95422,-19.58023],[-46.95435,-19.57804],[-46.95443,-19.57641],[-46.95441,-19.57568],[-46.95426,-19.57489],[-46.95412,-19.57455],[-46.95373,-19.57498],[-46.95315,-19.57587],[-46.95265,-19.57671],[-46.95229,-19.57725],[-46.95191,-19.57772],[-46.95159,-19.57748],[-46.95101,-19.57813],[-46.95097,-19.57816],[-46.94526,-19.57305],[-46.94529,-19.57293],[-46.94547,-19.57277],[-46.94551,-19.57238],[-46.94558,-19.57206],[-46.9456,-19.57174],[-46.9457,-19.57133],[-46.94583,-19.5704],[-46.94576,-19.57007],[-46.94579,-19.56991],[-46.94586,-19.56955],[-46.94587,-19.56935],[-46.9458,-19.56916],[-46.94602,-19.56905],[-46.94617,-19.569],[-46.94625,-19.56892],[-46.94628,-19.56887],[-46.94671,-19.5685],[-46.94684,-19.56829],[-46.94689,-19.56816],[-46.94684,-19.5681],[-46.94666,-19.56765],[-46.94651,-19.56741],[-46.94641,-19.56728],[-46.94603,-19.56677],[-46.94599,-19.56654],[-46.94581,-19.56644],[-46.94564,-19.56651],[-46.94551,-19.56646],[-46.94531,-19.56624],[-46.94516,-19.56632],[-46.94501,-19.56633],[-46.94489,-19.56648],[-46.94455,-19.56661],[-46.94449,-19.56662],[-46.94441,-19.56661],[-46.94421,-19.56688],[-46.94321,-19.56836],[-46.9422,-19.56974],[-46.94208,-19.56996],[-46.94198,-19.57011],[-46.9367,-19.56539],[-46.93078,-19.47808],[-46.9313,-19.478],[-46.9422,-19.4447],[-46.9908,-19.4319],[-47.0175,-19.4436],[-47.0104,-19.4867],[-47.0792,-19.5617],[-47.0839,-19.56128]]]]}},{"type":"Feature","properties":{"territory_id":"mg-3104007-nascente-do-sol","name":"Nascente do Sol","municipality_id":"mg-3104007","polling_places":1,"approx":true,"official":false,"method":"voronoi-polling-places","whole_municipality":false,"approx_coords_only":false},"geometry":{"type":"MultiPolygon","coordinates":[[[[-47.06319,-19.67862],[-47.05184,-19.81697],[-47.0428,-19.8087],[-47.0149,-19.8066],[-46.977,-19.7794],[-46.8713,-19.787],[-46.826,-19.7746],[-46.836,-19.7454],[-46.7618,-19.6754],[-46.9367,-19.56539],[-46.94198,-19.57011],[-46.9416,-19.57069],[-46.94048,-19.57227],[-46.94154,-19.57267],[-46.94142,-19.57282],[-46.94237,-19.57303],[-46.94346,-19.57323],[-46.94483,-19.57318],[-46.94441,-19.57403],[-46.9439,-19.57429],[-46.94385,-19.57428],[-46.94389,-19.57441],[-46.94439,-19.57433],[-46.94448,-19.5743],[-46.94464,-19.57418],[-46.94498,-19.57373],[-46.94522,-19.57316],[-46.94526,-19.57305],[-46.95097,-19.57816],[-46.95075,-19.57838],[-46.9497,-19.57933],[-46.94945,-19.57952],[-46.94908,-19.57972],[-46.94851,-19.58007],[-46.94765,-19.58047],[-46.94718,-19.5806],[-46.94652,-19.5808],[-46.94617,-19.58083],[-46.94587,-19.58083],[-46.94479,-19.58072],[-46.94484,-19.58035],[-46.94393,-19.57957],[-46.94367,-19.57933],[-46.94375,-19.57921],[-46.94376,-19.5791],[-46.94367,-19.57897],[-46.9436,-19.57896],[-46.94352,-19.57897],[-46.94343,-19.57902],[-46.94322,-19.57925],[-46.94307,-19.57934],[-46.94291,-19.57946],[-46.94274,-19.57974],[-46.94271,-19.57996],[-46.94275,-19.58024],[-46.94282,-19.58059],[-46.94298,-19.58114],[-46.94306,-19.58158],[-46.94302,-19.58188],[-46.94292,-19.58211],[-46.94267,-19.58235],[-46.94259,-19.58238],[-46.9426,-19.58257],[-46.94244,-19.58274],[-46.94223,-19.58276],[-46.94197,-19.58265],[-46.94192,-19.58265],[-46.94136,-19.58267],[-46.94083,-19.58277],[-46.94033,-19.58304],[-46.94001,-19.58323],[-46.9398,-19.58334],[-46.93906,-19.58385],[-46.93858,-19.58393],[-46.93769,-19.58389],[-46.93712,-19.58392],[-46.93685,-19.58394],[-46.93654,-19.58408],[-46.93616,-19.58429],[-46.93578,-19.58452],[-46.935,-19.58498],[-46.93443,-19.58538],[-46.93413,-19.58563],[-46.93376,-19.58615],[-46.93369,-19.58636],[-46.93368,-19.58656],[-46.93371,-19.58738],[-46.93369,-19.58769],[-46.93368,-19.58857],[-46.93326,-19.59116],[-46.9331,-19.59159],[-46.93287,-19.59184],[-46.93259,-19.59195],[-46.93272,-19.59231],[-46.93316,-19.59302],[-46.93303,-19.59314],[-46.93275,-19.59345],[-46.93204,-19.59388],[-46.93078,-19.59453],[-46.93032,-19.59482],[-46.93019,-19.59544],[-46.93015,-19.59608],[-46.93051,-19.59605],[-46.93142,-19.59565],[-46.93209,-19.59605],[-46.93237,-19.59619],[-46.93228,-19.59658],[-46.93216,-19.59733],[-46.9319,-19.60066],[-46.93184,-19.60081],[-46.93281,-19.59991],[-46.93368,-19.59919],[-46.93375,-19.59923],[-46.93432,-19.59971],[-46.93533,-19.60062],[-46.9355,-19.60081],[-46.93554,-19.60104],[-46.93658,-19.60116],[-46.9367,-19.60009],[-46.93793,-19.59923],[-46.93865,-19.60012],[-46.93874,-19.60028],[-46.9401,-19.60204],[-46.9401,-19.60193],[-46.94029,-19.6002],[-46.94158,-19.60031],[-46.94264,-19.59954],[-46.94194,-19.59818],[-46.94349,-19.59771],[-46.94332,-19.59724],[-46.94326,-19.5971],[-46.94326,-19.59668],[-46.94339,-19.59666],[-46.94353,-19.59674],[-46.9438,-19.59679],[-46.94489,-19.59654],[-46.94498,-19.5963],[-46.94528,-19.59574],[-46.94648,-19.59496],[-46.94777,-19.59418],[-46.94795,-19.59485],[-46.94811,-19.5956],[-46.94817,-19.59617],[-46.94826,-19.59623],[-46.94976,-19.597],[-46.95037,-19.59725],[-46.95104,-19.5974],[-46.95179,-19.59744],[-46.95342,-19.59748],[-46.95353,-19.59745],[-46.95359,-19.59677],[-46.95363,-19.59656],[-46.95434,-19.5948],[-46.9546,-19.59391],[-46.95471,-19.59315],[-46.9548,-19.59276],[-46.95517,-19.59207],[-46.95533,-19.59174],[-46.95539,-19.59148],[-46.9554,-19.59125],[-46.95536,-19.59082],[-46.95529,-19.59035],[-46.95521,-19.59013],[-46.95494,-19.58952],[-46.95448,-19.58839],[-46.95418,-19.58747],[-46.95405,-19.58691],[-46.95392,-19.58596],[-46.95391,-19.58494],[-46.95411,-19.58203],[-46.95415,-19.58101],[-46.96403,-19.58986],[-46.96342,-19.5901],[-46.96232,-19.5905],[-46.96172,-19.59064],[-46.96174,-19.59095],[-46.96177,-19.5911],[-46.96198,-19.59116],[-46.96175,-19.59179],[-46.96147,-19.59245],[-46.96106,-19.59363],[-46.95974,-19.59707],[-46.96032,-19.59714],[-46.96075,-19.59723],[-46.96081,-19.59745],[-46.96094,-19.59772],[-46.96208,-19.59883],[-46.96264,-19.59951],[-46.96302,-19.59985],[-46.96339,-19.60014],[-46.96383,-19.60037],[-46.96427,-19.6005],[-46.96488,-19.60053],[-46.9655,-19.60052],[-46.96559,-19.60053],[-46.966,-19.60066],[-46.96646,-19.60079],[-46.96684,-19.60088],[-46.96692,-19.60087],[-46.96719,-19.60093],[-46.96799,-19.60082],[-46.96832,-19.59998],[-46.96827,-19.5996],[-46.96777,-19.59894],[-46.96754,-19.59905],[-46.96705,-19.59901],[-46.9668,-19.59877],[-46.96658,-19.59883],[-46.96654,-19.59894],[-46.96629,-19.59892],[-46.96587,-19.59875],[-46.96544,-19.5987],[-46.96503,-19.5985],[-46.9649,-19.5985],[-46.9648,-19.59843],[-46.96561,-19.59612],[-46.96569,-19.59611],[-46.96635,-19.59435],[-46.96653,-19.59396],[-46.967,-19.59251],[-47.06319,-19.67862]],[[-46.93862,-19.60529],[-46.93871,-19.60556],[-46.93875,-19.6059],[-46.93872,-19.60618],[-46.93861,-19.60678],[-46.93819,-19.60794],[-46.93814,-19.60816],[-46.93818,-19.60861],[-46.93823,-19.60885],[-46.9383,-19.60902],[-46.93856,-19.60934],[-46.93885,-19.60962],[-46.93686,-19.61123],[-46.93732,-19.61177],[-46.93824,-19.6128],[-46.93724,-19.6136],[-46.93626,-19.61441],[-46.93532,-19.61516],[-46.9367,-19.61672],[-46.93569,-19.61755],[-46.93482,-19.61823],[-46.93523,-19.61874],[-46.93542,-19.61901],[-46.93349,-19.62042],[-46.93303,-19.62073],[-46.9332,-19.62121],[-46.93316,-19.62137],[-46.93305,-19.62151],[-46.93287,-19.62163],[-46.93264,-19.62186],[-46.93326,-19.6237],[-46.93349,-19.62415],[-46.93363,-19.62451],[-46.93382,-19.6248],[-46.93411,-19.6251],[-46.93398,-19.62563],[-46.9335,-19.62723],[-46.93332,-19.62777],[-46.93271,-19.62947],[-46.93244,-19.63047],[-46.9324,-19.63078],[-46.93239,-19.6313],[-46.93243,-19.63154],[-46.93259,-19.63201],[-46.93271,-19.63227],[-46.93346,-19.63363],[-46.93361,-19.63395],[-46.93375,-19.6341],[-46.93382,-19.63421],[-46.93396,-19.63438],[-46.93429,-19.63468],[-46.93478,-19.63521],[-46.93582,-19.63626],[-46.93636,-19.63685],[-46.93675,-19.63746],[-46.93755,-19.63849],[-46.938,-19.63911],[-46.93905,-19.64052],[-46.93919,-19.64067],[-46.93942,-19.64082],[-46.93974,-19.64093],[-46.94115,-19.64129],[-46.94117,-19.63957],[-46.94108,-19.6367],[-46.94816,-19.63665],[-46.94937,-19.63667],[-46.94931,-19.6361],[-46.9493,-19.63544],[-46.94937,-19.63441],[-46.94949,-19.63366],[-46.95007,-19.63116],[-46.95049,-19.62946],[-46.95177,-19.62395],[-46.95176,-19.62394],[-46.95209,-19.62246],[-46.95221,-19.622],[-46.95227,-19.62149],[-46.95228,-19.62044],[-46.95219,-19.61989],[-46.95205,-19.61943],[-46.95155,-19.61806],[-46.95116,-19.61715],[-46.95083,-19.61658],[-46.95058,-19.61619],[-46.95021,-19.6159],[-46.95019,-19.6159],[-46.94841,-19.61493],[-46.94721,-19.61434],[-46.94593,-19.61369],[-46.94517,-19.61329],[-46.94479,-19.6131],[-46.94243,-19.61183],[-46.94222,-19.61174],[-46.94186,-19.6117],[-46.94161,-19.61166],[-46.94135,-19.61156],[-46.94125,-19.61155],[-46.94112,-19.61159],[-46.94077,-19.61067],[-46.94005,-19.60892],[-46.94001,-19.60868],[-46.94004,-19.60548],[-46.94001,-19.6049],[-46.93986,-19.60482],[-46.93976,-19.60481],[-46.93957,-19.60486],[-46.93862,-19.60529]],[[-46.93554,-19.60104],[-46.9343,-19.60187],[-46.93367,-19.60223],[-46.9324,-19.60222],[-46.93237,-19.60314],[-46.9322,-19.60391],[-46.93208,-19.60434],[-46.93192,-19.60483],[-46.93207,-19.6051],[-46.93252,-19.60539],[-46.93298,-19.60583],[-46.93318,-19.60615],[-46.93326,-19.6063],[-46.93351,-19.60703],[-46.93361,-19.60726],[-46.93376,-19.60736],[-46.93462,-19.60699],[-46.93595,-19.60646],[-46.93659,-19.60618],[-46.93732,-19.60587],[-46.93797,-19.60556],[-46.93862,-19.60529],[-46.93792,-19.6043],[-46.93576,-19.60146],[-46.93563,-19.60128],[-46.93554,-19.60104]],[[-46.94027,-19.57261],[-46.93866,-19.57046],[-46.9371,-19.57154],[-46.93673,-19.57182],[-46.93426,-19.57348],[-46.93416,-19.57359],[-46.93404,-19.57377],[-46.93391,-19.57416],[-46.93374,-19.57499],[-46.93413,-19.57548],[-46.93482,-19.57641],[-46.93697,-19.57918],[-46.93796,-19.57792],[-46.93816,-19.57765],[-46.93864,-19.57694],[-46.93907,-19.57625],[-46.93902,-19.57607],[-46.93912,-19.57573],[-46.93929,-19.57517],[-46.93939,-19.57496],[-46.93959,-19.57439],[-46.93982,-19.57353],[-46.94007,-19.57296],[-46.94027,-19.57261]],[[-46.93182,-19.57745],[-46.93001,-19.57583],[-46.92978,-19.57567],[-46.92973,-19.57562],[-46.92725,-19.57621],[-46.92686,-19.57627],[-46.92618,-19.57608],[-46.92611,-19.57617],[-46.92604,-19.57616],[-46.92598,-19.57608],[-46.92547,-19.57623],[-46.92473,-19.57649],[-46.92405,-19.57683],[-46.92296,-19.57762],[-46.9222,-19.57826],[-46.92176,-19.57851],[-46.92141,-19.57862],[-46.92116,-19.5785],[-46.92096,-19.57837],[-46.92136,-19.57884],[-46.92177,-19.57925],[-46.92225,-19.57964],[-46.92288,-19.58009],[-46.92328,-19.58034],[-46.92358,-19.5805],[-46.92372,-19.58042],[-46.92392,-19.58044],[-46.92404,-19.58037],[-46.92422,-19.58033],[-46.92457,-19.58031],[-46.92479,-19.5802],[-46.92513,-19.58018],[-46.92552,-19.58006],[-46.92569,-19.57998],[-46.92587,-19.57994],[-46.92647,-19.57995],[-46.92686,-19.58001],[-46.92724,-19.58002],[-46.9275,-19.58006],[-46.92769,-19.58006],[-46.92786,-19.58001],[-46.92817,-19.5798],[-46.92835,-19.57975],[-46.92852,-19.57983],[-46.92868,-19.57984],[-46.92891,-19.57974],[-46.92916,-19.57969],[-46.92933,-19.57961],[-46.9295,-19.57963],[-46.92975,-19.57948],[-46.92995,-19.57934],[-46.93017,-19.57909],[-46.93027,-19.57897],[-46.9305,-19.5788],[-46.93061,-19.57865],[-46.93132,-19.57808],[-46.93171,-19.5777],[-46.93182,-19.57745]],[[-46.9314,-19.61149],[-46.92986,-19.61146],[-46.92928,-19.61143],[-46.92806,-19.61139],[-46.92803,-19.61191],[-46.92811,-19.61235],[-46.92812,-19.61269],[-46.92818,-19.61301],[-46.92822,-19.6131],[-46.9282,-19.61327],[-46.92783,-19.61353],[-46.92781,-19.6137],[-46.92778,-19.61378],[-46.9276,-19.6142],[-46.92762,-19.61451],[-46.92759,-19.61486],[-46.92763,-19.61554],[-46.92777,-19.616],[-46.92779,-19.61622],[-46.92927,-19.61609],[-46.93107,-19.61599],[-46.93116,-19.61593],[-46.93129,-19.61496],[-46.9313,-19.61434],[-46.93132,-19.61395],[-46.9314,-19.61149]],[[-46.93113,-19.60472],[-46.93065,-19.60438],[-46.9302,-19.60393],[-46.92999,-19.60348],[-46.92986,-19.60294],[-46.92983,-19.6023],[-46.92984,-19.60095],[-46.92972,-19.59832],[-46.9296,-19.59757],[-46.92937,-19.59687],[-46.92917,-19.59642],[-46.92896,-19.59606],[-46.9285,-19.59608],[-46.92802,-19.59607],[-46.92768,-19.59613],[-46.92735,-19.5962],[-46.927,-19.59632],[-46.92658,-19.59652],[-46.92614,-19.59675],[-46.92501,-19.59758],[-46.92308,-19.59893],[-46.92286,-19.59903],[-46.92247,-19.59918],[-46.92225,-19.59921],[-46.92161,-19.5992],[-46.92109,-19.59986],[-46.92202,-19.60052],[-46.92317,-19.60129],[-46.9232,-19.6014],[-46.92379,-19.60229],[-46.92473,-19.60352],[-46.92508,-19.60404],[-46.92574,-19.6049],[-46.92592,-19.60497],[-46.92555,-19.60597],[-46.92792,-19.60654],[-46.92917,-19.60674],[-46.93005,-19.60509],[-46.93019,-19.60493],[-46.93041,-19.60479],[-46.93071,-19.60474],[-46.93113,-19.60472]]],[[[-46.95176,-19.62395],[-46.95048,-19.62945],[-46.94891,-19.62984],[-46.94692,-19.62964],[-46.94504,-19.62846],[-46.94468,-19.62797],[-46.94441,-19.62737],[-46.94394,-19.62622],[-46.94442,-19.62595],[-46.94486,-19.62533],[-46.94531,-19.62449],[-46.94587,-19.62447],[-46.94623,-19.62443],[-46.94658,-19.62419],[-46.94709,-19.62393],[-46.94749,-19.62384],[-46.94755,-19.62323],[-46.94764,-19.62313],[-46.94802,-19.62307],[-46.94843,-19.62303],[-46.94883,-19.62327],[-46.94929,-19.62346],[-46.94962,-19.62383],[-46.95049,-19.6236],[-46.95101,-19.62344],[-46.95144,-19.62352],[-46.95148,-19.62381],[-46.95176,-19.62395]]]]}},{"type":"Feature","properties":{"territory_id":"mg-3104007-orozino-teixeira","name":"Orozino Teixeira","municipality_id":"mg-3104007","polling_places":1,"approx":false,"official":true,"method":"official-ibge-cd2022","whole_municipality":false,"approx_coords_only":false,"official_name":"Orozino Teixeira","official_code":"3104007036","match":"direct"},"geometry":{"type":"MultiPolygon","coordinates":[[[[-46.93017,-19.57909],[-46.93027,-19.57897],[-46.9305,-19.5788],[-46.93061,-19.57865],[-46.93132,-19.57808],[-46.93171,-19.5777],[-46.93182,-19.57745],[-46.93001,-19.57583],[-46.92978,-19.57567],[-46.92973,-19.57562],[-46.92725,-19.57621],[-46.92686,-19.57627],[-46.92618,-19.57608],[-46.92611,-19.57617],[-46.92604,-19.57616],[-46.92598,-19.57608],[-46.92547,-19.57623],[-46.92473,-19.57649],[-46.92405,-19.57683],[-46.92296,-19.57762],[-46.9222,-19.57826],[-46.92176,-19.57851],[-46.92141,-19.57862],[-46.92116,-19.5785],[-46.92096,-19.57837],[-46.92136,-19.57884],[-46.92177,-19.57925],[-46.92225,-19.57964],[-46.92288,-19.58009],[-46.92328,-19.58034],[-46.92358,-19.5805],[-46.92372,-19.58042],[-46.92392,-19.58044],[-46.92404,-19.58037],[-46.92422,-19.58033],[-46.92457,-19.58031],[-46.92479,-19.5802],[-46.92513,-19.58018],[-46.92552,-19.58006],[-46.92569,-19.57998],[-46.92587,-19.57994],[-46.92647,-19.57995],[-46.92686,-19.58001],[-46.92724,-19.58002],[-46.9275,-19.58006],[-46.92769,-19.58006],[-46.92786,-19.58001],[-46.92817,-19.5798],[-46.92835,-19.57975],[-46.92852,-19.57983],[-46.92868,-19.57984],[-46.92891,-19.57974],[-46.92916,-19.57969],[-46.92933,-19.57961],[-46.9295,-19.57963],[-46.92975,-19.57948],[-46.92995,-19.57934],[-46.93017,-19.57909]]]]}},{"type":"Feature","properties":{"territory_id":"mg-3104007-pao-de-acucar-iv","name":"Pão de Açucar Iv","municipality_id":"mg-3104007","polling_places":1,"approx":true,"official":false,"method":"voronoi-polling-places","whole_municipality":false,"approx_coords_only":false},"geometry":{"type":"MultiPolygon","coordinates":[[[[-46.9367,-19.56539],[-46.7618,-19.6754],[-46.7415,-19.6188],[-46.8174,-19.5756],[-46.8588,-19.5413],[-46.8623,-19.5057],[-46.9063,-19.482],[-46.93078,-19.47808],[-46.9367,-19.56539]]]]}},{"type":"Feature","properties":{"territory_id":"mg-3104007-santa-terezinha","name":"Santa Terezinha","municipality_id":"mg-3104007","polling_places":3,"approx":false,"official":true,"method":"official-ibge-cd2022","whole_municipality":false,"approx_coords_only":false,"official_name":"Santa Terezinha","official_code":"3104007007","match":"direct"},"geometry":{"type":"MultiPolygon","coordinates":[[[[-46.93659,-19.60618],[-46.93732,-19.60587],[-46.93797,-19.60556],[-46.93862,-19.60529],[-46.93792,-19.6043],[-46.93576,-19.60146],[-46.93563,-19.60128],[-46.93554,-19.60104],[-46.9343,-19.60187],[-46.93367,-19.60223],[-46.9324,-19.60222],[-46.93237,-19.60314],[-46.9322,-19.60391],[-46.93208,-19.60434],[-46.93192,-19.60483],[-46.93207,-19.6051],[-46.93252,-19.60539],[-46.93298,-19.60583],[-46.93318,-19.60615],[-46.93326,-19.6063],[-46.93351,-19.60703],[-46.93361,-19.60726],[-46.93376,-19.60736],[-46.93462,-19.60699],[-46.93595,-19.60646],[-46.93659,-19.60618]]]]}},{"type":"Feature","properties":{"territory_id":"mg-3104007-santo-antonio","name":"Santo Antônio","municipality_id":"mg-3104007","polling_places":3,"approx":false,"official":true,"method":"official-ibge-cd2022","whole_municipality":false,"approx_coords_only":false,"official_name":"Santo Antônio","official_code":"3104007041","match":"direct"},"geometry":{"type":"MultiPolygon","coordinates":[[[[-46.92983,-19.6023],[-46.92984,-19.60095],[-46.92972,-19.59832],[-46.9296,-19.59757],[-46.92937,-19.59687],[-46.92917,-19.59642],[-46.92896,-19.59606],[-46.9285,-19.59608],[-46.92802,-19.59607],[-46.92768,-19.59613],[-46.92735,-19.5962],[-46.927,-19.59632],[-46.92658,-19.59652],[-46.92614,-19.59675],[-46.92501,-19.59758],[-46.92308,-19.59893],[-46.92286,-19.59903],[-46.92247,-19.59918],[-46.92225,-19.59921],[-46.92161,-19.5992],[-46.92109,-19.59986],[-46.92202,-19.60052],[-46.92317,-19.60129],[-46.9232,-19.6014],[-46.92379,-19.60229],[-46.92473,-19.60352],[-46.92508,-19.60404],[-46.92574,-19.6049],[-46.92592,-19.60497],[-46.92555,-19.60597],[-46.92792,-19.60654],[-46.92917,-19.60674],[-46.93005,-19.60509],[-46.93019,-19.60493],[-46.93041,-19.60479],[-46.93071,-19.60474],[-46.93113,-19.60472],[-46.93065,-19.60438],[-46.9302,-19.60393],[-46.92999,-19.60348],[-46.92986,-19.60294],[-46.92983,-19.6023]]]]}},{"type":"Feature","properties":{"territory_id":"mg-3104007-sao-geraldo","name":"São Geraldo","municipality_id":"mg-3104007","polling_places":2,"approx":false,"official":true,"method":"official-ibge-cd2022","whole_municipality":false,"approx_coords_only":false,"official_name":"São Geraldo","official_code":"3104007020","match":"direct"},"geometry":{"type":"MultiPolygon","coordinates":[[[[-46.94652,-19.5808],[-46.94617,-19.58083],[-46.94587,-19.58083],[-46.94479,-19.58072],[-46.94484,-19.58035],[-46.94393,-19.57957],[-46.94367,-19.57933],[-46.94375,-19.57921],[-46.94376,-19.5791],[-46.94367,-19.57897],[-46.9436,-19.57896],[-46.94352,-19.57897],[-46.94343,-19.57902],[-46.94322,-19.57925],[-46.94307,-19.57934],[-46.94291,-19.57946],[-46.94274,-19.57974],[-46.94271,-19.57996],[-46.94275,-19.58024],[-46.94282,-19.58059],[-46.94298,-19.58114],[-46.94306,-19.58158],[-46.94302,-19.58188],[-46.94292,-19.58211],[-46.94267,-19.58235],[-46.94259,-19.58238],[-46.9426,-19.58257],[-46.94244,-19.58274],[-46.94287,-19.58316],[-46.94386,-19.58423],[-46.94395,-19.58426],[-46.94478,-19.58517],[-46.94497,-19.58501],[-46.94516,-19.58483],[-46.94532,-19.58473],[-46.94612,-19.58416],[-46.94746,-19.58318],[-46.9479,-19.58277],[-46.94889,-19.58284],[-46.94989,-19.58414],[-46.95001,-19.58425],[-46.95001,-19.58462],[-46.95006,-19.58493],[-46.9504,-19.58555],[-46.95086,-19.58617],[-46.95109,-19.58618],[-46.95154,-19.58631],[-46.95169,-19.58639],[-46.95184,-19.58655],[-46.95185,-19.58803],[-46.95298,-19.58804],[-46.9532,-19.58877],[-46.95347,-19.58915],[-46.95362,-19.58944],[-46.95397,-19.59033],[-46.95425,-19.59097],[-46.95466,-19.59152],[-46.95517,-19.59207],[-46.95533,-19.59174],[-46.95539,-19.59148],[-46.9554,-19.59125],[-46.95536,-19.59082],[-46.95529,-19.59035],[-46.95521,-19.59013],[-46.95494,-19.58952],[-46.95448,-19.58839],[-46.95418,-19.58747],[-46.95405,-19.58691],[-46.95392,-19.58596],[-46.95391,-19.58494],[-46.95411,-19.58203],[-46.95416,-19.58082],[-46.95422,-19.58023],[-46.95435,-19.57804],[-46.95443,-19.57641],[-46.95441,-19.57568],[-46.95426,-19.57489],[-46.95412,-19.57455],[-46.95373,-19.57498],[-46.95315,-19.57587],[-46.95265,-19.57671],[-46.95229,-19.57725],[-46.95191,-19.57772],[-46.95159,-19.57748],[-46.95101,-19.57813],[-46.95075,-19.57838],[-46.9497,-19.57933],[-46.94945,-19.57952],[-46.94908,-19.57972],[-46.94851,-19.58007],[-46.94765,-19.58047],[-46.94718,-19.5806],[-46.94652,-19.5808]]]]}},{"type":"Feature","properties":{"territory_id":"mg-3104007-sao-pedro","name":"São Pedro","municipality_id":"mg-3104007","polling_places":1,"approx":false,"official":true,"method":"official-ibge-cd2022","whole_municipality":false,"approx_coords_only":false,"official_name":"São Pedro","official_code":"3104007002","match":"direct"},"geometry":{"type":"MultiPolygon","coordinates":[[[[-46.94192,-19.58265],[-46.94136,-19.58267],[-46.94083,-19.58277],[-46.94033,-19.58304],[-46.94001,-19.58323],[-46.9398,-19.58334],[-46.93906,-19.58385],[-46.93858,-19.58393],[-46.93769,-19.58389],[-46.93712,-19.58392],[-46.93759,-19.58449],[-46.93831,-19.58547],[-46.93869,-19.58594],[-46.93897,-19.58576],[-46.93941,-19.58703],[-46.9399,-19.58685],[-46.9404,-19.58654],[-46.94111,-19.58592],[-46.94166,-19.58539],[-46.94216,-19.58545],[-46.94255,-19.58535],[-46.94329,-19.58521],[-46.94352,-19.58519],[-46.94386,-19.58423],[-46.94287,-19.58316],[-46.94244,-19.58274],[-46.94223,-19.58276],[-46.94197,-19.58265],[-46.94192,-19.58265]]]]}},{"type":"Feature","properties":{"territory_id":"mg-3104007-urciano-lemos","name":"Urciano Lemos","municipality_id":"mg-3104007","polling_places":1,"approx":false,"official":true,"method":"official-ibge-cd2022","whole_municipality":false,"approx_coords_only":false,"official_name":"Urciano Lemos","official_code":"3104007031","match":"direct"},"geometry":{"type":"MultiPolygon","coordinates":[[[[-46.93816,-19.57765],[-46.93864,-19.57694],[-46.93907,-19.57625],[-46.93902,-19.57607],[-46.93912,-19.57573],[-46.93929,-19.57517],[-46.93939,-19.57496],[-46.93959,-19.57439],[-46.93982,-19.57353],[-46.94007,-19.57296],[-46.94027,-19.57261],[-46.93866,-19.57046],[-46.9371,-19.57154],[-46.93673,-19.57182],[-46.93426,-19.57348],[-46.93416,-19.57359],[-46.93404,-19.57377],[-46.93391,-19.57416],[-46.93374,-19.57499],[-46.93413,-19.57548],[-46.93482,-19.57641],[-46.93697,-19.57918],[-46.93796,-19.57792],[-46.93816,-19.57765]]]]}},{"type":"Feature","properties":{"territory_id":"mg-3104007-vila-rica","name":"Vila Rica","municipality_id":"mg-3104007","polling_places":1,"approx":false,"official":true,"method":"official-ibge-cd2022","whole_municipality":false,"approx_coords_only":false,"official_name":"Vila Rica","official_code":"3104007003","match":"direct"},"geometry":{"type":"MultiPolygon","coordinates":[[[[-46.935,-19.58498],[-46.9372,-19.58783],[-46.93888,-19.58718],[-46.93941,-19.58703],[-46.93897,-19.58576],[-46.93869,-19.58594],[-46.93831,-19.58547],[-46.93759,-19.58449],[-46.93712,-19.58392],[-46.93685,-19.58394],[-46.93654,-19.58408],[-46.93616,-19.58429],[-46.93578,-19.58452],[-46.935,-19.58498]]]]}},{"type":"Feature","properties":{"territory_id":"mg-3104007-vila-silveria","name":"Vila Silvéria","municipality_id":"mg-3104007","polling_places":1,"approx":false,"official":true,"method":"official-ibge-cd2022","whole_municipality":false,"approx_coords_only":false,"official_name":"Silvéria","official_code":"3104007011","match":"prefix"},"geometry":{"type":"MultiPolygon","coordinates":[[[[-46.93626,-19.61441],[-46.93532,-19.61516],[-46.9367,-19.61672],[-46.93569,-19.61755],[-46.93482,-19.61823],[-46.93523,-19.61874],[-46.93542,-19.61901],[-46.93349,-19.62042],[-46.93303,-19.62073],[-46.9332,-19.62121],[-46.93316,-19.62137],[-46.93305,-19.62151],[-46.93287,-19.62163],[-46.93264,-19.62186],[-46.93326,-19.6237],[-46.93349,-19.62415],[-46.93363,-19.62451],[-46.93382,-19.6248],[-46.93411,-19.6251],[-46.93398,-19.62563],[-46.9335,-19.62723],[-46.93332,-19.62777],[-46.93271,-19.62947],[-46.93244,-19.63047],[-46.9324,-19.63078],[-46.93239,-19.6313],[-46.93243,-19.63154],[-46.93259,-19.63201],[-46.93271,-19.63227],[-46.93346,-19.63363],[-46.93361,-19.63395],[-46.93375,-19.6341],[-46.93382,-19.63421],[-46.93396,-19.63438],[-46.93429,-19.63468],[-46.93478,-19.63521],[-46.93582,-19.63626],[-46.93636,-19.63685],[-46.93675,-19.63746],[-46.93755,-19.63849],[-46.938,-19.63911],[-46.93905,-19.64052],[-46.93919,-19.64067],[-46.93942,-19.64082],[-46.93974,-19.64093],[-46.94115,-19.64129],[-46.94117,-19.63957],[-46.94108,-19.6367],[-46.94816,-19.63665],[-46.94937,-19.63667],[-46.94931,-19.6361],[-46.9493,-19.63544],[-46.94937,-19.63441],[-46.94949,-19.63366],[-46.95007,-19.63116],[-46.95049,-19.62946],[-46.95177,-19.62395],[-46.95176,-19.62394],[-46.95209,-19.62246],[-46.95221,-19.622],[-46.95227,-19.62149],[-46.95228,-19.62044],[-46.95219,-19.61989],[-46.95205,-19.61943],[-46.95155,-19.61806],[-46.95116,-19.61715],[-46.95083,-19.61658],[-46.95058,-19.61619],[-46.95021,-19.6159],[-46.95019,-19.6159],[-46.94841,-19.61493],[-46.94721,-19.61434],[-46.94593,-19.61369],[-46.94517,-19.61329],[-46.94479,-19.6131],[-46.94243,-19.61183],[-46.94222,-19.61174],[-46.94186,-19.6117],[-46.94161,-19.61166],[-46.94135,-19.61156],[-46.94125,-19.61155],[-46.94112,-19.61159],[-46.94077,-19.61067],[-46.94005,-19.60892],[-46.94001,-19.60868],[-46.94004,-19.60548],[-46.94001,-19.6049],[-46.93986,-19.60482],[-46.93976,-19.60481],[-46.93957,-19.60486],[-46.93862,-19.60529],[-46.93871,-19.60556],[-46.93875,-19.6059],[-46.93872,-19.60618],[-46.93861,-19.60678],[-46.93819,-19.60794],[-46.93814,-19.60816],[-46.93818,-19.60861],[-46.93823,-19.60885],[-46.9383,-19.60902],[-46.93856,-19.60934],[-46.93885,-19.60962],[-46.93686,-19.61123],[-46.93732,-19.61177],[-46.93824,-19.6128],[-46.93724,-19.6136],[-46.93626,-19.61441]],[[-46.94883,-19.62327],[-46.94929,-19.62346],[-46.94962,-19.62383],[-46.95049,-19.6236],[-46.95101,-19.62344],[-46.95144,-19.62352],[-46.95148,-19.62381],[-46.95176,-19.62395],[-46.95048,-19.62945],[-46.94891,-19.62984],[-46.94692,-19.62964],[-46.94504,-19.62846],[-46.94468,-19.62797],[-46.94441,-19.62737],[-46.94394,-19.62622],[-46.94442,-19.62595],[-46.94486,-19.62533],[-46.94531,-19.62449],[-46.94587,-19.62447],[-46.94623,-19.62443],[-46.94658,-19.62419],[-46.94709,-19.62393],[-46.94749,-19.62384],[-46.94755,-19.62323],[-46.94764,-19.62313],[-46.94802,-19.62307],[-46.94843,-19.62303],[-46.94883,-19.62327]]]]}}]}