{"type":"FeatureCollection","features":[{"type":"Feature","properties":{"territory_id":"mg-3104205-brasilia","name":"Brasilia","municipality_id":"mg-3104205","polling_places":2,"approx":true,"official":false,"method":"voronoi-polling-places","whole_municipality":false,"approx_coords_only":false},"geometry":{"type":"MultiPolygon","coordinates":[[[[-45.54785,-20.29376],[-45.54649,-20.29478],[-45.54277,-20.30606],[-45.53559,-20.30324],[-45.53645,-20.30003],[-45.54054,-20.29633],[-45.54033,-20.28905],[-45.54237,-20.2887],[-45.54314,-20.28867],[-45.54785,-20.29376]]]]}},{"type":"Feature","properties":{"territory_id":"mg-3104205-centro","name":"Centro","municipality_id":"mg-3104205","polling_places":4,"approx":true,"official":false,"method":"voronoi-polling-places","whole_municipality":false,"approx_coords_only":false},"geometry":{"type":"MultiPolygon","coordinates":[[[[-45.54827,-20.28037],[-45.54314,-20.28867],[-45.54237,-20.2887],[-45.54033,-20.28905],[-45.53759,-20.28847],[-45.53629,-20.28527],[-45.53315,-20.28036],[-45.53322,-20.28006],[-45.53285,-20.27247],[-45.5481,-20.2789],[-45.54822,-20.28026],[-45.54827,-20.28037]]]]}},{"type":"Feature","properties":{"territory_id":"mg-3104205-ilha-distrito","name":"Ilha (distrito)","municipality_id":"mg-3104205","polling_places":1,"approx":true,"official":false,"method":"voronoi-polling-places","whole_municipality":false,"approx_coords_only":false},"geometry":{"type":"MultiPolygon","coordinates":[[[[-45.66413,-20.24321],[-45.56788,-20.22251],[-45.50702,-20.2018],[-45.48813,-20.19283],[-45.5654,-20.1588],[-45.589,-20.1661],[-45.6123,-20.1348],[-45.624,-20.0737],[-45.6323,-20.0731],[-45.6527,-20.12],[-45.6522,-20.1937],[-45.66413,-20.24321]]]]}},{"type":"Feature","properties":{"territory_id":"mg-3104205-jardim-bela-vista","name":"Jardim Bela Vista","municipality_id":"mg-3104205","polling_places":1,"approx":true,"official":false,"method":"voronoi-polling-places","whole_municipality":false,"approx_coords_only":false},"geometry":{"type":"MultiPolygon","coordinates":[[[[-45.5534,-20.28429],[-45.54891,-20.29384],[-45.54785,-20.29376],[-45.54314,-20.28867],[-45.54827,-20.28037],[-45.5534,-20.28429]]]]}},{"type":"Feature","properties":{"territory_id":"mg-3104205-jardim-esplanada","name":"Jardim Esplanada","municipality_id":"mg-3104205","polling_places":1,"approx":true,"official":false,"method":"voronoi-polling-places","whole_municipality":false,"approx_coords_only":false},"geometry":{"type":"MultiPolygon","coordinates":[[[[-45.59265,-20.34062],[-45.5832,-20.3751],[-45.556,-20.3852],[-45.5122,-20.3963],[-45.5055,-20.3512],[-45.4731,-20.32812],[-45.53559,-20.30324],[-45.54277,-20.30606],[-45.59265,-20.34062]]]]}},{"type":"Feature","properties":{"territory_id":"mg-3104205-niteroi","name":"Niteroi","municipality_id":"mg-3104205","polling_places":1,"approx":true,"official":false,"method":"voronoi-polling-places","whole_municipality":false,"approx_coords_only":false},"geometry":{"type":"MultiPolygon","coordinates":[[[[-45.56788,-20.22251],[-45.5481,-20.2789],[-45.53285,-20.27247],[-45.50702,-20.2018],[-45.56788,-20.22251]]]]}},{"type":"Feature","properties":{"territory_id":"mg-3104205-nova-morada","name":"Nova Morada","municipality_id":"mg-3104205","polling_places":1,"approx":true,"official":false,"method":"voronoi-polling-places","whole_municipality":false,"approx_coords_only":false},"geometry":{"type":"MultiPolygon","coordinates":[[[[-45.53322,-20.28006],[-45.53315,-20.28036],[-45.52262,-20.28955],[-45.4034,-20.33251],[-45.3857,-20.319],[-45.4564,-20.2068],[-45.48813,-20.19283],[-45.50702,-20.2018],[-45.53285,-20.27247],[-45.53322,-20.28006]]]]}},{"type":"Feature","properties":{"territory_id":"mg-3104205-planalto","name":"Planalto","municipality_id":"mg-3104205","polling_places":1,"approx":true,"official":false,"method":"voronoi-polling-places","whole_municipality":false,"approx_coords_only":false},"geometry":{"type":"MultiPolygon","coordinates":[[[[-45.6655,-20.2489],[-45.66084,-20.29427],[-45.5534,-20.28429],[-45.54827,-20.28037],[-45.54822,-20.28026],[-45.5481,-20.2789],[-45.56788,-20.22251],[-45.66413,-20.24321],[-45.6655,-20.2489]]]]}},{"type":"Feature","properties":{"territory_id":"mg-3104205-santo-antonio","name":"Santo Antonio","municipality_id":"mg-3104205","polling_places":1,"approx":true,"official":false,"method":"voronoi-polling-places","whole_municipality":false,"approx_coords_only":false},"geometry":{"type":"MultiPolygon","coordinates":[[[[-45.53645,-20.30003],[-45.53559,-20.30324],[-45.4731,-20.32812],[-45.4697,-20.3257],[-45.4191,-20.3445],[-45.4034,-20.33251],[-45.52262,-20.28955],[-45.53448,-20.29197],[-45.53645,-20.30003]]]]}},{"type":"Feature","properties":{"territory_id":"mg-3104205-sao-judas-tadeu","name":"Sao Judas Tadeu","municipality_id":"mg-3104205","polling_places":1,"approx":true,"official":false,"method":"voronoi-polling-places","whole_municipality":false,"approx_coords_only":false},"geometry":{"type":"MultiPolygon","coordinates":[[[[-45.66084,-20.29427],[-45.6606,-20.2966],[-45.5969,-20.3251],[-45.5945,-20.33387],[-45.54891,-20.29384],[-45.5534,-20.28429],[-45.66084,-20.29427]]]]}},{"type":"Feature","properties":{"territory_id":"mg-3104205-sao-vicente","name":"São Vicente","municipality_id":"mg-3104205","polling_places":1,"approx":true,"official":false,"method":"voronoi-polling-places","whole_municipality":false,"approx_coords_only":false},"geometry":{"type":"MultiPolygon","coordinates":[[[[-45.54054,-20.29633],[-45.53645,-20.30003],[-45.53448,-20.29197],[-45.53759,-20.28847],[-45.54033,-20.28905],[-45.54054,-20.29633]]]]}},{"type":"Feature","properties":{"territory_id":"mg-3104205-vila-boa-vista","name":"Vila Boa Vista","municipality_id":"mg-3104205","polling_places":1,"approx":true,"official":false,"method":"voronoi-polling-places","whole_municipality":false,"approx_coords_only":false},"geometry":{"type":"MultiPolygon","coordinates":[[[[-45.53759,-20.28847],[-45.53448,-20.29197],[-45.52262,-20.28955],[-45.53315,-20.28036],[-45.53629,-20.28527],[-45.53759,-20.28847]]]]}},{"type":"Feature","properties":{"territory_id":"mg-3104205-vila-calcita","name":"Vila Calcita","municipality_id":"mg-3104205","polling_places":1,"approx":true,"official":false,"method":"voronoi-polling-places","whole_municipality":false,"approx_coords_only":false},"geometry":{"type":"MultiPolygon","coordinates":[[[[-45.5945,-20.33387],[-45.59265,-20.34062],[-45.54277,-20.30606],[-45.54649,-20.29478],[-45.54785,-20.29376],[-45.54891,-20.29384],[-45.5945,-20.33387]]]]}}]}