{"type":"FeatureCollection","features":[{"type":"Feature","properties":{"territory_id":"mg-3104809-centro","name":"Centro","municipality_id":"mg-3104809","polling_places":1,"approx":false,"official":true,"method":"official-ibge-cd2022","whole_municipality":false,"approx_coords_only":false,"official_name":"Centro","official_code":"3104809001","match":"direct"},"geometry":{"type":"MultiPolygon","coordinates":[[[[-44.26576,-18.10728],[-44.26406,-18.10711],[-44.26353,-18.10701],[-44.26318,-18.10687],[-44.26283,-18.10668],[-44.26251,-18.10642],[-44.26237,-18.10672],[-44.2623,-18.10685],[-44.26164,-18.10847],[-44.26132,-18.10862],[-44.26092,-18.1087],[-44.26134,-18.10907],[-44.26144,-18.10912],[-44.2616,-18.10924],[-44.26164,-18.10932],[-44.26163,-18.10939],[-44.26159,-18.10943],[-44.26151,-18.10946],[-44.26132,-18.10942],[-44.26173,-18.10965],[-44.26252,-18.10999],[-44.26317,-18.11017],[-44.26476,-18.11054],[-44.26621,-18.11114],[-44.26679,-18.11135],[-44.26719,-18.11155],[-44.26743,-18.11171],[-44.26748,-18.1116],[-44.26753,-18.11119],[-44.2676,-18.11103],[-44.26764,-18.11086],[-44.26772,-18.11069],[-44.26776,-18.1104],[-44.26768,-18.10992],[-44.26787,-18.1096],[-44.26785,-18.10946],[-44.2678,-18.10926],[-44.26772,-18.10916],[-44.26775,-18.10912],[-44.26774,-18.10901],[-44.26779,-18.10895],[-44.26778,-18.10887],[-44.26784,-18.10882],[-44.26786,-18.10869],[-44.26792,-18.10851],[-44.26798,-18.10843],[-44.26808,-18.1082],[-44.26816,-18.10808],[-44.26832,-18.10804],[-44.26853,-18.10755],[-44.26679,-18.10738],[-44.26576,-18.10728]]]]}},{"type":"Feature","properties":{"territory_id":"mg-3104809-floresta","name":"Floresta","municipality_id":"mg-3104809","polling_places":1,"approx":false,"official":true,"method":"official-ibge-cd2022","whole_municipality":false,"approx_coords_only":false,"official_name":"Floresta","official_code":"3104809004","match":"direct"},"geometry":{"type":"MultiPolygon","coordinates":[[[[-44.25112,-18.11501],[-44.25172,-18.11527],[-44.25302,-18.11258],[-44.25579,-18.11315],[-44.26062,-18.10978],[-44.26034,-18.10884],[-44.26037,-18.10878],[-44.25994,-18.10885],[-44.2567,-18.1093],[-44.2563,-18.10945],[-44.25574,-18.10975],[-44.25533,-18.11002],[-44.25331,-18.11124],[-44.25287,-18.11147],[-44.25266,-18.11164],[-44.25259,-18.11189],[-44.25112,-18.11501]]]]}},{"type":"Feature","properties":{"territory_id":"mg-3104809-zona-rural","name":"Zona Rural","municipality_id":"mg-3104809","polling_places":6,"approx":true,"official":false,"method":"voronoi-polling-places","whole_municipality":false,"approx_coords_only":false},"geometry":{"type":"MultiPolygon","coordinates":[[[[-44.4836,-18.0745],[-44.4748,-18.1163],[-44.4477,-18.1682],[-44.4605,-18.1965],[-44.4325,-18.2097],[-44.3913,-18.1882],[-44.3139,-18.2317],[-44.2759,-18.237],[-44.2208,-18.2255],[-44.1953,-18.2462],[-44.1641,-18.2467],[-44.1202,-18.2204],[-44.0884,-18.2204],[-44.0441,-18.2003],[-44.015,-18.2126],[-43.9542,-18.1576],[-43.9558,-18.141],[-43.9682,-18.1111],[-43.9488,-18.0797],[-43.9598,-18.0396],[-43.9454,-18.0152],[-43.9794,-17.9916],[-44.038,-17.9761],[-44.0556,-17.9524],[-44.0982,-17.9943],[-44.1192,-17.9679],[-44.1523,-17.9762],[-44.2091,-18.0191],[-44.2471,-18.0209],[-44.2879,-18.0068],[-44.3548,-18.0325],[-44.4046,-18.0196],[-44.4271,-18.0755],[-44.4836,-18.0745]],[[-44.26853,-18.10755],[-44.26679,-18.10738],[-44.26576,-18.10728],[-44.26406,-18.10711],[-44.26353,-18.10701],[-44.26318,-18.10687],[-44.26283,-18.10668],[-44.26251,-18.10642],[-44.26237,-18.10672],[-44.2623,-18.10685],[-44.26164,-18.10847],[-44.26132,-18.10862],[-44.26092,-18.1087],[-44.26134,-18.10907],[-44.26144,-18.10912],[-44.2616,-18.10924],[-44.26164,-18.10932],[-44.26163,-18.10939],[-44.26159,-18.10943],[-44.26151,-18.10946],[-44.26132,-18.10942],[-44.26173,-18.10965],[-44.26252,-18.10999],[-44.26317,-18.11017],[-44.26476,-18.11054],[-44.26621,-18.11114],[-44.26679,-18.11135],[-44.26719,-18.11155],[-44.26743,-18.11171],[-44.26748,-18.1116],[-44.26753,-18.11119],[-44.2676,-18.11103],[-44.26764,-18.11086],[-44.26772,-18.11069],[-44.26776,-18.1104],[-44.26768,-18.10992],[-44.26787,-18.1096],[-44.26785,-18.10946],[-44.2678,-18.10926],[-44.26772,-18.10916],[-44.26775,-18.10912],[-44.26774,-18.10901],[-44.26779,-18.10895],[-44.26778,-18.10887],[-44.26784,-18.10882],[-44.26786,-18.10869],[-44.26792,-18.10851],[-44.26798,-18.10843],[-44.26808,-18.1082],[-44.26816,-18.10808],[-44.26832,-18.10804],[-44.26853,-18.10755]],[[-44.26062,-18.10978],[-44.26034,-18.10884],[-44.26037,-18.10878],[-44.25994,-18.10885],[-44.2567,-18.1093],[-44.2563,-18.10945],[-44.25574,-18.10975],[-44.25533,-18.11002],[-44.25331,-18.11124],[-44.25287,-18.11147],[-44.25266,-18.11164],[-44.25259,-18.11189],[-44.25112,-18.11501],[-44.25172,-18.11527],[-44.25302,-18.11258],[-44.25579,-18.11315],[-44.26062,-18.10978]]]]}}]}