{"type":"FeatureCollection","features":[{"type":"Feature","properties":{"territory_id":"mg-3105400-capim-cheiroso","name":"Capim Cheiroso","municipality_id":"mg-3105400","polling_places":1,"approx":true,"official":false,"method":"voronoi-polling-places","whole_municipality":false,"approx_coords_only":false},"geometry":{"type":"MultiPolygon","coordinates":[[[[-43.4981,-19.96746],[-43.48651,-19.9729],[-43.48085,-19.96375],[-43.48097,-19.95049],[-43.48155,-19.94984],[-43.48767,-19.94974],[-43.49153,-19.95027],[-43.4981,-19.96746]]]]}},{"type":"Feature","properties":{"territory_id":"mg-3105400-centro","name":"Centro","municipality_id":"mg-3105400","polling_places":4,"approx":true,"official":false,"method":"voronoi-polling-places","whole_municipality":false,"approx_coords_only":false},"geometry":{"type":"MultiPolygon","coordinates":[[[[-43.53259,-19.78444],[-43.5236,-19.8338],[-43.52275,-19.87252],[-43.49659,-19.88539],[-43.42404,-19.89848],[-43.4335,-19.8762],[-43.3943,-19.8649],[-43.39385,-19.85377],[-43.53259,-19.78444]]],[[[-43.49213,-19.94828],[-43.49153,-19.95027],[-43.48767,-19.94974],[-43.48453,-19.94282],[-43.48214,-19.94405],[-43.48092,-19.94551],[-43.47185,-19.94025],[-43.47939,-19.93455],[-43.48077,-19.93304],[-43.48716,-19.93737],[-43.48716,-19.93738],[-43.48507,-19.94233],[-43.49213,-19.94828]]]]}},{"type":"Feature","properties":{"territory_id":"mg-3105400-corrego-da-onca","name":"Córrego da Onça","municipality_id":"mg-3105400","polling_places":1,"approx":true,"official":false,"method":"voronoi-polling-places","whole_municipality":false,"approx_coords_only":false},"geometry":{"type":"MultiPolygon","coordinates":[[[[-43.6392,-19.9675],[-43.5938,-19.9855],[-43.5461,-20.0316],[-43.5073,-20.0065],[-43.48651,-19.9729],[-43.4981,-19.96746],[-43.62835,-19.96257],[-43.6392,-19.9675]]]]}},{"type":"Feature","properties":{"territory_id":"mg-3105400-dois-irmaos","name":"Dois Irmãos","municipality_id":"mg-3105400","polling_places":1,"approx":true,"official":false,"method":"voronoi-polling-places","whole_municipality":false,"approx_coords_only":false},"geometry":{"type":"MultiPolygon","coordinates":[[[[-43.49659,-19.88539],[-43.48043,-19.91947],[-43.44379,-19.94157],[-43.4414,-19.9406],[-43.4194,-19.9094],[-43.42404,-19.89848],[-43.49659,-19.88539]]]]}},{"type":"Feature","properties":{"territory_id":"mg-3105400-lagoa","name":"Lagoa","municipality_id":"mg-3105400","polling_places":1,"approx":true,"official":false,"method":"voronoi-polling-places","whole_municipality":false,"approx_coords_only":false},"geometry":{"type":"MultiPolygon","coordinates":[[[[-43.49372,-19.94519],[-43.49213,-19.94828],[-43.48507,-19.94233],[-43.48716,-19.93738],[-43.49372,-19.94519]]]]}},{"type":"Feature","properties":{"territory_id":"mg-3105400-leao-xiii","name":"Leão Xiii","municipality_id":"mg-3105400","polling_places":2,"approx":true,"official":false,"method":"voronoi-polling-places","whole_municipality":false,"approx_coords_only":false},"geometry":{"type":"MultiPolygon","coordinates":[[[[-43.52305,-19.91996],[-43.49274,-19.93431],[-43.48716,-19.93737],[-43.48077,-19.93304],[-43.48068,-19.92579],[-43.48043,-19.91947],[-43.49659,-19.88539],[-43.52275,-19.87252],[-43.5217,-19.9199],[-43.52305,-19.91996]]]]}},{"type":"Feature","properties":{"territory_id":"mg-3105400-mirante-da-lagoa","name":"Mirante da Lagoa","municipality_id":"mg-3105400","polling_places":1,"approx":true,"official":false,"method":"voronoi-polling-places","whole_municipality":false,"approx_coords_only":false},"geometry":{"type":"MultiPolygon","coordinates":[[[[-43.53284,-19.92041],[-43.49372,-19.94519],[-43.48716,-19.93738],[-43.48716,-19.93737],[-43.49274,-19.93431],[-43.52305,-19.91996],[-43.53284,-19.92041]]]]}},{"type":"Feature","properties":{"territory_id":"mg-3105400-santa-cruz","name":"Santa Cruz","municipality_id":"mg-3105400","polling_places":1,"approx":true,"official":false,"method":"voronoi-polling-places","whole_municipality":false,"approx_coords_only":false},"geometry":{"type":"MultiPolygon","coordinates":[[[[-43.62835,-19.96257],[-43.4981,-19.96746],[-43.49153,-19.95027],[-43.49213,-19.94828],[-43.49372,-19.94519],[-43.53284,-19.92041],[-43.5789,-19.9225],[-43.6029,-19.951],[-43.62835,-19.96257]]]]}},{"type":"Feature","properties":{"territory_id":"mg-3105400-sao-goncalo-do-rio-acima","name":"São Gonçalo do Rio Acima","municipality_id":"mg-3105400","polling_places":1,"approx":true,"official":false,"method":"voronoi-polling-places","whole_municipality":false,"approx_coords_only":false},"geometry":{"type":"MultiPolygon","coordinates":[[[[-43.48097,-19.95049],[-43.48085,-19.96375],[-43.475,-19.9543],[-43.46393,-19.94979],[-43.48097,-19.95049]]]]}},{"type":"Feature","properties":{"territory_id":"mg-3105400-sao-jose","name":"São José","municipality_id":"mg-3105400","polling_places":1,"approx":true,"official":false,"method":"voronoi-polling-places","whole_municipality":false,"approx_coords_only":false},"geometry":{"type":"MultiPolygon","coordinates":[[[[-43.48077,-19.93304],[-43.47939,-19.93455],[-43.47185,-19.94025],[-43.45337,-19.94548],[-43.44379,-19.94157],[-43.48043,-19.91947],[-43.48068,-19.92579],[-43.48077,-19.93304]]]]}},{"type":"Feature","properties":{"territory_id":"mg-3105400-vila-sao-geraldo","name":"Vila São Geraldo","municipality_id":"mg-3105400","polling_places":1,"approx":true,"official":false,"method":"voronoi-polling-places","whole_municipality":false,"approx_coords_only":false},"geometry":{"type":"MultiPolygon","coordinates":[[[[-43.48767,-19.94974],[-43.48155,-19.94984],[-43.48092,-19.94551],[-43.48214,-19.94405],[-43.48453,-19.94282],[-43.48767,-19.94974]]]]}},{"type":"Feature","properties":{"territory_id":"mg-3105400-viuva","name":"Viúva","municipality_id":"mg-3105400","polling_places":1,"approx":true,"official":false,"method":"voronoi-polling-places","whole_municipality":false,"approx_coords_only":false},"geometry":{"type":"MultiPolygon","coordinates":[[[[-43.48155,-19.94984],[-43.48097,-19.95049],[-43.46393,-19.94979],[-43.45337,-19.94548],[-43.47185,-19.94025],[-43.48092,-19.94551],[-43.48155,-19.94984]]]]}},{"type":"Feature","properties":{"territory_id":"mg-3105400-zona-rural","name":"Zona Rural","municipality_id":"mg-3105400","polling_places":1,"approx":true,"official":false,"method":"voronoi-polling-places","whole_municipality":false,"approx_coords_only":false},"geometry":{"type":"MultiPolygon","coordinates":[[[[-43.5369,-19.7608],[-43.53259,-19.78444],[-43.39385,-19.85377],[-43.3906,-19.7724],[-43.4344,-19.7877],[-43.5369,-19.7608]]]]}}]}