{"type":"FeatureCollection","features":[{"type":"Feature","properties":{"territory_id":"mg-3105103-centro","name":"Centro","municipality_id":"mg-3105103","polling_places":8,"approx":true,"official":false,"method":"voronoi-polling-places","whole_municipality":false,"approx_coords_only":false},"geometry":{"type":"MultiPolygon","coordinates":[[[[-46.01172,-19.99973],[-45.98284,-20.01379],[-45.98189,-20.01453],[-45.98165,-20.01482],[-45.97811,-20.03173],[-45.97753,-20.03044],[-45.96741,-20.01129],[-45.96712,-20.0108],[-45.86522,-19.90329],[-45.885,-19.909],[-45.90411,-19.90972],[-45.9618,-19.95959],[-45.99336,-19.98562],[-46.01172,-19.99973]]]]}},{"type":"Feature","properties":{"territory_id":"mg-3105103-lava-pes","name":"Lava-pés","municipality_id":"mg-3105103","polling_places":1,"approx":true,"official":false,"method":"voronoi-polling-places","whole_municipality":false,"approx_coords_only":false},"geometry":{"type":"MultiPolygon","coordinates":[[[[-46.01301,-20.0005],[-45.98187,-20.049],[-45.97811,-20.03173],[-45.98165,-20.01482],[-45.98189,-20.01453],[-45.98284,-20.01379],[-46.01172,-19.99973],[-46.01301,-20.0005]]]]}},{"type":"Feature","properties":{"territory_id":"mg-3105103-sagrado-coracao-de-jesus","name":"Sagrado Coração de Jesus","municipality_id":"mg-3105103","polling_places":1,"approx":true,"official":false,"method":"voronoi-polling-places","whole_municipality":false,"approx_coords_only":false},"geometry":{"type":"MultiPolygon","coordinates":[[[[-45.98187,-20.049],[-45.96552,-20.10781],[-45.95389,-20.10778],[-45.86201,-19.90237],[-45.86522,-19.90329],[-45.96712,-20.0108],[-45.96741,-20.01129],[-45.97753,-20.03044],[-45.97811,-20.03173],[-45.98187,-20.049]]]]}},{"type":"Feature","properties":{"territory_id":"mg-3105103-zona-rural","name":"Zona Rural","municipality_id":"mg-3105103","polling_places":5,"approx":true,"official":false,"method":"voronoi-polling-places","whole_municipality":false,"approx_coords_only":false},"geometry":{"type":"MultiPolygon","coordinates":[[[[-46.2257,-20.1846],[-46.2227,-20.2213],[-46.1679,-20.2554],[-46.154,-20.2892],[-46.1222,-20.2851],[-46.0802,-20.3388],[-46.0373,-20.356],[-46.0119,-20.3368],[-45.976,-20.3383],[-45.9399,-20.314],[-45.9562,-20.2962],[-45.9504,-20.2548],[-45.8902,-20.2172],[-45.8862,-20.1898],[-45.8543,-20.1455],[-45.8429,-20.0871],[-45.8089,-20.0558],[-45.7762,-20.0538],[-45.7956,-20.0009],[-45.7595,-19.9726],[-45.7976,-19.9147],[-45.8472,-19.8981],[-45.86201,-19.90237],[-45.95389,-20.10778],[-45.96552,-20.10781],[-45.98187,-20.049],[-46.01301,-20.0005],[-46.01172,-19.99973],[-45.99336,-19.98562],[-45.9618,-19.95959],[-45.90411,-19.90972],[-45.9888,-19.9129],[-45.9901,-19.9508],[-46.0283,-19.9485],[-46.1165,-19.9601],[-46.1553,-19.9975],[-46.1128,-20.0624],[-46.1597,-20.1119],[-46.2156,-20.1336],[-46.2257,-20.1846]]]]}}]}