{"type":"FeatureCollection","features":[{"type":"Feature","properties":{"territory_id":"mg-3105707-centro","name":"Centro","municipality_id":"mg-3105707","polling_places":2,"approx":true,"official":false,"method":"voronoi-polling-places","whole_municipality":false,"approx_coords_only":false},"geometry":{"type":"MultiPolygon","coordinates":[[[[-43.08506,-20.27516],[-43.06243,-20.31476],[-43.03634,-20.30159],[-42.97862,-20.28435],[-42.97287,-20.27419],[-43.04699,-20.25205],[-43.06616,-20.24391],[-43.07679,-20.24905],[-43.08506,-20.27516]]]]}},{"type":"Feature","properties":{"territory_id":"mg-3105707-zona-rural","name":"Zona Rural","municipality_id":"mg-3105707","polling_places":9,"approx":true,"official":false,"method":"voronoi-polling-places","whole_municipality":false,"approx_coords_only":false},"geometry":{"type":"MultiPolygon","coordinates":[[[[-43.1812,-20.2874],[-43.1329,-20.3407],[-43.0794,-20.3645],[-43.0519,-20.4032],[-43.0239,-20.4102],[-43.0149,-20.3728],[-43.0336,-20.3432],[-43.0113,-20.3249],[-42.9685,-20.3389],[-42.9537,-20.3199],[-42.953,-20.273],[-42.9761,-20.2585],[-42.9748,-20.2201],[-42.9572,-20.2041],[-43.0597,-20.1893],[-43.0957,-20.1732],[-43.1509,-20.1664],[-43.1628,-20.1772],[-43.1458,-20.2333],[-43.1812,-20.2874]],[[-43.08506,-20.27516],[-43.07679,-20.24905],[-43.06616,-20.24391],[-43.04699,-20.25205],[-42.97287,-20.27419],[-42.97862,-20.28435],[-43.03634,-20.30159],[-43.06243,-20.31476],[-43.08506,-20.27516]]]]}}]}