{"type":"FeatureCollection","features":[{"type":"Feature","properties":{"territory_id":"mg-3105202-centro","name":"Centro","municipality_id":"mg-3105202","polling_places":1,"approx":true,"official":false,"method":"voronoi-polling-places","whole_municipality":false,"approx_coords_only":false},"geometry":{"type":"MultiPolygon","coordinates":[[[[-40.7327,-15.8287],[-40.7182,-15.8609],[-40.7278,-15.8952],[-40.7176,-15.904],[-40.7097,-15.974],[-40.676,-16.0106],[-40.646,-15.9237],[-40.611,-15.9356],[-40.56143,-15.94343],[-40.47779,-15.84591],[-40.4956,-15.8125],[-40.5198,-15.7976],[-40.5611,-15.8036],[-40.626,-15.7182],[-40.6449,-15.7289],[-40.6365,-15.8672],[-40.7199,-15.8286],[-40.7239,-15.8058],[-40.7327,-15.8287]]]]}},{"type":"Feature","properties":{"territory_id":"mg-3105202-povoado-do-timorante","name":"Povoado do Timorante","municipality_id":"mg-3105202","polling_places":1,"approx":true,"official":false,"method":"voronoi-polling-places","whole_municipality":false,"approx_coords_only":false},"geometry":{"type":"MultiPolygon","coordinates":[[[[-40.56143,-15.94343],[-40.5198,-15.95],[-40.4978,-15.9728],[-40.419,-15.9325],[-40.4349,-15.8767],[-40.4746,-15.8519],[-40.47779,-15.84591],[-40.56143,-15.94343]]]]}}]}