{"type":"FeatureCollection","features":[{"type":"Feature","properties":{"territory_id":"mg-3105608-agua-santa","name":"Água Santa","municipality_id":"mg-3105608","polling_places":1,"approx":false,"official":true,"method":"official-ibge-cd2022","whole_municipality":false,"approx_coords_only":false,"official_name":"Água Santa","official_code":"3105608020","match":"direct"},"geometry":{"type":"MultiPolygon","coordinates":[[[[-43.74919,-21.20413],[-43.74912,-21.20456],[-43.74911,-21.20476],[-43.74912,-21.20497],[-43.74921,-21.20539],[-43.74948,-21.20633],[-43.74964,-21.20706],[-43.74967,-21.2073],[-43.74968,-21.2077],[-43.75009,-21.20782],[-43.75129,-21.20721],[-43.75179,-21.20682],[-43.75154,-21.20639],[-43.752,-21.20612],[-43.75218,-21.2063],[-43.75249,-21.20674],[-43.75269,-21.20708],[-43.7529,-21.2075],[-43.75297,-21.2076],[-43.7529,-21.20826],[-43.75347,-21.20842],[-43.75357,-21.20807],[-43.75379,-21.20764],[-43.7539,-21.20753],[-43.75405,-21.20745],[-43.75421,-21.20738],[-43.75457,-21.20726],[-43.75469,-21.20718],[-43.75476,-21.20706],[-43.75486,-21.20684],[-43.75505,-21.20633],[-43.75516,-21.20591],[-43.75526,-21.20562],[-43.75578,-21.20475],[-43.75595,-21.20442],[-43.75602,-21.20421],[-43.7561,-21.20395],[-43.75613,-21.20367],[-43.75613,-21.20346],[-43.75608,-21.20338],[-43.75591,-21.20324],[-43.75565,-21.20294],[-43.75545,-21.20267],[-43.75528,-21.20247],[-43.75508,-21.20231],[-43.75472,-21.20215],[-43.7546,-21.20213],[-43.75471,-21.20178],[-43.75479,-21.20167],[-43.756,-21.20103],[-43.75622,-21.20095],[-43.7563,-21.20089],[-43.75594,-21.20029],[-43.75587,-21.20022],[-43.75575,-21.20018],[-43.7549,-21.19956],[-43.75467,-21.19934],[-43.75438,-21.1991],[-43.75334,-21.19837],[-43.753,-21.1981],[-43.75242,-21.19771],[-43.75217,-21.19762],[-43.75183,-21.19759],[-43.75159,-21.19759],[-43.75162,-21.19747],[-43.75174,-21.19739],[-43.75159,-21.19701],[-43.75161,-21.19689],[-43.75171,-21.19658],[-43.75172,-21.19643],[-43.7517,-21.19627],[-43.75068,-21.19646],[-43.74988,-21.19659],[-43.74976,-21.19657],[-43.74974,-21.1966],[-43.74958,-21.19667],[-43.74949,-21.19677],[-43.74945,-21.19687],[-43.74938,-21.19695],[-43.7492,-21.19699],[-43.74908,-21.19751],[-43.74904,-21.19784],[-43.74904,-21.1987],[-43.74917,-21.20105],[-43.74939,-21.20203],[-43.74943,-21.20239],[-43.74944,-21.20267],[-43.74942,-21.20295],[-43.74931,-21.20355],[-43.74919,-21.20413]]]]}},{"type":"Feature","properties":{"territory_id":"mg-3105608-boa-morte","name":"Boa Morte","municipality_id":"mg-3105608","polling_places":2,"approx":false,"official":true,"method":"official-ibge-cd2022","whole_municipality":false,"approx_coords_only":false,"official_name":"Boa Morte","official_code":"3105608022","match":"direct"},"geometry":{"type":"MultiPolygon","coordinates":[[[[-43.77722,-21.22726],[-43.77749,-21.22817],[-43.77775,-21.22928],[-43.77785,-21.22977],[-43.77806,-21.22973],[-43.77829,-21.22972],[-43.77847,-21.22978],[-43.77858,-21.22992],[-43.77857,-21.22992],[-43.77855,-21.23004],[-43.7785,-21.23013],[-43.77845,-21.23028],[-43.77828,-21.23164],[-43.7783,-21.23181],[-43.77837,-21.2321],[-43.77845,-21.23228],[-43.77872,-21.23273],[-43.77915,-21.23321],[-43.77946,-21.23352],[-43.77987,-21.23378],[-43.78074,-21.23418],[-43.78078,-21.23424],[-43.7808,-21.2343],[-43.78075,-21.23491],[-43.78076,-21.23503],[-43.78067,-21.23515],[-43.78091,-21.23536],[-43.78101,-21.23552],[-43.78118,-21.23563],[-43.78136,-21.236],[-43.78176,-21.23574],[-43.78237,-21.23527],[-43.7834,-21.23519],[-43.78383,-21.23506],[-43.78403,-21.23479],[-43.78446,-21.23457],[-43.78502,-21.23408],[-43.78553,-21.23385],[-43.78608,-21.23297],[-43.78635,-21.2327],[-43.78551,-21.23174],[-43.78523,-21.23104],[-43.78591,-21.23081],[-43.78546,-21.23079],[-43.78532,-21.23075],[-43.78518,-21.23066],[-43.78509,-21.23054],[-43.78509,-21.23048],[-43.78504,-21.23034],[-43.78477,-21.22991],[-43.78463,-21.22963],[-43.78448,-21.22904],[-43.78443,-21.22894],[-43.78363,-21.22764],[-43.78357,-21.22758],[-43.78336,-21.22742],[-43.78235,-21.22672],[-43.78193,-21.22659],[-43.78214,-21.22624],[-43.78236,-21.22599],[-43.78168,-21.22557],[-43.78177,-21.22479],[-43.78182,-21.2247],[-43.78221,-21.22427],[-43.78193,-21.22401],[-43.78171,-21.22387],[-43.7822,-21.22335],[-43.78157,-21.22264],[-43.78119,-21.22197],[-43.78081,-21.2223],[-43.78064,-21.22252],[-43.78044,-21.22271],[-43.78029,-21.2228],[-43.78001,-21.22288],[-43.77983,-21.22289],[-43.77968,-21.22295],[-43.77882,-21.22279],[-43.77826,-21.22271],[-43.77821,-21.22291],[-43.77752,-21.22217],[-43.77748,-21.22217],[-43.77749,-21.22213],[-43.77697,-21.22151],[-43.77634,-21.22214],[-43.77623,-21.22228],[-43.77624,-21.22253],[-43.77614,-21.22398],[-43.77607,-21.22455],[-43.77599,-21.2248],[-43.77564,-21.22493],[-43.77579,-21.22535],[-43.77583,-21.22536],[-43.77606,-21.22531],[-43.7765,-21.22545],[-43.77652,-21.22551],[-43.77641,-21.22646],[-43.7764,-21.22671],[-43.77643,-21.22688],[-43.77651,-21.22691],[-43.77711,-21.22686],[-43.77711,-21.22704],[-43.77717,-21.22718],[-43.77722,-21.22726]]]]}},{"type":"Feature","properties":{"territory_id":"mg-3105608-boa-vista","name":"Boa Vista","municipality_id":"mg-3105608","polling_places":1,"approx":false,"official":true,"method":"official-ibge-cd2022","whole_municipality":false,"approx_coords_only":false,"official_name":"Boa Vista","official_code":"3105608023","match":"direct"},"geometry":{"type":"MultiPolygon","coordinates":[[[[-43.76496,-21.2166],[-43.76404,-21.21587],[-43.76338,-21.21546],[-43.76287,-21.21524],[-43.76231,-21.2151],[-43.762,-21.21505],[-43.76135,-21.21507],[-43.75973,-21.21549],[-43.75978,-21.21581],[-43.7598,-21.21665],[-43.75984,-21.21688],[-43.75988,-21.21707],[-43.75994,-21.21718],[-43.76008,-21.21753],[-43.76017,-21.21785],[-43.76022,-21.21843],[-43.76021,-21.21864],[-43.76018,-21.21876],[-43.76012,-21.21888],[-43.75998,-21.21906],[-43.75987,-21.21916],[-43.75964,-21.21929],[-43.7594,-21.21938],[-43.7591,-21.21944],[-43.75886,-21.21954],[-43.75869,-21.21965],[-43.75863,-21.21981],[-43.75897,-21.21982],[-43.75923,-21.21987],[-43.75952,-21.22051],[-43.76096,-21.22004],[-43.76175,-21.21959],[-43.76231,-21.21919],[-43.76301,-21.21874],[-43.76342,-21.21838],[-43.76407,-21.21809],[-43.76416,-21.21769],[-43.76427,-21.21732],[-43.76515,-21.21675],[-43.765,-21.21663],[-43.76496,-21.2166]]]]}},{"type":"Feature","properties":{"territory_id":"mg-3105608-caicaras","name":"Caiçaras","municipality_id":"mg-3105608","polling_places":2,"approx":false,"official":true,"method":"official-ibge-cd2022","whole_municipality":false,"approx_coords_only":false,"official_name":"Caiçaras","official_code":"3105608025","match":"direct"},"geometry":{"type":"MultiPolygon","coordinates":[[[[-43.75174,-21.21798],[-43.75229,-21.21783],[-43.75247,-21.21773],[-43.75265,-21.2176],[-43.75282,-21.2174],[-43.75296,-21.21754],[-43.7536,-21.21706],[-43.75434,-21.21655],[-43.75467,-21.21625],[-43.75498,-21.21591],[-43.75495,-21.2159],[-43.75499,-21.21587],[-43.75506,-21.21568],[-43.75394,-21.21519],[-43.75275,-21.21474],[-43.75255,-21.21466],[-43.75212,-21.21443],[-43.75172,-21.21415],[-43.74948,-21.21227],[-43.7494,-21.2131],[-43.74926,-21.21354],[-43.74914,-21.21376],[-43.74894,-21.21404],[-43.7486,-21.21447],[-43.74745,-21.21562],[-43.74837,-21.21655],[-43.74906,-21.21749],[-43.74972,-21.21832],[-43.74978,-21.21852],[-43.74988,-21.21857],[-43.75023,-21.21898],[-43.75047,-21.21914],[-43.75081,-21.2193],[-43.75113,-21.21935],[-43.7514,-21.21926],[-43.75163,-21.21909],[-43.75179,-21.21889],[-43.75182,-21.21889],[-43.75178,-21.21832],[-43.75174,-21.21798]]]]}},{"type":"Feature","properties":{"territory_id":"mg-3105608-campo","name":"Campo","municipality_id":"mg-3105608","polling_places":1,"approx":true,"official":false,"method":"voronoi-polling-places","whole_municipality":false,"approx_coords_only":false},"geometry":{"type":"MultiPolygon","coordinates":[[[[-43.79111,-21.24726],[-43.78559,-21.25547],[-43.77358,-21.24042],[-43.77014,-21.22841],[-43.77019,-21.22836],[-43.7704,-21.22808],[-43.77049,-21.22793],[-43.77053,-21.22774],[-43.77093,-21.22765],[-43.77108,-21.22761],[-43.77129,-21.22759],[-43.77176,-21.22749],[-43.77188,-21.22801],[-43.77164,-21.22958],[-43.77168,-21.22996],[-43.77179,-21.22999],[-43.7718,-21.22997],[-43.77184,-21.22999],[-43.77246,-21.23014],[-43.77353,-21.22952],[-43.77409,-21.22937],[-43.77421,-21.22968],[-43.77452,-21.22956],[-43.77463,-21.22959],[-43.77509,-21.22947],[-43.77557,-21.22939],[-43.77565,-21.22969],[-43.77592,-21.23101],[-43.77609,-21.23159],[-43.77609,-21.23174],[-43.77606,-21.23188],[-43.77618,-21.23194],[-43.77707,-21.23192],[-43.77708,-21.23184],[-43.77705,-21.2317],[-43.77722,-21.23168],[-43.77766,-21.23182],[-43.77777,-21.23184],[-43.7783,-21.23181],[-43.77837,-21.2321],[-43.77845,-21.23228],[-43.77872,-21.23273],[-43.77915,-21.23321],[-43.77946,-21.23352],[-43.77987,-21.23378],[-43.78074,-21.23418],[-43.78078,-21.23424],[-43.7808,-21.2343],[-43.78075,-21.23491],[-43.78076,-21.23503],[-43.78067,-21.23515],[-43.78091,-21.23536],[-43.78101,-21.23552],[-43.78118,-21.23563],[-43.78136,-21.236],[-43.78176,-21.23574],[-43.78216,-21.23543],[-43.79111,-21.24726]]]]}},{"type":"Feature","properties":{"territory_id":"mg-3105608-carmo","name":"Carmo","municipality_id":"mg-3105608","polling_places":2,"approx":true,"official":false,"method":"voronoi-polling-places","whole_municipality":false,"approx_coords_only":false},"geometry":{"type":"MultiPolygon","coordinates":[[[[-43.78559,-21.25547],[-43.78469,-21.25792],[-43.745,-21.26476],[-43.7438,-21.25426],[-43.75202,-21.24211],[-43.75857,-21.22954],[-43.75863,-21.22955],[-43.75882,-21.22945],[-43.75886,-21.22953],[-43.75897,-21.2296],[-43.75908,-21.2296],[-43.75919,-21.22956],[-43.75969,-21.22917],[-43.76,-21.22897],[-43.76028,-21.22887],[-43.76036,-21.22886],[-43.76045,-21.229],[-43.76073,-21.22894],[-43.761,-21.22894],[-43.76119,-21.22896],[-43.76145,-21.22902],[-43.76197,-21.22921],[-43.76226,-21.22929],[-43.76258,-21.22932],[-43.76288,-21.22929],[-43.76319,-21.22921],[-43.76365,-21.22906],[-43.764,-21.22889],[-43.76433,-21.22883],[-43.76457,-21.22882],[-43.76483,-21.22884],[-43.76506,-21.22889],[-43.76526,-21.22896],[-43.76549,-21.22907],[-43.76626,-21.22962],[-43.76655,-21.2298],[-43.76684,-21.22992],[-43.76715,-21.23001],[-43.7674,-21.23007],[-43.7676,-21.23008],[-43.768,-21.23002],[-43.76829,-21.22993],[-43.76869,-21.22968],[-43.76929,-21.22918],[-43.77014,-21.22841],[-43.77358,-21.24042],[-43.78559,-21.25547]]]]}},{"type":"Feature","properties":{"territory_id":"mg-3105608-centro","name":"Centro","municipality_id":"mg-3105608","polling_places":4,"approx":false,"official":true,"method":"official-ibge-cd2022","whole_municipality":false,"approx_coords_only":false,"official_name":"Centro","official_code":"3105608027","match":"direct"},"geometry":{"type":"MultiPolygon","coordinates":[[[[-43.77108,-21.22761],[-43.77129,-21.22759],[-43.77176,-21.22749],[-43.77188,-21.22801],[-43.77164,-21.22958],[-43.77168,-21.22996],[-43.77179,-21.22999],[-43.7718,-21.22997],[-43.77184,-21.22999],[-43.77246,-21.23014],[-43.77353,-21.22952],[-43.77409,-21.22937],[-43.77421,-21.22968],[-43.77452,-21.22956],[-43.77463,-21.22959],[-43.77509,-21.22947],[-43.77557,-21.22939],[-43.77565,-21.22969],[-43.77592,-21.23101],[-43.77609,-21.23159],[-43.77609,-21.23174],[-43.77606,-21.23188],[-43.77618,-21.23194],[-43.77707,-21.23192],[-43.77708,-21.23184],[-43.77705,-21.2317],[-43.77722,-21.23168],[-43.77766,-21.23182],[-43.77777,-21.23184],[-43.7783,-21.23181],[-43.77828,-21.23164],[-43.77845,-21.23028],[-43.7785,-21.23013],[-43.77855,-21.23004],[-43.77857,-21.22992],[-43.77858,-21.22992],[-43.77847,-21.22978],[-43.77829,-21.22972],[-43.77806,-21.22973],[-43.77785,-21.22977],[-43.77775,-21.22928],[-43.77749,-21.22817],[-43.77722,-21.22726],[-43.77717,-21.22718],[-43.77711,-21.22704],[-43.77711,-21.22686],[-43.77651,-21.22691],[-43.77643,-21.22688],[-43.7764,-21.22671],[-43.77641,-21.22646],[-43.77652,-21.22551],[-43.7765,-21.22545],[-43.77606,-21.22531],[-43.77583,-21.22536],[-43.77579,-21.22535],[-43.77564,-21.22493],[-43.77599,-21.2248],[-43.77607,-21.22455],[-43.77614,-21.22398],[-43.77624,-21.22253],[-43.77623,-21.22228],[-43.77634,-21.22214],[-43.77697,-21.22151],[-43.77758,-21.22077],[-43.77761,-21.22068],[-43.77768,-21.22066],[-43.77789,-21.2204],[-43.77789,-21.22028],[-43.77784,-21.22016],[-43.77779,-21.22017],[-43.77776,-21.22013],[-43.77694,-21.21984],[-43.77532,-21.21921],[-43.77511,-21.21917],[-43.77508,-21.21908],[-43.77516,-21.21885],[-43.77524,-21.21781],[-43.77385,-21.21745],[-43.77354,-21.21792],[-43.77312,-21.21785],[-43.77301,-21.21777],[-43.77282,-21.21755],[-43.77264,-21.21737],[-43.77241,-21.21704],[-43.77227,-21.21669],[-43.77222,-21.21651],[-43.77221,-21.21638],[-43.77221,-21.21536],[-43.77017,-21.21562],[-43.76969,-21.21572],[-43.76968,-21.21568],[-43.76961,-21.21574],[-43.76917,-21.21672],[-43.76893,-21.2175],[-43.76885,-21.21755],[-43.76894,-21.21795],[-43.76783,-21.21813],[-43.7678,-21.21955],[-43.76781,-21.21992],[-43.76788,-21.22041],[-43.76797,-21.22083],[-43.7684,-21.22213],[-43.76893,-21.22387],[-43.76901,-21.22419],[-43.76915,-21.22453],[-43.76934,-21.22487],[-43.7702,-21.22607],[-43.77043,-21.22645],[-43.77057,-21.22697],[-43.77058,-21.22731],[-43.77053,-21.22774],[-43.77093,-21.22765],[-43.77108,-21.22761]]]]}},{"type":"Feature","properties":{"territory_id":"mg-3105608-colonia-rodrigo-silva","name":"Colônia Rodrigo Silva","municipality_id":"mg-3105608","polling_places":1,"approx":true,"official":false,"method":"voronoi-polling-places","whole_municipality":false,"approx_coords_only":false},"geometry":{"type":"MultiPolygon","coordinates":[[[[-43.85101,-21.28785],[-43.79787,-21.27759],[-43.78469,-21.25792],[-43.78559,-21.25547],[-43.79111,-21.24726],[-43.81434,-21.22771],[-43.83472,-21.22603],[-43.85101,-21.28785]]]]}},{"type":"Feature","properties":{"territory_id":"mg-3105608-correia-de-almeida","name":"Correia de Almeida","municipality_id":"mg-3105608","polling_places":2,"approx":true,"official":false,"method":"voronoi-polling-places","whole_municipality":false,"approx_coords_only":false},"geometry":{"type":"MultiPolygon","coordinates":[[[[-43.65348,-21.30815],[-43.62989,-21.31957],[-43.59476,-21.31643],[-43.5819,-21.3153],[-43.60145,-21.25297],[-43.63883,-21.26958],[-43.64715,-21.29159],[-43.65348,-21.30815]]]]}},{"type":"Feature","properties":{"territory_id":"mg-3105608-diniz-ii","name":"Diniz Ii","municipality_id":"mg-3105608","polling_places":2,"approx":true,"official":false,"method":"voronoi-polling-places","whole_municipality":false,"approx_coords_only":false},"geometry":{"type":"MultiPolygon","coordinates":[[[[-43.79918,-21.21693],[-43.79842,-21.21723],[-43.79744,-21.21778],[-43.79761,-21.21758],[-43.79443,-21.21659],[-43.79404,-21.21745],[-43.79353,-21.21849],[-43.7933,-21.21895],[-43.78654,-21.21698],[-43.78678,-21.21582],[-43.78678,-21.21576],[-43.78683,-21.21565],[-43.78634,-21.21547],[-43.7861,-21.21531],[-43.78585,-21.21503],[-43.78566,-21.21489],[-43.78529,-21.21449],[-43.78503,-21.21406],[-43.78489,-21.2139],[-43.78444,-21.21318],[-43.7843,-21.21341],[-43.78421,-21.21352],[-43.78408,-21.21363],[-43.78387,-21.21377],[-43.78365,-21.21387],[-43.78249,-21.21419],[-43.78193,-21.21433],[-43.78172,-21.21436],[-43.78149,-21.21435],[-43.78158,-21.21418],[-43.78132,-21.21416],[-43.78104,-21.21406],[-43.78067,-21.21379],[-43.78042,-21.21356],[-43.77997,-21.21303],[-43.77968,-21.21283],[-43.77927,-21.21274],[-43.7779,-21.21259],[-43.77755,-21.21252],[-43.77648,-21.21247],[-43.77453,-21.21235],[-43.77397,-21.2124],[-43.77251,-21.21262],[-43.77256,-21.21284],[-43.77254,-21.21285],[-43.77257,-21.21311],[-43.77269,-21.21379],[-43.77204,-21.21397],[-43.77231,-21.21535],[-43.77221,-21.21536],[-43.77017,-21.21562],[-43.76969,-21.21572],[-43.76968,-21.21568],[-43.76961,-21.21574],[-43.76917,-21.21672],[-43.76909,-21.217],[-43.76646,-21.21759],[-43.7664,-21.21754],[-43.76555,-21.21701],[-43.76515,-21.21675],[-43.765,-21.21663],[-43.76496,-21.2166],[-43.76404,-21.21587],[-43.76338,-21.21546],[-43.76306,-21.21532],[-43.76361,-21.21073],[-43.76387,-21.21069],[-43.76436,-21.2107],[-43.76447,-21.21075],[-43.76592,-21.21093],[-43.7666,-21.2111],[-43.76678,-21.21113],[-43.76719,-21.21118],[-43.76735,-21.21114],[-43.76753,-21.21113],[-43.76798,-21.211],[-43.76817,-21.21099],[-43.76803,-21.21091],[-43.76773,-21.21063],[-43.76769,-21.21056],[-43.76772,-21.21012],[-43.76772,-21.20994],[-43.76757,-21.20945],[-43.76716,-21.20874],[-43.76764,-21.20838],[-43.76779,-21.20809],[-43.76789,-21.20755],[-43.76791,-21.2075],[-43.76803,-21.20662],[-43.76806,-21.20661],[-43.76801,-21.20603],[-43.76797,-21.2059],[-43.76757,-21.20557],[-43.76747,-21.20546],[-43.76748,-21.20536],[-43.76751,-21.20531],[-43.76744,-21.20523],[-43.76726,-21.20484],[-43.76662,-21.20278],[-43.76657,-21.20255],[-43.76655,-21.20239],[-43.76656,-21.20218],[-43.76661,-21.20184],[-43.76668,-21.2016],[-43.76679,-21.20138],[-43.76692,-21.2012],[-43.76715,-21.20101],[-43.76782,-21.20022],[-43.76716,-21.20099],[-43.76733,-21.20114],[-43.76774,-21.20159],[-43.7679,-21.20174],[-43.76821,-21.20188],[-43.76837,-21.20192],[-43.76857,-21.20197],[-43.76888,-21.202],[-43.76911,-21.20199],[-43.77036,-21.20185],[-43.7708,-21.2019],[-43.77097,-21.20196],[-43.77111,-21.20197],[-43.77126,-21.20175],[-43.77153,-21.20105],[-43.77163,-21.20084],[-43.77207,-21.20054],[-43.77242,-21.20046],[-43.77274,-21.20043],[-43.77301,-21.20046],[-43.77348,-21.20054],[-43.77445,-21.20066],[-43.77477,-21.20068],[-43.775,-21.20064],[-43.77554,-21.20038],[-43.7759,-21.20018],[-43.77612,-21.20001],[-43.77633,-21.19988],[-43.77663,-21.2],[-43.77697,-21.20019],[-43.7772,-21.2003],[-43.77718,-21.20033],[-43.77715,-21.20043],[-43.77685,-21.20081],[-43.77672,-21.20088],[-43.77655,-21.20109],[-43.77642,-21.20112],[-43.77635,-21.20117],[-43.77633,-21.2013],[-43.77614,-21.20158],[-43.7761,-21.20173],[-43.7761,-21.20192],[-43.77607,-21.20197],[-43.77606,-21.20207],[-43.77607,-21.20221],[-43.77598,-21.20234],[-43.77598,-21.20243],[-43.77591,-21.20255],[-43.77583,-21.20286],[-43.77573,-21.20288],[-43.77513,-21.20443],[-43.7751,-21.20459],[-43.77523,-21.20469],[-43.77529,-21.2048],[-43.77407,-21.20594],[-43.77389,-21.206],[-43.77327,-21.20584],[-43.7731,-21.20583],[-43.77253,-21.20526],[-43.77236,-21.20512],[-43.77215,-21.20502],[-43.77167,-21.2051],[-43.77,-21.20507],[-43.77004,-21.20525],[-43.77006,-21.20548],[-43.77001,-21.20563],[-43.76993,-21.20569],[-43.76964,-21.20584],[-43.76907,-21.20605],[-43.76901,-21.2061],[-43.76925,-21.20623],[-43.76962,-21.20651],[-43.76977,-21.20667],[-43.76987,-21.20682],[-43.76996,-21.20702],[-43.77001,-21.20721],[-43.77004,-21.20742],[-43.77006,-21.20797],[-43.77013,-21.20826],[-43.7702,-21.20843],[-43.7703,-21.20863],[-43.77039,-21.20875],[-43.77121,-21.20969],[-43.77135,-21.20991],[-43.77143,-21.21011],[-43.77148,-21.21033],[-43.7715,-21.21058],[-43.77153,-21.21076],[-43.7716,-21.21087],[-43.77177,-21.21067],[-43.77195,-21.21056],[-43.77219,-21.21046],[-43.77258,-21.21037],[-43.77348,-21.21048],[-43.77426,-21.2106],[-43.77444,-21.21062],[-43.77552,-21.2102],[-43.7757,-21.20939],[-43.77583,-21.20917],[-43.77597,-21.20909],[-43.77612,-21.20903],[-43.77612,-21.20817],[-43.77617,-21.20818],[-43.77627,-21.20812],[-43.77641,-21.2076],[-43.77647,-21.20752],[-43.77686,-21.20747],[-43.77697,-21.20753],[-43.77716,-21.20743],[-43.77742,-21.20737],[-43.77772,-21.20725],[-43.77802,-21.20771],[-43.77872,-21.20748],[-43.77879,-21.20753],[-43.7788,-21.20751],[-43.77917,-21.20735],[-43.77919,-21.20725],[-43.77918,-21.20724],[-43.77934,-21.2064],[-43.7794,-21.20637],[-43.77941,-21.20601],[-43.77936,-21.20564],[-43.77934,-21.20447],[-43.77936,-21.20357],[-43.77958,-21.20339],[-43.77987,-21.20324],[-43.78005,-21.20323],[-43.78333,-21.20338],[-43.78529,-21.20344],[-43.78617,-21.20344],[-43.78594,-21.20345],[-43.78596,-21.20365],[-43.78596,-21.20376],[-43.78556,-21.2038],[-43.78541,-21.20385],[-43.78511,-21.20374],[-43.78499,-21.2038],[-43.78493,-21.20397],[-43.78496,-21.20409],[-43.78506,-21.20427],[-43.78509,-21.20471],[-43.78503,-21.20488],[-43.78493,-21.205],[-43.7848,-21.2051],[-43.78456,-21.20571],[-43.78456,-21.20589],[-43.78463,-21.20628],[-43.78467,-21.2064],[-43.78475,-21.2065],[-43.78493,-21.20651],[-43.78526,-21.20639],[-43.78541,-21.20639],[-43.78554,-21.20646],[-43.78582,-21.20672],[-43.78602,-21.20694],[-43.78611,-21.20753],[-43.78605,-21.20784],[-43.786,-21.20796],[-43.78596,-21.20812],[-43.78577,-21.20837],[-43.78574,-21.20837],[-43.78571,-21.20843],[-43.78547,-21.2086],[-43.7854,-21.20875],[-43.78528,-21.20889],[-43.78518,-21.20894],[-43.78505,-21.2091],[-43.78511,-21.20925],[-43.78499,-21.20933],[-43.78487,-21.20945],[-43.78535,-21.20973],[-43.78555,-21.20981],[-43.7856,-21.20975],[-43.78581,-21.20958],[-43.78615,-21.20973],[-43.78657,-21.20981],[-43.78727,-21.20988],[-43.78799,-21.20987],[-43.78826,-21.2099],[-43.78864,-21.20988],[-43.78871,-21.20992],[-43.78881,-21.21003],[-43.78898,-21.21038],[-43.78898,-21.2105],[-43.78884,-21.21068],[-43.78926,-21.21087],[-43.7898,-21.21125],[-43.78986,-21.21134],[-43.78997,-21.21134],[-43.79212,-21.2127],[-43.7927,-21.21284],[-43.79325,-21.2128],[-43.79386,-21.21264],[-43.79463,-21.21209],[-43.79584,-21.21136],[-43.79918,-21.21693]]],[[[-43.79026,-21.20206],[-43.78812,-21.20307],[-43.78774,-21.2032],[-43.78745,-21.20328],[-43.78665,-21.20337],[-43.78617,-21.20344],[-43.78641,-21.20315],[-43.7865,-21.203],[-43.78655,-21.20282],[-43.78658,-21.20261],[-43.78656,-21.20245],[-43.78647,-21.20202],[-43.78625,-21.20131],[-43.78611,-21.20091],[-43.78612,-21.20083],[-43.78616,-21.20077],[-43.78647,-21.2007],[-43.78684,-21.2007],[-43.78708,-21.2006],[-43.78756,-21.20034],[-43.78772,-21.20027],[-43.78793,-21.20036],[-43.7881,-21.2004],[-43.7884,-21.20044],[-43.78859,-21.20045],[-43.78875,-21.20042],[-43.7889,-21.20035],[-43.78903,-21.20026],[-43.78905,-21.20015],[-43.78901,-21.20003],[-43.78902,-21.2],[-43.79026,-21.20206]]],[[[-43.78591,-21.19308],[-43.78513,-21.19331],[-43.7849,-21.19312],[-43.78489,-21.19302],[-43.78469,-21.19307],[-43.78421,-21.19309],[-43.78336,-21.19301],[-43.78246,-21.19288],[-43.78194,-21.19291],[-43.78157,-21.19304],[-43.78079,-21.19377],[-43.78024,-21.19442],[-43.77963,-21.19503],[-43.77946,-21.19499],[-43.77936,-21.19492],[-43.77932,-21.19483],[-43.77926,-21.19478],[-43.77915,-21.19478],[-43.77905,-21.19481],[-43.77895,-21.19488],[-43.77888,-21.19488],[-43.77878,-21.19486],[-43.77873,-21.19476],[-43.77865,-21.19466],[-43.77824,-21.19431],[-43.7781,-21.19405],[-43.778,-21.19399],[-43.77782,-21.19396],[-43.77762,-21.19387],[-43.77758,-21.19382],[-43.77758,-21.1937],[-43.7775,-21.19368],[-43.77722,-21.19363],[-43.77701,-21.1935],[-43.77691,-21.19351],[-43.77688,-21.19357],[-43.7768,-21.19365],[-43.77666,-21.19367],[-43.77649,-21.19383],[-43.77597,-21.19412],[-43.77576,-21.19418],[-43.77546,-21.19437],[-43.77522,-21.19444],[-43.77506,-21.19439],[-43.7747,-21.19437],[-43.77445,-21.19445],[-43.77396,-21.19443],[-43.7738,-21.19432],[-43.77354,-21.1943],[-43.7733,-21.19432],[-43.77306,-21.19446],[-43.77286,-21.1945],[-43.77268,-21.19452],[-43.77217,-21.19448],[-43.77171,-21.19437],[-43.77149,-21.19422],[-43.77137,-21.19419],[-43.77114,-21.1942],[-43.77094,-21.19416],[-43.77054,-21.19419],[-43.77039,-21.19422],[-43.77021,-21.19418],[-43.77005,-21.19411],[-43.76986,-21.19407],[-43.76966,-21.1941],[-43.7694,-21.19426],[-43.76929,-21.19444],[-43.76914,-21.19455],[-43.7689,-21.19459],[-43.76846,-21.19462],[-43.7683,-21.19473],[-43.76807,-21.19485],[-43.76793,-21.19483],[-43.76777,-21.19476],[-43.76767,-21.19459],[-43.76737,-21.19433],[-43.76725,-21.19423],[-43.78161,-21.18147],[-43.78591,-21.19308]]],[[[-43.7859,-21.19649],[-43.7858,-21.19633],[-43.78588,-21.19646],[-43.7859,-21.19649]]]]}},{"type":"Feature","properties":{"territory_id":"mg-3105608-floresta","name":"Floresta","municipality_id":"mg-3105608","polling_places":1,"approx":false,"official":true,"method":"official-ibge-cd2022","whole_municipality":false,"approx_coords_only":false,"official_name":"Floresta","official_code":"3105608031","match":"direct"},"geometry":{"type":"MultiPolygon","coordinates":[[[[-43.78596,-21.20376],[-43.78556,-21.2038],[-43.78541,-21.20385],[-43.78511,-21.20374],[-43.78499,-21.2038],[-43.78493,-21.20397],[-43.78496,-21.20409],[-43.78506,-21.20427],[-43.78509,-21.20471],[-43.78503,-21.20488],[-43.78493,-21.205],[-43.7848,-21.2051],[-43.78456,-21.20571],[-43.78456,-21.20589],[-43.78463,-21.20628],[-43.78467,-21.2064],[-43.78475,-21.2065],[-43.78493,-21.20651],[-43.78526,-21.20639],[-43.78541,-21.20639],[-43.78554,-21.20646],[-43.78582,-21.20672],[-43.78602,-21.20694],[-43.78611,-21.20753],[-43.78605,-21.20784],[-43.786,-21.20796],[-43.78596,-21.20812],[-43.78577,-21.20837],[-43.78574,-21.20837],[-43.78571,-21.20843],[-43.78547,-21.2086],[-43.7854,-21.20875],[-43.78528,-21.20889],[-43.78518,-21.20894],[-43.78505,-21.2091],[-43.78511,-21.20925],[-43.78499,-21.20933],[-43.78487,-21.20945],[-43.78535,-21.20973],[-43.78555,-21.20981],[-43.7856,-21.20975],[-43.78581,-21.20958],[-43.78615,-21.20973],[-43.78657,-21.20981],[-43.78727,-21.20988],[-43.78799,-21.20987],[-43.78826,-21.2099],[-43.78864,-21.20988],[-43.78871,-21.20992],[-43.78881,-21.21003],[-43.78898,-21.21038],[-43.78898,-21.2105],[-43.78884,-21.21068],[-43.78926,-21.21087],[-43.7898,-21.21125],[-43.78986,-21.21134],[-43.78997,-21.21134],[-43.79212,-21.2127],[-43.7927,-21.21284],[-43.79325,-21.2128],[-43.79386,-21.21264],[-43.79463,-21.21209],[-43.79731,-21.21047],[-43.79808,-21.20991],[-43.7981,-21.20974],[-43.79804,-21.20935],[-43.7979,-21.20873],[-43.79784,-21.20825],[-43.79765,-21.208],[-43.79752,-21.20788],[-43.79729,-21.20793],[-43.7967,-21.20798],[-43.79654,-21.20785],[-43.79653,-21.20762],[-43.7966,-21.20739],[-43.79659,-21.2067],[-43.79632,-21.20574],[-43.79641,-21.20497],[-43.79802,-21.20605],[-43.79901,-21.20669],[-43.80001,-21.20702],[-43.80132,-21.20694],[-43.80252,-21.20675],[-43.80336,-21.20636],[-43.80413,-21.2057],[-43.80463,-21.2052],[-43.8041,-21.20426],[-43.80359,-21.20331],[-43.80319,-21.20391],[-43.80276,-21.20403],[-43.80185,-21.20407],[-43.80158,-21.20357],[-43.80105,-21.20313],[-43.80102,-21.20296],[-43.80072,-21.20258],[-43.80061,-21.20262],[-43.80057,-21.20248],[-43.80046,-21.20248],[-43.80034,-21.20241],[-43.80029,-21.20228],[-43.80006,-21.20218],[-43.80001,-21.20213],[-43.79991,-21.20216],[-43.7998,-21.20201],[-43.79971,-21.20201],[-43.79963,-21.20182],[-43.79962,-21.20158],[-43.79945,-21.20149],[-43.79934,-21.20137],[-43.79918,-21.20143],[-43.79912,-21.2014],[-43.79911,-21.20126],[-43.79902,-21.20121],[-43.79886,-21.2012],[-43.79869,-21.20115],[-43.79855,-21.20108],[-43.79852,-21.20098],[-43.79862,-21.20086],[-43.79826,-21.20065],[-43.79814,-21.20072],[-43.79801,-21.20066],[-43.79807,-21.20054],[-43.79791,-21.20042],[-43.79788,-21.20029],[-43.79778,-21.20027],[-43.79762,-21.20015],[-43.79758,-21.19997],[-43.79753,-21.1999],[-43.79756,-21.19979],[-43.79766,-21.19967],[-43.79768,-21.19956],[-43.79755,-21.19933],[-43.79751,-21.19912],[-43.7975,-21.19886],[-43.79745,-21.19868],[-43.7954,-21.19967],[-43.79519,-21.19975],[-43.7944,-21.20016],[-43.79253,-21.20099],[-43.78812,-21.20307],[-43.78774,-21.2032],[-43.78745,-21.20328],[-43.78665,-21.20337],[-43.78617,-21.20344],[-43.78594,-21.20345],[-43.78596,-21.20365],[-43.78596,-21.20376]]]]}},{"type":"Feature","properties":{"territory_id":"mg-3105608-funcionarios","name":"Funcionários","municipality_id":"mg-3105608","polling_places":1,"approx":false,"official":true,"method":"official-ibge-cd2022","whole_municipality":false,"approx_coords_only":false,"official_name":"Funcionários","official_code":"3105608032","match":"direct"},"geometry":{"type":"MultiPolygon","coordinates":[[[[-43.78172,-21.21436],[-43.78132,-21.21497],[-43.78101,-21.2154],[-43.78017,-21.21671],[-43.77945,-21.21787],[-43.77934,-21.21813],[-43.77924,-21.21814],[-43.77923,-21.21855],[-43.77934,-21.21888],[-43.77931,-21.21891],[-43.77942,-21.21893],[-43.78002,-21.22001],[-43.78105,-21.21975],[-43.78107,-21.21967],[-43.78117,-21.21971],[-43.7816,-21.2196],[-43.78164,-21.21965],[-43.78173,-21.21969],[-43.7819,-21.21969],[-43.78219,-21.21967],[-43.78263,-21.21959],[-43.78276,-21.21952],[-43.78285,-21.21943],[-43.78289,-21.21933],[-43.78314,-21.21942],[-43.78474,-21.22004],[-43.78536,-21.22031],[-43.78539,-21.22024],[-43.7854,-21.22016],[-43.78535,-21.21855],[-43.78615,-21.21839],[-43.78624,-21.21831],[-43.7864,-21.21763],[-43.78678,-21.21582],[-43.78678,-21.21576],[-43.78683,-21.21565],[-43.78634,-21.21547],[-43.7861,-21.21531],[-43.78585,-21.21503],[-43.78566,-21.21489],[-43.78529,-21.21449],[-43.78503,-21.21406],[-43.78489,-21.2139],[-43.78444,-21.21318],[-43.7843,-21.21341],[-43.78421,-21.21352],[-43.78408,-21.21363],[-43.78387,-21.21377],[-43.78365,-21.21387],[-43.78249,-21.21419],[-43.78193,-21.21433],[-43.78172,-21.21436]]]]}},{"type":"Feature","properties":{"territory_id":"mg-3105608-galego","name":"Galego","municipality_id":"mg-3105608","polling_places":1,"approx":true,"official":false,"method":"voronoi-polling-places","whole_municipality":false,"approx_coords_only":false},"geometry":{"type":"MultiPolygon","coordinates":[[[[-43.745,-21.26476],[-43.72917,-21.29695],[-43.68535,-21.24696],[-43.68768,-21.2283],[-43.71844,-21.22386],[-43.74153,-21.25135],[-43.7438,-21.25426],[-43.745,-21.26476]]]]}},{"type":"Feature","properties":{"territory_id":"mg-3105608-grogoto","name":"Grogotó","municipality_id":"mg-3105608","polling_places":2,"approx":false,"official":true,"method":"official-ibge-cd2022","whole_municipality":false,"approx_coords_only":false,"official_name":"Grogotó","official_code":"3105608033","match":"direct"},"geometry":{"type":"MultiPolygon","coordinates":[[[[-43.77918,-21.20724],[-43.77934,-21.2064],[-43.7794,-21.20637],[-43.77941,-21.20601],[-43.77936,-21.20564],[-43.77934,-21.20447],[-43.77936,-21.20357],[-43.77958,-21.20339],[-43.77987,-21.20324],[-43.78005,-21.20323],[-43.78333,-21.20338],[-43.78529,-21.20344],[-43.78617,-21.20344],[-43.78641,-21.20315],[-43.7865,-21.203],[-43.78655,-21.20282],[-43.78658,-21.20261],[-43.78656,-21.20245],[-43.78647,-21.20202],[-43.78625,-21.20131],[-43.78611,-21.20091],[-43.78612,-21.20083],[-43.78616,-21.20077],[-43.78647,-21.2007],[-43.78684,-21.2007],[-43.78708,-21.2006],[-43.78756,-21.20034],[-43.78772,-21.20026],[-43.78759,-21.20021],[-43.7875,-21.20014],[-43.78698,-21.19943],[-43.78682,-21.19924],[-43.78649,-21.19857],[-43.7864,-21.19806],[-43.7864,-21.19789],[-43.7863,-21.19763],[-43.78638,-21.19743],[-43.78636,-21.19734],[-43.78627,-21.19724],[-43.78612,-21.19713],[-43.78607,-21.19703],[-43.78603,-21.19683],[-43.78602,-21.1967],[-43.78596,-21.19658],[-43.7858,-21.19633],[-43.78555,-21.1962],[-43.78551,-21.19611],[-43.7854,-21.19573],[-43.78528,-21.19569],[-43.78528,-21.19558],[-43.7852,-21.19541],[-43.78513,-21.19538],[-43.78507,-21.19538],[-43.78492,-21.19532],[-43.78478,-21.19523],[-43.78445,-21.19532],[-43.78437,-21.19529],[-43.78429,-21.19504],[-43.78436,-21.19486],[-43.78433,-21.19479],[-43.78442,-21.19475],[-43.78463,-21.19454],[-43.78484,-21.19428],[-43.78472,-21.19418],[-43.78485,-21.19374],[-43.78506,-21.19354],[-43.78513,-21.19331],[-43.7849,-21.19312],[-43.78489,-21.19302],[-43.78469,-21.19307],[-43.78421,-21.19309],[-43.78336,-21.19301],[-43.78246,-21.19288],[-43.78194,-21.19291],[-43.78157,-21.19304],[-43.78079,-21.19377],[-43.78024,-21.19442],[-43.77963,-21.19503],[-43.7797,-21.1951],[-43.77982,-21.19517],[-43.77993,-21.19527],[-43.78007,-21.19532],[-43.78018,-21.19529],[-43.78031,-21.19523],[-43.78045,-21.19524],[-43.78055,-21.19528],[-43.78074,-21.19548],[-43.78061,-21.19558],[-43.78032,-21.19565],[-43.78022,-21.19576],[-43.78015,-21.19608],[-43.78005,-21.19627],[-43.77996,-21.19639],[-43.77994,-21.1965],[-43.77966,-21.19657],[-43.77951,-21.19671],[-43.7794,-21.19692],[-43.7793,-21.19701],[-43.7791,-21.19714],[-43.77887,-21.19736],[-43.77893,-21.19748],[-43.77884,-21.19767],[-43.77874,-21.19769],[-43.77873,-21.19782],[-43.77875,-21.19786],[-43.77876,-21.19791],[-43.77872,-21.19814],[-43.77865,-21.1982],[-43.77851,-21.19825],[-43.77848,-21.19821],[-43.77848,-21.19817],[-43.77844,-21.19813],[-43.77839,-21.19813],[-43.7783,-21.19818],[-43.7783,-21.19831],[-43.77827,-21.19843],[-43.77816,-21.19854],[-43.77809,-21.19858],[-43.77809,-21.19867],[-43.77806,-21.19871],[-43.77806,-21.19875],[-43.77786,-21.19888],[-43.77754,-21.19918],[-43.77737,-21.19901],[-43.77711,-21.1992],[-43.77633,-21.19988],[-43.77663,-21.2],[-43.77697,-21.20019],[-43.7772,-21.2003],[-43.77718,-21.20033],[-43.77715,-21.20043],[-43.77685,-21.20081],[-43.77672,-21.20088],[-43.77655,-21.20109],[-43.77642,-21.20112],[-43.77635,-21.20117],[-43.77633,-21.2013],[-43.77614,-21.20158],[-43.7761,-21.20173],[-43.7761,-21.20192],[-43.77607,-21.20197],[-43.77606,-21.20207],[-43.77607,-21.20221],[-43.77598,-21.20234],[-43.77598,-21.20243],[-43.77591,-21.20255],[-43.77583,-21.20286],[-43.77573,-21.20288],[-43.77513,-21.20443],[-43.7751,-21.20459],[-43.77523,-21.20469],[-43.77529,-21.2048],[-43.77407,-21.20594],[-43.77389,-21.206],[-43.77391,-21.20619],[-43.77381,-21.20625],[-43.77349,-21.20655],[-43.77347,-21.20697],[-43.77344,-21.20704],[-43.77344,-21.20707],[-43.7734,-21.20707],[-43.77351,-21.20782],[-43.77367,-21.20815],[-43.77379,-21.20828],[-43.77402,-21.2086],[-43.77418,-21.2092],[-43.77427,-21.2098],[-43.77464,-21.20995],[-43.77426,-21.2106],[-43.77444,-21.21062],[-43.77552,-21.2102],[-43.7757,-21.20939],[-43.77583,-21.20917],[-43.77597,-21.20909],[-43.77612,-21.20903],[-43.77612,-21.20817],[-43.77617,-21.20818],[-43.77627,-21.20812],[-43.77641,-21.2076],[-43.77647,-21.20752],[-43.77686,-21.20747],[-43.77697,-21.20753],[-43.77716,-21.20743],[-43.77742,-21.20737],[-43.77772,-21.20725],[-43.77802,-21.20771],[-43.77872,-21.20748],[-43.77879,-21.20753],[-43.7788,-21.20751],[-43.77917,-21.20735],[-43.77919,-21.20725],[-43.77918,-21.20724]]]]}},{"type":"Feature","properties":{"territory_id":"mg-3105608-ipanema","name":"Ipanema","municipality_id":"mg-3105608","polling_places":2,"approx":true,"official":false,"method":"voronoi-polling-places","whole_municipality":false,"approx_coords_only":false},"geometry":{"type":"MultiPolygon","coordinates":[[[[-43.75857,-21.22954],[-43.75202,-21.24211],[-43.7438,-21.25426],[-43.74153,-21.25135],[-43.71844,-21.22386],[-43.72846,-21.21079],[-43.74531,-21.2157],[-43.74808,-21.21626],[-43.74837,-21.21655],[-43.74906,-21.21749],[-43.74972,-21.21832],[-43.74978,-21.21852],[-43.74988,-21.21857],[-43.75023,-21.21898],[-43.75047,-21.21914],[-43.75081,-21.2193],[-43.75113,-21.21935],[-43.7514,-21.21926],[-43.75163,-21.21909],[-43.75179,-21.21889],[-43.75181,-21.21889],[-43.75183,-21.21923],[-43.75191,-21.22004],[-43.75209,-21.2213],[-43.75183,-21.2217],[-43.75165,-21.22174],[-43.75154,-21.22179],[-43.75145,-21.222],[-43.75128,-21.22256],[-43.75123,-21.22254],[-43.75122,-21.22257],[-43.75125,-21.22272],[-43.75109,-21.22292],[-43.75126,-21.22308],[-43.75122,-21.22311],[-43.75137,-21.22326],[-43.75111,-21.22347],[-43.75162,-21.22406],[-43.75461,-21.22687],[-43.75532,-21.22823],[-43.75662,-21.22915],[-43.75857,-21.22954]]]]}},{"type":"Feature","properties":{"territory_id":"mg-3105608-joao-paulo-ii","name":"João Paulo Ii","municipality_id":"mg-3105608","polling_places":1,"approx":false,"official":true,"method":"official-ibge-cd2022","whole_municipality":false,"approx_coords_only":false,"official_name":"João Paulo II","official_code":"3105608004","match":"direct"},"geometry":{"type":"MultiPolygon","coordinates":[[[[-43.7916,-21.19837],[-43.79176,-21.19827],[-43.79189,-21.19824],[-43.79203,-21.19823],[-43.79224,-21.19827],[-43.79235,-21.19834],[-43.79268,-21.19862],[-43.79301,-21.19879],[-43.79311,-21.19886],[-43.79321,-21.1989],[-43.79349,-21.19889],[-43.79427,-21.19869],[-43.79446,-21.19863],[-43.79464,-21.19855],[-43.79485,-21.19835],[-43.795,-21.19817],[-43.79509,-21.19797],[-43.7952,-21.19792],[-43.79529,-21.19792],[-43.79538,-21.19798],[-43.7955,-21.19798],[-43.79616,-21.19793],[-43.7967,-21.19784],[-43.79715,-21.1977],[-43.79744,-21.19765],[-43.79819,-21.19745],[-43.79851,-21.1973],[-43.79874,-21.19712],[-43.7991,-21.19678],[-43.7993,-21.19654],[-43.79947,-21.19617],[-43.79973,-21.19612],[-43.79994,-21.19596],[-43.80029,-21.19565],[-43.80051,-21.19557],[-43.80092,-21.19546],[-43.80144,-21.19536],[-43.8016,-21.19531],[-43.80182,-21.19529],[-43.80194,-21.19525],[-43.80201,-21.19514],[-43.80204,-21.19502],[-43.80205,-21.19488],[-43.80212,-21.19473],[-43.80227,-21.19454],[-43.80247,-21.19436],[-43.80291,-21.19383],[-43.80347,-21.19327],[-43.80365,-21.19302],[-43.80384,-21.19265],[-43.80399,-21.19253],[-43.80383,-21.19229],[-43.80372,-21.19229],[-43.80358,-21.19234],[-43.80353,-21.19246],[-43.80334,-21.1927],[-43.80301,-21.19297],[-43.80255,-21.19327],[-43.80208,-21.19366],[-43.80155,-21.19416],[-43.80124,-21.19424],[-43.80095,-21.19419],[-43.80001,-21.19387],[-43.7993,-21.19373],[-43.79923,-21.19373],[-43.79898,-21.1941],[-43.79875,-21.19425],[-43.79866,-21.19428],[-43.79858,-21.19426],[-43.79822,-21.19403],[-43.79812,-21.19401],[-43.79795,-21.194],[-43.79765,-21.19406],[-43.7976,-21.19405],[-43.79757,-21.194],[-43.79757,-21.19392],[-43.79762,-21.19349],[-43.79762,-21.1932],[-43.79755,-21.19304],[-43.7971,-21.1927],[-43.79701,-21.19257],[-43.79676,-21.192],[-43.79662,-21.19186],[-43.79646,-21.19178],[-43.79609,-21.19168],[-43.79558,-21.19157],[-43.79432,-21.19119],[-43.79419,-21.19114],[-43.79409,-21.19104],[-43.79403,-21.1909],[-43.79399,-21.19076],[-43.79396,-21.19054],[-43.79365,-21.19067],[-43.79327,-21.19079],[-43.79281,-21.19086],[-43.79256,-21.19101],[-43.79244,-21.19112],[-43.79234,-21.19097],[-43.79224,-21.19089],[-43.79205,-21.19081],[-43.79177,-21.19084],[-43.79157,-21.19091],[-43.79135,-21.19123],[-43.7908,-21.19218],[-43.78888,-21.19303],[-43.78694,-21.1931],[-43.78621,-21.19324],[-43.78599,-21.19306],[-43.78513,-21.19331],[-43.78506,-21.19354],[-43.78485,-21.19374],[-43.78472,-21.19418],[-43.78484,-21.19428],[-43.78463,-21.19454],[-43.78442,-21.19475],[-43.78433,-21.19479],[-43.78436,-21.19486],[-43.78429,-21.19504],[-43.78432,-21.19516],[-43.78437,-21.19529],[-43.78445,-21.19532],[-43.78478,-21.19523],[-43.78492,-21.19532],[-43.78507,-21.19538],[-43.78513,-21.19538],[-43.7852,-21.19541],[-43.78528,-21.19558],[-43.78528,-21.19569],[-43.7854,-21.19573],[-43.78551,-21.19611],[-43.78555,-21.1962],[-43.7858,-21.19633],[-43.78588,-21.19646],[-43.78602,-21.1967],[-43.78603,-21.19683],[-43.78607,-21.19703],[-43.78612,-21.19713],[-43.78627,-21.19724],[-43.78636,-21.19734],[-43.78638,-21.19743],[-43.7863,-21.19763],[-43.7864,-21.19789],[-43.7864,-21.19806],[-43.78649,-21.19857],[-43.78682,-21.19924],[-43.78698,-21.19943],[-43.7875,-21.20014],[-43.78759,-21.20021],[-43.78793,-21.20036],[-43.7881,-21.2004],[-43.7884,-21.20044],[-43.78859,-21.20045],[-43.78875,-21.20042],[-43.7889,-21.20035],[-43.78903,-21.20026],[-43.78905,-21.20015],[-43.78901,-21.20003],[-43.78907,-21.1999],[-43.78919,-21.19984],[-43.78952,-21.19974],[-43.78995,-21.19964],[-43.79006,-21.1996],[-43.79075,-21.19919],[-43.79104,-21.19894],[-43.79125,-21.19871],[-43.7916,-21.19837]]]]}},{"type":"Feature","properties":{"territory_id":"mg-3105608-mansoes","name":"Mansões","municipality_id":"mg-3105608","polling_places":1,"approx":true,"official":false,"method":"voronoi-polling-places","whole_municipality":false,"approx_coords_only":false},"geometry":{"type":"MultiPolygon","coordinates":[[[[-43.7933,-21.21895],[-43.79306,-21.21941],[-43.79299,-21.21952],[-43.79286,-21.21961],[-43.79271,-21.21964],[-43.7915,-21.21952],[-43.79161,-21.21994],[-43.79192,-21.22083],[-43.79218,-21.22165],[-43.79235,-21.22215],[-43.79234,-21.22215],[-43.79221,-21.22175],[-43.79171,-21.2223],[-43.7915,-21.22242],[-43.79136,-21.22244],[-43.79114,-21.2224],[-43.79056,-21.22245],[-43.79017,-21.22251],[-43.78973,-21.22266],[-43.78923,-21.22266],[-43.78887,-21.22263],[-43.78847,-21.22256],[-43.78838,-21.22257],[-43.78797,-21.22285],[-43.7876,-21.2227],[-43.78745,-21.2226],[-43.78733,-21.2225],[-43.78663,-21.22174],[-43.78563,-21.22057],[-43.78536,-21.22031],[-43.78539,-21.22024],[-43.7854,-21.22016],[-43.78535,-21.21855],[-43.78615,-21.21839],[-43.78624,-21.21831],[-43.7864,-21.21763],[-43.78654,-21.21698],[-43.7933,-21.21895]]],[[[-43.78423,-21.22483],[-43.78178,-21.22563],[-43.78168,-21.22557],[-43.78177,-21.22479],[-43.78182,-21.2247],[-43.78221,-21.22427],[-43.78193,-21.22401],[-43.78171,-21.22387],[-43.7822,-21.22335],[-43.78157,-21.22264],[-43.78119,-21.22197],[-43.78081,-21.2223],[-43.78064,-21.22252],[-43.78044,-21.22271],[-43.78029,-21.2228],[-43.78001,-21.22288],[-43.77983,-21.22289],[-43.77968,-21.22295],[-43.77882,-21.22279],[-43.77826,-21.22271],[-43.77821,-21.22291],[-43.77752,-21.22217],[-43.77748,-21.22217],[-43.77749,-21.22213],[-43.77697,-21.22151],[-43.77758,-21.22077],[-43.77761,-21.22068],[-43.77768,-21.22066],[-43.77789,-21.2204],[-43.77789,-21.22028],[-43.77784,-21.22016],[-43.77779,-21.22017],[-43.77776,-21.22013],[-43.77694,-21.21984],[-43.77532,-21.21921],[-43.77511,-21.21917],[-43.77508,-21.21908],[-43.77516,-21.21885],[-43.77524,-21.21781],[-43.77611,-21.21803],[-43.77617,-21.21778],[-43.77658,-21.21676],[-43.77691,-21.21603],[-43.77875,-21.21684],[-43.77968,-21.2172],[-43.77964,-21.21727],[-43.77978,-21.21733],[-43.77945,-21.21787],[-43.77934,-21.21813],[-43.77924,-21.21814],[-43.77923,-21.21855],[-43.77934,-21.21888],[-43.77931,-21.21891],[-43.77942,-21.21893],[-43.78002,-21.22001],[-43.78105,-21.21975],[-43.78107,-21.21967],[-43.78117,-21.21971],[-43.7816,-21.2196],[-43.78164,-21.21965],[-43.78173,-21.21969],[-43.7819,-21.21969],[-43.78219,-21.21967],[-43.78263,-21.21959],[-43.78276,-21.21952],[-43.78285,-21.21943],[-43.78287,-21.21937],[-43.7829,-21.21938],[-43.78351,-21.2215],[-43.78335,-21.2215],[-43.78317,-21.22155],[-43.78232,-21.22185],[-43.78219,-21.22198],[-43.78193,-21.22234],[-43.78177,-21.22251],[-43.78177,-21.22255],[-43.78169,-21.22255],[-43.78195,-21.22286],[-43.7824,-21.2233],[-43.78281,-21.22374],[-43.78314,-21.22401],[-43.78339,-21.22413],[-43.78355,-21.22424],[-43.78373,-21.2244],[-43.78396,-21.22466],[-43.78423,-21.22483]]],[[[-43.76909,-21.217],[-43.76893,-21.2175],[-43.76885,-21.21755],[-43.76894,-21.21795],[-43.76783,-21.21813],[-43.7678,-21.21955],[-43.76781,-21.21992],[-43.76767,-21.21921],[-43.76746,-21.21863],[-43.76728,-21.21829],[-43.76714,-21.21813],[-43.76696,-21.21796],[-43.76671,-21.21776],[-43.76646,-21.21759],[-43.76909,-21.217]]]]}},{"type":"Feature","properties":{"territory_id":"mg-3105608-margaridas","name":"Margaridas","municipality_id":"mg-3105608","polling_places":1,"approx":true,"official":false,"method":"voronoi-polling-places","whole_municipality":false,"approx_coords_only":false},"geometry":{"type":"MultiPolygon","coordinates":[[[[-43.78999,-21.16092],[-43.78161,-21.18147],[-43.76725,-21.19423],[-43.76704,-21.19407],[-43.76665,-21.19385],[-43.76619,-21.19341],[-43.76591,-21.19325],[-43.76554,-21.19289],[-43.76548,-21.1927],[-43.76529,-21.1926],[-43.76506,-21.19243],[-43.76486,-21.19238],[-43.7644,-21.19237],[-43.76426,-21.19244],[-43.76411,-21.19246],[-43.76387,-21.19245],[-43.76367,-21.19233],[-43.76346,-21.19224],[-43.7632,-21.19226],[-43.76303,-21.1923],[-43.76288,-21.19239],[-43.7627,-21.19239],[-43.7625,-21.1923],[-43.76228,-21.19224],[-43.76216,-21.19226],[-43.76204,-21.19233],[-43.7619,-21.19238],[-43.76148,-21.19249],[-43.76062,-21.19279],[-43.76033,-21.19277],[-43.76015,-21.19266],[-43.75999,-21.19243],[-43.75961,-21.19234],[-43.75943,-21.1922],[-43.75898,-21.19202],[-43.75836,-21.19191],[-43.75811,-21.1918],[-43.75785,-21.19166],[-43.75762,-21.19146],[-43.75742,-21.19137],[-43.75708,-21.1914],[-43.75669,-21.19169],[-43.75654,-21.19175],[-43.75628,-21.19171],[-43.7561,-21.19171],[-43.75597,-21.19179],[-43.75591,-21.19188],[-43.7558,-21.19188],[-43.75542,-21.19179],[-43.7551,-21.19193],[-43.75486,-21.19213],[-43.75468,-21.19236],[-43.75425,-21.19256],[-43.75406,-21.19267],[-43.7535,-21.19319],[-43.7533,-21.19332],[-43.75322,-21.19351],[-43.75322,-21.19365],[-43.73118,-21.18965],[-43.72861,-21.18384],[-43.78999,-21.16092]]]]}},{"type":"Feature","properties":{"territory_id":"mg-3105608-monsenhor-mario-quintao","name":"Monsenhor Mário Quintão","municipality_id":"mg-3105608","polling_places":1,"approx":false,"official":true,"method":"official-ibge-cd2022","whole_municipality":false,"approx_coords_only":false,"official_name":"Monsenhor Mário Quintão","official_code":"3105608005","match":"direct"},"geometry":{"type":"MultiPolygon","coordinates":[[[[-43.79477,-21.22525],[-43.79499,-21.22474],[-43.79519,-21.22448],[-43.79544,-21.22427],[-43.79556,-21.22412],[-43.79533,-21.22416],[-43.79481,-21.22437],[-43.79463,-21.22441],[-43.79423,-21.22443],[-43.79395,-21.22451],[-43.79357,-21.22475],[-43.79345,-21.22479],[-43.7933,-21.22478],[-43.79314,-21.22473],[-43.79269,-21.22452],[-43.79259,-21.22452],[-43.7925,-21.22454],[-43.79231,-21.22467],[-43.79217,-21.22474],[-43.792,-21.22476],[-43.79185,-21.22476],[-43.79169,-21.22468],[-43.79197,-21.22416],[-43.79157,-21.22407],[-43.79144,-21.22402],[-43.79071,-21.22366],[-43.79038,-21.22355],[-43.79005,-21.22352],[-43.78985,-21.22353],[-43.78892,-21.22377],[-43.78858,-21.22383],[-43.78832,-21.22387],[-43.78815,-21.22387],[-43.78801,-21.22385],[-43.78778,-21.22373],[-43.78749,-21.22345],[-43.78733,-21.22327],[-43.78727,-21.22323],[-43.78704,-21.2233],[-43.78694,-21.22327],[-43.7866,-21.22329],[-43.78645,-21.22332],[-43.78448,-21.22209],[-43.78439,-21.22189],[-43.78359,-21.22189],[-43.78351,-21.2215],[-43.78335,-21.2215],[-43.78317,-21.22155],[-43.78232,-21.22185],[-43.78219,-21.22198],[-43.78193,-21.22234],[-43.78177,-21.22251],[-43.78177,-21.22255],[-43.78169,-21.22255],[-43.78195,-21.22286],[-43.7824,-21.2233],[-43.78281,-21.22374],[-43.78314,-21.22401],[-43.78339,-21.22413],[-43.78355,-21.22424],[-43.78373,-21.2244],[-43.78396,-21.22466],[-43.78444,-21.22496],[-43.78454,-21.22506],[-43.78468,-21.22515],[-43.78543,-21.22537],[-43.78567,-21.22537],[-43.7858,-21.22535],[-43.78642,-21.22553],[-43.78645,-21.22559],[-43.78645,-21.22565],[-43.78694,-21.22572],[-43.78721,-21.22573],[-43.78734,-21.2258],[-43.78811,-21.22597],[-43.78855,-21.22599],[-43.78871,-21.22603],[-43.78907,-21.22604],[-43.78935,-21.22612],[-43.78953,-21.22621],[-43.78976,-21.22635],[-43.79025,-21.22645],[-43.7905,-21.22653],[-43.79079,-21.22657],[-43.79128,-21.22659],[-43.79172,-21.22659],[-43.79212,-21.2266],[-43.79247,-21.22667],[-43.79269,-21.2267],[-43.79294,-21.22668],[-43.79372,-21.22641],[-43.79507,-21.22618],[-43.79528,-21.22603],[-43.79536,-21.22594],[-43.79477,-21.22525]]]]}},{"type":"Feature","properties":{"territory_id":"mg-3105608-monte-mario","name":"Monte Mário","municipality_id":"mg-3105608","polling_places":1,"approx":false,"official":true,"method":"official-ibge-cd2022","whole_municipality":false,"approx_coords_only":false,"official_name":"Monte Mário","official_code":"3105608035","match":"direct"},"geometry":{"type":"MultiPolygon","coordinates":[[[[-43.80207,-21.22989],[-43.80285,-21.22956],[-43.80308,-21.22948],[-43.80398,-21.22926],[-43.80429,-21.22921],[-43.80443,-21.22921],[-43.80457,-21.22926],[-43.80465,-21.22936],[-43.80471,-21.22948],[-43.80469,-21.22962],[-43.80461,-21.22979],[-43.8045,-21.2299],[-43.80439,-21.23005],[-43.80435,-21.23022],[-43.8044,-21.23036],[-43.80447,-21.23047],[-43.80457,-21.23055],[-43.80463,-21.23063],[-43.80492,-21.23085],[-43.80514,-21.23096],[-43.80574,-21.23101],[-43.80621,-21.231],[-43.80657,-21.23094],[-43.8067,-21.2308],[-43.80679,-21.23065],[-43.80702,-21.23035],[-43.80732,-21.22972],[-43.80764,-21.22923],[-43.80789,-21.22881],[-43.80843,-21.22828],[-43.80891,-21.22789],[-43.81018,-21.22737],[-43.81047,-21.22699],[-43.81061,-21.22656],[-43.81059,-21.22616],[-43.81051,-21.22585],[-43.81035,-21.22553],[-43.80987,-21.22434],[-43.80966,-21.22332],[-43.80919,-21.22197],[-43.80885,-21.22137],[-43.80864,-21.22117],[-43.8086,-21.22107],[-43.80821,-21.22034],[-43.80819,-21.22017],[-43.80824,-21.21992],[-43.8083,-21.21978],[-43.80836,-21.2197],[-43.80835,-21.21966],[-43.8084,-21.21965],[-43.80856,-21.21933],[-43.80861,-21.21913],[-43.80862,-21.21896],[-43.80859,-21.21864],[-43.80835,-21.21789],[-43.80816,-21.21744],[-43.80812,-21.21725],[-43.80802,-21.21701],[-43.80784,-21.2167],[-43.80753,-21.21642],[-43.80719,-21.21615],[-43.80701,-21.21599],[-43.80679,-21.21573],[-43.80659,-21.21542],[-43.80658,-21.21471],[-43.80655,-21.21407],[-43.80631,-21.21385],[-43.80551,-21.21367],[-43.80515,-21.21369],[-43.80367,-21.2134],[-43.80357,-21.21342],[-43.80349,-21.21347],[-43.80317,-21.21389],[-43.80291,-21.21419],[-43.80272,-21.21437],[-43.80259,-21.21443],[-43.80245,-21.21447],[-43.80208,-21.21448],[-43.80198,-21.21453],[-43.8019,-21.21463],[-43.80198,-21.21486],[-43.80199,-21.21505],[-43.80194,-21.21519],[-43.80183,-21.21536],[-43.80169,-21.21547],[-43.80154,-21.21555],[-43.80111,-21.2159],[-43.80096,-21.21604],[-43.80087,-21.21617],[-43.80075,-21.21644],[-43.80039,-21.21749],[-43.8002,-21.21763],[-43.79988,-21.2178],[-43.79971,-21.21785],[-43.79952,-21.21793],[-43.79946,-21.21798],[-43.79943,-21.21807],[-43.79952,-21.21846],[-43.7994,-21.21883],[-43.79914,-21.21922],[-43.79902,-21.21994],[-43.79906,-21.22012],[-43.79918,-21.22029],[-43.79958,-21.22095],[-43.79959,-21.22109],[-43.79953,-21.22117],[-43.79935,-21.22126],[-43.79843,-21.22184],[-43.79799,-21.22221],[-43.79775,-21.22246],[-43.79694,-21.22343],[-43.79673,-21.2236],[-43.79652,-21.22376],[-43.79617,-21.22392],[-43.79596,-21.22401],[-43.79556,-21.22412],[-43.79544,-21.22427],[-43.79519,-21.22448],[-43.79499,-21.22474],[-43.79477,-21.22525],[-43.79536,-21.22594],[-43.79528,-21.22603],[-43.79514,-21.22613],[-43.7952,-21.22621],[-43.79528,-21.22626],[-43.79556,-21.22628],[-43.79565,-21.22636],[-43.7957,-21.22648],[-43.79579,-21.2266],[-43.79589,-21.22669],[-43.79606,-21.22676],[-43.79661,-21.22755],[-43.79661,-21.22758],[-43.79698,-21.22774],[-43.79701,-21.22853],[-43.79711,-21.22945],[-43.79674,-21.22951],[-43.79672,-21.22994],[-43.79664,-21.22996],[-43.79647,-21.22998],[-43.79626,-21.22994],[-43.79603,-21.22993],[-43.79551,-21.23],[-43.79514,-21.23012],[-43.79479,-21.23026],[-43.79454,-21.23039],[-43.79421,-21.23063],[-43.79397,-21.23078],[-43.79378,-21.23086],[-43.79362,-21.23089],[-43.79408,-21.23132],[-43.79428,-21.23153],[-43.79433,-21.23179],[-43.79444,-21.23192],[-43.79494,-21.23238],[-43.79582,-21.23334],[-43.79634,-21.23403],[-43.79671,-21.23425],[-43.79678,-21.23415],[-43.7972,-21.23395],[-43.79784,-21.23375],[-43.79854,-21.23345],[-43.7992,-21.23302],[-43.79958,-21.23259],[-43.79982,-21.23219],[-43.79986,-21.23198],[-43.79988,-21.23167],[-43.79995,-21.23106],[-43.80005,-21.23081],[-43.80018,-21.23059],[-43.80037,-21.23046],[-43.8011,-21.23027],[-43.80143,-21.23016],[-43.80207,-21.22989]]]]}},{"type":"Feature","properties":{"territory_id":"mg-3105608-nove-de-marco","name":"Nove de Março","municipality_id":"mg-3105608","polling_places":1,"approx":true,"official":false,"method":"voronoi-polling-places","whole_municipality":false,"approx_coords_only":false},"geometry":{"type":"MultiPolygon","coordinates":[[[[-43.84863,-21.19943],[-43.83472,-21.22603],[-43.81434,-21.22771],[-43.81029,-21.22539],[-43.80987,-21.22434],[-43.80966,-21.22332],[-43.80919,-21.22197],[-43.80885,-21.22137],[-43.80864,-21.22117],[-43.8086,-21.22107],[-43.80821,-21.22034],[-43.80819,-21.22017],[-43.80824,-21.21992],[-43.8083,-21.21978],[-43.80836,-21.2197],[-43.80835,-21.21966],[-43.8084,-21.21965],[-43.80856,-21.21933],[-43.80861,-21.21913],[-43.80862,-21.21896],[-43.80859,-21.21864],[-43.80835,-21.21789],[-43.80816,-21.21744],[-43.80812,-21.21725],[-43.80802,-21.21701],[-43.80784,-21.2167],[-43.80753,-21.21642],[-43.80719,-21.21615],[-43.80701,-21.21599],[-43.80679,-21.21573],[-43.80659,-21.21542],[-43.80658,-21.21471],[-43.80655,-21.21407],[-43.80631,-21.21385],[-43.80551,-21.21367],[-43.80515,-21.21369],[-43.80367,-21.2134],[-43.80357,-21.21342],[-43.80349,-21.21347],[-43.80317,-21.21389],[-43.80291,-21.21419],[-43.80272,-21.21437],[-43.80259,-21.21443],[-43.80245,-21.21447],[-43.80208,-21.21448],[-43.80198,-21.21453],[-43.8019,-21.21463],[-43.80198,-21.21486],[-43.80199,-21.21505],[-43.80194,-21.21519],[-43.80183,-21.21536],[-43.80169,-21.21547],[-43.80154,-21.21555],[-43.80111,-21.2159],[-43.80096,-21.21604],[-43.80087,-21.21617],[-43.80077,-21.2164],[-43.80081,-21.21627],[-43.7995,-21.21681],[-43.79918,-21.21693],[-43.79584,-21.21136],[-43.79731,-21.21047],[-43.79808,-21.20991],[-43.7981,-21.20974],[-43.79804,-21.20935],[-43.7979,-21.20873],[-43.79784,-21.20825],[-43.79765,-21.208],[-43.79752,-21.20788],[-43.79729,-21.20793],[-43.7967,-21.20798],[-43.79654,-21.20785],[-43.79653,-21.20762],[-43.7966,-21.20739],[-43.79659,-21.2067],[-43.79632,-21.20574],[-43.79641,-21.20497],[-43.79802,-21.20605],[-43.79901,-21.20669],[-43.80001,-21.20702],[-43.80132,-21.20694],[-43.80252,-21.20675],[-43.80336,-21.20636],[-43.80413,-21.2057],[-43.80463,-21.2052],[-43.8041,-21.20426],[-43.80359,-21.20331],[-43.80319,-21.20391],[-43.80276,-21.20403],[-43.80185,-21.20407],[-43.80158,-21.20357],[-43.80105,-21.20313],[-43.80102,-21.20296],[-43.80072,-21.20258],[-43.80061,-21.20262],[-43.80057,-21.20248],[-43.80046,-21.20248],[-43.80034,-21.20241],[-43.80029,-21.20228],[-43.80006,-21.20218],[-43.80001,-21.20213],[-43.79991,-21.20216],[-43.7998,-21.20201],[-43.79971,-21.20201],[-43.79963,-21.20182],[-43.79962,-21.20158],[-43.79945,-21.20149],[-43.79934,-21.20137],[-43.79918,-21.20143],[-43.79912,-21.2014],[-43.79911,-21.20126],[-43.79902,-21.20121],[-43.79886,-21.2012],[-43.79869,-21.20115],[-43.79855,-21.20108],[-43.79852,-21.20098],[-43.79862,-21.20086],[-43.79826,-21.20065],[-43.79814,-21.20072],[-43.79801,-21.20066],[-43.79807,-21.20054],[-43.79791,-21.20042],[-43.79788,-21.20029],[-43.79778,-21.20027],[-43.79762,-21.20015],[-43.79758,-21.19997],[-43.79753,-21.1999],[-43.79756,-21.19979],[-43.79766,-21.19967],[-43.79768,-21.19956],[-43.79755,-21.19933],[-43.79751,-21.19912],[-43.7975,-21.19886],[-43.79745,-21.19868],[-43.7954,-21.19967],[-43.79519,-21.19975],[-43.7944,-21.20016],[-43.79253,-21.20099],[-43.79026,-21.20206],[-43.78902,-21.2],[-43.78907,-21.1999],[-43.78919,-21.19984],[-43.78952,-21.19974],[-43.78995,-21.19964],[-43.79006,-21.1996],[-43.79075,-21.19919],[-43.79104,-21.19894],[-43.79125,-21.19871],[-43.7916,-21.19837],[-43.79176,-21.19827],[-43.79189,-21.19824],[-43.79203,-21.19823],[-43.79224,-21.19827],[-43.79235,-21.19834],[-43.79268,-21.19862],[-43.79301,-21.19879],[-43.79311,-21.19886],[-43.79321,-21.1989],[-43.79349,-21.19889],[-43.79427,-21.19869],[-43.79446,-21.19863],[-43.79464,-21.19855],[-43.79485,-21.19835],[-43.795,-21.19817],[-43.79509,-21.19797],[-43.7952,-21.19792],[-43.79529,-21.19792],[-43.79538,-21.19798],[-43.7955,-21.19798],[-43.79616,-21.19793],[-43.7967,-21.19784],[-43.79715,-21.1977],[-43.79744,-21.19765],[-43.79819,-21.19745],[-43.79851,-21.1973],[-43.79874,-21.19712],[-43.7991,-21.19678],[-43.7993,-21.19654],[-43.79947,-21.19617],[-43.79973,-21.19612],[-43.79994,-21.19596],[-43.80029,-21.19565],[-43.80051,-21.19557],[-43.80092,-21.19546],[-43.80144,-21.19536],[-43.8016,-21.19531],[-43.80182,-21.19529],[-43.80194,-21.19525],[-43.80201,-21.19514],[-43.80204,-21.19502],[-43.80205,-21.19488],[-43.80212,-21.19473],[-43.80227,-21.19454],[-43.80247,-21.19436],[-43.80291,-21.19383],[-43.80347,-21.19327],[-43.80365,-21.19302],[-43.80384,-21.19265],[-43.80399,-21.19253],[-43.80383,-21.19229],[-43.80372,-21.19229],[-43.80358,-21.19234],[-43.80353,-21.19246],[-43.80334,-21.1927],[-43.80301,-21.19297],[-43.80255,-21.19327],[-43.80208,-21.19366],[-43.80155,-21.19416],[-43.80124,-21.19424],[-43.80095,-21.19419],[-43.80001,-21.19387],[-43.7993,-21.19373],[-43.79923,-21.19373],[-43.79898,-21.1941],[-43.79875,-21.19425],[-43.79866,-21.19428],[-43.79858,-21.19426],[-43.79822,-21.19403],[-43.79812,-21.19401],[-43.79795,-21.194],[-43.79765,-21.19406],[-43.7976,-21.19405],[-43.79757,-21.194],[-43.79757,-21.19392],[-43.79762,-21.19349],[-43.79762,-21.1932],[-43.79755,-21.19304],[-43.7971,-21.1927],[-43.79701,-21.19257],[-43.79676,-21.192],[-43.79662,-21.19186],[-43.79646,-21.19178],[-43.79609,-21.19168],[-43.79558,-21.19157],[-43.79432,-21.19119],[-43.79419,-21.19114],[-43.79409,-21.19104],[-43.79403,-21.1909],[-43.79399,-21.19076],[-43.79396,-21.19054],[-43.79365,-21.19067],[-43.79327,-21.19079],[-43.79281,-21.19086],[-43.79256,-21.19101],[-43.79244,-21.19112],[-43.79234,-21.19097],[-43.79224,-21.19089],[-43.79205,-21.19081],[-43.79177,-21.19084],[-43.79157,-21.19091],[-43.79135,-21.19123],[-43.7908,-21.19218],[-43.78888,-21.19303],[-43.78694,-21.1931],[-43.78621,-21.19324],[-43.78599,-21.19306],[-43.78591,-21.19308],[-43.78161,-21.18147],[-43.78999,-21.16092],[-43.8305,-21.1458],[-43.84156,-21.1451],[-43.84863,-21.19943]]]]}},{"type":"Feature","properties":{"territory_id":"mg-3105608-padre-brito","name":"Padre Brito","municipality_id":"mg-3105608","polling_places":1,"approx":true,"official":false,"method":"voronoi-polling-places","whole_municipality":false,"approx_coords_only":false},"geometry":{"type":"MultiPolygon","coordinates":[[[[-44.0243,-21.3415],[-44.00767,-21.36059],[-43.91435,-21.29321],[-43.94234,-21.23671],[-43.95917,-21.2224],[-44.0019,-21.2209],[-44.0229,-21.2416],[-44.008,-21.2893],[-44.0243,-21.3415]]]]}},{"type":"Feature","properties":{"territory_id":"mg-3105608-pinheiro-grosso","name":"Pinheiro Grosso","municipality_id":"mg-3105608","polling_places":1,"approx":true,"official":false,"method":"voronoi-polling-places","whole_municipality":false,"approx_coords_only":false},"geometry":{"type":"MultiPolygon","coordinates":[[[[-43.73118,-21.18965],[-43.72846,-21.21079],[-43.71844,-21.22386],[-43.68768,-21.2283],[-43.67481,-21.21081],[-43.67981,-21.16972],[-43.7148,-21.189],[-43.72861,-21.18384],[-43.73118,-21.18965]]]]}},{"type":"Feature","properties":{"territory_id":"mg-3105608-pombal","name":"Pombal","municipality_id":"mg-3105608","polling_places":1,"approx":true,"official":false,"method":"voronoi-polling-places","whole_municipality":false,"approx_coords_only":false},"geometry":{"type":"MultiPolygon","coordinates":[[[[-43.76361,-21.21073],[-43.76306,-21.21532],[-43.76287,-21.21524],[-43.76231,-21.2151],[-43.762,-21.21505],[-43.76135,-21.21507],[-43.75973,-21.21549],[-43.75806,-21.21592],[-43.75743,-21.21604],[-43.7571,-21.21606],[-43.75661,-21.21605],[-43.75623,-21.21601],[-43.75539,-21.2158],[-43.75506,-21.21568],[-43.75394,-21.21519],[-43.75275,-21.21474],[-43.75255,-21.21466],[-43.75212,-21.21443],[-43.75172,-21.21415],[-43.74948,-21.21227],[-43.7494,-21.2131],[-43.74926,-21.21354],[-43.74914,-21.21376],[-43.74894,-21.21404],[-43.7486,-21.21447],[-43.74745,-21.21562],[-43.74808,-21.21626],[-43.74531,-21.2157],[-43.72846,-21.21079],[-43.73118,-21.18965],[-43.75322,-21.19365],[-43.75321,-21.1937],[-43.75315,-21.1939],[-43.753,-21.19399],[-43.75295,-21.19416],[-43.75285,-21.19427],[-43.75233,-21.19444],[-43.75222,-21.19455],[-43.75192,-21.19475],[-43.75182,-21.19485],[-43.75166,-21.19496],[-43.7515,-21.19501],[-43.75146,-21.19514],[-43.75132,-21.19515],[-43.75122,-21.19519],[-43.75118,-21.19535],[-43.75132,-21.19547],[-43.75132,-21.19563],[-43.75131,-21.19582],[-43.75122,-21.19595],[-43.75108,-21.19599],[-43.75078,-21.19596],[-43.75055,-21.19599],[-43.7503,-21.19608],[-43.75,-21.19623],[-43.74987,-21.19645],[-43.74976,-21.19657],[-43.74974,-21.1966],[-43.74958,-21.19667],[-43.74949,-21.19677],[-43.74945,-21.19687],[-43.74938,-21.19695],[-43.7492,-21.19699],[-43.74908,-21.19751],[-43.74904,-21.19784],[-43.74904,-21.1987],[-43.74917,-21.20105],[-43.74939,-21.20203],[-43.74943,-21.20239],[-43.74944,-21.20267],[-43.74942,-21.20295],[-43.74931,-21.20355],[-43.74919,-21.20413],[-43.74912,-21.20456],[-43.74911,-21.20476],[-43.74912,-21.20497],[-43.74921,-21.20539],[-43.74948,-21.20633],[-43.74964,-21.20706],[-43.74967,-21.2073],[-43.74968,-21.2077],[-43.75009,-21.20782],[-43.75129,-21.20721],[-43.75179,-21.20682],[-43.75154,-21.20639],[-43.752,-21.20612],[-43.75218,-21.2063],[-43.75249,-21.20674],[-43.75269,-21.20708],[-43.7529,-21.2075],[-43.75297,-21.2076],[-43.7529,-21.20826],[-43.75347,-21.20842],[-43.75357,-21.20807],[-43.75379,-21.20764],[-43.7539,-21.20753],[-43.75405,-21.20745],[-43.75421,-21.20738],[-43.75457,-21.20726],[-43.75469,-21.20718],[-43.75476,-21.20706],[-43.75486,-21.20684],[-43.75496,-21.20657],[-43.75511,-21.20665],[-43.75515,-21.2067],[-43.7565,-21.20699],[-43.7566,-21.207],[-43.75702,-21.20674],[-43.75746,-21.20656],[-43.75785,-21.20656],[-43.758,-21.20636],[-43.75811,-21.20616],[-43.7582,-21.20575],[-43.75844,-21.20558],[-43.75844,-21.20545],[-43.75856,-21.20549],[-43.75872,-21.2057],[-43.75894,-21.20592],[-43.759,-21.20628],[-43.75899,-21.20638],[-43.75892,-21.2065],[-43.75897,-21.20655],[-43.7591,-21.20661],[-43.75935,-21.20664],[-43.75985,-21.20704],[-43.76029,-21.20742],[-43.76066,-21.20779],[-43.76102,-21.20801],[-43.76152,-21.20825],[-43.76177,-21.209],[-43.76197,-21.20947],[-43.76198,-21.21019],[-43.76203,-21.2105],[-43.76208,-21.21067],[-43.76212,-21.211],[-43.76234,-21.21136],[-43.76247,-21.21119],[-43.76262,-21.21106],[-43.7628,-21.21096],[-43.76322,-21.21079],[-43.76361,-21.21073]]],[[[-43.75518,-21.20585],[-43.75514,-21.20598],[-43.75516,-21.20591],[-43.75518,-21.20585]]],[[[-43.75426,-21.19902],[-43.75334,-21.19837],[-43.7541,-21.1989],[-43.75426,-21.19902]]]]}},{"type":"Feature","properties":{"territory_id":"mg-3105608-ponte-do-cosme","name":"Ponte do Cosme","municipality_id":"mg-3105608","polling_places":1,"approx":true,"official":false,"method":"voronoi-polling-places","whole_municipality":false,"approx_coords_only":false},"geometry":{"type":"MultiPolygon","coordinates":[[[[-43.79787,-21.27759],[-43.7912,-21.2763],[-43.7805,-21.2958],[-43.72921,-21.30229],[-43.72917,-21.29695],[-43.745,-21.26476],[-43.78469,-21.25792],[-43.79787,-21.27759]]]]}},{"type":"Feature","properties":{"territory_id":"mg-3105608-ponto-chique","name":"Ponto Chique","municipality_id":"mg-3105608","polling_places":1,"approx":true,"official":false,"method":"voronoi-polling-places","whole_municipality":false,"approx_coords_only":false},"geometry":{"type":"MultiPolygon","coordinates":[[[[-44.00767,-21.36059],[-44.0054,-21.3632],[-43.9206,-21.3744],[-43.8802,-21.3531],[-43.8859,-21.322],[-43.87788,-21.31159],[-43.91435,-21.29321],[-44.00767,-21.36059]]]]}},{"type":"Feature","properties":{"territory_id":"mg-3105608-santa-cecilia","name":"Santa Cecília","municipality_id":"mg-3105608","polling_places":1,"approx":false,"official":true,"method":"official-ibge-cd2022","whole_municipality":false,"approx_coords_only":false,"official_name":"Santa Cecília","official_code":"3105608011","match":"direct"},"geometry":{"type":"MultiPolygon","coordinates":[[[[-43.79239,-21.2223],[-43.79221,-21.22175],[-43.79171,-21.2223],[-43.7915,-21.22242],[-43.79136,-21.22244],[-43.79114,-21.2224],[-43.79056,-21.22245],[-43.79017,-21.22251],[-43.78973,-21.22266],[-43.78923,-21.22266],[-43.78887,-21.22263],[-43.78847,-21.22256],[-43.78838,-21.22257],[-43.78797,-21.22285],[-43.7876,-21.2227],[-43.78745,-21.2226],[-43.78733,-21.2225],[-43.78663,-21.22174],[-43.78563,-21.22057],[-43.78536,-21.22031],[-43.78474,-21.22004],[-43.78314,-21.21942],[-43.78289,-21.21933],[-43.78287,-21.21937],[-43.7829,-21.21938],[-43.78351,-21.2215],[-43.78359,-21.22189],[-43.78439,-21.22189],[-43.78448,-21.22209],[-43.78645,-21.22332],[-43.7866,-21.22329],[-43.78694,-21.22327],[-43.78704,-21.2233],[-43.78727,-21.22323],[-43.78733,-21.22327],[-43.78749,-21.22345],[-43.78778,-21.22373],[-43.78801,-21.22385],[-43.78832,-21.22387],[-43.78858,-21.22383],[-43.78892,-21.22377],[-43.78985,-21.22353],[-43.79005,-21.22352],[-43.79038,-21.22355],[-43.79071,-21.22366],[-43.79144,-21.22402],[-43.79157,-21.22407],[-43.79197,-21.22416],[-43.79169,-21.22468],[-43.79185,-21.22476],[-43.792,-21.22476],[-43.79217,-21.22474],[-43.79231,-21.22467],[-43.7925,-21.22454],[-43.79259,-21.22452],[-43.79269,-21.22452],[-43.79314,-21.22473],[-43.7933,-21.22478],[-43.79345,-21.22479],[-43.79357,-21.22475],[-43.79395,-21.22451],[-43.79423,-21.22443],[-43.79463,-21.22441],[-43.79481,-21.22437],[-43.79533,-21.22416],[-43.79556,-21.22412],[-43.79596,-21.22401],[-43.79652,-21.22376],[-43.79694,-21.22343],[-43.79648,-21.2234],[-43.7961,-21.22339],[-43.79557,-21.22243],[-43.79554,-21.22234],[-43.79554,-21.22186],[-43.79535,-21.22226],[-43.79518,-21.22277],[-43.79513,-21.22284],[-43.79496,-21.22281],[-43.79384,-21.22249],[-43.79351,-21.22243],[-43.79278,-21.22218],[-43.79261,-21.22218],[-43.79239,-21.2223]]]]}},{"type":"Feature","properties":{"territory_id":"mg-3105608-santa-efigenia","name":"Santa Efigênia","municipality_id":"mg-3105608","polling_places":2,"approx":false,"official":true,"method":"official-ibge-cd2022","whole_municipality":false,"approx_coords_only":false,"official_name":"Santa Efigênia","official_code":"3105608012","match":"direct"},"geometry":{"type":"MultiPolygon","coordinates":[[[[-43.76447,-21.21075],[-43.76592,-21.21093],[-43.7666,-21.2111],[-43.76678,-21.21113],[-43.76719,-21.21118],[-43.76735,-21.21114],[-43.76753,-21.21113],[-43.76798,-21.211],[-43.76817,-21.21099],[-43.76803,-21.21091],[-43.76773,-21.21063],[-43.76769,-21.21056],[-43.76772,-21.21012],[-43.76772,-21.20994],[-43.76757,-21.20945],[-43.76716,-21.20874],[-43.76764,-21.20838],[-43.76779,-21.20809],[-43.76789,-21.20755],[-43.76791,-21.2075],[-43.76803,-21.20662],[-43.76806,-21.20661],[-43.76801,-21.20603],[-43.76797,-21.2059],[-43.76757,-21.20557],[-43.76747,-21.20546],[-43.76748,-21.20536],[-43.76751,-21.20531],[-43.76744,-21.20523],[-43.76726,-21.20484],[-43.76662,-21.20278],[-43.76657,-21.20255],[-43.76655,-21.20239],[-43.76656,-21.20218],[-43.76661,-21.20184],[-43.76668,-21.2016],[-43.76679,-21.20138],[-43.76692,-21.2012],[-43.76715,-21.20101],[-43.76697,-21.20068],[-43.76691,-21.20042],[-43.76681,-21.2002],[-43.76666,-21.19997],[-43.76636,-21.20021],[-43.7662,-21.20053],[-43.76602,-21.20105],[-43.76589,-21.20125],[-43.76525,-21.20162],[-43.76508,-21.20208],[-43.76496,-21.20219],[-43.7646,-21.20227],[-43.76453,-21.20234],[-43.76445,-21.20238],[-43.76383,-21.20293],[-43.76355,-21.20323],[-43.76327,-21.20345],[-43.76325,-21.20354],[-43.76321,-21.20352],[-43.76315,-21.20359],[-43.76312,-21.20372],[-43.76303,-21.2039],[-43.76286,-21.20413],[-43.76261,-21.20438],[-43.76254,-21.20455],[-43.76249,-21.20499],[-43.76231,-21.2054],[-43.76207,-21.20567],[-43.76207,-21.20582],[-43.76195,-21.20613],[-43.76189,-21.20626],[-43.76173,-21.20638],[-43.76156,-21.20671],[-43.76152,-21.20698],[-43.76138,-21.20728],[-43.76123,-21.20747],[-43.76102,-21.20801],[-43.76152,-21.20825],[-43.76177,-21.209],[-43.76197,-21.20947],[-43.76198,-21.21019],[-43.76203,-21.2105],[-43.76208,-21.21067],[-43.76212,-21.211],[-43.76234,-21.21136],[-43.76247,-21.21119],[-43.76262,-21.21106],[-43.7628,-21.21096],[-43.76322,-21.21079],[-43.76387,-21.21069],[-43.76436,-21.2107],[-43.76447,-21.21075]]]]}},{"type":"Feature","properties":{"territory_id":"mg-3105608-santa-luzia","name":"Santa Luzia","municipality_id":"mg-3105608","polling_places":1,"approx":false,"official":true,"method":"official-ibge-cd2022","whole_municipality":false,"approx_coords_only":false,"official_name":"Santa Luzia","official_code":"3105608041","match":"direct"},"geometry":{"type":"MultiPolygon","coordinates":[[[[-43.77427,-21.2098],[-43.77418,-21.2092],[-43.77402,-21.2086],[-43.77379,-21.20828],[-43.77367,-21.20815],[-43.77351,-21.20782],[-43.7734,-21.20707],[-43.77344,-21.20707],[-43.77344,-21.20704],[-43.77347,-21.20697],[-43.77349,-21.20655],[-43.77381,-21.20625],[-43.77391,-21.20619],[-43.77389,-21.206],[-43.77327,-21.20584],[-43.7731,-21.20583],[-43.77253,-21.20526],[-43.77236,-21.20512],[-43.77215,-21.20502],[-43.77167,-21.2051],[-43.77,-21.20507],[-43.77004,-21.20525],[-43.77006,-21.20548],[-43.77001,-21.20563],[-43.76993,-21.20569],[-43.76964,-21.20584],[-43.76907,-21.20605],[-43.76901,-21.2061],[-43.76925,-21.20623],[-43.76962,-21.20651],[-43.76977,-21.20667],[-43.76987,-21.20682],[-43.76996,-21.20702],[-43.77001,-21.20721],[-43.77004,-21.20742],[-43.77006,-21.20797],[-43.77013,-21.20826],[-43.7702,-21.20843],[-43.7703,-21.20863],[-43.77039,-21.20875],[-43.77121,-21.20969],[-43.77135,-21.20991],[-43.77143,-21.21011],[-43.77148,-21.21033],[-43.7715,-21.21058],[-43.77153,-21.21076],[-43.7716,-21.21087],[-43.77177,-21.21067],[-43.77195,-21.21056],[-43.77219,-21.21046],[-43.77258,-21.21037],[-43.77348,-21.21048],[-43.77426,-21.2106],[-43.77464,-21.20995],[-43.77427,-21.2098]]]]}},{"type":"Feature","properties":{"territory_id":"mg-3105608-santa-tereza-i","name":"Santa Tereza I","municipality_id":"mg-3105608","polling_places":1,"approx":true,"official":false,"method":"voronoi-polling-places","whole_municipality":false,"approx_coords_only":false},"geometry":{"type":"MultiPolygon","coordinates":[[[[-43.81434,-21.22771],[-43.79111,-21.24726],[-43.78216,-21.23543],[-43.78237,-21.23527],[-43.7834,-21.23519],[-43.78383,-21.23506],[-43.78403,-21.23479],[-43.78446,-21.23457],[-43.78502,-21.23408],[-43.78553,-21.23385],[-43.78608,-21.23297],[-43.78635,-21.2327],[-43.78551,-21.23174],[-43.78523,-21.23104],[-43.78591,-21.23081],[-43.78546,-21.23079],[-43.78532,-21.23075],[-43.78518,-21.23066],[-43.78509,-21.23054],[-43.78509,-21.23048],[-43.78504,-21.23034],[-43.78477,-21.22991],[-43.78463,-21.22963],[-43.78448,-21.22904],[-43.78443,-21.22894],[-43.78363,-21.22764],[-43.78357,-21.22758],[-43.78336,-21.22742],[-43.78235,-21.22672],[-43.78193,-21.22659],[-43.78214,-21.22624],[-43.78236,-21.22599],[-43.78178,-21.22563],[-43.78423,-21.22483],[-43.78444,-21.22496],[-43.78454,-21.22506],[-43.78468,-21.22515],[-43.78543,-21.22537],[-43.78567,-21.22537],[-43.7858,-21.22535],[-43.78642,-21.22553],[-43.78645,-21.22559],[-43.78645,-21.22565],[-43.78694,-21.22572],[-43.78721,-21.22573],[-43.78734,-21.2258],[-43.78811,-21.22597],[-43.78855,-21.22599],[-43.78871,-21.22603],[-43.78907,-21.22604],[-43.78935,-21.22612],[-43.78953,-21.22621],[-43.78976,-21.22635],[-43.79025,-21.22645],[-43.7905,-21.22653],[-43.79079,-21.22657],[-43.79128,-21.22659],[-43.79172,-21.22659],[-43.79212,-21.2266],[-43.79247,-21.22667],[-43.79269,-21.2267],[-43.79294,-21.22668],[-43.79372,-21.22641],[-43.79507,-21.22618],[-43.79514,-21.22613],[-43.7952,-21.22621],[-43.79528,-21.22626],[-43.79556,-21.22628],[-43.79565,-21.22636],[-43.7957,-21.22648],[-43.79579,-21.2266],[-43.79589,-21.22669],[-43.79606,-21.22676],[-43.79661,-21.22755],[-43.79661,-21.22758],[-43.79698,-21.22774],[-43.79701,-21.22853],[-43.79711,-21.22945],[-43.79674,-21.22951],[-43.79672,-21.22994],[-43.79664,-21.22996],[-43.79647,-21.22998],[-43.79626,-21.22994],[-43.79603,-21.22993],[-43.79551,-21.23],[-43.79514,-21.23012],[-43.79479,-21.23026],[-43.79454,-21.23039],[-43.79421,-21.23063],[-43.79397,-21.23078],[-43.79378,-21.23086],[-43.79362,-21.23089],[-43.79408,-21.23132],[-43.79428,-21.23153],[-43.79433,-21.23179],[-43.79444,-21.23192],[-43.79494,-21.23238],[-43.79582,-21.23334],[-43.79634,-21.23403],[-43.79671,-21.23425],[-43.79678,-21.23415],[-43.7972,-21.23395],[-43.79784,-21.23375],[-43.79854,-21.23345],[-43.7992,-21.23302],[-43.79958,-21.23259],[-43.79982,-21.23219],[-43.79986,-21.23198],[-43.79988,-21.23167],[-43.79995,-21.23106],[-43.80005,-21.23081],[-43.80018,-21.23059],[-43.80037,-21.23046],[-43.8011,-21.23027],[-43.80143,-21.23016],[-43.80207,-21.22989],[-43.80285,-21.22956],[-43.80308,-21.22948],[-43.80398,-21.22926],[-43.80429,-21.22921],[-43.80443,-21.22921],[-43.80457,-21.22926],[-43.80465,-21.22936],[-43.80471,-21.22948],[-43.80469,-21.22962],[-43.80461,-21.22979],[-43.8045,-21.2299],[-43.80439,-21.23005],[-43.80435,-21.23022],[-43.8044,-21.23036],[-43.80447,-21.23047],[-43.80457,-21.23055],[-43.80463,-21.23063],[-43.80492,-21.23085],[-43.80514,-21.23096],[-43.80574,-21.23101],[-43.80621,-21.231],[-43.80657,-21.23094],[-43.8067,-21.2308],[-43.80679,-21.23065],[-43.80702,-21.23035],[-43.80732,-21.22972],[-43.80764,-21.22923],[-43.80789,-21.22881],[-43.80843,-21.22828],[-43.80891,-21.22789],[-43.81018,-21.22737],[-43.81047,-21.22699],[-43.81061,-21.22656],[-43.81059,-21.22616],[-43.81051,-21.22585],[-43.81035,-21.22553],[-43.81029,-21.22539],[-43.81434,-21.22771]]],[[[-43.79694,-21.22343],[-43.79673,-21.2236],[-43.79652,-21.22376],[-43.79694,-21.22343]]],[[[-43.79652,-21.22376],[-43.79617,-21.22392],[-43.79596,-21.22401],[-43.79652,-21.22376]]],[[[-43.79239,-21.2223],[-43.79234,-21.22215],[-43.79235,-21.22215],[-43.79239,-21.2223]]],[[[-43.78832,-21.22387],[-43.78815,-21.22387],[-43.78801,-21.22385],[-43.78832,-21.22387]]]]}},{"type":"Feature","properties":{"territory_id":"mg-3105608-santo-antonio","name":"Santo Antônio","municipality_id":"mg-3105608","polling_places":2,"approx":false,"official":true,"method":"official-ibge-cd2022","whole_municipality":false,"approx_coords_only":false,"official_name":"Santo Antônio","official_code":"3105608043","match":"direct"},"geometry":{"type":"MultiPolygon","coordinates":[[[[-43.7555,-21.20521],[-43.75526,-21.20562],[-43.75522,-21.20572],[-43.7551,-21.20611],[-43.75505,-21.20633],[-43.75495,-21.20657],[-43.75511,-21.20665],[-43.75515,-21.2067],[-43.7565,-21.20699],[-43.7566,-21.207],[-43.75702,-21.20674],[-43.75746,-21.20656],[-43.75785,-21.20656],[-43.758,-21.20636],[-43.75811,-21.20616],[-43.7582,-21.20575],[-43.75844,-21.20558],[-43.75844,-21.20545],[-43.75856,-21.20549],[-43.75872,-21.2057],[-43.75894,-21.20592],[-43.759,-21.20628],[-43.75899,-21.20638],[-43.75892,-21.2065],[-43.75897,-21.20655],[-43.7591,-21.20661],[-43.75935,-21.20664],[-43.75985,-21.20704],[-43.76029,-21.20742],[-43.76066,-21.20779],[-43.76102,-21.20801],[-43.76123,-21.20747],[-43.76138,-21.20728],[-43.76152,-21.20698],[-43.76156,-21.20671],[-43.76173,-21.20638],[-43.76189,-21.20626],[-43.76195,-21.20613],[-43.76207,-21.20582],[-43.76207,-21.20567],[-43.76231,-21.2054],[-43.76249,-21.20499],[-43.76254,-21.20455],[-43.76261,-21.20438],[-43.76286,-21.20413],[-43.76303,-21.2039],[-43.76312,-21.20372],[-43.76315,-21.20359],[-43.76321,-21.20352],[-43.76325,-21.20354],[-43.76327,-21.20345],[-43.76355,-21.20323],[-43.76383,-21.20293],[-43.76445,-21.20238],[-43.76453,-21.20234],[-43.7646,-21.20227],[-43.76496,-21.20219],[-43.76508,-21.20208],[-43.76525,-21.20162],[-43.76589,-21.20125],[-43.76602,-21.20105],[-43.7662,-21.20053],[-43.76636,-21.20021],[-43.76666,-21.19997],[-43.76681,-21.2002],[-43.76691,-21.20042],[-43.76697,-21.20068],[-43.76715,-21.20101],[-43.76782,-21.20022],[-43.76794,-21.20002],[-43.76805,-21.1998],[-43.76816,-21.19949],[-43.76822,-21.19931],[-43.76825,-21.19908],[-43.76834,-21.1988],[-43.76845,-21.19859],[-43.76858,-21.19841],[-43.76895,-21.1979],[-43.76929,-21.19741],[-43.7695,-21.19715],[-43.76976,-21.19676],[-43.7699,-21.1965],[-43.77045,-21.1958],[-43.77084,-21.19523],[-43.77103,-21.19501],[-43.77171,-21.19437],[-43.77149,-21.19422],[-43.77137,-21.19419],[-43.77114,-21.1942],[-43.77094,-21.19416],[-43.77054,-21.19419],[-43.77039,-21.19422],[-43.77021,-21.19418],[-43.77005,-21.19411],[-43.76986,-21.19407],[-43.76966,-21.1941],[-43.7694,-21.19426],[-43.76929,-21.19444],[-43.76914,-21.19455],[-43.7689,-21.19459],[-43.76846,-21.19462],[-43.7683,-21.19473],[-43.76807,-21.19485],[-43.76793,-21.19483],[-43.76777,-21.19476],[-43.76767,-21.19459],[-43.76737,-21.19433],[-43.76704,-21.19407],[-43.76665,-21.19385],[-43.76619,-21.19341],[-43.76591,-21.19325],[-43.76554,-21.19289],[-43.76548,-21.1927],[-43.76529,-21.1926],[-43.76506,-21.19243],[-43.76486,-21.19238],[-43.7644,-21.19237],[-43.76426,-21.19244],[-43.76411,-21.19246],[-43.76387,-21.19245],[-43.76367,-21.19233],[-43.76346,-21.19224],[-43.7632,-21.19226],[-43.76303,-21.1923],[-43.76288,-21.19239],[-43.7627,-21.19239],[-43.7625,-21.1923],[-43.76228,-21.19224],[-43.76216,-21.19226],[-43.76204,-21.19233],[-43.7619,-21.19238],[-43.76148,-21.19249],[-43.76062,-21.19279],[-43.76033,-21.19277],[-43.76015,-21.19266],[-43.75999,-21.19243],[-43.75961,-21.19234],[-43.75943,-21.1922],[-43.75898,-21.19202],[-43.75836,-21.19191],[-43.75811,-21.1918],[-43.75785,-21.19166],[-43.75762,-21.19146],[-43.75742,-21.19137],[-43.75708,-21.1914],[-43.75669,-21.19169],[-43.75654,-21.19175],[-43.75628,-21.19171],[-43.7561,-21.19171],[-43.75597,-21.19179],[-43.75591,-21.19188],[-43.7558,-21.19188],[-43.75542,-21.19179],[-43.7551,-21.19193],[-43.75486,-21.19213],[-43.75468,-21.19236],[-43.75425,-21.19256],[-43.75406,-21.19267],[-43.7535,-21.19319],[-43.7533,-21.19332],[-43.75322,-21.19351],[-43.75321,-21.1937],[-43.75315,-21.1939],[-43.753,-21.19399],[-43.75295,-21.19416],[-43.75285,-21.19427],[-43.75233,-21.19444],[-43.75222,-21.19455],[-43.75192,-21.19475],[-43.75182,-21.19485],[-43.75166,-21.19496],[-43.7515,-21.19501],[-43.75146,-21.19514],[-43.75132,-21.19515],[-43.75122,-21.19519],[-43.75118,-21.19535],[-43.75132,-21.19547],[-43.75132,-21.19563],[-43.75131,-21.19582],[-43.75122,-21.19595],[-43.75108,-21.19599],[-43.75078,-21.19596],[-43.75055,-21.19599],[-43.7503,-21.19608],[-43.75,-21.19623],[-43.74987,-21.19645],[-43.74976,-21.19657],[-43.74988,-21.19659],[-43.75068,-21.19646],[-43.7517,-21.19627],[-43.75172,-21.19643],[-43.75171,-21.19658],[-43.75161,-21.19689],[-43.75159,-21.19701],[-43.75174,-21.19739],[-43.75162,-21.19747],[-43.75159,-21.19759],[-43.75183,-21.19759],[-43.75217,-21.19762],[-43.75242,-21.19771],[-43.753,-21.1981],[-43.75334,-21.19837],[-43.7541,-21.1989],[-43.75467,-21.19934],[-43.7549,-21.19956],[-43.75575,-21.20018],[-43.75587,-21.20022],[-43.75594,-21.20029],[-43.7563,-21.20089],[-43.75622,-21.20095],[-43.756,-21.20103],[-43.75479,-21.20167],[-43.75471,-21.20178],[-43.7546,-21.20213],[-43.75472,-21.20215],[-43.75508,-21.20231],[-43.75528,-21.20247],[-43.75545,-21.20267],[-43.75565,-21.20294],[-43.75591,-21.20324],[-43.75608,-21.20338],[-43.75613,-21.20346],[-43.75613,-21.20367],[-43.7561,-21.20395],[-43.75595,-21.20442],[-43.75578,-21.20475],[-43.7555,-21.20521]]]]}},{"type":"Feature","properties":{"territory_id":"mg-3105608-sao-francisco","name":"São Francisco","municipality_id":"mg-3105608","polling_places":1,"approx":false,"official":true,"method":"official-ibge-cd2022","whole_municipality":false,"approx_coords_only":false,"official_name":"São Francisco","official_code":"3105608044","match":"direct"},"geometry":{"type":"MultiPolygon","coordinates":[[[[-43.77754,-21.19918],[-43.77786,-21.19888],[-43.77806,-21.19875],[-43.77806,-21.19871],[-43.77809,-21.19867],[-43.77809,-21.19858],[-43.77816,-21.19854],[-43.77827,-21.19843],[-43.7783,-21.19831],[-43.7783,-21.19818],[-43.77839,-21.19813],[-43.77844,-21.19813],[-43.77848,-21.19817],[-43.77848,-21.19821],[-43.77851,-21.19825],[-43.77865,-21.1982],[-43.77872,-21.19814],[-43.77876,-21.19791],[-43.77875,-21.19786],[-43.77873,-21.19782],[-43.77874,-21.19769],[-43.77884,-21.19767],[-43.77893,-21.19748],[-43.77887,-21.19736],[-43.7791,-21.19714],[-43.7793,-21.19701],[-43.7794,-21.19692],[-43.77951,-21.19671],[-43.77966,-21.19657],[-43.77994,-21.1965],[-43.77996,-21.19639],[-43.78005,-21.19627],[-43.78015,-21.19608],[-43.78022,-21.19576],[-43.78032,-21.19565],[-43.78061,-21.19558],[-43.78074,-21.19548],[-43.78055,-21.19528],[-43.78045,-21.19524],[-43.78031,-21.19523],[-43.78018,-21.19529],[-43.78007,-21.19532],[-43.77993,-21.19527],[-43.77982,-21.19517],[-43.7797,-21.1951],[-43.77963,-21.19503],[-43.77946,-21.19499],[-43.77936,-21.19492],[-43.77932,-21.19483],[-43.77926,-21.19478],[-43.77915,-21.19478],[-43.77905,-21.19481],[-43.77895,-21.19488],[-43.77888,-21.19488],[-43.77878,-21.19486],[-43.77873,-21.19476],[-43.77865,-21.19466],[-43.77824,-21.19431],[-43.7781,-21.19405],[-43.778,-21.19399],[-43.77782,-21.19396],[-43.77762,-21.19387],[-43.77758,-21.19382],[-43.77758,-21.1937],[-43.7775,-21.19368],[-43.77722,-21.19363],[-43.77701,-21.1935],[-43.77691,-21.19351],[-43.77688,-21.19357],[-43.7768,-21.19365],[-43.77666,-21.19367],[-43.77649,-21.19383],[-43.77597,-21.19412],[-43.77576,-21.19418],[-43.77546,-21.19437],[-43.77522,-21.19444],[-43.77506,-21.19439],[-43.7747,-21.19437],[-43.77445,-21.19445],[-43.77396,-21.19443],[-43.7738,-21.19432],[-43.77354,-21.1943],[-43.7733,-21.19432],[-43.77306,-21.19446],[-43.77286,-21.1945],[-43.77268,-21.19452],[-43.77217,-21.19448],[-43.77171,-21.19437],[-43.77103,-21.19501],[-43.77084,-21.19523],[-43.77045,-21.1958],[-43.7699,-21.1965],[-43.76976,-21.19676],[-43.7695,-21.19715],[-43.76929,-21.19741],[-43.76895,-21.1979],[-43.76858,-21.19841],[-43.76845,-21.19859],[-43.76834,-21.1988],[-43.76825,-21.19908],[-43.76822,-21.19931],[-43.76816,-21.19949],[-43.76805,-21.1998],[-43.76794,-21.20002],[-43.76782,-21.20022],[-43.76716,-21.20099],[-43.76733,-21.20114],[-43.76774,-21.20159],[-43.7679,-21.20174],[-43.76821,-21.20188],[-43.76837,-21.20192],[-43.76857,-21.20197],[-43.76888,-21.202],[-43.76911,-21.20199],[-43.77036,-21.20185],[-43.7708,-21.2019],[-43.77097,-21.20196],[-43.77111,-21.20197],[-43.77126,-21.20175],[-43.77153,-21.20105],[-43.77163,-21.20084],[-43.77207,-21.20054],[-43.77242,-21.20046],[-43.77274,-21.20043],[-43.77301,-21.20046],[-43.77348,-21.20054],[-43.77445,-21.20066],[-43.77477,-21.20068],[-43.775,-21.20064],[-43.77554,-21.20038],[-43.7759,-21.20018],[-43.77612,-21.20001],[-43.77633,-21.19988],[-43.77711,-21.1992],[-43.77737,-21.19901],[-43.77754,-21.19918]]]]}},{"type":"Feature","properties":{"territory_id":"mg-3105608-sao-jose","name":"São José","municipality_id":"mg-3105608","polling_places":2,"approx":false,"official":true,"method":"official-ibge-cd2022","whole_municipality":false,"approx_coords_only":false,"official_name":"São José","official_code":"3105608015","match":"direct"},"geometry":{"type":"MultiPolygon","coordinates":[[[[-43.75128,-21.22256],[-43.75123,-21.22254],[-43.75122,-21.22257],[-43.75125,-21.22272],[-43.75109,-21.22292],[-43.75126,-21.22308],[-43.75122,-21.22311],[-43.75137,-21.22326],[-43.75111,-21.22347],[-43.75162,-21.22406],[-43.75461,-21.22687],[-43.75532,-21.22823],[-43.75662,-21.22915],[-43.75863,-21.22955],[-43.75882,-21.22945],[-43.75886,-21.22953],[-43.75897,-21.2296],[-43.75908,-21.2296],[-43.75919,-21.22956],[-43.75969,-21.22917],[-43.76,-21.22897],[-43.76028,-21.22887],[-43.76036,-21.22886],[-43.76045,-21.229],[-43.76073,-21.22894],[-43.761,-21.22894],[-43.76119,-21.22896],[-43.76145,-21.22902],[-43.76197,-21.22921],[-43.76226,-21.22929],[-43.76258,-21.22932],[-43.76288,-21.22929],[-43.76319,-21.22921],[-43.76365,-21.22906],[-43.764,-21.22889],[-43.76433,-21.22883],[-43.76457,-21.22882],[-43.76483,-21.22884],[-43.76506,-21.22889],[-43.76526,-21.22896],[-43.76549,-21.22907],[-43.76626,-21.22962],[-43.76655,-21.2298],[-43.76684,-21.22992],[-43.76715,-21.23001],[-43.7674,-21.23007],[-43.7676,-21.23008],[-43.768,-21.23002],[-43.76829,-21.22993],[-43.76869,-21.22968],[-43.76929,-21.22918],[-43.77019,-21.22836],[-43.7704,-21.22808],[-43.77049,-21.22793],[-43.77053,-21.22774],[-43.77058,-21.22731],[-43.77057,-21.22697],[-43.77043,-21.22645],[-43.7702,-21.22607],[-43.76934,-21.22487],[-43.76915,-21.22453],[-43.76901,-21.22419],[-43.76893,-21.22387],[-43.7684,-21.22213],[-43.76797,-21.22083],[-43.76788,-21.22041],[-43.76781,-21.21992],[-43.76767,-21.21921],[-43.76746,-21.21863],[-43.76728,-21.21829],[-43.76714,-21.21813],[-43.76696,-21.21796],[-43.76671,-21.21776],[-43.7664,-21.21754],[-43.76555,-21.21701],[-43.76515,-21.21675],[-43.76427,-21.21732],[-43.76416,-21.21769],[-43.76407,-21.21809],[-43.76342,-21.21838],[-43.76301,-21.21874],[-43.76231,-21.21919],[-43.76175,-21.21959],[-43.76096,-21.22004],[-43.75952,-21.22051],[-43.75923,-21.21987],[-43.75897,-21.21982],[-43.75863,-21.21981],[-43.75813,-21.21996],[-43.7577,-21.22013],[-43.75635,-21.22078],[-43.75551,-21.2211],[-43.75444,-21.22146],[-43.75399,-21.22157],[-43.75183,-21.2217],[-43.75165,-21.22174],[-43.75154,-21.22179],[-43.75145,-21.222],[-43.75128,-21.22256]]]]}},{"type":"Feature","properties":{"territory_id":"mg-3105608-sao-sebastiao","name":"São Sebastião","municipality_id":"mg-3105608","polling_places":3,"approx":false,"official":true,"method":"official-ibge-cd2022","whole_municipality":false,"approx_coords_only":false,"official_name":"São Sebastião","official_code":"3105608047","match":"direct"},"geometry":{"type":"MultiPolygon","coordinates":[[[[-43.77691,-21.21603],[-43.77875,-21.21684],[-43.77968,-21.2172],[-43.77964,-21.21727],[-43.77979,-21.21733],[-43.78017,-21.21671],[-43.78101,-21.2154],[-43.78132,-21.21497],[-43.78172,-21.21436],[-43.78149,-21.21435],[-43.78158,-21.21418],[-43.78132,-21.21416],[-43.78104,-21.21406],[-43.78067,-21.21379],[-43.78042,-21.21356],[-43.77997,-21.21303],[-43.77968,-21.21283],[-43.77927,-21.21274],[-43.7779,-21.21259],[-43.77755,-21.21252],[-43.77648,-21.21247],[-43.77453,-21.21235],[-43.77397,-21.2124],[-43.77251,-21.21262],[-43.77256,-21.21284],[-43.77254,-21.21285],[-43.77257,-21.21311],[-43.77269,-21.21379],[-43.77204,-21.21397],[-43.77231,-21.21535],[-43.77221,-21.21536],[-43.77221,-21.21638],[-43.77222,-21.21651],[-43.77227,-21.21669],[-43.77241,-21.21704],[-43.77264,-21.21737],[-43.77282,-21.21755],[-43.77301,-21.21777],[-43.77312,-21.21785],[-43.77354,-21.21792],[-43.77385,-21.21745],[-43.77611,-21.21803],[-43.77617,-21.21778],[-43.77658,-21.21676],[-43.77691,-21.21603]]]]}},{"type":"Feature","properties":{"territory_id":"mg-3105608-senhora-das-dores","name":"Senhora das Dores","municipality_id":"mg-3105608","polling_places":1,"approx":true,"official":false,"method":"voronoi-polling-places","whole_municipality":false,"approx_coords_only":false},"geometry":{"type":"MultiPolygon","coordinates":[[[[-43.67981,-21.16972],[-43.67481,-21.21081],[-43.60999,-21.22575],[-43.6101,-21.2254],[-43.5988,-21.1666],[-43.6068,-21.1295],[-43.67981,-21.16972]]]]}},{"type":"Feature","properties":{"territory_id":"mg-3105608-valentim-prenassi","name":"Valentim Prenassi","municipality_id":"mg-3105608","polling_places":1,"approx":false,"official":true,"method":"official-ibge-cd2022","whole_municipality":false,"approx_coords_only":false,"official_name":"Valentim Prenassi","official_code":"3105608048","match":"direct"},"geometry":{"type":"MultiPolygon","coordinates":[[[[-43.79218,-21.22165],[-43.79239,-21.2223],[-43.79261,-21.22218],[-43.79278,-21.22218],[-43.79351,-21.22243],[-43.79384,-21.22249],[-43.79496,-21.22281],[-43.79513,-21.22284],[-43.79518,-21.22277],[-43.79535,-21.22226],[-43.79554,-21.22186],[-43.79554,-21.22234],[-43.79557,-21.22243],[-43.7961,-21.22339],[-43.79648,-21.2234],[-43.79694,-21.22343],[-43.79775,-21.22246],[-43.79799,-21.22221],[-43.79843,-21.22184],[-43.79935,-21.22126],[-43.79953,-21.22117],[-43.79959,-21.22109],[-43.79958,-21.22095],[-43.79918,-21.22029],[-43.79906,-21.22012],[-43.79902,-21.21994],[-43.79914,-21.21922],[-43.7994,-21.21883],[-43.79952,-21.21846],[-43.79943,-21.21807],[-43.79946,-21.21798],[-43.79952,-21.21793],[-43.79971,-21.21785],[-43.79988,-21.2178],[-43.8002,-21.21763],[-43.80039,-21.21749],[-43.80081,-21.21627],[-43.7995,-21.21681],[-43.79842,-21.21723],[-43.79744,-21.21778],[-43.79761,-21.21758],[-43.79443,-21.21659],[-43.79404,-21.21745],[-43.79353,-21.21849],[-43.79306,-21.21941],[-43.79299,-21.21952],[-43.79286,-21.21961],[-43.79271,-21.21964],[-43.7915,-21.21952],[-43.79161,-21.21994],[-43.79192,-21.22083],[-43.79218,-21.22165]]]]}},{"type":"Feature","properties":{"territory_id":"mg-3105608-vilela","name":"Vilela","municipality_id":"mg-3105608","polling_places":1,"approx":false,"official":true,"method":"official-ibge-cd2022","whole_municipality":false,"approx_coords_only":false,"official_name":"Vilela","official_code":"3105608017","match":"direct"},"geometry":{"type":"MultiPolygon","coordinates":[[[[-43.75602,-21.22091],[-43.75635,-21.22078],[-43.7577,-21.22013],[-43.75813,-21.21996],[-43.75863,-21.21981],[-43.75869,-21.21965],[-43.75886,-21.21954],[-43.7591,-21.21944],[-43.7594,-21.21938],[-43.75964,-21.21929],[-43.75987,-21.21916],[-43.75998,-21.21906],[-43.76012,-21.21888],[-43.76018,-21.21876],[-43.76021,-21.21864],[-43.76022,-21.21843],[-43.76017,-21.21785],[-43.76008,-21.21753],[-43.75994,-21.21718],[-43.75988,-21.21707],[-43.75984,-21.21688],[-43.7598,-21.21665],[-43.75978,-21.21581],[-43.75973,-21.21549],[-43.75806,-21.21592],[-43.75743,-21.21604],[-43.7571,-21.21606],[-43.75661,-21.21605],[-43.75623,-21.21601],[-43.75539,-21.2158],[-43.75506,-21.21568],[-43.75499,-21.21587],[-43.75495,-21.2159],[-43.75498,-21.21591],[-43.75467,-21.21625],[-43.75434,-21.21655],[-43.7536,-21.21706],[-43.75296,-21.21754],[-43.75282,-21.2174],[-43.75265,-21.2176],[-43.75247,-21.21773],[-43.75229,-21.21783],[-43.75174,-21.21798],[-43.75178,-21.21832],[-43.75183,-21.21923],[-43.75191,-21.22004],[-43.75209,-21.2213],[-43.75183,-21.2217],[-43.75399,-21.22157],[-43.75444,-21.22146],[-43.75551,-21.2211],[-43.75602,-21.22091]]]]}},{"type":"Feature","properties":{"territory_id":"mg-3105608-zona-rural","name":"Zona Rural","municipality_id":"mg-3105608","polling_places":7,"approx":true,"official":false,"method":"voronoi-polling-places","whole_municipality":false,"approx_coords_only":false},"geometry":{"type":"MultiPolygon","coordinates":[[[[-43.95917,-21.2224],[-43.94234,-21.23671],[-43.91435,-21.29321],[-43.87788,-21.31159],[-43.8611,-21.2898],[-43.85101,-21.28785],[-43.83472,-21.22603],[-43.84863,-21.19943],[-43.84156,-21.1451],[-43.8854,-21.1423],[-43.9096,-21.1245],[-43.9412,-21.1216],[-43.924,-21.1684],[-43.8963,-21.1879],[-43.9162,-21.2239],[-43.95917,-21.2224]]],[[[-43.72921,-21.30229],[-43.7102,-21.3047],[-43.6809,-21.346],[-43.6311,-21.3757],[-43.6201,-21.3503],[-43.5808,-21.3188],[-43.5819,-21.3153],[-43.59476,-21.31643],[-43.62989,-21.31957],[-43.65348,-21.30815],[-43.64715,-21.29159],[-43.63883,-21.26958],[-43.60145,-21.25297],[-43.60999,-21.22575],[-43.67481,-21.21081],[-43.68768,-21.2283],[-43.68535,-21.24696],[-43.72917,-21.29695],[-43.72921,-21.30229]]]]}}]}