{"type":"FeatureCollection","features":[{"type":"Feature","properties":{"territory_id":"mg-3105004-centro","name":"Centro","municipality_id":"mg-3105004","polling_places":2,"approx":true,"official":false,"method":"voronoi-polling-places","whole_municipality":false,"approx_coords_only":false},"geometry":{"type":"MultiPolygon","coordinates":[[[[-44.0063,-19.3334],[-44.00419,-19.34234],[-43.99293,-19.33598],[-44.0063,-19.3334]]],[[[-43.9918,-19.2644],[-43.98977,-19.33419],[-43.94809,-19.31062],[-43.92099,-19.29868],[-43.90728,-19.22737],[-43.9388,-19.2482],[-43.9918,-19.2644]]]]}},{"type":"Feature","properties":{"territory_id":"mg-3105004-mucambo","name":"Mucambo","municipality_id":"mg-3105004","polling_places":1,"approx":true,"official":false,"method":"voronoi-polling-places","whole_municipality":false,"approx_coords_only":false},"geometry":{"type":"MultiPolygon","coordinates":[[[[-43.92099,-19.29868],[-43.90039,-19.33211],[-43.85123,-19.31917],[-43.81781,-19.27787],[-43.86913,-19.21773],[-43.9037,-19.225],[-43.90728,-19.22737],[-43.92099,-19.29868]]]]}},{"type":"Feature","properties":{"territory_id":"mg-3105004-sao-vicente","name":"São Vicente","municipality_id":"mg-3105004","polling_places":1,"approx":true,"official":false,"method":"voronoi-polling-places","whole_municipality":false,"approx_coords_only":false},"geometry":{"type":"MultiPolygon","coordinates":[[[[-44.00419,-19.34234],[-43.9896,-19.4043],[-43.9469,-19.4315],[-43.93357,-19.41965],[-43.90039,-19.33211],[-43.92099,-19.29868],[-43.94809,-19.31062],[-43.98977,-19.33419],[-43.9897,-19.3366],[-43.99293,-19.33598],[-44.00419,-19.34234]]]]}},{"type":"Feature","properties":{"territory_id":"mg-3105004-sumidouro","name":"Sumidouro","municipality_id":"mg-3105004","polling_places":1,"approx":true,"official":false,"method":"voronoi-polling-places","whole_municipality":false,"approx_coords_only":false},"geometry":{"type":"MultiPolygon","coordinates":[[[[-43.86913,-19.21773],[-43.81781,-19.27787],[-43.78539,-19.28752],[-43.7777,-19.285],[-43.7486,-19.2364],[-43.7692,-19.1935],[-43.7478,-19.167],[-43.7453,-19.124],[-43.771,-19.0915],[-43.7732,-19.0613],[-43.8413,-19.0723],[-43.8632,-19.106],[-43.8502,-19.144],[-43.8389,-19.1592],[-43.8428,-19.2122],[-43.86913,-19.21773]]]]}},{"type":"Feature","properties":{"territory_id":"mg-3105004-vargem-grande","name":"Vargem Grande","municipality_id":"mg-3105004","polling_places":1,"approx":true,"official":false,"method":"voronoi-polling-places","whole_municipality":false,"approx_coords_only":false},"geometry":{"type":"MultiPolygon","coordinates":[[[[-43.85123,-19.31917],[-43.84737,-19.3858],[-43.8206,-19.3876],[-43.792,-19.346],[-43.8096,-19.3348],[-43.7969,-19.2913],[-43.78539,-19.28752],[-43.81781,-19.27787],[-43.85123,-19.31917]]]]}},{"type":"Feature","properties":{"territory_id":"mg-3105004-vila-amanda","name":"Vila Amanda","municipality_id":"mg-3105004","polling_places":1,"approx":true,"official":false,"method":"voronoi-polling-places","whole_municipality":false,"approx_coords_only":false},"geometry":{"type":"MultiPolygon","coordinates":[[[[-43.93357,-19.41965],[-43.8921,-19.3828],[-43.84737,-19.3858],[-43.85123,-19.31917],[-43.90039,-19.33211],[-43.93357,-19.41965]]]]}}]}