{"type":"FeatureCollection","features":[{"type":"Feature","properties":{"territory_id":"mg-3105905-centro","name":"Centro","municipality_id":"mg-3105905","polling_places":4,"approx":true,"official":false,"method":"voronoi-polling-places","whole_municipality":false,"approx_coords_only":false},"geometry":{"type":"MultiPolygon","coordinates":[[[[-44.01296,-21.16312],[-44.00994,-21.17886],[-43.99119,-21.19276],[-43.97783,-21.19035],[-43.97252,-21.19419],[-43.97211,-21.19486],[-43.97183,-21.19491],[-43.96918,-21.19149],[-43.9722,-21.17877],[-43.97203,-21.17732],[-43.99438,-21.16991],[-44.01296,-21.16312]]]]}},{"type":"Feature","properties":{"territory_id":"mg-3105905-dr-jose-guimaraes","name":"Dr. José Guimarães","municipality_id":"mg-3105905","polling_places":1,"approx":true,"official":false,"method":"voronoi-polling-places","whole_municipality":false,"approx_coords_only":false},"geometry":{"type":"MultiPolygon","coordinates":[[[[-43.99119,-21.19276],[-43.98353,-21.20107],[-43.97211,-21.19486],[-43.97252,-21.19419],[-43.97783,-21.19035],[-43.99119,-21.19276]]]]}},{"type":"Feature","properties":{"territory_id":"mg-3105905-jardim-bandeirante","name":"Jardim Bandeirante","municipality_id":"mg-3105905","polling_places":1,"approx":true,"official":false,"method":"voronoi-polling-places","whole_municipality":false,"approx_coords_only":false},"geometry":{"type":"MultiPolygon","coordinates":[[[[-43.98353,-21.20107],[-43.97789,-21.22174],[-43.9423,-21.22299],[-43.97183,-21.19491],[-43.97211,-21.19486],[-43.98353,-21.20107]]]]}},{"type":"Feature","properties":{"territory_id":"mg-3105905-jardim-europa","name":"Jardim Europa","municipality_id":"mg-3105905","polling_places":1,"approx":true,"official":false,"method":"voronoi-polling-places","whole_municipality":false,"approx_coords_only":false},"geometry":{"type":"MultiPolygon","coordinates":[[[[-44.0134,-21.1608],[-44.01296,-21.16312],[-43.99438,-21.16991],[-43.97203,-21.17732],[-43.95021,-21.17508],[-43.93403,-21.1411],[-43.9412,-21.1216],[-44.0134,-21.1608]]]]}},{"type":"Feature","properties":{"territory_id":"mg-3105905-josefina-coelho","name":"Josefina Coelho","municipality_id":"mg-3105905","polling_places":1,"approx":true,"official":false,"method":"voronoi-polling-places","whole_municipality":false,"approx_coords_only":false},"geometry":{"type":"MultiPolygon","coordinates":[[[[-43.97183,-21.19491],[-43.9423,-21.22299],[-43.94112,-21.22303],[-43.94982,-21.18071],[-43.96918,-21.19149],[-43.97183,-21.19491]]]]}},{"type":"Feature","properties":{"territory_id":"mg-3105905-nova-barroso","name":"Nova Barroso","municipality_id":"mg-3105905","polling_places":1,"approx":true,"official":false,"method":"voronoi-polling-places","whole_municipality":false,"approx_coords_only":false},"geometry":{"type":"MultiPolygon","coordinates":[[[[-43.9722,-21.17877],[-43.96918,-21.19149],[-43.94982,-21.18071],[-43.95021,-21.17508],[-43.97203,-21.17732],[-43.9722,-21.17877]]]]}},{"type":"Feature","properties":{"territory_id":"mg-3105905-praia","name":"Praia","municipality_id":"mg-3105905","polling_places":1,"approx":true,"official":false,"method":"voronoi-polling-places","whole_municipality":false,"approx_coords_only":false},"geometry":{"type":"MultiPolygon","coordinates":[[[[-44.00994,-21.17886],[-44.0019,-21.2209],[-43.97789,-21.22174],[-43.98353,-21.20107],[-43.99119,-21.19276],[-44.00994,-21.17886]]]]}},{"type":"Feature","properties":{"territory_id":"mg-3105905-zona-rural","name":"Zona Rural","municipality_id":"mg-3105905","polling_places":1,"approx":true,"official":false,"method":"voronoi-polling-places","whole_municipality":false,"approx_coords_only":false},"geometry":{"type":"MultiPolygon","coordinates":[[[[-43.95021,-21.17508],[-43.94982,-21.18071],[-43.94112,-21.22303],[-43.9162,-21.2239],[-43.8963,-21.1879],[-43.924,-21.1684],[-43.93403,-21.1411],[-43.95021,-21.17508]]]]}}]}