{"type":"FeatureCollection","features":[{"type":"Feature","properties":{"territory_id":"mg-3105509-arraial-velho","name":"Arraial Velho","municipality_id":"mg-3105509","polling_places":1,"approx":true,"official":false,"method":"voronoi-polling-places","whole_municipality":false,"approx_coords_only":true},"geometry":{"type":"MultiPolygon","coordinates":[[[[-42.30507,-21.29426],[-42.27255,-21.28161],[-42.27255,-21.22652],[-42.28503,-21.23544],[-42.30507,-21.29426]]]]}},{"type":"Feature","properties":{"territory_id":"mg-3105509-cachoeira-alegre","name":"Cachoeira Alegre","municipality_id":"mg-3105509","polling_places":2,"approx":true,"official":false,"method":"voronoi-polling-places","whole_municipality":false,"approx_coords_only":false},"geometry":{"type":"MultiPolygon","coordinates":[[[[-42.3638,-21.3064],[-42.32604,-21.3215],[-42.30507,-21.29426],[-42.28503,-21.23544],[-42.35617,-21.22938],[-42.3314,-21.2721],[-42.3638,-21.3064]]]]}},{"type":"Feature","properties":{"territory_id":"mg-3105509-centro","name":"Centro","municipality_id":"mg-3105509","polling_places":2,"approx":true,"official":false,"method":"voronoi-polling-places","whole_municipality":false,"approx_coords_only":true},"geometry":{"type":"MultiPolygon","coordinates":[[[[-42.27255,-21.28161],[-42.19012,-21.24955],[-42.2026,-21.2212],[-42.24816,-21.20908],[-42.27255,-21.22652],[-42.27255,-21.28161]]]]}},{"type":"Feature","properties":{"territory_id":"mg-3105509-silveira-carvalho","name":"Silveira Carvalho","municipality_id":"mg-3105509","polling_places":1,"approx":true,"official":false,"method":"voronoi-polling-places","whole_municipality":false,"approx_coords_only":false},"geometry":{"type":"MultiPolygon","coordinates":[[[[-42.32604,-21.3215],[-42.2548,-21.35],[-42.2356,-21.3429],[-42.2242,-21.3378],[-42.2378,-21.318],[-42.2287,-21.2825],[-42.1897,-21.2505],[-42.19012,-21.24955],[-42.27255,-21.28161],[-42.30507,-21.29426],[-42.32604,-21.3215]]]]}},{"type":"Feature","properties":{"territory_id":"mg-3105509-vila-vardiero","name":"Vila Vardiero","municipality_id":"mg-3105509","polling_places":1,"approx":true,"official":false,"method":"voronoi-polling-places","whole_municipality":false,"approx_coords_only":false},"geometry":{"type":"MultiPolygon","coordinates":[[[[-42.363,-21.2176],[-42.35617,-21.22938],[-42.28503,-21.23544],[-42.27255,-21.22652],[-42.24816,-21.20908],[-42.2778,-21.2012],[-42.2978,-21.1865],[-42.3275,-21.2103],[-42.363,-21.2176]]]]}}]}