{"type":"FeatureCollection","features":[{"type":"Feature","properties":{"territory_id":"mg-3106408-carijos","name":"Carijós","municipality_id":"mg-3106408","polling_places":1,"approx":true,"official":false,"method":"voronoi-polling-places","whole_municipality":false,"approx_coords_only":false},"geometry":{"type":"MultiPolygon","coordinates":[[[[-44.06735,-20.42265],[-44.05387,-20.44187],[-44.03279,-20.42119],[-44.02182,-20.39124],[-44.01941,-20.3824],[-44.0253,-20.3835],[-44.04453,-20.36981],[-44.06735,-20.42265]]]]}},{"type":"Feature","properties":{"territory_id":"mg-3106408-centro","name":"Centro","municipality_id":"mg-3106408","polling_places":1,"approx":true,"official":false,"method":"voronoi-polling-places","whole_municipality":false,"approx_coords_only":false},"geometry":{"type":"MultiPolygon","coordinates":[[[[-44.02499,-20.41595],[-43.99053,-20.40317],[-43.98106,-20.38516],[-43.999,-20.3786],[-44.01941,-20.3824],[-44.02182,-20.39124],[-44.02499,-20.41595]]]]}},{"type":"Feature","properties":{"territory_id":"mg-3106408-pov-de-rocas-novas","name":"Pov. de Rocas Novas","municipality_id":"mg-3106408","polling_places":2,"approx":true,"official":false,"method":"voronoi-polling-places","whole_municipality":false,"approx_coords_only":false},"geometry":{"type":"MultiPolygon","coordinates":[[[[-44.14311,-20.41374],[-44.12499,-20.4574],[-44.12351,-20.45896],[-44.12051,-20.45306],[-44.07626,-20.42098],[-44.10144,-20.40343],[-44.12016,-20.40595],[-44.1257,-20.41089],[-44.14311,-20.41374]]]]}},{"type":"Feature","properties":{"territory_id":"mg-3106408-pov-de-vargem-de-santana","name":"Pov. de Vargem de Santana","municipality_id":"mg-3106408","polling_places":1,"approx":true,"official":false,"method":"voronoi-polling-places","whole_municipality":false,"approx_coords_only":false},"geometry":{"type":"MultiPolygon","coordinates":[[[[-44.10144,-20.40343],[-44.07626,-20.42098],[-44.06735,-20.42265],[-44.04453,-20.36981],[-44.0694,-20.3521],[-44.06975,-20.35086],[-44.09794,-20.36549],[-44.10144,-20.40343]]]]}},{"type":"Feature","properties":{"territory_id":"mg-3106408-povoado-da-boa-morte","name":"Povoado da Boa Morte","municipality_id":"mg-3106408","polling_places":1,"approx":true,"official":false,"method":"voronoi-polling-places","whole_municipality":false,"approx_coords_only":false},"geometry":{"type":"MultiPolygon","coordinates":[[[[-44.003,-20.43973],[-43.93081,-20.44376],[-43.9155,-20.4264],[-43.9271,-20.4049],[-43.98106,-20.38516],[-43.99053,-20.40317],[-44.003,-20.43973]]]]}},{"type":"Feature","properties":{"territory_id":"mg-3106408-povoado-da-chacara-dos-cordeiros","name":"Povoado da Chácara dos Cordeiros","municipality_id":"mg-3106408","polling_places":1,"approx":true,"official":false,"method":"voronoi-polling-places","whole_municipality":false,"approx_coords_only":false},"geometry":{"type":"MultiPolygon","coordinates":[[[[-44.15209,-20.41497],[-44.1516,-20.4219],[-44.15017,-20.43173],[-44.12499,-20.4574],[-44.14311,-20.41374],[-44.15209,-20.41497]]]]}},{"type":"Feature","properties":{"territory_id":"mg-3106408-povoado-da-chacrinha","name":"Povoado da Chacrinha","municipality_id":"mg-3106408","polling_places":1,"approx":true,"official":false,"method":"voronoi-polling-places","whole_municipality":false,"approx_coords_only":false},"geometry":{"type":"MultiPolygon","coordinates":[[[[-44.03279,-20.42119],[-44.02499,-20.41595],[-44.02182,-20.39124],[-44.03279,-20.42119]]]]}},{"type":"Feature","properties":{"territory_id":"mg-3106408-povoado-de-lajes","name":"Povoado de Lajes","municipality_id":"mg-3106408","polling_places":1,"approx":true,"official":false,"method":"voronoi-polling-places","whole_municipality":false,"approx_coords_only":false},"geometry":{"type":"MultiPolygon","coordinates":[[[[-44.15318,-20.34739],[-44.15022,-20.34938],[-44.09794,-20.36549],[-44.06975,-20.35086],[-44.0817,-20.3087],[-44.1217,-20.3078],[-44.15318,-20.34739]]]]}},{"type":"Feature","properties":{"territory_id":"mg-3106408-povoado-de-laranjeiras","name":"Povoado de Laranjeiras","municipality_id":"mg-3106408","polling_places":1,"approx":true,"official":false,"method":"voronoi-polling-places","whole_municipality":false,"approx_coords_only":false},"geometry":{"type":"MultiPolygon","coordinates":[[[[-44.12945,-20.51062],[-44.1234,-20.5105],[-44.0649,-20.4938],[-44.03483,-20.5054],[-44.03542,-20.48379],[-44.05387,-20.44187],[-44.06735,-20.42265],[-44.07626,-20.42098],[-44.12051,-20.45306],[-44.12351,-20.45896],[-44.12945,-20.51062]]]]}},{"type":"Feature","properties":{"territory_id":"mg-3106408-povoado-dos-pintos","name":"Povoado dos Pintos","municipality_id":"mg-3106408","polling_places":1,"approx":true,"official":false,"method":"voronoi-polling-places","whole_municipality":false,"approx_coords_only":false},"geometry":{"type":"MultiPolygon","coordinates":[[[[-44.03542,-20.48379],[-44.03483,-20.5054],[-44.0286,-20.5078],[-43.9864,-20.5068],[-43.93081,-20.44376],[-44.003,-20.43973],[-44.03542,-20.48379]]]]}},{"type":"Feature","properties":{"territory_id":"mg-3106408-santo-antonio","name":"Santo Antônio","municipality_id":"mg-3106408","polling_places":1,"approx":true,"official":false,"method":"voronoi-polling-places","whole_municipality":false,"approx_coords_only":false},"geometry":{"type":"MultiPolygon","coordinates":[[[[-44.05387,-20.44187],[-44.03542,-20.48379],[-44.003,-20.43973],[-43.99053,-20.40317],[-44.02499,-20.41595],[-44.03279,-20.42119],[-44.05387,-20.44187]]]]}},{"type":"Feature","properties":{"territory_id":"mg-3106408-zona-rural","name":"Zona Rural","municipality_id":"mg-3106408","polling_places":3,"approx":true,"official":false,"method":"voronoi-polling-places","whole_municipality":false,"approx_coords_only":false},"geometry":{"type":"MultiPolygon","coordinates":[[[[-44.1738,-20.4927],[-44.1587,-20.5112],[-44.12945,-20.51062],[-44.12351,-20.45896],[-44.12499,-20.4574],[-44.15017,-20.43173],[-44.1455,-20.4639],[-44.1738,-20.4927]]],[[[-44.1566,-20.3517],[-44.15209,-20.41497],[-44.14311,-20.41374],[-44.1257,-20.41089],[-44.12016,-20.40595],[-44.10144,-20.40343],[-44.09794,-20.36549],[-44.15022,-20.34938],[-44.15318,-20.34739],[-44.1566,-20.3517]]]]}}]}