{"type":"FeatureCollection","features":[{"type":"Feature","properties":{"territory_id":"mg-3106804-centro","name":"Centro","municipality_id":"mg-3106804","polling_places":2,"approx":true,"official":false,"method":"voronoi-polling-places","whole_municipality":false,"approx_coords_only":false},"geometry":{"type":"MultiPolygon","coordinates":[[[[-43.76239,-21.64633],[-43.74168,-21.66806],[-43.7157,-21.6703],[-43.679,-21.7119],[-43.6842,-21.6267],[-43.666,-21.6053],[-43.6927,-21.59198],[-43.75536,-21.60664],[-43.76239,-21.64633]]],[[[-43.75848,-21.6082],[-43.75658,-21.60683],[-43.75848,-21.60346],[-43.75848,-21.6082]]]]}},{"type":"Feature","properties":{"territory_id":"mg-3106804-nossa-senhora-aparecida","name":"Nossa Senhora Aparecida","municipality_id":"mg-3106804","polling_places":3,"approx":true,"official":false,"method":"voronoi-polling-places","whole_municipality":false,"approx_coords_only":false},"geometry":{"type":"MultiPolygon","coordinates":[[[[-43.77067,-21.52943],[-43.76538,-21.59121],[-43.76495,-21.61288],[-43.75848,-21.6082],[-43.75848,-21.60346],[-43.75658,-21.60683],[-43.75536,-21.60664],[-43.6927,-21.59198],[-43.7061,-21.5853],[-43.7397,-21.5317],[-43.77067,-21.52943]]]]}},{"type":"Feature","properties":{"territory_id":"mg-3106804-nossa-senhora-de-fatima","name":"Nossa Senhora de Fatima","municipality_id":"mg-3106804","polling_places":1,"approx":true,"official":false,"method":"voronoi-polling-places","whole_municipality":false,"approx_coords_only":false},"geometry":{"type":"MultiPolygon","coordinates":[[[[-43.77011,-21.63832],[-43.76239,-21.64633],[-43.75536,-21.60664],[-43.75658,-21.60683],[-43.75848,-21.6082],[-43.76495,-21.61288],[-43.77011,-21.63832]]]]}},{"type":"Feature","properties":{"territory_id":"mg-3106804-zona-rural","name":"Zona Rural","municipality_id":"mg-3106804","polling_places":4,"approx":true,"official":false,"method":"voronoi-polling-places","whole_municipality":false,"approx_coords_only":false},"geometry":{"type":"MultiPolygon","coordinates":[[[[-43.873,-21.6788],[-43.8724,-21.7101],[-43.8287,-21.7203],[-43.7891,-21.7132],[-43.7713,-21.6655],[-43.74168,-21.66806],[-43.76239,-21.64633],[-43.77011,-21.63832],[-43.76495,-21.61288],[-43.76538,-21.59121],[-43.77067,-21.52943],[-43.8146,-21.5262],[-43.8405,-21.5824],[-43.8272,-21.6068],[-43.873,-21.6788]]]]}}]}