{"type":"FeatureCollection","features":[{"type":"Feature","properties":{"territory_id":"mg-3106101-centro","name":"Centro","municipality_id":"mg-3106101","polling_places":2,"approx":true,"official":false,"method":"voronoi-polling-places","whole_municipality":false,"approx_coords_only":false},"geometry":{"type":"MultiPolygon","coordinates":[[[[-43.43246,-22.0038],[-43.41289,-22.00833],[-43.404,-21.98354],[-43.41322,-21.94711],[-43.41799,-21.91969],[-43.42548,-21.91493],[-43.42857,-21.95758],[-43.43246,-22.0038]]]]}},{"type":"Feature","properties":{"territory_id":"mg-3106101-distrito-porto-das-flores","name":"Distrito Porto das Flores","municipality_id":"mg-3106101","polling_places":1,"approx":true,"official":false,"method":"voronoi-polling-places","whole_municipality":false,"approx_coords_only":false},"geometry":{"type":"MultiPolygon","coordinates":[[[[-43.6374,-22.0234],[-43.5914,-22.0558],[-43.5661,-22.0875],[-43.5257,-22.0727],[-43.51187,-22.07272],[-43.5579,-22.00192],[-43.57475,-21.99134],[-43.5851,-21.9989],[-43.6374,-22.0234]]]]}},{"type":"Feature","properties":{"territory_id":"mg-3106101-distrito-sao-jose-das-tres-ilhas","name":"Distrito São José das Três Ilhas","municipality_id":"mg-3106101","polling_places":1,"approx":true,"official":false,"method":"voronoi-polling-places","whole_municipality":false,"approx_coords_only":false},"geometry":{"type":"MultiPolygon","coordinates":[[[[-43.5579,-22.00192],[-43.51187,-22.07272],[-43.47869,-22.07278],[-43.43418,-22.00379],[-43.44496,-21.99846],[-43.5579,-22.00192]]]]}},{"type":"Feature","properties":{"territory_id":"mg-3106101-povoado-de-fortaleza","name":"Povoado de Fortaleza","municipality_id":"mg-3106101","polling_places":1,"approx":true,"official":false,"method":"voronoi-polling-places","whole_municipality":false,"approx_coords_only":false},"geometry":{"type":"MultiPolygon","coordinates":[[[[-43.57475,-21.99134],[-43.5579,-22.00192],[-43.44496,-21.99846],[-43.48639,-21.90069],[-43.4948,-21.9329],[-43.57475,-21.99134]]]]}},{"type":"Feature","properties":{"territory_id":"mg-3106101-sao-nicolau","name":"São Nicolau","municipality_id":"mg-3106101","polling_places":1,"approx":true,"official":false,"method":"voronoi-polling-places","whole_municipality":false,"approx_coords_only":false},"geometry":{"type":"MultiPolygon","coordinates":[[[[-43.41799,-21.91969],[-43.41322,-21.94711],[-43.404,-21.98354],[-43.38422,-21.9375],[-43.41799,-21.91969]]]]}},{"type":"Feature","properties":{"territory_id":"mg-3106101-sobragi","name":"Sobragi","municipality_id":"mg-3106101","polling_places":1,"approx":true,"official":false,"method":"voronoi-polling-places","whole_municipality":false,"approx_coords_only":false},"geometry":{"type":"MultiPolygon","coordinates":[[[[-43.41289,-22.00833],[-43.38512,-22.02771],[-43.3467,-22.0038],[-43.3266,-22.0078],[-43.3722,-21.9526],[-43.3541,-21.92757],[-43.38422,-21.9375],[-43.404,-21.98354],[-43.41289,-22.00833]]]]}},{"type":"Feature","properties":{"territory_id":"mg-3106101-vila-klabin","name":"Vila Klabin","municipality_id":"mg-3106101","polling_places":1,"approx":true,"official":false,"method":"voronoi-polling-places","whole_municipality":false,"approx_coords_only":false},"geometry":{"type":"MultiPolygon","coordinates":[[[[-43.48639,-21.90069],[-43.44496,-21.99846],[-43.43418,-22.00379],[-43.43246,-22.0038],[-43.42857,-21.95758],[-43.42548,-21.91493],[-43.45045,-21.88129],[-43.4811,-21.8804],[-43.48639,-21.90069]]]]}},{"type":"Feature","properties":{"territory_id":"mg-3106101-vila-sao-francisco","name":"Vila São Francisco","municipality_id":"mg-3106101","polling_places":1,"approx":true,"official":false,"method":"voronoi-polling-places","whole_municipality":false,"approx_coords_only":false},"geometry":{"type":"MultiPolygon","coordinates":[[[[-43.45045,-21.88129],[-43.42548,-21.91493],[-43.41799,-21.91969],[-43.38422,-21.9375],[-43.3541,-21.92757],[-43.3458,-21.9161],[-43.3746,-21.896],[-43.3986,-21.8828],[-43.45045,-21.88129]]]]}},{"type":"Feature","properties":{"territory_id":"mg-3106101-zona-rural","name":"Zona Rural","municipality_id":"mg-3106101","polling_places":1,"approx":true,"official":false,"method":"voronoi-polling-places","whole_municipality":false,"approx_coords_only":false},"geometry":{"type":"MultiPolygon","coordinates":[[[[-43.47869,-22.07278],[-43.4645,-22.0728],[-43.437,-22.06],[-43.38512,-22.02771],[-43.41289,-22.00833],[-43.43246,-22.0038],[-43.43418,-22.00379],[-43.47869,-22.07278]]]]}}]}