{"type":"FeatureCollection","features":[{"type":"Feature","properties":{"territory_id":"mg-3106002-boa-esperanca","name":"Boa Esperança","municipality_id":"mg-3106002","polling_places":1,"approx":true,"official":false,"method":"voronoi-polling-places","whole_municipality":false,"approx_coords_only":false},"geometry":{"type":"MultiPolygon","coordinates":[[[[-43.12884,-19.73382],[-43.09242,-19.7994],[-43.07942,-19.81576],[-43.06277,-19.81606],[-43.091,-19.7904],[-43.0816,-19.7497],[-43.1101,-19.7267],[-43.12884,-19.73382]]]]}},{"type":"Feature","properties":{"territory_id":"mg-3106002-centro","name":"Centro","municipality_id":"mg-3106002","polling_places":1,"approx":true,"official":false,"method":"voronoi-polling-places","whole_municipality":false,"approx_coords_only":false},"geometry":{"type":"MultiPolygon","coordinates":[[[[-43.09269,-19.82164],[-43.08305,-19.83375],[-43.07716,-19.82909],[-43.07942,-19.81576],[-43.09242,-19.7994],[-43.09269,-19.82164]]]]}},{"type":"Feature","properties":{"territory_id":"mg-3106002-corrego-fundo","name":"Córrego Fundo","municipality_id":"mg-3106002","polling_places":1,"approx":true,"official":false,"method":"voronoi-polling-places","whole_municipality":false,"approx_coords_only":false},"geometry":{"type":"MultiPolygon","coordinates":[[[[-43.0931,-19.84315],[-43.0894,-19.8581],[-43.0628,-19.8859],[-43.0615,-19.8599],[-43.04106,-19.84732],[-43.07716,-19.82909],[-43.08305,-19.83375],[-43.09291,-19.84278],[-43.0931,-19.84315]]]]}},{"type":"Feature","properties":{"territory_id":"mg-3106002-lages","name":"Lages","municipality_id":"mg-3106002","polling_places":1,"approx":true,"official":false,"method":"voronoi-polling-places","whole_municipality":false,"approx_coords_only":false},"geometry":{"type":"MultiPolygon","coordinates":[[[[-43.07942,-19.81576],[-43.07716,-19.82909],[-43.04106,-19.84732],[-43.0092,-19.8277],[-43.0569,-19.8214],[-43.06277,-19.81606],[-43.07942,-19.81576]]]]}},{"type":"Feature","properties":{"territory_id":"mg-3106002-maria-marcelina-de-jesus","name":"Maria Marcelina de Jesus","municipality_id":"mg-3106002","polling_places":2,"approx":true,"official":false,"method":"voronoi-polling-places","whole_municipality":false,"approx_coords_only":false},"geometry":{"type":"MultiPolygon","coordinates":[[[[-43.1957,-19.789],[-43.0982,-19.8225],[-43.0931,-19.84315],[-43.09291,-19.84278],[-43.09422,-19.83433],[-43.09269,-19.82164],[-43.09242,-19.7994],[-43.12884,-19.73382],[-43.1656,-19.7478],[-43.1626,-19.7759],[-43.1957,-19.789]]]]}},{"type":"Feature","properties":{"territory_id":"mg-3106002-serrinha","name":"Serrinha","municipality_id":"mg-3106002","polling_places":1,"approx":true,"official":false,"method":"voronoi-polling-places","whole_municipality":false,"approx_coords_only":false},"geometry":{"type":"MultiPolygon","coordinates":[[[[-43.09422,-19.83433],[-43.09291,-19.84278],[-43.08305,-19.83375],[-43.09269,-19.82164],[-43.09422,-19.83433]]]]}}]}