{"type":"FeatureCollection","features":[{"type":"Feature","properties":{"territory_id":"mg-3106309-alex-muller","name":"Alex Muller","municipality_id":"mg-3106309","polling_places":1,"approx":true,"official":false,"method":"voronoi-polling-places","whole_municipality":false,"approx_coords_only":false},"geometry":{"type":"MultiPolygon","coordinates":[[[[-42.41837,-19.2896],[-42.35976,-19.31368],[-42.3357,-19.2683],[-42.3163,-19.2381],[-42.3532,-19.224],[-42.37225,-19.22225],[-42.41837,-19.2896]]]]}},{"type":"Feature","properties":{"territory_id":"mg-3106309-distrito-de-bom-jesus-do-bagre","name":"Distrito de Bom Jesus do Bagre","municipality_id":"mg-3106309","polling_places":1,"approx":true,"official":false,"method":"voronoi-polling-places","whole_municipality":false,"approx_coords_only":false},"geometry":{"type":"MultiPolygon","coordinates":[[[[-42.555,-19.2964],[-42.5194,-19.3227],[-42.4713,-19.3405],[-42.4523,-19.36],[-42.44524,-19.35492],[-42.44332,-19.32117],[-42.49271,-19.26784],[-42.49995,-19.26499],[-42.54926,-19.25005],[-42.5514,-19.2543],[-42.555,-19.2964]]]]}},{"type":"Feature","properties":{"territory_id":"mg-3106309-distrito-de-perpetuo-socorro","name":"Distrito de Perpétuo Socorro","municipality_id":"mg-3106309","polling_places":1,"approx":true,"official":false,"method":"voronoi-polling-places","whole_municipality":false,"approx_coords_only":false},"geometry":{"type":"MultiPolygon","coordinates":[[[[-42.44524,-19.35492],[-42.4192,-19.3362],[-42.3867,-19.328],[-42.3656,-19.3247],[-42.35976,-19.31368],[-42.41837,-19.2896],[-42.44332,-19.32117],[-42.44524,-19.35492]]]]}},{"type":"Feature","properties":{"territory_id":"mg-3106309-distrito-de-sao-sebastiao-de-braunas","name":"Distrito de São Sebastião de Braúnas","municipality_id":"mg-3106309","polling_places":1,"approx":true,"official":false,"method":"voronoi-polling-places","whole_municipality":false,"approx_coords_only":false},"geometry":{"type":"MultiPolygon","coordinates":[[[[-42.49271,-19.26784],[-42.44332,-19.32117],[-42.41837,-19.2896],[-42.37225,-19.22225],[-42.3826,-19.2213],[-42.41022,-19.191],[-42.44312,-19.20151],[-42.49271,-19.26784]]]]}},{"type":"Feature","properties":{"territory_id":"mg-3106309-novo-oriente","name":"Novo Oriente","municipality_id":"mg-3106309","polling_places":2,"approx":true,"official":false,"method":"voronoi-polling-places","whole_municipality":false,"approx_coords_only":false},"geometry":{"type":"MultiPolygon","coordinates":[[[[-42.54926,-19.25005],[-42.49995,-19.26499],[-42.48654,-19.21982],[-42.47548,-19.1978],[-42.51916,-19.18614],[-42.5192,-19.1905],[-42.54926,-19.25005]]]]}},{"type":"Feature","properties":{"territory_id":"mg-3106309-povoado-boa-esperanca","name":"Povoado Boa Esperança","municipality_id":"mg-3106309","polling_places":1,"approx":true,"official":false,"method":"voronoi-polling-places","whole_municipality":false,"approx_coords_only":false},"geometry":{"type":"MultiPolygon","coordinates":[[[[-42.51916,-19.18614],[-42.47548,-19.1978],[-42.44312,-19.20151],[-42.41022,-19.191],[-42.4104,-19.1908],[-42.4828,-19.1553],[-42.5189,-19.1574],[-42.51916,-19.18614]]]]}},{"type":"Feature","properties":{"territory_id":"mg-3106309-santa-terezinha","name":"Santa Terezinha","municipality_id":"mg-3106309","polling_places":1,"approx":true,"official":false,"method":"voronoi-polling-places","whole_municipality":false,"approx_coords_only":false},"geometry":{"type":"MultiPolygon","coordinates":[[[[-42.49995,-19.26499],[-42.49271,-19.26784],[-42.44312,-19.20151],[-42.47548,-19.1978],[-42.48654,-19.21982],[-42.49995,-19.26499]]]]}}]}