{"type":"FeatureCollection","features":[{"type":"Feature","properties":{"territory_id":"mg-3106903-alto-das-brisas","name":"Alto das Brisas","municipality_id":"mg-3106903","polling_places":1,"approx":true,"official":false,"method":"voronoi-polling-places","whole_municipality":false,"approx_coords_only":false},"geometry":{"type":"MultiPolygon","coordinates":[[[[-43.1876,-21.7429],[-43.1712,-21.7595],[-43.1031,-21.8029],[-43.0762,-21.7985],[-43.0522,-21.7417],[-43.05354,-21.72486],[-43.05384,-21.72505],[-43.05403,-21.72519],[-43.05449,-21.72538],[-43.05479,-21.72558],[-43.05504,-21.72565],[-43.05551,-21.7257],[-43.05578,-21.72576],[-43.05603,-21.72584],[-43.05627,-21.72589],[-43.05652,-21.72597],[-43.05679,-21.72602],[-43.05706,-21.72606],[-43.05727,-21.7259],[-43.05781,-21.72587],[-43.05847,-21.72587],[-43.05856,-21.72587],[-43.05883,-21.72588],[-43.05906,-21.72603],[-43.05966,-21.72502],[-43.05974,-21.7244],[-43.05975,-21.72411],[-43.05972,-21.72396],[-43.05978,-21.72381],[-43.0599,-21.72365],[-43.05995,-21.72331],[-43.0599,-21.72306],[-43.05979,-21.72281],[-43.05966,-21.72266],[-43.0595,-21.72242],[-43.05948,-21.7222],[-43.05937,-21.7221],[-43.05923,-21.72207],[-43.05921,-21.72153],[-43.05931,-21.72144],[-43.05947,-21.72139],[-43.05986,-21.72134],[-43.05999,-21.72127],[-43.06005,-21.72102],[-43.06004,-21.72061],[-43.06011,-21.72037],[-43.06008,-21.72019],[-43.06016,-21.71989],[-43.06047,-21.71943],[-43.06074,-21.71932],[-43.06102,-21.7193],[-43.06127,-21.71927],[-43.06157,-21.71927],[-43.06202,-21.71942],[-43.06214,-21.71963],[-43.06221,-21.71983],[-43.06227,-21.72005],[-43.06245,-21.72039],[-43.06249,-21.72052],[-43.06254,-21.72073],[-43.06268,-21.72082],[-43.06312,-21.72091],[-43.06349,-21.72078],[-43.0642,-21.72062],[-43.0643,-21.72058],[-43.06438,-21.72046],[-43.06447,-21.72014],[-43.06462,-21.72004],[-43.06468,-21.71993],[-43.0649,-21.7198],[-43.06511,-21.71991],[-43.0652,-21.72003],[-43.06525,-21.72021],[-43.06534,-21.72029],[-43.06553,-21.7203],[-43.06571,-21.72028],[-43.06578,-21.72072],[-43.06579,-21.72107],[-43.06585,-21.72116],[-43.06583,-21.72128],[-43.06578,-21.72137],[-43.0656,-21.72154],[-43.06541,-21.7216],[-43.06527,-21.72169],[-43.06499,-21.72181],[-43.0649,-21.72194],[-43.06483,-21.72215],[-43.06489,-21.7225],[-43.06479,-21.72266],[-43.06474,-21.7228],[-43.0646,-21.72288],[-43.06453,-21.72302],[-43.06426,-21.72345],[-43.06407,-21.72351],[-43.06393,-21.72371],[-43.06386,-21.72388],[-43.0639,-21.7243],[-43.06418,-21.72471],[-43.06462,-21.72462],[-43.06466,-21.72459],[-43.06487,-21.72474],[-43.06514,-21.72486],[-43.06528,-21.72486],[-43.06768,-21.72325],[-43.06783,-21.72321],[-43.06798,-21.72323],[-43.06818,-21.72339],[-43.06831,-21.72353],[-43.06841,-21.7237],[-43.06844,-21.7238],[-43.06841,-21.72402],[-43.06826,-21.72425],[-43.06761,-21.72484],[-43.06807,-21.7252],[-43.06787,-21.72549],[-43.06831,-21.72581],[-43.06918,-21.72496],[-43.06971,-21.72446],[-43.07112,-21.72299],[-43.07067,-21.72272],[-43.06925,-21.72199],[-43.069,-21.72184],[-43.06855,-21.72153],[-43.06814,-21.72113],[-43.06687,-21.71948],[-43.06792,-21.71873],[-43.06832,-21.71831],[-43.06861,-21.71853],[-43.0697,-21.71788],[-43.06999,-21.71776],[-43.0706,-21.71758],[-43.07123,-21.7175],[-43.07211,-21.71736],[-43.0733,-21.7158],[-43.07333,-21.71558],[-43.07336,-21.71471],[-43.07273,-21.71459],[-43.07219,-21.71457],[-43.072,-21.71463],[-43.07171,-21.71489],[-43.07153,-21.71499],[-43.07133,-21.7152],[-43.07077,-21.71551],[-43.07053,-21.71556],[-43.06985,-21.71554],[-43.06972,-21.71559],[-43.06954,-21.71559],[-43.0691,-21.71566],[-43.06882,-21.71564],[-43.06855,-21.71565],[-43.06836,-21.71561],[-43.0682,-21.71553],[-43.068,-21.71549],[-43.06749,-21.71544],[-43.06719,-21.71538],[-43.06692,-21.71529],[-43.06673,-21.71527],[-43.06661,-21.71512],[-43.06658,-21.71489],[-43.06668,-21.71434],[-43.06658,-21.71415],[-43.06646,-21.71406],[-43.06636,-21.71385],[-43.0661,-21.71377],[-43.0661,-21.71365],[-43.06602,-21.71359],[-43.06574,-21.71362],[-43.06559,-21.71356],[-43.06556,-21.71341],[-43.06546,-21.71322],[-43.06417,-21.71384],[-43.06343,-21.71404],[-43.06342,-21.71436],[-43.06315,-21.71424],[-43.06297,-21.7139],[-43.06249,-21.71368],[-43.06225,-21.71365],[-43.06209,-21.71372],[-43.06196,-21.71383],[-43.06199,-21.71395],[-43.06204,-21.71405],[-43.06203,-21.7142],[-43.06206,-21.71434],[-43.0623,-21.71471],[-43.06188,-21.71542],[-43.06196,-21.71543],[-43.0621,-21.71542],[-43.06221,-21.71545],[-43.06235,-21.71559],[-43.06262,-21.71575],[-43.06259,-21.71601],[-43.06247,-21.71623],[-43.06253,-21.71639],[-43.06272,-21.717],[-43.06123,-21.71569],[-43.06077,-21.71526],[-43.06041,-21.71482],[-43.06028,-21.71459],[-43.06023,-21.71436],[-43.06025,-21.71385],[-43.0601,-21.71409],[-43.0601,-21.71469],[-43.05992,-21.71507],[-43.05978,-21.71525],[-43.05897,-21.71433],[-43.05843,-21.7138],[-43.05824,-21.71366],[-43.05795,-21.71336],[-43.05734,-21.71277],[-43.05592,-21.71137],[-43.05578,-21.71121],[-43.05547,-21.71097],[-43.05422,-21.71035],[-43.05352,-21.71005],[-43.05247,-21.71006],[-43.05217,-21.71008],[-43.05174,-21.71022],[-43.05095,-21.71029],[-43.05059,-21.71027],[-43.0504,-21.71022],[-43.04993,-21.71008],[-43.04936,-21.70971],[-43.04897,-21.70933],[-43.04831,-21.70859],[-43.04777,-21.70857],[-43.04747,-21.70858],[-43.04747,-21.7086],[-43.04826,-21.70939],[-43.04835,-21.70952],[-43.04852,-21.7099],[-43.04862,-21.71008],[-43.04896,-21.71023],[-43.04929,-21.71057],[-43.04963,-21.71078],[-43.04969,-21.7109],[-43.04952,-21.71107],[-43.04964,-21.71116],[-43.05007,-21.71127],[-43.05017,-21.71132],[-43.05064,-21.71139],[-43.05069,-21.71136],[-43.05073,-21.7113],[-43.05084,-21.71126],[-43.051,-21.71129],[-43.05113,-21.71124],[-43.05126,-21.71122],[-43.05135,-21.71126],[-43.05144,-21.71138],[-43.05147,-21.71146],[-43.05154,-21.71151],[-43.05161,-21.71148],[-43.05159,-21.71138],[-43.05164,-21.71126],[-43.05172,-21.71125],[-43.05189,-21.71124],[-43.05209,-21.71139],[-43.05219,-21.71142],[-43.05226,-21.71141],[-43.05234,-21.71132],[-43.05236,-21.71128],[-43.05237,-21.71121],[-43.05247,-21.71115],[-43.05254,-21.71118],[-43.05255,-21.71125],[-43.05267,-21.71128],[-43.0528,-21.71137],[-43.05296,-21.71138],[-43.05309,-21.71142],[-43.05317,-21.71147],[-43.05329,-21.71152],[-43.05333,-21.7116],[-43.05354,-21.71154],[-43.05368,-21.71154],[-43.05378,-21.71151],[-43.0541,-21.7115],[-43.05417,-21.71144],[-43.05424,-21.71147],[-43.0543,-21.71147],[-43.05447,-21.71151],[-43.05479,-21.7117],[-43.05485,-21.7118],[-43.05486,-21.71189],[-43.05494,-21.71191],[-43.055,-21.71196],[-43.05504,-21.71196],[-43.0552,-21.71205],[-43.05526,-21.71211],[-43.05537,-21.71214],[-43.05541,-21.71212],[-43.05556,-21.71223],[-43.05593,-21.71241],[-43.05479,-21.71565],[-43.05498,-21.71582],[-43.05516,-21.71596],[-43.0553,-21.71614],[-43.05534,-21.71637],[-43.05534,-21.71664],[-43.05536,-21.71687],[-43.05531,-21.7171],[-43.05514,-21.71732],[-43.05498,-21.71748],[-43.05474,-21.71759],[-43.05451,-21.71772],[-43.05424,-21.71783],[-43.0541,-21.71791],[-43.0543,-21.7154],[-43.0201,-21.6986],[-43.0291,-21.6757],[-43.0552,-21.6902],[-43.0915,-21.6602],[-43.133,-21.6947],[-43.1622,-21.7018],[-43.1876,-21.7429]]],[[[-43.05385,-21.7222],[-43.05381,-21.72242],[-43.05372,-21.72271],[-43.05382,-21.72144],[-43.05385,-21.72172],[-43.05385,-21.7222]]]]}},{"type":"Feature","properties":{"territory_id":"mg-3106903-centro","name":"Centro","municipality_id":"mg-3106903","polling_places":2,"approx":false,"official":true,"method":"official-ibge-cd2022","whole_municipality":false,"approx_coords_only":false,"official_name":"Centro","official_code":"3106903001","match":"direct"},"geometry":{"type":"MultiPolygon","coordinates":[[[[-43.05856,-21.72587],[-43.05883,-21.72588],[-43.05906,-21.72603],[-43.05966,-21.72502],[-43.05974,-21.7244],[-43.05975,-21.72411],[-43.05972,-21.72396],[-43.05978,-21.72381],[-43.0599,-21.72365],[-43.05995,-21.72331],[-43.0599,-21.72306],[-43.05979,-21.72281],[-43.05966,-21.72266],[-43.0595,-21.72242],[-43.05948,-21.7222],[-43.05937,-21.7221],[-43.05923,-21.72207],[-43.05921,-21.72153],[-43.05931,-21.72144],[-43.05947,-21.72139],[-43.05986,-21.72134],[-43.05999,-21.72127],[-43.06005,-21.72102],[-43.06004,-21.72061],[-43.06011,-21.72037],[-43.06008,-21.72019],[-43.06016,-21.71989],[-43.06047,-21.71943],[-43.06074,-21.71932],[-43.06102,-21.7193],[-43.06127,-21.71927],[-43.06157,-21.71927],[-43.06202,-21.71942],[-43.06214,-21.71963],[-43.06221,-21.71983],[-43.06227,-21.72005],[-43.06245,-21.72039],[-43.06249,-21.72052],[-43.06254,-21.72073],[-43.06268,-21.72082],[-43.06312,-21.72091],[-43.06349,-21.72078],[-43.0642,-21.72062],[-43.0643,-21.72058],[-43.06438,-21.72046],[-43.06447,-21.72014],[-43.06462,-21.72004],[-43.06468,-21.71993],[-43.0649,-21.7198],[-43.06511,-21.71991],[-43.0652,-21.72003],[-43.06525,-21.72021],[-43.06534,-21.72029],[-43.06553,-21.7203],[-43.06571,-21.72028],[-43.06578,-21.72072],[-43.06579,-21.72107],[-43.06585,-21.72116],[-43.06583,-21.72128],[-43.06578,-21.72137],[-43.0656,-21.72154],[-43.06541,-21.7216],[-43.06527,-21.72169],[-43.06499,-21.72181],[-43.0649,-21.72194],[-43.06483,-21.72215],[-43.06489,-21.7225],[-43.06479,-21.72266],[-43.06474,-21.7228],[-43.0646,-21.72288],[-43.06453,-21.72302],[-43.06426,-21.72345],[-43.06407,-21.72351],[-43.06393,-21.72371],[-43.06386,-21.72388],[-43.0639,-21.7243],[-43.06418,-21.72471],[-43.06462,-21.72462],[-43.06466,-21.72459],[-43.06434,-21.72424],[-43.06434,-21.724],[-43.06436,-21.72392],[-43.06535,-21.72263],[-43.06551,-21.72225],[-43.06607,-21.72169],[-43.06624,-21.72147],[-43.06629,-21.72133],[-43.06628,-21.72113],[-43.06622,-21.72078],[-43.06685,-21.72073],[-43.06666,-21.71955],[-43.06646,-21.71917],[-43.06607,-21.71874],[-43.06598,-21.71869],[-43.06597,-21.71853],[-43.06608,-21.7185],[-43.0663,-21.71869],[-43.06687,-21.71948],[-43.06792,-21.71873],[-43.06832,-21.71831],[-43.06861,-21.71853],[-43.0697,-21.71788],[-43.06999,-21.71776],[-43.0706,-21.71758],[-43.07123,-21.7175],[-43.07211,-21.71736],[-43.0733,-21.7158],[-43.07333,-21.71558],[-43.07336,-21.71471],[-43.07273,-21.71459],[-43.07219,-21.71457],[-43.072,-21.71463],[-43.07171,-21.71489],[-43.07153,-21.71499],[-43.07133,-21.7152],[-43.07077,-21.71551],[-43.07053,-21.71556],[-43.06985,-21.71554],[-43.06972,-21.71559],[-43.06954,-21.71559],[-43.0691,-21.71566],[-43.06882,-21.71564],[-43.06855,-21.71565],[-43.06836,-21.71561],[-43.0682,-21.71553],[-43.068,-21.71549],[-43.06749,-21.71544],[-43.06719,-21.71538],[-43.06692,-21.71529],[-43.06673,-21.71527],[-43.06661,-21.71512],[-43.06658,-21.71489],[-43.06668,-21.71434],[-43.06658,-21.71415],[-43.06646,-21.71406],[-43.06636,-21.71385],[-43.0661,-21.71377],[-43.0661,-21.71365],[-43.06602,-21.71359],[-43.06574,-21.71362],[-43.06559,-21.71356],[-43.06556,-21.71341],[-43.06546,-21.71322],[-43.06417,-21.71384],[-43.06343,-21.71404],[-43.06342,-21.71436],[-43.06315,-21.71424],[-43.06297,-21.7139],[-43.06249,-21.71368],[-43.06225,-21.71365],[-43.06209,-21.71372],[-43.06196,-21.71383],[-43.06199,-21.71395],[-43.06204,-21.71405],[-43.06203,-21.7142],[-43.06206,-21.71434],[-43.0623,-21.71471],[-43.06188,-21.71542],[-43.06196,-21.71543],[-43.0621,-21.71542],[-43.06221,-21.71545],[-43.06235,-21.71559],[-43.06262,-21.71575],[-43.06259,-21.71601],[-43.06247,-21.71623],[-43.06253,-21.71639],[-43.06272,-21.717],[-43.06123,-21.71569],[-43.06077,-21.71526],[-43.06041,-21.71482],[-43.06028,-21.71459],[-43.06023,-21.71436],[-43.06025,-21.71385],[-43.0601,-21.71409],[-43.0601,-21.71469],[-43.05992,-21.71507],[-43.05978,-21.71525],[-43.05969,-21.71599],[-43.05952,-21.71623],[-43.05943,-21.71651],[-43.05912,-21.71641],[-43.05898,-21.71638],[-43.05879,-21.71643],[-43.05864,-21.71652],[-43.05838,-21.71656],[-43.05822,-21.717],[-43.05808,-21.71747],[-43.05819,-21.71779],[-43.05745,-21.71791],[-43.057,-21.71807],[-43.05649,-21.71839],[-43.05555,-21.71876],[-43.05487,-21.719],[-43.0544,-21.71883],[-43.05353,-21.7198],[-43.05343,-21.71989],[-43.05325,-21.71986],[-43.05347,-21.72029],[-43.05366,-21.72073],[-43.05373,-21.72097],[-43.0538,-21.72122],[-43.05385,-21.72172],[-43.05385,-21.7222],[-43.05381,-21.72242],[-43.05366,-21.72287],[-43.05333,-21.72329],[-43.05312,-21.72374],[-43.05303,-21.72402],[-43.053,-21.72426],[-43.05309,-21.72448],[-43.05343,-21.72479],[-43.05384,-21.72505],[-43.05403,-21.72519],[-43.05449,-21.72538],[-43.05479,-21.72558],[-43.05504,-21.72565],[-43.05551,-21.7257],[-43.05578,-21.72576],[-43.05603,-21.72584],[-43.05627,-21.72589],[-43.05652,-21.72597],[-43.05679,-21.72602],[-43.05706,-21.72606],[-43.05727,-21.7259],[-43.05781,-21.72587],[-43.05847,-21.72587],[-43.05856,-21.72587]]]]}},{"type":"Feature","properties":{"territory_id":"mg-3106903-retto-junior","name":"Retto Junior","municipality_id":"mg-3106903","polling_places":1,"approx":false,"official":true,"method":"official-ibge-cd2022","whole_municipality":false,"approx_coords_only":false,"official_name":"Retto Júnior","official_code":"3106903004","match":"direct"},"geometry":{"type":"MultiPolygon","coordinates":[[[[-43.05898,-21.71638],[-43.05912,-21.71641],[-43.05943,-21.71651],[-43.05952,-21.71623],[-43.05969,-21.71599],[-43.05978,-21.71525],[-43.05897,-21.71433],[-43.05843,-21.7138],[-43.05824,-21.71366],[-43.05795,-21.71336],[-43.05734,-21.71277],[-43.05592,-21.71137],[-43.05578,-21.71121],[-43.05547,-21.71097],[-43.05422,-21.71035],[-43.05352,-21.71005],[-43.05247,-21.71006],[-43.05217,-21.71008],[-43.05174,-21.71022],[-43.05095,-21.71029],[-43.05059,-21.71027],[-43.0504,-21.71022],[-43.04993,-21.71008],[-43.04936,-21.70971],[-43.04897,-21.70933],[-43.04831,-21.70859],[-43.04777,-21.70857],[-43.04747,-21.70858],[-43.04747,-21.7086],[-43.04826,-21.70939],[-43.04835,-21.70952],[-43.04852,-21.7099],[-43.04862,-21.71008],[-43.04896,-21.71023],[-43.04929,-21.71057],[-43.04963,-21.71078],[-43.04969,-21.7109],[-43.04952,-21.71107],[-43.04964,-21.71116],[-43.05007,-21.71127],[-43.05017,-21.71132],[-43.05064,-21.71139],[-43.05069,-21.71136],[-43.05073,-21.7113],[-43.05084,-21.71126],[-43.051,-21.71129],[-43.05113,-21.71124],[-43.05126,-21.71122],[-43.05135,-21.71126],[-43.05144,-21.71138],[-43.05147,-21.71146],[-43.05154,-21.71151],[-43.05161,-21.71148],[-43.05159,-21.71138],[-43.05164,-21.71126],[-43.05172,-21.71125],[-43.05189,-21.71124],[-43.05209,-21.71139],[-43.05219,-21.71142],[-43.05226,-21.71141],[-43.05234,-21.71132],[-43.05236,-21.71128],[-43.05237,-21.71121],[-43.05247,-21.71115],[-43.05254,-21.71118],[-43.05255,-21.71125],[-43.05267,-21.71128],[-43.0528,-21.71137],[-43.05296,-21.71138],[-43.05309,-21.71142],[-43.05317,-21.71147],[-43.05329,-21.71152],[-43.05333,-21.7116],[-43.05354,-21.71154],[-43.05368,-21.71154],[-43.05378,-21.71151],[-43.0541,-21.7115],[-43.05417,-21.71144],[-43.05424,-21.71147],[-43.0543,-21.71147],[-43.05447,-21.71151],[-43.05479,-21.7117],[-43.05485,-21.7118],[-43.05486,-21.71189],[-43.05494,-21.71191],[-43.055,-21.71196],[-43.05504,-21.71196],[-43.0552,-21.71205],[-43.05526,-21.71211],[-43.05537,-21.71214],[-43.05541,-21.71212],[-43.05556,-21.71223],[-43.05593,-21.71241],[-43.05479,-21.71565],[-43.05498,-21.71582],[-43.05516,-21.71596],[-43.0553,-21.71614],[-43.05534,-21.71637],[-43.05534,-21.71664],[-43.05536,-21.71687],[-43.05531,-21.7171],[-43.05514,-21.71732],[-43.05498,-21.71748],[-43.05474,-21.71759],[-43.05451,-21.71772],[-43.05424,-21.71783],[-43.0538,-21.71808],[-43.05359,-21.71822],[-43.05342,-21.71843],[-43.05322,-21.71859],[-43.05303,-21.71878],[-43.05294,-21.71899],[-43.05293,-21.71925],[-43.05297,-21.71947],[-43.05308,-21.71968],[-43.05325,-21.71986],[-43.05343,-21.71989],[-43.05353,-21.7198],[-43.0544,-21.71883],[-43.05487,-21.719],[-43.05555,-21.71876],[-43.05649,-21.71839],[-43.057,-21.71807],[-43.05745,-21.71791],[-43.05819,-21.71779],[-43.05808,-21.71747],[-43.05822,-21.717],[-43.05838,-21.71656],[-43.05864,-21.71652],[-43.05879,-21.71643],[-43.05898,-21.71638]]]]}},{"type":"Feature","properties":{"territory_id":"mg-3106903-santana","name":"Santana","municipality_id":"mg-3106903","polling_places":2,"approx":false,"official":true,"method":"official-ibge-cd2022","whole_municipality":false,"approx_coords_only":false,"official_name":"Santana","official_code":"3106903006","match":"direct"},"geometry":{"type":"MultiPolygon","coordinates":[[[[-43.06685,-21.72073],[-43.06622,-21.72078],[-43.06628,-21.72113],[-43.06629,-21.72133],[-43.06624,-21.72147],[-43.06607,-21.72169],[-43.06551,-21.72225],[-43.06535,-21.72263],[-43.06436,-21.72392],[-43.06434,-21.724],[-43.06434,-21.72424],[-43.06466,-21.72459],[-43.06487,-21.72474],[-43.06514,-21.72486],[-43.06528,-21.72486],[-43.06768,-21.72325],[-43.06783,-21.72321],[-43.06798,-21.72323],[-43.06818,-21.72339],[-43.06831,-21.72353],[-43.06841,-21.7237],[-43.06844,-21.7238],[-43.06841,-21.72402],[-43.06826,-21.72425],[-43.06761,-21.72484],[-43.06807,-21.7252],[-43.06787,-21.72549],[-43.06831,-21.72581],[-43.06918,-21.72496],[-43.06971,-21.72446],[-43.07112,-21.72299],[-43.07067,-21.72272],[-43.06925,-21.72199],[-43.069,-21.72184],[-43.06855,-21.72153],[-43.06814,-21.72113],[-43.06687,-21.71948],[-43.0663,-21.71869],[-43.06608,-21.7185],[-43.06597,-21.71853],[-43.06598,-21.71869],[-43.06607,-21.71874],[-43.06646,-21.71917],[-43.06666,-21.71955],[-43.06685,-21.72073]]]]}}]}