{"type":"FeatureCollection","features":[{"type":"Feature","properties":{"territory_id":"mg-3106507-bairro-dom-silvestre","name":"Bairro Dom Silvestre","municipality_id":"mg-3106507","polling_places":1,"approx":true,"official":false,"method":"voronoi-polling-places","whole_municipality":false,"approx_coords_only":false},"geometry":{"type":"MultiPolygon","coordinates":[[[[-42.50043,-16.93364],[-42.46306,-16.94821],[-42.37574,-16.95765],[-42.3669,-16.9341],[-42.3911,-16.914],[-42.39236,-16.91176],[-42.45842,-16.89886],[-42.48148,-16.90995],[-42.50043,-16.93364]]]]}},{"type":"Feature","properties":{"territory_id":"mg-3106507-centro","name":"Centro","municipality_id":"mg-3106507","polling_places":2,"approx":true,"official":false,"method":"voronoi-polling-places","whole_municipality":false,"approx_coords_only":false},"geometry":{"type":"MultiPolygon","coordinates":[[[[-42.51404,-16.94772],[-42.42138,-17.01707],[-42.4212,-17.0157],[-42.41939,-17.01342],[-42.46383,-16.95224],[-42.46306,-16.94821],[-42.50043,-16.93364],[-42.50427,-16.93775],[-42.51404,-16.94772]]]]}},{"type":"Feature","properties":{"territory_id":"mg-3106507-comunidade-alto-bravo-zona-rural","name":"Comunidade Alto Bravo - Zona Rural","municipality_id":"mg-3106507","polling_places":1,"approx":true,"official":false,"method":"voronoi-polling-places","whole_municipality":false,"approx_coords_only":false},"geometry":{"type":"MultiPolygon","coordinates":[[[[-42.47587,-16.80801],[-42.47108,-16.81504],[-42.4182,-16.77195],[-42.4658,-16.7761],[-42.47221,-16.75982],[-42.47587,-16.80801]]]]}},{"type":"Feature","properties":{"territory_id":"mg-3106507-distrito-de-leliveldia","name":"Distrito de Lelivéldia","municipality_id":"mg-3106507","polling_places":1,"approx":true,"official":false,"method":"voronoi-polling-places","whole_municipality":false,"approx_coords_only":false},"geometry":{"type":"MultiPolygon","coordinates":[[[[-42.642,-16.7703],[-42.6411,-16.7945],[-42.5967,-16.8172],[-42.5701,-16.8541],[-42.55891,-16.85048],[-42.5221,-16.77567],[-42.52582,-16.7584],[-42.55763,-16.73333],[-42.5581,-16.7341],[-42.6005,-16.7321],[-42.642,-16.7703]]]]}},{"type":"Feature","properties":{"territory_id":"mg-3106507-vila-santo-izidoro","name":"Vila Santo Izidoro","municipality_id":"mg-3106507","polling_places":1,"approx":true,"official":false,"method":"voronoi-polling-places","whole_municipality":false,"approx_coords_only":false},"geometry":{"type":"MultiPolygon","coordinates":[[[[-42.54264,-16.95527],[-42.5181,-16.9801],[-42.5218,-17.0102],[-42.4679,-17.0118],[-42.4311,-17.0907],[-42.42138,-17.01707],[-42.51404,-16.94772],[-42.54264,-16.95527]]]]}},{"type":"Feature","properties":{"territory_id":"mg-3106507-zona-rural","name":"Zona Rural","municipality_id":"mg-3106507","polling_places":11,"approx":true,"official":false,"method":"voronoi-polling-places","whole_municipality":false,"approx_coords_only":false},"geometry":{"type":"MultiPolygon","coordinates":[[[[-42.5701,-16.8541],[-42.5665,-16.8591],[-42.5519,-16.9459],[-42.54264,-16.95527],[-42.51404,-16.94772],[-42.50427,-16.93775],[-42.50043,-16.93364],[-42.48148,-16.90995],[-42.45842,-16.89886],[-42.39236,-16.91176],[-42.4228,-16.8577],[-42.4176,-16.8084],[-42.4004,-16.7704],[-42.4182,-16.77195],[-42.47108,-16.81504],[-42.47587,-16.80801],[-42.47221,-16.75982],[-42.4838,-16.7304],[-42.4687,-16.6727],[-42.5425,-16.7086],[-42.55763,-16.73333],[-42.52582,-16.7584],[-42.5221,-16.77567],[-42.55891,-16.85048],[-42.5701,-16.8541]]],[[[-42.46383,-16.95224],[-42.41939,-17.01342],[-42.3764,-16.9594],[-42.37574,-16.95765],[-42.46306,-16.94821],[-42.46383,-16.95224]]]]}}]}