{"type":"FeatureCollection","features":[{"type":"Feature","properties":{"territory_id":"mg-3106655-berizal","name":"Berizal","municipality_id":"mg-3106655","polling_places":1,"approx":true,"official":false,"method":"voronoi-polling-places","whole_municipality":false,"approx_coords_only":false},"geometry":{"type":"MultiPolygon","coordinates":[[[[-41.9164,-15.6621],[-41.894,-15.7324],[-41.8805,-15.7484],[-41.8421,-15.7364],[-41.8195,-15.7574],[-41.7747,-15.7613],[-41.7319,-15.7379],[-41.7159,-15.7574],[-41.7336,-15.7837],[-41.6966,-15.8007],[-41.667,-15.795],[-41.6435,-15.7468],[-41.64193,-15.73239],[-41.86175,-15.60897],[-41.9048,-15.6312],[-41.9164,-15.6621]]]]}},{"type":"Feature","properties":{"territory_id":"mg-3106655-centro","name":"Centro","municipality_id":"mg-3106655","polling_places":1,"approx":true,"official":false,"method":"voronoi-polling-places","whole_municipality":false,"approx_coords_only":false},"geometry":{"type":"MultiPolygon","coordinates":[[[[-41.86175,-15.60897],[-41.64193,-15.73239],[-41.64044,-15.71871],[-41.73914,-15.61279],[-41.74393,-15.60765],[-41.76562,-15.59648],[-41.8041,-15.6123],[-41.8533,-15.6046],[-41.86175,-15.60897]]]]}},{"type":"Feature","properties":{"territory_id":"mg-3106655-planalto","name":"Planalto","municipality_id":"mg-3106655","polling_places":1,"approx":true,"official":false,"method":"voronoi-polling-places","whole_municipality":false,"approx_coords_only":false},"geometry":{"type":"MultiPolygon","coordinates":[[[[-41.76562,-15.59648],[-41.74393,-15.60765],[-41.73914,-15.60918],[-41.61228,-15.64959],[-41.6032,-15.6347],[-41.6468,-15.6054],[-41.669,-15.6169],[-41.7127,-15.6112],[-41.7479,-15.5892],[-41.76562,-15.59648]]]]}},{"type":"Feature","properties":{"territory_id":"mg-3106655-tabatinga","name":"Tabatinga","municipality_id":"mg-3106655","polling_places":1,"approx":true,"official":false,"method":"voronoi-polling-places","whole_municipality":false,"approx_coords_only":false},"geometry":{"type":"MultiPolygon","coordinates":[[[[-41.73914,-15.61279],[-41.64044,-15.71871],[-41.6402,-15.7165],[-41.6726,-15.6675],[-41.6157,-15.6552],[-41.61228,-15.64959],[-41.73914,-15.60918],[-41.73914,-15.61279]]]]}},{"type":"Feature","properties":{"territory_id":"mg-3106655-taperinha","name":"Taperinha","municipality_id":"mg-3106655","polling_places":1,"approx":true,"official":false,"method":"voronoi-polling-places","whole_municipality":false,"approx_coords_only":false},"geometry":{"type":"MultiPolygon","coordinates":[[[[-41.74393,-15.60765],[-41.73914,-15.61279],[-41.73914,-15.60918],[-41.74393,-15.60765]]]]}}]}