{"type":"FeatureCollection","features":[{"type":"Feature","properties":{"territory_id":"mg-3106606-centro","name":"Centro","municipality_id":"mg-3106606","polling_places":2,"approx":true,"official":false,"method":"voronoi-polling-places","whole_municipality":false,"approx_coords_only":false},"geometry":{"type":"MultiPolygon","coordinates":[[[[-40.665,-17.035],[-40.648,-17.0742],[-40.6636,-17.1142],[-40.6303,-17.1747],[-40.6141,-17.1865],[-40.5787,-17.1496],[-40.5568,-17.0896],[-40.5717,-17.0659],[-40.5475,-16.99458],[-40.59962,-16.96777],[-40.62057,-16.96563],[-40.6189,-16.9732],[-40.6439,-16.9945],[-40.665,-17.035]]]]}},{"type":"Feature","properties":{"territory_id":"mg-3106606-umburaninha","name":"Umburaninha","municipality_id":"mg-3106606","polling_places":1,"approx":true,"official":false,"method":"voronoi-polling-places","whole_municipality":false,"approx_coords_only":false},"geometry":{"type":"MultiPolygon","coordinates":[[[[-40.59962,-16.96777],[-40.5475,-16.99458],[-40.5435,-16.9828],[-40.5159,-16.9627],[-40.4802,-16.8768],[-40.4336,-16.8874],[-40.4626,-16.84292],[-40.59962,-16.96777]]]]}},{"type":"Feature","properties":{"territory_id":"mg-3106606-zona-rural","name":"Zona Rural","municipality_id":"mg-3106606","polling_places":1,"approx":true,"official":false,"method":"voronoi-polling-places","whole_municipality":false,"approx_coords_only":false},"geometry":{"type":"MultiPolygon","coordinates":[[[[-40.6253,-16.9442],[-40.62057,-16.96563],[-40.59962,-16.96777],[-40.4626,-16.84292],[-40.4664,-16.8371],[-40.4865,-16.8401],[-40.5346,-16.8016],[-40.5862,-16.7973],[-40.5893,-16.7818],[-40.6026,-16.7891],[-40.6033,-16.8318],[-40.5672,-16.8744],[-40.5819,-16.9025],[-40.6253,-16.9442]]]]}}]}