{"type":"FeatureCollection","features":[{"type":"Feature","properties":{"territory_id":"mg-3107307-beija-flor","name":"Beija-flor","municipality_id":"mg-3107307","polling_places":1,"approx":true,"official":false,"method":"voronoi-polling-places","whole_municipality":false,"approx_coords_only":false},"geometry":{"type":"MultiPolygon","coordinates":[[[[-43.83284,-17.11841],[-43.82331,-17.13568],[-43.81792,-17.11805],[-43.81814,-17.115],[-43.81948,-17.11425],[-43.83284,-17.11841]]]]}},{"type":"Feature","properties":{"territory_id":"mg-3107307-bonfim","name":"Bonfim","municipality_id":"mg-3107307","polling_places":2,"approx":true,"official":false,"method":"voronoi-polling-places","whole_municipality":false,"approx_coords_only":false},"geometry":{"type":"MultiPolygon","coordinates":[[[[-43.8387,-17.08702],[-43.81948,-17.11425],[-43.81814,-17.115],[-43.81593,-17.11328],[-43.81701,-17.10856],[-43.81338,-17.10811],[-43.81178,-17.10375],[-43.81108,-17.09984],[-43.81561,-17.09008],[-43.82777,-17.08896],[-43.8387,-17.08702]]]]}},{"type":"Feature","properties":{"territory_id":"mg-3107307-cachoeirinha","name":"Cachoeirinha","municipality_id":"mg-3107307","polling_places":1,"approx":true,"official":false,"method":"voronoi-polling-places","whole_municipality":false,"approx_coords_only":false},"geometry":{"type":"MultiPolygon","coordinates":[[[[-43.9365,-17.20782],[-43.8788,-17.2299],[-43.8339,-17.2794],[-43.84785,-17.30579],[-43.81437,-17.32635],[-43.81233,-17.29358],[-43.82207,-17.14097],[-43.82331,-17.13568],[-43.83284,-17.11841],[-43.86707,-17.07862],[-43.90411,-17.06004],[-43.9365,-17.20782]]]]}},{"type":"Feature","properties":{"territory_id":"mg-3107307-centro","name":"Centro","municipality_id":"mg-3107307","polling_places":3,"approx":true,"official":false,"method":"voronoi-polling-places","whole_municipality":false,"approx_coords_only":false},"geometry":{"type":"MultiPolygon","coordinates":[[[[-43.81814,-17.115],[-43.81792,-17.11805],[-43.81072,-17.11883],[-43.80928,-17.11713],[-43.81368,-17.11271],[-43.81045,-17.1111],[-43.81178,-17.10375],[-43.81338,-17.10811],[-43.81701,-17.10856],[-43.81593,-17.11328],[-43.81814,-17.115]]]]}},{"type":"Feature","properties":{"territory_id":"mg-3107307-distrito-alto-belo","name":"Distrito Alto Belo","municipality_id":"mg-3107307","polling_places":1,"approx":true,"official":false,"method":"voronoi-polling-places","whole_municipality":false,"approx_coords_only":false},"geometry":{"type":"MultiPolygon","coordinates":[[[[-43.88025,-16.94623],[-43.71072,-17.03699],[-43.7134,-17.0169],[-43.7017,-16.999],[-43.6982,-16.945],[-43.6859,-16.9273],[-43.6822,-16.8828],[-43.7014,-16.851],[-43.7209,-16.9033],[-43.808,-16.9068],[-43.8694,-16.9207],[-43.88025,-16.94623]]]]}},{"type":"Feature","properties":{"territory_id":"mg-3107307-nossa-senhora-de-fatima","name":"Nossa Senhora de Fátima","municipality_id":"mg-3107307","polling_places":1,"approx":true,"official":false,"method":"voronoi-polling-places","whole_municipality":false,"approx_coords_only":false},"geometry":{"type":"MultiPolygon","coordinates":[[[[-43.82331,-17.13568],[-43.82207,-17.14097],[-43.81113,-17.12358],[-43.81072,-17.11883],[-43.81792,-17.11805],[-43.82331,-17.13568]]]]}},{"type":"Feature","properties":{"territory_id":"mg-3107307-pernambuco","name":"Pernambuco","municipality_id":"mg-3107307","polling_places":5,"approx":true,"official":false,"method":"voronoi-polling-places","whole_municipality":false,"approx_coords_only":false},"geometry":{"type":"MultiPolygon","coordinates":[[[[-43.82207,-17.14097],[-43.81233,-17.29358],[-43.811,-17.2723],[-43.73523,-17.21975],[-43.80502,-17.1217],[-43.80516,-17.1192],[-43.79475,-17.11097],[-43.80266,-17.10908],[-43.81108,-17.09984],[-43.81178,-17.10375],[-43.81045,-17.1111],[-43.81368,-17.11271],[-43.80928,-17.11713],[-43.81072,-17.11883],[-43.81113,-17.12358],[-43.82207,-17.14097]]]]}},{"type":"Feature","properties":{"territory_id":"mg-3107307-zona-rural","name":"Zona Rural","municipality_id":"mg-3107307","polling_places":11,"approx":true,"official":false,"method":"voronoi-polling-places","whole_municipality":false,"approx_coords_only":false},"geometry":{"type":"MultiPolygon","coordinates":[[[[-44.1115,-17.1559],[-44.0502,-17.1584],[-43.9982,-17.198],[-43.9696,-17.2317],[-43.9389,-17.2069],[-43.9365,-17.20782],[-43.90411,-17.06004],[-43.86707,-17.07862],[-43.8387,-17.08702],[-43.82777,-17.08896],[-43.81561,-17.09008],[-43.81108,-17.09984],[-43.80266,-17.10908],[-43.79475,-17.11097],[-43.80516,-17.1192],[-43.80502,-17.1217],[-43.73523,-17.21975],[-43.7304,-17.2164],[-43.6687,-17.209],[-43.626,-17.2572],[-43.5759,-17.2743],[-43.5424,-17.2333],[-43.4992,-17.2645],[-43.4157,-17.2758],[-43.3702,-17.2944],[-43.3335,-17.3374],[-43.3238,-17.3672],[-43.2954,-17.3797],[-43.2415,-17.4205],[-43.2176,-17.4143],[-43.1983,-17.3988],[-43.2008,-17.3636],[-43.2285,-17.3445],[-43.1903,-17.2918],[-43.1337,-17.3044],[-43.0835,-17.2531],[-43.0696,-17.2244],[-43.1089,-17.1942],[-43.0932,-17.1669],[-43.1047,-17.1339],[-43.1437,-17.1201],[-43.1757,-17.1268],[-43.207,-17.1057],[-43.2293,-17.1373],[-43.2827,-17.1355],[-43.4887,-17.1777],[-43.5153,-17.1919],[-43.564,-17.18],[-43.6015,-17.1963],[-43.6235,-17.1733],[-43.6682,-17.1705],[-43.6847,-17.1052],[-43.7066,-17.0678],[-43.71072,-17.03699],[-43.88025,-16.94623],[-43.8901,-16.9694],[-43.9201,-16.9653],[-43.9537,-16.9926],[-43.9845,-17.0397],[-44.0164,-17.0519],[-44.0202,-17.1131],[-44.1057,-17.1458],[-44.1115,-17.1559]]],[[[-44.0591,-17.4487],[-43.9564,-17.5553],[-43.9199,-17.5695],[-43.8902,-17.6286],[-43.8999,-17.6627],[-43.8875,-17.7102],[-43.9011,-17.7285],[-43.8654,-17.7615],[-43.8407,-17.8334],[-43.8034,-17.8897],[-43.7637,-17.9246],[-43.7506,-17.8901],[-43.7754,-17.8367],[-43.7557,-17.8226],[-43.7808,-17.7928],[-43.756,-17.7664],[-43.7721,-17.7401],[-43.7522,-17.7053],[-43.7768,-17.6795],[-43.7737,-17.5465],[-43.7559,-17.4862],[-43.7188,-17.4189],[-43.7332,-17.3698],[-43.7758,-17.37],[-43.8148,-17.3333],[-43.81437,-17.32635],[-43.84785,-17.30579],[-43.8664,-17.3409],[-43.9223,-17.378],[-43.9677,-17.3792],[-44.0022,-17.3567],[-44.0256,-17.3851],[-44.0214,-17.4135],[-44.0591,-17.4487]]]]}},{"type":"Feature","properties":{"territory_id":"mg-3107307-zumbi","name":"Zumbi","municipality_id":"mg-3107307","polling_places":1,"approx":true,"official":false,"method":"voronoi-polling-places","whole_municipality":false,"approx_coords_only":false},"geometry":{"type":"MultiPolygon","coordinates":[[[[-43.86707,-17.07862],[-43.83284,-17.11841],[-43.81948,-17.11425],[-43.8387,-17.08702],[-43.86707,-17.07862]]]]}}]}