{"type":"FeatureCollection","features":[{"type":"Feature","properties":{"territory_id":"mg-3107109-centenario","name":"Centenário","municipality_id":"mg-3107109","polling_places":1,"approx":true,"official":false,"method":"voronoi-polling-places","whole_municipality":false,"approx_coords_only":false},"geometry":{"type":"MultiPolygon","coordinates":[[[[-45.58361,-21.1141],[-45.55539,-21.10113],[-45.55613,-21.10002],[-45.55894,-21.09688],[-45.559,-21.09687],[-45.56213,-21.09735],[-45.58361,-21.1141]]]]}},{"type":"Feature","properties":{"territory_id":"mg-3107109-centro","name":"Centro","municipality_id":"mg-3107109","polling_places":6,"approx":true,"official":false,"method":"voronoi-polling-places","whole_municipality":false,"approx_coords_only":false},"geometry":{"type":"MultiPolygon","coordinates":[[[[-45.60597,-21.12889],[-45.58361,-21.1141],[-45.56213,-21.09735],[-45.559,-21.09687],[-45.56047,-21.09106],[-45.56036,-21.0888],[-45.52903,-21.02665],[-45.53052,-21.02678],[-45.56535,-21.0787],[-45.5671,-21.08529],[-45.58867,-21.11152],[-45.60597,-21.12889]]]]}},{"type":"Feature","properties":{"territory_id":"mg-3107109-frederico-ozanan","name":"Frederico Ozanan","municipality_id":"mg-3107109","polling_places":1,"approx":true,"official":false,"method":"voronoi-polling-places","whole_municipality":false,"approx_coords_only":false},"geometry":{"type":"MultiPolygon","coordinates":[[[[-45.62232,-21.14187],[-45.5945,-21.1444],[-45.5761,-21.1652],[-45.6078,-21.1957],[-45.6039,-21.2314],[-45.5669,-21.2538],[-45.5172,-21.2187],[-45.5273,-21.1928],[-45.52279,-21.15914],[-45.55057,-21.10382],[-45.55539,-21.10113],[-45.58361,-21.1141],[-45.60597,-21.12889],[-45.62232,-21.14187]]]]}},{"type":"Feature","properties":{"territory_id":"mg-3107109-jardim-alvorada","name":"Jardim Alvorada","municipality_id":"mg-3107109","polling_places":1,"approx":true,"official":false,"method":"voronoi-polling-places","whole_municipality":false,"approx_coords_only":false},"geometry":{"type":"MultiPolygon","coordinates":[[[[-45.64776,-21.13956],[-45.62232,-21.14187],[-45.60597,-21.12889],[-45.58867,-21.11152],[-45.5671,-21.08529],[-45.56535,-21.0787],[-45.64776,-21.13956]]]]}},{"type":"Feature","properties":{"territory_id":"mg-3107109-maringa","name":"Maringá","municipality_id":"mg-3107109","polling_places":1,"approx":true,"official":false,"method":"voronoi-polling-places","whole_municipality":false,"approx_coords_only":false},"geometry":{"type":"MultiPolygon","coordinates":[[[[-45.6856,-21.12858],[-45.6782,-21.1368],[-45.64776,-21.13956],[-45.56535,-21.0787],[-45.53052,-21.02678],[-45.66058,-21.02543],[-45.6856,-21.12858]]]]}},{"type":"Feature","properties":{"territory_id":"mg-3107109-nova-era","name":"Nova Era","municipality_id":"mg-3107109","polling_places":3,"approx":true,"official":false,"method":"voronoi-polling-places","whole_municipality":false,"approx_coords_only":false},"geometry":{"type":"MultiPolygon","coordinates":[[[[-45.56047,-21.09106],[-45.559,-21.09687],[-45.55894,-21.09688],[-45.55613,-21.10002],[-45.55539,-21.10113],[-45.55057,-21.10382],[-45.54723,-21.08377],[-45.52361,-21.02594],[-45.52903,-21.02665],[-45.56036,-21.0888],[-45.56047,-21.09106]]]]}},{"type":"Feature","properties":{"territory_id":"mg-3107109-sao-judas-tadeu","name":"São Judas Tadeu","municipality_id":"mg-3107109","polling_places":1,"approx":true,"official":false,"method":"voronoi-polling-places","whole_municipality":false,"approx_coords_only":false},"geometry":{"type":"MultiPolygon","coordinates":[[[[-45.55057,-21.10382],[-45.52279,-21.15914],[-45.5179,-21.1226],[-45.4502,-21.1426],[-45.4333,-21.091],[-45.3944,-21.0778],[-45.4188,-21.0227],[-45.4687,-21.0212],[-45.47596,-21.01488],[-45.52361,-21.02594],[-45.54723,-21.08377],[-45.55057,-21.10382]]]]}},{"type":"Feature","properties":{"territory_id":"mg-3107109-zona-rural","name":"Zona Rural","municipality_id":"mg-3107109","polling_places":2,"approx":true,"official":false,"method":"voronoi-polling-places","whole_municipality":false,"approx_coords_only":false},"geometry":{"type":"MultiPolygon","coordinates":[[[[-45.9283,-20.9997],[-45.9218,-21.0391],[-45.8387,-21.072],[-45.8194,-21.0671],[-45.7651,-21.0889],[-45.7263,-21.0834],[-45.6856,-21.12858],[-45.66058,-21.02543],[-45.53052,-21.02678],[-45.52903,-21.02665],[-45.52361,-21.02594],[-45.47596,-21.01488],[-45.5246,-20.9725],[-45.5372,-20.9378],[-45.5894,-20.9365],[-45.6125,-20.8696],[-45.6505,-20.874],[-45.6794,-20.8615],[-45.6918,-20.8972],[-45.683,-20.9621],[-45.7331,-21.0174],[-45.763,-21.0285],[-45.8685,-20.995],[-45.9081,-20.9707],[-45.9283,-20.9997]]]]}}]}