{"type":"FeatureCollection","features":[{"type":"Feature","properties":{"territory_id":"mg-3107406-ana-rosa","name":"Ana Rosa","municipality_id":"mg-3107406","polling_places":1,"approx":true,"official":false,"method":"voronoi-polling-places","whole_municipality":false,"approx_coords_only":false},"geometry":{"type":"MultiPolygon","coordinates":[[[[-45.24551,-19.74548],[-45.21297,-19.82325],[-45.1889,-19.8227],[-45.1689,-19.7968],[-45.1282,-19.781],[-45.1002,-19.7435],[-45.0931,-19.68595],[-45.13882,-19.6673],[-45.16983,-19.66314],[-45.23957,-19.7323],[-45.24551,-19.74548]]]]}},{"type":"Feature","properties":{"territory_id":"mg-3107406-centro","name":"Centro","municipality_id":"mg-3107406","polling_places":1,"approx":true,"official":false,"method":"voronoi-polling-places","whole_municipality":false,"approx_coords_only":false},"geometry":{"type":"MultiPolygon","coordinates":[[[[-45.25791,-19.73781],[-45.253,-19.74017],[-45.24912,-19.73502],[-45.25225,-19.73365],[-45.25791,-19.73781]]]]}},{"type":"Feature","properties":{"territory_id":"mg-3107406-conjunto-aeroporto-ii","name":"Conjunto Aeroporto Ii","municipality_id":"mg-3107406","polling_places":1,"approx":true,"official":false,"method":"voronoi-polling-places","whole_municipality":false,"approx_coords_only":false},"geometry":{"type":"MultiPolygon","coordinates":[[[[-45.51,-19.6984],[-45.4819,-19.7305],[-45.4766,-19.7572],[-45.4604,-19.7755],[-45.4031,-19.7653],[-45.362,-19.8006],[-45.3644,-19.8499],[-45.35124,-19.85617],[-45.28035,-19.73807],[-45.28103,-19.72637],[-45.28145,-19.72584],[-45.38874,-19.66748],[-45.50039,-19.67792],[-45.51,-19.6984]]]]}},{"type":"Feature","properties":{"territory_id":"mg-3107406-engenho-do-ribeiro","name":"Engenho do Ribeiro","municipality_id":"mg-3107406","polling_places":1,"approx":true,"official":false,"method":"voronoi-polling-places","whole_municipality":false,"approx_coords_only":false},"geometry":{"type":"MultiPolygon","coordinates":[[[[-45.50039,-19.67792],[-45.38874,-19.66748],[-45.25422,-19.63478],[-45.26106,-19.53291],[-45.2829,-19.5274],[-45.3212,-19.5356],[-45.3722,-19.5245],[-45.3908,-19.5016],[-45.4237,-19.5053],[-45.4091,-19.5509],[-45.4299,-19.5969],[-45.4539,-19.609],[-45.4888,-19.6532],[-45.50039,-19.67792]]]]}},{"type":"Feature","properties":{"territory_id":"mg-3107406-jardim-dos-anjos","name":"Jardim dos Anjos","municipality_id":"mg-3107406","polling_places":1,"approx":true,"official":false,"method":"voronoi-polling-places","whole_municipality":false,"approx_coords_only":false},"geometry":{"type":"MultiPolygon","coordinates":[[[[-45.253,-19.74017],[-45.25135,-19.74402],[-45.24551,-19.74548],[-45.23957,-19.7323],[-45.24912,-19.73502],[-45.253,-19.74017]]]]}},{"type":"Feature","properties":{"territory_id":"mg-3107406-nossa-senhora-de-fatima","name":"Nossa Senhora de Fátima","municipality_id":"mg-3107406","polling_places":1,"approx":true,"official":false,"method":"voronoi-polling-places","whole_municipality":false,"approx_coords_only":false},"geometry":{"type":"MultiPolygon","coordinates":[[[[-45.28145,-19.72584],[-45.28103,-19.72637],[-45.27959,-19.72729],[-45.25988,-19.72848],[-45.25501,-19.72499],[-45.24777,-19.71084],[-45.28145,-19.72584]]]]}},{"type":"Feature","properties":{"territory_id":"mg-3107406-nossa-senhora-do-rosario","name":"Nossa Senhora do Rosario","municipality_id":"mg-3107406","polling_places":1,"approx":true,"official":false,"method":"voronoi-polling-places","whole_municipality":false,"approx_coords_only":false},"geometry":{"type":"MultiPolygon","coordinates":[[[[-45.26967,-19.75807],[-45.26006,-19.74671],[-45.26149,-19.73784],[-45.26916,-19.73653],[-45.26967,-19.75807]]]]}},{"type":"Feature","properties":{"territory_id":"mg-3107406-olegario-maciel","name":"Olegário Maciel","municipality_id":"mg-3107406","polling_places":1,"approx":true,"official":false,"method":"voronoi-polling-places","whole_municipality":false,"approx_coords_only":false},"geometry":{"type":"MultiPolygon","coordinates":[[[[-45.26118,-19.73768],[-45.25972,-19.73747],[-45.25465,-19.73043],[-45.25501,-19.72499],[-45.25988,-19.72848],[-45.26118,-19.73768]]]]}},{"type":"Feature","properties":{"territory_id":"mg-3107406-ozanan","name":"Ozanan","municipality_id":"mg-3107406","polling_places":1,"approx":true,"official":false,"method":"voronoi-polling-places","whole_municipality":false,"approx_coords_only":false},"geometry":{"type":"MultiPolygon","coordinates":[[[[-45.27959,-19.72729],[-45.26916,-19.73653],[-45.26149,-19.73784],[-45.26118,-19.73768],[-45.25988,-19.72848],[-45.27959,-19.72729]]]]}},{"type":"Feature","properties":{"territory_id":"mg-3107406-sao-joao","name":"São João","municipality_id":"mg-3107406","polling_places":1,"approx":true,"official":false,"method":"voronoi-polling-places","whole_municipality":false,"approx_coords_only":false},"geometry":{"type":"MultiPolygon","coordinates":[[[[-45.26149,-19.73784],[-45.26006,-19.74671],[-45.25504,-19.74674],[-45.25135,-19.74402],[-45.253,-19.74017],[-45.25791,-19.73781],[-45.25972,-19.73747],[-45.26118,-19.73768],[-45.26149,-19.73784]]]]}},{"type":"Feature","properties":{"territory_id":"mg-3107406-sao-jose","name":"São José","municipality_id":"mg-3107406","polling_places":2,"approx":true,"official":false,"method":"voronoi-polling-places","whole_municipality":false,"approx_coords_only":false},"geometry":{"type":"MultiPolygon","coordinates":[[[[-45.29731,-19.90486],[-45.2897,-19.9138],[-45.2665,-19.9064],[-45.2461,-19.8485],[-45.2236,-19.8235],[-45.21297,-19.82325],[-45.24551,-19.74548],[-45.25135,-19.74402],[-45.25504,-19.74674],[-45.26006,-19.74671],[-45.26967,-19.75807],[-45.27268,-19.76526],[-45.29731,-19.90486]]]]}},{"type":"Feature","properties":{"territory_id":"mg-3107406-sao-vicente","name":"São Vicente","municipality_id":"mg-3107406","polling_places":3,"approx":true,"official":false,"method":"voronoi-polling-places","whole_municipality":false,"approx_coords_only":false},"geometry":{"type":"MultiPolygon","coordinates":[[[[-45.35124,-19.85617],[-45.3302,-19.8662],[-45.29731,-19.90486],[-45.27268,-19.76526],[-45.26967,-19.75807],[-45.26916,-19.73653],[-45.27959,-19.72729],[-45.28103,-19.72637],[-45.28035,-19.73807],[-45.35124,-19.85617]]]]}},{"type":"Feature","properties":{"territory_id":"mg-3107406-simeao-ferreira-de-souza","name":"Simeão Ferreira de Souza","municipality_id":"mg-3107406","polling_places":1,"approx":true,"official":false,"method":"voronoi-polling-places","whole_municipality":false,"approx_coords_only":false},"geometry":{"type":"MultiPolygon","coordinates":[[[[-45.38874,-19.66748],[-45.28145,-19.72584],[-45.24777,-19.71084],[-45.18906,-19.65889],[-45.25422,-19.63478],[-45.38874,-19.66748]]]]}},{"type":"Feature","properties":{"territory_id":"mg-3107406-vila-aurora","name":"Vila Aurora","municipality_id":"mg-3107406","polling_places":1,"approx":true,"official":false,"method":"voronoi-polling-places","whole_municipality":false,"approx_coords_only":false},"geometry":{"type":"MultiPolygon","coordinates":[[[[-45.25501,-19.72499],[-45.25465,-19.73043],[-45.25225,-19.73365],[-45.24912,-19.73502],[-45.23957,-19.7323],[-45.16983,-19.66314],[-45.18906,-19.65889],[-45.24777,-19.71084],[-45.25501,-19.72499]]]]}},{"type":"Feature","properties":{"territory_id":"mg-3107406-vila-militar","name":"Vila Militar","municipality_id":"mg-3107406","polling_places":1,"approx":true,"official":false,"method":"voronoi-polling-places","whole_municipality":false,"approx_coords_only":false},"geometry":{"type":"MultiPolygon","coordinates":[[[[-45.25972,-19.73747],[-45.25791,-19.73781],[-45.25225,-19.73365],[-45.25465,-19.73043],[-45.25972,-19.73747]]]]}},{"type":"Feature","properties":{"territory_id":"mg-3107406-zona-rural","name":"Zona Rural","municipality_id":"mg-3107406","polling_places":2,"approx":true,"official":false,"method":"voronoi-polling-places","whole_municipality":false,"approx_coords_only":false},"geometry":{"type":"MultiPolygon","coordinates":[[[[-45.26106,-19.53291],[-45.25422,-19.63478],[-45.18906,-19.65889],[-45.16983,-19.66314],[-45.13882,-19.6673],[-45.0931,-19.68595],[-45.0914,-19.6722],[-45.1079,-19.616],[-45.1013,-19.576],[-45.116,-19.5344],[-45.1972,-19.549],[-45.26106,-19.53291]]]]}}]}