{"type":"FeatureCollection","features":[{"type":"Feature","properties":{"territory_id":"mg-3107901-boa-vereda-de-baixo-rodrigues","name":"Boa Vereda de Baixo - Rodrigues","municipality_id":"mg-3107901","polling_places":1,"approx":true,"official":false,"method":"voronoi-polling-places","whole_municipality":false,"approx_coords_only":false},"geometry":{"type":"MultiPolygon","coordinates":[[[[-46.21928,-22.36764],[-46.21133,-22.39778],[-46.16329,-22.42677],[-46.09721,-22.3976],[-46.0972,-22.3952],[-46.1615,-22.3944],[-46.1625,-22.3768],[-46.21928,-22.36764]]]]}},{"type":"Feature","properties":{"territory_id":"mg-3107901-boa-vereda-de-cima-capelinha","name":"Boa Vereda de Cima - Capelinha","municipality_id":"mg-3107901","polling_places":1,"approx":true,"official":false,"method":"voronoi-polling-places","whole_municipality":false,"approx_coords_only":false},"geometry":{"type":"MultiPolygon","coordinates":[[[[-46.26071,-22.43038],[-46.26035,-22.47168],[-46.194,-22.47117],[-46.19243,-22.46528],[-46.2283,-22.42388],[-46.26071,-22.43038]]]]}},{"type":"Feature","properties":{"territory_id":"mg-3107901-boa-vereda-do-meio-cantuarios","name":"Boa Vereda do Meio - Cantuários","municipality_id":"mg-3107901","polling_places":1,"approx":true,"official":false,"method":"voronoi-polling-places","whole_municipality":false,"approx_coords_only":false},"geometry":{"type":"MultiPolygon","coordinates":[[[[-46.2283,-22.42388],[-46.19243,-22.46528],[-46.16329,-22.42677],[-46.21133,-22.39778],[-46.2283,-22.42388]]]]}},{"type":"Feature","properties":{"territory_id":"mg-3107901-caetanos","name":"Caetanos","municipality_id":"mg-3107901","polling_places":1,"approx":true,"official":false,"method":"voronoi-polling-places","whole_municipality":false,"approx_coords_only":false},"geometry":{"type":"MultiPolygon","coordinates":[[[[-46.2608,-22.4195],[-46.26071,-22.43038],[-46.2283,-22.42388],[-46.21133,-22.39778],[-46.21928,-22.36764],[-46.2443,-22.3636],[-46.2608,-22.4195]]]]}},{"type":"Feature","properties":{"territory_id":"mg-3107901-campo-alegre","name":"Campo Alegre","municipality_id":"mg-3107901","polling_places":1,"approx":true,"official":false,"method":"voronoi-polling-places","whole_municipality":false,"approx_coords_only":false},"geometry":{"type":"MultiPolygon","coordinates":[[[[-46.2827,-22.5152],[-46.2228,-22.5141],[-46.1891,-22.5018],[-46.18317,-22.5042],[-46.18585,-22.49329],[-46.194,-22.47117],[-46.26035,-22.47168],[-46.2603,-22.4779],[-46.2827,-22.5152]]]]}},{"type":"Feature","properties":{"territory_id":"mg-3107901-centro","name":"Centro","municipality_id":"mg-3107901","polling_places":3,"approx":true,"official":false,"method":"voronoi-polling-places","whole_municipality":false,"approx_coords_only":false},"geometry":{"type":"MultiPolygon","coordinates":[[[[-46.194,-22.47117],[-46.18585,-22.49329],[-46.18317,-22.5042],[-46.1478,-22.5185],[-46.1157,-22.4941],[-46.0975,-22.4514],[-46.09721,-22.3976],[-46.16329,-22.42677],[-46.19243,-22.46528],[-46.194,-22.47117]]]]}}]}