{"type":"FeatureCollection","features":[{"type":"Feature","properties":{"territory_id":"mg-3107000-centro","name":"Centro","municipality_id":"mg-3107000","polling_places":2,"approx":true,"official":false,"method":"voronoi-polling-places","whole_municipality":true,"approx_coords_only":false},"geometry":{"type":"MultiPolygon","coordinates":[[[[-45.637,-18.7919],[-45.5811,-18.8149],[-45.5317,-18.8547],[-45.4905,-18.8419],[-45.4616,-18.8735],[-45.4502,-18.8473],[-45.4128,-18.8215],[-45.3802,-18.7617],[-45.4059,-18.7352],[-45.4531,-18.731],[-45.4684,-18.7023],[-45.5658,-18.6689],[-45.6391,-18.665],[-45.6683,-18.7005],[-45.6922,-18.7085],[-45.702,-18.7611],[-45.637,-18.7919]]]]}}]}