{"type":"FeatureCollection","features":[{"type":"Feature","properties":{"territory_id":"mg-3107208-centro","name":"Centro","municipality_id":"mg-3107208","polling_places":1,"approx":true,"official":false,"method":"voronoi-polling-places","whole_municipality":false,"approx_coords_only":false},"geometry":{"type":"MultiPolygon","coordinates":[[[[-44.4593,-22.11841],[-44.43255,-22.22948],[-44.41523,-22.25203],[-44.3596,-22.254],[-44.3413,-22.2064],[-44.355,-22.1931],[-44.3194,-22.1555],[-44.3488,-22.1062],[-44.4303,-22.1154],[-44.4593,-22.11841]]]]}},{"type":"Feature","properties":{"territory_id":"mg-3107208-maringa","name":"Maringá","municipality_id":"mg-3107208","polling_places":1,"approx":true,"official":false,"method":"voronoi-polling-places","whole_municipality":false,"approx_coords_only":false},"geometry":{"type":"MultiPolygon","coordinates":[[[[-44.6661,-22.3202],[-44.6659,-22.3727],[-44.6619,-22.3805],[-44.5926,-22.3229],[-44.5437,-22.3323],[-44.51134,-22.31252],[-44.59974,-22.22069],[-44.6066,-22.2255],[-44.5976,-22.2552],[-44.6134,-22.2873],[-44.6661,-22.3202]]]]}},{"type":"Feature","properties":{"territory_id":"mg-3107208-mirantao","name":"Mirantão","municipality_id":"mg-3107208","polling_places":1,"approx":true,"official":false,"method":"voronoi-polling-places","whole_municipality":false,"approx_coords_only":false},"geometry":{"type":"MultiPolygon","coordinates":[[[[-44.59974,-22.22069],[-44.51134,-22.31252],[-44.4969,-22.3037],[-44.4332,-22.2514],[-44.41523,-22.25203],[-44.43255,-22.22948],[-44.59154,-22.21493],[-44.59974,-22.22069]]]]}},{"type":"Feature","properties":{"territory_id":"mg-3107208-santo-antonio-do-rio-grande","name":"Santo Antônio do Rio Grande","municipality_id":"mg-3107208","polling_places":1,"approx":true,"official":false,"method":"voronoi-polling-places","whole_municipality":false,"approx_coords_only":false},"geometry":{"type":"MultiPolygon","coordinates":[[[[-44.59154,-22.21493],[-44.43255,-22.22948],[-44.4593,-22.11841],[-44.4756,-22.1201],[-44.4906,-22.1366],[-44.5408,-22.1286],[-44.5599,-22.1598],[-44.5717,-22.201],[-44.59154,-22.21493]]]]}}]}