{"type":"FeatureCollection","features":[{"type":"Feature","properties":{"territory_id":"mg-3107505-centro","name":"Centro","municipality_id":"mg-3107505","polling_places":2,"approx":true,"official":false,"method":"voronoi-polling-places","whole_municipality":false,"approx_coords_only":false},"geometry":{"type":"MultiPolygon","coordinates":[[[[-44.19443,-21.95003],[-44.18915,-21.94987],[-44.18927,-21.9517],[-44.13088,-22.00828],[-44.1233,-21.9959],[-44.11734,-21.99583],[-44.09081,-21.8822],[-44.0989,-21.876],[-44.09728,-21.86003],[-44.18517,-21.94355],[-44.19443,-21.95003]]]]}},{"type":"Feature","properties":{"territory_id":"mg-3107505-distrito-do-taboao","name":"Distrito do Taboão","municipality_id":"mg-3107505","polling_places":2,"approx":true,"official":false,"method":"voronoi-polling-places","whole_municipality":false,"approx_coords_only":false},"geometry":{"type":"MultiPolygon","coordinates":[[[[-44.24707,-21.96639],[-44.19626,-21.951],[-44.19443,-21.95003],[-44.18517,-21.94355],[-44.09728,-21.86003],[-44.0909,-21.7969],[-44.1209,-21.8037],[-44.1365,-21.8285],[-44.1744,-21.8276],[-44.1709,-21.8843],[-44.1968,-21.8909],[-44.2254,-21.9459],[-44.24707,-21.96639]]],[[[-44.11734,-21.99583],[-44.0796,-21.9954],[-44.0514,-22.0324],[-44.0001,-22.0221],[-44.0041,-22.0031],[-43.9769,-21.9567],[-44.0311,-21.9103],[-44.0681,-21.9253],[-44.0869,-21.8852],[-44.09081,-21.8822],[-44.11734,-21.99583]]]]}},{"type":"Feature","properties":{"territory_id":"mg-3107505-varzea","name":"Várzea","municipality_id":"mg-3107505","polling_places":2,"approx":true,"official":false,"method":"voronoi-polling-places","whole_municipality":false,"approx_coords_only":false},"geometry":{"type":"MultiPolygon","coordinates":[[[[-44.2566,-21.9754],[-44.24,-22.0115],[-44.2283,-22.0755],[-44.2073,-22.0704],[-44.1467,-22.0341],[-44.13088,-22.00828],[-44.18927,-21.9517],[-44.18915,-21.94987],[-44.19443,-21.95003],[-44.19626,-21.951],[-44.24707,-21.96639],[-44.2566,-21.9754]]]]}}]}