{"type":"FeatureCollection","features":[{"type":"Feature","properties":{"territory_id":"mg-3107802-centro","name":"Centro","municipality_id":"mg-3107802","polling_places":4,"approx":true,"official":false,"method":"voronoi-polling-places","whole_municipality":false,"approx_coords_only":false},"geometry":{"type":"MultiPolygon","coordinates":[[[[-42.36972,-19.85422],[-42.31395,-19.83407],[-42.27723,-19.83579],[-42.28452,-19.81522],[-42.28976,-19.798],[-42.32618,-19.78783],[-42.33726,-19.79439],[-42.3358,-19.7963],[-42.367,-19.8321],[-42.36972,-19.85422]]]]}},{"type":"Feature","properties":{"territory_id":"mg-3107802-estacao","name":"Estação","municipality_id":"mg-3107802","polling_places":1,"approx":true,"official":false,"method":"voronoi-polling-places","whole_municipality":false,"approx_coords_only":false},"geometry":{"type":"MultiPolygon","coordinates":[[[[-42.3704,-19.8598],[-42.36227,-19.89187],[-42.28723,-19.86787],[-42.27125,-19.84703],[-42.27723,-19.83579],[-42.31395,-19.83407],[-42.36972,-19.85422],[-42.3704,-19.8598]]]]}},{"type":"Feature","properties":{"territory_id":"mg-3107802-fundaca","name":"Fundaça","municipality_id":"mg-3107802","polling_places":1,"approx":true,"official":false,"method":"voronoi-polling-places","whole_municipality":false,"approx_coords_only":false},"geometry":{"type":"MultiPolygon","coordinates":[[[[-42.32748,-19.73743],[-42.32618,-19.78783],[-42.28976,-19.798],[-42.25177,-19.75789],[-42.30342,-19.72648],[-42.32012,-19.72808],[-42.32748,-19.73743]]]]}},{"type":"Feature","properties":{"territory_id":"mg-3107802-galho-de-cima","name":"Galho de Cima","municipality_id":"mg-3107802","polling_places":1,"approx":true,"official":false,"method":"voronoi-polling-places","whole_municipality":false,"approx_coords_only":false},"geometry":{"type":"MultiPolygon","coordinates":[[[[-42.28723,-19.86787],[-42.25973,-19.92994],[-42.236,-19.9257],[-42.2481,-19.9078],[-42.2348,-19.8726],[-42.23992,-19.84726],[-42.27125,-19.84703],[-42.28723,-19.86787]]]]}},{"type":"Feature","properties":{"territory_id":"mg-3107802-iguacu","name":"Iguaçú","municipality_id":"mg-3107802","polling_places":1,"approx":true,"official":false,"method":"voronoi-polling-places","whole_municipality":false,"approx_coords_only":false},"geometry":{"type":"MultiPolygon","coordinates":[[[[-42.36406,-19.739],[-42.3634,-19.7602],[-42.33726,-19.79439],[-42.32618,-19.78783],[-42.32748,-19.73743],[-42.36406,-19.739]]]]}},{"type":"Feature","properties":{"territory_id":"mg-3107802-km-600","name":"Km 600","municipality_id":"mg-3107802","polling_places":1,"approx":true,"official":false,"method":"voronoi-polling-places","whole_municipality":false,"approx_coords_only":false},"geometry":{"type":"MultiPolygon","coordinates":[[[[-42.28976,-19.798],[-42.28452,-19.81522],[-42.27723,-19.83579],[-42.27125,-19.84703],[-42.23992,-19.84726],[-42.2413,-19.8404],[-42.2052,-19.831],[-42.233,-19.7967],[-42.23762,-19.75486],[-42.25177,-19.75789],[-42.28976,-19.798]]]]}},{"type":"Feature","properties":{"territory_id":"mg-3107802-passa-dez","name":"Passa Dez","municipality_id":"mg-3107802","polling_places":1,"approx":true,"official":false,"method":"voronoi-polling-places","whole_municipality":false,"approx_coords_only":false},"geometry":{"type":"MultiPolygon","coordinates":[[[[-42.35708,-19.64657],[-42.32012,-19.72808],[-42.30342,-19.72648],[-42.27281,-19.67934],[-42.2809,-19.6512],[-42.35708,-19.64657]]]]}},{"type":"Feature","properties":{"territory_id":"mg-3107802-quartel-do-sacramento","name":"Quartel do Sacramento","municipality_id":"mg-3107802","polling_places":1,"approx":true,"official":false,"method":"voronoi-polling-places","whole_municipality":false,"approx_coords_only":false},"geometry":{"type":"MultiPolygon","coordinates":[[[[-42.49041,-19.70929],[-42.4837,-19.7267],[-42.4448,-19.7078],[-42.4072,-19.7243],[-42.3645,-19.7247],[-42.36406,-19.739],[-42.32748,-19.73743],[-42.32012,-19.72808],[-42.35708,-19.64657],[-42.3648,-19.6461],[-42.38288,-19.62369],[-42.49041,-19.70929]]]]}},{"type":"Feature","properties":{"territory_id":"mg-3107802-reves-do-belem","name":"Reves do Belem","municipality_id":"mg-3107802","polling_places":1,"approx":true,"official":false,"method":"voronoi-polling-places","whole_municipality":false,"approx_coords_only":false},"geometry":{"type":"MultiPolygon","coordinates":[[[[-42.5236,-19.5567],[-42.4953,-19.5747],[-42.4843,-19.6404],[-42.5015,-19.6805],[-42.49041,-19.70929],[-42.38288,-19.62369],[-42.3986,-19.6042],[-42.4896,-19.5437],[-42.5038,-19.5149],[-42.5236,-19.5567]]]]}},{"type":"Feature","properties":{"territory_id":"mg-3107802-sao-geraldo","name":"São Geraldo","municipality_id":"mg-3107802","polling_places":1,"approx":true,"official":false,"method":"voronoi-polling-places","whole_municipality":false,"approx_coords_only":false},"geometry":{"type":"MultiPolygon","coordinates":[[[[-42.30342,-19.72648],[-42.25177,-19.75789],[-42.23762,-19.75486],[-42.2407,-19.727],[-42.2623,-19.7159],[-42.27281,-19.67934],[-42.30342,-19.72648]]]]}},{"type":"Feature","properties":{"territory_id":"mg-3107802-sao-jose-do-porto","name":"São Jose do Porto","municipality_id":"mg-3107802","polling_places":1,"approx":true,"official":false,"method":"voronoi-polling-places","whole_municipality":false,"approx_coords_only":false},"geometry":{"type":"MultiPolygon","coordinates":[[[[-42.36227,-19.89187],[-42.3529,-19.9288],[-42.2987,-19.9369],[-42.25973,-19.92994],[-42.28723,-19.86787],[-42.36227,-19.89187]]]]}}]}