{"type":"FeatureCollection","features":[{"type":"Feature","properties":{"territory_id":"mg-3107703-centro","name":"Centro","municipality_id":"mg-3107703","polling_places":4,"approx":true,"official":false,"method":"voronoi-polling-places","whole_municipality":false,"approx_coords_only":false},"geometry":{"type":"MultiPolygon","coordinates":[[[[-43.5488,-19.6636],[-43.53853,-19.70196],[-43.49824,-19.72949],[-43.48874,-19.73631],[-43.44983,-19.7655],[-43.42219,-19.66306],[-43.4519,-19.6829],[-43.5125,-19.6509],[-43.5417,-19.6239],[-43.5488,-19.6636]]]]}},{"type":"Feature","properties":{"territory_id":"mg-3107703-ponte-dos-machados","name":"Ponte dos Machados","municipality_id":"mg-3107703","polling_places":1,"approx":true,"official":false,"method":"voronoi-polling-places","whole_municipality":false,"approx_coords_only":false},"geometry":{"type":"MultiPolygon","coordinates":[[[[-43.44983,-19.7655],[-43.44433,-19.78509],[-43.4344,-19.7877],[-43.3906,-19.7724],[-43.3865,-19.7448],[-43.3996,-19.6717],[-43.4218,-19.6628],[-43.42219,-19.66306],[-43.44983,-19.7655]]]]}},{"type":"Feature","properties":{"territory_id":"mg-3107703-povoado-de-felipe","name":"Povoado de Felipe","municipality_id":"mg-3107703","polling_places":1,"approx":true,"official":false,"method":"voronoi-polling-places","whole_municipality":false,"approx_coords_only":false},"geometry":{"type":"MultiPolygon","coordinates":[[[[-43.53853,-19.70196],[-43.533,-19.7226],[-43.5382,-19.7543],[-43.5369,-19.7608],[-43.44433,-19.78509],[-43.44983,-19.7655],[-43.48874,-19.73631],[-43.49824,-19.72949],[-43.53853,-19.70196]]]]}}]}