{"type":"FeatureCollection","features":[{"type":"Feature","properties":{"territory_id":"mg-3107604-centro","name":"Centro","municipality_id":"mg-3107604","polling_places":2,"approx":true,"official":false,"method":"voronoi-polling-places","whole_municipality":true,"approx_coords_only":false},"geometry":{"type":"MultiPolygon","coordinates":[[[[-46.552,-21.0858],[-46.5268,-21.0715],[-46.4387,-21.0574],[-46.4257,-21.0263],[-46.4628,-20.9946],[-46.4574,-20.9737],[-46.4733,-20.9492],[-46.5282,-20.9306],[-46.5314,-20.9677],[-46.5872,-20.9785],[-46.6135,-20.9709],[-46.6368,-21.0112],[-46.6085,-21.0441],[-46.5617,-21.0623],[-46.552,-21.0858]]]]}}]}