{"type":"FeatureCollection","features":[{"type":"Feature","properties":{"territory_id":"mg-3108404-centro","name":"Centro","municipality_id":"mg-3108404","polling_places":4,"approx":true,"official":false,"method":"voronoi-polling-places","whole_municipality":false,"approx_coords_only":false},"geometry":{"type":"MultiPolygon","coordinates":[[[[-46.46301,-21.71314],[-46.4617,-21.7137],[-46.4618,-21.7572],[-46.4218,-21.7327],[-46.4245,-21.695],[-46.3739,-21.6932],[-46.32534,-21.6672],[-46.33229,-21.6583],[-46.387,-21.64991],[-46.39465,-21.64698],[-46.39535,-21.64639],[-46.38053,-21.58482],[-46.39005,-21.56962],[-46.4198,-21.5703],[-46.45236,-21.55397],[-46.45487,-21.62864],[-46.45949,-21.68452],[-46.46301,-21.71314]]]]}},{"type":"Feature","properties":{"territory_id":"mg-3108404-distrito-de-palmeiral-centro","name":"Distrito de Palmeiral - Centro","municipality_id":"mg-3108404","polling_places":1,"approx":true,"official":false,"method":"voronoi-polling-places","whole_municipality":false,"approx_coords_only":false},"geometry":{"type":"MultiPolygon","coordinates":[[[[-46.5547,-21.6534],[-46.5258,-21.6477],[-46.5262,-21.6863],[-46.46301,-21.71314],[-46.45949,-21.68452],[-46.45487,-21.62864],[-46.45236,-21.55397],[-46.4545,-21.5529],[-46.495,-21.5893],[-46.5118,-21.5654],[-46.5547,-21.6534]]]]}},{"type":"Feature","properties":{"territory_id":"mg-3108404-distrito-de-sao-goncalo-centro","name":"Distrito de São Gonçalo - Centro","municipality_id":"mg-3108404","polling_places":1,"approx":true,"official":false,"method":"voronoi-polling-places","whole_municipality":false,"approx_coords_only":false},"geometry":{"type":"MultiPolygon","coordinates":[[[[-46.39005,-21.56962],[-46.38053,-21.58482],[-46.33229,-21.6583],[-46.32534,-21.6672],[-46.3132,-21.6607],[-46.2782,-21.6092],[-46.2956,-21.5718],[-46.3225,-21.5732],[-46.3616,-21.5865],[-46.385,-21.5695],[-46.39005,-21.56962]]]]}},{"type":"Feature","properties":{"territory_id":"mg-3108404-jardim-eldorado","name":"Jardim Eldorado","municipality_id":"mg-3108404","polling_places":1,"approx":true,"official":false,"method":"voronoi-polling-places","whole_municipality":false,"approx_coords_only":false},"geometry":{"type":"MultiPolygon","coordinates":[[[[-46.39535,-21.64639],[-46.39465,-21.64698],[-46.387,-21.64991],[-46.33229,-21.6583],[-46.38053,-21.58482],[-46.39535,-21.64639]]]]}}]}