{"type":"FeatureCollection","features":[{"type":"Feature","properties":{"territory_id":"mg-3108552-bela-vista","name":"Bela Vista","municipality_id":"mg-3108552","polling_places":1,"approx":true,"official":false,"method":"voronoi-polling-places","whole_municipality":false,"approx_coords_only":false},"geometry":{"type":"MultiPolygon","coordinates":[[[[-46.01151,-17.00499],[-46.00453,-17.01737],[-45.72973,-17.09168],[-45.91939,-16.96451],[-46.01101,-17.00367],[-46.01151,-17.00499]]]]}},{"type":"Feature","properties":{"territory_id":"mg-3108552-centro","name":"Centro","municipality_id":"mg-3108552","polling_places":1,"approx":true,"official":false,"method":"voronoi-polling-places","whole_municipality":false,"approx_coords_only":false},"geometry":{"type":"MultiPolygon","coordinates":[[[[-46.2057,-16.8553],[-46.1875,-16.8791],[-46.1857,-16.9262],[-46.19829,-16.93481],[-46.01101,-17.00367],[-45.91939,-16.96451],[-46.1667,-16.77856],[-46.169,-16.7785],[-46.1947,-16.8023],[-46.2057,-16.8553]]]]}},{"type":"Feature","properties":{"territory_id":"mg-3108552-contingente","name":"Contingente","municipality_id":"mg-3108552","polling_places":1,"approx":true,"official":false,"method":"voronoi-polling-places","whole_municipality":false,"approx_coords_only":false},"geometry":{"type":"MultiPolygon","coordinates":[[[[-46.2051,-16.9625],[-46.201,-16.9975],[-46.1563,-16.9989],[-46.13073,-17.0362],[-46.01636,-17.01474],[-46.01151,-17.00499],[-46.01101,-17.00367],[-46.19829,-16.93481],[-46.205,-16.9394],[-46.2051,-16.9625]]]]}},{"type":"Feature","properties":{"territory_id":"mg-3108552-planalto","name":"Planalto","municipality_id":"mg-3108552","polling_places":1,"approx":true,"official":false,"method":"voronoi-polling-places","whole_municipality":false,"approx_coords_only":false},"geometry":{"type":"MultiPolygon","coordinates":[[[[-46.01636,-17.01474],[-46.00453,-17.01737],[-46.01151,-17.00499],[-46.01636,-17.01474]]]]}},{"type":"Feature","properties":{"territory_id":"mg-3108552-porto","name":"Porto","municipality_id":"mg-3108552","polling_places":1,"approx":true,"official":false,"method":"voronoi-polling-places","whole_municipality":false,"approx_coords_only":false},"geometry":{"type":"MultiPolygon","coordinates":[[[[-46.1574,-17.1099],[-46.1216,-17.1498],[-46.0832,-17.145],[-46.0601,-17.1875],[-46.032,-17.1943],[-45.9759,-17.1772],[-45.9261,-17.1104],[-45.894,-17.1426],[-45.8464,-17.1531],[-45.8055,-17.145],[-45.7687,-17.1758],[-45.7296,-17.1495],[-45.7155,-17.1178],[-45.69213,-17.11556],[-45.72973,-17.09168],[-46.00453,-17.01737],[-46.01636,-17.01474],[-46.13073,-17.0362],[-46.1225,-17.0482],[-46.0902,-17.0536],[-46.1574,-17.1099]]]]}},{"type":"Feature","properties":{"territory_id":"mg-3108552-zona-rural","name":"Zona Rural","municipality_id":"mg-3108552","polling_places":1,"approx":true,"official":false,"method":"voronoi-polling-places","whole_municipality":false,"approx_coords_only":false},"geometry":{"type":"MultiPolygon","coordinates":[[[[-46.1667,-16.77856],[-45.91939,-16.96451],[-45.72973,-17.09168],[-45.69213,-17.11556],[-45.6624,-17.1127],[-45.6146,-17.097],[-45.5611,-17.0443],[-45.5109,-17.0355],[-45.5049,-16.9609],[-45.5221,-16.9394],[-45.5643,-16.9414],[-45.5929,-16.8908],[-45.6197,-16.8754],[-45.6644,-16.8886],[-45.6965,-16.8829],[-45.7213,-16.8983],[-45.7737,-16.8563],[-45.7775,-16.8317],[-45.8277,-16.8309],[-45.8559,-16.8107],[-45.8581,-16.7642],[-45.8852,-16.7288],[-45.8887,-16.7028],[-45.9447,-16.7187],[-45.9583,-16.695],[-45.9915,-16.6941],[-46.0322,-16.7167],[-46.0842,-16.718],[-46.0866,-16.7446],[-46.1374,-16.7793],[-46.1667,-16.77856]]]]}}]}