{"type":"FeatureCollection","features":[{"type":"Feature","properties":{"territory_id":"mg-3108909-aparecida","name":"Aparecida","municipality_id":"mg-3108909","polling_places":1,"approx":true,"official":false,"method":"voronoi-polling-places","whole_municipality":false,"approx_coords_only":false},"geometry":{"type":"MultiPolygon","coordinates":[[[[-45.61334,-22.51531],[-45.5837,-22.47424],[-45.59384,-22.41777],[-45.61101,-22.46414],[-45.61334,-22.51531]]]]}},{"type":"Feature","properties":{"territory_id":"mg-3108909-bom-sucesso","name":"Bom Sucesso","municipality_id":"mg-3108909","polling_places":1,"approx":true,"official":false,"method":"voronoi-polling-places","whole_municipality":false,"approx_coords_only":false},"geometry":{"type":"MultiPolygon","coordinates":[[[[-45.62141,-22.5283],[-45.58056,-22.55653],[-45.5826,-22.5339],[-45.55379,-22.48879],[-45.5837,-22.47424],[-45.61334,-22.51531],[-45.62141,-22.5283]]]]}},{"type":"Feature","properties":{"territory_id":"mg-3108909-centro","name":"Centro","municipality_id":"mg-3108909","polling_places":3,"approx":true,"official":false,"method":"voronoi-polling-places","whole_municipality":false,"approx_coords_only":false},"geometry":{"type":"MultiPolygon","coordinates":[[[[-45.6907,-22.396],[-45.68628,-22.42839],[-45.6536,-22.48984],[-45.63966,-22.51749],[-45.63603,-22.52566],[-45.62141,-22.5283],[-45.61334,-22.51531],[-45.61101,-22.46414],[-45.59384,-22.41777],[-45.59743,-22.37203],[-45.6278,-22.3481],[-45.6716,-22.3374],[-45.6792,-22.3747],[-45.6907,-22.396]]]]}},{"type":"Feature","properties":{"territory_id":"mg-3108909-cruz-vera","name":"Cruz Vera","municipality_id":"mg-3108909","polling_places":1,"approx":true,"official":false,"method":"voronoi-polling-places","whole_municipality":false,"approx_coords_only":false},"geometry":{"type":"MultiPolygon","coordinates":[[[[-45.7001,-22.4994],[-45.68252,-22.56009],[-45.63603,-22.52566],[-45.63966,-22.51749],[-45.6536,-22.48984],[-45.68628,-22.42839],[-45.6817,-22.4619],[-45.7001,-22.4994]]]]}},{"type":"Feature","properties":{"territory_id":"mg-3108909-distrito-de-dias","name":"Distrito de Dias","municipality_id":"mg-3108909","polling_places":1,"approx":true,"official":false,"method":"voronoi-polling-places","whole_municipality":false,"approx_coords_only":false},"geometry":{"type":"MultiPolygon","coordinates":[[[[-45.59743,-22.37203],[-45.59384,-22.41777],[-45.5837,-22.47424],[-45.55379,-22.48879],[-45.5506,-22.4838],[-45.5496,-22.4318],[-45.5785,-22.4268],[-45.5703,-22.3934],[-45.59743,-22.37203]]]]}},{"type":"Feature","properties":{"territory_id":"mg-3108909-distrito-de-luminosa","name":"Distrito de Luminosa","municipality_id":"mg-3108909","polling_places":1,"approx":true,"official":false,"method":"voronoi-polling-places","whole_municipality":false,"approx_coords_only":false},"geometry":{"type":"MultiPolygon","coordinates":[[[[-45.68252,-22.56009],[-45.6787,-22.5733],[-45.6599,-22.599],[-45.6811,-22.6363],[-45.6662,-22.6512],[-45.6181,-22.6379],[-45.5765,-22.6017],[-45.58056,-22.55653],[-45.62141,-22.5283],[-45.63603,-22.52566],[-45.68252,-22.56009]]]]}}]}