{"type":"FeatureCollection","features":[{"type":"Feature","properties":{"territory_id":"mg-3108206-brasilinha","name":"Brasilinha","municipality_id":"mg-3108206","polling_places":1,"approx":true,"official":false,"method":"voronoi-polling-places","whole_municipality":false,"approx_coords_only":false},"geometry":{"type":"MultiPolygon","coordinates":[[[[-46.14847,-16.37835],[-46.12016,-16.42881],[-45.98523,-16.55922],[-45.95853,-16.57303],[-45.9518,-16.554],[-45.9102,-16.5306],[-45.9215,-16.493],[-45.8929,-16.4489],[-45.9184,-16.3745],[-45.9524,-16.3979],[-45.9947,-16.3826],[-46.0525,-16.3879],[-46.0825,-16.371],[-46.14847,-16.37835]]]]}},{"type":"Feature","properties":{"territory_id":"mg-3108206-centro","name":"Centro","municipality_id":"mg-3108206","polling_places":2,"approx":true,"official":false,"method":"voronoi-polling-places","whole_municipality":false,"approx_coords_only":false},"geometry":{"type":"MultiPolygon","coordinates":[[[[-46.12016,-16.42881],[-46.01312,-16.63557],[-45.9708,-16.6077],[-45.95853,-16.57303],[-45.98523,-16.55922],[-46.12016,-16.42881]]]]}},{"type":"Feature","properties":{"territory_id":"mg-3108206-distrito","name":"Distrito","municipality_id":"mg-3108206","polling_places":1,"approx":true,"official":false,"method":"voronoi-polling-places","whole_municipality":false,"approx_coords_only":false},"geometry":{"type":"MultiPolygon","coordinates":[[[[-46.5133,-16.3823],[-46.4939,-16.4069],[-46.4591,-16.4131],[-46.3836,-16.5],[-46.3899,-16.5862],[-46.3736,-16.6047],[-46.3052,-16.5455],[-46.2879,-16.579],[-46.1951,-16.6522],[-46.1609,-16.6593],[-46.1564,-16.7013],[-46.169,-16.7785],[-46.1374,-16.7793],[-46.0866,-16.7446],[-46.0842,-16.718],[-46.0322,-16.7167],[-45.9915,-16.6941],[-46.0156,-16.6372],[-46.01312,-16.63557],[-46.12016,-16.42881],[-46.14847,-16.37835],[-46.1489,-16.3784],[-46.189,-16.3606],[-46.1982,-16.3413],[-46.242,-16.34],[-46.2763,-16.3202],[-46.3114,-16.2985],[-46.3397,-16.2743],[-46.3844,-16.2635],[-46.4587,-16.287],[-46.5013,-16.3314],[-46.5133,-16.3823]]]]}}]}