{"type":"FeatureCollection","features":[{"type":"Feature","properties":{"territory_id":"mg-3108008-aparecida","name":"Aparecida","municipality_id":"mg-3108008","polling_places":1,"approx":true,"official":false,"method":"voronoi-polling-places","whole_municipality":false,"approx_coords_only":false},"geometry":{"type":"MultiPolygon","coordinates":[[[[-44.90484,-20.99923],[-44.8147,-21.12326],[-44.80498,-21.12128],[-44.76353,-21.03941],[-44.79779,-20.97172],[-44.8416,-20.9566],[-44.8652,-20.9548],[-44.8861,-21.0053],[-44.90484,-20.99923]]]]}},{"type":"Feature","properties":{"territory_id":"mg-3108008-bananal","name":"Bananal","municipality_id":"mg-3108008","polling_places":1,"approx":true,"official":false,"method":"voronoi-polling-places","whole_municipality":false,"approx_coords_only":false},"geometry":{"type":"MultiPolygon","coordinates":[[[[-44.73697,-21.14143],[-44.7364,-21.142],[-44.7108,-21.1369],[-44.6343,-21.0872],[-44.6213,-21.0958],[-44.63537,-21.04295],[-44.69979,-21.05762],[-44.70388,-21.06374],[-44.70677,-21.06891],[-44.71195,-21.0797],[-44.73697,-21.14143]]]]}},{"type":"Feature","properties":{"territory_id":"mg-3108008-boa-vista","name":"Boa Vista","municipality_id":"mg-3108008","polling_places":1,"approx":true,"official":false,"method":"voronoi-polling-places","whole_municipality":false,"approx_coords_only":false},"geometry":{"type":"MultiPolygon","coordinates":[[[[-44.7113,-20.98469],[-44.69979,-21.05762],[-44.63537,-21.04295],[-44.6488,-20.9925],[-44.6611,-20.99],[-44.66015,-20.93907],[-44.66083,-20.93927],[-44.7113,-20.98469]]]]}},{"type":"Feature","properties":{"territory_id":"mg-3108008-centro","name":"Centro","municipality_id":"mg-3108008","polling_places":2,"approx":true,"official":false,"method":"voronoi-polling-places","whole_municipality":false,"approx_coords_only":false},"geometry":{"type":"MultiPolygon","coordinates":[[[[-44.79779,-20.97172],[-44.76353,-21.03941],[-44.76061,-21.0382],[-44.75784,-21.03843],[-44.75769,-21.03723],[-44.75744,-21.02855],[-44.76576,-21.01403],[-44.76824,-21.00893],[-44.79386,-20.97292],[-44.79779,-20.97172]]]]}},{"type":"Feature","properties":{"territory_id":"mg-3108008-faquini","name":"Faquini","municipality_id":"mg-3108008","polling_places":1,"approx":true,"official":false,"method":"voronoi-polling-places","whole_municipality":false,"approx_coords_only":false},"geometry":{"type":"MultiPolygon","coordinates":[[[[-44.79386,-20.97292],[-44.76824,-21.00893],[-44.70388,-21.06374],[-44.69979,-21.05762],[-44.7113,-20.98469],[-44.79386,-20.97292]]]]}},{"type":"Feature","properties":{"territory_id":"mg-3108008-figueiras","name":"Figueiras","municipality_id":"mg-3108008","polling_places":1,"approx":true,"official":false,"method":"voronoi-polling-places","whole_municipality":false,"approx_coords_only":false},"geometry":{"type":"MultiPolygon","coordinates":[[[[-44.76643,-20.88693],[-44.66083,-20.93927],[-44.66015,-20.93907],[-44.6594,-20.8986],[-44.7091,-20.8489],[-44.7339,-20.8914],[-44.7555,-20.8746],[-44.76643,-20.88693]]]]}},{"type":"Feature","properties":{"territory_id":"mg-3108008-macaia","name":"Macaia","municipality_id":"mg-3108008","polling_places":1,"approx":true,"official":false,"method":"voronoi-polling-places","whole_municipality":false,"approx_coords_only":false},"geometry":{"type":"MultiPolygon","coordinates":[[[[-44.976,-21.0279],[-44.9371,-21.075],[-44.9497,-21.109],[-44.926,-21.1241],[-44.9094,-21.1715],[-44.8779,-21.1555],[-44.8717,-21.1349],[-44.8147,-21.12326],[-44.90484,-20.99923],[-44.9352,-20.9894],[-44.976,-21.0279]]]]}},{"type":"Feature","properties":{"territory_id":"mg-3108008-machados","name":"Machados","municipality_id":"mg-3108008","polling_places":1,"approx":true,"official":false,"method":"voronoi-polling-places","whole_municipality":false,"approx_coords_only":false},"geometry":{"type":"MultiPolygon","coordinates":[[[[-44.8416,-20.9566],[-44.79779,-20.97172],[-44.79386,-20.97292],[-44.7113,-20.98469],[-44.66083,-20.93927],[-44.76643,-20.88693],[-44.7805,-20.9028],[-44.805,-20.8976],[-44.8166,-20.9585],[-44.8416,-20.9566]]]]}},{"type":"Feature","properties":{"territory_id":"mg-3108008-palmeiras","name":"Palmeiras","municipality_id":"mg-3108008","polling_places":2,"approx":true,"official":false,"method":"voronoi-polling-places","whole_municipality":false,"approx_coords_only":false},"geometry":{"type":"MultiPolygon","coordinates":[[[[-44.75784,-21.03843],[-44.71195,-21.0797],[-44.70677,-21.06891],[-44.75231,-21.03321],[-44.75744,-21.02855],[-44.75769,-21.03723],[-44.75784,-21.03843]]]]}},{"type":"Feature","properties":{"territory_id":"mg-3108008-sao-jose","name":"São José","municipality_id":"mg-3108008","polling_places":1,"approx":true,"official":false,"method":"voronoi-polling-places","whole_municipality":false,"approx_coords_only":false},"geometry":{"type":"MultiPolygon","coordinates":[[[[-44.76824,-21.00893],[-44.76576,-21.01403],[-44.75744,-21.02855],[-44.75231,-21.03321],[-44.70677,-21.06891],[-44.70388,-21.06374],[-44.76824,-21.00893]]]]}},{"type":"Feature","properties":{"territory_id":"mg-3108008-sao-judas-tadeu","name":"São Judas Tadeu","municipality_id":"mg-3108008","polling_places":1,"approx":true,"official":false,"method":"voronoi-polling-places","whole_municipality":false,"approx_coords_only":false},"geometry":{"type":"MultiPolygon","coordinates":[[[[-44.80498,-21.12128],[-44.7654,-21.1132],[-44.73697,-21.14143],[-44.71195,-21.0797],[-44.75784,-21.03843],[-44.76061,-21.0382],[-44.76353,-21.03941],[-44.80498,-21.12128]]]]}}]}