{"type":"FeatureCollection","features":[{"type":"Feature","properties":{"territory_id":"mg-3108701-centro","name":"Centro","municipality_id":"mg-3108701","polling_places":2,"approx":true,"official":false,"method":"voronoi-polling-places","whole_municipality":false,"approx_coords_only":false},"geometry":{"type":"MultiPolygon","coordinates":[[[[-43.3037,-20.8198],[-43.2952,-20.8533],[-43.29371,-20.88631],[-43.25187,-20.88314],[-43.1577,-20.87999],[-43.1469,-20.8475],[-43.1542,-20.8157],[-43.2171,-20.7945],[-43.2664,-20.8035],[-43.3037,-20.8198]]]]}},{"type":"Feature","properties":{"territory_id":"mg-3108701-zona-rural","name":"Zona Rural","municipality_id":"mg-3108701","polling_places":2,"approx":true,"official":false,"method":"voronoi-polling-places","whole_municipality":false,"approx_coords_only":false},"geometry":{"type":"MultiPolygon","coordinates":[[[[-43.29371,-20.88631],[-43.2906,-20.9551],[-43.2391,-20.969],[-43.2053,-20.9312],[-43.1728,-20.9254],[-43.1577,-20.87999],[-43.25187,-20.88314],[-43.29371,-20.88631]]]]}}]}