{"type":"FeatureCollection","features":[{"type":"Feature","properties":{"territory_id":"mg-3108255-centro","name":"Centro","municipality_id":"mg-3108255","polling_places":1,"approx":true,"official":false,"method":"voronoi-polling-places","whole_municipality":false,"approx_coords_only":false},"geometry":{"type":"MultiPolygon","coordinates":[[[[-44.75888,-15.3206],[-44.75589,-15.39299],[-44.72201,-15.37474],[-44.72596,-15.32533],[-44.75888,-15.3206]]]]}},{"type":"Feature","properties":{"territory_id":"mg-3108255-fleixeira","name":"Fleixeira","municipality_id":"mg-3108255","polling_places":1,"approx":true,"official":false,"method":"voronoi-polling-places","whole_municipality":false,"approx_coords_only":false},"geometry":{"type":"MultiPolygon","coordinates":[[[[-44.82227,-14.52083],[-44.81312,-14.53108],[-44.73294,-14.49278],[-44.7414,-14.4671],[-44.8108,-14.5031],[-44.82227,-14.52083]]]]}},{"type":"Feature","properties":{"territory_id":"mg-3108255-porto-do-cajueiro","name":"Porto do Cajueiro","municipality_id":"mg-3108255","polling_places":1,"approx":true,"official":false,"method":"voronoi-polling-places","whole_municipality":false,"approx_coords_only":false},"geometry":{"type":"MultiPolygon","coordinates":[[[[-45.3057,-14.8337],[-45.2835,-14.8626],[-45.2385,-14.8771],[-45.2172,-14.9068],[-45.1852,-14.9829],[-45.17571,-14.99069],[-45.15872,-14.92732],[-45.23189,-14.77401],[-45.243,-14.7864],[-45.3057,-14.8337]]]]}},{"type":"Feature","properties":{"territory_id":"mg-3108255-zona-rural","name":"Zona Rural","municipality_id":"mg-3108255","polling_places":26,"approx":true,"official":false,"method":"voronoi-polling-places","whole_municipality":false,"approx_coords_only":false},"geometry":{"type":"MultiPolygon","coordinates":[[[[-45.23189,-14.77401],[-45.15872,-14.92732],[-45.17571,-14.99069],[-45.0731,-15.0749],[-45.0417,-15.0813],[-45.0329,-15.1134],[-44.9753,-15.1976],[-45.0067,-15.2602],[-44.9836,-15.3454],[-44.9205,-15.3841],[-44.8815,-15.3965],[-44.8314,-15.4404],[-44.7724,-15.4646],[-44.7666,-15.4836],[-44.7103,-15.4572],[-44.627,-15.3396],[-44.6388,-15.2716],[-44.6746,-15.2629],[-44.6882,-15.2084],[-44.6324,-15.1237],[-44.6325,-15.0792],[-44.6612,-15.0688],[-44.6982,-15.0258],[-44.7328,-14.9492],[-44.7114,-14.9105],[-44.674,-14.8806],[-44.692,-14.8421],[-44.7384,-14.812],[-44.7789,-14.7683],[-44.8221,-14.7652],[-44.8092,-14.7172],[-44.6889,-14.6256],[-44.7409,-14.6252],[-44.7342,-14.5665],[-44.751,-14.5441],[-44.7305,-14.5002],[-44.73294,-14.49278],[-44.81312,-14.53108],[-44.82227,-14.52083],[-44.8692,-14.5934],[-44.981,-14.6456],[-44.9957,-14.6678],[-45.0477,-14.6905],[-45.0651,-14.7309],[-45.0958,-14.753],[-45.1665,-14.7353],[-45.2056,-14.7447],[-45.23189,-14.77401]],[[-44.75888,-15.3206],[-44.72596,-15.32533],[-44.72201,-15.37474],[-44.75589,-15.39299],[-44.75888,-15.3206]]]]}}]}