{"type":"FeatureCollection","features":[{"type":"Feature","properties":{"territory_id":"mg-3108800-centro","name":"Centro","municipality_id":"mg-3108800","polling_places":2,"approx":true,"official":false,"method":"voronoi-polling-places","whole_municipality":false,"approx_coords_only":false},"geometry":{"type":"MultiPolygon","coordinates":[[[[-42.8068,-19.0685],[-42.8004,-19.0961],[-42.7682,-19.1179],[-42.7474,-19.15],[-42.7486,-19.1524],[-42.7189,-19.147],[-42.7039,-19.1117],[-42.664,-19.0979],[-42.64401,-19.07769],[-42.69495,-19.0206],[-42.70576,-19.00772],[-42.80468,-19.00806],[-42.7883,-19.0387],[-42.8068,-19.0685]]]]}},{"type":"Feature","properties":{"territory_id":"mg-3108800-povoado-barroada","name":"Povoado Barroada","municipality_id":"mg-3108800","polling_places":1,"approx":true,"official":false,"method":"voronoi-polling-places","whole_municipality":false,"approx_coords_only":false},"geometry":{"type":"MultiPolygon","coordinates":[[[[-42.70576,-19.00772],[-42.69495,-19.0206],[-42.64401,-19.07769],[-42.5894,-19.0225],[-42.6164,-18.9906],[-42.6559,-18.9748],[-42.67158,-18.95643],[-42.70576,-19.00772]]]]}},{"type":"Feature","properties":{"territory_id":"mg-3108800-povoado-santa-rita","name":"Povoado Santa Rita","municipality_id":"mg-3108800","polling_places":1,"approx":true,"official":false,"method":"voronoi-polling-places","whole_municipality":false,"approx_coords_only":false},"geometry":{"type":"MultiPolygon","coordinates":[[[[-42.8084,-19.0011],[-42.80468,-19.00806],[-42.70576,-19.00772],[-42.67158,-18.95643],[-42.7043,-18.9181],[-42.7414,-18.925],[-42.7579,-18.9003],[-42.7939,-18.9046],[-42.777,-18.9779],[-42.8084,-19.0011]]]]}}]}