{"type":"FeatureCollection","features":[{"type":"Feature","properties":{"territory_id":"mg-3108107-centro","name":"Centro","municipality_id":"mg-3108107","polling_places":1,"approx":true,"official":false,"method":"voronoi-polling-places","whole_municipality":false,"approx_coords_only":false},"geometry":{"type":"MultiPolygon","coordinates":[[[[-44.25645,-20.35443],[-44.2024,-20.38916],[-44.20139,-20.38908],[-44.21702,-20.30421],[-44.22597,-20.29907],[-44.25645,-20.35443]]]]}},{"type":"Feature","properties":{"territory_id":"mg-3108107-distrito-de-vargem-alegre","name":"Distrito de Vargem Alegre","municipality_id":"mg-3108107","polling_places":1,"approx":true,"official":false,"method":"voronoi-polling-places","whole_municipality":false,"approx_coords_only":false},"geometry":{"type":"MultiPolygon","coordinates":[[[[-44.21702,-20.30421],[-44.20139,-20.38908],[-44.183,-20.38766],[-44.16634,-20.30099],[-44.16895,-20.29474],[-44.18303,-20.28901],[-44.21702,-20.30421]]]]}},{"type":"Feature","properties":{"territory_id":"mg-3108107-povoado-de-aroucas","name":"Povoado de Aroucas","municipality_id":"mg-3108107","polling_places":1,"approx":true,"official":false,"method":"voronoi-polling-places","whole_municipality":false,"approx_coords_only":false},"geometry":{"type":"MultiPolygon","coordinates":[[[[-44.2668,-20.2506],[-44.2656,-20.25592],[-44.18795,-20.25582],[-44.18177,-20.24528],[-44.18202,-20.22847],[-44.1951,-20.2368],[-44.218,-20.229],[-44.2668,-20.2506]]]]}},{"type":"Feature","properties":{"territory_id":"mg-3108107-povoado-de-barreiras","name":"Povoado de Barreiras","municipality_id":"mg-3108107","polling_places":1,"approx":true,"official":false,"method":"voronoi-polling-places","whole_municipality":false,"approx_coords_only":false},"geometry":{"type":"MultiPolygon","coordinates":[[[[-44.18202,-20.22847],[-44.18177,-20.24528],[-44.15758,-20.25318],[-44.14328,-20.24466],[-44.164,-20.217],[-44.18202,-20.22847]]]]}},{"type":"Feature","properties":{"territory_id":"mg-3108107-povoado-de-caetano-jose","name":"Povoado de Caetano José","municipality_id":"mg-3108107","polling_places":1,"approx":true,"official":false,"method":"voronoi-polling-places","whole_municipality":false,"approx_coords_only":false},"geometry":{"type":"MultiPolygon","coordinates":[[[[-44.2656,-20.25592],[-44.26093,-20.27651],[-44.22597,-20.29907],[-44.21702,-20.30421],[-44.18303,-20.28901],[-44.18795,-20.25582],[-44.2656,-20.25592]]]]}},{"type":"Feature","properties":{"territory_id":"mg-3108107-povoado-de-fundao","name":"Povoado de Fundão","municipality_id":"mg-3108107","polling_places":1,"approx":true,"official":false,"method":"voronoi-polling-places","whole_municipality":false,"approx_coords_only":false},"geometry":{"type":"MultiPolygon","coordinates":[[[[-44.16895,-20.29474],[-44.16634,-20.30099],[-44.13198,-20.32074],[-44.1217,-20.3078],[-44.11991,-20.28135],[-44.16105,-20.28892],[-44.16895,-20.29474]]]]}},{"type":"Feature","properties":{"territory_id":"mg-3108107-povoado-de-grota-de-cima","name":"Povoado de Grota de Cima","municipality_id":"mg-3108107","polling_places":1,"approx":true,"official":false,"method":"voronoi-polling-places","whole_municipality":false,"approx_coords_only":false},"geometry":{"type":"MultiPolygon","coordinates":[[[[-44.18795,-20.25582],[-44.18303,-20.28901],[-44.16895,-20.29474],[-44.16105,-20.28892],[-44.15354,-20.26507],[-44.15758,-20.25318],[-44.18177,-20.24528],[-44.18795,-20.25582]]]]}},{"type":"Feature","properties":{"territory_id":"mg-3108107-povoado-de-guedes","name":"Povoado de Guedes","municipality_id":"mg-3108107","polling_places":1,"approx":true,"official":false,"method":"voronoi-polling-places","whole_municipality":false,"approx_coords_only":false},"geometry":{"type":"MultiPolygon","coordinates":[[[[-44.3282,-20.3306],[-44.3205,-20.386],[-44.2886,-20.3976],[-44.2775,-20.4239],[-44.2549,-20.3932],[-44.2024,-20.38916],[-44.25645,-20.35443],[-44.31138,-20.3234],[-44.3282,-20.3306]]]]}},{"type":"Feature","properties":{"territory_id":"mg-3108107-povoado-de-jordao","name":"Povoado de Jordão","municipality_id":"mg-3108107","polling_places":1,"approx":true,"official":false,"method":"voronoi-polling-places","whole_municipality":false,"approx_coords_only":false},"geometry":{"type":"MultiPolygon","coordinates":[[[[-44.16105,-20.28892],[-44.11991,-20.28135],[-44.11879,-20.26492],[-44.15354,-20.26507],[-44.16105,-20.28892]]]]}},{"type":"Feature","properties":{"territory_id":"mg-3108107-povoado-de-macaubas-de-baixo","name":"Povoado de Macaúbas de Baixo","municipality_id":"mg-3108107","polling_places":1,"approx":true,"official":false,"method":"voronoi-polling-places","whole_municipality":false,"approx_coords_only":false},"geometry":{"type":"MultiPolygon","coordinates":[[[[-44.183,-20.38766],[-44.1809,-20.3875],[-44.1516,-20.4219],[-44.1566,-20.3517],[-44.13198,-20.32074],[-44.16634,-20.30099],[-44.183,-20.38766]]]]}},{"type":"Feature","properties":{"territory_id":"mg-3108107-povoado-de-mirandas","name":"Povoado de Mirandas","municipality_id":"mg-3108107","polling_places":1,"approx":true,"official":false,"method":"voronoi-polling-places","whole_municipality":false,"approx_coords_only":false},"geometry":{"type":"MultiPolygon","coordinates":[[[[-44.15758,-20.25318],[-44.15354,-20.26507],[-44.11879,-20.26492],[-44.1178,-20.2503],[-44.1404,-20.2485],[-44.14328,-20.24466],[-44.15758,-20.25318]]]]}},{"type":"Feature","properties":{"territory_id":"mg-3108107-sao-miguel","name":"São Miguel","municipality_id":"mg-3108107","polling_places":1,"approx":true,"official":false,"method":"voronoi-polling-places","whole_municipality":false,"approx_coords_only":false},"geometry":{"type":"MultiPolygon","coordinates":[[[[-44.31138,-20.3234],[-44.25645,-20.35443],[-44.22597,-20.29907],[-44.26093,-20.27651],[-44.2591,-20.2846],[-44.2773,-20.3088],[-44.31138,-20.3234]]]]}}]}