{"type":"FeatureCollection","features":[{"type":"Feature","properties":{"territory_id":"mg-3108602-alto-claro","name":"Alto Claro","municipality_id":"mg-3108602","polling_places":1,"approx":true,"official":false,"method":"voronoi-polling-places","whole_municipality":false,"approx_coords_only":false},"geometry":{"type":"MultiPolygon","coordinates":[[[[-44.46894,-16.24298],[-44.42004,-16.25784],[-44.42832,-16.22042],[-44.42903,-16.21958],[-44.43261,-16.21962],[-44.46894,-16.24298]]]]}},{"type":"Feature","properties":{"territory_id":"mg-3108602-araujo","name":"Araujo","municipality_id":"mg-3108602","polling_places":1,"approx":true,"official":false,"method":"voronoi-polling-places","whole_municipality":false,"approx_coords_only":false},"geometry":{"type":"MultiPolygon","coordinates":[[[[-44.44597,-16.15673],[-44.43919,-16.18616],[-44.43704,-16.18971],[-44.42554,-16.20347],[-44.40529,-16.20992],[-44.38579,-16.20973],[-44.41168,-16.14589],[-44.4158,-16.14443],[-44.44597,-16.15673]]]]}},{"type":"Feature","properties":{"territory_id":"mg-3108602-botelho","name":"Botelho","municipality_id":"mg-3108602","polling_places":1,"approx":true,"official":false,"method":"voronoi-polling-places","whole_municipality":false,"approx_coords_only":false},"geometry":{"type":"MultiPolygon","coordinates":[[[[-44.43046,-16.20555],[-44.42045,-16.21167],[-44.41587,-16.21143],[-44.40529,-16.20992],[-44.42554,-16.20347],[-44.43023,-16.20477],[-44.43046,-16.20555]]]]}},{"type":"Feature","properties":{"territory_id":"mg-3108602-centro","name":"Centro","municipality_id":"mg-3108602","polling_places":4,"approx":true,"official":false,"method":"voronoi-polling-places","whole_municipality":false,"approx_coords_only":false},"geometry":{"type":"MultiPolygon","coordinates":[[[[-44.473,-16.24197],[-44.46894,-16.24298],[-44.43261,-16.21962],[-44.43114,-16.21449],[-44.43036,-16.21409],[-44.42893,-16.21402],[-44.42627,-16.21264],[-44.43153,-16.20759],[-44.43179,-16.20715],[-44.43339,-16.20725],[-44.43295,-16.21123],[-44.44066,-16.21022],[-44.44455,-16.21593],[-44.473,-16.24197]]]]}},{"type":"Feature","properties":{"territory_id":"mg-3108602-centro-de-fernao-dias","name":"Centro de Fernao Dias","municipality_id":"mg-3108602","polling_places":1,"approx":true,"official":false,"method":"voronoi-polling-places","whole_municipality":false,"approx_coords_only":false},"geometry":{"type":"MultiPolygon","coordinates":[[[[-44.7042,-16.3812],[-44.5868,-16.4953],[-44.4719,-16.4408],[-44.4443,-16.4096],[-44.39511,-16.38448],[-44.41364,-16.32799],[-44.67388,-16.34507],[-44.7042,-16.3812]]]]}},{"type":"Feature","properties":{"territory_id":"mg-3108602-centro-do-distrito-de-vila-de-fatima","name":"Centro do Distrito de Vila de Fatima","municipality_id":"mg-3108602","polling_places":1,"approx":true,"official":false,"method":"voronoi-polling-places","whole_municipality":false,"approx_coords_only":false},"geometry":{"type":"MultiPolygon","coordinates":[[[[-44.46944,-15.99072],[-44.45241,-16.05575],[-44.40506,-16.04422],[-44.36254,-15.99862],[-44.3712,-15.9953],[-44.4022,-16.0081],[-44.4302,-15.9732],[-44.46944,-15.99072]]]]}},{"type":"Feature","properties":{"territory_id":"mg-3108602-distrito-de-angicos-de-minas","name":"Distrito de Angicos de Minas","municipality_id":"mg-3108602","polling_places":2,"approx":true,"official":false,"method":"voronoi-polling-places","whole_municipality":false,"approx_coords_only":false},"geometry":{"type":"MultiPolygon","coordinates":[[[[-44.42395,-16.11032],[-44.41786,-16.1355],[-44.4158,-16.14443],[-44.41168,-16.14589],[-44.3681,-16.13232],[-44.28896,-16.05246],[-44.3143,-16.0407],[-44.3298,-16.0112],[-44.36254,-15.99862],[-44.40506,-16.04422],[-44.42395,-16.11032]]]]}},{"type":"Feature","properties":{"territory_id":"mg-3108602-dona-joaquina","name":"Dona Joaquina","municipality_id":"mg-3108602","polling_places":1,"approx":true,"official":false,"method":"voronoi-polling-places","whole_municipality":false,"approx_coords_only":false},"geometry":{"type":"MultiPolygon","coordinates":[[[[-44.42903,-16.21958],[-44.42832,-16.22042],[-44.41587,-16.21143],[-44.42045,-16.21167],[-44.42627,-16.21264],[-44.42893,-16.21402],[-44.42903,-16.21958]]]]}},{"type":"Feature","properties":{"territory_id":"mg-3108602-regina-mendes","name":"Regina Mendes","municipality_id":"mg-3108602","polling_places":1,"approx":true,"official":false,"method":"voronoi-polling-places","whole_municipality":false,"approx_coords_only":false},"geometry":{"type":"MultiPolygon","coordinates":[[[[-44.43919,-16.18616],[-44.43892,-16.20664],[-44.43339,-16.20725],[-44.43179,-16.20715],[-44.43046,-16.20555],[-44.43023,-16.20477],[-44.43704,-16.18971],[-44.43919,-16.18616]]]]}},{"type":"Feature","properties":{"territory_id":"mg-3108602-rosario","name":"Rosario","municipality_id":"mg-3108602","polling_places":1,"approx":true,"official":false,"method":"voronoi-polling-places","whole_municipality":false,"approx_coords_only":false},"geometry":{"type":"MultiPolygon","coordinates":[[[[-44.43261,-16.21962],[-44.42903,-16.21958],[-44.42893,-16.21402],[-44.43036,-16.21409],[-44.43114,-16.21449],[-44.43261,-16.21962]]]]}},{"type":"Feature","properties":{"territory_id":"mg-3108602-santa-cruz-i","name":"Santa Cruz I","municipality_id":"mg-3108602","polling_places":1,"approx":true,"official":false,"method":"voronoi-polling-places","whole_municipality":false,"approx_coords_only":false},"geometry":{"type":"MultiPolygon","coordinates":[[[[-44.54479,-16.17489],[-44.52172,-16.23919],[-44.473,-16.24197],[-44.44455,-16.21593],[-44.44066,-16.21022],[-44.43892,-16.20664],[-44.43919,-16.18616],[-44.44597,-16.15673],[-44.54479,-16.17489]]]]}},{"type":"Feature","properties":{"territory_id":"mg-3108602-zona-rural","name":"Zona Rural","municipality_id":"mg-3108602","polling_places":25,"approx":true,"official":false,"method":"voronoi-polling-places","whole_municipality":false,"approx_coords_only":false},"geometry":{"type":"MultiPolygon","coordinates":[[[[-44.67388,-16.34507],[-44.41364,-16.32799],[-44.39511,-16.38448],[-44.327,-16.3497],[-44.3093,-16.3613],[-44.2541,-16.2778],[-44.2528,-16.2245],[-44.2786,-16.2142],[-44.2929,-16.1724],[-44.2692,-16.1263],[-44.2356,-16.0919],[-44.226,-16.0817],[-44.28896,-16.05246],[-44.3681,-16.13232],[-44.41168,-16.14589],[-44.38579,-16.20973],[-44.40529,-16.20992],[-44.41587,-16.21143],[-44.42832,-16.22042],[-44.42004,-16.25784],[-44.46894,-16.24298],[-44.473,-16.24197],[-44.52172,-16.23919],[-44.5139,-16.261],[-44.5981,-16.3035],[-44.6165,-16.3259],[-44.6666,-16.3364],[-44.67388,-16.34507]]],[[[-44.5454,-16.1732],[-44.54479,-16.17489],[-44.44597,-16.15673],[-44.4158,-16.14443],[-44.41786,-16.1355],[-44.42395,-16.11032],[-44.40506,-16.04422],[-44.45241,-16.05575],[-44.46944,-15.99072],[-44.4759,-15.9936],[-44.4965,-16.0206],[-44.4978,-16.0581],[-44.4862,-16.1295],[-44.4928,-16.1532],[-44.5454,-16.1732]]],[[[-44.44066,-16.21022],[-44.43295,-16.21123],[-44.43339,-16.20725],[-44.43892,-16.20664],[-44.44066,-16.21022]]],[[[-44.43704,-16.18971],[-44.43023,-16.20477],[-44.42554,-16.20347],[-44.43704,-16.18971]]],[[[-44.43179,-16.20715],[-44.43153,-16.20759],[-44.42627,-16.21264],[-44.42045,-16.21167],[-44.43046,-16.20555],[-44.43179,-16.20715]]]]}}]}