{"type":"FeatureCollection","features":[{"type":"Feature","properties":{"territory_id":"mg-3108503-adao-colares","name":"Adao Colares","municipality_id":"mg-3108503","polling_places":1,"approx":true,"official":false,"method":"voronoi-polling-places","whole_municipality":false,"approx_coords_only":false},"geometry":{"type":"MultiPolygon","coordinates":[[[[-43.1985,-16.6916],[-43.1801,-16.7247],[-43.15442,-16.81659],[-43.10749,-16.81793],[-42.99252,-16.75401],[-42.9844,-16.7287],[-42.9908,-16.6814],[-43.0243,-16.6956],[-43.1193,-16.7083],[-43.1295,-16.694],[-43.1985,-16.6916]]]]}},{"type":"Feature","properties":{"territory_id":"mg-3108503-cantagalo","name":"Cantagalo","municipality_id":"mg-3108503","polling_places":1,"approx":true,"official":false,"method":"voronoi-polling-places","whole_municipality":false,"approx_coords_only":false},"geometry":{"type":"MultiPolygon","coordinates":[[[[-43.207,-17.1057],[-43.1757,-17.1268],[-43.1437,-17.1201],[-43.1047,-17.1339],[-43.0932,-17.1669],[-43.1089,-17.1942],[-43.0696,-17.2244],[-43.0255,-17.186],[-42.9852,-17.1661],[-42.9698,-17.1056],[-42.92989,-17.0685],[-42.93685,-17.05042],[-42.96479,-17.03072],[-43.13407,-16.97929],[-43.1345,-16.981],[-43.175,-17.0138],[-43.18,-17.0857],[-43.207,-17.1057]]]]}},{"type":"Feature","properties":{"territory_id":"mg-3108503-centro","name":"Centro","municipality_id":"mg-3108503","polling_places":2,"approx":true,"official":false,"method":"voronoi-polling-places","whole_municipality":false,"approx_coords_only":false},"geometry":{"type":"MultiPolygon","coordinates":[[[[-43.10749,-16.81793],[-43.10575,-16.82049],[-42.96479,-17.03072],[-42.93685,-17.05042],[-42.90723,-16.91131],[-42.8865,-16.81701],[-42.919,-16.8441],[-42.9449,-16.7911],[-42.9973,-16.7689],[-42.99252,-16.75401],[-43.10749,-16.81793]]]]}},{"type":"Feature","properties":{"territory_id":"mg-3108503-santa-cruz-de-botumirim","name":"Santa Cruz de Botumirim","municipality_id":"mg-3108503","polling_places":1,"approx":true,"official":false,"method":"voronoi-polling-places","whole_municipality":false,"approx_coords_only":false},"geometry":{"type":"MultiPolygon","coordinates":[[[[-42.93685,-17.05042],[-42.92989,-17.0685],[-42.8988,-17.0396],[-42.8353,-17.0424],[-42.796,-17.0196],[-42.7579,-16.9436],[-42.7444,-16.9084],[-42.7574,-16.8861],[-42.737,-16.8516],[-42.8088,-16.8729],[-42.8716,-16.8046],[-42.8865,-16.81701],[-42.90723,-16.91131],[-42.93685,-17.05042]]]]}},{"type":"Feature","properties":{"territory_id":"mg-3108503-toazinho","name":"Toazinho","municipality_id":"mg-3108503","polling_places":1,"approx":true,"official":false,"method":"voronoi-polling-places","whole_municipality":false,"approx_coords_only":false},"geometry":{"type":"MultiPolygon","coordinates":[[[[-43.15442,-16.81659],[-43.1469,-16.8435],[-43.1206,-16.8893],[-43.1193,-16.9207],[-43.13407,-16.97929],[-42.96479,-17.03072],[-43.10575,-16.82049],[-43.10749,-16.81793],[-43.15442,-16.81659]]]]}}]}