{"type":"FeatureCollection","features":[{"type":"Feature","properties":{"territory_id":"mg-3109402-alto-sao-francisco","name":"Alto São Francisco","municipality_id":"mg-3109402","polling_places":1,"approx":true,"official":false,"method":"voronoi-polling-places","whole_municipality":false,"approx_coords_only":false},"geometry":{"type":"MultiPolygon","coordinates":[[[[-45.16895,-17.61047],[-45.01008,-17.70446],[-45.0138,-17.6858],[-45.0353,-17.6585],[-45.0453,-17.6106],[-44.9818,-17.551],[-44.9875,-17.5189],[-44.96044,-17.47854],[-44.96868,-17.36804],[-45.10891,-17.37135],[-45.15742,-17.51403],[-45.16895,-17.61047]]]]}},{"type":"Feature","properties":{"territory_id":"mg-3109402-belo-horizonte","name":"Belo Horizonte","municipality_id":"mg-3109402","polling_places":1,"approx":true,"official":false,"method":"voronoi-polling-places","whole_municipality":false,"approx_coords_only":true},"geometry":{"type":"MultiPolygon","coordinates":[[[[-45.3242,-17.19383],[-45.15742,-17.51403],[-45.10891,-17.37135],[-45.07044,-17.23854],[-45.05408,-17.16971],[-45.0421,-17.11173],[-45.25211,-17.10649],[-45.3242,-17.19383]]]]}},{"type":"Feature","properties":{"territory_id":"mg-3109402-centro","name":"Centro","municipality_id":"mg-3109402","polling_places":5,"approx":true,"official":false,"method":"voronoi-polling-places","whole_municipality":false,"approx_coords_only":false},"geometry":{"type":"MultiPolygon","coordinates":[[[[-45.07044,-17.23854],[-44.97011,-17.35204],[-44.96503,-17.35505],[-44.96275,-17.35932],[-44.96518,-17.3674],[-44.94511,-17.37409],[-44.956,-17.3491],[-44.9553,-17.34796],[-45.05408,-17.16971],[-45.07044,-17.23854]]]]}},{"type":"Feature","properties":{"territory_id":"mg-3109402-jardim-dos-buritis","name":"Jardim dos Buritis","municipality_id":"mg-3109402","polling_places":1,"approx":true,"official":false,"method":"voronoi-polling-places","whole_municipality":false,"approx_coords_only":false},"geometry":{"type":"MultiPolygon","coordinates":[[[[-44.96868,-17.36804],[-44.96044,-17.47854],[-44.9535,-17.4682],[-44.9373,-17.392],[-44.94511,-17.37409],[-44.96518,-17.3674],[-44.96775,-17.36753],[-44.96868,-17.36804]]]]}},{"type":"Feature","properties":{"territory_id":"mg-3109402-sao-francisco","name":"São Francisco","municipality_id":"mg-3109402","polling_places":3,"approx":true,"official":false,"method":"voronoi-polling-places","whole_municipality":false,"approx_coords_only":false},"geometry":{"type":"MultiPolygon","coordinates":[[[[-45.10891,-17.37135],[-44.96868,-17.36804],[-44.96775,-17.36753],[-44.96518,-17.3674],[-44.96275,-17.35932],[-44.96503,-17.35505],[-44.97011,-17.35204],[-45.07044,-17.23854],[-45.10891,-17.37135]]],[[[-45.05408,-17.16971],[-44.9553,-17.34796],[-44.9315,-17.3089],[-44.9235,-17.2657],[-44.8953,-17.2695],[-44.8297,-17.2036],[-44.8552,-17.1745],[-44.8305,-17.1227],[-44.7895,-17.1019],[-44.79751,-17.07748],[-45.03341,-17.10633],[-45.0421,-17.11173],[-45.05408,-17.16971]]]]}},{"type":"Feature","properties":{"territory_id":"mg-3109402-zona-rural","name":"Zona Rural","municipality_id":"mg-3109402","polling_places":6,"approx":true,"official":false,"method":"voronoi-polling-places","whole_municipality":false,"approx_coords_only":false},"geometry":{"type":"MultiPolygon","coordinates":[[[[-45.5618,-17.3817],[-45.553,-17.4081],[-45.5174,-17.4221],[-45.504,-17.4508],[-45.4415,-17.4871],[-45.4202,-17.4847],[-45.3845,-17.5214],[-45.3906,-17.5791],[-45.4346,-17.5829],[-45.4554,-17.6045],[-45.4036,-17.6684],[-45.4118,-17.7063],[-45.445,-17.7369],[-45.4286,-17.7557],[-45.4342,-17.7872],[-45.4664,-17.8314],[-45.4564,-17.8471],[-45.4676,-17.9054],[-45.4466,-17.9168],[-45.3879,-17.9016],[-45.3452,-17.9103],[-45.3378,-17.9387],[-45.2904,-17.9616],[-45.2636,-17.9917],[-45.2406,-17.9762],[-45.1984,-17.9878],[-45.1797,-17.9583],[-45.1164,-17.9308],[-45.1093,-17.8605],[-45.1198,-17.8145],[-45.0767,-17.7819],[-45.032,-17.7844],[-45.0137,-17.77],[-45.0067,-17.7214],[-45.01008,-17.70446],[-45.16895,-17.61047],[-45.15742,-17.51403],[-45.3242,-17.19383],[-45.25211,-17.10649],[-45.0421,-17.11173],[-45.03341,-17.10633],[-44.79751,-17.07748],[-44.8061,-17.0513],[-44.8037,-17.0254],[-44.8409,-16.9918],[-44.871,-16.9738],[-44.8744,-16.9298],[-44.913,-16.9139],[-44.919,-16.849],[-44.9339,-16.8063],[-45.0203,-16.7541],[-45.0022,-16.7258],[-45.0098,-16.7002],[-45.0567,-16.6877],[-45.0782,-16.6691],[-45.0729,-16.6246],[-45.1047,-16.5654],[-45.1658,-16.6205],[-45.1967,-16.684],[-45.241,-16.6906],[-45.2323,-16.7191],[-45.2508,-16.7463],[-45.284,-16.7596],[-45.307,-16.7907],[-45.2976,-16.8175],[-45.308,-16.8834],[-45.348,-16.9078],[-45.4002,-16.9033],[-45.4291,-16.9166],[-45.4619,-16.9633],[-45.5049,-16.9609],[-45.5109,-17.0355],[-45.5611,-17.0443],[-45.5213,-17.0837],[-45.5293,-17.0985],[-45.4358,-17.1176],[-45.4533,-17.1547],[-45.4864,-17.1816],[-45.507,-17.2708],[-45.5053,-17.3226],[-45.5294,-17.3576],[-45.5618,-17.3817]]]]}}]}