{"type":"FeatureCollection","features":[{"type":"Feature","properties":{"territory_id":"mg-3109303-barriguda-ii","name":"Barriguda Ii","municipality_id":"mg-3109303","polling_places":1,"approx":true,"official":false,"method":"voronoi-polling-places","whole_municipality":false,"approx_coords_only":false},"geometry":{"type":"MultiPolygon","coordinates":[[[[-46.45075,-15.76555],[-46.43813,-15.84498],[-46.4085,-15.8351],[-46.3779,-15.8368],[-46.2548,-15.7955],[-46.2658,-15.727],[-46.2643,-15.6805],[-46.25082,-15.61823],[-46.28708,-15.61656],[-46.37028,-15.68401],[-46.38554,-15.69771],[-46.42792,-15.7406],[-46.45075,-15.76555]]]]}},{"type":"Feature","properties":{"territory_id":"mg-3109303-canaa","name":"Canaã","municipality_id":"mg-3109303","polling_places":1,"approx":true,"official":false,"method":"voronoi-polling-places","whole_municipality":false,"approx_coords_only":false},"geometry":{"type":"MultiPolygon","coordinates":[[[[-46.42628,-15.62861],[-46.38554,-15.69771],[-46.37028,-15.68401],[-46.41909,-15.62571],[-46.42485,-15.62701],[-46.42628,-15.62861]]]]}},{"type":"Feature","properties":{"territory_id":"mg-3109303-centro","name":"Centro","municipality_id":"mg-3109303","polling_places":3,"approx":true,"official":false,"method":"voronoi-polling-places","whole_municipality":false,"approx_coords_only":false},"geometry":{"type":"MultiPolygon","coordinates":[[[[-46.49875,-15.55361],[-46.44188,-15.61246],[-46.42823,-15.62875],[-46.42628,-15.62861],[-46.42485,-15.62701],[-46.41909,-15.62571],[-46.419,-15.62553],[-46.40031,-15.52769],[-46.40146,-15.52671],[-46.44587,-15.4867],[-46.49875,-15.55361]]]]}},{"type":"Feature","properties":{"territory_id":"mg-3109303-coopago","name":"Coopago","municipality_id":"mg-3109303","polling_places":1,"approx":true,"official":false,"method":"voronoi-polling-places","whole_municipality":false,"approx_coords_only":false},"geometry":{"type":"MultiPolygon","coordinates":[[[[-46.78878,-15.39636],[-46.68971,-15.45455],[-46.45945,-15.41198],[-46.49589,-15.05486],[-46.5027,-15.0509],[-46.5261,-15.0564],[-46.5288,-15.05785],[-46.78878,-15.39636]]]]}},{"type":"Feature","properties":{"territory_id":"mg-3109303-distrito-de-sao-pedro-do-passa-tres","name":"Distrito de São Pedro do Passa Três","municipality_id":"mg-3109303","polling_places":1,"approx":true,"official":false,"method":"voronoi-polling-places","whole_municipality":false,"approx_coords_only":false},"geometry":{"type":"MultiPolygon","coordinates":[[[[-46.49589,-15.05486],[-46.45945,-15.41198],[-46.44761,-15.43146],[-46.28716,-15.41485],[-46.2877,-15.4122],[-46.3027,-15.3919],[-46.306,-15.3453],[-46.3363,-15.2994],[-46.4007,-15.2346],[-46.4183,-15.1983],[-46.4089,-15.1797],[-46.4378,-15.1311],[-46.4222,-15.0977],[-46.49589,-15.05486]]]]}},{"type":"Feature","properties":{"territory_id":"mg-3109303-distrito-de-serra-bonita","name":"Distrito de Serra Bonita","municipality_id":"mg-3109303","polling_places":1,"approx":true,"official":false,"method":"voronoi-polling-places","whole_municipality":false,"approx_coords_only":false},"geometry":{"type":"MultiPolygon","coordinates":[[[[-46.9373,-15.205],[-46.9277,-15.2551],[-46.8915,-15.2353],[-46.8737,-15.2854],[-46.8359,-15.3265],[-46.8495,-15.3732],[-46.9119,-15.4115],[-46.92431,-15.43258],[-46.78878,-15.39636],[-46.5288,-15.05785],[-46.5775,-15.0841],[-46.6254,-15.0895],[-46.6817,-15.0586],[-46.7859,-15.0184],[-46.8569,-15.0103],[-46.9251,-15.0575],[-46.926,-15.0736],[-46.8883,-15.1125],[-46.9373,-15.205]]]]}},{"type":"Feature","properties":{"territory_id":"mg-3109303-israel-pinheiro","name":"Israel Pinheiro","municipality_id":"mg-3109303","polling_places":2,"approx":true,"official":false,"method":"voronoi-polling-places","whole_municipality":false,"approx_coords_only":false},"geometry":{"type":"MultiPolygon","coordinates":[[[[-46.41909,-15.62571],[-46.37028,-15.68401],[-46.28708,-15.61656],[-46.31085,-15.59824],[-46.40031,-15.52769],[-46.419,-15.62553],[-46.41909,-15.62571]]]]}},{"type":"Feature","properties":{"territory_id":"mg-3109303-planalto","name":"Planalto","municipality_id":"mg-3109303","polling_places":1,"approx":true,"official":false,"method":"voronoi-polling-places","whole_municipality":false,"approx_coords_only":false},"geometry":{"type":"MultiPolygon","coordinates":[[[[-46.43198,-15.63187],[-46.42792,-15.7406],[-46.38554,-15.69771],[-46.42628,-15.62861],[-46.42823,-15.62875],[-46.43198,-15.63187]]]]}},{"type":"Feature","properties":{"territory_id":"mg-3109303-taboquinha","name":"Taboquinha","municipality_id":"mg-3109303","polling_places":1,"approx":true,"official":false,"method":"voronoi-polling-places","whole_municipality":false,"approx_coords_only":false},"geometry":{"type":"MultiPolygon","coordinates":[[[[-46.57625,-15.64001],[-46.45075,-15.76555],[-46.42792,-15.7406],[-46.43198,-15.63187],[-46.54636,-15.60815],[-46.57625,-15.64001]]]]}},{"type":"Feature","properties":{"territory_id":"mg-3109303-veredas","name":"Veredas","municipality_id":"mg-3109303","polling_places":1,"approx":true,"official":false,"method":"voronoi-polling-places","whole_municipality":false,"approx_coords_only":false},"geometry":{"type":"MultiPolygon","coordinates":[[[[-46.54636,-15.60815],[-46.43198,-15.63187],[-46.42823,-15.62875],[-46.44188,-15.61246],[-46.49875,-15.55361],[-46.54636,-15.60815]]]]}},{"type":"Feature","properties":{"territory_id":"mg-3109303-vila-maravilha","name":"Vila Maravilha","municipality_id":"mg-3109303","polling_places":1,"approx":true,"official":false,"method":"voronoi-polling-places","whole_municipality":false,"approx_coords_only":false},"geometry":{"type":"MultiPolygon","coordinates":[[[[-46.44761,-15.43146],[-46.44587,-15.4867],[-46.40146,-15.52671],[-46.40031,-15.52769],[-46.31085,-15.59824],[-46.28708,-15.61656],[-46.25082,-15.61823],[-46.2483,-15.6066],[-46.2701,-15.5598],[-46.2828,-15.5045],[-46.2791,-15.4541],[-46.28716,-15.41485],[-46.44761,-15.43146]]]]}},{"type":"Feature","properties":{"territory_id":"mg-3109303-vila-rosa","name":"Vila Rosa","municipality_id":"mg-3109303","polling_places":1,"approx":true,"official":false,"method":"voronoi-polling-places","whole_municipality":false,"approx_coords_only":false},"geometry":{"type":"MultiPolygon","coordinates":[[[[-46.93783,-15.49957],[-46.65998,-15.68133],[-46.59654,-15.63997],[-46.68971,-15.45455],[-46.78878,-15.39636],[-46.92431,-15.43258],[-46.9305,-15.4431],[-46.93783,-15.49957]]]]}},{"type":"Feature","properties":{"territory_id":"mg-3109303-vila-sao-vicente","name":"Vila São Vicente","municipality_id":"mg-3109303","polling_places":1,"approx":true,"official":false,"method":"voronoi-polling-places","whole_municipality":false,"approx_coords_only":false},"geometry":{"type":"MultiPolygon","coordinates":[[[[-46.68971,-15.45455],[-46.59654,-15.63997],[-46.57625,-15.64001],[-46.54636,-15.60815],[-46.49875,-15.55361],[-46.44587,-15.4867],[-46.44761,-15.43146],[-46.45945,-15.41198],[-46.68971,-15.45455]]]]}},{"type":"Feature","properties":{"territory_id":"mg-3109303-vila-serrana","name":"Vila Serrana","municipality_id":"mg-3109303","polling_places":1,"approx":true,"official":false,"method":"voronoi-polling-places","whole_municipality":false,"approx_coords_only":false},"geometry":{"type":"MultiPolygon","coordinates":[[[[-46.72845,-15.8115],[-46.6373,-15.7894],[-46.6124,-15.8144],[-46.5682,-15.8271],[-46.5167,-15.818],[-46.4577,-15.8515],[-46.43813,-15.84498],[-46.45075,-15.76555],[-46.57625,-15.64001],[-46.59654,-15.63997],[-46.65998,-15.68133],[-46.72845,-15.8115]]]]}},{"type":"Feature","properties":{"territory_id":"mg-3109303-zona-rural","name":"Zona Rural","municipality_id":"mg-3109303","polling_places":1,"approx":true,"official":false,"method":"voronoi-polling-places","whole_municipality":false,"approx_coords_only":false},"geometry":{"type":"MultiPolygon","coordinates":[[[[-46.9461,-15.5633],[-46.8826,-15.6101],[-46.8549,-15.6183],[-46.8558,-15.6818],[-46.8278,-15.7287],[-46.8131,-15.7872],[-46.8232,-15.8246],[-46.8062,-15.8706],[-46.7375,-15.8269],[-46.7338,-15.8128],[-46.72845,-15.8115],[-46.65998,-15.68133],[-46.93783,-15.49957],[-46.9461,-15.5633]]]]}}]}