{"type":"FeatureCollection","features":[{"type":"Feature","properties":{"territory_id":"mg-3109253-centro","name":"Centro","municipality_id":"mg-3109253","polling_places":1,"approx":true,"official":false,"method":"voronoi-polling-places","whole_municipality":false,"approx_coords_only":false},"geometry":{"type":"MultiPolygon","coordinates":[[[[-42.30735,-19.41234],[-42.2967,-19.4134],[-42.29384,-19.41816],[-42.24683,-19.42584],[-42.24682,-19.42584],[-42.24981,-19.3946],[-42.29103,-19.39615],[-42.30735,-19.41234]]]]}},{"type":"Feature","properties":{"territory_id":"mg-3109253-livramento","name":"Livramento","municipality_id":"mg-3109253","polling_places":1,"approx":true,"official":false,"method":"voronoi-polling-places","whole_municipality":false,"approx_coords_only":false},"geometry":{"type":"MultiPolygon","coordinates":[[[[-42.34863,-19.2927],[-42.28775,-19.35591],[-42.2611,-19.34028],[-42.2847,-19.2908],[-42.3247,-19.2892],[-42.3357,-19.2683],[-42.34863,-19.2927]]]]}},{"type":"Feature","properties":{"territory_id":"mg-3109253-sao-lourenco","name":"Sao Lourenço","municipality_id":"mg-3109253","polling_places":1,"approx":true,"official":false,"method":"voronoi-polling-places","whole_municipality":false,"approx_coords_only":false},"geometry":{"type":"MultiPolygon","coordinates":[[[[-42.29384,-19.41816],[-42.2784,-19.4438],[-42.275,-19.4476],[-42.26789,-19.44592],[-42.24683,-19.42584],[-42.29384,-19.41816]]]]}},{"type":"Feature","properties":{"territory_id":"mg-3109253-zona-rural","name":"Zona Rural","municipality_id":"mg-3109253","polling_places":3,"approx":true,"official":false,"method":"voronoi-polling-places","whole_municipality":false,"approx_coords_only":false},"geometry":{"type":"MultiPolygon","coordinates":[[[[-42.3901,-19.3532],[-42.3545,-19.3736],[-42.3289,-19.4102],[-42.30735,-19.41234],[-42.29103,-19.39615],[-42.24981,-19.3946],[-42.2535,-19.3562],[-42.2611,-19.34028],[-42.28775,-19.35591],[-42.34863,-19.2927],[-42.3656,-19.3247],[-42.3867,-19.328],[-42.3901,-19.3532]]],[[[-42.26789,-19.44592],[-42.2454,-19.4406],[-42.24682,-19.42584],[-42.24683,-19.42584],[-42.26789,-19.44592]]]]}}]}