{"type":"FeatureCollection","features":[{"type":"Feature","properties":{"territory_id":"mg-3109204-centro","name":"Centro","municipality_id":"mg-3109204","polling_places":5,"approx":true,"official":false,"method":"voronoi-polling-places","whole_municipality":false,"approx_coords_only":false},"geometry":{"type":"MultiPolygon","coordinates":[[[[-44.4046,-18.0196],[-44.3548,-18.0325],[-44.2879,-18.0068],[-44.25511,-18.01813],[-44.1571,-17.92899],[-44.17379,-17.87608],[-44.16392,-17.81485],[-44.1731,-17.8129],[-44.2723,-17.8199],[-44.2979,-17.8109],[-44.3061,-17.852],[-44.3021,-17.9097],[-44.3514,-17.9131],[-44.3866,-17.9344],[-44.4046,-18.0196]]]]}},{"type":"Feature","properties":{"territory_id":"mg-3109204-floresta","name":"Floresta","municipality_id":"mg-3109204","polling_places":1,"approx":true,"official":false,"method":"voronoi-polling-places","whole_municipality":false,"approx_coords_only":false},"geometry":{"type":"MultiPolygon","coordinates":[[[[-44.17379,-17.87608],[-44.1571,-17.92899],[-44.06426,-17.8551],[-44.06453,-17.80747],[-44.074,-17.8339],[-44.16392,-17.81485],[-44.17379,-17.87608]]]]}},{"type":"Feature","properties":{"territory_id":"mg-3109204-pe-de-serra","name":"Pe de Serra","municipality_id":"mg-3109204","polling_places":1,"approx":true,"official":false,"method":"voronoi-polling-places","whole_municipality":false,"approx_coords_only":false},"geometry":{"type":"MultiPolygon","coordinates":[[[[-44.05721,-17.78703],[-43.80654,-17.88496],[-43.8407,-17.8334],[-43.8654,-17.7615],[-43.87934,-17.74861],[-43.99852,-17.72105],[-44.0553,-17.7817],[-44.05721,-17.78703]]]]}},{"type":"Feature","properties":{"territory_id":"mg-3109204-salobro","name":"Salobro","municipality_id":"mg-3109204","polling_places":1,"approx":true,"official":false,"method":"voronoi-polling-places","whole_municipality":false,"approx_coords_only":false},"geometry":{"type":"MultiPolygon","coordinates":[[[[-44.25511,-18.01813],[-44.2471,-18.0209],[-44.2091,-18.0191],[-44.1523,-17.9762],[-44.1192,-17.9679],[-44.0982,-17.9943],[-44.0556,-17.9524],[-44.038,-17.9761],[-43.99046,-17.98867],[-44.06426,-17.8551],[-44.1571,-17.92899],[-44.25511,-18.01813]]],[[[-43.9682,-18.1111],[-43.9558,-18.141],[-43.91831,-18.11926],[-43.95731,-18.04867],[-43.9488,-18.0797],[-43.9682,-18.1111]]]]}},{"type":"Feature","properties":{"territory_id":"mg-3109204-zona-rural","name":"Zona Rural","municipality_id":"mg-3109204","polling_places":2,"approx":true,"official":false,"method":"voronoi-polling-places","whole_municipality":false,"approx_coords_only":false},"geometry":{"type":"MultiPolygon","coordinates":[[[[-44.06453,-17.80747],[-44.06426,-17.8551],[-43.99046,-17.98867],[-43.9794,-17.9916],[-43.9454,-18.0152],[-43.9598,-18.0396],[-43.95731,-18.04867],[-43.91831,-18.11926],[-43.9177,-18.1189],[-43.9369,-18.0597],[-43.8199,-18.0259],[-43.7911,-17.955],[-43.7637,-17.9246],[-43.8034,-17.8897],[-43.80654,-17.88496],[-44.05721,-17.78703],[-44.06453,-17.80747]]],[[[-43.99852,-17.72105],[-43.87934,-17.74861],[-43.9011,-17.7285],[-43.8875,-17.7102],[-43.8999,-17.6627],[-43.8902,-17.6286],[-43.9199,-17.5695],[-43.9564,-17.5553],[-43.9732,-17.5719],[-43.9721,-17.62],[-43.9892,-17.6382],[-43.9966,-17.719],[-43.99852,-17.72105]]]]}}]}