{"type":"FeatureCollection","features":[{"type":"Feature","properties":{"territory_id":"mg-3109907-centro","name":"Centro","municipality_id":"mg-3109907","polling_places":2,"approx":true,"official":false,"method":"voronoi-polling-places","whole_municipality":false,"approx_coords_only":false},"geometry":{"type":"MultiPolygon","coordinates":[[[[-44.44606,-19.27665],[-44.41493,-19.29476],[-44.41529,-19.29847],[-44.41019,-19.3007],[-44.4099,-19.30073],[-44.40459,-19.28977],[-44.4404,-19.2735],[-44.44606,-19.27665]]]]}},{"type":"Feature","properties":{"territory_id":"mg-3109907-mangueiras","name":"Mangueiras","municipality_id":"mg-3109907","polling_places":1,"approx":true,"official":false,"method":"voronoi-polling-places","whole_municipality":false,"approx_coords_only":false},"geometry":{"type":"MultiPolygon","coordinates":[[[[-44.48456,-19.31215],[-44.41529,-19.29847],[-44.41493,-19.29476],[-44.44606,-19.27665],[-44.4839,-19.2977],[-44.48456,-19.31215]]]]}},{"type":"Feature","properties":{"territory_id":"mg-3109907-nossa-senhora-das-gracas","name":"Nossa Senhora das Graças","municipality_id":"mg-3109907","polling_places":2,"approx":true,"official":false,"method":"voronoi-polling-places","whole_municipality":false,"approx_coords_only":false},"geometry":{"type":"MultiPolygon","coordinates":[[[[-44.486,-19.3436],[-44.438,-19.3445],[-44.4173,-19.3669],[-44.41984,-19.37791],[-44.39492,-19.33311],[-44.4099,-19.30073],[-44.41019,-19.3007],[-44.41529,-19.29847],[-44.48456,-19.31215],[-44.486,-19.3436]]]]}},{"type":"Feature","properties":{"territory_id":"mg-3109907-pascoal","name":"Pascoal","municipality_id":"mg-3109907","polling_places":1,"approx":true,"official":false,"method":"voronoi-polling-places","whole_municipality":false,"approx_coords_only":false},"geometry":{"type":"MultiPolygon","coordinates":[[[[-44.4252,-19.4011],[-44.4015,-19.4134],[-44.3521,-19.3857],[-44.299,-19.4035],[-44.3152,-19.3731],[-44.3577,-19.3346],[-44.3605,-19.3098],[-44.37229,-19.30445],[-44.39492,-19.33311],[-44.41984,-19.37791],[-44.4252,-19.4011]]]]}},{"type":"Feature","properties":{"territory_id":"mg-3109907-santo-antonio","name":"Santo Antônio","municipality_id":"mg-3109907","polling_places":1,"approx":true,"official":false,"method":"voronoi-polling-places","whole_municipality":false,"approx_coords_only":false},"geometry":{"type":"MultiPolygon","coordinates":[[[[-44.4099,-19.30073],[-44.39492,-19.33311],[-44.37229,-19.30445],[-44.40459,-19.28977],[-44.4099,-19.30073]]]]}}]}