{"type":"FeatureCollection","features":[{"type":"Feature","properties":{"territory_id":"mg-3109105-centro","name":"Centro","municipality_id":"mg-3109105","polling_places":1,"approx":true,"official":false,"method":"voronoi-polling-places","whole_municipality":false,"approx_coords_only":false},"geometry":{"type":"MultiPolygon","coordinates":[[[[-46.4565,-22.5217],[-46.4146,-22.5579],[-46.4243,-22.5994],[-46.3916,-22.5825],[-46.37909,-22.59188],[-46.34657,-22.43996],[-46.36788,-22.39202],[-46.4232,-22.3993],[-46.4309,-22.457],[-46.4565,-22.5217]]]]}},{"type":"Feature","properties":{"territory_id":"mg-3109105-jardim-campo-mistico","name":"Jardim Campo Mistico","municipality_id":"mg-3109105","polling_places":1,"approx":true,"official":false,"method":"voronoi-polling-places","whole_municipality":false,"approx_coords_only":false},"geometry":{"type":"MultiPolygon","coordinates":[[[[-46.36788,-22.39202],[-46.34657,-22.43996],[-46.26032,-22.47554],[-46.2608,-22.4195],[-46.2781,-22.3859],[-46.3093,-22.4095],[-46.3343,-22.3876],[-46.36788,-22.39202]]]]}},{"type":"Feature","properties":{"territory_id":"mg-3109105-jardim-nova-suica","name":"Jardim Nova Suica","municipality_id":"mg-3109105","polling_places":1,"approx":true,"official":false,"method":"voronoi-polling-places","whole_municipality":false,"approx_coords_only":false},"geometry":{"type":"MultiPolygon","coordinates":[[[[-46.37909,-22.59188],[-46.3656,-22.602],[-46.2962,-22.5787],[-46.2827,-22.5152],[-46.2603,-22.4779],[-46.26032,-22.47554],[-46.34657,-22.43996],[-46.37909,-22.59188]]]]}}]}