{"type":"FeatureCollection","features":[{"type":"Feature","properties":{"territory_id":"mg-3109709-alto-das-cruzes","name":"Alto das Cruzes","municipality_id":"mg-3109709","polling_places":1,"approx":true,"official":false,"method":"voronoi-polling-places","whole_municipality":false,"approx_coords_only":false},"geometry":{"type":"MultiPolygon","coordinates":[[[[-45.8554,-22.3215],[-45.85166,-22.3508],[-45.83179,-22.37049],[-45.79192,-22.33276],[-45.76649,-22.3053],[-45.7671,-22.29407],[-45.7872,-22.2832],[-45.8418,-22.2841],[-45.8554,-22.3215]]]]}},{"type":"Feature","properties":{"territory_id":"mg-3109709-cachoeirinha","name":"Cachoeirinha","municipality_id":"mg-3109709","polling_places":1,"approx":true,"official":false,"method":"voronoi-polling-places","whole_municipality":false,"approx_coords_only":false},"geometry":{"type":"MultiPolygon","coordinates":[[[[-45.7671,-22.29407],[-45.76649,-22.3053],[-45.71796,-22.37606],[-45.70444,-22.39419],[-45.6792,-22.3747],[-45.6716,-22.3374],[-45.6601,-22.2777],[-45.6934,-22.2799],[-45.7205,-22.3004],[-45.7543,-22.301],[-45.7671,-22.29407]]]]}},{"type":"Feature","properties":{"territory_id":"mg-3109709-centro","name":"Centro","municipality_id":"mg-3109709","polling_places":1,"approx":true,"official":false,"method":"voronoi-polling-places","whole_municipality":false,"approx_coords_only":false},"geometry":{"type":"MultiPolygon","coordinates":[[[[-45.83179,-22.37049],[-45.82863,-22.38046],[-45.77684,-22.35627],[-45.79192,-22.33276],[-45.83179,-22.37049]]]]}},{"type":"Feature","properties":{"territory_id":"mg-3109709-distrito-de-santo-antonio-do-itaim","name":"Distrito de Santo Antonio do Itaim","municipality_id":"mg-3109709","polling_places":1,"approx":true,"official":false,"method":"voronoi-polling-places","whole_municipality":false,"approx_coords_only":false},"geometry":{"type":"MultiPolygon","coordinates":[[[[-45.932,-22.453],[-45.9237,-22.4723],[-45.8859,-22.4672],[-45.8487,-22.4539],[-45.8314,-22.4033],[-45.82228,-22.40264],[-45.82863,-22.38046],[-45.83179,-22.37049],[-45.85166,-22.3508],[-45.8513,-22.3536],[-45.8921,-22.374],[-45.9194,-22.4082],[-45.932,-22.453]]]]}},{"type":"Feature","properties":{"territory_id":"mg-3109709-rosario","name":"Rosario","municipality_id":"mg-3109709","polling_places":1,"approx":true,"official":false,"method":"voronoi-polling-places","whole_municipality":false,"approx_coords_only":false},"geometry":{"type":"MultiPolygon","coordinates":[[[[-45.82863,-22.38046],[-45.82228,-22.40264],[-45.7552,-22.3978],[-45.7222,-22.4079],[-45.70444,-22.39419],[-45.71796,-22.37606],[-45.77684,-22.35627],[-45.82863,-22.38046]]]]}},{"type":"Feature","properties":{"territory_id":"mg-3109709-vista-alegre","name":"Vista Alegre","municipality_id":"mg-3109709","polling_places":1,"approx":true,"official":false,"method":"voronoi-polling-places","whole_municipality":false,"approx_coords_only":false},"geometry":{"type":"MultiPolygon","coordinates":[[[[-45.79192,-22.33276],[-45.77684,-22.35627],[-45.71796,-22.37606],[-45.76649,-22.3053],[-45.79192,-22.33276]]]]}}]}