{"type":"FeatureCollection","features":[{"type":"Feature","properties":{"territory_id":"mg-3109501-centro","name":"Centro","municipality_id":"mg-3109501","polling_places":3,"approx":true,"official":false,"method":"voronoi-polling-places","whole_municipality":false,"approx_coords_only":false},"geometry":{"type":"MultiPolygon","coordinates":[[[[-46.523,-21.5299],[-46.5118,-21.5654],[-46.495,-21.5893],[-46.4545,-21.5529],[-46.4198,-21.5703],[-46.385,-21.5695],[-46.3616,-21.5865],[-46.35377,-21.58384],[-46.3923,-21.47683],[-46.39165,-21.46747],[-46.38458,-21.4373],[-46.38754,-21.43634],[-46.47084,-21.48041],[-46.4691,-21.487],[-46.48486,-21.48783],[-46.51374,-21.50311],[-46.523,-21.5299]]]]}},{"type":"Feature","properties":{"territory_id":"mg-3109501-chapadao","name":"Chapadão","municipality_id":"mg-3109501","polling_places":1,"approx":true,"official":false,"method":"voronoi-polling-places","whole_municipality":false,"approx_coords_only":false},"geometry":{"type":"MultiPolygon","coordinates":[[[[-46.3923,-21.47683],[-46.35377,-21.58384],[-46.3225,-21.5732],[-46.3573,-21.5276],[-46.321,-21.5052],[-46.31683,-21.49863],[-46.35061,-21.44543],[-46.38458,-21.4373],[-46.39165,-21.46747],[-46.3923,-21.47683]]]]}},{"type":"Feature","properties":{"territory_id":"mg-3109501-coelhos","name":"Coelhos","municipality_id":"mg-3109501","polling_places":1,"approx":true,"official":false,"method":"voronoi-polling-places","whole_municipality":false,"approx_coords_only":false},"geometry":{"type":"MultiPolygon","coordinates":[[[[-46.40505,-21.39505],[-46.38754,-21.43634],[-46.38458,-21.4373],[-46.35061,-21.44543],[-46.34035,-21.41388],[-46.3577,-21.378],[-46.40505,-21.39505]]]]}},{"type":"Feature","properties":{"territory_id":"mg-3109501-distrito-de-sao-bartolomeu-de-minas","name":"Distrito de São Bartolomeu de Minas","municipality_id":"mg-3109501","polling_places":1,"approx":true,"official":false,"method":"voronoi-polling-places","whole_municipality":false,"approx_coords_only":false},"geometry":{"type":"MultiPolygon","coordinates":[[[[-46.51374,-21.50311],[-46.48486,-21.48783],[-46.5089,-21.4891],[-46.51374,-21.50311]]],[[[-46.4803,-21.4445],[-46.47084,-21.48041],[-46.38754,-21.43634],[-46.40505,-21.39505],[-46.4124,-21.3977],[-46.4455,-21.3897],[-46.4803,-21.4445]]]]}},{"type":"Feature","properties":{"territory_id":"mg-3109501-distrito-de-serra-dos-lemes","name":"Distrito de Serra dos Lemes","municipality_id":"mg-3109501","polling_places":1,"approx":true,"official":false,"method":"voronoi-polling-places","whole_municipality":false,"approx_coords_only":false},"geometry":{"type":"MultiPolygon","coordinates":[[[[-46.35061,-21.44543],[-46.31683,-21.49863],[-46.2991,-21.4707],[-46.2096,-21.4466],[-46.2404,-21.4217],[-46.2828,-21.4317],[-46.3064,-21.4141],[-46.3388,-21.4171],[-46.34035,-21.41388],[-46.35061,-21.44543]]]]}}]}