{"type":"FeatureCollection","features":[{"type":"Feature","properties":{"territory_id":"mg-3109808-centro","name":"Centro","municipality_id":"mg-3109808","polling_places":2,"approx":true,"official":false,"method":"voronoi-polling-places","whole_municipality":false,"approx_coords_only":false},"geometry":{"type":"MultiPolygon","coordinates":[[[[-49.54631,-18.51243],[-49.50179,-18.51495],[-49.5014,-18.51833],[-49.49336,-18.51403],[-49.49229,-18.5138],[-49.4998,-18.491],[-49.5457,-18.4995],[-49.54631,-18.51243]]]]}},{"type":"Feature","properties":{"territory_id":"mg-3109808-vila-nova","name":"Vila Nova","municipality_id":"mg-3109808","polling_places":2,"approx":true,"official":false,"method":"voronoi-polling-places","whole_municipality":false,"approx_coords_only":false},"geometry":{"type":"MultiPolygon","coordinates":[[[[-49.5476,-18.5396],[-49.5325,-18.5995],[-49.5446,-18.6474],[-49.4029,-18.7005],[-49.387,-18.6908],[-49.3734,-18.6348],[-49.4057,-18.6451],[-49.4862,-18.5323],[-49.49229,-18.5138],[-49.49336,-18.51403],[-49.5014,-18.51833],[-49.50179,-18.51495],[-49.54631,-18.51243],[-49.5476,-18.5396]]]]}}]}