{"type":"FeatureCollection","features":[{"type":"Feature","properties":{"territory_id":"mg-3110004-agua-limpa","name":"Agua Limpa","municipality_id":"mg-3110004","polling_places":1,"approx":true,"official":false,"method":"voronoi-polling-places","whole_municipality":false,"approx_coords_only":false},"geometry":{"type":"MultiPolygon","coordinates":[[[[-43.60427,-19.86852],[-43.57721,-19.92242],[-43.5217,-19.9199],[-43.52341,-19.84223],[-43.59276,-19.84443],[-43.60427,-19.86852]]]]}},{"type":"Feature","properties":{"territory_id":"mg-3110004-antonio-dos-santos","name":"Antonio dos Santos","municipality_id":"mg-3110004","polling_places":1,"approx":true,"official":false,"method":"voronoi-polling-places","whole_municipality":false,"approx_coords_only":false},"geometry":{"type":"MultiPolygon","coordinates":[[[[-43.61247,-19.80787],[-43.59276,-19.84443],[-43.52341,-19.84223],[-43.5236,-19.8338],[-43.5369,-19.7608],[-43.5382,-19.7543],[-43.57207,-19.73201],[-43.61247,-19.80787]]]]}},{"type":"Feature","properties":{"territory_id":"mg-3110004-bonsucesso","name":"Bonsucesso","municipality_id":"mg-3110004","polling_places":1,"approx":true,"official":false,"method":"voronoi-polling-places","whole_municipality":false,"approx_coords_only":false},"geometry":{"type":"MultiPolygon","coordinates":[[[[-43.66945,-19.89306],[-43.66494,-19.89859],[-43.64127,-19.90886],[-43.63578,-19.89848],[-43.66362,-19.88669],[-43.66697,-19.88813],[-43.66945,-19.89306]]]]}},{"type":"Feature","properties":{"territory_id":"mg-3110004-centro","name":"Centro","municipality_id":"mg-3110004","polling_places":3,"approx":true,"official":false,"method":"voronoi-polling-places","whole_municipality":false,"approx_coords_only":false},"geometry":{"type":"MultiPolygon","coordinates":[[[[-43.67651,-19.90112],[-43.67105,-19.90273],[-43.66721,-19.93923],[-43.65212,-19.94905],[-43.64127,-19.90886],[-43.66494,-19.89859],[-43.66945,-19.89306],[-43.67204,-19.89347],[-43.67352,-19.89725],[-43.67651,-19.90112]]]]}},{"type":"Feature","properties":{"territory_id":"mg-3110004-chapada","name":"Chapada","municipality_id":"mg-3110004","polling_places":1,"approx":true,"official":false,"method":"voronoi-polling-places","whole_municipality":false,"approx_coords_only":false},"geometry":{"type":"MultiPolygon","coordinates":[[[[-43.7486,-19.8971],[-43.74765,-19.89968],[-43.71232,-19.91458],[-43.67651,-19.90112],[-43.67352,-19.89725],[-43.67204,-19.89347],[-43.73072,-19.86884],[-43.7486,-19.8971]]]]}},{"type":"Feature","properties":{"territory_id":"mg-3110004-conjunto-emboabas-i-e-ii","name":"Conjunto Emboabas I e Ii","municipality_id":"mg-3110004","polling_places":1,"approx":true,"official":false,"method":"voronoi-polling-places","whole_municipality":false,"approx_coords_only":false},"geometry":{"type":"MultiPolygon","coordinates":[[[[-43.71232,-19.91458],[-43.66721,-19.93923],[-43.67105,-19.90273],[-43.67651,-19.90112],[-43.71232,-19.91458]]]]}},{"type":"Feature","properties":{"territory_id":"mg-3110004-jose-brandao","name":"Jose Brandao","municipality_id":"mg-3110004","polling_places":4,"approx":true,"official":false,"method":"voronoi-polling-places","whole_municipality":false,"approx_coords_only":false},"geometry":{"type":"MultiPolygon","coordinates":[[[[-43.73072,-19.86884],[-43.67204,-19.89347],[-43.66945,-19.89306],[-43.66697,-19.88813],[-43.66362,-19.88669],[-43.66342,-19.88068],[-43.66437,-19.87759],[-43.66447,-19.87756],[-43.666,-19.87666],[-43.68183,-19.87376],[-43.72673,-19.86253],[-43.73072,-19.86884]]]]}},{"type":"Feature","properties":{"territory_id":"mg-3110004-morgan","name":"Morgan","municipality_id":"mg-3110004","polling_places":1,"approx":true,"official":false,"method":"voronoi-polling-places","whole_municipality":false,"approx_coords_only":false},"geometry":{"type":"MultiPolygon","coordinates":[[[[-43.66651,-19.85309],[-43.666,-19.87666],[-43.66447,-19.87756],[-43.66437,-19.87759],[-43.64575,-19.86481],[-43.66651,-19.85309]]]]}},{"type":"Feature","properties":{"territory_id":"mg-3110004-morro-vermelho","name":"Morro Vermelho","municipality_id":"mg-3110004","polling_places":1,"approx":true,"official":false,"method":"voronoi-polling-places","whole_municipality":false,"approx_coords_only":false},"geometry":{"type":"MultiPolygon","coordinates":[[[[-43.74765,-19.89968],[-43.723,-19.9667],[-43.7343,-20.0013],[-43.7272,-20.0568],[-43.69,-20.0756],[-43.6951,-20.0616],[-43.6623,-19.9927],[-43.64291,-19.97154],[-43.65212,-19.94905],[-43.66721,-19.93923],[-43.71232,-19.91458],[-43.74765,-19.89968]]]]}},{"type":"Feature","properties":{"territory_id":"mg-3110004-pedra-branca","name":"Pedra Branca","municipality_id":"mg-3110004","polling_places":2,"approx":true,"official":false,"method":"voronoi-polling-places","whole_municipality":false,"approx_coords_only":false},"geometry":{"type":"MultiPolygon","coordinates":[[[[-43.66437,-19.87759],[-43.66342,-19.88068],[-43.66362,-19.88669],[-43.63578,-19.89848],[-43.6248,-19.88489],[-43.61459,-19.87335],[-43.64575,-19.86481],[-43.66437,-19.87759]]]]}},{"type":"Feature","properties":{"territory_id":"mg-3110004-penedia","name":"Penedia","municipality_id":"mg-3110004","polling_places":1,"approx":true,"official":false,"method":"voronoi-polling-places","whole_municipality":false,"approx_coords_only":false},"geometry":{"type":"MultiPolygon","coordinates":[[[[-43.70262,-19.82776],[-43.66651,-19.85309],[-43.64575,-19.86481],[-43.61459,-19.87335],[-43.60427,-19.86852],[-43.59276,-19.84443],[-43.61247,-19.80787],[-43.65033,-19.80055],[-43.70262,-19.82776]]]]}},{"type":"Feature","properties":{"territory_id":"mg-3110004-posses","name":"Posses","municipality_id":"mg-3110004","polling_places":1,"approx":true,"official":false,"method":"voronoi-polling-places","whole_municipality":false,"approx_coords_only":false},"geometry":{"type":"MultiPolygon","coordinates":[[[[-43.7084,-19.7466],[-43.6887,-19.7663],[-43.7009,-19.8217],[-43.70502,-19.82822],[-43.70262,-19.82776],[-43.65033,-19.80055],[-43.66968,-19.73035],[-43.7084,-19.7466]]]]}},{"type":"Feature","properties":{"territory_id":"mg-3110004-rancho-novo","name":"Rancho Novo","municipality_id":"mg-3110004","polling_places":1,"approx":true,"official":false,"method":"voronoi-polling-places","whole_municipality":false,"approx_coords_only":false},"geometry":{"type":"MultiPolygon","coordinates":[[[[-43.65212,-19.94905],[-43.64291,-19.97154],[-43.6392,-19.9675],[-43.6029,-19.951],[-43.5789,-19.9225],[-43.57721,-19.92242],[-43.60427,-19.86852],[-43.61459,-19.87335],[-43.6248,-19.88489],[-43.63578,-19.89848],[-43.64127,-19.90886],[-43.65212,-19.94905]]]]}},{"type":"Feature","properties":{"territory_id":"mg-3110004-rocas-novas","name":"Rocas Novas","municipality_id":"mg-3110004","polling_places":1,"approx":true,"official":false,"method":"voronoi-polling-places","whole_municipality":false,"approx_coords_only":false},"geometry":{"type":"MultiPolygon","coordinates":[[[[-43.66968,-19.73035],[-43.65033,-19.80055],[-43.61247,-19.80787],[-43.57207,-19.73201],[-43.6289,-19.6946],[-43.6331,-19.715],[-43.66968,-19.73035]]]]}},{"type":"Feature","properties":{"territory_id":"mg-3110004-vila-das-flores","name":"Vila das Flores","municipality_id":"mg-3110004","polling_places":1,"approx":true,"official":false,"method":"voronoi-polling-places","whole_municipality":false,"approx_coords_only":false},"geometry":{"type":"MultiPolygon","coordinates":[[[[-43.72673,-19.86253],[-43.68183,-19.87376],[-43.666,-19.87666],[-43.66651,-19.85309],[-43.70262,-19.82776],[-43.70502,-19.82822],[-43.72673,-19.86253]]]]}}]}