{"type":"FeatureCollection","features":[{"type":"Feature","properties":{"territory_id":"mg-3110103-centro","name":"Centro","municipality_id":"mg-3110103","polling_places":10,"approx":true,"official":false,"method":"voronoi-polling-places","whole_municipality":false,"approx_coords_only":false},"geometry":{"type":"MultiPolygon","coordinates":[[[[-41.9682,-20.7326],[-41.9268,-20.7437],[-41.9282,-20.794],[-41.905,-20.7974],[-41.88336,-20.7749],[-41.88771,-20.67282],[-41.9111,-20.6612],[-41.9576,-20.6951],[-41.9682,-20.7326]]]]}},{"type":"Feature","properties":{"territory_id":"mg-3110103-dores-de-minas","name":"Dores de Minas","municipality_id":"mg-3110103","polling_places":1,"approx":true,"official":false,"method":"voronoi-polling-places","whole_municipality":false,"approx_coords_only":false},"geometry":{"type":"MultiPolygon","coordinates":[[[[-41.88771,-20.67282],[-41.88336,-20.7749],[-41.8747,-20.7659],[-41.8507,-20.6912],[-41.88771,-20.67282]]]]}}]}