{"type":"FeatureCollection","features":[{"type":"Feature","properties":{"territory_id":"mg-3110905-centro","name":"Centro","municipality_id":"mg-3110905","polling_places":4,"approx":true,"official":false,"method":"voronoi-polling-places","whole_municipality":false,"approx_coords_only":false},"geometry":{"type":"MultiPolygon","coordinates":[[[[-45.49212,-21.88391],[-45.4879,-21.9039],[-45.4362,-21.9774],[-45.3544,-21.9444],[-45.3408,-21.9303],[-45.3463,-21.8722],[-45.3637,-21.8452],[-45.3529,-21.8121],[-45.3282,-21.7966],[-45.3457,-21.767],[-45.34288,-21.74178],[-45.39902,-21.81187],[-45.42731,-21.83711],[-45.49212,-21.88391]]]]}},{"type":"Feature","properties":{"territory_id":"mg-3110905-cohab","name":"Cohab","municipality_id":"mg-3110905","polling_places":1,"approx":true,"official":false,"method":"voronoi-polling-places","whole_municipality":false,"approx_coords_only":false},"geometry":{"type":"MultiPolygon","coordinates":[[[[-45.5014,-21.8399],[-45.49212,-21.88391],[-45.42731,-21.83711],[-45.39902,-21.81187],[-45.34288,-21.74178],[-45.3399,-21.7151],[-45.3762,-21.6757],[-45.4037,-21.6826],[-45.3794,-21.7114],[-45.3928,-21.7447],[-45.4566,-21.7942],[-45.4933,-21.8131],[-45.5014,-21.8399]]]]}}]}