{"type":"FeatureCollection","features":[{"type":"Feature","properties":{"territory_id":"mg-3110202-centro","name":"Centro","municipality_id":"mg-3110202","polling_places":2,"approx":true,"official":false,"method":"voronoi-polling-places","whole_municipality":false,"approx_coords_only":false},"geometry":{"type":"MultiPolygon","coordinates":[[[[-42.83,-20.8089],[-42.7838,-20.8252],[-42.7684,-20.8139],[-42.75318,-20.81436],[-42.75297,-20.81015],[-42.78071,-20.75663],[-42.7918,-20.7613],[-42.8258,-20.7563],[-42.83,-20.8089]]]]}},{"type":"Feature","properties":{"territory_id":"mg-3110202-distrito","name":"Distrito","municipality_id":"mg-3110202","polling_places":1,"approx":true,"official":false,"method":"voronoi-polling-places","whole_municipality":false,"approx_coords_only":false},"geometry":{"type":"MultiPolygon","coordinates":[[[[-42.78071,-20.75663],[-42.75297,-20.81015],[-42.72404,-20.77087],[-42.7294,-20.7499],[-42.7536,-20.7452],[-42.78071,-20.75663]]]]}},{"type":"Feature","properties":{"territory_id":"mg-3110202-zona-rural","name":"Zona Rural","municipality_id":"mg-3110202","polling_places":1,"approx":true,"official":false,"method":"voronoi-polling-places","whole_municipality":false,"approx_coords_only":false},"geometry":{"type":"MultiPolygon","coordinates":[[[[-42.75318,-20.81436],[-42.7126,-20.8156],[-42.72404,-20.77087],[-42.75297,-20.81015],[-42.75318,-20.81436]]]]}}]}