{"type":"FeatureCollection","features":[{"type":"Feature","properties":{"territory_id":"mg-3110400-centro","name":"Centro","municipality_id":"mg-3110400","polling_places":2,"approx":true,"official":false,"method":"voronoi-polling-places","whole_municipality":false,"approx_coords_only":false},"geometry":{"type":"MultiPolygon","coordinates":[[[[-45.20574,-20.60495],[-45.18521,-20.65708],[-45.18108,-20.6678],[-45.1467,-20.6683],[-45.14621,-20.68008],[-45.13246,-20.6653],[-45.14536,-20.61839],[-45.14954,-20.60163],[-45.18962,-20.59137],[-45.20574,-20.60495]]]]}},{"type":"Feature","properties":{"territory_id":"mg-3110400-povoado-de-borges","name":"Povoado de Borges","municipality_id":"mg-3110400","polling_places":1,"approx":true,"official":false,"method":"voronoi-polling-places","whole_municipality":false,"approx_coords_only":false},"geometry":{"type":"MultiPolygon","coordinates":[[[[-45.11138,-20.60446],[-45.1108,-20.65158],[-45.05171,-20.65518],[-45.0462,-20.6329],[-45.07177,-20.59736],[-45.11138,-20.60446]]]]}},{"type":"Feature","properties":{"territory_id":"mg-3110400-povoado-de-cachoeira","name":"Povoado de Cachoeira","municipality_id":"mg-3110400","polling_places":1,"approx":true,"official":false,"method":"voronoi-polling-places","whole_municipality":false,"approx_coords_only":false},"geometry":{"type":"MultiPolygon","coordinates":[[[[-45.14621,-20.68008],[-45.1454,-20.6996],[-45.1048,-20.7165],[-45.0852,-20.7443],[-45.0614,-20.6944],[-45.05171,-20.65518],[-45.1108,-20.65158],[-45.13246,-20.6653],[-45.14621,-20.68008]]]]}},{"type":"Feature","properties":{"territory_id":"mg-3110400-povoado-de-camacho-de-cima","name":"Povoado de Camacho de Cima","municipality_id":"mg-3110400","polling_places":1,"approx":true,"official":false,"method":"voronoi-polling-places","whole_municipality":false,"approx_coords_only":false},"geometry":{"type":"MultiPolygon","coordinates":[[[[-45.14954,-20.60163],[-45.14536,-20.61839],[-45.13246,-20.6653],[-45.1108,-20.65158],[-45.11138,-20.60446],[-45.12088,-20.59592],[-45.14954,-20.60163]]]]}},{"type":"Feature","properties":{"territory_id":"mg-3110400-povoado-de-curral","name":"Povoado de Curral","municipality_id":"mg-3110400","polling_places":1,"approx":true,"official":false,"method":"voronoi-polling-places","whole_municipality":false,"approx_coords_only":false},"geometry":{"type":"MultiPolygon","coordinates":[[[[-45.18962,-20.59137],[-45.14954,-20.60163],[-45.12088,-20.59592],[-45.11784,-20.56481],[-45.1249,-20.56],[-45.1817,-20.5847],[-45.18962,-20.59137]]]]}},{"type":"Feature","properties":{"territory_id":"mg-3110400-povoado-de-garcias","name":"Povoado de Garcias","municipality_id":"mg-3110400","polling_places":1,"approx":true,"official":false,"method":"voronoi-polling-places","whole_municipality":false,"approx_coords_only":false},"geometry":{"type":"MultiPolygon","coordinates":[[[[-45.2603,-20.6509],[-45.2226,-20.6672],[-45.18108,-20.6678],[-45.18521,-20.65708],[-45.20574,-20.60495],[-45.2603,-20.6509]]]]}},{"type":"Feature","properties":{"territory_id":"mg-3110400-povoado-de-ponte-da-mata","name":"Povoado de Ponte da Mata","municipality_id":"mg-3110400","polling_places":1,"approx":true,"official":false,"method":"voronoi-polling-places","whole_municipality":false,"approx_coords_only":false},"geometry":{"type":"MultiPolygon","coordinates":[[[[-45.12088,-20.59592],[-45.11138,-20.60446],[-45.07177,-20.59736],[-45.0734,-20.5951],[-45.11784,-20.56481],[-45.12088,-20.59592]]]]}}]}