{"type":"FeatureCollection","features":[{"type":"Feature","properties":{"territory_id":"mg-3110806-centro","name":"Centro","municipality_id":"mg-3110806","polling_places":5,"approx":true,"official":false,"method":"voronoi-polling-places","whole_municipality":true,"approx_coords_only":false},"geometry":{"type":"MultiPolygon","coordinates":[[[[-41.657,-18.1406],[-41.6816,-18.1896],[-41.7353,-18.2023],[-41.7486,-18.1773],[-41.7835,-18.2396],[-41.8449,-18.2503],[-41.8333,-18.2806],[-41.8792,-18.3169],[-41.8751,-18.3525],[-41.8041,-18.3702],[-41.7961,-18.41],[-41.7558,-18.4079],[-41.747,-18.3631],[-41.7237,-18.3471],[-41.6908,-18.3567],[-41.647,-18.3008],[-41.5794,-18.2754],[-41.5834,-18.2598],[-41.5978,-18.2328],[-41.6429,-18.2014],[-41.657,-18.1406]]]]}}]}