{"type":"FeatureCollection","features":[{"type":"Feature","properties":{"territory_id":"mg-3110301-centro","name":"Centro","municipality_id":"mg-3110301","polling_places":3,"approx":true,"official":false,"method":"voronoi-polling-places","whole_municipality":false,"approx_coords_only":false},"geometry":{"type":"MultiPolygon","coordinates":[[[[-46.40993,-21.9144],[-46.39568,-21.96733],[-46.38737,-22.00456],[-46.3416,-21.9481],[-46.32327,-21.94609],[-46.33464,-21.91013],[-46.37644,-21.91898],[-46.38368,-21.92093],[-46.38652,-21.92109],[-46.40993,-21.9144]]]]}},{"type":"Feature","properties":{"territory_id":"mg-3110301-laranjeiras-de-caldas","name":"Laranjeiras de Caldas","municipality_id":"mg-3110301","polling_places":1,"approx":true,"official":false,"method":"voronoi-polling-places","whole_municipality":false,"approx_coords_only":false},"geometry":{"type":"MultiPolygon","coordinates":[[[[-46.5277,-21.8756],[-46.52587,-21.90546],[-46.42559,-21.87942],[-46.42277,-21.87729],[-46.43035,-21.79749],[-46.4652,-21.806],[-46.4909,-21.8477],[-46.5277,-21.8756]]]]}},{"type":"Feature","properties":{"territory_id":"mg-3110301-pocinhos-do-rio-verde","name":"Pocinhos do Rio Verde","municipality_id":"mg-3110301","polling_places":1,"approx":true,"official":false,"method":"voronoi-polling-places","whole_municipality":false,"approx_coords_only":false},"geometry":{"type":"MultiPolygon","coordinates":[[[[-46.5653,-21.9333],[-46.5148,-21.9654],[-46.5003,-22.0088],[-46.4691,-22.0329],[-46.4363,-22.0374],[-46.3947,-22.0136],[-46.38737,-22.00456],[-46.39568,-21.96733],[-46.40993,-21.9144],[-46.41059,-21.91285],[-46.42559,-21.87942],[-46.52587,-21.90546],[-46.5247,-21.9246],[-46.5653,-21.9333]]]]}},{"type":"Feature","properties":{"territory_id":"mg-3110301-santa-cruz","name":"Santa Cruz","municipality_id":"mg-3110301","polling_places":2,"approx":true,"official":false,"method":"voronoi-polling-places","whole_municipality":false,"approx_coords_only":false},"geometry":{"type":"MultiPolygon","coordinates":[[[[-46.42559,-21.87942],[-46.41059,-21.91285],[-46.40993,-21.9144],[-46.38652,-21.92109],[-46.38368,-21.92093],[-46.37644,-21.91898],[-46.33464,-21.91013],[-46.3457,-21.86184],[-46.42277,-21.87729],[-46.42559,-21.87942]]]]}},{"type":"Feature","properties":{"territory_id":"mg-3110301-santana-de-caldas","name":"Santana de Caldas","municipality_id":"mg-3110301","polling_places":1,"approx":true,"official":false,"method":"voronoi-polling-places","whole_municipality":false,"approx_coords_only":false},"geometry":{"type":"MultiPolygon","coordinates":[[[[-46.43035,-21.79749],[-46.42277,-21.87729],[-46.3457,-21.86184],[-46.33079,-21.83548],[-46.33202,-21.80639],[-46.3446,-21.8051],[-46.3966,-21.7597],[-46.3986,-21.7591],[-46.4222,-21.7955],[-46.43035,-21.79749]]]]}},{"type":"Feature","properties":{"territory_id":"mg-3110301-sao-pedro-de-caldas","name":"São Pedro de Caldas","municipality_id":"mg-3110301","polling_places":1,"approx":true,"official":false,"method":"voronoi-polling-places","whole_municipality":false,"approx_coords_only":false},"geometry":{"type":"MultiPolygon","coordinates":[[[[-46.33202,-21.80639],[-46.33079,-21.83548],[-46.23035,-21.87252],[-46.19218,-21.82292],[-46.212,-21.7917],[-46.2882,-21.7686],[-46.3149,-21.7757],[-46.3066,-21.809],[-46.33202,-21.80639]]]]}},{"type":"Feature","properties":{"territory_id":"mg-3110301-zona-rural","name":"Zona Rural","municipality_id":"mg-3110301","polling_places":2,"approx":true,"official":false,"method":"voronoi-polling-places","whole_municipality":false,"approx_coords_only":false},"geometry":{"type":"MultiPolygon","coordinates":[[[[-46.3457,-21.86184],[-46.33464,-21.91013],[-46.32327,-21.94609],[-46.2676,-21.94],[-46.2569,-21.9168],[-46.2109,-21.9125],[-46.1395,-21.8919],[-46.1301,-21.8743],[-46.1484,-21.8703],[-46.164,-21.8268],[-46.1875,-21.8303],[-46.19218,-21.82292],[-46.23035,-21.87252],[-46.33079,-21.83548],[-46.3457,-21.86184]]]]}}]}