{"type":"FeatureCollection","features":[{"type":"Feature","properties":{"territory_id":"mg-3110608-centro","name":"Centro","municipality_id":"mg-3110608","polling_places":2,"approx":true,"official":false,"method":"voronoi-polling-places","whole_municipality":false,"approx_coords_only":false},"geometry":{"type":"MultiPolygon","coordinates":[[[[-46.07593,-22.60989],[-46.07439,-22.61498],[-46.06222,-22.6145],[-46.05914,-22.61328],[-46.0445,-22.62401],[-46.05402,-22.60632],[-46.0553,-22.60576],[-46.05946,-22.60931],[-46.07593,-22.60989]]]]}},{"type":"Feature","properties":{"territory_id":"mg-3110608-colinas-do-itaim","name":"Colinas do Itaim","municipality_id":"mg-3110608","polling_places":1,"approx":true,"official":false,"method":"voronoi-polling-places","whole_municipality":false,"approx_coords_only":false},"geometry":{"type":"MultiPolygon","coordinates":[[[[-46.05402,-22.60632],[-46.0445,-22.62401],[-46.03648,-22.63502],[-46.0325,-22.5978],[-45.99918,-22.57305],[-45.99936,-22.573],[-46.00691,-22.57363],[-46.05402,-22.60632]]]]}},{"type":"Feature","properties":{"territory_id":"mg-3110608-congonhal","name":"Congonhal","municipality_id":"mg-3110608","polling_places":1,"approx":true,"official":false,"method":"voronoi-polling-places","whole_municipality":false,"approx_coords_only":false},"geometry":{"type":"MultiPolygon","coordinates":[[[[-46.05544,-22.51765],[-45.99936,-22.573],[-45.99918,-22.57305],[-45.9905,-22.5666],[-45.9484,-22.5521],[-45.9562,-22.5353],[-45.9934,-22.5488],[-46.0044,-22.5196],[-46.05544,-22.51765]]]]}},{"type":"Feature","properties":{"territory_id":"mg-3110608-jardim-sao-benedito","name":"Jardim São Benedito","municipality_id":"mg-3110608","polling_places":2,"approx":true,"official":false,"method":"voronoi-polling-places","whole_municipality":false,"approx_coords_only":false},"geometry":{"type":"MultiPolygon","coordinates":[[[[-46.07439,-22.61498],[-46.06581,-22.68734],[-46.0539,-22.6874],[-46.0377,-22.6464],[-46.03648,-22.63502],[-46.0445,-22.62401],[-46.05914,-22.61328],[-46.06222,-22.6145],[-46.07439,-22.61498]]]]}},{"type":"Feature","properties":{"territory_id":"mg-3110608-lopes","name":"Lopes","municipality_id":"mg-3110608","polling_places":1,"approx":true,"official":false,"method":"voronoi-polling-places","whole_municipality":false,"approx_coords_only":false},"geometry":{"type":"MultiPolygon","coordinates":[[[[-46.1578,-22.5465],[-46.14222,-22.57422],[-46.10288,-22.5681],[-46.0674,-22.51502],[-46.1157,-22.4941],[-46.1478,-22.5185],[-46.1578,-22.5465]]]]}},{"type":"Feature","properties":{"territory_id":"mg-3110608-rio-do-peixe","name":"Rio do Peixe","municipality_id":"mg-3110608","polling_places":1,"approx":true,"official":false,"method":"voronoi-polling-places","whole_municipality":false,"approx_coords_only":false},"geometry":{"type":"MultiPolygon","coordinates":[[[[-46.10288,-22.5681],[-46.09609,-22.57131],[-46.0767,-22.57424],[-46.00691,-22.57363],[-45.99936,-22.573],[-46.05544,-22.51765],[-46.0619,-22.5174],[-46.0674,-22.51502],[-46.10288,-22.5681]]]]}},{"type":"Feature","properties":{"territory_id":"mg-3110608-santa-edwiges","name":"Santa Edwiges","municipality_id":"mg-3110608","polling_places":1,"approx":true,"official":false,"method":"voronoi-polling-places","whole_municipality":false,"approx_coords_only":false},"geometry":{"type":"MultiPolygon","coordinates":[[[[-46.0767,-22.57424],[-46.0553,-22.60576],[-46.05402,-22.60632],[-46.00691,-22.57363],[-46.0767,-22.57424]]]]}},{"type":"Feature","properties":{"territory_id":"mg-3110608-vazes","name":"Vazes","municipality_id":"mg-3110608","polling_places":1,"approx":true,"official":false,"method":"voronoi-polling-places","whole_municipality":false,"approx_coords_only":false},"geometry":{"type":"MultiPolygon","coordinates":[[[[-46.1529,-22.6077],[-46.1331,-22.6267],[-46.1244,-22.6698],[-46.091,-22.6872],[-46.06581,-22.68734],[-46.07439,-22.61498],[-46.07593,-22.60989],[-46.09609,-22.57131],[-46.10288,-22.5681],[-46.14222,-22.57422],[-46.137,-22.5835],[-46.1529,-22.6077]]]]}},{"type":"Feature","properties":{"territory_id":"mg-3110608-vila-santo-antonio","name":"Vila Santo Antonio","municipality_id":"mg-3110608","polling_places":1,"approx":true,"official":false,"method":"voronoi-polling-places","whole_municipality":false,"approx_coords_only":false},"geometry":{"type":"MultiPolygon","coordinates":[[[[-46.09609,-22.57131],[-46.07593,-22.60989],[-46.05946,-22.60931],[-46.0553,-22.60576],[-46.0767,-22.57424],[-46.09609,-22.57131]]]]}}]}