{"type":"FeatureCollection","features":[{"type":"Feature","properties":{"territory_id":"mg-3110707-centro","name":"Centro","municipality_id":"mg-3110707","polling_places":2,"approx":true,"official":false,"method":"voronoi-polling-places","whole_municipality":false,"approx_coords_only":false},"geometry":{"type":"MultiPolygon","coordinates":[[[[-45.33276,-21.79946],[-45.30538,-21.84968],[-45.30102,-21.86415],[-45.28532,-21.85029],[-45.2712,-21.84174],[-45.28218,-21.8137],[-45.2968,-21.8188],[-45.3282,-21.7966],[-45.33276,-21.79946]]]]}},{"type":"Feature","properties":{"territory_id":"mg-3110707-congonhal-rural","name":"Congonhal Rural","municipality_id":"mg-3110707","polling_places":1,"approx":true,"official":false,"method":"voronoi-polling-places","whole_municipality":false,"approx_coords_only":false},"geometry":{"type":"MultiPolygon","coordinates":[[[[-45.28218,-21.8137],[-45.2712,-21.84174],[-45.21672,-21.91043],[-45.2157,-21.9097],[-45.1417,-21.8677],[-45.1898,-21.8162],[-45.2085,-21.7754],[-45.2409,-21.7993],[-45.28218,-21.8137]]]]}},{"type":"Feature","properties":{"territory_id":"mg-3110707-marimbeiro","name":"Marimbeiro","municipality_id":"mg-3110707","polling_places":1,"approx":true,"official":false,"method":"voronoi-polling-places","whole_municipality":false,"approx_coords_only":false},"geometry":{"type":"MultiPolygon","coordinates":[[[[-45.3637,-21.8452],[-45.3463,-21.8722],[-45.3408,-21.9303],[-45.3544,-21.9444],[-45.31215,-21.92606],[-45.30102,-21.86415],[-45.30538,-21.84968],[-45.33276,-21.79946],[-45.3529,-21.8121],[-45.3637,-21.8452]]]]}},{"type":"Feature","properties":{"territory_id":"mg-3110707-regina-coeli","name":"Regina Coeli","municipality_id":"mg-3110707","polling_places":1,"approx":true,"official":false,"method":"voronoi-polling-places","whole_municipality":false,"approx_coords_only":false},"geometry":{"type":"MultiPolygon","coordinates":[[[[-45.31215,-21.92606],[-45.2717,-21.9085],[-45.2704,-21.9487],[-45.21672,-21.91043],[-45.2712,-21.84174],[-45.28532,-21.85029],[-45.30102,-21.86415],[-45.31215,-21.92606]]]]}}]}