{"type":"FeatureCollection","features":[{"type":"Feature","properties":{"territory_id":"mg-3110509-centro","name":"Centro","municipality_id":"mg-3110509","polling_places":1,"approx":true,"official":false,"method":"voronoi-polling-places","whole_municipality":false,"approx_coords_only":false},"geometry":{"type":"MultiPolygon","coordinates":[[[[-46.229,-22.8066],[-46.18602,-22.8287],[-46.10053,-22.7793],[-46.1694,-22.72282],[-46.1828,-22.7386],[-46.229,-22.8066]]]]}},{"type":"Feature","properties":{"territory_id":"mg-3110509-colegio","name":"Colegio","municipality_id":"mg-3110509","polling_places":1,"approx":true,"official":false,"method":"voronoi-polling-places","whole_municipality":false,"approx_coords_only":false},"geometry":{"type":"MultiPolygon","coordinates":[[[[-46.1694,-22.72282],[-46.10053,-22.7793],[-46.0696,-22.7629],[-46.10689,-22.67892],[-46.1244,-22.6698],[-46.1694,-22.72282]]]]}},{"type":"Feature","properties":{"territory_id":"mg-3110509-distrito-monte-verde","name":"Distrito Monte Verde","municipality_id":"mg-3110509","polling_places":1,"approx":true,"official":false,"method":"voronoi-polling-places","whole_municipality":false,"approx_coords_only":false},"geometry":{"type":"MultiPolygon","coordinates":[[[[-46.08558,-22.89496],[-46.0507,-22.897],[-46.0085,-22.8895],[-45.9565,-22.8498],[-45.96247,-22.77665],[-46.03184,-22.78109],[-46.08558,-22.89496]]]]}},{"type":"Feature","properties":{"territory_id":"mg-3110509-distrito-sao-matheus-de-minas","name":"Distrito Sao Matheus de Minas","municipality_id":"mg-3110509","polling_places":2,"approx":true,"official":false,"method":"voronoi-polling-places","whole_municipality":false,"approx_coords_only":false},"geometry":{"type":"MultiPolygon","coordinates":[[[[-46.10689,-22.67892],[-46.0696,-22.7629],[-46.03184,-22.78109],[-45.96247,-22.77665],[-45.9649,-22.7469],[-45.9213,-22.7205],[-45.9491,-22.6943],[-45.959,-22.6908],[-46.0139,-22.6996],[-46.0539,-22.6874],[-46.091,-22.6872],[-46.10689,-22.67892]]]]}},{"type":"Feature","properties":{"territory_id":"mg-3110509-jaguari-do-meio","name":"Jaguari do Meio","municipality_id":"mg-3110509","polling_places":1,"approx":true,"official":false,"method":"voronoi-polling-places","whole_municipality":false,"approx_coords_only":false},"geometry":{"type":"MultiPolygon","coordinates":[[[[-46.1922,-22.8652],[-46.1413,-22.8681],[-46.1391,-22.9228],[-46.0952,-22.8944],[-46.08558,-22.89496],[-46.03184,-22.78109],[-46.0696,-22.7629],[-46.10053,-22.7793],[-46.18602,-22.8287],[-46.1685,-22.8377],[-46.1922,-22.8652]]]]}}]}