{"type":"FeatureCollection","features":[{"type":"Feature","properties":{"territory_id":"mg-3111150-centro","name":"Centro","municipality_id":"mg-3111150","polling_places":1,"approx":true,"official":false,"method":"voronoi-polling-places","whole_municipality":false,"approx_coords_only":false},"geometry":{"type":"MultiPolygon","coordinates":[[[[-44.81246,-16.62603],[-44.79983,-16.64372],[-44.7871,-16.6377],[-44.75746,-16.6085],[-44.75325,-16.55594],[-44.81246,-16.50411],[-44.81246,-16.541],[-44.7991,-16.5309],[-44.7983,-16.5896],[-44.81246,-16.59927],[-44.81246,-16.62603]]]]}},{"type":"Feature","properties":{"territory_id":"mg-3111150-zona-rural","name":"Zona Rural","municipality_id":"mg-3111150","polling_places":6,"approx":true,"official":false,"method":"voronoi-polling-places","whole_municipality":false,"approx_coords_only":false},"geometry":{"type":"MultiPolygon","coordinates":[[[[-44.9721,-16.5486],[-44.9425,-16.5771],[-44.8907,-16.6001],[-44.81246,-16.541],[-44.81246,-16.50411],[-44.75325,-16.55594],[-44.75746,-16.6085],[-44.7128,-16.5645],[-44.6778,-16.5455],[-44.6649,-16.5255],[-44.6091,-16.5227],[-44.5868,-16.4953],[-44.7042,-16.3812],[-44.857,-16.4809],[-44.9293,-16.5328],[-44.9721,-16.5486]]],[[[-44.8273,-16.6094],[-44.8112,-16.6491],[-44.79983,-16.64372],[-44.81246,-16.62603],[-44.81246,-16.59927],[-44.8273,-16.6094]]]]}}]}