{"type":"FeatureCollection","features":[{"type":"Feature","properties":{"territory_id":"mg-3111002-centro","name":"Centro","municipality_id":"mg-3111002","polling_places":6,"approx":true,"official":false,"method":"voronoi-polling-places","whole_municipality":false,"approx_coords_only":false},"geometry":{"type":"MultiPolygon","coordinates":[[[[-46.2777,-21.77178],[-46.212,-21.7917],[-46.1875,-21.8303],[-46.18174,-21.82944],[-46.18926,-21.70535],[-46.19018,-21.5843],[-46.19037,-21.58433],[-46.24964,-21.70244],[-46.25036,-21.70324],[-46.25053,-21.70992],[-46.2777,-21.77178]]]]}},{"type":"Feature","properties":{"territory_id":"mg-3111002-chacara-irmaos-rugani","name":"Chacara Irmaos Rugani","municipality_id":"mg-3111002","polling_places":1,"approx":true,"official":false,"method":"voronoi-polling-places","whole_municipality":false,"approx_coords_only":false},"geometry":{"type":"MultiPolygon","coordinates":[[[[-46.3966,-21.7597],[-46.3446,-21.8051],[-46.30877,-21.80878],[-46.30733,-21.80607],[-46.3149,-21.7757],[-46.2882,-21.7686],[-46.28758,-21.76879],[-46.25373,-21.70488],[-46.36508,-21.70326],[-46.329,-21.7444],[-46.3966,-21.7597]]]]}},{"type":"Feature","properties":{"territory_id":"mg-3111002-colinas","name":"Colinas","municipality_id":"mg-3111002","polling_places":1,"approx":true,"official":false,"method":"voronoi-polling-places","whole_municipality":false,"approx_coords_only":false},"geometry":{"type":"MultiPolygon","coordinates":[[[[-46.3739,-21.6932],[-46.36508,-21.70326],[-46.25373,-21.70488],[-46.25036,-21.70324],[-46.24964,-21.70244],[-46.19037,-21.58433],[-46.2299,-21.5908],[-46.2527,-21.5542],[-46.2956,-21.5718],[-46.2782,-21.6092],[-46.3132,-21.6607],[-46.3739,-21.6932]]]]}},{"type":"Feature","properties":{"territory_id":"mg-3111002-posses","name":"Posses","municipality_id":"mg-3111002","polling_places":1,"approx":true,"official":false,"method":"voronoi-polling-places","whole_municipality":false,"approx_coords_only":false},"geometry":{"type":"MultiPolygon","coordinates":[[[[-46.19018,-21.5843],[-46.18926,-21.70535],[-46.18174,-21.82944],[-46.164,-21.8268],[-46.1484,-21.8703],[-46.1301,-21.8743],[-46.0916,-21.8765],[-46.0805,-21.8582],[-46.1249,-21.8214],[-46.1438,-21.7679],[-46.102,-21.7421],[-46.1078,-21.7051],[-46.084,-21.6525],[-46.1256,-21.6397],[-46.1743,-21.5817],[-46.19018,-21.5843]]]]}},{"type":"Feature","properties":{"territory_id":"mg-3111002-vargem-alegre","name":"Vargem Alegre","municipality_id":"mg-3111002","polling_places":1,"approx":true,"official":false,"method":"voronoi-polling-places","whole_municipality":false,"approx_coords_only":false},"geometry":{"type":"MultiPolygon","coordinates":[[[[-46.30877,-21.80878],[-46.3066,-21.809],[-46.30733,-21.80607],[-46.30877,-21.80878]]],[[[-46.28758,-21.76879],[-46.2777,-21.77178],[-46.25053,-21.70992],[-46.25036,-21.70324],[-46.25373,-21.70488],[-46.28758,-21.76879]]]]}}]}