{"type":"FeatureCollection","features":[{"type":"Feature","properties":{"territory_id":"mg-3111200-alto-das-merces","name":"Alto das Merces","municipality_id":"mg-3111200","polling_places":1,"approx":true,"official":false,"method":"voronoi-polling-places","whole_municipality":false,"approx_coords_only":false},"geometry":{"type":"MultiPolygon","coordinates":[[[[-45.28064,-20.88441],[-45.27407,-20.88891],[-45.25936,-20.87459],[-45.23447,-20.84006],[-45.25923,-20.8442],[-45.28064,-20.88441]]]]}},{"type":"Feature","properties":{"territory_id":"mg-3111200-centro","name":"Centro","municipality_id":"mg-3111200","polling_places":2,"approx":true,"official":false,"method":"voronoi-polling-places","whole_municipality":false,"approx_coords_only":false},"geometry":{"type":"MultiPolygon","coordinates":[[[[-45.28266,-20.89312],[-45.27892,-20.89564],[-45.27468,-20.90167],[-45.27279,-20.90036],[-45.27271,-20.89422],[-45.27282,-20.89401],[-45.27434,-20.88988],[-45.28266,-20.89312]]]]}},{"type":"Feature","properties":{"territory_id":"mg-3111200-feira","name":"Feira","municipality_id":"mg-3111200","polling_places":1,"approx":true,"official":false,"method":"voronoi-polling-places","whole_municipality":false,"approx_coords_only":false},"geometry":{"type":"MultiPolygon","coordinates":[[[[-45.33107,-20.97219],[-45.28932,-20.9841],[-45.25621,-20.93941],[-45.26541,-20.90157],[-45.27279,-20.90036],[-45.27468,-20.90167],[-45.32922,-20.96165],[-45.33107,-20.97219]]]]}},{"type":"Feature","properties":{"territory_id":"mg-3111200-jardim-america","name":"Jardim America","municipality_id":"mg-3111200","polling_places":1,"approx":true,"official":false,"method":"voronoi-polling-places","whole_municipality":false,"approx_coords_only":false},"geometry":{"type":"MultiPolygon","coordinates":[[[[-45.26541,-20.90157],[-45.25621,-20.93941],[-45.18954,-20.87352],[-45.26374,-20.8995],[-45.26541,-20.90157]]]]}},{"type":"Feature","properties":{"territory_id":"mg-3111200-sao-benedito","name":"Sao Benedito","municipality_id":"mg-3111200","polling_places":1,"approx":true,"official":false,"method":"voronoi-polling-places","whole_municipality":false,"approx_coords_only":false},"geometry":{"type":"MultiPolygon","coordinates":[[[[-45.32231,-20.89653],[-45.30965,-20.89423],[-45.28064,-20.88441],[-45.25923,-20.8442],[-45.2712,-20.8462],[-45.29655,-20.83136],[-45.32231,-20.89653]]]]}},{"type":"Feature","properties":{"territory_id":"mg-3111200-vila-arandutaba","name":"Vila Arandutaba","municipality_id":"mg-3111200","polling_places":1,"approx":true,"official":false,"method":"voronoi-polling-places","whole_municipality":false,"approx_coords_only":false},"geometry":{"type":"MultiPolygon","coordinates":[[[[-45.27279,-20.90036],[-45.26541,-20.90157],[-45.26374,-20.8995],[-45.26609,-20.89337],[-45.27271,-20.89422],[-45.27279,-20.90036]]]]}},{"type":"Feature","properties":{"territory_id":"mg-3111200-vila-isabel","name":"Vila Isabel","municipality_id":"mg-3111200","polling_places":1,"approx":true,"official":false,"method":"voronoi-polling-places","whole_municipality":false,"approx_coords_only":false},"geometry":{"type":"MultiPolygon","coordinates":[[[[-45.30965,-20.89423],[-45.28266,-20.89312],[-45.27434,-20.88988],[-45.27407,-20.88891],[-45.28064,-20.88441],[-45.30965,-20.89423]]]]}},{"type":"Feature","properties":{"territory_id":"mg-3111200-vila-matilde","name":"Vila Matilde","municipality_id":"mg-3111200","polling_places":2,"approx":true,"official":false,"method":"voronoi-polling-places","whole_municipality":false,"approx_coords_only":false},"geometry":{"type":"MultiPolygon","coordinates":[[[[-45.27434,-20.88988],[-45.27282,-20.89401],[-45.27271,-20.89422],[-45.26609,-20.89337],[-45.26374,-20.8995],[-45.18954,-20.87352],[-45.18225,-20.86722],[-45.19023,-20.83267],[-45.23447,-20.84006],[-45.25936,-20.87459],[-45.27407,-20.88891],[-45.27434,-20.88988]]]]}},{"type":"Feature","properties":{"territory_id":"mg-3111200-vila-waldemar-carvalho","name":"Vila Waldemar Carvalho","municipality_id":"mg-3111200","polling_places":1,"approx":true,"official":false,"method":"voronoi-polling-places","whole_municipality":false,"approx_coords_only":false},"geometry":{"type":"MultiPolygon","coordinates":[[[[-45.32922,-20.96165],[-45.27468,-20.90167],[-45.27892,-20.89564],[-45.28266,-20.89312],[-45.30965,-20.89423],[-45.32231,-20.89653],[-45.32298,-20.89756],[-45.32922,-20.96165]]]]}},{"type":"Feature","properties":{"territory_id":"mg-3111200-zona-rural","name":"Zona Rural","municipality_id":"mg-3111200","polling_places":6,"approx":true,"official":false,"method":"voronoi-polling-places","whole_municipality":false,"approx_coords_only":false},"geometry":{"type":"MultiPolygon","coordinates":[[[[-45.4312,-20.8912],[-45.3816,-20.896],[-45.3639,-20.9125],[-45.361,-20.9574],[-45.3423,-21.0144],[-45.3425,-21.0688],[-45.3421,-21.0687],[-45.2821,-21.0461],[-45.2447,-21.0107],[-45.1712,-20.9885],[-45.1424,-20.9267],[-45.1326,-20.8965],[-45.0803,-20.8695],[-45.0705,-20.8393],[-45.118,-20.8206],[-45.1333,-20.8397],[-45.1677,-20.8289],[-45.19023,-20.83267],[-45.18225,-20.86722],[-45.18954,-20.87352],[-45.25621,-20.93941],[-45.28932,-20.9841],[-45.33107,-20.97219],[-45.32922,-20.96165],[-45.32298,-20.89756],[-45.32231,-20.89653],[-45.29655,-20.83136],[-45.3139,-20.8212],[-45.3898,-20.8476],[-45.4312,-20.8912]]]]}}]}