{"type":"FeatureCollection","features":[{"type":"Feature","properties":{"territory_id":"mg-3111705-centro","name":"Centro","municipality_id":"mg-3111705","polling_places":2,"approx":true,"official":false,"method":"voronoi-polling-places","whole_municipality":false,"approx_coords_only":false},"geometry":{"type":"MultiPolygon","coordinates":[[[[-42.65386,-20.6062],[-42.63355,-20.70922],[-42.63032,-20.75462],[-42.5887,-20.7464],[-42.57632,-20.7144],[-42.61725,-20.67986],[-42.65204,-20.60294],[-42.65386,-20.6062]]]]}},{"type":"Feature","properties":{"territory_id":"mg-3111705-sao-luiz","name":"Sao Luiz","municipality_id":"mg-3111705","polling_places":1,"approx":true,"official":false,"method":"voronoi-polling-places","whole_municipality":false,"approx_coords_only":false},"geometry":{"type":"MultiPolygon","coordinates":[[[[-42.65204,-20.60294],[-42.61725,-20.67986],[-42.57632,-20.7144],[-42.5694,-20.69652],[-42.64701,-20.59392],[-42.65204,-20.60294]]]]}},{"type":"Feature","properties":{"territory_id":"mg-3111705-zona-rural","name":"Zona Rural","municipality_id":"mg-3111705","polling_places":2,"approx":true,"official":false,"method":"voronoi-polling-places","whole_municipality":false,"approx_coords_only":false},"geometry":{"type":"MultiPolygon","coordinates":[[[[-42.6978,-20.6573],[-42.6743,-20.6703],[-42.673,-20.7211],[-42.6505,-20.7586],[-42.63032,-20.75462],[-42.63355,-20.70922],[-42.65386,-20.6062],[-42.6678,-20.6312],[-42.6978,-20.6573]]],[[[-42.64701,-20.59392],[-42.5694,-20.69652],[-42.568,-20.6929],[-42.5578,-20.5985],[-42.6088,-20.6059],[-42.6412,-20.5835],[-42.64701,-20.59392]]]]}}]}