{"type":"FeatureCollection","features":[{"type":"Feature","properties":{"territory_id":"mg-3111309-centro","name":"Centro","municipality_id":"mg-3111309","polling_places":2,"approx":true,"official":false,"method":"voronoi-polling-places","whole_municipality":false,"approx_coords_only":false},"geometry":{"type":"MultiPolygon","coordinates":[[[[-45.93599,-21.05518],[-45.83472,-21.10727],[-45.83162,-21.11047],[-45.83055,-21.1103],[-45.82194,-21.10298],[-45.78713,-21.08005],[-45.8194,-21.0671],[-45.8387,-21.072],[-45.9218,-21.0391],[-45.93599,-21.05518]]]]}},{"type":"Feature","properties":{"territory_id":"mg-3111309-j-k","name":"J.k.","municipality_id":"mg-3111309","polling_places":2,"approx":true,"official":false,"method":"voronoi-polling-places","whole_municipality":false,"approx_coords_only":false},"geometry":{"type":"MultiPolygon","coordinates":[[[[-45.85667,-21.16429],[-45.8549,-21.164],[-45.7559,-21.1671],[-45.7369,-21.1304],[-45.6782,-21.1368],[-45.7263,-21.0834],[-45.7651,-21.0889],[-45.78713,-21.08005],[-45.82194,-21.10298],[-45.83055,-21.1103],[-45.83162,-21.11047],[-45.85667,-21.16429]]]]}},{"type":"Feature","properties":{"territory_id":"mg-3111309-santana","name":"Santana","municipality_id":"mg-3111309","polling_places":1,"approx":true,"official":false,"method":"voronoi-polling-places","whole_municipality":false,"approx_coords_only":false},"geometry":{"type":"MultiPolygon","coordinates":[[[[-45.9734,-21.14],[-45.9478,-21.165],[-45.9182,-21.1744],[-45.85667,-21.16429],[-45.83162,-21.11047],[-45.83472,-21.10727],[-45.93599,-21.05518],[-45.9631,-21.0859],[-45.9734,-21.14]]]]}}]}