{"type":"FeatureCollection","features":[{"type":"Feature","properties":{"territory_id":"mg-3111804-balduino","name":"Balduino","municipality_id":"mg-3111804","polling_places":1,"approx":false,"official":true,"method":"official-ibge-cd2022","whole_municipality":false,"approx_coords_only":false,"official_name":"Balduíno","official_code":"3111804003","match":"direct"},"geometry":{"type":"MultiPolygon","coordinates":[[[[-49.20635,-18.71638],[-49.20538,-18.71494],[-49.20486,-18.71513],[-49.20301,-18.71625],[-49.20479,-18.7188],[-49.20402,-18.71929],[-49.20471,-18.7203],[-49.20624,-18.71933],[-49.20772,-18.71843],[-49.20666,-18.71684],[-49.20635,-18.71638]]]]}},{"type":"Feature","properties":{"territory_id":"mg-3111804-centro","name":"Centro","municipality_id":"mg-3111804","polling_places":2,"approx":false,"official":true,"method":"official-ibge-cd2022","whole_municipality":false,"approx_coords_only":false,"official_name":"Centro","official_code":"3111804001","match":"direct"},"geometry":{"type":"MultiPolygon","coordinates":[[[[-49.20519,-18.72725],[-49.2082,-18.72539],[-49.20826,-18.72541],[-49.20828,-18.72535],[-49.20858,-18.72516],[-49.20512,-18.72004],[-49.20471,-18.7203],[-49.20402,-18.71929],[-49.19875,-18.72256],[-49.20084,-18.7256],[-49.20292,-18.72867],[-49.20443,-18.72772],[-49.20519,-18.72725]]]]}},{"type":"Feature","properties":{"territory_id":"mg-3111804-yvetti-guerreiro-daniel","name":"Yvetti Guerreiro Daniel","municipality_id":"mg-3111804","polling_places":1,"approx":true,"official":false,"method":"voronoi-polling-places","whole_municipality":false,"approx_coords_only":false},"geometry":{"type":"MultiPolygon","coordinates":[[[[-49.4334,-18.8454],[-49.3766,-18.868],[-49.3312,-18.8669],[-49.3228,-18.8903],[-49.3401,-18.9522],[-49.2595,-18.9404],[-49.2659,-18.8996],[-49.252,-18.874],[-49.211,-18.8622],[-49.1567,-18.8318],[-49.1236,-18.8315],[-49.0925,-18.7924],[-49.0508,-18.7881],[-49.0713,-18.7596],[-49.1329,-18.7141],[-49.1575,-18.6704],[-49.1922,-18.6837],[-49.2356,-18.6601],[-49.2617,-18.5912],[-49.2927,-18.5639],[-49.3275,-18.5622],[-49.3734,-18.6348],[-49.387,-18.6908],[-49.4029,-18.7005],[-49.4155,-18.7496],[-49.4094,-18.7946],[-49.4239,-18.8107],[-49.4334,-18.8454]],[[-49.20858,-18.72516],[-49.20512,-18.72004],[-49.20471,-18.7203],[-49.20624,-18.71933],[-49.20772,-18.71843],[-49.20666,-18.71684],[-49.20635,-18.71638],[-49.20538,-18.71494],[-49.20486,-18.71513],[-49.20301,-18.71625],[-49.20479,-18.7188],[-49.20402,-18.71929],[-49.19875,-18.72256],[-49.20084,-18.7256],[-49.20292,-18.72867],[-49.20443,-18.72772],[-49.20519,-18.72725],[-49.2082,-18.72539],[-49.20826,-18.72541],[-49.20828,-18.72535],[-49.20858,-18.72516]]]]}}]}