{"type":"FeatureCollection","features":[{"type":"Feature","properties":{"territory_id":"mg-3111101-alvorada","name":"Alvorada","municipality_id":"mg-3111101","polling_places":2,"approx":false,"official":true,"method":"official-ibge-cd2022","whole_municipality":false,"approx_coords_only":false,"official_name":"Alvorada","official_code":"3111101003","match":"direct"},"geometry":{"type":"MultiPolygon","coordinates":[[[[-49.48982,-19.53742],[-49.49059,-19.53963],[-49.4921,-19.53919],[-49.49369,-19.53903],[-49.49745,-19.53937],[-49.50242,-19.53997],[-49.50256,-19.54016],[-49.50321,-19.54021],[-49.50359,-19.54007],[-49.50189,-19.53578],[-49.50062,-19.5359],[-49.50152,-19.53645],[-49.49993,-19.53612],[-49.49883,-19.53592],[-49.49747,-19.53572],[-49.49667,-19.53564],[-49.49642,-19.53553],[-49.4963,-19.53572],[-49.49528,-19.5358],[-49.49485,-19.53576],[-49.49461,-19.53578],[-49.49393,-19.53591],[-49.49365,-19.53586],[-49.49343,-19.53574],[-49.49328,-19.53577],[-49.49295,-19.53578],[-49.49264,-19.53584],[-49.49231,-19.53585],[-49.49169,-19.5358],[-49.49111,-19.53581],[-49.49087,-19.5359],[-49.49047,-19.53593],[-49.49008,-19.53591],[-49.48977,-19.53593],[-49.48934,-19.53604],[-49.48941,-19.53625],[-49.48982,-19.53742]]]]}},{"type":"Feature","properties":{"territory_id":"mg-3111101-centro","name":"Centro","municipality_id":"mg-3111101","polling_places":11,"approx":false,"official":true,"method":"official-ibge-cd2022","whole_municipality":false,"approx_coords_only":false,"official_name":"Centro","official_code":"3111101001","match":"direct"},"geometry":{"type":"MultiPolygon","coordinates":[[[[-49.47962,-19.5384],[-49.48027,-19.54032],[-49.48156,-19.5399],[-49.4824,-19.54242],[-49.48314,-19.54456],[-49.4877,-19.54135],[-49.49045,-19.53969],[-49.49059,-19.53963],[-49.48786,-19.53183],[-49.48735,-19.53106],[-49.48643,-19.53158],[-49.48587,-19.53077],[-49.48158,-19.5333],[-49.48118,-19.53238],[-49.47803,-19.5343],[-49.47844,-19.53489],[-49.47907,-19.53674],[-49.47962,-19.5384]]]]}},{"type":"Feature","properties":{"territory_id":"mg-3111101-distrito-de-honoropolis","name":"Distrito de Honorópolis","municipality_id":"mg-3111101","polling_places":1,"approx":true,"official":false,"method":"voronoi-polling-places","whole_municipality":false,"approx_coords_only":false},"geometry":{"type":"MultiPolygon","coordinates":[[[[-50.04219,-19.76241],[-50.0291,-19.7605],[-50.0144,-19.7266],[-49.9838,-19.6946],[-49.946,-19.7288],[-49.9205,-19.7266],[-49.8689,-19.67],[-49.8679,-19.6361],[-49.8343,-19.6026],[-49.7745,-19.6545],[-49.6785,-19.6606],[-49.6304,-19.6764],[-49.5728,-19.6799],[-49.5084,-19.6678],[-49.4837,-19.6356],[-49.4751,-19.5597],[-49.4323,-19.5333],[-49.3653,-19.5394],[-49.3651,-19.5391],[-49.3567,-19.4914],[-49.3025,-19.4447],[-49.3072,-19.4176],[-49.3483,-19.397],[-49.3628,-19.3589],[-49.3505,-19.3201],[-49.422,-19.2629],[-49.4755,-19.2409],[-49.4957,-19.2937],[-49.5375,-19.3546],[-49.5692,-19.3372],[-49.5897,-19.3541],[-49.6536,-19.3321],[-49.6789,-19.2774],[-49.7501,-19.287],[-49.7601,-19.3155],[-49.7869,-19.3303],[-49.8213,-19.2953],[-49.8896,-19.2745],[-49.9663,-19.3],[-49.98057,-19.28884],[-50.04219,-19.76241]],[[-49.50359,-19.54007],[-49.50189,-19.53578],[-49.50062,-19.5359],[-49.49843,-19.53476],[-49.49882,-19.53411],[-49.49252,-19.53066],[-49.49276,-19.53026],[-49.49203,-19.52824],[-49.49122,-19.52846],[-49.48816,-19.52942],[-49.48889,-19.5315],[-49.48786,-19.53183],[-49.48735,-19.53106],[-49.48643,-19.53158],[-49.48587,-19.53077],[-49.48158,-19.5333],[-49.48118,-19.53238],[-49.47803,-19.5343],[-49.47844,-19.53489],[-49.47907,-19.53674],[-49.47962,-19.5384],[-49.48027,-19.54032],[-49.48156,-19.5399],[-49.4824,-19.54242],[-49.48314,-19.54456],[-49.4877,-19.54135],[-49.49045,-19.53969],[-49.49059,-19.53963],[-49.4921,-19.53919],[-49.49369,-19.53903],[-49.49745,-19.53937],[-49.50242,-19.53997],[-49.50256,-19.54016],[-49.50321,-19.54021],[-49.50359,-19.54007]],[[-49.4809,-19.54607],[-49.47996,-19.54375],[-49.47862,-19.54107],[-49.47802,-19.54006],[-49.47781,-19.53971],[-49.47778,-19.53965],[-49.47752,-19.5396],[-49.47736,-19.53916],[-49.47729,-19.53918],[-49.47612,-19.53909],[-49.47422,-19.53866],[-49.47329,-19.53839],[-49.47284,-19.53813],[-49.47257,-19.53793],[-49.47238,-19.5377],[-49.47214,-19.53777],[-49.47092,-19.53821],[-49.47049,-19.53843],[-49.47043,-19.5386],[-49.47042,-19.53874],[-49.47056,-19.53892],[-49.47055,-19.53904],[-49.47047,-19.53919],[-49.4809,-19.54607]]],[[[-49.49059,-19.53963],[-49.48965,-19.53694],[-49.48982,-19.53742],[-49.49059,-19.53963]]],[[[-49.48786,-19.53183],[-49.48865,-19.53406],[-49.48903,-19.53516],[-49.48934,-19.53604],[-49.4894,-19.53621],[-49.48786,-19.53183]]]]}},{"type":"Feature","properties":{"territory_id":"mg-3111101-gilma-teixeira","name":"Gilma Teixeira","municipality_id":"mg-3111101","polling_places":1,"approx":false,"official":true,"method":"official-ibge-cd2022","whole_municipality":false,"approx_coords_only":false,"official_name":"Gilma Teixeira","official_code":"3111101009","match":"direct"},"geometry":{"type":"MultiPolygon","coordinates":[[[[-49.47781,-19.53971],[-49.47778,-19.53965],[-49.47752,-19.5396],[-49.47736,-19.53916],[-49.47729,-19.53918],[-49.47612,-19.53909],[-49.47422,-19.53866],[-49.47329,-19.53839],[-49.47284,-19.53813],[-49.47257,-19.53793],[-49.47238,-19.5377],[-49.47214,-19.53777],[-49.47092,-19.53821],[-49.47049,-19.53843],[-49.47043,-19.5386],[-49.47042,-19.53874],[-49.47056,-19.53892],[-49.47055,-19.53904],[-49.47047,-19.53919],[-49.4809,-19.54607],[-49.47996,-19.54375],[-49.47862,-19.54107],[-49.47802,-19.54006],[-49.47781,-19.53971]]]]}},{"type":"Feature","properties":{"territory_id":"mg-3111101-honoropolis","name":"Honorópolis","municipality_id":"mg-3111101","polling_places":1,"approx":true,"official":false,"method":"voronoi-polling-places","whole_municipality":false,"approx_coords_only":false},"geometry":{"type":"MultiPolygon","coordinates":[[[[-50.2364,-19.2813],[-50.1733,-19.3048],[-50.1906,-19.3749],[-50.1708,-19.4191],[-50.1903,-19.5118],[-50.2145,-19.5593],[-50.16,-19.6292],[-50.1162,-19.7508],[-50.0909,-19.7695],[-50.04219,-19.76241],[-49.98057,-19.28884],[-50.0007,-19.2731],[-50.0424,-19.275],[-50.0863,-19.2457],[-50.1216,-19.1982],[-50.1602,-19.2303],[-50.204,-19.2914],[-50.2364,-19.2813]]]]}},{"type":"Feature","properties":{"territory_id":"mg-3111101-sao-vicente","name":"São Vicente","municipality_id":"mg-3111101","polling_places":1,"approx":false,"official":true,"method":"official-ibge-cd2022","whole_municipality":false,"approx_coords_only":false,"official_name":"São Vicente","official_code":"3111101002","match":"direct"},"geometry":{"type":"MultiPolygon","coordinates":[[[[-49.48903,-19.53516],[-49.48934,-19.53604],[-49.48977,-19.53593],[-49.49008,-19.53591],[-49.49047,-19.53593],[-49.49087,-19.5359],[-49.49111,-19.53581],[-49.49169,-19.5358],[-49.49231,-19.53585],[-49.49264,-19.53584],[-49.49295,-19.53578],[-49.49328,-19.53577],[-49.49343,-19.53574],[-49.49365,-19.53586],[-49.49393,-19.53591],[-49.49461,-19.53578],[-49.49485,-19.53576],[-49.49528,-19.5358],[-49.4963,-19.53572],[-49.49642,-19.53553],[-49.49667,-19.53564],[-49.49747,-19.53572],[-49.49883,-19.53592],[-49.49993,-19.53612],[-49.50152,-19.53645],[-49.50062,-19.5359],[-49.49843,-19.53476],[-49.49882,-19.53411],[-49.49252,-19.53066],[-49.49276,-19.53026],[-49.49203,-19.52824],[-49.49122,-19.52846],[-49.48816,-19.52942],[-49.48889,-19.5315],[-49.48786,-19.53183],[-49.48865,-19.53406],[-49.48903,-19.53516]]]]}}]}