{"type":"FeatureCollection","features":[{"type":"Feature","properties":{"territory_id":"mg-3111408-centro","name":"Centro","municipality_id":"mg-3111408","polling_places":2,"approx":true,"official":false,"method":"voronoi-polling-places","whole_municipality":false,"approx_coords_only":false},"geometry":{"type":"MultiPolygon","coordinates":[[[[-48.749,-19.5555],[-48.74626,-19.58596],[-48.57434,-19.76469],[-48.47571,-19.63952],[-48.4891,-19.6297],[-48.4843,-19.6044],[-48.5458,-19.5425],[-48.5918,-19.5508],[-48.6055,-19.5384],[-48.6901,-19.5341],[-48.749,-19.5555]]],[[[-48.59415,-19.8638],[-48.5444,-19.8899],[-48.4814,-19.8351],[-48.4545,-19.7774],[-48.45377,-19.76948],[-48.57344,-19.76626],[-48.57502,-19.76858],[-48.59415,-19.8638]]]]}},{"type":"Feature","properties":{"territory_id":"mg-3111408-comendador-tercio-wanderley","name":"Comendador Tercio Wanderley","municipality_id":"mg-3111408","polling_places":1,"approx":true,"official":false,"method":"voronoi-polling-places","whole_municipality":false,"approx_coords_only":false},"geometry":{"type":"MultiPolygon","coordinates":[[[[-48.844,-19.5905],[-48.8243,-19.6545],[-48.83571,-19.67025],[-48.57502,-19.76858],[-48.57344,-19.76626],[-48.57434,-19.76469],[-48.74626,-19.58596],[-48.745,-19.6],[-48.7933,-19.6044],[-48.844,-19.5905]]]]}},{"type":"Feature","properties":{"territory_id":"mg-3111408-vila-junqueira","name":"Vila Junqueira","municipality_id":"mg-3111408","polling_places":1,"approx":true,"official":false,"method":"voronoi-polling-places","whole_municipality":false,"approx_coords_only":false},"geometry":{"type":"MultiPolygon","coordinates":[[[[-48.8606,-19.7046],[-48.8479,-19.7491],[-48.8228,-19.7837],[-48.834,-19.8077],[-48.7811,-19.8247],[-48.7719,-19.8462],[-48.7408,-19.8491],[-48.7205,-19.8778],[-48.64,-19.8746],[-48.6012,-19.8601],[-48.59415,-19.8638],[-48.57502,-19.76858],[-48.83571,-19.67025],[-48.8606,-19.7046]]]]}},{"type":"Feature","properties":{"territory_id":"mg-3111408-zona-rural","name":"Zona Rural","municipality_id":"mg-3111408","polling_places":1,"approx":true,"official":false,"method":"voronoi-polling-places","whole_municipality":false,"approx_coords_only":false},"geometry":{"type":"MultiPolygon","coordinates":[[[[-48.57434,-19.76469],[-48.57344,-19.76626],[-48.45377,-19.76948],[-48.448,-19.7071],[-48.4732,-19.6789],[-48.4617,-19.6498],[-48.47571,-19.63952],[-48.57434,-19.76469]]]]}}]}