{"type":"FeatureCollection","features":[{"type":"Feature","properties":{"territory_id":"mg-3111606-baixao","name":"Baixão","municipality_id":"mg-3111606","polling_places":1,"approx":true,"official":false,"method":"voronoi-polling-places","whole_municipality":false,"approx_coords_only":false},"geometry":{"type":"MultiPolygon","coordinates":[[[[-45.75607,-21.23421],[-45.75216,-21.24291],[-45.67515,-21.32035],[-45.64575,-21.3259],[-45.6004,-21.3154],[-45.6099,-21.2759],[-45.6039,-21.2314],[-45.6078,-21.1957],[-45.5761,-21.1652],[-45.5945,-21.1444],[-45.6782,-21.1368],[-45.72554,-21.13164],[-45.75607,-21.23421]]]]}},{"type":"Feature","properties":{"territory_id":"mg-3111606-bela-vista","name":"Bela Vista","municipality_id":"mg-3111606","polling_places":1,"approx":true,"official":false,"method":"voronoi-polling-places","whole_municipality":false,"approx_coords_only":false},"geometry":{"type":"MultiPolygon","coordinates":[[[[-45.85563,-21.2856],[-45.84453,-21.299],[-45.67515,-21.32035],[-45.75216,-21.24291],[-45.75922,-21.24123],[-45.76977,-21.24249],[-45.85563,-21.2856]]]]}},{"type":"Feature","properties":{"territory_id":"mg-3111606-capitao-gomes","name":"Capitão Gomes","municipality_id":"mg-3111606","polling_places":1,"approx":true,"official":false,"method":"voronoi-polling-places","whole_municipality":false,"approx_coords_only":false},"geometry":{"type":"MultiPolygon","coordinates":[[[[-45.76977,-21.24249],[-45.75922,-21.24123],[-45.76149,-21.23639],[-45.7638,-21.23685],[-45.76977,-21.24249]]]]}},{"type":"Feature","properties":{"territory_id":"mg-3111606-centro","name":"Centro","municipality_id":"mg-3111606","polling_places":2,"approx":true,"official":false,"method":"voronoi-polling-places","whole_municipality":false,"approx_coords_only":false},"geometry":{"type":"MultiPolygon","coordinates":[[[[-45.76467,-21.23001],[-45.7638,-21.23685],[-45.76149,-21.23639],[-45.75922,-21.24123],[-45.75216,-21.24291],[-45.75607,-21.23421],[-45.75915,-21.23458],[-45.76467,-21.23001]]]]}},{"type":"Feature","properties":{"territory_id":"mg-3111606-jacarezinho","name":"Jacarezinho","municipality_id":"mg-3111606","polling_places":1,"approx":true,"official":false,"method":"voronoi-polling-places","whole_municipality":false,"approx_coords_only":false},"geometry":{"type":"MultiPolygon","coordinates":[[[[-45.84453,-21.299],[-45.8259,-21.3215],[-45.8314,-21.3936],[-45.7642,-21.4229],[-45.6953,-21.4369],[-45.6764,-21.4133],[-45.7008,-21.3773],[-45.6868,-21.3354],[-45.64575,-21.3259],[-45.67515,-21.32035],[-45.84453,-21.299]]]]}},{"type":"Feature","properties":{"territory_id":"mg-3111606-sapolandia","name":"Sapolândia","municipality_id":"mg-3111606","polling_places":1,"approx":true,"official":false,"method":"voronoi-polling-places","whole_municipality":false,"approx_coords_only":false},"geometry":{"type":"MultiPolygon","coordinates":[[[[-45.80147,-21.16567],[-45.76467,-21.23001],[-45.75915,-21.23458],[-45.75607,-21.23421],[-45.72554,-21.13164],[-45.7369,-21.1304],[-45.7559,-21.1671],[-45.80147,-21.16567]]]]}},{"type":"Feature","properties":{"territory_id":"mg-3111606-vila-nova","name":"Vila Nova","municipality_id":"mg-3111606","polling_places":1,"approx":true,"official":false,"method":"voronoi-polling-places","whole_municipality":false,"approx_coords_only":false},"geometry":{"type":"MultiPolygon","coordinates":[[[[-45.9544,-21.2345],[-45.9045,-21.2706],[-45.8572,-21.2837],[-45.85563,-21.2856],[-45.76977,-21.24249],[-45.7638,-21.23685],[-45.76467,-21.23001],[-45.80147,-21.16567],[-45.8549,-21.164],[-45.9182,-21.1744],[-45.9478,-21.165],[-45.9544,-21.2345]]]]}}]}