{"type":"FeatureCollection","features":[{"type":"Feature","properties":{"territory_id":"mg-3111903-centro","name":"Centro","municipality_id":"mg-3111903","polling_places":1,"approx":true,"official":false,"method":"voronoi-polling-places","whole_municipality":false,"approx_coords_only":false},"geometry":{"type":"MultiPolygon","coordinates":[[[[-45.2821,-21.0461],[-45.27864,-21.05643],[-45.20598,-21.04806],[-45.10052,-20.93871],[-45.1075,-20.9285],[-45.1424,-20.9267],[-45.1712,-20.9885],[-45.2447,-21.0107],[-45.2821,-21.0461]]]]}},{"type":"Feature","properties":{"territory_id":"mg-3111903-vila-isabel","name":"Vila Isabel","municipality_id":"mg-3111903","polling_places":1,"approx":true,"official":false,"method":"voronoi-polling-places","whole_municipality":false,"approx_coords_only":false},"geometry":{"type":"MultiPolygon","coordinates":[[[[-45.20598,-21.04806],[-45.15632,-21.04732],[-45.1559,-21.0446],[-45.1034,-21.0274],[-45.0924,-20.9506],[-45.10052,-20.93871],[-45.20598,-21.04806]]]]}},{"type":"Feature","properties":{"territory_id":"mg-3111903-zona-rural","name":"Zona Rural","municipality_id":"mg-3111903","polling_places":1,"approx":true,"official":false,"method":"voronoi-polling-places","whole_municipality":false,"approx_coords_only":false},"geometry":{"type":"MultiPolygon","coordinates":[[[[-45.27864,-21.05643],[-45.2676,-21.0894],[-45.278,-21.128],[-45.2051,-21.137],[-45.2164,-21.0978],[-45.1891,-21.0878],[-45.1614,-21.0806],[-45.15632,-21.04732],[-45.20598,-21.04806],[-45.27864,-21.05643]]]]}}]}