{"type":"FeatureCollection","features":[{"type":"Feature","properties":{"territory_id":"mg-3111507-boa-esperanca","name":"Boa Esperanca","municipality_id":"mg-3111507","polling_places":1,"approx":true,"official":false,"method":"voronoi-polling-places","whole_municipality":false,"approx_coords_only":false},"geometry":{"type":"MultiPolygon","coordinates":[[[[-46.31481,-19.65994],[-46.2987,-19.6828],[-46.2438,-19.7076],[-46.2434,-19.72342],[-46.17785,-19.69958],[-46.17563,-19.69644],[-46.23274,-19.64358],[-46.31481,-19.65994]]]]}},{"type":"Feature","properties":{"territory_id":"mg-3111507-camposaltinho","name":"Camposaltinho","municipality_id":"mg-3111507","polling_places":1,"approx":true,"official":false,"method":"voronoi-polling-places","whole_municipality":false,"approx_coords_only":false},"geometry":{"type":"MultiPolygon","coordinates":[[[[-46.2434,-19.72342],[-46.2425,-19.7588],[-46.2256,-19.7964],[-46.208,-19.8039],[-46.1327,-19.8017],[-46.12327,-19.76762],[-46.17785,-19.69958],[-46.2434,-19.72342]]]]}},{"type":"Feature","properties":{"territory_id":"mg-3111507-centro","name":"Centro","municipality_id":"mg-3111507","polling_places":4,"approx":true,"official":false,"method":"voronoi-polling-places","whole_municipality":false,"approx_coords_only":false},"geometry":{"type":"MultiPolygon","coordinates":[[[[-46.17785,-19.69958],[-46.12327,-19.76762],[-46.1033,-19.6955],[-46.1193,-19.6642],[-46.0694,-19.65],[-46.1062,-19.6117],[-46.1061,-19.60973],[-46.13833,-19.61998],[-46.15243,-19.62414],[-46.17326,-19.69485],[-46.17442,-19.69616],[-46.17563,-19.69644],[-46.17785,-19.69958]]]]}},{"type":"Feature","properties":{"territory_id":"mg-3111507-nossa-senhora-aparecida","name":"Nossa Senhora Aparecida","municipality_id":"mg-3111507","polling_places":1,"approx":true,"official":false,"method":"voronoi-polling-places","whole_municipality":false,"approx_coords_only":false},"geometry":{"type":"MultiPolygon","coordinates":[[[[-46.23274,-19.64358],[-46.17563,-19.69644],[-46.17442,-19.69616],[-46.17326,-19.69485],[-46.15243,-19.62414],[-46.23274,-19.64358]]]]}},{"type":"Feature","properties":{"territory_id":"mg-3111507-sao-jeronimo-dos-pocoes","name":"Sao Jeronimo dos Pocoes","municipality_id":"mg-3111507","polling_places":1,"approx":true,"official":false,"method":"voronoi-polling-places","whole_municipality":false,"approx_coords_only":false},"geometry":{"type":"MultiPolygon","coordinates":[[[[-46.3278,-19.6415],[-46.31481,-19.65994],[-46.23274,-19.64358],[-46.15243,-19.62414],[-46.13833,-19.61998],[-46.1061,-19.60973],[-46.1048,-19.583],[-46.1276,-19.5426],[-46.1332,-19.4618],[-46.1555,-19.4102],[-46.1734,-19.4229],[-46.2662,-19.4317],[-46.2796,-19.46],[-46.3259,-19.4923],[-46.2679,-19.5643],[-46.2841,-19.6053],[-46.3278,-19.6415]]]]}}]}