{"type":"FeatureCollection","features":[{"type":"Feature","properties":{"territory_id":"mg-3112901-centro","name":"Centro","municipality_id":"mg-3112901","polling_places":3,"approx":true,"official":false,"method":"voronoi-polling-places","whole_municipality":false,"approx_coords_only":false},"geometry":{"type":"MultiPolygon","coordinates":[[[[-42.315,-20.202],[-42.28397,-20.22448],[-42.27955,-20.2174],[-42.21108,-20.12178],[-42.2099,-20.0894],[-42.21138,-20.08918],[-42.26374,-20.13961],[-42.31342,-20.18018],[-42.315,-20.202]]]]}},{"type":"Feature","properties":{"territory_id":"mg-3112901-zona-rural","name":"Zona Rural","municipality_id":"mg-3112901","polling_places":2,"approx":true,"official":false,"method":"voronoi-polling-places","whole_municipality":false,"approx_coords_only":false},"geometry":{"type":"MultiPolygon","coordinates":[[[[-42.31342,-20.18018],[-42.26374,-20.13961],[-42.21138,-20.08918],[-42.2478,-20.0838],[-42.3107,-20.1428],[-42.31342,-20.18018]]],[[[-42.28397,-20.22448],[-42.2526,-20.2472],[-42.2505,-20.2739],[-42.213,-20.2833],[-42.1942,-20.1951],[-42.2128,-20.1692],[-42.21108,-20.12178],[-42.27955,-20.2174],[-42.28397,-20.22448]]]]}}]}