{"type":"FeatureCollection","features":[{"type":"Feature","properties":{"territory_id":"mg-3112802-centro","name":"Centro","municipality_id":"mg-3112802","polling_places":2,"approx":true,"official":false,"method":"voronoi-polling-places","whole_municipality":false,"approx_coords_only":false},"geometry":{"type":"MultiPolygon","coordinates":[[[[-46.3368,-20.5534],[-46.3037,-20.5738],[-46.2753,-20.6601],[-46.2407,-20.688],[-46.2104,-20.6821],[-46.1863,-20.6981],[-46.1504,-20.6949],[-46.1289,-20.7173],[-46.0845,-20.6911],[-46.0255,-20.6943],[-46.02192,-20.68773],[-46.04977,-20.59615],[-46.05638,-20.55533],[-46.0592,-20.5552],[-46.1032,-20.5325],[-46.1475,-20.5689],[-46.1969,-20.5416],[-46.2219,-20.5055],[-46.2481,-20.5079],[-46.2873,-20.5364],[-46.289,-20.5601],[-46.3368,-20.5534]]]]}},{"type":"Feature","properties":{"territory_id":"mg-3112802-nossa-senhora-aparecida","name":"Nossa Senhora Aparecida","municipality_id":"mg-3112802","polling_places":1,"approx":true,"official":false,"method":"voronoi-polling-places","whole_municipality":false,"approx_coords_only":false},"geometry":{"type":"MultiPolygon","coordinates":[[[[-46.05638,-20.55533],[-46.04977,-20.59615],[-46.02192,-20.68773],[-45.9676,-20.5881],[-45.9892,-20.5585],[-46.05638,-20.55533]]]]}}]}