{"type":"FeatureCollection","features":[{"type":"Feature","properties":{"territory_id":"mg-3112703-bela-vista","name":"Bela Vista","municipality_id":"mg-3112703","polling_places":1,"approx":true,"official":false,"method":"voronoi-polling-places","whole_municipality":false,"approx_coords_only":false},"geometry":{"type":"MultiPolygon","coordinates":[[[[-43.77002,-16.37701],[-43.7468,-16.4052],[-43.6962,-16.4164],[-43.6761,-16.4046],[-43.67512,-16.3639],[-43.71031,-16.32666],[-43.71187,-16.32645],[-43.71951,-16.32979],[-43.72544,-16.33312],[-43.77002,-16.37701]]]]}},{"type":"Feature","properties":{"territory_id":"mg-3112703-central","name":"Central","municipality_id":"mg-3112703","polling_places":1,"approx":true,"official":false,"method":"voronoi-polling-places","whole_municipality":false,"approx_coords_only":false},"geometry":{"type":"MultiPolygon","coordinates":[[[[-43.71031,-16.32666],[-43.67512,-16.3639],[-43.6735,-16.2968],[-43.65001,-16.27001],[-43.66094,-16.26272],[-43.66783,-16.26993],[-43.71031,-16.32666]]]]}},{"type":"Feature","properties":{"territory_id":"mg-3112703-centro","name":"Centro","municipality_id":"mg-3112703","polling_places":3,"approx":true,"official":false,"method":"voronoi-polling-places","whole_municipality":false,"approx_coords_only":false},"geometry":{"type":"MultiPolygon","coordinates":[[[[-43.71951,-16.32979],[-43.71187,-16.32645],[-43.71031,-16.32666],[-43.66783,-16.26993],[-43.7072,-16.30873],[-43.71608,-16.31528],[-43.71784,-16.31973],[-43.71422,-16.32288],[-43.71951,-16.32979]]]]}},{"type":"Feature","properties":{"territory_id":"mg-3112703-distrito-de-cacarema","name":"Distrito de Caçarema","municipality_id":"mg-3112703","polling_places":1,"approx":true,"official":false,"method":"voronoi-polling-places","whole_municipality":false,"approx_coords_only":false},"geometry":{"type":"MultiPolygon","coordinates":[[[[-43.67753,-15.97857],[-43.67465,-15.9836],[-43.5301,-16.10027],[-43.5276,-16.0867],[-43.5566,-16.005],[-43.542,-15.9533],[-43.5574,-15.91],[-43.6131,-15.8621],[-43.6203,-15.7854],[-43.6346,-15.8194],[-43.6625,-15.8396],[-43.6364,-15.8634],[-43.6313,-15.9058],[-43.6411,-15.939],[-43.67753,-15.97857]]]]}},{"type":"Feature","properties":{"territory_id":"mg-3112703-distrito-de-santana-da-serra","name":"Distrito de Santana da Serra","municipality_id":"mg-3112703","polling_places":1,"approx":true,"official":false,"method":"voronoi-polling-places","whole_municipality":false,"approx_coords_only":false},"geometry":{"type":"MultiPolygon","coordinates":[[[[-43.7851,-16.1261],[-43.7663,-16.1461],[-43.77174,-16.18087],[-43.67718,-16.13959],[-43.64961,-16.08863],[-43.6479,-16.07856],[-43.67465,-15.9836],[-43.67753,-15.97857],[-43.6851,-15.9868],[-43.7017,-16.0394],[-43.7656,-16.0892],[-43.7851,-16.1261]]]]}},{"type":"Feature","properties":{"territory_id":"mg-3112703-morada-do-parque","name":"Morada do Parque","municipality_id":"mg-3112703","polling_places":1,"approx":true,"official":false,"method":"voronoi-polling-places","whole_municipality":false,"approx_coords_only":false},"geometry":{"type":"MultiPolygon","coordinates":[[[[-43.7966,-16.2341],[-43.7789,-16.2822],[-43.7942,-16.299],[-43.79152,-16.31656],[-43.71608,-16.31528],[-43.7072,-16.30873],[-43.66783,-16.26993],[-43.66094,-16.26272],[-43.688,-16.23906],[-43.78101,-16.20704],[-43.7966,-16.2341]]]]}},{"type":"Feature","properties":{"territory_id":"mg-3112703-morada-do-sol","name":"Morada do Sol","municipality_id":"mg-3112703","polling_places":1,"approx":true,"official":false,"method":"voronoi-polling-places","whole_municipality":false,"approx_coords_only":false},"geometry":{"type":"MultiPolygon","coordinates":[[[[-43.72544,-16.33312],[-43.71951,-16.32979],[-43.71422,-16.32288],[-43.71784,-16.31973],[-43.72544,-16.33312]]]]}},{"type":"Feature","properties":{"territory_id":"mg-3112703-povoado","name":"Povoado","municipality_id":"mg-3112703","polling_places":4,"approx":true,"official":false,"method":"voronoi-polling-places","whole_municipality":false,"approx_coords_only":false},"geometry":{"type":"MultiPolygon","coordinates":[[[[-43.688,-16.23906],[-43.66094,-16.26272],[-43.65001,-16.27001],[-43.53861,-16.14292],[-43.58139,-16.13403],[-43.6479,-16.07856],[-43.64961,-16.08863],[-43.67718,-16.13959],[-43.63892,-16.1648],[-43.63948,-16.1701],[-43.688,-16.23906]]]]}},{"type":"Feature","properties":{"territory_id":"mg-3112703-povoado-de-barreiro-de-dentro","name":"Povoado de Barreiro de Dentro","municipality_id":"mg-3112703","polling_places":1,"approx":true,"official":false,"method":"voronoi-polling-places","whole_municipality":false,"approx_coords_only":false},"geometry":{"type":"MultiPolygon","coordinates":[[[[-43.78101,-16.20704],[-43.688,-16.23906],[-43.63948,-16.1701],[-43.63892,-16.1648],[-43.67718,-16.13959],[-43.77174,-16.18087],[-43.7739,-16.1947],[-43.78101,-16.20704]]]]}},{"type":"Feature","properties":{"territory_id":"mg-3112703-povoado-de-virgilandia","name":"Povoado de Virgilândia","municipality_id":"mg-3112703","polling_places":1,"approx":true,"official":false,"method":"voronoi-polling-places","whole_municipality":false,"approx_coords_only":false},"geometry":{"type":"MultiPolygon","coordinates":[[[[-43.67465,-15.9836],[-43.6479,-16.07856],[-43.58139,-16.13403],[-43.53861,-16.14292],[-43.5378,-16.142],[-43.5301,-16.10027],[-43.67465,-15.9836]]]]}},{"type":"Feature","properties":{"territory_id":"mg-3112703-sape","name":"Sapé","municipality_id":"mg-3112703","polling_places":1,"approx":true,"official":false,"method":"voronoi-polling-places","whole_municipality":false,"approx_coords_only":false},"geometry":{"type":"MultiPolygon","coordinates":[[[[-43.79152,-16.31656],[-43.7851,-16.3587],[-43.77002,-16.37701],[-43.72544,-16.33312],[-43.71784,-16.31973],[-43.71608,-16.31528],[-43.79152,-16.31656]]]]}}]}