{"type":"FeatureCollection","features":[{"type":"Feature","properties":{"territory_id":"mg-3112604-boa-fe","name":"Boa Fé","municipality_id":"mg-3112604","polling_places":1,"approx":true,"official":false,"method":"voronoi-polling-places","whole_municipality":false,"approx_coords_only":false},"geometry":{"type":"MultiPolygon","coordinates":[[[[-49.5749,-18.68067],[-49.57452,-18.68337],[-49.57398,-18.68528],[-49.57143,-18.68814],[-49.56987,-18.68472],[-49.57011,-18.68346],[-49.57024,-18.68311],[-49.5749,-18.68067]]]]}},{"type":"Feature","properties":{"territory_id":"mg-3112604-brasilia","name":"Brasília","municipality_id":"mg-3112604","polling_places":1,"approx":true,"official":false,"method":"voronoi-polling-places","whole_municipality":false,"approx_coords_only":false},"geometry":{"type":"MultiPolygon","coordinates":[[[[-49.59638,-18.78761],[-49.5605,-18.7787],[-49.5287,-18.7556],[-49.4836,-18.7892],[-49.4239,-18.8107],[-49.4094,-18.7946],[-49.4155,-18.7496],[-49.41051,-18.73017],[-49.54859,-18.69006],[-49.56987,-18.68472],[-49.57143,-18.68814],[-49.59638,-18.78761]]]]}},{"type":"Feature","properties":{"territory_id":"mg-3112604-campos-eliseos","name":"Campos Elíseos","municipality_id":"mg-3112604","polling_places":1,"approx":true,"official":false,"method":"voronoi-polling-places","whole_municipality":false,"approx_coords_only":false},"geometry":{"type":"MultiPolygon","coordinates":[[[[-49.68693,-18.59106],[-49.5749,-18.68067],[-49.57024,-18.68311],[-49.56643,-18.67727],[-49.53969,-18.62794],[-49.5325,-18.5995],[-49.5476,-18.5396],[-49.642,-18.5552],[-49.6526,-18.5736],[-49.68693,-18.59106]]]]}},{"type":"Feature","properties":{"territory_id":"mg-3112604-centro","name":"Centro","municipality_id":"mg-3112604","polling_places":3,"approx":true,"official":false,"method":"voronoi-polling-places","whole_municipality":false,"approx_coords_only":false},"geometry":{"type":"MultiPolygon","coordinates":[[[[-49.67845,-18.76337],[-49.6648,-18.7689],[-49.6362,-18.7975],[-49.59638,-18.78761],[-49.57143,-18.68814],[-49.57398,-18.68528],[-49.57452,-18.68337],[-49.575,-18.68543],[-49.67845,-18.76337]]],[[[-49.57011,-18.68346],[-49.56987,-18.68472],[-49.54859,-18.69006],[-49.56632,-18.68273],[-49.57011,-18.68346]]]]}},{"type":"Feature","properties":{"territory_id":"mg-3112604-paraiso","name":"Paraíso","municipality_id":"mg-3112604","polling_places":2,"approx":true,"official":false,"method":"voronoi-polling-places","whole_municipality":false,"approx_coords_only":false},"geometry":{"type":"MultiPolygon","coordinates":[[[[-49.57024,-18.68311],[-49.57011,-18.68346],[-49.56632,-18.68273],[-49.54859,-18.69006],[-49.41051,-18.73017],[-49.4029,-18.7005],[-49.5446,-18.6474],[-49.53969,-18.62794],[-49.56643,-18.67727],[-49.57024,-18.68311]]]]}},{"type":"Feature","properties":{"territory_id":"mg-3112604-sao-joao","name":"São João","municipality_id":"mg-3112604","polling_places":1,"approx":true,"official":false,"method":"voronoi-polling-places","whole_municipality":false,"approx_coords_only":false},"geometry":{"type":"MultiPolygon","coordinates":[[[[-49.7276,-18.7175],[-49.7147,-18.7487],[-49.67845,-18.76337],[-49.575,-18.68543],[-49.57452,-18.68337],[-49.5749,-18.68067],[-49.68693,-18.59106],[-49.723,-18.6094],[-49.7185,-18.6417],[-49.7276,-18.7175]]]]}}]}