{"type":"FeatureCollection","features":[{"type":"Feature","properties":{"territory_id":"mg-3112505-aracas","name":"Araçás","municipality_id":"mg-3112505","polling_places":1,"approx":true,"official":false,"method":"voronoi-polling-places","whole_municipality":false,"approx_coords_only":false},"geometry":{"type":"MultiPolygon","coordinates":[[[[-44.12508,-19.54067],[-44.1231,-19.54512],[-44.1224,-19.54619],[-44.10703,-19.54152],[-44.1091,-19.5209],[-44.12432,-19.52477],[-44.12508,-19.54067]]]]}},{"type":"Feature","properties":{"territory_id":"mg-3112505-barbosa-condominio-vivendas-do-sol","name":"Barbosa / Condomínio Vivendas do Sol","municipality_id":"mg-3112505","polling_places":1,"approx":true,"official":false,"method":"voronoi-polling-places","whole_municipality":false,"approx_coords_only":false},"geometry":{"type":"MultiPolygon","coordinates":[[[[-44.15593,-19.58492],[-44.15478,-19.60518],[-44.1204,-19.5908],[-44.10832,-19.56315],[-44.12362,-19.55288],[-44.12374,-19.55297],[-44.15593,-19.58492]]]]}},{"type":"Feature","properties":{"territory_id":"mg-3112505-boa-vista","name":"Boa Vista","municipality_id":"mg-3112505","polling_places":1,"approx":true,"official":false,"method":"voronoi-polling-places","whole_municipality":false,"approx_coords_only":false},"geometry":{"type":"MultiPolygon","coordinates":[[[[-44.2226,-19.5993],[-44.1981,-19.642],[-44.1876,-19.6189],[-44.15478,-19.60518],[-44.15593,-19.58492],[-44.16775,-19.54318],[-44.16872,-19.54009],[-44.1694,-19.53835],[-44.17035,-19.53649],[-44.1708,-19.5366],[-44.1806,-19.5238],[-44.2071,-19.5304],[-44.2226,-19.5993]]]]}},{"type":"Feature","properties":{"territory_id":"mg-3112505-centro","name":"Centro","municipality_id":"mg-3112505","polling_places":4,"approx":true,"official":false,"method":"voronoi-polling-places","whole_municipality":false,"approx_coords_only":false},"geometry":{"type":"MultiPolygon","coordinates":[[[[-44.1694,-19.53835],[-44.16872,-19.54009],[-44.13635,-19.54582],[-44.13515,-19.54661],[-44.13028,-19.55037],[-44.16775,-19.54318],[-44.15593,-19.58492],[-44.12374,-19.55297],[-44.12362,-19.55288],[-44.12319,-19.55036],[-44.1224,-19.54619],[-44.1231,-19.54512],[-44.12508,-19.54067],[-44.1694,-19.53835]]]]}},{"type":"Feature","properties":{"territory_id":"mg-3112505-matos","name":"Matos","municipality_id":"mg-3112505","polling_places":1,"approx":true,"official":false,"method":"voronoi-polling-places","whole_municipality":false,"approx_coords_only":false},"geometry":{"type":"MultiPolygon","coordinates":[[[[-44.16872,-19.54009],[-44.16775,-19.54318],[-44.13028,-19.55037],[-44.13515,-19.54661],[-44.13635,-19.54582],[-44.16872,-19.54009]]]]}},{"type":"Feature","properties":{"territory_id":"mg-3112505-peri-peri","name":"Peri Peri","municipality_id":"mg-3112505","polling_places":1,"approx":true,"official":false,"method":"voronoi-polling-places","whole_municipality":false,"approx_coords_only":false},"geometry":{"type":"MultiPolygon","coordinates":[[[[-44.12362,-19.55288],[-44.10832,-19.56315],[-44.1055,-19.5567],[-44.10703,-19.54152],[-44.1224,-19.54619],[-44.12319,-19.55036],[-44.12362,-19.55288]]]]}},{"type":"Feature","properties":{"territory_id":"mg-3112505-represa","name":"Represa","municipality_id":"mg-3112505","polling_places":1,"approx":true,"official":false,"method":"voronoi-polling-places","whole_municipality":false,"approx_coords_only":false},"geometry":{"type":"MultiPolygon","coordinates":[[[[-44.17035,-19.53649],[-44.1694,-19.53835],[-44.12508,-19.54067],[-44.12432,-19.52477],[-44.17035,-19.53649]]]]}}]}