{"type":"FeatureCollection","features":[{"type":"Feature","properties":{"territory_id":"mg-3112059-centro","name":"Centro","municipality_id":"mg-3112059","polling_places":2,"approx":true,"official":false,"method":"voronoi-polling-places","whole_municipality":false,"approx_coords_only":false},"geometry":{"type":"MultiPolygon","coordinates":[[[[-42.7079,-18.5441],[-42.6855,-18.5871],[-42.6611,-18.6002],[-42.5954,-18.5652],[-42.60866,-18.49021],[-42.66092,-18.50871],[-42.70544,-18.5197],[-42.7079,-18.5441]]]]}},{"type":"Feature","properties":{"territory_id":"mg-3112059-zona-rural","name":"Zona Rural","municipality_id":"mg-3112059","polling_places":1,"approx":true,"official":false,"method":"voronoi-polling-places","whole_municipality":false,"approx_coords_only":false},"geometry":{"type":"MultiPolygon","coordinates":[[[[-42.70544,-18.5197],[-42.66092,-18.50871],[-42.60866,-18.49021],[-42.6176,-18.4397],[-42.6149,-18.4165],[-42.6561,-18.4308],[-42.6824,-18.4858],[-42.7043,-18.5084],[-42.70544,-18.5197]]]]}}]}