{"type":"FeatureCollection","features":[{"type":"Feature","properties":{"territory_id":"mg-3112406-centro","name":"Centro","municipality_id":"mg-3112406","polling_places":2,"approx":true,"official":false,"method":"voronoi-polling-places","whole_municipality":false,"approx_coords_only":false},"geometry":{"type":"MultiPolygon","coordinates":[[[[-47.1428,-20.5656],[-47.1233,-20.6127],[-47.0975,-20.6439],[-47.101,-20.682],[-47.09632,-20.68795],[-46.99656,-20.64231],[-47.0431,-20.5442],[-47.0676,-20.528],[-47.113,-20.538],[-47.1377,-20.5611],[-47.1428,-20.5656]]]]}},{"type":"Feature","properties":{"territory_id":"mg-3112406-distrito-de-goianazes","name":"Distrito de Goianazes","municipality_id":"mg-3112406","polling_places":1,"approx":true,"official":false,"method":"voronoi-polling-places","whole_municipality":false,"approx_coords_only":false},"geometry":{"type":"MultiPolygon","coordinates":[[[[-47.09632,-20.68795],[-47.0764,-20.7133],[-47.0285,-20.7313],[-46.985,-20.7597],[-46.9631,-20.7932],[-46.9372,-20.7578],[-46.9035,-20.6875],[-46.9906,-20.683],[-46.9959,-20.6437],[-46.99656,-20.64231],[-47.09632,-20.68795]]]]}}]}