{"type":"FeatureCollection","features":[{"type":"Feature","properties":{"territory_id":"mg-3112307-acacias","name":"Acácias","municipality_id":"mg-3112307","polling_places":1,"approx":true,"official":false,"method":"voronoi-polling-places","whole_municipality":false,"approx_coords_only":false},"geometry":{"type":"MultiPolygon","coordinates":[[[[-42.51754,-17.70123],[-42.50861,-17.74483],[-42.48366,-17.73608],[-42.48309,-17.73403],[-42.50279,-17.70031],[-42.51144,-17.69526],[-42.51582,-17.69731],[-42.51742,-17.69905],[-42.51754,-17.70123]]]]}},{"type":"Feature","properties":{"territory_id":"mg-3112307-agua-santa","name":"Agua Santa","municipality_id":"mg-3112307","polling_places":1,"approx":true,"official":false,"method":"voronoi-polling-places","whole_municipality":false,"approx_coords_only":false},"geometry":{"type":"MultiPolygon","coordinates":[[[[-42.51326,-17.68418],[-42.51144,-17.69526],[-42.50279,-17.70031],[-42.5061,-17.67194],[-42.51326,-17.68418]]]]}},{"type":"Feature","properties":{"territory_id":"mg-3112307-aparecida","name":"Aparecida","municipality_id":"mg-3112307","polling_places":1,"approx":true,"official":false,"method":"voronoi-polling-places","whole_municipality":false,"approx_coords_only":false},"geometry":{"type":"MultiPolygon","coordinates":[[[[-42.60279,-17.66784],[-42.55027,-17.72945],[-42.52645,-17.6991],[-42.52439,-17.69291],[-42.53261,-17.68664],[-42.59674,-17.65153],[-42.60279,-17.66784]]]]}},{"type":"Feature","properties":{"territory_id":"mg-3112307-bouganville","name":"Bouganville","municipality_id":"mg-3112307","polling_places":1,"approx":true,"official":false,"method":"voronoi-polling-places","whole_municipality":false,"approx_coords_only":false},"geometry":{"type":"MultiPolygon","coordinates":[[[[-42.5061,-17.67194],[-42.50279,-17.70031],[-42.48309,-17.73403],[-42.44652,-17.65718],[-42.49367,-17.63108],[-42.5061,-17.67194]]]]}},{"type":"Feature","properties":{"territory_id":"mg-3112307-centro","name":"Centro","municipality_id":"mg-3112307","polling_places":3,"approx":true,"official":false,"method":"voronoi-polling-places","whole_municipality":false,"approx_coords_only":false},"geometry":{"type":"MultiPolygon","coordinates":[[[[-42.52376,-17.69291],[-42.51742,-17.69905],[-42.51582,-17.69731],[-42.51144,-17.69526],[-42.51326,-17.68418],[-42.51393,-17.68474],[-42.5161,-17.68724],[-42.52178,-17.69163],[-42.52376,-17.69291]]]]}},{"type":"Feature","properties":{"territory_id":"mg-3112307-jardim-aeroporto","name":"Jardim Aeroporto","municipality_id":"mg-3112307","polling_places":1,"approx":true,"official":false,"method":"voronoi-polling-places","whole_municipality":false,"approx_coords_only":false},"geometry":{"type":"MultiPolygon","coordinates":[[[[-42.59674,-17.65153],[-42.53261,-17.68664],[-42.51393,-17.68474],[-42.51326,-17.68418],[-42.5061,-17.67194],[-42.49367,-17.63108],[-42.53174,-17.59822],[-42.54724,-17.60007],[-42.5402,-17.6208],[-42.5888,-17.6308],[-42.59047,-17.62879],[-42.59674,-17.65153]]]]}},{"type":"Feature","properties":{"territory_id":"mg-3112307-maria-lucia","name":"Maria Lúcia","municipality_id":"mg-3112307","polling_places":1,"approx":true,"official":false,"method":"voronoi-polling-places","whole_municipality":false,"approx_coords_only":false},"geometry":{"type":"MultiPolygon","coordinates":[[[[-42.52645,-17.6991],[-42.51754,-17.70123],[-42.51742,-17.69905],[-42.52376,-17.69291],[-42.52439,-17.69291],[-42.52645,-17.6991]]]]}},{"type":"Feature","properties":{"territory_id":"mg-3112307-piedade","name":"Piedade","municipality_id":"mg-3112307","polling_places":1,"approx":true,"official":false,"method":"voronoi-polling-places","whole_municipality":false,"approx_coords_only":false},"geometry":{"type":"MultiPolygon","coordinates":[[[[-42.53261,-17.68664],[-42.52439,-17.69291],[-42.52376,-17.69291],[-42.52178,-17.69163],[-42.5161,-17.68724],[-42.51393,-17.68474],[-42.53261,-17.68664]]]]}},{"type":"Feature","properties":{"territory_id":"mg-3112307-vista-alegre","name":"Vista Alegre","municipality_id":"mg-3112307","polling_places":1,"approx":true,"official":false,"method":"voronoi-polling-places","whole_municipality":false,"approx_coords_only":false},"geometry":{"type":"MultiPolygon","coordinates":[[[[-42.55027,-17.72945],[-42.5319,-17.75622],[-42.50861,-17.74483],[-42.51754,-17.70123],[-42.52645,-17.6991],[-42.55027,-17.72945]]]]}},{"type":"Feature","properties":{"territory_id":"mg-3112307-zona-rural-barreiro","name":"Zona Rural - Barreiro","municipality_id":"mg-3112307","polling_places":1,"approx":true,"official":false,"method":"voronoi-polling-places","whole_municipality":false,"approx_coords_only":false},"geometry":{"type":"MultiPolygon","coordinates":[[[[-42.57167,-17.5731],[-42.5512,-17.5884],[-42.54724,-17.60007],[-42.53174,-17.59822],[-42.4823,-17.53918],[-42.518,-17.5211],[-42.55034,-17.49201],[-42.57089,-17.51167],[-42.57167,-17.5731]]]]}},{"type":"Feature","properties":{"territory_id":"mg-3112307-zona-rural-bom-jesus-do-galego","name":"Zona Rural - Bom Jesus do Galego","municipality_id":"mg-3112307","polling_places":1,"approx":true,"official":false,"method":"voronoi-polling-places","whole_municipality":false,"approx_coords_only":false},"geometry":{"type":"MultiPolygon","coordinates":[[[[-42.58667,-17.4959],[-42.57089,-17.51167],[-42.55034,-17.49201],[-42.5587,-17.4845],[-42.58667,-17.4959]]]]}},{"type":"Feature","properties":{"territory_id":"mg-3112307-zona-rural-chapadinha","name":"Zona Rural - Chapadinha","municipality_id":"mg-3112307","polling_places":1,"approx":true,"official":false,"method":"voronoi-polling-places","whole_municipality":false,"approx_coords_only":false},"geometry":{"type":"MultiPolygon","coordinates":[[[[-42.39609,-17.75048],[-42.37429,-17.78051],[-42.3732,-17.7667],[-42.3227,-17.7843],[-42.2995,-17.7297],[-42.30679,-17.72451],[-42.3876,-17.71822],[-42.39609,-17.75048]]]]}},{"type":"Feature","properties":{"territory_id":"mg-3112307-zona-rural-fanado","name":"Zona Rural - Fanado","municipality_id":"mg-3112307","polling_places":1,"approx":true,"official":false,"method":"voronoi-polling-places","whole_municipality":false,"approx_coords_only":false},"geometry":{"type":"MultiPolygon","coordinates":[[[[-42.53174,-17.59822],[-42.49367,-17.63108],[-42.44652,-17.65718],[-42.40062,-17.65514],[-42.35326,-17.60674],[-42.3701,-17.6096],[-42.4165,-17.5787],[-42.4428,-17.5762],[-42.4631,-17.5489],[-42.4823,-17.53918],[-42.53174,-17.59822]]]]}},{"type":"Feature","properties":{"territory_id":"mg-3112307-zona-rural-fanado-amanda","name":"Zona Rural - Fanado Amanda","municipality_id":"mg-3112307","polling_places":1,"approx":true,"official":false,"method":"voronoi-polling-places","whole_municipality":false,"approx_coords_only":false},"geometry":{"type":"MultiPolygon","coordinates":[[[[-42.40062,-17.65514],[-42.3876,-17.71822],[-42.30679,-17.72451],[-42.369,-17.6802],[-42.3273,-17.6367],[-42.2827,-17.6322],[-42.2882,-17.5957],[-42.35326,-17.60674],[-42.40062,-17.65514]]]]}},{"type":"Feature","properties":{"territory_id":"mg-3112307-zona-rural-gouvea-ii","name":"Zona Rural - Gouvea Ii","municipality_id":"mg-3112307","polling_places":1,"approx":true,"official":false,"method":"voronoi-polling-places","whole_municipality":false,"approx_coords_only":false},"geometry":{"type":"MultiPolygon","coordinates":[[[[-42.616,-17.7689],[-42.56471,-17.84501],[-42.5319,-17.75622],[-42.55027,-17.72945],[-42.60279,-17.66784],[-42.61251,-17.67639],[-42.5998,-17.7221],[-42.616,-17.7689]]]]}},{"type":"Feature","properties":{"territory_id":"mg-3112307-zona-rural-grota-grande","name":"Zona Rural - Grota Grande","municipality_id":"mg-3112307","polling_places":1,"approx":true,"official":false,"method":"voronoi-polling-places","whole_municipality":false,"approx_coords_only":false},"geometry":{"type":"MultiPolygon","coordinates":[[[[-42.56471,-17.84501],[-42.5476,-17.8704],[-42.5568,-17.8984],[-42.5109,-17.9291],[-42.4866,-17.9266],[-42.4884,-17.8822],[-42.4655,-17.8356],[-42.4609,-17.83212],[-42.45988,-17.82812],[-42.47984,-17.73869],[-42.48366,-17.73608],[-42.50861,-17.74483],[-42.5319,-17.75622],[-42.56471,-17.84501]]]]}},{"type":"Feature","properties":{"territory_id":"mg-3112307-zona-rural-manoel-luiz","name":"Zona Rural - Manoel Luiz","municipality_id":"mg-3112307","polling_places":1,"approx":true,"official":false,"method":"voronoi-polling-places","whole_municipality":false,"approx_coords_only":false},"geometry":{"type":"MultiPolygon","coordinates":[[[[-42.48366,-17.73608],[-42.47984,-17.73869],[-42.4207,-17.75728],[-42.39609,-17.75048],[-42.3876,-17.71822],[-42.40062,-17.65514],[-42.44652,-17.65718],[-42.48309,-17.73403],[-42.48366,-17.73608]]]]}},{"type":"Feature","properties":{"territory_id":"mg-3112307-zona-rural-ponte-nova","name":"Zona Rural - Ponte Nova","municipality_id":"mg-3112307","polling_places":1,"approx":true,"official":false,"method":"voronoi-polling-places","whole_municipality":false,"approx_coords_only":false},"geometry":{"type":"MultiPolygon","coordinates":[[[[-42.68509,-17.60839],[-42.6597,-17.6579],[-42.6139,-17.6714],[-42.61251,-17.67639],[-42.60279,-17.66784],[-42.59674,-17.65153],[-42.59047,-17.62879],[-42.60271,-17.61405],[-42.68509,-17.60839]]]]}},{"type":"Feature","properties":{"territory_id":"mg-3112307-zona-rural-resplendor","name":"Zona Rural - Resplendor","municipality_id":"mg-3112307","polling_places":1,"approx":true,"official":false,"method":"voronoi-polling-places","whole_municipality":false,"approx_coords_only":false},"geometry":{"type":"MultiPolygon","coordinates":[[[[-42.4609,-17.83212],[-42.4115,-17.7947],[-42.3758,-17.7996],[-42.37429,-17.78051],[-42.39609,-17.75048],[-42.4207,-17.75728],[-42.45988,-17.82812],[-42.4609,-17.83212]]]]}},{"type":"Feature","properties":{"territory_id":"mg-3112307-zona-rural-sao-caetano","name":"Zona Rural - São Caetano","municipality_id":"mg-3112307","polling_places":1,"approx":true,"official":false,"method":"voronoi-polling-places","whole_municipality":false,"approx_coords_only":false},"geometry":{"type":"MultiPolygon","coordinates":[[[[-42.6956,-17.5879],[-42.68509,-17.60839],[-42.60271,-17.61405],[-42.6133,-17.6013],[-42.6628,-17.5862],[-42.6525,-17.5537],[-42.6842,-17.55],[-42.6956,-17.5879]]]]}},{"type":"Feature","properties":{"territory_id":"mg-3112307-zona-rural-vendinhas","name":"Zona Rural - Vendinhas","municipality_id":"mg-3112307","polling_places":1,"approx":true,"official":false,"method":"voronoi-polling-places","whole_municipality":false,"approx_coords_only":false},"geometry":{"type":"MultiPolygon","coordinates":[[[[-42.5992,-17.501],[-42.5809,-17.5662],[-42.57167,-17.5731],[-42.57089,-17.51167],[-42.58667,-17.4959],[-42.5992,-17.501]]]]}},{"type":"Feature","properties":{"territory_id":"mg-3112307-zona-rural-vila-dom-joao-pimenta","name":"Zona Rural - Vila Dom João Pimenta","municipality_id":"mg-3112307","polling_places":1,"approx":true,"official":false,"method":"voronoi-polling-places","whole_municipality":false,"approx_coords_only":false},"geometry":{"type":"MultiPolygon","coordinates":[[[[-42.47984,-17.73869],[-42.45988,-17.82812],[-42.4207,-17.75728],[-42.47984,-17.73869]]]]}}]}