{"type":"FeatureCollection","features":[{"type":"Feature","properties":{"territory_id":"mg-3112109-centro","name":"Centro","municipality_id":"mg-3112109","polling_places":5,"approx":true,"official":false,"method":"voronoi-polling-places","whole_municipality":false,"approx_coords_only":false},"geometry":{"type":"MultiPolygon","coordinates":[[[[-41.9602,-20.50501],[-41.93788,-20.55992],[-41.8989,-20.5806],[-41.8707,-20.5698],[-41.8502,-20.4982],[-41.9143,-20.4881],[-41.9212,-20.5136],[-41.9602,-20.50501]]]]}},{"type":"Feature","properties":{"territory_id":"mg-3112109-zona-rural","name":"Zona Rural","municipality_id":"mg-3112109","polling_places":3,"approx":true,"official":false,"method":"voronoi-polling-places","whole_municipality":false,"approx_coords_only":false},"geometry":{"type":"MultiPolygon","coordinates":[[[[-42.0688,-20.5095],[-42.0658,-20.5171],[-41.9938,-20.5521],[-41.9626,-20.5468],[-41.93788,-20.55992],[-41.9602,-20.50501],[-41.9625,-20.5045],[-41.9866,-20.4817],[-42.022,-20.4989],[-42.0585,-20.4994],[-42.0688,-20.5095]]]]}}]}