{"type":"FeatureCollection","features":[{"type":"Feature","properties":{"territory_id":"mg-3112208-centro","name":"Centro","municipality_id":"mg-3112208","polling_places":2,"approx":true,"official":false,"method":"voronoi-polling-places","whole_municipality":false,"approx_coords_only":false},"geometry":{"type":"MultiPolygon","coordinates":[[[[-43.65246,-20.91623],[-43.63305,-20.95307],[-43.59863,-20.95065],[-43.61487,-20.9172],[-43.61947,-20.92642],[-43.63335,-20.90974],[-43.65246,-20.91623]]]]}},{"type":"Feature","properties":{"territory_id":"mg-3112208-lobas","name":"Lobas","municipality_id":"mg-3112208","polling_places":1,"approx":true,"official":false,"method":"voronoi-polling-places","whole_municipality":false,"approx_coords_only":false},"geometry":{"type":"MultiPolygon","coordinates":[[[[-43.6755,-20.9293],[-43.6476,-20.9541],[-43.63305,-20.95307],[-43.65246,-20.91623],[-43.66198,-20.91205],[-43.6755,-20.9293]]]]}},{"type":"Feature","properties":{"territory_id":"mg-3112208-melo","name":"Melo","municipality_id":"mg-3112208","polling_places":1,"approx":true,"official":false,"method":"voronoi-polling-places","whole_municipality":false,"approx_coords_only":false},"geometry":{"type":"MultiPolygon","coordinates":[[[[-43.6081,-20.89173],[-43.55484,-20.94412],[-43.5227,-20.9376],[-43.5773,-20.8766],[-43.60691,-20.86268],[-43.6081,-20.89173]]]]}},{"type":"Feature","properties":{"territory_id":"mg-3112208-palmeiras","name":"Palmeiras","municipality_id":"mg-3112208","polling_places":1,"approx":true,"official":false,"method":"voronoi-polling-places","whole_municipality":false,"approx_coords_only":false},"geometry":{"type":"MultiPolygon","coordinates":[[[[-43.63335,-20.90974],[-43.61947,-20.92642],[-43.61487,-20.9172],[-43.62088,-20.90361],[-43.63335,-20.90974]]]]}},{"type":"Feature","properties":{"territory_id":"mg-3112208-raposa","name":"Raposa","municipality_id":"mg-3112208","polling_places":1,"approx":true,"official":false,"method":"voronoi-polling-places","whole_municipality":false,"approx_coords_only":false},"geometry":{"type":"MultiPolygon","coordinates":[[[[-43.66198,-20.91205],[-43.65246,-20.91623],[-43.63335,-20.90974],[-43.62088,-20.90361],[-43.6081,-20.89173],[-43.60691,-20.86268],[-43.6188,-20.8571],[-43.619,-20.8572],[-43.66198,-20.91205]]]]}},{"type":"Feature","properties":{"territory_id":"mg-3112208-souza","name":"Souza","municipality_id":"mg-3112208","polling_places":1,"approx":true,"official":false,"method":"voronoi-polling-places","whole_municipality":false,"approx_coords_only":false},"geometry":{"type":"MultiPolygon","coordinates":[[[[-43.62088,-20.90361],[-43.61487,-20.9172],[-43.59863,-20.95065],[-43.5809,-20.9494],[-43.55484,-20.94412],[-43.6081,-20.89173],[-43.62088,-20.90361]]]]}}]}