{"type":"FeatureCollection","features":[{"type":"Feature","properties":{"territory_id":"mg-3112653-centro","name":"Centro","municipality_id":"mg-3112653","polling_places":1,"approx":true,"official":false,"method":"voronoi-polling-places","whole_municipality":false,"approx_coords_only":false},"geometry":{"type":"MultiPolygon","coordinates":[[[[-41.9457,-19.0225],[-41.9426,-19.0606],[-41.8987,-19.0659],[-41.9044,-19.1179],[-41.844,-19.1242],[-41.83885,-19.12246],[-41.86111,-19.07163],[-41.94204,-19.00665],[-41.9457,-19.0225]]]]}},{"type":"Feature","properties":{"territory_id":"mg-3112653-distrito-bom-jesus-da-vista-alegre","name":"Distrito Bom Jesus da Vista Alegre","municipality_id":"mg-3112653","polling_places":1,"approx":true,"official":false,"method":"voronoi-polling-places","whole_municipality":false,"approx_coords_only":false},"geometry":{"type":"MultiPolygon","coordinates":[[[[-41.82641,-18.9878],[-41.82529,-19.01735],[-41.81894,-19.11573],[-41.7402,-19.0891],[-41.7051,-19.0947],[-41.6986,-19.0457],[-41.7358,-19.0485],[-41.7405,-18.9998],[-41.7666,-18.9731],[-41.8043,-18.9759],[-41.82641,-18.9878]]]]}},{"type":"Feature","properties":{"territory_id":"mg-3112653-sao-geraldo","name":"São Geraldo","municipality_id":"mg-3112653","polling_places":2,"approx":true,"official":false,"method":"voronoi-polling-places","whole_municipality":false,"approx_coords_only":false},"geometry":{"type":"MultiPolygon","coordinates":[[[[-41.94204,-19.00665],[-41.86111,-19.07163],[-41.86014,-19.06963],[-41.82529,-19.01735],[-41.82641,-18.9878],[-41.889,-19.0215],[-41.9373,-18.9831],[-41.9375,-18.987],[-41.94204,-19.00665]]]]}},{"type":"Feature","properties":{"territory_id":"mg-3112653-sao-jose","name":"São José","municipality_id":"mg-3112653","polling_places":1,"approx":true,"official":false,"method":"voronoi-polling-places","whole_municipality":false,"approx_coords_only":false},"geometry":{"type":"MultiPolygon","coordinates":[[[[-41.86111,-19.07163],[-41.83885,-19.12246],[-41.81894,-19.11573],[-41.82529,-19.01735],[-41.86014,-19.06963],[-41.86111,-19.07163]]]]}}]}