{"type":"FeatureCollection","features":[{"type":"Feature","properties":{"territory_id":"mg-3112000-alto-do-cruzeiro","name":"Alto do Cruzeiro","municipality_id":"mg-3112000","polling_places":1,"approx":true,"official":false,"method":"voronoi-polling-places","whole_municipality":false,"approx_coords_only":false},"geometry":{"type":"MultiPolygon","coordinates":[[[[-45.28381,-20.8142],[-45.27754,-20.82826],[-45.21596,-20.74804],[-45.22494,-20.75163],[-45.27434,-20.77995],[-45.27469,-20.78034],[-45.28381,-20.8142]]]]}},{"type":"Feature","properties":{"territory_id":"mg-3112000-centro","name":"Centro","municipality_id":"mg-3112000","polling_places":5,"approx":true,"official":false,"method":"voronoi-polling-places","whole_municipality":false,"approx_coords_only":false},"geometry":{"type":"MultiPolygon","coordinates":[[[[-45.28631,-20.76499],[-45.28085,-20.76974],[-45.28032,-20.77078],[-45.27849,-20.77316],[-45.27469,-20.78034],[-45.27434,-20.77995],[-45.22494,-20.75163],[-45.23364,-20.75455],[-45.27903,-20.7645],[-45.28631,-20.76499]]]]}},{"type":"Feature","properties":{"territory_id":"mg-3112000-rio-branco","name":"Rio Branco","municipality_id":"mg-3112000","polling_places":1,"approx":true,"official":false,"method":"voronoi-polling-places","whole_municipality":false,"approx_coords_only":false},"geometry":{"type":"MultiPolygon","coordinates":[[[[-45.31093,-20.75363],[-45.28631,-20.76499],[-45.27903,-20.7645],[-45.23364,-20.75455],[-45.22494,-20.75163],[-45.21596,-20.74804],[-45.20606,-20.73882],[-45.2201,-20.66724],[-45.2226,-20.6672],[-45.2603,-20.6509],[-45.2874,-20.6669],[-45.31093,-20.75363]]]]}},{"type":"Feature","properties":{"territory_id":"mg-3112000-triangulo","name":"Triangulo","municipality_id":"mg-3112000","polling_places":2,"approx":true,"official":false,"method":"voronoi-polling-places","whole_municipality":false,"approx_coords_only":false},"geometry":{"type":"MultiPolygon","coordinates":[[[[-45.31776,-20.76629],[-45.28707,-20.80933],[-45.28381,-20.8142],[-45.27469,-20.78034],[-45.27849,-20.77316],[-45.28032,-20.77078],[-45.28085,-20.76974],[-45.28631,-20.76499],[-45.31093,-20.75363],[-45.31776,-20.76629]]]]}},{"type":"Feature","properties":{"territory_id":"mg-3112000-zona-rural","name":"Zona Rural","municipality_id":"mg-3112000","polling_places":12,"approx":true,"official":false,"method":"voronoi-polling-places","whole_municipality":false,"approx_coords_only":false},"geometry":{"type":"MultiPolygon","coordinates":[[[[-45.5123,-20.6964],[-45.4828,-20.7447],[-45.4532,-20.762],[-45.3921,-20.829],[-45.3898,-20.8476],[-45.3139,-20.8212],[-45.2712,-20.8462],[-45.1677,-20.8289],[-45.1333,-20.8397],[-45.118,-20.8206],[-45.0705,-20.8393],[-45.0565,-20.8169],[-45.0687,-20.7629],[-45.0852,-20.7443],[-45.1048,-20.7165],[-45.1454,-20.6996],[-45.1467,-20.6683],[-45.2201,-20.66724],[-45.20606,-20.73882],[-45.21596,-20.74804],[-45.27754,-20.82826],[-45.28381,-20.8142],[-45.28707,-20.80933],[-45.31776,-20.76629],[-45.31093,-20.75363],[-45.2874,-20.6669],[-45.2935,-20.6705],[-45.3173,-20.6563],[-45.3572,-20.6739],[-45.4109,-20.6586],[-45.4857,-20.6714],[-45.5123,-20.6964]]]]}}]}