{"type":"FeatureCollection","features":[{"type":"Feature","properties":{"territory_id":"mg-3113305-alvorada","name":"Alvorada","municipality_id":"mg-3113305","polling_places":1,"approx":true,"official":false,"method":"voronoi-polling-places","whole_municipality":false,"approx_coords_only":false},"geometry":{"type":"MultiPolygon","coordinates":[[[[-42.18099,-20.71871],[-42.15798,-20.76612],[-42.1459,-20.7495],[-42.10006,-20.73516],[-42.1359,-20.69035],[-42.17255,-20.68916],[-42.18099,-20.71871]]]]}},{"type":"Feature","properties":{"territory_id":"mg-3113305-centro","name":"Centro","municipality_id":"mg-3113305","polling_places":3,"approx":false,"official":true,"method":"official-ibge-cd2022","whole_municipality":false,"approx_coords_only":false,"official_name":"Centro","official_code":"3113305001","match":"direct"},"geometry":{"type":"MultiPolygon","coordinates":[[[[-42.02948,-20.73537],[-42.02963,-20.73521],[-42.03021,-20.73494],[-42.03077,-20.73451],[-42.03141,-20.73385],[-42.03214,-20.7333],[-42.03265,-20.733],[-42.0332,-20.73276],[-42.03424,-20.73238],[-42.03471,-20.73202],[-42.03537,-20.73127],[-42.0358,-20.73095],[-42.03602,-20.73052],[-42.03614,-20.72986],[-42.03608,-20.72963],[-42.03597,-20.7295],[-42.0355,-20.72921],[-42.03471,-20.72859],[-42.03313,-20.72783],[-42.03251,-20.72738],[-42.03241,-20.72714],[-42.03243,-20.72695],[-42.03255,-20.72682],[-42.03228,-20.72666],[-42.0322,-20.72673],[-42.03217,-20.72686],[-42.03214,-20.72731],[-42.03218,-20.72737],[-42.03276,-20.7279],[-42.03313,-20.72818],[-42.03417,-20.72887],[-42.03437,-20.72903],[-42.0348,-20.72946],[-42.03464,-20.72961],[-42.03437,-20.72978],[-42.03426,-20.72979],[-42.03416,-20.72977],[-42.03408,-20.72978],[-42.03391,-20.7298],[-42.03352,-20.73],[-42.03341,-20.73001],[-42.0333,-20.72999],[-42.03302,-20.73006],[-42.03278,-20.7303],[-42.03238,-20.73061],[-42.03206,-20.73092],[-42.03179,-20.73129],[-42.03126,-20.7309],[-42.03116,-20.73104],[-42.03086,-20.73131],[-42.0306,-20.73149],[-42.02983,-20.73052],[-42.02966,-20.73041],[-42.02902,-20.73004],[-42.02887,-20.73006],[-42.02878,-20.73031],[-42.02861,-20.73041],[-42.02857,-20.73047],[-42.02823,-20.73049],[-42.02824,-20.73081],[-42.02823,-20.73104],[-42.02802,-20.73059],[-42.02795,-20.7305],[-42.02776,-20.7304],[-42.0273,-20.73036],[-42.02733,-20.73053],[-42.02724,-20.73054],[-42.02654,-20.7304],[-42.02563,-20.7284],[-42.02489,-20.72851],[-42.02443,-20.72871],[-42.02389,-20.72976],[-42.02294,-20.73086],[-42.02288,-20.73127],[-42.02291,-20.73241],[-42.02252,-20.73267],[-42.02231,-20.73284],[-42.02167,-20.73344],[-42.0214,-20.73374],[-42.02124,-20.73385],[-42.0214,-20.73428],[-42.02149,-20.73475],[-42.02165,-20.73513],[-42.02151,-20.73535],[-42.02237,-20.73631],[-42.02233,-20.73639],[-42.02226,-20.73644],[-42.02174,-20.73656],[-42.02125,-20.73674],[-42.02173,-20.73723],[-42.02219,-20.73702],[-42.02298,-20.73678],[-42.02346,-20.73669],[-42.02392,-20.73656],[-42.02472,-20.73644],[-42.02488,-20.73636],[-42.02526,-20.73614],[-42.02543,-20.73606],[-42.02526,-20.73652],[-42.02557,-20.73679],[-42.02582,-20.73714],[-42.02634,-20.73793],[-42.02618,-20.73805],[-42.02633,-20.73821],[-42.02636,-20.73818],[-42.02746,-20.73764],[-42.028,-20.73765],[-42.02823,-20.73763],[-42.02844,-20.73751],[-42.02879,-20.73712],[-42.02909,-20.7364],[-42.02914,-20.73584],[-42.02929,-20.73561],[-42.02946,-20.73541],[-42.02948,-20.73537]]]]}},{"type":"Feature","properties":{"territory_id":"mg-3113305-chevrand","name":"Chevrand","municipality_id":"mg-3113305","polling_places":1,"approx":false,"official":true,"method":"official-ibge-cd2022","whole_municipality":false,"approx_coords_only":false,"official_name":"Chevrand","official_code":"3113305004","match":"direct"},"geometry":{"type":"MultiPolygon","coordinates":[[[[-42.037,-20.7291],[-42.03638,-20.72954],[-42.03624,-20.72955],[-42.03608,-20.72963],[-42.03614,-20.72986],[-42.03602,-20.73052],[-42.0358,-20.73095],[-42.03537,-20.73127],[-42.03471,-20.73202],[-42.03424,-20.73238],[-42.03369,-20.73258],[-42.03379,-20.73276],[-42.034,-20.73284],[-42.0341,-20.73299],[-42.03407,-20.73319],[-42.03418,-20.73344],[-42.03529,-20.7342],[-42.03596,-20.73463],[-42.03664,-20.73482],[-42.03716,-20.73468],[-42.03827,-20.73414],[-42.03849,-20.7343],[-42.03859,-20.734],[-42.04039,-20.73333],[-42.04085,-20.73374],[-42.04187,-20.73411],[-42.04322,-20.73369],[-42.04442,-20.7332],[-42.04548,-20.73287],[-42.04566,-20.73255],[-42.04574,-20.7323],[-42.04552,-20.73207],[-42.04533,-20.73201],[-42.0452,-20.73186],[-42.04518,-20.73161],[-42.04498,-20.73153],[-42.04487,-20.73141],[-42.04473,-20.73135],[-42.04459,-20.73117],[-42.04444,-20.73109],[-42.04429,-20.73106],[-42.04425,-20.73088],[-42.04396,-20.73083],[-42.04383,-20.73082],[-42.0437,-20.7307],[-42.04364,-20.73055],[-42.04371,-20.73043],[-42.04362,-20.73032],[-42.04349,-20.73028],[-42.04337,-20.73014],[-42.04337,-20.72995],[-42.0433,-20.7299],[-42.04318,-20.72993],[-42.04291,-20.72983],[-42.0428,-20.72993],[-42.04268,-20.73018],[-42.04245,-20.73027],[-42.04234,-20.73047],[-42.04224,-20.73054],[-42.04136,-20.73062],[-42.04119,-20.73061],[-42.04103,-20.73049],[-42.04073,-20.73049],[-42.04009,-20.7304],[-42.03984,-20.73015],[-42.0396,-20.73004],[-42.03919,-20.73006],[-42.03891,-20.73005],[-42.0386,-20.72994],[-42.03775,-20.7294],[-42.03734,-20.72918],[-42.03709,-20.72901],[-42.037,-20.7291]]]]}},{"type":"Feature","properties":{"territory_id":"mg-3113305-conceicao","name":"Conceição","municipality_id":"mg-3113305","polling_places":1,"approx":true,"official":false,"method":"voronoi-polling-places","whole_municipality":false,"approx_coords_only":false},"geometry":{"type":"MultiPolygon","coordinates":[[[[-42.10477,-20.66392],[-42.06151,-20.68762],[-42.00578,-20.62543],[-42.0218,-20.6131],[-42.0773,-20.5997],[-42.0956,-20.6557],[-42.10477,-20.66392]]]]}},{"type":"Feature","properties":{"territory_id":"mg-3113305-coroado","name":"Coroado","municipality_id":"mg-3113305","polling_places":1,"approx":false,"official":true,"method":"official-ibge-cd2022","whole_municipality":false,"approx_coords_only":false,"official_name":"Coroado","official_code":"3113305012","match":"direct"},"geometry":{"type":"MultiPolygon","coordinates":[[[[-42.01801,-20.7367],[-42.0184,-20.73651],[-42.01863,-20.73642],[-42.01885,-20.73668],[-42.01917,-20.73695],[-42.01934,-20.73713],[-42.01951,-20.73724],[-42.01974,-20.73734],[-42.01997,-20.7374],[-42.02019,-20.73743],[-42.02055,-20.73741],[-42.02121,-20.73741],[-42.02173,-20.73723],[-42.02125,-20.73674],[-42.02174,-20.73656],[-42.02226,-20.73644],[-42.02233,-20.73639],[-42.02237,-20.73631],[-42.02151,-20.73535],[-42.02165,-20.73513],[-42.02149,-20.73475],[-42.0214,-20.73428],[-42.02124,-20.73385],[-42.0214,-20.73374],[-42.02167,-20.73344],[-42.02231,-20.73284],[-42.02252,-20.73267],[-42.02291,-20.73241],[-42.02288,-20.73127],[-42.02294,-20.73086],[-42.02389,-20.72976],[-42.02443,-20.72871],[-42.02489,-20.72851],[-42.02563,-20.7284],[-42.02576,-20.7279],[-42.02604,-20.72727],[-42.02433,-20.72673],[-42.02292,-20.72696],[-42.02212,-20.72725],[-42.02184,-20.72764],[-42.02163,-20.72786],[-42.02149,-20.72798],[-42.02122,-20.72805],[-42.02062,-20.72816],[-42.02043,-20.72818],[-42.02018,-20.72817],[-42.02007,-20.72829],[-42.01999,-20.72847],[-42.02006,-20.72905],[-42.02006,-20.72958],[-42.01986,-20.72997],[-42.01946,-20.73016],[-42.01931,-20.73031],[-42.01916,-20.73075],[-42.01901,-20.73101],[-42.01859,-20.73144],[-42.01824,-20.73158],[-42.01792,-20.73154],[-42.01773,-20.73144],[-42.01707,-20.73176],[-42.01693,-20.73188],[-42.01688,-20.732],[-42.01676,-20.73273],[-42.01668,-20.73354],[-42.01641,-20.73538],[-42.01635,-20.7361],[-42.01636,-20.7362],[-42.01641,-20.73626],[-42.01662,-20.73645],[-42.0169,-20.73665],[-42.01727,-20.73686],[-42.01753,-20.73706],[-42.0177,-20.73727],[-42.01815,-20.7382],[-42.01837,-20.73826],[-42.01849,-20.73838],[-42.01871,-20.73887],[-42.01885,-20.73889],[-42.01899,-20.7389],[-42.01936,-20.73918],[-42.01976,-20.73872],[-42.02,-20.73842],[-42.01902,-20.73769],[-42.01821,-20.73706],[-42.01814,-20.73698],[-42.01808,-20.73685],[-42.01801,-20.7367]]]]}},{"type":"Feature","properties":{"territory_id":"mg-3113305-corrego-barroso","name":"Corrego Barroso","municipality_id":"mg-3113305","polling_places":1,"approx":true,"official":false,"method":"voronoi-polling-places","whole_municipality":false,"approx_coords_only":false},"geometry":{"type":"MultiPolygon","coordinates":[[[[-42.2179,-20.7925],[-42.2013,-20.8159],[-42.1722,-20.7857],[-42.16328,-20.77342],[-42.20612,-20.76316],[-42.2059,-20.7633],[-42.2179,-20.7925]]]]}},{"type":"Feature","properties":{"territory_id":"mg-3113305-corrego-sao-bento","name":"Corrego São Bento","municipality_id":"mg-3113305","polling_places":1,"approx":true,"official":false,"method":"voronoi-polling-places","whole_municipality":false,"approx_coords_only":false},"geometry":{"type":"MultiPolygon","coordinates":[[[[-42.23833,-20.74272],[-42.20612,-20.76316],[-42.16328,-20.77342],[-42.15798,-20.76612],[-42.18099,-20.71871],[-42.23833,-20.74272]]]]}},{"type":"Feature","properties":{"territory_id":"mg-3113305-eldorado","name":"Eldorado","municipality_id":"mg-3113305","polling_places":1,"approx":false,"official":true,"method":"official-ibge-cd2022","whole_municipality":false,"approx_coords_only":false,"official_name":"Eldorado","official_code":"3113305013","match":"direct"},"geometry":{"type":"MultiPolygon","coordinates":[[[[-42.01253,-20.73627],[-42.01265,-20.73641],[-42.01275,-20.73648],[-42.01294,-20.73653],[-42.01353,-20.73654],[-42.0137,-20.73649],[-42.01381,-20.73625],[-42.0137,-20.73618],[-42.01371,-20.73583],[-42.01578,-20.73604],[-42.01635,-20.73613],[-42.01641,-20.73538],[-42.01668,-20.73354],[-42.01676,-20.73273],[-42.01688,-20.732],[-42.01679,-20.73201],[-42.01668,-20.73205],[-42.01633,-20.73232],[-42.01623,-20.73235],[-42.01612,-20.73234],[-42.01602,-20.7323],[-42.01572,-20.73208],[-42.01552,-20.7319],[-42.01544,-20.73179],[-42.01532,-20.73171],[-42.01516,-20.73169],[-42.01502,-20.73171],[-42.01486,-20.7318],[-42.01476,-20.73189],[-42.01474,-20.73212],[-42.01428,-20.73221],[-42.0141,-20.73235],[-42.01398,-20.73258],[-42.01362,-20.73261],[-42.01242,-20.73238],[-42.01231,-20.73345],[-42.01249,-20.73345],[-42.01243,-20.73414],[-42.01313,-20.73416],[-42.01306,-20.73464],[-42.01253,-20.73513],[-42.01149,-20.73508],[-42.01157,-20.73646],[-42.01183,-20.73664],[-42.01193,-20.73662],[-42.01203,-20.73675],[-42.01234,-20.73706],[-42.0124,-20.73715],[-42.01241,-20.73706],[-42.0125,-20.73695],[-42.01255,-20.73675],[-42.01254,-20.73648],[-42.0125,-20.73634],[-42.01253,-20.73627]]]]}},{"type":"Feature","properties":{"territory_id":"mg-3113305-lacerdinha","name":"Lacerdinha","municipality_id":"mg-3113305","polling_places":1,"approx":true,"official":false,"method":"voronoi-polling-places","whole_municipality":false,"approx_coords_only":false},"geometry":{"type":"MultiPolygon","coordinates":[[[[-42.06883,-20.73566],[-42.0475,-20.7419],[-42.0204,-20.7743],[-41.9674,-20.7551],[-41.9682,-20.7326],[-41.9576,-20.6951],[-41.9884,-20.6388],[-42.00578,-20.62543],[-42.06151,-20.68762],[-42.06883,-20.73566]],[[-42.04574,-20.7323],[-42.04552,-20.73207],[-42.04533,-20.73201],[-42.0452,-20.73186],[-42.04518,-20.73161],[-42.04498,-20.73153],[-42.04487,-20.73141],[-42.04473,-20.73135],[-42.04459,-20.73117],[-42.04444,-20.73109],[-42.04429,-20.73106],[-42.04425,-20.73088],[-42.04396,-20.73083],[-42.04383,-20.73082],[-42.0437,-20.7307],[-42.04364,-20.73055],[-42.04371,-20.73043],[-42.04362,-20.73032],[-42.04349,-20.73028],[-42.04337,-20.73014],[-42.04337,-20.72995],[-42.0433,-20.7299],[-42.04318,-20.72993],[-42.04291,-20.72983],[-42.0428,-20.72993],[-42.04268,-20.73018],[-42.04245,-20.73027],[-42.04234,-20.73047],[-42.04224,-20.73054],[-42.04136,-20.73062],[-42.04119,-20.73061],[-42.04103,-20.73049],[-42.04073,-20.73049],[-42.04009,-20.7304],[-42.03984,-20.73015],[-42.0396,-20.73004],[-42.03919,-20.73006],[-42.03891,-20.73005],[-42.0386,-20.72994],[-42.03775,-20.7294],[-42.03734,-20.72918],[-42.03709,-20.72901],[-42.037,-20.7291],[-42.03722,-20.72886],[-42.03736,-20.72867],[-42.03741,-20.72854],[-42.0374,-20.72836],[-42.03735,-20.72807],[-42.03729,-20.72786],[-42.03693,-20.72693],[-42.03683,-20.72646],[-42.03678,-20.72601],[-42.03677,-20.72562],[-42.03678,-20.72541],[-42.03681,-20.72522],[-42.03692,-20.7247],[-42.037,-20.72449],[-42.03713,-20.72421],[-42.03709,-20.72415],[-42.03712,-20.72401],[-42.0371,-20.72396],[-42.03692,-20.72423],[-42.03627,-20.72401],[-42.03622,-20.7243],[-42.03604,-20.72443],[-42.03585,-20.72436],[-42.03556,-20.72396],[-42.03542,-20.7239],[-42.03521,-20.72395],[-42.03506,-20.72412],[-42.03485,-20.72453],[-42.03438,-20.72552],[-42.03397,-20.726],[-42.03283,-20.7266],[-42.03255,-20.72682],[-42.03228,-20.72666],[-42.0322,-20.72673],[-42.03217,-20.72686],[-42.03214,-20.72731],[-42.03218,-20.72737],[-42.03276,-20.7279],[-42.03313,-20.72818],[-42.03417,-20.72887],[-42.03437,-20.72903],[-42.0348,-20.72946],[-42.03464,-20.72961],[-42.03437,-20.72978],[-42.03426,-20.72979],[-42.03416,-20.72977],[-42.03408,-20.72978],[-42.03391,-20.7298],[-42.03352,-20.73],[-42.03341,-20.73001],[-42.0333,-20.72999],[-42.03302,-20.73006],[-42.03278,-20.7303],[-42.03238,-20.73061],[-42.03206,-20.73092],[-42.03179,-20.73129],[-42.03126,-20.7309],[-42.03116,-20.73104],[-42.03086,-20.73131],[-42.0306,-20.73149],[-42.02983,-20.73052],[-42.02966,-20.73041],[-42.02902,-20.73004],[-42.02887,-20.73006],[-42.02878,-20.73031],[-42.02861,-20.73041],[-42.02857,-20.73047],[-42.02823,-20.73049],[-42.02824,-20.73081],[-42.02823,-20.73104],[-42.02802,-20.73059],[-42.02795,-20.7305],[-42.02776,-20.7304],[-42.0273,-20.73036],[-42.02733,-20.73053],[-42.02724,-20.73054],[-42.02654,-20.7304],[-42.02563,-20.7284],[-42.02576,-20.7279],[-42.02604,-20.72727],[-42.02433,-20.72673],[-42.02292,-20.72696],[-42.02212,-20.72725],[-42.02184,-20.72764],[-42.02163,-20.72786],[-42.02149,-20.72798],[-42.02122,-20.72805],[-42.02062,-20.72816],[-42.02043,-20.72818],[-42.02018,-20.72817],[-42.02007,-20.72829],[-42.01999,-20.72847],[-42.02006,-20.72905],[-42.02006,-20.72958],[-42.01986,-20.72997],[-42.01946,-20.73016],[-42.01931,-20.73031],[-42.01916,-20.73075],[-42.01901,-20.73101],[-42.01859,-20.73144],[-42.01824,-20.73158],[-42.01792,-20.73154],[-42.01773,-20.73144],[-42.01707,-20.73176],[-42.01693,-20.73188],[-42.01688,-20.732],[-42.01679,-20.73201],[-42.01668,-20.73205],[-42.01633,-20.73232],[-42.01623,-20.73235],[-42.01612,-20.73234],[-42.01602,-20.7323],[-42.01572,-20.73208],[-42.01552,-20.7319],[-42.01544,-20.73179],[-42.01532,-20.73171],[-42.01516,-20.73169],[-42.01502,-20.73171],[-42.01486,-20.7318],[-42.01476,-20.73189],[-42.01474,-20.73212],[-42.01428,-20.73221],[-42.0141,-20.73235],[-42.01398,-20.73258],[-42.01362,-20.73261],[-42.01242,-20.73238],[-42.01231,-20.73345],[-42.01249,-20.73345],[-42.01243,-20.73414],[-42.01313,-20.73416],[-42.01306,-20.73464],[-42.01253,-20.73513],[-42.01149,-20.73508],[-42.01157,-20.73646],[-42.01183,-20.73664],[-42.01193,-20.73662],[-42.01203,-20.73675],[-42.01234,-20.73706],[-42.0124,-20.73715],[-42.01241,-20.73706],[-42.0125,-20.73695],[-42.01255,-20.73675],[-42.01254,-20.73648],[-42.0125,-20.73634],[-42.01253,-20.73627],[-42.01265,-20.73641],[-42.01275,-20.73648],[-42.01294,-20.73653],[-42.01353,-20.73654],[-42.0137,-20.73649],[-42.01381,-20.73625],[-42.0137,-20.73618],[-42.01371,-20.73583],[-42.01578,-20.73604],[-42.01635,-20.73613],[-42.01625,-20.73612],[-42.01626,-20.73651],[-42.01635,-20.73736],[-42.01638,-20.73748],[-42.01695,-20.73786],[-42.01703,-20.73794],[-42.01708,-20.73803],[-42.01711,-20.7383],[-42.01725,-20.73845],[-42.01736,-20.73866],[-42.01739,-20.73877],[-42.01739,-20.73889],[-42.01731,-20.73928],[-42.01721,-20.7394],[-42.01706,-20.7395],[-42.01701,-20.73961],[-42.01685,-20.74042],[-42.01667,-20.74101],[-42.01678,-20.74108],[-42.01709,-20.74124],[-42.01697,-20.74152],[-42.01695,-20.74164],[-42.01697,-20.74188],[-42.01719,-20.74259],[-42.0172,-20.74269],[-42.0172,-20.74279],[-42.01716,-20.74292],[-42.017,-20.7432],[-42.01686,-20.74341],[-42.01691,-20.74343],[-42.01688,-20.74355],[-42.01691,-20.74361],[-42.01704,-20.7437],[-42.01696,-20.74385],[-42.01687,-20.74398],[-42.01663,-20.74429],[-42.0167,-20.74454],[-42.01719,-20.7443],[-42.01603,-20.74488],[-42.01541,-20.74576],[-42.01505,-20.74637],[-42.01491,-20.74658],[-42.01515,-20.74673],[-42.01523,-20.74709],[-42.01539,-20.74736],[-42.01559,-20.74724],[-42.01578,-20.74705],[-42.0159,-20.74684],[-42.01605,-20.74653],[-42.01612,-20.74635],[-42.01606,-20.74613],[-42.01604,-20.74597],[-42.01607,-20.74583],[-42.01615,-20.74563],[-42.01625,-20.74549],[-42.01635,-20.74538],[-42.01671,-20.74512],[-42.01698,-20.74486],[-42.01714,-20.74468],[-42.01726,-20.74461],[-42.01774,-20.74437],[-42.01787,-20.74435],[-42.01873,-20.74405],[-42.01886,-20.74424],[-42.01937,-20.74401],[-42.01974,-20.74381],[-42.02006,-20.7436],[-42.02017,-20.74371],[-42.02027,-20.74377],[-42.0203,-20.74394],[-42.02053,-20.74429],[-42.02112,-20.74479],[-42.02157,-20.74503],[-42.02176,-20.74517],[-42.02222,-20.74585],[-42.02271,-20.74621],[-42.02344,-20.74616],[-42.02346,-20.74591],[-42.0227,-20.74516],[-42.02193,-20.74437],[-42.0209,-20.74301],[-42.02078,-20.742],[-42.02116,-20.74139],[-42.02255,-20.74095],[-42.02511,-20.73979],[-42.0254,-20.74043],[-42.02547,-20.74087],[-42.02559,-20.74096],[-42.02565,-20.74125],[-42.02588,-20.7418],[-42.02608,-20.74222],[-42.0265,-20.74243],[-42.02746,-20.74264],[-42.02785,-20.74165],[-42.02811,-20.74192],[-42.02845,-20.74218],[-42.02861,-20.74264],[-42.02888,-20.74295],[-42.03117,-20.74449],[-42.03208,-20.74315],[-42.03232,-20.74285],[-42.03234,-20.7428],[-42.03239,-20.74278],[-42.03294,-20.74188],[-42.03329,-20.74128],[-42.03342,-20.74098],[-42.03338,-20.74088],[-42.03294,-20.74043],[-42.03325,-20.74014],[-42.0333,-20.74002],[-42.03345,-20.74001],[-42.03358,-20.73997],[-42.0339,-20.7398],[-42.03391,-20.73984],[-42.03405,-20.74003],[-42.03409,-20.74003],[-42.03451,-20.73978],[-42.03469,-20.73972],[-42.03534,-20.73975],[-42.03533,-20.73969],[-42.03523,-20.7394],[-42.03507,-20.73905],[-42.03557,-20.73885],[-42.03542,-20.73849],[-42.03645,-20.73809],[-42.03606,-20.73724],[-42.03672,-20.73697],[-42.03707,-20.73685],[-42.03723,-20.73666],[-42.03726,-20.73652],[-42.03726,-20.73638],[-42.03742,-20.73616],[-42.0379,-20.73535],[-42.0384,-20.7345],[-42.03849,-20.7343],[-42.03859,-20.734],[-42.04039,-20.73333],[-42.04085,-20.73374],[-42.04187,-20.73411],[-42.04322,-20.73369],[-42.04442,-20.7332],[-42.04548,-20.73287],[-42.04566,-20.73255],[-42.04574,-20.7323]]],[[[-42.01635,-20.73613],[-42.01635,-20.7361],[-42.01636,-20.7362],[-42.01635,-20.73613]]],[[[-42.03424,-20.73238],[-42.03369,-20.73258],[-42.0332,-20.73276],[-42.03424,-20.73238]]],[[[-42.02963,-20.73521],[-42.02929,-20.73561],[-42.02946,-20.73541],[-42.02948,-20.73537],[-42.02963,-20.73521]]],[[[-42.02636,-20.73818],[-42.0262,-20.73833],[-42.02633,-20.73821],[-42.02636,-20.73818]]],[[[-42.02,-20.73842],[-42.01902,-20.73769],[-42.01882,-20.73753],[-42.02,-20.73842]]],[[[-42.01839,-20.73719],[-42.01821,-20.73706],[-42.01814,-20.73698],[-42.01839,-20.73719]]],[[[-42.01814,-20.73698],[-42.01808,-20.73685],[-42.01801,-20.7367],[-42.01814,-20.73698]]]]}},{"type":"Feature","properties":{"territory_id":"mg-3113305-ponte-alta-de-minas","name":"Ponte Alta de Minas","municipality_id":"mg-3113305","polling_places":1,"approx":true,"official":false,"method":"voronoi-polling-places","whole_municipality":false,"approx_coords_only":false},"geometry":{"type":"MultiPolygon","coordinates":[[[[-42.2472,-20.7371],[-42.23833,-20.74272],[-42.18099,-20.71871],[-42.17255,-20.68916],[-42.1837,-20.6888],[-42.2161,-20.6662],[-42.2472,-20.7371]]]]}},{"type":"Feature","properties":{"territory_id":"mg-3113305-povoado-de-sao-manoel-do-boi","name":"Povoado de São Manoel do Boi","municipality_id":"mg-3113305","polling_places":1,"approx":true,"official":false,"method":"voronoi-polling-places","whole_municipality":false,"approx_coords_only":false},"geometry":{"type":"MultiPolygon","coordinates":[[[[-42.1359,-20.69035],[-42.10006,-20.73516],[-42.0858,-20.7307],[-42.06883,-20.73566],[-42.06151,-20.68762],[-42.10477,-20.66392],[-42.1343,-20.6904],[-42.1359,-20.69035]]]]}},{"type":"Feature","properties":{"territory_id":"mg-3113305-santa-emilia","name":"Santa Emilia","municipality_id":"mg-3113305","polling_places":2,"approx":false,"official":true,"method":"official-ibge-cd2022","whole_municipality":false,"approx_coords_only":false,"official_name":"Santa Emília","official_code":"3113305011","match":"direct"},"geometry":{"type":"MultiPolygon","coordinates":[[[[-42.02618,-20.73805],[-42.02634,-20.73793],[-42.02582,-20.73714],[-42.02557,-20.73679],[-42.02526,-20.73652],[-42.02543,-20.73606],[-42.02526,-20.73614],[-42.02488,-20.73636],[-42.02472,-20.73644],[-42.02392,-20.73656],[-42.02346,-20.73669],[-42.02298,-20.73678],[-42.02219,-20.73702],[-42.02173,-20.73723],[-42.02121,-20.73741],[-42.02055,-20.73741],[-42.02019,-20.73743],[-42.01997,-20.7374],[-42.01974,-20.73734],[-42.01951,-20.73724],[-42.01934,-20.73713],[-42.01917,-20.73695],[-42.01885,-20.73668],[-42.01863,-20.73642],[-42.0184,-20.73651],[-42.01801,-20.7367],[-42.01814,-20.73698],[-42.0185,-20.73729],[-42.02,-20.73842],[-42.01976,-20.73872],[-42.01936,-20.73918],[-42.01899,-20.7389],[-42.01885,-20.73889],[-42.01871,-20.73887],[-42.01849,-20.73838],[-42.01837,-20.73826],[-42.01815,-20.7382],[-42.0177,-20.73727],[-42.01753,-20.73706],[-42.01727,-20.73686],[-42.0169,-20.73665],[-42.01662,-20.73645],[-42.01641,-20.73626],[-42.01636,-20.7362],[-42.01635,-20.73613],[-42.01625,-20.73612],[-42.01626,-20.73651],[-42.01635,-20.73736],[-42.01638,-20.73748],[-42.01695,-20.73786],[-42.01703,-20.73794],[-42.01708,-20.73803],[-42.01711,-20.7383],[-42.01725,-20.73845],[-42.01736,-20.73866],[-42.01739,-20.73877],[-42.01739,-20.73889],[-42.01731,-20.73928],[-42.01721,-20.7394],[-42.01706,-20.7395],[-42.01701,-20.73961],[-42.01685,-20.74042],[-42.01667,-20.74101],[-42.01678,-20.74108],[-42.01709,-20.74124],[-42.01697,-20.74152],[-42.01695,-20.74164],[-42.01697,-20.74188],[-42.01719,-20.74259],[-42.0172,-20.74269],[-42.0172,-20.74279],[-42.01716,-20.74292],[-42.017,-20.7432],[-42.01686,-20.74341],[-42.01691,-20.74343],[-42.01688,-20.74355],[-42.01691,-20.74361],[-42.01704,-20.7437],[-42.01696,-20.74385],[-42.01687,-20.74398],[-42.01663,-20.74429],[-42.0167,-20.74454],[-42.01719,-20.7443],[-42.01822,-20.74356],[-42.01866,-20.74332],[-42.01917,-20.74309],[-42.01937,-20.74283],[-42.01948,-20.74224],[-42.01952,-20.74161],[-42.01986,-20.74021],[-42.02021,-20.74],[-42.0208,-20.73985],[-42.02148,-20.73998],[-42.02227,-20.73971],[-42.02266,-20.73945],[-42.02341,-20.73908],[-42.02461,-20.73887],[-42.0252,-20.73897],[-42.02539,-20.73896],[-42.0262,-20.73833],[-42.02633,-20.73821],[-42.02628,-20.73815],[-42.02618,-20.73805]]]]}},{"type":"Feature","properties":{"territory_id":"mg-3113305-santo-onofre","name":"Santo Onofre","municipality_id":"mg-3113305","polling_places":2,"approx":false,"official":true,"method":"official-ibge-cd2022","whole_municipality":false,"approx_coords_only":false,"official_name":"Santo Onofre","official_code":"3113305009","match":"direct"},"geometry":{"type":"MultiPolygon","coordinates":[[[[-42.03632,-20.72955],[-42.03638,-20.72954],[-42.037,-20.7291],[-42.03722,-20.72886],[-42.03736,-20.72867],[-42.03741,-20.72854],[-42.0374,-20.72836],[-42.03735,-20.72807],[-42.03729,-20.72786],[-42.03693,-20.72693],[-42.03683,-20.72646],[-42.03678,-20.72601],[-42.03677,-20.72562],[-42.03678,-20.72541],[-42.03681,-20.72522],[-42.03692,-20.7247],[-42.037,-20.72449],[-42.03713,-20.72421],[-42.03709,-20.72415],[-42.03712,-20.72401],[-42.0371,-20.72396],[-42.03692,-20.72423],[-42.03627,-20.72401],[-42.03622,-20.7243],[-42.03604,-20.72443],[-42.03585,-20.72436],[-42.03556,-20.72396],[-42.03542,-20.7239],[-42.03521,-20.72395],[-42.03506,-20.72412],[-42.03485,-20.72453],[-42.03438,-20.72552],[-42.03397,-20.726],[-42.03283,-20.7266],[-42.03255,-20.72682],[-42.03243,-20.72695],[-42.03241,-20.72714],[-42.03251,-20.72738],[-42.03313,-20.72783],[-42.03471,-20.72859],[-42.0355,-20.72921],[-42.03597,-20.7295],[-42.03608,-20.72963],[-42.03624,-20.72955],[-42.03632,-20.72955]]]]}},{"type":"Feature","properties":{"territory_id":"mg-3113305-triangulo","name":"Triângulo","municipality_id":"mg-3113305","polling_places":2,"approx":false,"official":true,"method":"official-ibge-cd2022","whole_municipality":false,"approx_coords_only":false,"official_name":"Triângulo","official_code":"3113305002","match":"direct"},"geometry":{"type":"MultiPolygon","coordinates":[[[[-42.03234,-20.7428],[-42.03239,-20.74278],[-42.03294,-20.74188],[-42.03329,-20.74128],[-42.03342,-20.74098],[-42.03338,-20.74088],[-42.03294,-20.74043],[-42.03325,-20.74014],[-42.0333,-20.74002],[-42.03345,-20.74001],[-42.03358,-20.73997],[-42.0339,-20.7398],[-42.03391,-20.73984],[-42.03405,-20.74003],[-42.03409,-20.74003],[-42.03451,-20.73978],[-42.03469,-20.73972],[-42.03534,-20.73975],[-42.03533,-20.73969],[-42.03523,-20.7394],[-42.03507,-20.73905],[-42.03557,-20.73885],[-42.03542,-20.73849],[-42.03645,-20.73809],[-42.03606,-20.73724],[-42.03672,-20.73697],[-42.03707,-20.73685],[-42.03723,-20.73666],[-42.03726,-20.73652],[-42.03726,-20.73638],[-42.03742,-20.73616],[-42.0379,-20.73535],[-42.0384,-20.7345],[-42.03849,-20.7343],[-42.03827,-20.73414],[-42.03716,-20.73468],[-42.03664,-20.73482],[-42.03596,-20.73463],[-42.03529,-20.7342],[-42.03418,-20.73344],[-42.03407,-20.73319],[-42.0341,-20.73299],[-42.034,-20.73284],[-42.03379,-20.73276],[-42.03369,-20.73258],[-42.0332,-20.73276],[-42.03265,-20.733],[-42.03214,-20.7333],[-42.03141,-20.73385],[-42.03077,-20.73451],[-42.03021,-20.73494],[-42.02963,-20.73521],[-42.02929,-20.73561],[-42.02914,-20.73584],[-42.02909,-20.7364],[-42.02879,-20.73712],[-42.02844,-20.73751],[-42.02823,-20.73763],[-42.028,-20.73765],[-42.02746,-20.73764],[-42.02636,-20.73818],[-42.0262,-20.73833],[-42.02539,-20.73896],[-42.0252,-20.73897],[-42.02461,-20.73887],[-42.02341,-20.73908],[-42.02266,-20.73945],[-42.02227,-20.73971],[-42.02148,-20.73998],[-42.0208,-20.73985],[-42.02021,-20.74],[-42.01986,-20.74021],[-42.01952,-20.74161],[-42.01948,-20.74224],[-42.01937,-20.74283],[-42.01917,-20.74309],[-42.01866,-20.74332],[-42.01822,-20.74356],[-42.01719,-20.7443],[-42.01603,-20.74488],[-42.01541,-20.74576],[-42.01505,-20.74637],[-42.01491,-20.74658],[-42.01515,-20.74673],[-42.01523,-20.74709],[-42.01539,-20.74736],[-42.01559,-20.74724],[-42.01578,-20.74705],[-42.0159,-20.74684],[-42.01605,-20.74653],[-42.01612,-20.74635],[-42.01606,-20.74613],[-42.01604,-20.74597],[-42.01607,-20.74583],[-42.01615,-20.74563],[-42.01625,-20.74549],[-42.01635,-20.74538],[-42.01671,-20.74512],[-42.01698,-20.74486],[-42.01714,-20.74468],[-42.01726,-20.74461],[-42.01774,-20.74437],[-42.01787,-20.74435],[-42.01873,-20.74405],[-42.01886,-20.74424],[-42.01937,-20.74401],[-42.01974,-20.74381],[-42.02006,-20.7436],[-42.02017,-20.74371],[-42.02027,-20.74377],[-42.0203,-20.74394],[-42.02053,-20.74429],[-42.02112,-20.74479],[-42.02157,-20.74503],[-42.02176,-20.74517],[-42.02222,-20.74585],[-42.02271,-20.74621],[-42.02344,-20.74616],[-42.02346,-20.74591],[-42.0227,-20.74516],[-42.02193,-20.74437],[-42.0209,-20.74301],[-42.02078,-20.742],[-42.02116,-20.74139],[-42.02255,-20.74095],[-42.02511,-20.73979],[-42.0254,-20.74043],[-42.02547,-20.74087],[-42.02559,-20.74096],[-42.02565,-20.74125],[-42.02588,-20.7418],[-42.02608,-20.74222],[-42.0265,-20.74243],[-42.02746,-20.74264],[-42.02785,-20.74165],[-42.02811,-20.74192],[-42.02845,-20.74218],[-42.02861,-20.74264],[-42.02888,-20.74295],[-42.03117,-20.74449],[-42.03208,-20.74315],[-42.03232,-20.74285],[-42.03234,-20.7428]]]]}}]}