{"type":"FeatureCollection","features":[{"type":"Feature","properties":{"territory_id":"mg-3113503-abadia","name":"Abadia","municipality_id":"mg-3113503","polling_places":1,"approx":true,"official":false,"method":"voronoi-polling-places","whole_municipality":false,"approx_coords_only":false},"geometry":{"type":"MultiPolygon","coordinates":[[[[-43.22629,-17.56603],[-43.1576,-17.772],[-43.14,-17.7254],[-43.04603,-17.63387],[-43.15222,-17.56735],[-43.17472,-17.55394],[-43.22629,-17.56603]]],[[[-43.0164,-17.6794],[-42.975,-17.7153],[-42.97469,-17.71367],[-43.00437,-17.65997],[-43.0164,-17.65244],[-43.0164,-17.6794]]]]}},{"type":"Feature","properties":{"territory_id":"mg-3113503-agua-branca","name":"Água Branca","municipality_id":"mg-3113503","polling_places":1,"approx":true,"official":false,"method":"voronoi-polling-places","whole_municipality":false,"approx_coords_only":false},"geometry":{"type":"MultiPolygon","coordinates":[[[[-43.15222,-17.56735],[-43.04603,-17.63387],[-43.0322,-17.6204],[-43.0164,-17.6376],[-43.0164,-17.65244],[-43.00437,-17.65997],[-42.95026,-17.54166],[-43.01452,-17.53253],[-43.02135,-17.53388],[-43.15222,-17.56735]]]]}},{"type":"Feature","properties":{"territory_id":"mg-3113503-centro","name":"Centro","municipality_id":"mg-3113503","polling_places":5,"approx":true,"official":false,"method":"voronoi-polling-places","whole_municipality":false,"approx_coords_only":false},"geometry":{"type":"MultiPolygon","coordinates":[[[[-43.17472,-17.55394],[-43.15222,-17.56735],[-43.02135,-17.53388],[-43.01452,-17.53253],[-42.95026,-17.54166],[-42.94901,-17.53919],[-42.951,-17.52407],[-42.95627,-17.47433],[-43.0328,-17.41461],[-43.04301,-17.42062],[-43.08624,-17.46301],[-43.15603,-17.52928],[-43.17472,-17.55394]]]]}},{"type":"Feature","properties":{"territory_id":"mg-3113503-dois-corregos","name":"Dois Corregos","municipality_id":"mg-3113503","polling_places":1,"approx":true,"official":false,"method":"voronoi-polling-places","whole_municipality":false,"approx_coords_only":false},"geometry":{"type":"MultiPolygon","coordinates":[[[[-43.20114,-17.30675],[-43.17677,-17.34144],[-43.04301,-17.42062],[-43.0328,-17.41461],[-43.0069,-17.33123],[-43.0416,-17.3081],[-43.0835,-17.2531],[-43.1337,-17.3044],[-43.1903,-17.2918],[-43.20114,-17.30675]]]]}},{"type":"Feature","properties":{"territory_id":"mg-3113503-povoado-lagoa","name":"Povoado Lagoa","municipality_id":"mg-3113503","polling_places":1,"approx":true,"official":false,"method":"voronoi-polling-places","whole_municipality":false,"approx_coords_only":false},"geometry":{"type":"MultiPolygon","coordinates":[[[[-43.2285,-17.3445],[-43.2008,-17.3636],[-43.1983,-17.3988],[-43.2176,-17.4143],[-43.2274,-17.5627],[-43.22629,-17.56603],[-43.17472,-17.55394],[-43.15603,-17.52928],[-43.17677,-17.34144],[-43.20114,-17.30675],[-43.2285,-17.3445]]]]}},{"type":"Feature","properties":{"territory_id":"mg-3113503-povoado-mercadinho","name":"Povoado Mercadinho","municipality_id":"mg-3113503","polling_places":1,"approx":true,"official":false,"method":"voronoi-polling-places","whole_municipality":false,"approx_coords_only":false},"geometry":{"type":"MultiPolygon","coordinates":[[[[-43.0328,-17.41461],[-42.95627,-17.47433],[-42.88087,-17.45336],[-42.8844,-17.449],[-42.869,-17.4013],[-42.8785,-17.3628],[-42.9447,-17.3215],[-42.9964,-17.3592],[-43.0068,-17.3313],[-43.0069,-17.33123],[-43.0328,-17.41461]]]]}},{"type":"Feature","properties":{"territory_id":"mg-3113503-povoado-monte-belo","name":"Povoado Monte Belo","municipality_id":"mg-3113503","polling_places":1,"approx":true,"official":false,"method":"voronoi-polling-places","whole_municipality":false,"approx_coords_only":false},"geometry":{"type":"MultiPolygon","coordinates":[[[[-42.95627,-17.47433],[-42.951,-17.52407],[-42.94901,-17.53919],[-42.84176,-17.56066],[-42.8376,-17.5547],[-42.8797,-17.4962],[-42.8602,-17.4789],[-42.88087,-17.45336],[-42.95627,-17.47433]]]]}},{"type":"Feature","properties":{"territory_id":"mg-3113503-retiro","name":"Retiro","municipality_id":"mg-3113503","polling_places":1,"approx":true,"official":false,"method":"voronoi-polling-places","whole_municipality":false,"approx_coords_only":false},"geometry":{"type":"MultiPolygon","coordinates":[[[[-43.17677,-17.34144],[-43.15603,-17.52928],[-43.08624,-17.46301],[-43.04301,-17.42062],[-43.17677,-17.34144]]]]}},{"type":"Feature","properties":{"territory_id":"mg-3113503-santana","name":"Santana","municipality_id":"mg-3113503","polling_places":1,"approx":true,"official":false,"method":"voronoi-polling-places","whole_municipality":false,"approx_coords_only":false},"geometry":{"type":"MultiPolygon","coordinates":[[[[-43.00437,-17.65997],[-42.97469,-17.71367],[-42.9618,-17.6463],[-42.9164,-17.5936],[-42.8729,-17.6053],[-42.84176,-17.56066],[-42.94901,-17.53919],[-42.95026,-17.54166],[-43.00437,-17.65997]]]]}}]}