{"type":"FeatureCollection","features":[{"type":"Feature","properties":{"territory_id":"mg-3113206-acampamento","name":"Acampamento","municipality_id":"mg-3113206","polling_places":1,"approx":true,"official":false,"method":"voronoi-polling-places","whole_municipality":false,"approx_coords_only":false},"geometry":{"type":"MultiPolygon","coordinates":[[[[-43.91388,-20.92525],[-43.886,-20.95912],[-43.82904,-20.97556],[-43.81895,-20.9536],[-43.82359,-20.92649],[-43.91388,-20.92525]]]]}},{"type":"Feature","properties":{"territory_id":"mg-3113206-campestre","name":"Campestre","municipality_id":"mg-3113206","polling_places":1,"approx":true,"official":false,"method":"voronoi-polling-places","whole_municipality":false,"approx_coords_only":false},"geometry":{"type":"MultiPolygon","coordinates":[[[[-43.75909,-21.01069],[-43.75537,-21.02547],[-43.7553,-21.0253],[-43.7086,-21.02],[-43.66276,-20.97047],[-43.7392,-20.98997],[-43.75909,-21.01069]]]]}},{"type":"Feature","properties":{"territory_id":"mg-3113206-centro","name":"Centro","municipality_id":"mg-3113206","polling_places":1,"approx":true,"official":false,"method":"voronoi-polling-places","whole_municipality":false,"approx_coords_only":false},"geometry":{"type":"MultiPolygon","coordinates":[[[[-43.81145,-20.95319],[-43.80706,-20.95652],[-43.80414,-20.95379],[-43.80402,-20.95341],[-43.8087,-20.95035],[-43.81145,-20.95319]]]]}},{"type":"Feature","properties":{"territory_id":"mg-3113206-chacara","name":"Chacara","municipality_id":"mg-3113206","polling_places":1,"approx":true,"official":false,"method":"voronoi-polling-places","whole_municipality":false,"approx_coords_only":false},"geometry":{"type":"MultiPolygon","coordinates":[[[[-43.87094,-21.05176],[-43.80731,-21.02943],[-43.80795,-20.99588],[-43.86813,-21.02644],[-43.87094,-21.05176]]]]}},{"type":"Feature","properties":{"territory_id":"mg-3113206-cohab","name":"Cohab","municipality_id":"mg-3113206","polling_places":1,"approx":true,"official":false,"method":"voronoi-polling-places","whole_municipality":false,"approx_coords_only":false},"geometry":{"type":"MultiPolygon","coordinates":[[[[-43.80414,-20.95379],[-43.80107,-20.9556],[-43.80151,-20.94872],[-43.80402,-20.95341],[-43.80414,-20.95379]]]]}},{"type":"Feature","properties":{"territory_id":"mg-3113206-crespo","name":"Crespo","municipality_id":"mg-3113206","polling_places":1,"approx":true,"official":false,"method":"voronoi-polling-places","whole_municipality":false,"approx_coords_only":false},"geometry":{"type":"MultiPolygon","coordinates":[[[[-43.81349,-20.92277],[-43.80319,-20.94345],[-43.80052,-20.94566],[-43.79134,-20.94898],[-43.77699,-20.93475],[-43.80922,-20.91904],[-43.81349,-20.92277]]]]}},{"type":"Feature","properties":{"territory_id":"mg-3113206-garcas","name":"Garcas","municipality_id":"mg-3113206","polling_places":1,"approx":true,"official":false,"method":"voronoi-polling-places","whole_municipality":false,"approx_coords_only":false},"geometry":{"type":"MultiPolygon","coordinates":[[[[-43.80706,-20.95652],[-43.79325,-20.98828],[-43.79104,-20.98771],[-43.78882,-20.98381],[-43.79026,-20.97245],[-43.80107,-20.9556],[-43.80414,-20.95379],[-43.80706,-20.95652]]]]}},{"type":"Feature","properties":{"territory_id":"mg-3113206-hermilo-alves","name":"Hermilo Alves","municipality_id":"mg-3113206","polling_places":1,"approx":true,"official":false,"method":"voronoi-polling-places","whole_municipality":false,"approx_coords_only":false},"geometry":{"type":"MultiPolygon","coordinates":[[[[-43.80795,-20.99588],[-43.80731,-21.02943],[-43.77781,-21.06692],[-43.772,-21.0645],[-43.75537,-21.02547],[-43.75909,-21.01069],[-43.79104,-20.98771],[-43.79325,-20.98828],[-43.80695,-20.99361],[-43.80795,-20.99588]]]]}},{"type":"Feature","properties":{"territory_id":"mg-3113206-nossa-senhora-do-rosario","name":"Nossa Senhora do Rosario","municipality_id":"mg-3113206","polling_places":1,"approx":true,"official":false,"method":"voronoi-polling-places","whole_municipality":false,"approx_coords_only":false},"geometry":{"type":"MultiPolygon","coordinates":[[[[-43.80151,-20.94872],[-43.80107,-20.9556],[-43.79026,-20.97245],[-43.79134,-20.94898],[-43.80052,-20.94566],[-43.80151,-20.94872]]]]}},{"type":"Feature","properties":{"territory_id":"mg-3113206-palmito","name":"Palmito","municipality_id":"mg-3113206","polling_places":1,"approx":true,"official":false,"method":"voronoi-polling-places","whole_municipality":false,"approx_coords_only":true},"geometry":{"type":"MultiPolygon","coordinates":[[[[-43.886,-20.95912],[-43.86813,-21.02644],[-43.80795,-20.99588],[-43.80695,-20.99361],[-43.82904,-20.97556],[-43.886,-20.95912]]]]}},{"type":"Feature","properties":{"territory_id":"mg-3113206-pedra-do-sino","name":"Pedra do Sino","municipality_id":"mg-3113206","polling_places":1,"approx":true,"official":false,"method":"voronoi-polling-places","whole_municipality":false,"approx_coords_only":false},"geometry":{"type":"MultiPolygon","coordinates":[[[[-43.9153,-20.92426],[-43.91388,-20.92525],[-43.82359,-20.92649],[-43.81349,-20.92277],[-43.80922,-20.91904],[-43.8208,-20.9134],[-43.797,-20.8839],[-43.816,-20.8719],[-43.8828,-20.8953],[-43.8956,-20.886],[-43.8985,-20.9167],[-43.9153,-20.92426]]]]}},{"type":"Feature","properties":{"territory_id":"mg-3113206-ponte-chave","name":"Ponte Chave","municipality_id":"mg-3113206","polling_places":1,"approx":true,"official":false,"method":"voronoi-polling-places","whole_municipality":false,"approx_coords_only":false},"geometry":{"type":"MultiPolygon","coordinates":[[[[-43.79134,-20.94898],[-43.79026,-20.97245],[-43.78882,-20.98381],[-43.7598,-20.95885],[-43.75002,-20.93494],[-43.7697,-20.9383],[-43.77699,-20.93475],[-43.79134,-20.94898]]]]}},{"type":"Feature","properties":{"territory_id":"mg-3113206-povoado-da-matinada","name":"Povoado da Matinada","municipality_id":"mg-3113206","polling_places":1,"approx":true,"official":false,"method":"voronoi-polling-places","whole_municipality":false,"approx_coords_only":false},"geometry":{"type":"MultiPolygon","coordinates":[[[[-43.9949,-20.9888],[-43.96445,-21.04078],[-43.87343,-21.05799],[-43.87094,-21.05176],[-43.86813,-21.02644],[-43.886,-20.95912],[-43.91388,-20.92525],[-43.9153,-20.92426],[-43.9225,-20.9275],[-43.9689,-20.9743],[-43.9949,-20.9888]]]]}},{"type":"Feature","properties":{"territory_id":"mg-3113206-povoado-de-chui","name":"Povoado de Chui","municipality_id":"mg-3113206","polling_places":1,"approx":true,"official":false,"method":"voronoi-polling-places","whole_municipality":false,"approx_coords_only":false},"geometry":{"type":"MultiPolygon","coordinates":[[[[-43.79104,-20.98771],[-43.75909,-21.01069],[-43.7392,-20.98997],[-43.7598,-20.95885],[-43.78882,-20.98381],[-43.79104,-20.98771]]]]}},{"type":"Feature","properties":{"territory_id":"mg-3113206-povoado-do-dombe","name":"Povoado do Dombe","municipality_id":"mg-3113206","polling_places":1,"approx":true,"official":false,"method":"voronoi-polling-places","whole_municipality":false,"approx_coords_only":false},"geometry":{"type":"MultiPolygon","coordinates":[[[[-43.8087,-20.95035],[-43.80402,-20.95341],[-43.80151,-20.94872],[-43.80052,-20.94566],[-43.80319,-20.94345],[-43.8087,-20.95035]]]]}},{"type":"Feature","properties":{"territory_id":"mg-3113206-povoado-dos-moreiras","name":"Povoado dos Moreiras","municipality_id":"mg-3113206","polling_places":1,"approx":true,"official":false,"method":"voronoi-polling-places","whole_municipality":false,"approx_coords_only":false},"geometry":{"type":"MultiPolygon","coordinates":[[[[-43.7598,-20.95885],[-43.7392,-20.98997],[-43.66276,-20.97047],[-43.6476,-20.9541],[-43.6755,-20.9293],[-43.7095,-20.9509],[-43.7416,-20.9335],[-43.75002,-20.93494],[-43.7598,-20.95885]]]]}},{"type":"Feature","properties":{"territory_id":"mg-3113206-ressaca","name":"Ressaca","municipality_id":"mg-3113206","polling_places":1,"approx":true,"official":false,"method":"voronoi-polling-places","whole_municipality":false,"approx_coords_only":false},"geometry":{"type":"MultiPolygon","coordinates":[[[[-43.87343,-21.05799],[-43.8571,-21.09979],[-43.8564,-21.0997],[-43.77781,-21.06692],[-43.80731,-21.02943],[-43.87094,-21.05176],[-43.87343,-21.05799]]]]}},{"type":"Feature","properties":{"territory_id":"mg-3113206-santa-cecilia","name":"Santa Cecilia","municipality_id":"mg-3113206","polling_places":1,"approx":true,"official":false,"method":"voronoi-polling-places","whole_municipality":false,"approx_coords_only":false},"geometry":{"type":"MultiPolygon","coordinates":[[[[-43.82904,-20.97556],[-43.80695,-20.99361],[-43.79325,-20.98828],[-43.80706,-20.95652],[-43.81145,-20.95319],[-43.81895,-20.9536],[-43.82904,-20.97556]]]]}},{"type":"Feature","properties":{"territory_id":"mg-3113206-santa-luzia","name":"Santa Luzia","municipality_id":"mg-3113206","polling_places":1,"approx":true,"official":false,"method":"voronoi-polling-places","whole_municipality":false,"approx_coords_only":false},"geometry":{"type":"MultiPolygon","coordinates":[[[[-43.82359,-20.92649],[-43.81895,-20.9536],[-43.81145,-20.95319],[-43.8087,-20.95035],[-43.80319,-20.94345],[-43.81349,-20.92277],[-43.82359,-20.92649]]]]}},{"type":"Feature","properties":{"territory_id":"mg-3113206-tabuleiro","name":"Tabuleiro","municipality_id":"mg-3113206","polling_places":1,"approx":true,"official":false,"method":"voronoi-polling-places","whole_municipality":false,"approx_coords_only":false},"geometry":{"type":"MultiPolygon","coordinates":[[[[-43.96445,-21.04078],[-43.9638,-21.0419],[-43.9296,-21.063],[-43.9412,-21.1216],[-43.9096,-21.1245],[-43.8904,-21.1039],[-43.8571,-21.09979],[-43.87343,-21.05799],[-43.96445,-21.04078]]]]}}]}