{"type":"FeatureCollection","features":[{"type":"Feature","properties":{"territory_id":"mg-3113107-bernardo-correa","name":"Bernardo Correa","municipality_id":"mg-3113107","polling_places":1,"approx":true,"official":false,"method":"voronoi-polling-places","whole_municipality":false,"approx_coords_only":false},"geometry":{"type":"MultiPolygon","coordinates":[[[[-43.72099,-20.87827],[-43.68571,-20.93579],[-43.6755,-20.9293],[-43.66523,-20.9162],[-43.68534,-20.84549],[-43.7148,-20.8556],[-43.71678,-20.85429],[-43.72099,-20.87827]]]]}},{"type":"Feature","properties":{"territory_id":"mg-3113107-campinho","name":"Campinho","municipality_id":"mg-3113107","polling_places":1,"approx":true,"official":false,"method":"voronoi-polling-places","whole_municipality":false,"approx_coords_only":true},"geometry":{"type":"MultiPolygon","coordinates":[[[[-43.78961,-20.9286],[-43.7697,-20.9383],[-43.7416,-20.9335],[-43.7095,-20.9509],[-43.68571,-20.93579],[-43.72099,-20.87827],[-43.73396,-20.88488],[-43.78961,-20.9286]]]]}},{"type":"Feature","properties":{"territory_id":"mg-3113107-centro","name":"Centro","municipality_id":"mg-3113107","polling_places":2,"approx":true,"official":false,"method":"voronoi-polling-places","whole_municipality":false,"approx_coords_only":false},"geometry":{"type":"MultiPolygon","coordinates":[[[[-43.8208,-20.9134],[-43.78961,-20.9286],[-43.73396,-20.88488],[-43.72099,-20.87827],[-43.71678,-20.85429],[-43.7309,-20.845],[-43.7812,-20.8634],[-43.797,-20.8839],[-43.8208,-20.9134]]]]}},{"type":"Feature","properties":{"territory_id":"mg-3113107-salsa","name":"Salsa","municipality_id":"mg-3113107","polling_places":1,"approx":true,"official":false,"method":"voronoi-polling-places","whole_municipality":false,"approx_coords_only":false},"geometry":{"type":"MultiPolygon","coordinates":[[[[-43.68534,-20.84549],[-43.66523,-20.9162],[-43.619,-20.8572],[-43.6568,-20.8357],[-43.68534,-20.84549]]]]}}]}