{"type":"FeatureCollection","features":[{"type":"Feature","properties":{"territory_id":"mg-3113404-cachoeira-alegre","name":"Cachoeira Alegre","municipality_id":"mg-3113404","polling_places":1,"approx":true,"official":false,"method":"voronoi-polling-places","whole_municipality":false,"approx_coords_only":false},"geometry":{"type":"MultiPolygon","coordinates":[[[[-42.2216,-19.92447],[-42.20407,-19.92297],[-42.19443,-19.88019],[-42.21718,-19.87744],[-42.2216,-19.92447]]]]}},{"type":"Feature","properties":{"territory_id":"mg-3113404-centro","name":"Centro","municipality_id":"mg-3113404","polling_places":7,"approx":true,"official":false,"method":"voronoi-polling-places","whole_municipality":false,"approx_coords_only":false},"geometry":{"type":"MultiPolygon","coordinates":[[[[-42.19299,-19.8037],[-42.16314,-19.83415],[-42.1243,-19.83929],[-42.09948,-19.81131],[-42.12106,-19.79514],[-42.12133,-19.79559],[-42.12208,-19.79623],[-42.12241,-19.79595],[-42.12277,-19.79529],[-42.12373,-19.79461],[-42.12406,-19.79405],[-42.12464,-19.79392],[-42.12613,-19.7944],[-42.12852,-19.79503],[-42.12979,-19.79524],[-42.1307,-19.79531],[-42.13267,-19.79686],[-42.13275,-19.79686],[-42.13272,-19.79826],[-42.1343,-19.79999],[-42.13382,-19.80061],[-42.13521,-19.80187],[-42.13443,-19.80482],[-42.13523,-19.8058],[-42.13622,-19.80584],[-42.13739,-19.80379],[-42.13906,-19.80357],[-42.1401,-19.80284],[-42.14064,-19.80262],[-42.14119,-19.80282],[-42.14191,-19.80409],[-42.14521,-19.80355],[-42.14528,-19.80246],[-42.14497,-19.80173],[-42.1449,-19.80139],[-42.14512,-19.80108],[-42.1459,-19.80052],[-42.14655,-19.79969],[-42.14676,-19.79927],[-42.14664,-19.79891],[-42.14681,-19.79856],[-42.14691,-19.79823],[-42.14694,-19.79803],[-42.14693,-19.79768],[-42.14687,-19.79743],[-42.14678,-19.79719],[-42.14667,-19.79696],[-42.1466,-19.79692],[-42.14643,-19.7966],[-42.1458,-19.79606],[-42.14495,-19.79556],[-42.14486,-19.79541],[-42.14464,-19.79515],[-42.14359,-19.79471],[-42.14323,-19.79454],[-42.14334,-19.79433],[-42.1434,-19.79415],[-42.14345,-19.79385],[-42.1439,-19.79378],[-42.1438,-19.7929],[-42.14337,-19.79253],[-42.14323,-19.79248],[-42.14306,-19.79249],[-42.14288,-19.79256],[-42.14271,-19.79265],[-42.14142,-19.79394],[-42.1414,-19.7941],[-42.14142,-19.79463],[-42.14043,-19.79495],[-42.14008,-19.79504],[-42.13943,-19.795],[-42.13932,-19.79559],[-42.13856,-19.79529],[-42.13843,-19.79526],[-42.13819,-19.79689],[-42.1378,-19.79681],[-42.13759,-19.79603],[-42.13741,-19.79558],[-42.13708,-19.79585],[-42.13684,-19.79618],[-42.13663,-19.79641],[-42.13626,-19.79674],[-42.13548,-19.79681],[-42.1347,-19.79683],[-42.13441,-19.79684],[-42.13446,-19.79684],[-42.13253,-19.79213],[-42.13194,-19.79188],[-42.13169,-19.79131],[-42.13173,-19.79124],[-42.13152,-19.79105],[-42.13105,-19.79015],[-42.13128,-19.79005],[-42.13302,-19.7891],[-42.13324,-19.7891],[-42.13415,-19.78866],[-42.13425,-19.78876],[-42.13441,-19.78898],[-42.1346,-19.78885],[-42.13483,-19.78877],[-42.135,-19.78872],[-42.13582,-19.78858],[-42.13605,-19.78846],[-42.13406,-19.78397],[-42.13362,-19.783],[-42.13651,-19.77775],[-42.13652,-19.77812],[-42.13645,-19.7783],[-42.13627,-19.7786],[-42.13623,-19.77875],[-42.13631,-19.77893],[-42.1365,-19.77929],[-42.13661,-19.77941],[-42.13697,-19.77942],[-42.13718,-19.77949],[-42.13745,-19.77965],[-42.13756,-19.77978],[-42.1376,-19.78036],[-42.13768,-19.78074],[-42.13753,-19.78107],[-42.13756,-19.78139],[-42.13762,-19.78153],[-42.1377,-19.78195],[-42.13777,-19.78211],[-42.13789,-19.78229],[-42.13795,-19.78244],[-42.13813,-19.78324],[-42.13827,-19.78346],[-42.13851,-19.78348],[-42.13883,-19.78331],[-42.13904,-19.78339],[-42.13924,-19.7836],[-42.13943,-19.78373],[-42.13993,-19.78401],[-42.14028,-19.78356],[-42.14048,-19.7832],[-42.14061,-19.7831],[-42.14128,-19.78283],[-42.14135,-19.78311],[-42.14166,-19.78339],[-42.14177,-19.78354],[-42.14185,-19.78376],[-42.14186,-19.78397],[-42.14186,-19.78418],[-42.1421,-19.78493],[-42.14253,-19.78479],[-42.14288,-19.78471],[-42.14371,-19.78441],[-42.14317,-19.78344],[-42.14257,-19.78283],[-42.14251,-19.78202],[-42.14251,-19.78164],[-42.14264,-19.78159],[-42.14326,-19.78177],[-42.14394,-19.78184],[-42.14434,-19.78192],[-42.14424,-19.78173],[-42.14433,-19.78146],[-42.14459,-19.78116],[-42.14466,-19.7809],[-42.14469,-19.78047],[-42.14467,-19.78006],[-42.14461,-19.77972],[-42.14452,-19.77935],[-42.14442,-19.77902],[-42.14449,-19.77842],[-42.14461,-19.77824],[-42.14463,-19.77821],[-42.14517,-19.77768],[-42.14643,-19.77601],[-42.14752,-19.7762],[-42.14861,-19.77683],[-42.14897,-19.777],[-42.14981,-19.77804],[-42.15017,-19.77834],[-42.15039,-19.77843],[-42.15049,-19.77887],[-42.15039,-19.77913],[-42.15005,-19.77926],[-42.14984,-19.77939],[-42.14942,-19.77968],[-42.14911,-19.77996],[-42.14866,-19.78032],[-42.1489,-19.78054],[-42.14858,-19.78094],[-42.15002,-19.782],[-42.14973,-19.78235],[-42.1496,-19.78244],[-42.14939,-19.7825],[-42.14902,-19.78255],[-42.14888,-19.78264],[-42.14901,-19.78286],[-42.14864,-19.7831],[-42.14861,-19.78324],[-42.1485,-19.78336],[-42.14834,-19.78361],[-42.14805,-19.78383],[-42.14793,-19.78394],[-42.14784,-19.7841],[-42.14764,-19.78438],[-42.14778,-19.78465],[-42.14773,-19.78482],[-42.1478,-19.78498],[-42.14782,-19.78515],[-42.14763,-19.7853],[-42.14757,-19.78608],[-42.14741,-19.78632],[-42.14744,-19.78652],[-42.14732,-19.78676],[-42.14731,-19.78691],[-42.14737,-19.78705],[-42.14718,-19.78716],[-42.14707,-19.78729],[-42.14702,-19.78749],[-42.147,-19.78766],[-42.1468,-19.78796],[-42.14662,-19.78811],[-42.14669,-19.78827],[-42.14659,-19.78844],[-42.14642,-19.78861],[-42.14639,-19.78876],[-42.14646,-19.78939],[-42.14591,-19.78942],[-42.14582,-19.78977],[-42.1456,-19.79072],[-42.1458,-19.79078],[-42.14682,-19.79079],[-42.1476,-19.79092],[-42.14874,-19.79137],[-42.14885,-19.79146],[-42.14918,-19.79194],[-42.14931,-19.79206],[-42.14956,-19.79215],[-42.14943,-19.79246],[-42.14932,-19.7926],[-42.14906,-19.79287],[-42.14907,-19.79309],[-42.14928,-19.79399],[-42.14955,-19.79392],[-42.15002,-19.7939],[-42.15,-19.79317],[-42.1501,-19.79316],[-42.15061,-19.79553],[-42.15102,-19.79606],[-42.15142,-19.79672],[-42.15209,-19.79749],[-42.15219,-19.79758],[-42.15226,-19.7976],[-42.15234,-19.7976],[-42.15256,-19.79743],[-42.15326,-19.7975],[-42.15314,-19.79835],[-42.15199,-19.79822],[-42.15223,-19.79901],[-42.15186,-19.79982],[-42.15144,-19.80138],[-42.15194,-19.80161],[-42.1525,-19.80192],[-42.15297,-19.80174],[-42.15331,-19.8025],[-42.15297,-19.80265],[-42.15303,-19.80276],[-42.15327,-19.80271],[-42.1534,-19.80265],[-42.15365,-19.80243],[-42.15381,-19.80218],[-42.15404,-19.80117],[-42.15412,-19.80099],[-42.1549,-19.80056],[-42.1552,-19.80025],[-42.15539,-19.79986],[-42.15584,-19.79927],[-42.15591,-19.79903],[-42.15585,-19.79863],[-42.1559,-19.79822],[-42.15611,-19.79794],[-42.1564,-19.79779],[-42.15668,-19.79776],[-42.15682,-19.79778],[-42.1572,-19.79795],[-42.15743,-19.798],[-42.15774,-19.79799],[-42.15929,-19.79763],[-42.15958,-19.79758],[-42.15959,-19.797],[-42.15903,-19.79529],[-42.15881,-19.7951],[-42.15673,-19.79489],[-42.15602,-19.79485],[-42.15501,-19.79538],[-42.15464,-19.79496],[-42.155,-19.79417],[-42.15575,-19.79354],[-42.15649,-19.79273],[-42.15691,-19.79156],[-42.15662,-19.79143],[-42.15638,-19.79137],[-42.15613,-19.79136],[-42.15606,-19.79107],[-42.15488,-19.78897],[-42.15724,-19.78898],[-42.15852,-19.78719],[-42.15662,-19.78628],[-42.15597,-19.78385],[-42.15594,-19.78314],[-42.15566,-19.78253],[-42.15551,-19.78194],[-42.15545,-19.78078],[-42.15576,-19.77926],[-42.15603,-19.77895],[-42.15647,-19.77848],[-42.1568,-19.7782],[-42.15762,-19.77726],[-42.15787,-19.77667],[-42.15825,-19.77505],[-42.15826,-19.77479],[-42.15819,-19.77455],[-42.15784,-19.77405],[-42.15764,-19.77383],[-42.15763,-19.77363],[-42.15752,-19.77349],[-42.15727,-19.77331],[-42.15705,-19.77305],[-42.15691,-19.77279],[-42.15678,-19.77251],[-42.15674,-19.77221],[-42.15681,-19.77199],[-42.15722,-19.7713],[-42.15743,-19.77091],[-42.15759,-19.77047],[-42.15776,-19.76987],[-42.15795,-19.76955],[-42.15827,-19.76913],[-42.15877,-19.76871],[-42.1593,-19.76842],[-42.15985,-19.76822],[-42.16025,-19.76791],[-42.16097,-19.76717],[-42.1645,-19.76977],[-42.18629,-19.78022],[-42.19299,-19.8037]]],[[[-42.16023,-19.76662],[-42.16011,-19.76665],[-42.15971,-19.76659],[-42.15962,-19.76617],[-42.16023,-19.76662]]],[[[-42.15686,-19.76405],[-42.15648,-19.76401],[-42.15637,-19.76393],[-42.15578,-19.76374],[-42.15562,-19.76378],[-42.15557,-19.76362],[-42.15555,-19.76354],[-42.15591,-19.76329],[-42.15686,-19.76405]]]]}},{"type":"Feature","properties":{"territory_id":"mg-3113404-cordeiro-de-minas","name":"Cordeiro de Minas","municipality_id":"mg-3113404","polling_places":1,"approx":true,"official":false,"method":"voronoi-polling-places","whole_municipality":false,"approx_coords_only":false},"geometry":{"type":"MultiPolygon","coordinates":[[[[-42.45989,-19.56346],[-42.3986,-19.6042],[-42.3471,-19.5895],[-42.3515,-19.5684],[-42.32422,-19.55211],[-42.37414,-19.46345],[-42.45989,-19.56346]]]]}},{"type":"Feature","properties":{"territory_id":"mg-3113404-corrego-das-quatro-encruzilhadas","name":"Córrego das Quatro Encruzilhadas","municipality_id":"mg-3113404","polling_places":1,"approx":true,"official":false,"method":"voronoi-polling-places","whole_municipality":false,"approx_coords_only":false},"geometry":{"type":"MultiPolygon","coordinates":[[[[-42.20407,-19.92297],[-42.1893,-19.9217],[-42.1691,-19.9384],[-42.1567,-19.9135],[-42.1525,-19.8786],[-42.15508,-19.87203],[-42.19443,-19.88019],[-42.20407,-19.92297]]]]}},{"type":"Feature","properties":{"territory_id":"mg-3113404-corrego-dos-campinhos","name":"Córrego dos Campinhos","municipality_id":"mg-3113404","polling_places":1,"approx":true,"official":false,"method":"voronoi-polling-places","whole_municipality":false,"approx_coords_only":false},"geometry":{"type":"MultiPolygon","coordinates":[[[[-42.16704,-19.67948],[-42.15138,-19.7252],[-42.14116,-19.734],[-42.14102,-19.73386],[-42.1406,-19.73374],[-42.14015,-19.73381],[-42.13917,-19.73329],[-42.13877,-19.73313],[-42.13847,-19.73319],[-42.13817,-19.73356],[-42.13794,-19.73373],[-42.13735,-19.73386],[-42.13683,-19.73376],[-42.13652,-19.73353],[-42.13609,-19.73335],[-42.13576,-19.73316],[-42.13538,-19.73296],[-42.13525,-19.73292],[-42.13525,-19.73233],[-42.13507,-19.73232],[-42.13471,-19.73213],[-42.13453,-19.7318],[-42.13482,-19.73104],[-42.13334,-19.73107],[-42.1315,-19.73105],[-42.13142,-19.73123],[-42.13101,-19.73113],[-42.1309,-19.73105],[-42.13075,-19.73105],[-42.13057,-19.73099],[-42.13013,-19.73092],[-42.12998,-19.73104],[-42.1299,-19.73104],[-42.12981,-19.73119],[-42.12914,-19.73205],[-42.12896,-19.73239],[-42.1291,-19.73333],[-42.12905,-19.73365],[-42.12889,-19.73374],[-42.12889,-19.73377],[-42.12862,-19.7339],[-42.12824,-19.73417],[-42.12793,-19.73459],[-42.12708,-19.7347],[-42.12635,-19.73486],[-42.12637,-19.73502],[-42.12681,-19.73589],[-42.12679,-19.73604],[-42.11445,-19.7347],[-42.1213,-19.6769],[-42.1536,-19.6711],[-42.15411,-19.66761],[-42.16704,-19.67948]]]]}},{"type":"Feature","properties":{"territory_id":"mg-3113404-dario-grossi","name":"Dário Grossi","municipality_id":"mg-3113404","polling_places":1,"approx":false,"official":true,"method":"official-ibge-cd2022","whole_municipality":false,"approx_coords_only":false,"official_name":"Dário Grossi","official_code":"3113404007","match":"direct"},"geometry":{"type":"MultiPolygon","coordinates":[[[[-42.14463,-19.77821],[-42.14517,-19.77768],[-42.14512,-19.77515],[-42.1445,-19.77509],[-42.14272,-19.7747],[-42.14223,-19.77439],[-42.1419,-19.77393],[-42.14183,-19.77372],[-42.14183,-19.77336],[-42.14147,-19.77235],[-42.14118,-19.77191],[-42.14079,-19.77121],[-42.14033,-19.77072],[-42.1402,-19.77016],[-42.13993,-19.76972],[-42.13976,-19.76868],[-42.14017,-19.76863],[-42.14074,-19.76886],[-42.14123,-19.76919],[-42.14118,-19.76967],[-42.14132,-19.77043],[-42.14186,-19.77074],[-42.14278,-19.77124],[-42.14238,-19.77145],[-42.14228,-19.77173],[-42.14233,-19.77227],[-42.14268,-19.77249],[-42.14461,-19.77279],[-42.14509,-19.773],[-42.14509,-19.77289],[-42.14539,-19.77288],[-42.14575,-19.77274],[-42.14588,-19.77265],[-42.14655,-19.772],[-42.14731,-19.7713],[-42.14735,-19.77122],[-42.14729,-19.77038],[-42.14722,-19.77013],[-42.1471,-19.76984],[-42.147,-19.76965],[-42.14689,-19.76957],[-42.14671,-19.7695],[-42.14651,-19.76946],[-42.14632,-19.76946],[-42.14614,-19.7695],[-42.14602,-19.76957],[-42.14565,-19.76996],[-42.14547,-19.77005],[-42.14531,-19.77006],[-42.14518,-19.77005],[-42.14504,-19.77001],[-42.14503,-19.76995],[-42.14449,-19.76982],[-42.144,-19.76963],[-42.14368,-19.76954],[-42.14302,-19.7692],[-42.14263,-19.76897],[-42.14236,-19.76867],[-42.14198,-19.76836],[-42.14167,-19.76821],[-42.14181,-19.7676],[-42.1421,-19.76713],[-42.14249,-19.7667],[-42.14305,-19.76655],[-42.14376,-19.76641],[-42.14439,-19.76647],[-42.14459,-19.76658],[-42.14481,-19.76675],[-42.14492,-19.76672],[-42.14498,-19.76664],[-42.14498,-19.76655],[-42.1463,-19.76571],[-42.14669,-19.76515],[-42.14732,-19.7647],[-42.14778,-19.76452],[-42.14768,-19.76421],[-42.14708,-19.76422],[-42.14635,-19.76464],[-42.14597,-19.76492],[-42.14523,-19.76497],[-42.1452,-19.76398],[-42.1454,-19.76181],[-42.14356,-19.76227],[-42.14219,-19.76302],[-42.14195,-19.76311],[-42.14178,-19.76295],[-42.14167,-19.76288],[-42.14156,-19.75866],[-42.1413,-19.75879],[-42.14035,-19.75967],[-42.13959,-19.76011],[-42.13845,-19.76025],[-42.13758,-19.76063],[-42.1366,-19.76168],[-42.13557,-19.76274],[-42.13523,-19.76376],[-42.13435,-19.76451],[-42.13336,-19.76603],[-42.13329,-19.7665],[-42.13328,-19.76701],[-42.13329,-19.76711],[-42.13323,-19.76713],[-42.13305,-19.76715],[-42.13294,-19.76702],[-42.13282,-19.76695],[-42.13271,-19.76691],[-42.13186,-19.76674],[-42.13181,-19.76687],[-42.13172,-19.76699],[-42.13174,-19.7672],[-42.1318,-19.76744],[-42.13191,-19.76779],[-42.13222,-19.7681],[-42.13231,-19.76828],[-42.13266,-19.7686],[-42.13286,-19.76868],[-42.13306,-19.76863],[-42.13333,-19.76862],[-42.13345,-19.7687],[-42.13362,-19.76888],[-42.13386,-19.76889],[-42.13411,-19.76883],[-42.13428,-19.76874],[-42.13455,-19.76871],[-42.13469,-19.76865],[-42.13492,-19.76849],[-42.13511,-19.76845],[-42.13533,-19.76851],[-42.1355,-19.76863],[-42.13555,-19.76874],[-42.13556,-19.76888],[-42.13569,-19.76908],[-42.1358,-19.76922],[-42.13582,-19.7694],[-42.1359,-19.76957],[-42.13592,-19.76984],[-42.13567,-19.77025],[-42.13561,-19.77042],[-42.1355,-19.77057],[-42.13528,-19.77063],[-42.13498,-19.77093],[-42.13483,-19.77102],[-42.13483,-19.77137],[-42.13493,-19.77153],[-42.13501,-19.77171],[-42.13516,-19.77191],[-42.13531,-19.77205],[-42.1355,-19.77219],[-42.13565,-19.77233],[-42.13576,-19.77247],[-42.13627,-19.77321],[-42.13638,-19.77342],[-42.1364,-19.77363],[-42.13632,-19.77374],[-42.13635,-19.77401],[-42.13625,-19.77433],[-42.13623,-19.77462],[-42.13636,-19.77502],[-42.13628,-19.77521],[-42.13646,-19.77567],[-42.13646,-19.77596],[-42.13624,-19.77637],[-42.13617,-19.77657],[-42.13623,-19.77682],[-42.13635,-19.77709],[-42.13643,-19.77737],[-42.1365,-19.77753],[-42.13652,-19.77812],[-42.13645,-19.7783],[-42.13627,-19.7786],[-42.13623,-19.77875],[-42.13631,-19.77893],[-42.1365,-19.77929],[-42.13661,-19.77941],[-42.13697,-19.77942],[-42.13718,-19.77949],[-42.13745,-19.77965],[-42.13756,-19.77978],[-42.1376,-19.78036],[-42.13768,-19.78074],[-42.13753,-19.78107],[-42.13756,-19.78139],[-42.13762,-19.78153],[-42.1377,-19.78195],[-42.13777,-19.78211],[-42.13789,-19.78229],[-42.13795,-19.78244],[-42.13813,-19.78324],[-42.13827,-19.78346],[-42.13851,-19.78348],[-42.13883,-19.78331],[-42.13904,-19.78339],[-42.13924,-19.7836],[-42.13943,-19.78373],[-42.13993,-19.78401],[-42.14028,-19.78356],[-42.14048,-19.7832],[-42.14061,-19.7831],[-42.14128,-19.78283],[-42.14135,-19.78311],[-42.14166,-19.78339],[-42.14177,-19.78354],[-42.14185,-19.78376],[-42.14186,-19.78397],[-42.14186,-19.78418],[-42.1421,-19.78493],[-42.14253,-19.78479],[-42.14288,-19.78471],[-42.14371,-19.78441],[-42.14317,-19.78344],[-42.14257,-19.78283],[-42.14251,-19.78202],[-42.14251,-19.78164],[-42.14264,-19.78159],[-42.14326,-19.78177],[-42.14394,-19.78184],[-42.14434,-19.78192],[-42.14424,-19.78173],[-42.14433,-19.78146],[-42.14459,-19.78116],[-42.14466,-19.7809],[-42.14469,-19.78047],[-42.14467,-19.78006],[-42.14461,-19.77972],[-42.14452,-19.77935],[-42.14442,-19.77902],[-42.14449,-19.77842],[-42.14461,-19.77824],[-42.14463,-19.77821]]]]}},{"type":"Feature","properties":{"territory_id":"mg-3113404-distrito-de-patrocinio","name":"Distrito de Patrocínio","municipality_id":"mg-3113404","polling_places":1,"approx":true,"official":false,"method":"voronoi-polling-places","whole_municipality":false,"approx_coords_only":true},"geometry":{"type":"MultiPolygon","coordinates":[[[[-41.92989,-19.68578],[-41.85119,-19.75134],[-41.87546,-19.59979],[-41.9031,-19.6212],[-41.9169,-19.6687],[-41.92989,-19.68578]]]]}},{"type":"Feature","properties":{"territory_id":"mg-3113404-distrito-de-santa-luzia","name":"Distrito de Santa Luzia","municipality_id":"mg-3113404","polling_places":1,"approx":true,"official":false,"method":"voronoi-polling-places","whole_municipality":false,"approx_coords_only":false},"geometry":{"type":"MultiPolygon","coordinates":[[[[-42.1243,-19.83929],[-42.0766,-19.8456],[-42.0752,-19.8855],[-42.0204,-19.9174],[-41.976,-19.9191],[-41.9734,-19.8818],[-41.96886,-19.88196],[-41.97466,-19.81723],[-41.99932,-19.78489],[-42.0063,-19.8164],[-42.0467,-19.8383],[-42.0592,-19.7916],[-42.06942,-19.78692],[-42.09948,-19.81131],[-42.1243,-19.83929]]]]}},{"type":"Feature","properties":{"territory_id":"mg-3113404-distrito-de-santo-antonio-do-manhuacu","name":"Distrito de Santo Antonio do Manhuaçu","municipality_id":"mg-3113404","polling_places":1,"approx":true,"official":false,"method":"voronoi-polling-places","whole_municipality":false,"approx_coords_only":false},"geometry":{"type":"MultiPolygon","coordinates":[[[[-41.87546,-19.59979],[-41.85119,-19.75134],[-41.84772,-19.75719],[-41.79437,-19.76895],[-41.7856,-19.7395],[-41.8184,-19.708],[-41.8044,-19.6229],[-41.8145,-19.5944],[-41.8543,-19.5834],[-41.87546,-19.59979]]]]}},{"type":"Feature","properties":{"territory_id":"mg-3113404-distrito-de-sao-joao-do-jacutinga","name":"Distrito de São João do Jacutinga","municipality_id":"mg-3113404","polling_places":1,"approx":true,"official":false,"method":"voronoi-polling-places","whole_municipality":false,"approx_coords_only":false},"geometry":{"type":"MultiPolygon","coordinates":[[[[-42.0084,-19.7327],[-41.9976,-19.7771],[-41.99932,-19.78489],[-41.97466,-19.81723],[-41.84772,-19.75719],[-41.85119,-19.75134],[-41.92989,-19.68578],[-41.9616,-19.7275],[-42.0084,-19.7327]]]]}},{"type":"Feature","properties":{"territory_id":"mg-3113404-dom-lara","name":"Dom Lara","municipality_id":"mg-3113404","polling_places":1,"approx":true,"official":false,"method":"voronoi-polling-places","whole_municipality":false,"approx_coords_only":false},"geometry":{"type":"MultiPolygon","coordinates":[[[[-42.2407,-19.727],[-42.233,-19.7967],[-42.22103,-19.81147],[-42.19299,-19.8037],[-42.18629,-19.78022],[-42.21118,-19.73402],[-42.22963,-19.71755],[-42.2407,-19.727]]]]}},{"type":"Feature","properties":{"territory_id":"mg-3113404-dom-modesto","name":"Dom Modesto","municipality_id":"mg-3113404","polling_places":1,"approx":true,"official":false,"method":"voronoi-polling-places","whole_municipality":false,"approx_coords_only":false},"geometry":{"type":"MultiPolygon","coordinates":[[[[-42.21118,-19.73402],[-42.18629,-19.78022],[-42.1645,-19.76977],[-42.16097,-19.76717],[-42.16109,-19.76705],[-42.16168,-19.76654],[-42.16196,-19.76625],[-42.16206,-19.7661],[-42.16195,-19.76616],[-42.16175,-19.76623],[-42.16161,-19.76632],[-42.16155,-19.76641],[-42.16139,-19.7665],[-42.16127,-19.76654],[-42.16102,-19.76655],[-42.16062,-19.7665],[-42.16023,-19.76662],[-42.15962,-19.76617],[-42.15944,-19.76531],[-42.15932,-19.76481],[-42.15863,-19.765],[-42.15845,-19.76439],[-42.15818,-19.76441],[-42.15749,-19.76433],[-42.15698,-19.76407],[-42.15686,-19.76405],[-42.15591,-19.76329],[-42.1424,-19.7442],[-42.14257,-19.74373],[-42.14249,-19.74353],[-42.14228,-19.7432],[-42.14176,-19.74315],[-42.14169,-19.74319],[-42.14149,-19.74291],[-42.14164,-19.74282],[-42.14164,-19.74276],[-42.14197,-19.74236],[-42.14202,-19.74167],[-42.14188,-19.7411],[-42.1417,-19.74065],[-42.14163,-19.74042],[-42.14161,-19.73807],[-42.14023,-19.73705],[-42.14055,-19.73553],[-42.14121,-19.73435],[-42.14134,-19.73419],[-42.14116,-19.734],[-42.15138,-19.7252],[-42.21118,-19.73402]]]]}},{"type":"Feature","properties":{"territory_id":"mg-3113404-esperanca","name":"Esperança","municipality_id":"mg-3113404","polling_places":1,"approx":false,"official":true,"method":"official-ibge-cd2022","whole_municipality":false,"approx_coords_only":false,"official_name":"Esperança","official_code":"3113404004","match":"direct"},"geometry":{"type":"MultiPolygon","coordinates":[[[[-42.14919,-19.788],[-42.1485,-19.78823],[-42.14836,-19.78781],[-42.14814,-19.78837],[-42.14814,-19.78856],[-42.14821,-19.78885],[-42.14853,-19.789],[-42.14869,-19.78917],[-42.14876,-19.78934],[-42.14863,-19.78936],[-42.1485,-19.7897],[-42.14844,-19.78998],[-42.14819,-19.79002],[-42.1479,-19.79001],[-42.14904,-19.79033],[-42.1493,-19.79047],[-42.14997,-19.79118],[-42.15048,-19.79122],[-42.15073,-19.79127],[-42.15073,-19.79107],[-42.15084,-19.79092],[-42.15121,-19.79083],[-42.15218,-19.79077],[-42.15226,-19.79095],[-42.1523,-19.79091],[-42.15295,-19.79092],[-42.15386,-19.79108],[-42.15512,-19.79113],[-42.15566,-19.79121],[-42.15602,-19.79129],[-42.15613,-19.79136],[-42.15606,-19.79107],[-42.15488,-19.78897],[-42.15724,-19.78898],[-42.15852,-19.78719],[-42.15662,-19.78628],[-42.15597,-19.78385],[-42.15593,-19.7839],[-42.15591,-19.78405],[-42.15585,-19.78422],[-42.15555,-19.78454],[-42.15535,-19.78466],[-42.15362,-19.78474],[-42.15339,-19.78471],[-42.1529,-19.78485],[-42.15205,-19.78412],[-42.15187,-19.78411],[-42.15132,-19.78353],[-42.15105,-19.78421],[-42.15061,-19.78459],[-42.15029,-19.7849],[-42.1499,-19.78511],[-42.14982,-19.78521],[-42.1498,-19.7854],[-42.14984,-19.78554],[-42.14988,-19.78567],[-42.15004,-19.78582],[-42.15009,-19.78627],[-42.15013,-19.7864],[-42.1503,-19.78668],[-42.15031,-19.7868],[-42.15022,-19.78696],[-42.15008,-19.78712],[-42.14994,-19.7872],[-42.14981,-19.78732],[-42.1497,-19.78752],[-42.14966,-19.78786],[-42.14919,-19.788]]]]}},{"type":"Feature","properties":{"territory_id":"mg-3113404-esplanada","name":"Esplanada","municipality_id":"mg-3113404","polling_places":1,"approx":false,"official":true,"method":"official-ibge-cd2022","whole_municipality":false,"approx_coords_only":false,"official_name":"Esplanada","official_code":"3113404010","match":"direct"},"geometry":{"type":"MultiPolygon","coordinates":[[[[-42.12356,-19.77906],[-42.12354,-19.77911],[-42.12342,-19.77919],[-42.12318,-19.77929],[-42.1232,-19.77968],[-42.12313,-19.77999],[-42.12316,-19.78009],[-42.12311,-19.78021],[-42.12318,-19.7804],[-42.12309,-19.7808],[-42.12322,-19.78101],[-42.12321,-19.78128],[-42.12337,-19.78144],[-42.12351,-19.78149],[-42.12357,-19.78158],[-42.12388,-19.78165],[-42.12432,-19.78187],[-42.12463,-19.78207],[-42.12485,-19.78284],[-42.12483,-19.78333],[-42.12485,-19.78359],[-42.12474,-19.78367],[-42.12486,-19.7839],[-42.12498,-19.78452],[-42.12536,-19.78509],[-42.1251,-19.78607],[-42.12528,-19.78675],[-42.12678,-19.78683],[-42.12757,-19.78694],[-42.13052,-19.78685],[-42.13076,-19.78679],[-42.13105,-19.78666],[-42.13125,-19.78652],[-42.13176,-19.7861],[-42.13263,-19.78524],[-42.13335,-19.78455],[-42.13406,-19.78397],[-42.13347,-19.78266],[-42.1328,-19.7811],[-42.13272,-19.78085],[-42.13268,-19.7806],[-42.13269,-19.7803],[-42.13273,-19.78006],[-42.13288,-19.77968],[-42.13296,-19.77942],[-42.13352,-19.77855],[-42.13265,-19.77803],[-42.13205,-19.77779],[-42.13111,-19.77757],[-42.13015,-19.77762],[-42.12742,-19.77536],[-42.12714,-19.77538],[-42.12686,-19.77552],[-42.12648,-19.77565],[-42.12589,-19.7758],[-42.12561,-19.77554],[-42.12558,-19.77545],[-42.12552,-19.77546],[-42.1255,-19.77519],[-42.12544,-19.77503],[-42.12516,-19.77529],[-42.12505,-19.77548],[-42.12497,-19.77548],[-42.12464,-19.77575],[-42.12426,-19.77591],[-42.12378,-19.77604],[-42.12355,-19.77622],[-42.12352,-19.77633],[-42.12353,-19.77673],[-42.12323,-19.77699],[-42.1232,-19.77715],[-42.12328,-19.7776],[-42.12332,-19.77815],[-42.12341,-19.77836],[-42.12345,-19.77839],[-42.12349,-19.77857],[-42.12355,-19.77876],[-42.12356,-19.77902],[-42.12356,-19.77906]]]]}},{"type":"Feature","properties":{"territory_id":"mg-3113404-limoeiro","name":"Limoeiro","municipality_id":"mg-3113404","polling_places":1,"approx":false,"official":true,"method":"official-ibge-cd2022","whole_municipality":false,"approx_coords_only":false,"official_name":"Limoeiro","official_code":"3113404001","match":"direct"},"geometry":{"type":"MultiPolygon","coordinates":[[[[-42.14664,-19.79891],[-42.14681,-19.79856],[-42.14691,-19.79823],[-42.14694,-19.79803],[-42.14693,-19.79768],[-42.14687,-19.79743],[-42.14678,-19.79719],[-42.14667,-19.79696],[-42.1466,-19.79692],[-42.14643,-19.7966],[-42.1458,-19.79606],[-42.14495,-19.79556],[-42.14486,-19.79541],[-42.14464,-19.79515],[-42.14359,-19.79471],[-42.14323,-19.79454],[-42.14334,-19.79433],[-42.1434,-19.79415],[-42.14345,-19.79385],[-42.1439,-19.79378],[-42.1438,-19.7929],[-42.14337,-19.79253],[-42.14323,-19.79248],[-42.14306,-19.79249],[-42.14288,-19.79256],[-42.14271,-19.79265],[-42.14142,-19.79394],[-42.1414,-19.7941],[-42.14142,-19.79463],[-42.14043,-19.79495],[-42.14008,-19.79504],[-42.13943,-19.795],[-42.13932,-19.79559],[-42.13856,-19.79529],[-42.13843,-19.79526],[-42.13819,-19.79689],[-42.1378,-19.79681],[-42.13759,-19.79603],[-42.13741,-19.79558],[-42.13708,-19.79585],[-42.13684,-19.79618],[-42.13663,-19.79641],[-42.13626,-19.79674],[-42.13548,-19.79681],[-42.1347,-19.79683],[-42.13275,-19.79686],[-42.13272,-19.79826],[-42.1343,-19.79999],[-42.13382,-19.80061],[-42.13521,-19.80187],[-42.13443,-19.80482],[-42.13523,-19.8058],[-42.13622,-19.80584],[-42.13739,-19.80379],[-42.13906,-19.80357],[-42.1401,-19.80284],[-42.14064,-19.80262],[-42.14119,-19.80282],[-42.14191,-19.80409],[-42.14521,-19.80355],[-42.14528,-19.80246],[-42.14497,-19.80173],[-42.1449,-19.80139],[-42.14512,-19.80108],[-42.1459,-19.80052],[-42.14655,-19.79969],[-42.14676,-19.79927],[-42.14664,-19.79891]]]]}},{"type":"Feature","properties":{"territory_id":"mg-3113404-nossa-senhora-das-gracas","name":"Nossa Senhora das Graças","municipality_id":"mg-3113404","polling_places":1,"approx":false,"official":true,"method":"official-ibge-cd2022","whole_municipality":false,"approx_coords_only":false,"official_name":"Nossa Senhora das Graças","official_code":"3113404008","match":"direct"},"geometry":{"type":"MultiPolygon","coordinates":[[[[-42.13334,-19.73107],[-42.1315,-19.73105],[-42.13142,-19.73123],[-42.13101,-19.73113],[-42.1309,-19.73105],[-42.13075,-19.73105],[-42.13057,-19.73099],[-42.13013,-19.73092],[-42.12998,-19.73104],[-42.1299,-19.73104],[-42.12981,-19.73119],[-42.12914,-19.73205],[-42.12896,-19.73239],[-42.1291,-19.73333],[-42.12905,-19.73365],[-42.12889,-19.73374],[-42.12889,-19.73377],[-42.12862,-19.7339],[-42.12824,-19.73417],[-42.12793,-19.73459],[-42.12708,-19.7347],[-42.12635,-19.73486],[-42.12637,-19.73502],[-42.12681,-19.73589],[-42.1267,-19.73649],[-42.12681,-19.73689],[-42.12706,-19.73745],[-42.12752,-19.73741],[-42.12809,-19.73748],[-42.12872,-19.73787],[-42.12852,-19.73788],[-42.12788,-19.73808],[-42.12777,-19.73874],[-42.12766,-19.73941],[-42.12804,-19.74035],[-42.1278,-19.74209],[-42.12875,-19.7432],[-42.12872,-19.74478],[-42.12846,-19.74481],[-42.128,-19.74479],[-42.12708,-19.74539],[-42.1265,-19.7458],[-42.12627,-19.74588],[-42.12627,-19.74611],[-42.1256,-19.74626],[-42.12494,-19.74718],[-42.12364,-19.74767],[-42.12415,-19.74822],[-42.1262,-19.74866],[-42.1266,-19.74865],[-42.1273,-19.7485],[-42.12757,-19.74863],[-42.12776,-19.74938],[-42.12747,-19.74948],[-42.12618,-19.7498],[-42.12617,-19.74988],[-42.12535,-19.75011],[-42.12433,-19.75058],[-42.12372,-19.75097],[-42.12352,-19.75096],[-42.12321,-19.75111],[-42.12292,-19.75136],[-42.12251,-19.75158],[-42.12216,-19.75188],[-42.1216,-19.75292],[-42.12134,-19.75355],[-42.12126,-19.7537],[-42.12125,-19.754],[-42.12166,-19.75398],[-42.12268,-19.75382],[-42.12334,-19.75378],[-42.12366,-19.75422],[-42.12318,-19.7545],[-42.12255,-19.75488],[-42.1218,-19.75531],[-42.12122,-19.75553],[-42.12122,-19.75568],[-42.11945,-19.75617],[-42.11873,-19.75685],[-42.11901,-19.75707],[-42.1195,-19.75766],[-42.12117,-19.75848],[-42.12116,-19.75876],[-42.12145,-19.75867],[-42.12165,-19.7587],[-42.12202,-19.75891],[-42.12226,-19.75946],[-42.12233,-19.75951],[-42.12298,-19.75975],[-42.1233,-19.75973],[-42.12351,-19.75959],[-42.1243,-19.75966],[-42.12466,-19.75973],[-42.12504,-19.75992],[-42.12518,-19.76003],[-42.12555,-19.76013],[-42.12636,-19.76019],[-42.12696,-19.7605],[-42.12755,-19.76069],[-42.12772,-19.76072],[-42.12818,-19.76051],[-42.1283,-19.76053],[-42.12849,-19.76065],[-42.1288,-19.76068],[-42.12925,-19.76065],[-42.12958,-19.76071],[-42.13047,-19.76073],[-42.13151,-19.76105],[-42.13155,-19.76105],[-42.13174,-19.7611],[-42.13232,-19.76111],[-42.13245,-19.76092],[-42.13271,-19.76086],[-42.13282,-19.76088],[-42.13341,-19.76123],[-42.13386,-19.76061],[-42.1343,-19.75956],[-42.13477,-19.75966],[-42.13499,-19.75978],[-42.13619,-19.75964],[-42.13715,-19.75896],[-42.13746,-19.75876],[-42.13776,-19.75867],[-42.13788,-19.75889],[-42.13893,-19.75903],[-42.1413,-19.75879],[-42.14156,-19.75866],[-42.14174,-19.75837],[-42.14174,-19.75828],[-42.1416,-19.75831],[-42.14144,-19.75819],[-42.14157,-19.75786],[-42.14168,-19.75749],[-42.14156,-19.7569],[-42.1409,-19.75643],[-42.14087,-19.75571],[-42.14084,-19.75545],[-42.14045,-19.75508],[-42.13976,-19.75469],[-42.13943,-19.75438],[-42.13963,-19.75384],[-42.14031,-19.75369],[-42.1417,-19.75257],[-42.1418,-19.75242],[-42.14182,-19.75227],[-42.14191,-19.75203],[-42.14205,-19.75172],[-42.14225,-19.7516],[-42.14262,-19.75105],[-42.14251,-19.74954],[-42.14236,-19.74908],[-42.14181,-19.74861],[-42.14121,-19.74835],[-42.14073,-19.74791],[-42.14033,-19.74764],[-42.14005,-19.74731],[-42.13973,-19.74743],[-42.13881,-19.74763],[-42.13843,-19.74737],[-42.13763,-19.74695],[-42.13735,-19.74687],[-42.1364,-19.74686],[-42.13613,-19.74648],[-42.13655,-19.74635],[-42.13772,-19.74594],[-42.13855,-19.7459],[-42.13958,-19.74568],[-42.14105,-19.74516],[-42.14165,-19.74492],[-42.14165,-19.74481],[-42.14186,-19.74472],[-42.14213,-19.74456],[-42.14238,-19.74426],[-42.14257,-19.74373],[-42.14249,-19.74353],[-42.14228,-19.7432],[-42.14176,-19.74315],[-42.14164,-19.74321],[-42.14164,-19.74319],[-42.14133,-19.74332],[-42.14119,-19.74324],[-42.14143,-19.74295],[-42.14164,-19.74282],[-42.14164,-19.74276],[-42.14197,-19.74236],[-42.14202,-19.74167],[-42.14188,-19.7411],[-42.1417,-19.74065],[-42.14163,-19.74042],[-42.14161,-19.73807],[-42.14023,-19.73705],[-42.14055,-19.73553],[-42.14121,-19.73435],[-42.14134,-19.73419],[-42.14102,-19.73386],[-42.1406,-19.73374],[-42.14015,-19.73381],[-42.13917,-19.73329],[-42.13877,-19.73313],[-42.13847,-19.73319],[-42.13817,-19.73356],[-42.13794,-19.73373],[-42.13735,-19.73386],[-42.13683,-19.73376],[-42.13652,-19.73353],[-42.13609,-19.73335],[-42.13576,-19.73316],[-42.13538,-19.73296],[-42.13525,-19.73292],[-42.13525,-19.73233],[-42.13507,-19.73232],[-42.13471,-19.73213],[-42.13453,-19.7318],[-42.13482,-19.73104],[-42.13334,-19.73107]]]]}},{"type":"Feature","properties":{"territory_id":"mg-3113404-povoado-de-suico","name":"Povoado de Suíço","municipality_id":"mg-3113404","polling_places":1,"approx":true,"official":false,"method":"voronoi-polling-places","whole_municipality":false,"approx_coords_only":false},"geometry":{"type":"MultiPolygon","coordinates":[[[[-41.97466,-19.81723],[-41.96886,-19.88196],[-41.8895,-19.8847],[-41.827,-19.829],[-41.802,-19.8322],[-41.7853,-19.8126],[-41.7962,-19.7751],[-41.79437,-19.76895],[-41.84772,-19.75719],[-41.97466,-19.81723]]]]}},{"type":"Feature","properties":{"territory_id":"mg-3113404-residencial-porto-seguro","name":"Residencial Porto Seguro","municipality_id":"mg-3113404","polling_places":1,"approx":true,"official":false,"method":"voronoi-polling-places","whole_municipality":false,"approx_coords_only":false},"geometry":{"type":"MultiPolygon","coordinates":[[[[-42.5143,-19.4923],[-42.5038,-19.5149],[-42.4896,-19.5437],[-42.45989,-19.56346],[-42.37414,-19.46345],[-42.3699,-19.44769],[-42.395,-19.4499],[-42.4321,-19.4395],[-42.5023,-19.4921],[-42.5143,-19.4923]]]]}},{"type":"Feature","properties":{"territory_id":"mg-3113404-santa-cruz","name":"Santa Cruz","municipality_id":"mg-3113404","polling_places":4,"approx":false,"official":true,"method":"official-ibge-cd2022","whole_municipality":false,"approx_coords_only":false,"official_name":"Santa Cruz","official_code":"3113404005","match":"direct"},"geometry":{"type":"MultiPolygon","coordinates":[[[[-42.15132,-19.78353],[-42.15187,-19.78411],[-42.15205,-19.78412],[-42.1529,-19.78485],[-42.15339,-19.78471],[-42.15362,-19.78474],[-42.15535,-19.78466],[-42.15555,-19.78454],[-42.15585,-19.78422],[-42.15591,-19.78405],[-42.15593,-19.7839],[-42.15597,-19.78385],[-42.15594,-19.78314],[-42.15566,-19.78253],[-42.15551,-19.78194],[-42.15545,-19.78078],[-42.15576,-19.77926],[-42.15603,-19.77895],[-42.15647,-19.77848],[-42.1568,-19.7782],[-42.15762,-19.77726],[-42.15787,-19.77667],[-42.15825,-19.77505],[-42.15826,-19.77479],[-42.15819,-19.77455],[-42.15784,-19.77405],[-42.15764,-19.77383],[-42.15763,-19.77363],[-42.15752,-19.77349],[-42.15727,-19.77331],[-42.15705,-19.77305],[-42.15691,-19.77279],[-42.15678,-19.77251],[-42.15674,-19.77221],[-42.15681,-19.77199],[-42.15722,-19.7713],[-42.15743,-19.77091],[-42.15759,-19.77047],[-42.15776,-19.76987],[-42.15795,-19.76955],[-42.15827,-19.76913],[-42.15877,-19.76871],[-42.1593,-19.76842],[-42.15985,-19.76822],[-42.16025,-19.76791],[-42.16109,-19.76705],[-42.16168,-19.76654],[-42.16196,-19.76625],[-42.16206,-19.7661],[-42.16195,-19.76616],[-42.16175,-19.76623],[-42.16161,-19.76632],[-42.16155,-19.76641],[-42.16139,-19.7665],[-42.16127,-19.76654],[-42.16102,-19.76655],[-42.16062,-19.7665],[-42.16011,-19.76665],[-42.15971,-19.76659],[-42.15944,-19.76531],[-42.15932,-19.76481],[-42.15863,-19.765],[-42.15845,-19.76439],[-42.15818,-19.76441],[-42.15749,-19.76433],[-42.15698,-19.76407],[-42.15648,-19.76401],[-42.15637,-19.76393],[-42.15578,-19.76374],[-42.15562,-19.76378],[-42.15557,-19.76362],[-42.1555,-19.7633],[-42.15543,-19.7631],[-42.15527,-19.76293],[-42.15491,-19.76262],[-42.15293,-19.76178],[-42.15217,-19.76197],[-42.15197,-19.76188],[-42.15183,-19.76175],[-42.1516,-19.76135],[-42.1511,-19.76095],[-42.1506,-19.76043],[-42.15005,-19.76002],[-42.14975,-19.75995],[-42.14947,-19.76],[-42.14913,-19.76022],[-42.14881,-19.76017],[-42.14843,-19.75984],[-42.1477,-19.7595],[-42.14672,-19.75894],[-42.14656,-19.75845],[-42.14623,-19.75791],[-42.14584,-19.75741],[-42.14511,-19.75718],[-42.14459,-19.75723],[-42.14413,-19.75734],[-42.14339,-19.75761],[-42.14187,-19.75827],[-42.14174,-19.75837],[-42.14156,-19.75866],[-42.14167,-19.76288],[-42.14178,-19.76295],[-42.14195,-19.76311],[-42.14219,-19.76302],[-42.14356,-19.76227],[-42.1454,-19.76181],[-42.1452,-19.76398],[-42.14523,-19.76497],[-42.14597,-19.76492],[-42.14635,-19.76464],[-42.14708,-19.76422],[-42.14768,-19.76421],[-42.14778,-19.76452],[-42.14732,-19.7647],[-42.14669,-19.76515],[-42.1463,-19.76571],[-42.14498,-19.76655],[-42.14498,-19.76664],[-42.14492,-19.76672],[-42.14481,-19.76675],[-42.14459,-19.76658],[-42.14439,-19.76647],[-42.14376,-19.76641],[-42.14305,-19.76655],[-42.14249,-19.7667],[-42.1421,-19.76713],[-42.14181,-19.7676],[-42.14167,-19.76821],[-42.14198,-19.76836],[-42.14236,-19.76867],[-42.14263,-19.76897],[-42.14302,-19.7692],[-42.14368,-19.76954],[-42.144,-19.76963],[-42.14449,-19.76982],[-42.14503,-19.76995],[-42.14504,-19.77001],[-42.14518,-19.77005],[-42.14531,-19.77006],[-42.14547,-19.77005],[-42.14565,-19.76996],[-42.14602,-19.76957],[-42.14614,-19.7695],[-42.14632,-19.76946],[-42.14651,-19.76946],[-42.14671,-19.7695],[-42.14689,-19.76957],[-42.147,-19.76965],[-42.1471,-19.76984],[-42.14722,-19.77013],[-42.14729,-19.77038],[-42.14735,-19.77122],[-42.14731,-19.7713],[-42.14655,-19.772],[-42.14588,-19.77265],[-42.14575,-19.77274],[-42.14539,-19.77288],[-42.14509,-19.77289],[-42.14509,-19.773],[-42.14461,-19.77279],[-42.14268,-19.77249],[-42.14233,-19.77227],[-42.14228,-19.77173],[-42.14238,-19.77145],[-42.14278,-19.77124],[-42.14186,-19.77074],[-42.14132,-19.77043],[-42.14118,-19.76967],[-42.14123,-19.76919],[-42.14074,-19.76886],[-42.14017,-19.76863],[-42.13976,-19.76868],[-42.13993,-19.76972],[-42.1402,-19.77016],[-42.14033,-19.77072],[-42.14079,-19.77121],[-42.14118,-19.77191],[-42.14147,-19.77235],[-42.14183,-19.77336],[-42.14183,-19.77372],[-42.1419,-19.77393],[-42.14223,-19.77439],[-42.14272,-19.7747],[-42.1445,-19.77509],[-42.14512,-19.77515],[-42.14517,-19.77768],[-42.14643,-19.77601],[-42.14752,-19.7762],[-42.14861,-19.77683],[-42.14897,-19.777],[-42.14981,-19.77804],[-42.15017,-19.77834],[-42.15039,-19.77843],[-42.15049,-19.77887],[-42.15039,-19.77913],[-42.15005,-19.77926],[-42.14984,-19.77939],[-42.14942,-19.77968],[-42.14911,-19.77996],[-42.14866,-19.78032],[-42.1489,-19.78054],[-42.14858,-19.78094],[-42.15002,-19.782],[-42.14973,-19.78235],[-42.1496,-19.78244],[-42.14939,-19.7825],[-42.14902,-19.78255],[-42.14888,-19.78264],[-42.14901,-19.78286],[-42.14864,-19.7831],[-42.14861,-19.78324],[-42.1485,-19.78336],[-42.14834,-19.78361],[-42.14805,-19.78383],[-42.14793,-19.78394],[-42.14784,-19.7841],[-42.14764,-19.78438],[-42.14778,-19.78465],[-42.14773,-19.78482],[-42.1478,-19.78498],[-42.14782,-19.78515],[-42.14763,-19.7853],[-42.14757,-19.78608],[-42.14741,-19.78632],[-42.14744,-19.78652],[-42.14732,-19.78676],[-42.14731,-19.78691],[-42.14737,-19.78705],[-42.14718,-19.78716],[-42.14707,-19.78729],[-42.14702,-19.78749],[-42.147,-19.78766],[-42.1468,-19.78796],[-42.14662,-19.78811],[-42.14669,-19.78827],[-42.14659,-19.78844],[-42.14642,-19.78861],[-42.14639,-19.78876],[-42.14646,-19.7894],[-42.14657,-19.78939],[-42.14679,-19.78945],[-42.14766,-19.78994],[-42.1479,-19.79001],[-42.14819,-19.79002],[-42.14844,-19.78998],[-42.1485,-19.7897],[-42.14863,-19.78936],[-42.14876,-19.78934],[-42.14869,-19.78917],[-42.14853,-19.789],[-42.14821,-19.78885],[-42.14814,-19.78856],[-42.14814,-19.78837],[-42.14836,-19.78781],[-42.1485,-19.78823],[-42.14919,-19.788],[-42.14966,-19.78786],[-42.1497,-19.78752],[-42.14981,-19.78732],[-42.14994,-19.7872],[-42.15008,-19.78712],[-42.15022,-19.78696],[-42.15031,-19.7868],[-42.1503,-19.78668],[-42.15013,-19.7864],[-42.15009,-19.78627],[-42.15004,-19.78582],[-42.14988,-19.78567],[-42.14984,-19.78554],[-42.1498,-19.7854],[-42.14982,-19.78521],[-42.1499,-19.78511],[-42.15029,-19.7849],[-42.1504,-19.7848],[-42.15061,-19.78459],[-42.15105,-19.78421],[-42.15113,-19.78401],[-42.15132,-19.78353]]]]}},{"type":"Feature","properties":{"territory_id":"mg-3113404-santa-efigenia","name":"Santa Efigênia","municipality_id":"mg-3113404","polling_places":1,"approx":true,"official":false,"method":"voronoi-polling-places","whole_municipality":false,"approx_coords_only":false},"geometry":{"type":"MultiPolygon","coordinates":[[[[-42.22963,-19.71755],[-42.21118,-19.73402],[-42.15138,-19.7252],[-42.16704,-19.67948],[-42.20751,-19.68607],[-42.2053,-19.6968],[-42.22963,-19.71755]]]]}},{"type":"Feature","properties":{"territory_id":"mg-3113404-santa-zita","name":"Santa Zita","municipality_id":"mg-3113404","polling_places":1,"approx":false,"official":true,"method":"official-ibge-cd2022","whole_municipality":false,"approx_coords_only":false,"official_name":"Santa Zita","official_code":"3113404011","match":"direct"},"geometry":{"type":"MultiPolygon","coordinates":[[[[-42.13105,-19.79015],[-42.13128,-19.79005],[-42.13302,-19.7891],[-42.13324,-19.7891],[-42.13415,-19.78866],[-42.13425,-19.78876],[-42.13441,-19.78898],[-42.1346,-19.78885],[-42.13483,-19.78877],[-42.135,-19.78872],[-42.13582,-19.78858],[-42.13605,-19.78846],[-42.13406,-19.78397],[-42.13335,-19.78455],[-42.13263,-19.78524],[-42.13176,-19.7861],[-42.13125,-19.78652],[-42.13105,-19.78666],[-42.13076,-19.78679],[-42.13052,-19.78685],[-42.12757,-19.78694],[-42.12678,-19.78683],[-42.12528,-19.78675],[-42.12434,-19.78724],[-42.12356,-19.78756],[-42.12275,-19.7877],[-42.12141,-19.78813],[-42.11978,-19.78858],[-42.11855,-19.78923],[-42.11794,-19.79033],[-42.11826,-19.79187],[-42.11923,-19.79276],[-42.12037,-19.79357],[-42.12037,-19.79398],[-42.12133,-19.79559],[-42.12208,-19.79623],[-42.12241,-19.79595],[-42.12277,-19.79529],[-42.12373,-19.79461],[-42.12406,-19.79405],[-42.12464,-19.79392],[-42.12613,-19.7944],[-42.12852,-19.79503],[-42.12979,-19.79524],[-42.1307,-19.79531],[-42.13267,-19.79686],[-42.13446,-19.79684],[-42.13253,-19.79213],[-42.13194,-19.79188],[-42.13169,-19.79131],[-42.13173,-19.79124],[-42.13152,-19.79105],[-42.13105,-19.79015]]]]}},{"type":"Feature","properties":{"territory_id":"mg-3113404-santo-antonio","name":"Santo Antônio","municipality_id":"mg-3113404","polling_places":3,"approx":false,"official":true,"method":"official-ibge-cd2022","whole_municipality":false,"approx_coords_only":false,"official_name":"Santo Antônio","official_code":"3113404003","match":"direct"},"geometry":{"type":"MultiPolygon","coordinates":[[[[-42.14956,-19.79215],[-42.14943,-19.79246],[-42.14932,-19.7926],[-42.14906,-19.79287],[-42.14907,-19.79309],[-42.14928,-19.79399],[-42.14955,-19.79392],[-42.15002,-19.7939],[-42.15,-19.79317],[-42.1501,-19.79316],[-42.15061,-19.79553],[-42.15102,-19.79606],[-42.15142,-19.79672],[-42.15209,-19.79749],[-42.15219,-19.79758],[-42.15226,-19.7976],[-42.15234,-19.7976],[-42.15256,-19.79743],[-42.15326,-19.7975],[-42.15314,-19.79835],[-42.15199,-19.79822],[-42.15223,-19.79901],[-42.15186,-19.79982],[-42.15144,-19.80138],[-42.15194,-19.80161],[-42.1525,-19.80192],[-42.15297,-19.80174],[-42.15331,-19.8025],[-42.15297,-19.80265],[-42.15303,-19.80276],[-42.15327,-19.80271],[-42.1534,-19.80265],[-42.15365,-19.80243],[-42.15381,-19.80218],[-42.15404,-19.80117],[-42.15412,-19.80099],[-42.1549,-19.80056],[-42.1552,-19.80025],[-42.15539,-19.79986],[-42.15584,-19.79927],[-42.15591,-19.79903],[-42.15585,-19.79863],[-42.1559,-19.79822],[-42.15611,-19.79794],[-42.1564,-19.79779],[-42.15668,-19.79776],[-42.15682,-19.79778],[-42.1572,-19.79795],[-42.15743,-19.798],[-42.15774,-19.79799],[-42.15929,-19.79763],[-42.15958,-19.79758],[-42.15959,-19.797],[-42.15903,-19.79529],[-42.15881,-19.7951],[-42.15673,-19.79489],[-42.15602,-19.79485],[-42.15501,-19.79538],[-42.15464,-19.79496],[-42.155,-19.79417],[-42.15575,-19.79354],[-42.15649,-19.79273],[-42.15691,-19.79156],[-42.15662,-19.79143],[-42.15638,-19.79137],[-42.15613,-19.79136],[-42.15602,-19.79129],[-42.15566,-19.79121],[-42.15512,-19.79113],[-42.15386,-19.79108],[-42.15295,-19.79092],[-42.1523,-19.79091],[-42.15226,-19.79095],[-42.15218,-19.79077],[-42.15121,-19.79083],[-42.15084,-19.79092],[-42.15073,-19.79107],[-42.15073,-19.79127],[-42.15048,-19.79122],[-42.14997,-19.79118],[-42.1493,-19.79047],[-42.14904,-19.79033],[-42.14766,-19.78994],[-42.14679,-19.78945],[-42.14657,-19.78939],[-42.14591,-19.78942],[-42.14582,-19.78977],[-42.1456,-19.79072],[-42.1458,-19.79078],[-42.14682,-19.79079],[-42.1476,-19.79092],[-42.14874,-19.79137],[-42.14885,-19.79146],[-42.14918,-19.79194],[-42.14931,-19.79206],[-42.14956,-19.79215]]]]}},{"type":"Feature","properties":{"territory_id":"mg-3113404-sao-candido","name":"São Cândido","municipality_id":"mg-3113404","polling_places":1,"approx":true,"official":false,"method":"voronoi-polling-places","whole_municipality":false,"approx_coords_only":false},"geometry":{"type":"MultiPolygon","coordinates":[[[[-42.37414,-19.46345],[-42.32422,-19.55211],[-42.3011,-19.5383],[-42.2679,-19.5536],[-42.2635,-19.5829],[-42.25305,-19.58459],[-42.22071,-19.55645],[-42.2442,-19.5471],[-42.2998,-19.5205],[-42.2924,-19.4718],[-42.275,-19.4476],[-42.2784,-19.4438],[-42.2952,-19.4553],[-42.3381,-19.4449],[-42.3699,-19.44769],[-42.37414,-19.46345]]]]}},{"type":"Feature","properties":{"territory_id":"mg-3113404-sao-pedro-santa-efigenia","name":"São Pedro - Santa Efigênia","municipality_id":"mg-3113404","polling_places":1,"approx":true,"official":false,"method":"voronoi-polling-places","whole_municipality":false,"approx_coords_only":false},"geometry":{"type":"MultiPolygon","coordinates":[[[[-42.25305,-19.58459],[-42.2276,-19.5887],[-42.20751,-19.68607],[-42.16704,-19.67948],[-42.15411,-19.66761],[-42.1618,-19.6154],[-42.2068,-19.6082],[-42.2143,-19.559],[-42.22071,-19.55645],[-42.25305,-19.58459]]]]}},{"type":"Feature","properties":{"territory_id":"mg-3113404-sao-pedro-sapucaia","name":"São Pedro - Sapucaia","municipality_id":"mg-3113404","polling_places":1,"approx":true,"official":false,"method":"voronoi-polling-places","whole_municipality":false,"approx_coords_only":false},"geometry":{"type":"MultiPolygon","coordinates":[[[[-42.2481,-19.9078],[-42.236,-19.9257],[-42.2216,-19.92447],[-42.21718,-19.87744],[-42.23535,-19.86988],[-42.2348,-19.8726],[-42.2481,-19.9078]]]]}},{"type":"Feature","properties":{"territory_id":"mg-3113404-sapucaia","name":"Sapucaia","municipality_id":"mg-3113404","polling_places":1,"approx":true,"official":false,"method":"voronoi-polling-places","whole_municipality":false,"approx_coords_only":false},"geometry":{"type":"MultiPolygon","coordinates":[[[[-42.2413,-19.8404],[-42.23535,-19.86988],[-42.21718,-19.87744],[-42.19443,-19.88019],[-42.15508,-19.87203],[-42.1703,-19.8332],[-42.16314,-19.83415],[-42.19299,-19.8037],[-42.22103,-19.81147],[-42.2052,-19.831],[-42.2413,-19.8404]]]]}},{"type":"Feature","properties":{"territory_id":"mg-3113404-vale-do-sol","name":"Vale do Sol","municipality_id":"mg-3113404","polling_places":1,"approx":true,"official":false,"method":"voronoi-polling-places","whole_municipality":false,"approx_coords_only":false},"geometry":{"type":"MultiPolygon","coordinates":[[[[-42.13651,-19.77775],[-42.13362,-19.783],[-42.13347,-19.78266],[-42.1328,-19.7811],[-42.13272,-19.78085],[-42.13268,-19.7806],[-42.13269,-19.7803],[-42.13273,-19.78006],[-42.13288,-19.77968],[-42.13296,-19.77942],[-42.13352,-19.77855],[-42.13265,-19.77803],[-42.13205,-19.77779],[-42.13111,-19.77757],[-42.13015,-19.77762],[-42.12742,-19.77537],[-42.13641,-19.77555],[-42.13646,-19.77567],[-42.13646,-19.77596],[-42.13624,-19.77637],[-42.13617,-19.77657],[-42.13623,-19.77682],[-42.13635,-19.77709],[-42.13643,-19.77737],[-42.1365,-19.77753],[-42.13651,-19.77775]]],[[[-42.12732,-19.77537],[-42.12714,-19.77538],[-42.12686,-19.77552],[-42.12648,-19.77565],[-42.12589,-19.7758],[-42.12561,-19.77554],[-42.12558,-19.77545],[-42.12552,-19.77546],[-42.12551,-19.77533],[-42.12732,-19.77537]]],[[[-42.12536,-19.78509],[-42.1251,-19.78607],[-42.12528,-19.78675],[-42.12434,-19.78724],[-42.12356,-19.78756],[-42.12275,-19.7877],[-42.12141,-19.78813],[-42.11978,-19.78858],[-42.11855,-19.78923],[-42.11794,-19.79033],[-42.11826,-19.79187],[-42.11923,-19.79276],[-42.12037,-19.79357],[-42.12037,-19.79398],[-42.12106,-19.79514],[-42.09948,-19.81131],[-42.06942,-19.78692],[-42.0902,-19.7774],[-42.09062,-19.77463],[-42.12514,-19.77532],[-42.12505,-19.77548],[-42.12497,-19.77548],[-42.12464,-19.77575],[-42.12426,-19.77591],[-42.12378,-19.77604],[-42.12355,-19.77622],[-42.12352,-19.77633],[-42.12353,-19.77673],[-42.12323,-19.77699],[-42.1232,-19.77715],[-42.12328,-19.7776],[-42.12332,-19.77815],[-42.12341,-19.77836],[-42.12345,-19.77839],[-42.12349,-19.77857],[-42.12355,-19.77876],[-42.12356,-19.77902],[-42.12356,-19.77906],[-42.12354,-19.77911],[-42.12342,-19.77919],[-42.12318,-19.77929],[-42.1232,-19.77968],[-42.12313,-19.77999],[-42.12316,-19.78009],[-42.12311,-19.78021],[-42.12318,-19.7804],[-42.12309,-19.7808],[-42.12322,-19.78101],[-42.12321,-19.78128],[-42.12337,-19.78144],[-42.12351,-19.78149],[-42.12357,-19.78158],[-42.12388,-19.78165],[-42.12432,-19.78187],[-42.12463,-19.78207],[-42.12485,-19.78284],[-42.12483,-19.78333],[-42.12485,-19.78359],[-42.12474,-19.78367],[-42.12486,-19.7839],[-42.12498,-19.78452],[-42.12536,-19.78509]]]]}},{"type":"Feature","properties":{"territory_id":"mg-3113404-zacarias","name":"Zacarias","municipality_id":"mg-3113404","polling_places":1,"approx":true,"official":false,"method":"voronoi-polling-places","whole_municipality":false,"approx_coords_only":false},"geometry":{"type":"MultiPolygon","coordinates":[[[[-42.15591,-19.76329],[-42.15555,-19.76354],[-42.1555,-19.7633],[-42.15543,-19.7631],[-42.15527,-19.76293],[-42.15491,-19.76262],[-42.15293,-19.76178],[-42.15217,-19.76197],[-42.15197,-19.76188],[-42.15183,-19.76175],[-42.1516,-19.76135],[-42.1511,-19.76095],[-42.1506,-19.76043],[-42.15005,-19.76002],[-42.14975,-19.75995],[-42.14947,-19.76],[-42.14913,-19.76022],[-42.14881,-19.76017],[-42.14843,-19.75984],[-42.1477,-19.7595],[-42.14672,-19.75894],[-42.14656,-19.75845],[-42.14623,-19.75791],[-42.14584,-19.75741],[-42.14511,-19.75718],[-42.14459,-19.75723],[-42.14413,-19.75734],[-42.14339,-19.75761],[-42.14187,-19.75827],[-42.14174,-19.75837],[-42.14174,-19.75828],[-42.1416,-19.75831],[-42.14144,-19.75819],[-42.14157,-19.75786],[-42.14168,-19.75749],[-42.14156,-19.7569],[-42.1409,-19.75643],[-42.14087,-19.75571],[-42.14084,-19.75545],[-42.14045,-19.75508],[-42.13976,-19.75469],[-42.13943,-19.75438],[-42.13963,-19.75384],[-42.14031,-19.75369],[-42.1417,-19.75257],[-42.1418,-19.75242],[-42.14182,-19.75227],[-42.14191,-19.75203],[-42.14205,-19.75172],[-42.14225,-19.7516],[-42.14262,-19.75105],[-42.14251,-19.74954],[-42.14236,-19.74908],[-42.14181,-19.74861],[-42.14121,-19.74835],[-42.14073,-19.74791],[-42.14033,-19.74764],[-42.14005,-19.74731],[-42.13973,-19.74743],[-42.13881,-19.74763],[-42.13843,-19.74737],[-42.13763,-19.74695],[-42.13735,-19.74687],[-42.1364,-19.74686],[-42.13613,-19.74648],[-42.13655,-19.74635],[-42.13772,-19.74594],[-42.13855,-19.7459],[-42.13958,-19.74568],[-42.14105,-19.74516],[-42.14165,-19.74492],[-42.14165,-19.74481],[-42.14186,-19.74472],[-42.14213,-19.74456],[-42.14238,-19.74426],[-42.1424,-19.7442],[-42.15591,-19.76329]]],[[[-42.14169,-19.74319],[-42.14164,-19.74321],[-42.14164,-19.74319],[-42.14133,-19.74332],[-42.14119,-19.74324],[-42.14143,-19.74295],[-42.14149,-19.74291],[-42.14169,-19.74319]]],[[[-42.1413,-19.75879],[-42.14035,-19.75967],[-42.13959,-19.76011],[-42.13845,-19.76025],[-42.13758,-19.76063],[-42.1366,-19.76168],[-42.13557,-19.76274],[-42.13523,-19.76376],[-42.13435,-19.76451],[-42.13336,-19.76603],[-42.13329,-19.7665],[-42.13328,-19.76701],[-42.13329,-19.76711],[-42.13323,-19.76713],[-42.13305,-19.76715],[-42.13294,-19.76702],[-42.13282,-19.76695],[-42.13271,-19.76691],[-42.13186,-19.76674],[-42.13181,-19.76687],[-42.13172,-19.76699],[-42.13174,-19.7672],[-42.1318,-19.76744],[-42.13191,-19.76779],[-42.13222,-19.7681],[-42.13231,-19.76828],[-42.13266,-19.7686],[-42.13286,-19.76868],[-42.13306,-19.76863],[-42.13333,-19.76862],[-42.13345,-19.7687],[-42.13362,-19.76888],[-42.13386,-19.76889],[-42.13411,-19.76883],[-42.13428,-19.76874],[-42.13455,-19.76871],[-42.13469,-19.76865],[-42.13492,-19.76849],[-42.13511,-19.76845],[-42.13533,-19.76851],[-42.1355,-19.76863],[-42.13555,-19.76874],[-42.13556,-19.76888],[-42.13569,-19.76908],[-42.1358,-19.76922],[-42.13582,-19.7694],[-42.1359,-19.76957],[-42.13592,-19.76984],[-42.13567,-19.77025],[-42.13561,-19.77042],[-42.1355,-19.77057],[-42.13528,-19.77063],[-42.13498,-19.77093],[-42.13483,-19.77102],[-42.13483,-19.77137],[-42.13493,-19.77153],[-42.13501,-19.77171],[-42.13516,-19.77191],[-42.13531,-19.77205],[-42.1355,-19.77219],[-42.13565,-19.77233],[-42.13576,-19.77247],[-42.13627,-19.77321],[-42.13638,-19.77342],[-42.1364,-19.77363],[-42.13632,-19.77374],[-42.13635,-19.77401],[-42.13625,-19.77433],[-42.13623,-19.77462],[-42.13636,-19.77502],[-42.13628,-19.77521],[-42.13641,-19.77555],[-42.12742,-19.77537],[-42.12742,-19.77536],[-42.12732,-19.77537],[-42.12551,-19.77533],[-42.1255,-19.77519],[-42.12544,-19.77503],[-42.12516,-19.77529],[-42.12514,-19.77532],[-42.09062,-19.77463],[-42.0959,-19.7394],[-42.1137,-19.741],[-42.11445,-19.7347],[-42.12679,-19.73604],[-42.1267,-19.73649],[-42.12681,-19.73689],[-42.12706,-19.73745],[-42.12752,-19.73741],[-42.12809,-19.73748],[-42.12872,-19.73787],[-42.12852,-19.73788],[-42.12788,-19.73808],[-42.12777,-19.73874],[-42.12766,-19.73941],[-42.12804,-19.74035],[-42.1278,-19.74209],[-42.12875,-19.7432],[-42.12872,-19.74478],[-42.12846,-19.74481],[-42.128,-19.74479],[-42.12708,-19.74539],[-42.1265,-19.7458],[-42.12627,-19.74588],[-42.12627,-19.74611],[-42.1256,-19.74626],[-42.12494,-19.74718],[-42.12364,-19.74767],[-42.12415,-19.74822],[-42.1262,-19.74866],[-42.1266,-19.74865],[-42.1273,-19.7485],[-42.12757,-19.74863],[-42.12776,-19.74938],[-42.12747,-19.74948],[-42.12618,-19.7498],[-42.12617,-19.74988],[-42.12535,-19.75011],[-42.12433,-19.75058],[-42.12372,-19.75097],[-42.12352,-19.75096],[-42.12321,-19.75111],[-42.12292,-19.75136],[-42.12251,-19.75158],[-42.12216,-19.75188],[-42.1216,-19.75292],[-42.12134,-19.75355],[-42.12126,-19.7537],[-42.12125,-19.754],[-42.12166,-19.75398],[-42.12268,-19.75382],[-42.12334,-19.75378],[-42.12366,-19.75422],[-42.12318,-19.7545],[-42.12255,-19.75488],[-42.1218,-19.75531],[-42.12122,-19.75553],[-42.12122,-19.75568],[-42.11945,-19.75617],[-42.11873,-19.75685],[-42.11901,-19.75707],[-42.1195,-19.75766],[-42.12117,-19.75848],[-42.12116,-19.75876],[-42.12145,-19.75867],[-42.12165,-19.7587],[-42.12202,-19.75891],[-42.12226,-19.75946],[-42.12233,-19.75951],[-42.12298,-19.75975],[-42.1233,-19.75973],[-42.12351,-19.75959],[-42.1243,-19.75966],[-42.12466,-19.75973],[-42.12504,-19.75992],[-42.12518,-19.76003],[-42.12555,-19.76013],[-42.12636,-19.76019],[-42.12696,-19.7605],[-42.12755,-19.76069],[-42.12772,-19.76072],[-42.12818,-19.76051],[-42.1283,-19.76053],[-42.12849,-19.76065],[-42.1288,-19.76068],[-42.12925,-19.76065],[-42.12958,-19.76071],[-42.13047,-19.76073],[-42.13151,-19.76105],[-42.13155,-19.76105],[-42.13174,-19.7611],[-42.13232,-19.76111],[-42.13245,-19.76092],[-42.13271,-19.76086],[-42.13282,-19.76088],[-42.13341,-19.76123],[-42.13386,-19.76061],[-42.1343,-19.75956],[-42.13477,-19.75966],[-42.13499,-19.75978],[-42.13619,-19.75964],[-42.13715,-19.75896],[-42.13746,-19.75876],[-42.13776,-19.75867],[-42.13788,-19.75889],[-42.13893,-19.75903],[-42.1413,-19.75879]]]]}}]}