{"type":"FeatureCollection","features":[{"type":"Feature","properties":{"territory_id":"mg-3113800-centro","name":"Centro","municipality_id":"mg-3113800","polling_places":1,"approx":true,"official":false,"method":"voronoi-polling-places","whole_municipality":false,"approx_coords_only":false},"geometry":{"type":"MultiPolygon","coordinates":[[[[-43.21234,-19.02301],[-43.16898,-19.12179],[-43.1635,-19.1146],[-43.0944,-19.1061],[-43.08489,-19.07888],[-43.21234,-19.02301]]]]}},{"type":"Feature","properties":{"territory_id":"mg-3113800-zona-rural","name":"Zona Rural","municipality_id":"mg-3113800","polling_places":3,"approx":true,"official":false,"method":"voronoi-polling-places","whole_municipality":false,"approx_coords_only":false},"geometry":{"type":"MultiPolygon","coordinates":[[[[-43.295,-19.0977],[-43.2547,-19.1399],[-43.1824,-19.1394],[-43.16898,-19.12179],[-43.21234,-19.02301],[-43.08489,-19.07888],[-43.0783,-19.06],[-43.0835,-19.0244],[-43.156,-18.9709],[-43.2205,-19.0046],[-43.2606,-19.0959],[-43.295,-19.0977]]]]}}]}