{"type":"FeatureCollection","features":[{"type":"Feature","properties":{"territory_id":"mg-3113008-centro","name":"Centro","municipality_id":"mg-3113008","polling_places":2,"approx":true,"official":false,"method":"voronoi-polling-places","whole_municipality":false,"approx_coords_only":false},"geometry":{"type":"MultiPolygon","coordinates":[[[[-41.8682,-17.1088],[-41.7857,-17.1614],[-41.79485,-17.17268],[-41.74276,-17.21278],[-41.61443,-17.23951],[-41.62937,-17.17765],[-41.6498,-17.1905],[-41.6556,-17.1219],[-41.6689,-17.1072],[-41.65448,-17.07364],[-41.65573,-17.06847],[-41.6787,-17.0347],[-41.6744,-16.99114],[-41.67556,-16.98633],[-41.7079,-16.9703],[-41.7514,-16.9934],[-41.7625,-17.02],[-41.7971,-17.0243],[-41.8142,-17.0564],[-41.8429,-17.0323],[-41.8664,-17.0564],[-41.8533,-17.0914],[-41.8682,-17.1088]]]]}},{"type":"Feature","properties":{"territory_id":"mg-3113008-povoado-de-marambainha","name":"Povoado de Marambainha","municipality_id":"mg-3113008","polling_places":1,"approx":true,"official":false,"method":"voronoi-polling-places","whole_municipality":false,"approx_coords_only":false},"geometry":{"type":"MultiPolygon","coordinates":[[[[-41.67556,-16.98633],[-41.6744,-16.99114],[-41.674,-16.9871],[-41.67556,-16.98633]]],[[[-41.65573,-17.06847],[-41.65448,-17.07364],[-41.6536,-17.0716],[-41.65573,-17.06847]]],[[[-41.62937,-17.17765],[-41.61443,-17.23951],[-41.5971,-17.2668],[-41.58341,-17.26936],[-41.53095,-17.20121],[-41.49088,-17.08487],[-41.5246,-17.1099],[-41.5533,-17.1069],[-41.6023,-17.1387],[-41.5975,-17.1576],[-41.62937,-17.17765]]]]}},{"type":"Feature","properties":{"territory_id":"mg-3113008-povoado-de-ribeirao-de-santana","name":"Povoado de Ribeirao de Santana","municipality_id":"mg-3113008","polling_places":1,"approx":true,"official":false,"method":"voronoi-polling-places","whole_municipality":false,"approx_coords_only":false},"geometry":{"type":"MultiPolygon","coordinates":[[[[-41.48638,-17.08153],[-41.36964,-17.21136],[-41.33132,-17.24269],[-41.3411,-17.2161],[-41.3386,-17.147],[-41.3241,-17.0601],[-41.3847,-17.0498],[-41.4164,-17.1275],[-41.4348,-17.1257],[-41.4858,-17.0811],[-41.48638,-17.08153]]]]}},{"type":"Feature","properties":{"territory_id":"mg-3113008-povoado-do-maranhao","name":"Povoado do Maranhao","municipality_id":"mg-3113008","polling_places":1,"approx":true,"official":false,"method":"voronoi-polling-places","whole_municipality":false,"approx_coords_only":false},"geometry":{"type":"MultiPolygon","coordinates":[[[[-41.58341,-17.26936],[-41.5435,-17.2768],[-41.5213,-17.298],[-41.4526,-17.3249],[-41.4279,-17.3236],[-41.3973,-17.2958],[-41.3711,-17.2976],[-41.3514,-17.3467],[-41.3227,-17.3115],[-41.3183,-17.2781],[-41.33132,-17.24269],[-41.36964,-17.21136],[-41.53095,-17.20121],[-41.58341,-17.26936]]]]}},{"type":"Feature","properties":{"territory_id":"mg-3113008-povoado-do-ponto-do-marambaia","name":"Povoado do Ponto do Marambaia","municipality_id":"mg-3113008","polling_places":1,"approx":true,"official":false,"method":"voronoi-polling-places","whole_municipality":false,"approx_coords_only":false},"geometry":{"type":"MultiPolygon","coordinates":[[[[-41.53095,-17.20121],[-41.36964,-17.21136],[-41.48638,-17.08153],[-41.49088,-17.08487],[-41.53095,-17.20121]]]]}},{"type":"Feature","properties":{"territory_id":"mg-3113008-zona-rural","name":"Zona Rural","municipality_id":"mg-3113008","polling_places":2,"approx":true,"official":false,"method":"voronoi-polling-places","whole_municipality":false,"approx_coords_only":false},"geometry":{"type":"MultiPolygon","coordinates":[[[[-41.8254,-17.229],[-41.7941,-17.2457],[-41.7601,-17.2874],[-41.7492,-17.3438],[-41.7331,-17.356],[-41.7289,-17.3254],[-41.6898,-17.2773],[-41.6888,-17.2517],[-41.6561,-17.2338],[-41.6014,-17.266],[-41.5971,-17.2668],[-41.61443,-17.23951],[-41.74276,-17.21278],[-41.79485,-17.17268],[-41.8162,-17.199],[-41.8254,-17.229]]]]}}]}