{"type":"FeatureCollection","features":[{"type":"Feature","properties":{"territory_id":"mg-3113909-bom-retiro","name":"Bom Retiro","municipality_id":"mg-3113909","polling_places":1,"approx":true,"official":false,"method":"voronoi-polling-places","whole_municipality":false,"approx_coords_only":false},"geometry":{"type":"MultiPolygon","coordinates":[[[[-45.21837,-21.45996],[-45.19472,-21.48612],[-45.13905,-21.54048],[-45.13656,-21.54066],[-45.1415,-21.37055],[-45.21837,-21.45996]]]]}},{"type":"Feature","properties":{"territory_id":"mg-3113909-centro","name":"Centro","municipality_id":"mg-3113909","polling_places":3,"approx":true,"official":false,"method":"voronoi-polling-places","whole_municipality":false,"approx_coords_only":false},"geometry":{"type":"MultiPolygon","coordinates":[[[[-45.31046,-21.40348],[-45.22997,-21.45705],[-45.16154,-21.53886],[-45.13905,-21.54048],[-45.19472,-21.48612],[-45.21837,-21.45996],[-45.1415,-21.37055],[-45.1419,-21.34984],[-45.1448,-21.3485],[-45.2019,-21.3555],[-45.2275,-21.3724],[-45.2726,-21.3767],[-45.31046,-21.40348]]]]}},{"type":"Feature","properties":{"territory_id":"mg-3113909-palmital-do-cervo","name":"Palmital do Cervo","municipality_id":"mg-3113909","polling_places":1,"approx":true,"official":false,"method":"voronoi-polling-places","whole_municipality":false,"approx_coords_only":false},"geometry":{"type":"MultiPolygon","coordinates":[[[[-45.1419,-21.34984],[-45.1415,-21.37055],[-45.13656,-21.54066],[-45.1124,-21.5424],[-45.0947,-21.5007],[-45.0636,-21.5002],[-45.0422,-21.4549],[-45.0609,-21.4087],[-45.0851,-21.3989],[-45.116,-21.3618],[-45.1419,-21.34984]]]]}},{"type":"Feature","properties":{"territory_id":"mg-3113909-sao-jose-operario","name":"São José Operário","municipality_id":"mg-3113909","polling_places":1,"approx":true,"official":false,"method":"voronoi-polling-places","whole_municipality":false,"approx_coords_only":false},"geometry":{"type":"MultiPolygon","coordinates":[[[[-45.3648,-21.4812],[-45.2902,-21.5203],[-45.2546,-21.5541],[-45.1791,-21.5376],[-45.16154,-21.53886],[-45.22997,-21.45705],[-45.31046,-21.40348],[-45.3341,-21.4202],[-45.3349,-21.4526],[-45.3648,-21.4812]]]]}}]}