{"type":"FeatureCollection","features":[{"type":"Feature","properties":{"territory_id":"mg-3113602-centro","name":"Centro","municipality_id":"mg-3113602","polling_places":2,"approx":true,"official":false,"method":"voronoi-polling-places","whole_municipality":false,"approx_coords_only":false},"geometry":{"type":"MultiPolygon","coordinates":[[[[-45.7428,-22.1034],[-45.71936,-22.1339],[-45.66198,-22.04853],[-45.6294,-22.00425],[-45.6434,-21.9854],[-45.6843,-21.9797],[-45.7168,-21.9941],[-45.6776,-22.0332],[-45.7314,-22.0801],[-45.7428,-22.1034]]]]}},{"type":"Feature","properties":{"territory_id":"mg-3113602-rural","name":"Rural","municipality_id":"mg-3113602","polling_places":2,"approx":true,"official":false,"method":"voronoi-polling-places","whole_municipality":false,"approx_coords_only":false},"geometry":{"type":"MultiPolygon","coordinates":[[[[-45.71936,-22.1339],[-45.7179,-22.1358],[-45.6916,-22.1362],[-45.6649,-22.1675],[-45.6158,-22.1604],[-45.6167,-22.1207],[-45.5976,-22.103],[-45.6045,-22.073],[-45.6398,-22.0322],[-45.6186,-22.0188],[-45.6294,-22.00425],[-45.66198,-22.04853],[-45.71936,-22.1339]]]]}}]}