{"type":"FeatureCollection","features":[{"type":"Feature","properties":{"territory_id":"mg-3113701-amin-el-aouar","name":"Amin El Aouar","municipality_id":"mg-3113701","polling_places":1,"approx":true,"official":false,"method":"voronoi-polling-places","whole_municipality":false,"approx_coords_only":false},"geometry":{"type":"MultiPolygon","coordinates":[[[[-40.8672,-17.83673],[-40.78934,-17.9326],[-40.785,-17.9211],[-40.7354,-17.8762],[-40.66173,-17.86546],[-40.62463,-17.73594],[-40.75578,-17.70711],[-40.7708,-17.70883],[-40.84282,-17.74611],[-40.8672,-17.83673]]]]}},{"type":"Feature","properties":{"territory_id":"mg-3113701-centro","name":"Centro","municipality_id":"mg-3113701","polling_places":2,"approx":true,"official":false,"method":"voronoi-polling-places","whole_municipality":false,"approx_coords_only":false},"geometry":{"type":"MultiPolygon","coordinates":[[[[-40.7708,-17.70883],[-40.75578,-17.70711],[-40.62463,-17.73594],[-40.59712,-17.65133],[-40.6214,-17.599],[-40.6191,-17.5752],[-40.5796,-17.5438],[-40.55047,-17.50783],[-40.54641,-17.49533],[-40.5524,-17.4765],[-40.5354,-17.46146],[-40.52969,-17.4439],[-40.5975,-17.4206],[-40.59996,-17.39858],[-40.76464,-17.70076],[-40.76461,-17.70268],[-40.76545,-17.70304],[-40.7708,-17.70883]]]]}},{"type":"Feature","properties":{"territory_id":"mg-3113701-cruzeiro","name":"Cruzeiro","municipality_id":"mg-3113701","polling_places":1,"approx":true,"official":false,"method":"voronoi-polling-places","whole_municipality":false,"approx_coords_only":false},"geometry":{"type":"MultiPolygon","coordinates":[[[[-40.84282,-17.74611],[-40.7708,-17.70883],[-40.76545,-17.70304],[-40.82561,-17.66637],[-40.84282,-17.74611]]]]}},{"type":"Feature","properties":{"territory_id":"mg-3113701-distrito-de-francisco-sa","name":"Distrito de Francisco Sa","municipality_id":"mg-3113701","polling_places":1,"approx":true,"official":false,"method":"voronoi-polling-places","whole_municipality":false,"approx_coords_only":false},"geometry":{"type":"MultiPolygon","coordinates":[[[[-41.1925,-17.6413],[-41.1332,-17.7076],[-41.1306,-17.7522],[-41.1496,-17.778],[-41.0877,-17.835],[-41.08858,-17.83702],[-40.98763,-17.77581],[-41.03241,-17.60348],[-41.0472,-17.6041],[-41.0866,-17.6037],[-41.1412,-17.6492],[-41.1925,-17.6413]]]]}},{"type":"Feature","properties":{"territory_id":"mg-3113701-distrito-de-mayrink","name":"Distrito de Mayrink","municipality_id":"mg-3113701","polling_places":1,"approx":true,"official":false,"method":"voronoi-polling-places","whole_municipality":false,"approx_coords_only":false},"geometry":{"type":"MultiPolygon","coordinates":[[[[-40.66173,-17.86546],[-40.6558,-17.8646],[-40.6061,-17.8364],[-40.5967,-17.8151],[-40.5493,-17.8109],[-40.5323,-17.7748],[-40.5584,-17.7377],[-40.6139,-17.7189],[-40.5905,-17.6656],[-40.59712,-17.65133],[-40.62463,-17.73594],[-40.66173,-17.86546]]],[[[-40.55047,-17.50783],[-40.5447,-17.5007],[-40.54641,-17.49533],[-40.55047,-17.50783]]],[[[-40.5354,-17.46146],[-40.5195,-17.4474],[-40.52969,-17.4439],[-40.5354,-17.46146]]]]}},{"type":"Feature","properties":{"territory_id":"mg-3113701-distrito-epaminondas-otoni","name":"Distrito Epaminondas Otoni","municipality_id":"mg-3113701","polling_places":1,"approx":true,"official":false,"method":"voronoi-polling-places","whole_municipality":false,"approx_coords_only":false},"geometry":{"type":"MultiPolygon","coordinates":[[[[-41.1531,-17.9029],[-41.142,-17.9494],[-41.1035,-17.9505],[-41.0835,-17.9996],[-41.0484,-17.9923],[-40.9686,-17.9512],[-40.9024,-17.9862],[-40.8628,-17.9881],[-40.8306,-17.9542],[-40.7985,-17.9569],[-40.78934,-17.9326],[-40.8672,-17.83673],[-40.98763,-17.77581],[-41.08858,-17.83702],[-41.1024,-17.8687],[-41.1531,-17.9029]]]]}},{"type":"Feature","properties":{"territory_id":"mg-3113701-distrito-presidente-pena","name":"Distrito Presidente Pena","municipality_id":"mg-3113701","polling_places":1,"approx":true,"official":false,"method":"voronoi-polling-places","whole_municipality":false,"approx_coords_only":false},"geometry":{"type":"MultiPolygon","coordinates":[[[[-41.03241,-17.60348],[-40.98763,-17.77581],[-40.8672,-17.83673],[-40.84282,-17.74611],[-40.82561,-17.66637],[-40.82489,-17.66274],[-40.76855,-17.34871],[-40.7774,-17.3496],[-40.816,-17.3761],[-40.8539,-17.3423],[-40.9522,-17.3326],[-40.9581,-17.3693],[-40.9455,-17.4055],[-40.9747,-17.4348],[-40.9235,-17.4885],[-40.9568,-17.5449],[-40.9419,-17.5755],[-40.9663,-17.6007],[-41.03241,-17.60348]]]]}},{"type":"Feature","properties":{"territory_id":"mg-3113701-lagoinha","name":"Lagoinha","municipality_id":"mg-3113701","polling_places":1,"approx":true,"official":false,"method":"voronoi-polling-places","whole_municipality":false,"approx_coords_only":false},"geometry":{"type":"MultiPolygon","coordinates":[[[[-40.82561,-17.66637],[-40.76545,-17.70304],[-40.76461,-17.70268],[-40.76464,-17.70076],[-40.82489,-17.66274],[-40.82561,-17.66637]]]]}},{"type":"Feature","properties":{"territory_id":"mg-3113701-leal-do-norte","name":"Leal do Norte","municipality_id":"mg-3113701","polling_places":1,"approx":true,"official":false,"method":"voronoi-polling-places","whole_municipality":false,"approx_coords_only":false},"geometry":{"type":"MultiPolygon","coordinates":[[[[-40.82489,-17.66274],[-40.76464,-17.70076],[-40.59996,-17.39858],[-40.6047,-17.3562],[-40.6372,-17.3939],[-40.6871,-17.3888],[-40.7068,-17.3601],[-40.7477,-17.3466],[-40.76855,-17.34871],[-40.82489,-17.66274]]]]}}]}