{"type":"FeatureCollection","features":[{"type":"Feature","properties":{"territory_id":"mg-3114303-centro","name":"Centro","municipality_id":"mg-3114303","polling_places":1,"approx":true,"official":false,"method":"voronoi-polling-places","whole_municipality":false,"approx_coords_only":false},"geometry":{"type":"MultiPolygon","coordinates":[[[[-46.5078,-18.917],[-46.4964,-18.948],[-46.4412,-19.0051],[-46.427,-19.0566],[-46.4119,-19.0672],[-46.4067,-19.0912],[-46.3724,-19.1169],[-46.29567,-19.10421],[-46.31075,-19.00655],[-46.31106,-19.00669],[-46.31355,-19.00792],[-46.31535,-19.00879],[-46.31769,-19.00783],[-46.31969,-19.007],[-46.32052,-19.00654],[-46.32109,-19.00596],[-46.32247,-19.00355],[-46.32317,-19.00237],[-46.32761,-19.00146],[-46.32967,-19.00106],[-46.33115,-19.00073],[-46.33102,-19.00035],[-46.3296,-19.00054],[-46.32961,-19.00002],[-46.32965,-18.99623],[-46.33235,-18.99679],[-46.33101,-18.99096],[-46.32886,-18.99193],[-46.32889,-18.99177],[-46.32889,-18.99158],[-46.32761,-18.99155],[-46.32446,-18.99286],[-46.32256,-18.99391],[-46.32242,-18.99413],[-46.32252,-18.99426],[-46.32368,-18.99602],[-46.32226,-18.99832],[-46.3215,-18.99963],[-46.32113,-18.99999],[-46.32074,-19.00047],[-46.32013,-19.00085],[-46.31963,-19.00111],[-46.31981,-19.00137],[-46.31988,-19.00164],[-46.31971,-19.0016],[-46.31792,-19.00123],[-46.31778,-19.00213],[-46.31502,-19.00166],[-46.31237,-19.00033],[-46.31143,-19.00216],[-46.31254,-18.99497],[-46.31381,-18.99656],[-46.31693,-18.99446],[-46.31863,-18.99681],[-46.32023,-18.99574],[-46.31604,-18.99051],[-46.31535,-18.99094],[-46.31471,-18.99019],[-46.31437,-18.98988],[-46.3141,-18.98972],[-46.31349,-18.98957],[-46.31371,-18.98901],[-46.31347,-18.98893],[-46.32782,-18.89604],[-46.3355,-18.8968],[-46.4028,-18.8806],[-46.4386,-18.9187],[-46.5078,-18.917]]],[[[-46.31447,-19.00392],[-46.31385,-19.00663],[-46.31425,-19.00489],[-46.31447,-19.00392]]]]}},{"type":"Feature","properties":{"territory_id":"mg-3114303-lagoinha","name":"Lagoinha","municipality_id":"mg-3114303","polling_places":1,"approx":false,"official":true,"method":"official-ibge-cd2022","whole_municipality":false,"approx_coords_only":false,"official_name":"Lagoinha","official_code":"3114303007","match":"direct"},"geometry":{"type":"MultiPolygon","coordinates":[[[[-46.31447,-19.00392],[-46.31502,-19.00166],[-46.31237,-19.00033],[-46.30947,-19.00597],[-46.31106,-19.00669],[-46.31355,-19.00792],[-46.31362,-19.00755],[-46.31385,-19.00663],[-46.31425,-19.00489],[-46.31447,-19.00392]]]]}},{"type":"Feature","properties":{"territory_id":"mg-3114303-morro-grande","name":"Morro Grande","municipality_id":"mg-3114303","polling_places":1,"approx":false,"official":true,"method":"official-ibge-cd2022","whole_municipality":false,"approx_coords_only":false,"official_name":"Morro Grande","official_code":"3114303011","match":"direct"},"geometry":{"type":"MultiPolygon","coordinates":[[[[-46.32961,-19.00002],[-46.32965,-18.99623],[-46.32934,-18.99617],[-46.32892,-18.99632],[-46.3287,-18.99646],[-46.32847,-18.99675],[-46.328,-18.99653],[-46.32814,-18.99627],[-46.32743,-18.99593],[-46.3263,-18.99792],[-46.32581,-18.99768],[-46.32552,-18.99817],[-46.32448,-19.00006],[-46.32317,-19.00237],[-46.32761,-19.00146],[-46.32967,-19.00106],[-46.33115,-19.00073],[-46.33102,-19.00035],[-46.3296,-19.00054],[-46.32961,-19.00002]]]]}},{"type":"Feature","properties":{"territory_id":"mg-3114303-niteroi","name":"Niteroi","municipality_id":"mg-3114303","polling_places":1,"approx":false,"official":true,"method":"official-ibge-cd2022","whole_municipality":false,"approx_coords_only":false,"official_name":"Niterói","official_code":"3114303012","match":"direct"},"geometry":{"type":"MultiPolygon","coordinates":[[[[-46.30917,-18.98663],[-46.30916,-18.98675],[-46.30889,-18.98759],[-46.30851,-18.98936],[-46.30816,-18.9914],[-46.3079,-18.99253],[-46.30798,-18.99257],[-46.30955,-18.99172],[-46.31134,-18.99362],[-46.31164,-18.99318],[-46.31182,-18.99307],[-46.31295,-18.99226],[-46.31365,-18.9919],[-46.31386,-18.99191],[-46.31406,-18.9918],[-46.31401,-18.99139],[-46.3142,-18.99113],[-46.31434,-18.99112],[-46.31467,-18.99103],[-46.31488,-18.99093],[-46.31518,-18.99096],[-46.3153,-18.99096],[-46.31535,-18.99094],[-46.31471,-18.99019],[-46.31437,-18.98988],[-46.3141,-18.98972],[-46.31349,-18.98957],[-46.31371,-18.98901],[-46.3104,-18.9879],[-46.30957,-18.98616],[-46.30948,-18.98498],[-46.30901,-18.98593],[-46.30917,-18.9866],[-46.30917,-18.98663]]]]}},{"type":"Feature","properties":{"territory_id":"mg-3114303-paranaiba","name":"Paranaiba","municipality_id":"mg-3114303","polling_places":1,"approx":false,"official":true,"method":"official-ibge-cd2022","whole_municipality":false,"approx_coords_only":false,"official_name":"Paranaíba","official_code":"3114303008","match":"direct"},"geometry":{"type":"MultiPolygon","coordinates":[[[[-46.31769,-19.00783],[-46.31969,-19.007],[-46.32052,-19.00654],[-46.32109,-19.00596],[-46.32247,-19.00355],[-46.32317,-19.00237],[-46.31971,-19.0016],[-46.31792,-19.00123],[-46.31778,-19.00213],[-46.31502,-19.00166],[-46.31447,-19.00392],[-46.31385,-19.00663],[-46.31362,-19.00755],[-46.31355,-19.00792],[-46.31535,-19.00879],[-46.31769,-19.00783]]]]}},{"type":"Feature","properties":{"territory_id":"mg-3114303-quintinos","name":"Quintinos","municipality_id":"mg-3114303","polling_places":1,"approx":true,"official":false,"method":"voronoi-polling-places","whole_municipality":false,"approx_coords_only":false},"geometry":{"type":"MultiPolygon","coordinates":[[[[-46.24461,-18.85392],[-46.14852,-19.00416],[-46.1213,-18.949],[-46.084,-18.9983],[-46.0386,-18.9935],[-46.0282,-18.9459],[-45.9771,-18.8975],[-45.9499,-18.7623],[-45.899,-18.7385],[-45.8624,-18.6716],[-45.8623,-18.6397],[-45.909,-18.6516],[-45.9253,-18.6732],[-45.988,-18.7008],[-46.0077,-18.6938],[-46.0625,-18.7192],[-46.069,-18.7551],[-46.093,-18.7682],[-46.1281,-18.813],[-46.1787,-18.84],[-46.1938,-18.8219],[-46.2401,-18.8237],[-46.2409,-18.8535],[-46.24461,-18.85392]]]]}},{"type":"Feature","properties":{"territory_id":"mg-3114303-rosario","name":"Rosario","municipality_id":"mg-3114303","polling_places":3,"approx":false,"official":true,"method":"official-ibge-cd2022","whole_municipality":false,"approx_coords_only":false,"official_name":"Rosário","official_code":"3114303002","match":"direct"},"geometry":{"type":"MultiPolygon","coordinates":[[[[-46.31535,-18.99094],[-46.3153,-18.99096],[-46.31518,-18.99096],[-46.31488,-18.99093],[-46.31467,-18.99103],[-46.31434,-18.99112],[-46.3142,-18.99113],[-46.31401,-18.99139],[-46.31406,-18.9918],[-46.31386,-18.99191],[-46.31365,-18.9919],[-46.31295,-18.99226],[-46.31182,-18.99307],[-46.31164,-18.99318],[-46.31134,-18.99362],[-46.31199,-18.9943],[-46.31241,-18.9948],[-46.31381,-18.99656],[-46.31693,-18.99446],[-46.31863,-18.99681],[-46.32023,-18.99574],[-46.31604,-18.99051],[-46.31535,-18.99094]]]]}},{"type":"Feature","properties":{"territory_id":"mg-3114303-santa-cruz","name":"Santa Cruz","municipality_id":"mg-3114303","polling_places":1,"approx":false,"official":true,"method":"official-ibge-cd2022","whole_municipality":false,"approx_coords_only":false,"official_name":"Santa Cruz","official_code":"3114303010","match":"direct"},"geometry":{"type":"MultiPolygon","coordinates":[[[[-46.32552,-18.99817],[-46.32581,-18.99768],[-46.3263,-18.99792],[-46.32743,-18.99593],[-46.32814,-18.99627],[-46.328,-18.99653],[-46.32847,-18.99675],[-46.3287,-18.99646],[-46.32892,-18.99632],[-46.32934,-18.99617],[-46.33235,-18.99679],[-46.33101,-18.99096],[-46.32886,-18.99193],[-46.32889,-18.99177],[-46.32889,-18.99158],[-46.32761,-18.99155],[-46.32446,-18.99286],[-46.32256,-18.99391],[-46.32242,-18.99413],[-46.32252,-18.99426],[-46.32368,-18.99602],[-46.32226,-18.99832],[-46.3215,-18.99963],[-46.32113,-18.99999],[-46.32074,-19.00047],[-46.32013,-19.00085],[-46.31963,-19.00111],[-46.31981,-19.00137],[-46.31988,-19.00165],[-46.32317,-19.00237],[-46.32448,-19.00006],[-46.32552,-18.99817]]]]}},{"type":"Feature","properties":{"territory_id":"mg-3114303-vilage-veth","name":"Vilage Veth","municipality_id":"mg-3114303","polling_places":1,"approx":true,"official":false,"method":"voronoi-polling-places","whole_municipality":false,"approx_coords_only":false},"geometry":{"type":"MultiPolygon","coordinates":[[[[-46.32782,-18.89604],[-46.31347,-18.98893],[-46.3104,-18.9879],[-46.30957,-18.98616],[-46.30948,-18.98498],[-46.30901,-18.98593],[-46.30917,-18.9866],[-46.30917,-18.98663],[-46.30916,-18.98675],[-46.30889,-18.98759],[-46.30851,-18.98936],[-46.30816,-18.9914],[-46.3079,-18.99253],[-46.30798,-18.99257],[-46.30955,-18.99172],[-46.31134,-18.99362],[-46.31199,-18.9943],[-46.31241,-18.9948],[-46.31254,-18.99497],[-46.31143,-19.00216],[-46.30947,-19.00597],[-46.31075,-19.00655],[-46.29567,-19.10421],[-46.2841,-19.1023],[-46.2638,-19.0643],[-46.2174,-19.0629],[-46.1633,-19.0341],[-46.14852,-19.00416],[-46.24461,-18.85392],[-46.2722,-18.857],[-46.298,-18.8931],[-46.32782,-18.89604]]]]}}]}