{"type":"FeatureCollection","features":[{"type":"Feature","properties":{"territory_id":"mg-3114709-centro","name":"Centro","municipality_id":"mg-3114709","polling_places":1,"approx":true,"official":false,"method":"voronoi-polling-places","whole_municipality":false,"approx_coords_only":false},"geometry":{"type":"MultiPolygon","coordinates":[[[[-45.8665,-21.74204],[-45.81943,-21.81553],[-45.7875,-21.8229],[-45.7656,-21.7774],[-45.8011,-21.7672],[-45.7959,-21.7307],[-45.8169,-21.7227],[-45.8665,-21.74204]]]]}},{"type":"Feature","properties":{"territory_id":"mg-3114709-sao-lucas","name":"São Lucas","municipality_id":"mg-3114709","polling_places":1,"approx":true,"official":false,"method":"voronoi-polling-places","whole_municipality":false,"approx_coords_only":false},"geometry":{"type":"MultiPolygon","coordinates":[[[[-45.8972,-21.7775],[-45.849,-21.8087],[-45.81943,-21.81553],[-45.8665,-21.74204],[-45.8841,-21.7489],[-45.8972,-21.7775]]]]}}]}