{"type":"FeatureCollection","features":[{"type":"Feature","properties":{"territory_id":"mg-3114501-centro","name":"Centro","municipality_id":"mg-3114501","polling_places":5,"approx":true,"official":false,"method":"voronoi-polling-places","whole_municipality":false,"approx_coords_only":false},"geometry":{"type":"MultiPolygon","coordinates":[[[[-44.66512,-20.51758],[-44.65337,-20.53125],[-44.64057,-20.543],[-44.63953,-20.55071],[-44.63384,-20.5644],[-44.62729,-20.56626],[-44.62623,-20.56576],[-44.61024,-20.55923],[-44.58629,-20.55113],[-44.59385,-20.53713],[-44.63636,-20.53499],[-44.64049,-20.53397],[-44.66512,-20.51758]]]]}},{"type":"Feature","properties":{"territory_id":"mg-3114501-gloria","name":"Glória","municipality_id":"mg-3114501","polling_places":1,"approx":true,"official":false,"method":"voronoi-polling-places","whole_municipality":false,"approx_coords_only":false},"geometry":{"type":"MultiPolygon","coordinates":[[[[-44.65337,-20.53125],[-44.63953,-20.55071],[-44.64057,-20.543],[-44.65337,-20.53125]]]]}},{"type":"Feature","properties":{"territory_id":"mg-3114501-nossa-senhora-de-fatima","name":"Nossa Senhora de Fátima","municipality_id":"mg-3114501","polling_places":1,"approx":true,"official":false,"method":"voronoi-polling-places","whole_municipality":false,"approx_coords_only":false},"geometry":{"type":"MultiPolygon","coordinates":[[[[-44.69703,-20.51694],[-44.67759,-20.55946],[-44.63384,-20.5644],[-44.63953,-20.55071],[-44.65337,-20.53125],[-44.66512,-20.51758],[-44.66552,-20.51725],[-44.69703,-20.51694]]]]}},{"type":"Feature","properties":{"territory_id":"mg-3114501-santo-antonio","name":"Santo Antônio","municipality_id":"mg-3114501","polling_places":1,"approx":true,"official":false,"method":"voronoi-polling-places","whole_municipality":false,"approx_coords_only":false},"geometry":{"type":"MultiPolygon","coordinates":[[[[-44.66552,-20.51725],[-44.66512,-20.51758],[-44.64049,-20.53397],[-44.63636,-20.53499],[-44.59385,-20.53713],[-44.60876,-20.50216],[-44.66552,-20.51725]]]]}},{"type":"Feature","properties":{"territory_id":"mg-3114501-zona-rural","name":"Zona Rural","municipality_id":"mg-3114501","polling_places":6,"approx":true,"official":false,"method":"voronoi-polling-places","whole_municipality":false,"approx_coords_only":false},"geometry":{"type":"MultiPolygon","coordinates":[[[[-44.7764,-20.5394],[-44.7524,-20.6094],[-44.7236,-20.6159],[-44.6845,-20.6495],[-44.6912,-20.6753],[-44.6622,-20.7027],[-44.6178,-20.7101],[-44.6167,-20.6771],[-44.5894,-20.6454],[-44.5995,-20.5918],[-44.5691,-20.5678],[-44.5728,-20.5466],[-44.544,-20.5156],[-44.5432,-20.4825],[-44.5944,-20.4566],[-44.6281,-20.4052],[-44.6556,-20.4677],[-44.7112,-20.4812],[-44.6998,-20.5369],[-44.74,-20.5555],[-44.7764,-20.5394]],[[-44.69703,-20.51694],[-44.66552,-20.51725],[-44.60876,-20.50216],[-44.59385,-20.53713],[-44.58629,-20.55113],[-44.61024,-20.55923],[-44.62623,-20.56576],[-44.62729,-20.56626],[-44.63384,-20.5644],[-44.67759,-20.55946],[-44.69703,-20.51694]]]]}}]}