{"type":"FeatureCollection","features":[{"type":"Feature","properties":{"territory_id":"mg-3114006-aeroporto","name":"Aeroporto","municipality_id":"mg-3114006","polling_places":1,"approx":true,"official":false,"method":"voronoi-polling-places","whole_municipality":false,"approx_coords_only":false},"geometry":{"type":"MultiPolygon","coordinates":[[[[-44.92806,-20.56846],[-44.86474,-20.64566],[-44.85857,-20.64479],[-44.87326,-20.56252],[-44.87809,-20.5556],[-44.91315,-20.53273],[-44.91741,-20.53365],[-44.92806,-20.56846]]]]}},{"type":"Feature","properties":{"territory_id":"mg-3114006-centro","name":"Centro","municipality_id":"mg-3114006","polling_places":4,"approx":true,"official":false,"method":"voronoi-polling-places","whole_municipality":false,"approx_coords_only":false},"geometry":{"type":"MultiPolygon","coordinates":[[[[-44.91315,-20.53273],[-44.87809,-20.5556],[-44.87326,-20.56252],[-44.85857,-20.64479],[-44.85132,-20.64376],[-44.8327,-20.58946],[-44.86351,-20.55836],[-44.86514,-20.5533],[-44.85082,-20.50773],[-44.91315,-20.53273]]]]}},{"type":"Feature","properties":{"territory_id":"mg-3114006-varzea","name":"Várzea","municipality_id":"mg-3114006","polling_places":1,"approx":true,"official":false,"method":"voronoi-polling-places","whole_municipality":false,"approx_coords_only":false},"geometry":{"type":"MultiPolygon","coordinates":[[[[-44.86514,-20.5533],[-44.86351,-20.55836],[-44.8327,-20.58946],[-44.79601,-20.51407],[-44.8076,-20.4991],[-44.8368,-20.5126],[-44.84657,-20.50539],[-44.85082,-20.50773],[-44.86514,-20.5533]]]]}},{"type":"Feature","properties":{"territory_id":"mg-3114006-zona-rural","name":"Zona Rural","municipality_id":"mg-3114006","polling_places":4,"approx":true,"official":false,"method":"voronoi-polling-places","whole_municipality":false,"approx_coords_only":false},"geometry":{"type":"MultiPolygon","coordinates":[[[[-45.0127,-20.5044],[-45.0119,-20.5703],[-44.9991,-20.5932],[-44.9592,-20.6103],[-44.9412,-20.633],[-44.8925,-20.6496],[-44.86474,-20.64566],[-44.92806,-20.56846],[-44.91741,-20.53365],[-44.91315,-20.53273],[-44.85082,-20.50773],[-44.84657,-20.50539],[-44.8925,-20.4715],[-44.9464,-20.4954],[-44.9825,-20.4857],[-45.0127,-20.5044]]],[[[-44.85132,-20.64376],[-44.8227,-20.6397],[-44.7907,-20.6048],[-44.7524,-20.6094],[-44.7764,-20.5394],[-44.79601,-20.51407],[-44.8327,-20.58946],[-44.85132,-20.64376]]]]}}]}