{"type":"FeatureCollection","features":[{"type":"Feature","properties":{"territory_id":"mg-3114402-centro","name":"Centro","municipality_id":"mg-3114402","polling_places":5,"approx":true,"official":false,"method":"voronoi-polling-places","whole_municipality":false,"approx_coords_only":false},"geometry":{"type":"MultiPolygon","coordinates":[[[[-46.12936,-21.07897],[-46.1206,-21.0959],[-46.10132,-21.10473],[-46.05704,-20.98787],[-46.11055,-20.97251],[-46.11103,-20.97226],[-46.11549,-20.96872],[-46.12084,-20.96379],[-46.12388,-20.96033],[-46.12638,-20.96752],[-46.12029,-20.97642],[-46.12004,-20.97792],[-46.12936,-21.07897]]]]}},{"type":"Feature","properties":{"territory_id":"mg-3114402-distrito-de-itaci","name":"Distrito de Itaci","municipality_id":"mg-3114402","polling_places":1,"approx":true,"official":false,"method":"voronoi-polling-places","whole_municipality":false,"approx_coords_only":false},"geometry":{"type":"MultiPolygon","coordinates":[[[[-46.10132,-21.10473],[-46.0848,-21.1123],[-46.0701,-21.147],[-46.0437,-21.1922],[-45.9734,-21.14],[-45.9631,-21.0859],[-45.93199,-21.05065],[-46.03534,-20.94321],[-46.05704,-20.98787],[-46.10132,-21.10473]]]]}},{"type":"Feature","properties":{"territory_id":"mg-3114402-distrito-de-vilelandia","name":"Distrito de Vilelândia","municipality_id":"mg-3114402","polling_places":1,"approx":true,"official":false,"method":"voronoi-polling-places","whole_municipality":false,"approx_coords_only":false},"geometry":{"type":"MultiPolygon","coordinates":[[[[-46.3583,-20.9896],[-46.3503,-21.0132],[-46.2927,-20.9978],[-46.2462,-21.017],[-46.235,-21.0369],[-46.23464,-21.03696],[-46.23404,-20.85127],[-46.24356,-20.83003],[-46.2457,-20.8314],[-46.268,-20.866],[-46.261,-20.9115],[-46.3583,-20.9896]]]]}},{"type":"Feature","properties":{"territory_id":"mg-3114402-jardim-america","name":"Jardim América","municipality_id":"mg-3114402","polling_places":1,"approx":true,"official":false,"method":"voronoi-polling-places","whole_municipality":false,"approx_coords_only":false},"geometry":{"type":"MultiPolygon","coordinates":[[[[-46.19074,-21.04437],[-46.1431,-21.0524],[-46.12936,-21.07897],[-46.12004,-20.97792],[-46.12029,-20.97642],[-46.12638,-20.96752],[-46.19074,-21.04437]]]]}},{"type":"Feature","properties":{"territory_id":"mg-3114402-jardim-nossa-senhora-de-lourdes","name":"Jardim Nossa Senhora de Lourdes","municipality_id":"mg-3114402","polling_places":1,"approx":true,"official":false,"method":"voronoi-polling-places","whole_municipality":false,"approx_coords_only":false},"geometry":{"type":"MultiPolygon","coordinates":[[[[-46.23464,-21.03696],[-46.19074,-21.04437],[-46.12638,-20.96752],[-46.12388,-20.96033],[-46.12544,-20.90215],[-46.23404,-20.85127],[-46.23464,-21.03696]]]]}},{"type":"Feature","properties":{"territory_id":"mg-3114402-jardim-nossa-senhora-do-carmo","name":"Jardim Nossa Senhora do Carmo","municipality_id":"mg-3114402","polling_places":1,"approx":true,"official":false,"method":"voronoi-polling-places","whole_municipality":false,"approx_coords_only":false},"geometry":{"type":"MultiPolygon","coordinates":[[[[-46.12544,-20.90215],[-46.12388,-20.96033],[-46.12084,-20.96379],[-46.11549,-20.96872],[-46.11103,-20.97226],[-46.11055,-20.97251],[-46.05704,-20.98787],[-46.03534,-20.94321],[-46.03435,-20.92693],[-46.12544,-20.90215]]]]}},{"type":"Feature","properties":{"territory_id":"mg-3114402-zona-rural","name":"Zona Rural","municipality_id":"mg-3114402","polling_places":2,"approx":true,"official":false,"method":"voronoi-polling-places","whole_municipality":false,"approx_coords_only":false},"geometry":{"type":"MultiPolygon","coordinates":[[[[-46.24356,-20.83003],[-46.23404,-20.85127],[-46.12544,-20.90215],[-46.03435,-20.92693],[-46.03534,-20.94321],[-45.93199,-21.05065],[-45.9218,-21.0391],[-45.9283,-20.9997],[-45.9081,-20.9707],[-45.8952,-20.9251],[-45.9383,-20.9299],[-45.9412,-20.8906],[-45.9747,-20.871],[-46.0513,-20.8627],[-46.063,-20.8232],[-46.1301,-20.818],[-46.1668,-20.8009],[-46.1928,-20.7976],[-46.24356,-20.83003]]]]}}]}