{"type":"FeatureCollection","features":[{"type":"Feature","properties":{"territory_id":"mg-3114105-campos","name":"Campos","municipality_id":"mg-3114105","polling_places":1,"approx":true,"official":false,"method":"voronoi-polling-places","whole_municipality":false,"approx_coords_only":false},"geometry":{"type":"MultiPolygon","coordinates":[[[[-45.16766,-22.2002],[-45.1644,-22.2006],[-45.1372,-22.1767],[-45.1121,-22.1842],[-45.0649,-22.175],[-45.0643,-22.17087],[-45.12779,-22.15525],[-45.16766,-22.2002]]]]}},{"type":"Feature","properties":{"territory_id":"mg-3114105-capinzal","name":"Capinzal","municipality_id":"mg-3114105","polling_places":1,"approx":true,"official":false,"method":"voronoi-polling-places","whole_municipality":false,"approx_coords_only":false},"geometry":{"type":"MultiPolygon","coordinates":[[[[-45.12779,-22.15525],[-45.0643,-22.17087],[-45.06149,-22.15143],[-45.10697,-22.13373],[-45.12067,-22.14665],[-45.12634,-22.15227],[-45.12779,-22.15525]]]]}},{"type":"Feature","properties":{"territory_id":"mg-3114105-centro","name":"Centro","municipality_id":"mg-3114105","polling_places":3,"approx":true,"official":false,"method":"voronoi-polling-places","whole_municipality":false,"approx_coords_only":false},"geometry":{"type":"MultiPolygon","coordinates":[[[[-45.20253,-21.99232],[-45.13052,-22.1422],[-45.12634,-22.15227],[-45.12067,-22.14665],[-45.10697,-22.13373],[-45.09668,-22.03846],[-45.1301,-22.0082],[-45.1265,-21.982],[-45.2004,-21.9854],[-45.20253,-21.99232]]]]}},{"type":"Feature","properties":{"territory_id":"mg-3114105-jardim-nha-chica","name":"Jardim Nha Chica","municipality_id":"mg-3114105","polling_places":1,"approx":true,"official":false,"method":"voronoi-polling-places","whole_municipality":false,"approx_coords_only":false},"geometry":{"type":"MultiPolygon","coordinates":[[[[-45.10697,-22.13373],[-45.06149,-22.15143],[-45.0604,-22.1439],[-45.0891,-22.1119],[-45.0745,-22.0965],[-45.0836,-22.0503],[-45.09668,-22.03846],[-45.10697,-22.13373]]]]}},{"type":"Feature","properties":{"territory_id":"mg-3114105-santo-antonio","name":"Santo Antonio","municipality_id":"mg-3114105","polling_places":1,"approx":true,"official":false,"method":"voronoi-polling-places","whole_municipality":false,"approx_coords_only":false},"geometry":{"type":"MultiPolygon","coordinates":[[[[-45.2506,-22.1138],[-45.2345,-22.1487],[-45.1797,-22.1987],[-45.16766,-22.2002],[-45.12779,-22.15525],[-45.12634,-22.15227],[-45.13052,-22.1422],[-45.20253,-21.99232],[-45.2103,-22.0176],[-45.2367,-22.0405],[-45.2506,-22.1138]]]]}}]}