{"type":"FeatureCollection","features":[{"type":"Feature","properties":{"territory_id":"mg-3114204-adelino-mano","name":"Adelino Mano","municipality_id":"mg-3114204","polling_places":1,"approx":true,"official":false,"method":"voronoi-polling-places","whole_municipality":false,"approx_coords_only":false},"geometry":{"type":"MultiPolygon","coordinates":[[[[-44.78384,-20.19157],[-44.77268,-20.20252],[-44.76988,-20.19711],[-44.76819,-20.19138],[-44.7743,-20.18461],[-44.78384,-20.19157]]]]}},{"type":"Feature","properties":{"territory_id":"mg-3114204-bonfim","name":"Bonfim","municipality_id":"mg-3114204","polling_places":1,"approx":true,"official":false,"method":"voronoi-polling-places","whole_municipality":false,"approx_coords_only":false},"geometry":{"type":"MultiPolygon","coordinates":[[[[-44.77645,-20.14913],[-44.77266,-20.1787],[-44.7641,-20.18703],[-44.72368,-20.1733],[-44.74532,-20.12885],[-44.77554,-20.13411],[-44.77645,-20.14913]]]]}},{"type":"Feature","properties":{"territory_id":"mg-3114204-centro","name":"Centro","municipality_id":"mg-3114204","polling_places":1,"approx":true,"official":false,"method":"voronoi-polling-places","whole_municipality":false,"approx_coords_only":false},"geometry":{"type":"MultiPolygon","coordinates":[[[[-44.7743,-20.18461],[-44.76819,-20.19138],[-44.7641,-20.18703],[-44.77266,-20.1787],[-44.7743,-20.18461]]]]}},{"type":"Feature","properties":{"territory_id":"mg-3114204-cidade-nova","name":"Cidade Nova","municipality_id":"mg-3114204","polling_places":1,"approx":true,"official":false,"method":"voronoi-polling-places","whole_municipality":false,"approx_coords_only":false},"geometry":{"type":"MultiPolygon","coordinates":[[[[-44.77268,-20.20252],[-44.7527,-20.2221],[-44.758,-20.2534],[-44.75579,-20.25615],[-44.70143,-20.20429],[-44.71927,-20.17986],[-44.76988,-20.19711],[-44.77268,-20.20252]]]]}},{"type":"Feature","properties":{"territory_id":"mg-3114204-distrito-de-bom-jesus-de-angicos","name":"Distrito de Bom Jesus de Angicos","municipality_id":"mg-3114204","polling_places":1,"approx":true,"official":false,"method":"voronoi-polling-places","whole_municipality":false,"approx_coords_only":false},"geometry":{"type":"MultiPolygon","coordinates":[[[[-44.74532,-20.12885],[-44.72368,-20.1733],[-44.71927,-20.17986],[-44.70143,-20.20429],[-44.69583,-20.20451],[-44.64088,-20.20659],[-44.6155,-20.18392],[-44.6189,-20.164],[-44.6659,-20.1287],[-44.7166,-20.1078],[-44.71791,-20.0862],[-44.74532,-20.12885]]]]}},{"type":"Feature","properties":{"territory_id":"mg-3114204-estiva","name":"Estiva","municipality_id":"mg-3114204","polling_places":1,"approx":true,"official":false,"method":"voronoi-polling-places","whole_municipality":false,"approx_coords_only":false},"geometry":{"type":"MultiPolygon","coordinates":[[[[-44.69583,-20.32979],[-44.6589,-20.3378],[-44.64035,-20.31821],[-44.64088,-20.20659],[-44.69583,-20.20451],[-44.69583,-20.32979]]]]}},{"type":"Feature","properties":{"territory_id":"mg-3114204-jardim-alvorada","name":"Jardim Alvorada","municipality_id":"mg-3114204","polling_places":1,"approx":true,"official":false,"method":"voronoi-polling-places","whole_municipality":false,"approx_coords_only":false},"geometry":{"type":"MultiPolygon","coordinates":[[[[-44.8152,-20.13058],[-44.7934,-20.1822],[-44.78655,-20.18891],[-44.77645,-20.14913],[-44.77554,-20.13411],[-44.8152,-20.13058]]]]}},{"type":"Feature","properties":{"territory_id":"mg-3114204-nossa-senhora-do-carmo","name":"Nossa Senhora do Carmo","municipality_id":"mg-3114204","polling_places":1,"approx":true,"official":false,"method":"voronoi-polling-places","whole_municipality":false,"approx_coords_only":false},"geometry":{"type":"MultiPolygon","coordinates":[[[[-44.76988,-20.19711],[-44.71927,-20.17986],[-44.72368,-20.1733],[-44.7641,-20.18703],[-44.76819,-20.19138],[-44.76988,-20.19711]]]]}},{"type":"Feature","properties":{"territory_id":"mg-3114204-ribeiros","name":"Ribeiros","municipality_id":"mg-3114204","polling_places":1,"approx":true,"official":false,"method":"voronoi-polling-places","whole_municipality":false,"approx_coords_only":false},"geometry":{"type":"MultiPolygon","coordinates":[[[[-44.75579,-20.25615],[-44.6967,-20.3296],[-44.69583,-20.32979],[-44.69583,-20.20451],[-44.70143,-20.20429],[-44.75579,-20.25615]]]]}},{"type":"Feature","properties":{"territory_id":"mg-3114204-santo-antonio-da-serra","name":"Santo Antônio da Serra","municipality_id":"mg-3114204","polling_places":1,"approx":true,"official":false,"method":"voronoi-polling-places","whole_municipality":false,"approx_coords_only":false},"geometry":{"type":"MultiPolygon","coordinates":[[[[-44.64088,-20.20659],[-44.64035,-20.31821],[-44.6232,-20.3001],[-44.5657,-20.2791],[-44.5697,-20.2244],[-44.6128,-20.1997],[-44.6155,-20.18392],[-44.64088,-20.20659]]]]}},{"type":"Feature","properties":{"territory_id":"mg-3114204-sao-jose-dos-salgados","name":"São José dos Salgados","municipality_id":"mg-3114204","polling_places":1,"approx":true,"official":false,"method":"voronoi-polling-places","whole_municipality":false,"approx_coords_only":false},"geometry":{"type":"MultiPolygon","coordinates":[[[[-44.8608,-20.0904],[-44.8209,-20.1171],[-44.8152,-20.13058],[-44.77554,-20.13411],[-44.74532,-20.12885],[-44.71791,-20.0862],[-44.718,-20.0847],[-44.7538,-20.0543],[-44.7931,-20.0622],[-44.8608,-20.0904]]]]}},{"type":"Feature","properties":{"territory_id":"mg-3114204-sao-luiz","name":"São Luiz","municipality_id":"mg-3114204","polling_places":1,"approx":true,"official":false,"method":"voronoi-polling-places","whole_municipality":false,"approx_coords_only":false},"geometry":{"type":"MultiPolygon","coordinates":[[[[-44.78655,-20.18891],[-44.78384,-20.19157],[-44.7743,-20.18461],[-44.77266,-20.1787],[-44.77645,-20.14913],[-44.78655,-20.18891]]]]}}]}