{"type":"FeatureCollection","features":[{"type":"Feature","properties":{"territory_id":"mg-3114808-carimba","name":"Carimbá","municipality_id":"mg-3114808","polling_places":1,"approx":true,"official":false,"method":"voronoi-polling-places","whole_municipality":false,"approx_coords_only":false},"geometry":{"type":"MultiPolygon","coordinates":[[[[-44.53667,-21.99456],[-44.52886,-22.03867],[-44.48993,-22.01354],[-44.49373,-21.96678],[-44.53667,-21.99456]]]]}},{"type":"Feature","properties":{"territory_id":"mg-3114808-centro","name":"Centro","municipality_id":"mg-3114808","polling_places":1,"approx":true,"official":false,"method":"voronoi-polling-places","whole_municipality":false,"approx_coords_only":false},"geometry":{"type":"MultiPolygon","coordinates":[[[[-44.49373,-21.96678],[-44.48993,-22.01354],[-44.44588,-22.04361],[-44.42547,-22.04761],[-44.4081,-22.0176],[-44.409,-21.9741],[-44.3793,-21.9408],[-44.3958,-21.9576],[-44.4413,-21.9595],[-44.4663,-21.9244],[-44.48073,-21.92526],[-44.49373,-21.96678]]]]}},{"type":"Feature","properties":{"territory_id":"mg-3114808-franceses","name":"Franceses","municipality_id":"mg-3114808","polling_places":1,"approx":true,"official":false,"method":"voronoi-polling-places","whole_municipality":false,"approx_coords_only":false},"geometry":{"type":"MultiPolygon","coordinates":[[[[-44.5408,-22.1286],[-44.4906,-22.1366],[-44.4756,-22.1201],[-44.4303,-22.1154],[-44.4368,-22.0672],[-44.42547,-22.04761],[-44.44588,-22.04361],[-44.52875,-22.08144],[-44.5279,-22.0828],[-44.5408,-22.1286]]]]}},{"type":"Feature","properties":{"territory_id":"mg-3114808-muquem","name":"Muquem","municipality_id":"mg-3114808","polling_places":1,"approx":true,"official":false,"method":"voronoi-polling-places","whole_municipality":false,"approx_coords_only":false},"geometry":{"type":"MultiPolygon","coordinates":[[[[-44.54228,-22.05982],[-44.52875,-22.08144],[-44.44588,-22.04361],[-44.48993,-22.01354],[-44.52886,-22.03867],[-44.54228,-22.05982]]]]}},{"type":"Feature","properties":{"territory_id":"mg-3114808-posses","name":"Posses","municipality_id":"mg-3114808","polling_places":1,"approx":true,"official":false,"method":"voronoi-polling-places","whole_municipality":false,"approx_coords_only":false},"geometry":{"type":"MultiPolygon","coordinates":[[[[-44.56337,-21.98556],[-44.53667,-21.99456],[-44.49373,-21.96678],[-44.48073,-21.92526],[-44.5131,-21.9272],[-44.5565,-21.9692],[-44.56337,-21.98556]]]]}},{"type":"Feature","properties":{"territory_id":"mg-3114808-vargem-grande","name":"Vargem Grande","municipality_id":"mg-3114808","polling_places":1,"approx":true,"official":false,"method":"voronoi-polling-places","whole_municipality":false,"approx_coords_only":false},"geometry":{"type":"MultiPolygon","coordinates":[[[[-44.5818,-22.0295],[-44.5468,-22.0526],[-44.54228,-22.05982],[-44.52886,-22.03867],[-44.53667,-21.99456],[-44.56337,-21.98556],[-44.5818,-22.0295]]]]}}]}