{"type":"FeatureCollection","features":[{"type":"Feature","properties":{"territory_id":"mg-3114550-centro","name":"Centro","municipality_id":"mg-3114550","polling_places":4,"approx":true,"official":false,"method":"voronoi-polling-places","whole_municipality":false,"approx_coords_only":false},"geometry":{"type":"MultiPolygon","coordinates":[[[[-51.0461,-19.7356],[-51.0279,-19.7566],[-51.0335,-19.7907],[-51.0236,-19.8039],[-51.02092,-19.84544],[-50.8248,-19.83548],[-50.81011,-19.95052],[-50.7836,-19.9372],[-50.6864,-19.9162],[-50.6581,-19.9071],[-50.6142,-19.861],[-50.5779,-19.8164],[-50.562,-19.8136],[-50.5726,-19.7598],[-50.6064,-19.7221],[-50.6161,-19.6883],[-50.6008,-19.6524],[-50.6632,-19.6262],[-50.6922,-19.5742],[-50.7488,-19.4986],[-50.809,-19.4667],[-50.8256,-19.4733],[-50.8494,-19.4981],[-50.935,-19.4675],[-50.9629,-19.5006],[-50.9309,-19.5422],[-50.9244,-19.5809],[-50.9876,-19.5895],[-51.0382,-19.6918],[-51.0461,-19.7356]]]]}},{"type":"Feature","properties":{"territory_id":"mg-3114550-fatima-do-pontal","name":"Fátima do Pontal","municipality_id":"mg-3114550","polling_places":1,"approx":true,"official":false,"method":"voronoi-polling-places","whole_municipality":false,"approx_coords_only":false},"geometry":{"type":"MultiPolygon","coordinates":[[[[-51.02092,-19.84544],[-51.0193,-19.8705],[-50.9995,-19.9064],[-51.0209,-19.9591],[-51.0055,-19.9961],[-51.0179,-20.0484],[-51.0005,-20.0854],[-50.9691,-20.0364],[-50.9455,-20.0297],[-50.9081,-19.9943],[-50.886,-19.9904],[-50.8441,-19.9676],[-50.81011,-19.95052],[-50.8248,-19.83548],[-51.02092,-19.84544]]]]}}]}