{"type":"FeatureCollection","features":[{"type":"Feature","properties":{"territory_id":"mg-3114907-cachoeira","name":"Cachoeira","municipality_id":"mg-3114907","polling_places":1,"approx":true,"official":false,"method":"voronoi-polling-places","whole_municipality":false,"approx_coords_only":true},"geometry":{"type":"MultiPolygon","coordinates":[[[[-44.0058,-20.8234],[-43.9747,-20.8809],[-43.9225,-20.9275],[-43.91907,-20.92596],[-43.93511,-20.81689],[-44.00327,-20.80656],[-44.0058,-20.8234]]]]}},{"type":"Feature","properties":{"territory_id":"mg-3114907-centro","name":"Centro","municipality_id":"mg-3114907","polling_places":2,"approx":true,"official":false,"method":"voronoi-polling-places","whole_municipality":false,"approx_coords_only":false},"geometry":{"type":"MultiPolygon","coordinates":[[[[-44.00327,-20.80656],[-43.93511,-20.81689],[-43.92773,-20.81566],[-43.89256,-20.81032],[-43.8942,-20.8043],[-43.8982,-20.7674],[-43.9567,-20.7591],[-44.0023,-20.8001],[-44.00327,-20.80656]]]]}},{"type":"Feature","properties":{"territory_id":"mg-3114907-corrego-fundo","name":"Córrego Fundo","municipality_id":"mg-3114907","polling_places":1,"approx":true,"official":false,"method":"voronoi-polling-places","whole_municipality":false,"approx_coords_only":false},"geometry":{"type":"MultiPolygon","coordinates":[[[[-43.93511,-20.81689],[-43.91907,-20.92596],[-43.8985,-20.9167],[-43.8956,-20.886],[-43.8807,-20.8538],[-43.89256,-20.81032],[-43.92773,-20.81566],[-43.93511,-20.81689]]]]}}]}