{"type":"FeatureCollection","features":[{"type":"Feature","properties":{"territory_id":"mg-3114600-centro","name":"Centro","municipality_id":"mg-3114600","polling_places":2,"approx":true,"official":false,"method":"voronoi-polling-places","whole_municipality":false,"approx_coords_only":false},"geometry":{"type":"MultiPolygon","coordinates":[[[[-44.71057,-21.43823],[-44.69656,-21.4869],[-44.65898,-21.62938],[-44.6456,-21.6209],[-44.4966,-21.5765],[-44.4563,-21.5183],[-44.4549,-21.471],[-44.4818,-21.4082],[-44.5209,-21.3929],[-44.5113,-21.3541],[-44.5565,-21.3127],[-44.5748,-21.3093],[-44.6024,-21.3466],[-44.6087,-21.3713],[-44.6486,-21.4056],[-44.6384,-21.4493],[-44.71057,-21.43823]]]]}},{"type":"Feature","properties":{"territory_id":"mg-3114600-povoado-estacao-de-carrancas","name":"Povoado Estação de Carrancas","municipality_id":"mg-3114600","polling_places":1,"approx":true,"official":false,"method":"voronoi-polling-places","whole_municipality":false,"approx_coords_only":false},"geometry":{"type":"MultiPolygon","coordinates":[[[[-44.7916,-21.5965],[-44.7534,-21.605],[-44.6762,-21.6403],[-44.65898,-21.62938],[-44.69656,-21.4869],[-44.71057,-21.43823],[-44.716,-21.4374],[-44.7651,-21.4432],[-44.7633,-21.4778],[-44.7414,-21.5106],[-44.7916,-21.5965]]]]}}]}