{"type":"FeatureCollection","features":[{"type":"Feature","properties":{"territory_id":"mg-3115201-centro","name":"Centro","municipality_id":"mg-3115201","polling_places":2,"approx":true,"official":false,"method":"voronoi-polling-places","whole_municipality":false,"approx_coords_only":false},"geometry":{"type":"MultiPolygon","coordinates":[[[[-44.52866,-21.07883],[-44.5029,-21.11061],[-44.44325,-21.19119],[-44.4254,-21.1783],[-44.4067,-21.131],[-44.4094,-21.0897],[-44.4487,-21.0516],[-44.4824,-21.0437],[-44.5087,-21.0696],[-44.52866,-21.07883]]]]}},{"type":"Feature","properties":{"territory_id":"mg-3115201-zona-rural","name":"Zona Rural","municipality_id":"mg-3115201","polling_places":3,"approx":true,"official":false,"method":"voronoi-polling-places","whole_municipality":false,"approx_coords_only":false},"geometry":{"type":"MultiPolygon","coordinates":[[[[-44.5805,-21.1028],[-44.5651,-21.1785],[-44.5718,-21.2069],[-44.5367,-21.2412],[-44.466,-21.231],[-44.4607,-21.2038],[-44.44325,-21.19119],[-44.5029,-21.11061],[-44.52866,-21.07883],[-44.5805,-21.1028]]]]}}]}