{"type":"FeatureCollection","features":[{"type":"Feature","properties":{"territory_id":"mg-3115607-centro","name":"Centro","municipality_id":"mg-3115607","polling_places":2,"approx":true,"official":false,"method":"voronoi-polling-places","whole_municipality":true,"approx_coords_only":false},"geometry":{"type":"MultiPolygon","coordinates":[[[[-45.6994,-18.9847],[-45.7156,-19.0315],[-45.742,-19.0511],[-45.7841,-19.1572],[-45.7699,-19.1752],[-45.7754,-19.2154],[-45.73,-19.2271],[-45.6977,-19.2091],[-45.6502,-19.2007],[-45.6252,-19.1536],[-45.6562,-19.1053],[-45.6406,-19.042],[-45.6597,-19.0105],[-45.6994,-18.9847]]]]}}]}