{"type":"FeatureCollection","features":[{"type":"Feature","properties":{"territory_id":"mg-3115706-centro","name":"Centro","municipality_id":"mg-3115706","polling_places":1,"approx":true,"official":false,"method":"voronoi-polling-places","whole_municipality":false,"approx_coords_only":false},"geometry":{"type":"MultiPolygon","coordinates":[[[[-41.33127,-18.71442],[-41.29169,-18.7968],[-41.22851,-18.73995],[-41.2275,-18.7251],[-41.2023,-18.6834],[-41.247,-18.7092],[-41.3257,-18.716],[-41.33127,-18.71442]]]]}},{"type":"Feature","properties":{"territory_id":"mg-3115706-cidade-nova","name":"Cidade Nova","municipality_id":"mg-3115706","polling_places":1,"approx":true,"official":false,"method":"voronoi-polling-places","whole_municipality":false,"approx_coords_only":false},"geometry":{"type":"MultiPolygon","coordinates":[[[[-41.3917,-18.7279],[-41.3778,-18.7609],[-41.3459,-18.7669],[-41.3606,-18.8254],[-41.31855,-18.82589],[-41.29169,-18.7968],[-41.33127,-18.71442],[-41.3778,-18.7012],[-41.3917,-18.7279]]]]}},{"type":"Feature","properties":{"territory_id":"mg-3115706-floresta","name":"Floresta","municipality_id":"mg-3115706","polling_places":1,"approx":true,"official":false,"method":"voronoi-polling-places","whole_municipality":false,"approx_coords_only":false},"geometry":{"type":"MultiPolygon","coordinates":[[[[-41.31855,-18.82589],[-41.3008,-18.8261],[-41.2638,-18.8665],[-41.2432,-18.8538],[-41.2324,-18.7973],[-41.22851,-18.73995],[-41.29169,-18.7968],[-41.31855,-18.82589]]]]}}]}