{"type":"FeatureCollection","features":[{"type":"Feature","properties":{"territory_id":"mg-3115508-bosque","name":"Bosque","municipality_id":"mg-3115508","polling_places":1,"approx":true,"official":false,"method":"voronoi-polling-places","whole_municipality":false,"approx_coords_only":false},"geometry":{"type":"MultiPolygon","coordinates":[[[[-44.99674,-21.94383],[-44.9966,-21.9488],[-44.97336,-21.9579],[-44.99674,-21.94383]]],[[[-44.97121,-21.95918],[-44.96402,-21.99965],[-44.93925,-21.98572],[-44.93878,-21.98162],[-44.94299,-21.97616],[-44.97121,-21.95918]]]]}},{"type":"Feature","properties":{"territory_id":"mg-3115508-centro","name":"Centro","municipality_id":"mg-3115508","polling_places":5,"approx":true,"official":false,"method":"voronoi-polling-places","whole_municipality":false,"approx_coords_only":false},"geometry":{"type":"MultiPolygon","coordinates":[[[[-44.94299,-21.97616],[-44.93878,-21.98162],[-44.93925,-21.98572],[-44.92926,-21.99253],[-44.92918,-21.99232],[-44.92598,-21.98487],[-44.92777,-21.98364],[-44.93258,-21.97543],[-44.93271,-21.9742],[-44.93782,-21.97595],[-44.94299,-21.97616]]]]}},{"type":"Feature","properties":{"territory_id":"mg-3115508-santa-cruz","name":"Santa Cruz","municipality_id":"mg-3115508","polling_places":1,"approx":true,"official":false,"method":"voronoi-polling-places","whole_municipality":false,"approx_coords_only":false},"geometry":{"type":"MultiPolygon","coordinates":[[[[-44.93271,-21.9742],[-44.93258,-21.97543],[-44.92777,-21.98364],[-44.92598,-21.98487],[-44.91414,-21.97571],[-44.9137,-21.9721],[-44.92203,-21.95587],[-44.93271,-21.9742]]]]}},{"type":"Feature","properties":{"territory_id":"mg-3115508-santa-tereza","name":"Santa Tereza","municipality_id":"mg-3115508","polling_places":1,"approx":true,"official":false,"method":"voronoi-polling-places","whole_municipality":false,"approx_coords_only":false},"geometry":{"type":"MultiPolygon","coordinates":[[[[-44.96402,-21.99965],[-44.96,-22.0223],[-44.9398,-22.0769],[-44.93548,-22.07877],[-44.92926,-21.99253],[-44.93925,-21.98572],[-44.96402,-21.99965]]]]}},{"type":"Feature","properties":{"territory_id":"mg-3115508-trancador","name":"Trançador","municipality_id":"mg-3115508","polling_places":1,"approx":true,"official":false,"method":"voronoi-polling-places","whole_municipality":false,"approx_coords_only":false},"geometry":{"type":"MultiPolygon","coordinates":[[[[-44.9979,-21.9042],[-44.99674,-21.94383],[-44.97336,-21.9579],[-44.9713,-21.9587],[-44.97121,-21.95918],[-44.94299,-21.97616],[-44.93782,-21.97595],[-44.93271,-21.9742],[-44.92203,-21.95587],[-44.9464,-21.9084],[-44.9979,-21.9042]]]]}},{"type":"Feature","properties":{"territory_id":"mg-3115508-vila-verde","name":"Vila Verde","municipality_id":"mg-3115508","polling_places":1,"approx":true,"official":false,"method":"voronoi-polling-places","whole_municipality":false,"approx_coords_only":false},"geometry":{"type":"MultiPolygon","coordinates":[[[[-44.93548,-22.07877],[-44.9271,-22.0824],[-44.91414,-21.97571],[-44.92598,-21.98487],[-44.92918,-21.99232],[-44.92926,-21.99253],[-44.93548,-22.07877]]]]}}]}