{"type":"FeatureCollection","features":[{"type":"Feature","properties":{"territory_id":"mg-3115474-centro","name":"Centro","municipality_id":"mg-3115474","polling_places":1,"approx":true,"official":false,"method":"voronoi-polling-places","whole_municipality":false,"approx_coords_only":false},"geometry":{"type":"MultiPolygon","coordinates":[[[[-43.00625,-15.36772],[-42.9859,-15.3876],[-42.9385,-15.3685],[-42.9626,-15.3271],[-42.9888,-15.3184],[-42.98976,-15.31877],[-43.00625,-15.36772]]]]}},{"type":"Feature","properties":{"territory_id":"mg-3115474-malhada-grande-zona-rural","name":"Malhada Grande Zona Rural","municipality_id":"mg-3115474","polling_places":1,"approx":true,"official":false,"method":"voronoi-polling-places","whole_municipality":false,"approx_coords_only":false},"geometry":{"type":"MultiPolygon","coordinates":[[[[-43.2068,-15.3234],[-43.14411,-15.37936],[-43.11773,-15.34799],[-43.12648,-15.3167],[-43.20622,-15.29487],[-43.2068,-15.3234]]]]}},{"type":"Feature","properties":{"territory_id":"mg-3115474-pau-a-pique","name":"Pau-a-pique","municipality_id":"mg-3115474","polling_places":1,"approx":true,"official":false,"method":"voronoi-polling-places","whole_municipality":false,"approx_coords_only":false},"geometry":{"type":"MultiPolygon","coordinates":[[[[-43.2468,-15.2568],[-43.2059,-15.2795],[-43.20622,-15.29487],[-43.12648,-15.3167],[-43.0937,-15.28364],[-43.1062,-15.268],[-43.167,-15.2565],[-43.1951,-15.2336],[-43.2468,-15.2568]]]]}},{"type":"Feature","properties":{"territory_id":"mg-3115474-zona-rural","name":"Zona Rural","municipality_id":"mg-3115474","polling_places":3,"approx":true,"official":false,"method":"voronoi-polling-places","whole_municipality":false,"approx_coords_only":false},"geometry":{"type":"MultiPolygon","coordinates":[[[[-43.14411,-15.37936],[-43.1089,-15.4108],[-43.0797,-15.4496],[-43.0639,-15.4066],[-43.0396,-15.4057],[-43.0158,-15.3584],[-43.00625,-15.36772],[-42.98976,-15.31877],[-43.0218,-15.3312],[-43.0748,-15.3073],[-43.0937,-15.28364],[-43.12648,-15.3167],[-43.11773,-15.34799],[-43.14411,-15.37936]]]]}}]}