{"type":"FeatureCollection","features":[{"type":"Feature","properties":{"territory_id":"mg-3115359-centro","name":"Centro","municipality_id":"mg-3115359","polling_places":2,"approx":true,"official":false,"method":"voronoi-polling-places","whole_municipality":false,"approx_coords_only":false},"geometry":{"type":"MultiPolygon","coordinates":[[[[-43.5137,-20.0831],[-43.51276,-20.09834],[-43.40651,-20.09427],[-43.32462,-20.09649],[-43.32337,-20.09388],[-43.40724,-20.0265],[-43.41869,-20.01687],[-43.4287,-20.0287],[-43.4681,-20.034],[-43.4837,-20.0667],[-43.5137,-20.0831]]]]}},{"type":"Feature","properties":{"territory_id":"mg-3115359-morro-d-agua-quente","name":"Morro D'água Quente","municipality_id":"mg-3115359","polling_places":1,"approx":true,"official":false,"method":"voronoi-polling-places","whole_municipality":false,"approx_coords_only":false},"geometry":{"type":"MultiPolygon","coordinates":[[[[-43.51276,-20.09834],[-43.5109,-20.1286],[-43.4583,-20.1436],[-43.4224,-20.1216],[-43.404,-20.143],[-43.3451,-20.1397],[-43.32462,-20.09649],[-43.40651,-20.09427],[-43.51276,-20.09834]]]]}},{"type":"Feature","properties":{"territory_id":"mg-3115359-valeria","name":"Valéria","municipality_id":"mg-3115359","polling_places":1,"approx":true,"official":false,"method":"voronoi-polling-places","whole_municipality":false,"approx_coords_only":false},"geometry":{"type":"MultiPolygon","coordinates":[[[[-43.41869,-20.01687],[-43.40724,-20.0265],[-43.32337,-20.09388],[-43.3158,-20.0779],[-43.3143,-20.0454],[-43.3542,-19.9947],[-43.4045,-20.0001],[-43.41869,-20.01687]]]]}}]}