{"type":"FeatureCollection","features":[{"type":"Feature","properties":{"territory_id":"mg-3115003-centro","name":"Centro","municipality_id":"mg-3115003","polling_places":1,"approx":true,"official":false,"method":"voronoi-polling-places","whole_municipality":false,"approx_coords_only":false},"geometry":{"type":"MultiPolygon","coordinates":[[[[-47.97714,-18.58749],[-47.80634,-18.6387],[-47.7862,-18.5947],[-47.7595,-18.5764],[-47.7887,-18.5142],[-47.8171,-18.5094],[-47.8274,-18.4729],[-47.8646,-18.4491],[-47.8879,-18.4772],[-47.9143,-18.4666],[-47.9546,-18.5],[-47.9509,-18.5391],[-47.97714,-18.58749]]]]}},{"type":"Feature","properties":{"territory_id":"mg-3115003-distrito-de-cascalho","name":"Distrito de Cascalho","municipality_id":"mg-3115003","polling_places":1,"approx":true,"official":false,"method":"voronoi-polling-places","whole_municipality":false,"approx_coords_only":false},"geometry":{"type":"MultiPolygon","coordinates":[[[[-47.9811,-18.5948],[-47.9741,-18.6388],[-47.8933,-18.6604],[-47.8926,-18.676],[-47.8627,-18.6802],[-47.8305,-18.6435],[-47.8078,-18.6419],[-47.80634,-18.6387],[-47.97714,-18.58749],[-47.9811,-18.5948]]]]}}]}