{"type":"FeatureCollection","features":[{"type":"Feature","properties":{"territory_id":"mg-3115102-cassialar","name":"Cassialar","municipality_id":"mg-3115102","polling_places":1,"approx":true,"official":false,"method":"voronoi-polling-places","whole_municipality":false,"approx_coords_only":false},"geometry":{"type":"MultiPolygon","coordinates":[[[[-47.0676,-20.528],[-47.0431,-20.5442],[-47.00647,-20.62143],[-46.91037,-20.56853],[-46.90241,-20.56308],[-46.85515,-20.51888],[-46.8626,-20.4698],[-46.8197,-20.4619],[-46.8236,-20.4179],[-46.9006,-20.4134],[-46.9239,-20.3607],[-46.9788,-20.3731],[-47.0281,-20.3922],[-47.0072,-20.4464],[-47.0339,-20.475],[-47.0482,-20.5178],[-47.0676,-20.528]]]]}},{"type":"Feature","properties":{"territory_id":"mg-3115102-centro","name":"Centro","municipality_id":"mg-3115102","polling_places":2,"approx":true,"official":false,"method":"voronoi-polling-places","whole_municipality":false,"approx_coords_only":false},"geometry":{"type":"MultiPolygon","coordinates":[[[[-47.00647,-20.62143],[-47.00271,-20.62934],[-46.92606,-20.5885],[-46.91667,-20.58593],[-46.90241,-20.56308],[-46.91037,-20.56853],[-47.00647,-20.62143]]]]}},{"type":"Feature","properties":{"territory_id":"mg-3115102-peixotos","name":"Peixotos","municipality_id":"mg-3115102","polling_places":1,"approx":true,"official":false,"method":"voronoi-polling-places","whole_municipality":false,"approx_coords_only":false},"geometry":{"type":"MultiPolygon","coordinates":[[[[-47.00271,-20.62934],[-46.9959,-20.6437],[-46.9906,-20.683],[-46.9035,-20.6875],[-46.9372,-20.7578],[-46.9005,-20.7302],[-46.86896,-20.71847],[-46.91667,-20.58593],[-46.92606,-20.5885],[-47.00271,-20.62934]]]]}},{"type":"Feature","properties":{"territory_id":"mg-3115102-sao-gabriel","name":"São Gabriel","municipality_id":"mg-3115102","polling_places":1,"approx":true,"official":false,"method":"voronoi-polling-places","whole_municipality":false,"approx_coords_only":false},"geometry":{"type":"MultiPolygon","coordinates":[[[[-46.91667,-20.58593],[-46.86896,-20.71847],[-46.8478,-20.7106],[-46.8412,-20.6813],[-46.8318,-20.6308],[-46.8424,-20.6017],[-46.8058,-20.5598],[-46.8083,-20.5355],[-46.8531,-20.5324],[-46.85515,-20.51888],[-46.90241,-20.56308],[-46.91667,-20.58593]]]]}}]}