{"type":"FeatureCollection","features":[{"type":"Feature","properties":{"territory_id":"mg-3115904-centro","name":"Centro","municipality_id":"mg-3115904","polling_places":3,"approx":true,"official":false,"method":"voronoi-polling-places","whole_municipality":true,"approx_coords_only":false},"geometry":{"type":"MultiPolygon","coordinates":[[[[-43.2949,-21.6614],[-43.2619,-21.6846],[-43.2576,-21.7543],[-43.2466,-21.77],[-43.1876,-21.7429],[-43.1622,-21.7018],[-43.133,-21.6947],[-43.1407,-21.6629],[-43.1792,-21.6489],[-43.1692,-21.6176],[-43.1889,-21.6089],[-43.2264,-21.6314],[-43.263,-21.6374],[-43.2949,-21.6614]]]]}}]}