{"type":"FeatureCollection","features":[{"type":"Feature","properties":{"territory_id":"mg-3115805-centro","name":"Centro","municipality_id":"mg-3115805","polling_places":3,"approx":true,"official":false,"method":"voronoi-polling-places","whole_municipality":false,"approx_coords_only":false},"geometry":{"type":"MultiPolygon","coordinates":[[[[-49.25157,-18.61793],[-49.2356,-18.6601],[-49.1922,-18.6837],[-49.1575,-18.6704],[-49.1329,-18.7141],[-49.0713,-18.7596],[-49.0508,-18.7881],[-49.0603,-18.7521],[-49.0419,-18.7191],[-49.0394,-18.6762],[-49.0893,-18.6411],[-49.113,-18.5886],[-49.1519,-18.5557],[-49.1726,-18.5642],[-49.18746,-18.54814],[-49.20184,-18.58407],[-49.25157,-18.61793]]]]}},{"type":"Feature","properties":{"territory_id":"mg-3115805-sao-januario","name":"Sao Januario","municipality_id":"mg-3115805","polling_places":1,"approx":true,"official":false,"method":"voronoi-polling-places","whole_municipality":false,"approx_coords_only":false},"geometry":{"type":"MultiPolygon","coordinates":[[[[-49.2927,-18.5639],[-49.2617,-18.5912],[-49.25157,-18.61793],[-49.20184,-18.58407],[-49.18746,-18.54814],[-49.205,-18.5292],[-49.2493,-18.5228],[-49.2856,-18.5363],[-49.2927,-18.5639]]]]}}]}