{"type":"FeatureCollection","features":[{"type":"Feature","properties":{"territory_id":"mg-3115409-centro","name":"Centro","municipality_id":"mg-3115409","polling_places":1,"approx":true,"official":false,"method":"voronoi-polling-places","whole_municipality":false,"approx_coords_only":false},"geometry":{"type":"MultiPolygon","coordinates":[[[[-43.51725,-20.66071],[-43.50174,-20.69006],[-43.47726,-20.67714],[-43.50093,-20.64962],[-43.51725,-20.66071]]]]}},{"type":"Feature","properties":{"territory_id":"mg-3115409-gamba","name":"Gambá","municipality_id":"mg-3115409","polling_places":1,"approx":true,"official":false,"method":"voronoi-polling-places","whole_municipality":false,"approx_coords_only":false},"geometry":{"type":"MultiPolygon","coordinates":[[[[-43.55022,-20.67985],[-43.5348,-20.7201],[-43.50425,-20.73167],[-43.50174,-20.69006],[-43.51725,-20.66071],[-43.55022,-20.67985]]]]}},{"type":"Feature","properties":{"territory_id":"mg-3115409-jequitiba","name":"Jequitibá","municipality_id":"mg-3115409","polling_places":1,"approx":true,"official":false,"method":"voronoi-polling-places","whole_municipality":false,"approx_coords_only":false},"geometry":{"type":"MultiPolygon","coordinates":[[[[-43.50093,-20.64962],[-43.47726,-20.67714],[-43.43883,-20.71723],[-43.4364,-20.7158],[-43.4479,-20.6921],[-43.4362,-20.659],[-43.4585,-20.6323],[-43.4937,-20.62427],[-43.50093,-20.64962]]]]}},{"type":"Feature","properties":{"territory_id":"mg-3115409-joao-dias","name":"João Dias","municipality_id":"mg-3115409","polling_places":1,"approx":true,"official":false,"method":"voronoi-polling-places","whole_municipality":false,"approx_coords_only":false},"geometry":{"type":"MultiPolygon","coordinates":[[[[-43.50425,-20.73167],[-43.4973,-20.7343],[-43.4743,-20.738],[-43.43883,-20.71723],[-43.47726,-20.67714],[-43.50174,-20.69006],[-43.50425,-20.73167]]]]}},{"type":"Feature","properties":{"territory_id":"mg-3115409-santo-inacio","name":"Santo Inácio","municipality_id":"mg-3115409","polling_places":1,"approx":true,"official":false,"method":"voronoi-polling-places","whole_municipality":false,"approx_coords_only":false},"geometry":{"type":"MultiPolygon","coordinates":[[[[-43.5647,-20.6058],[-43.5587,-20.6577],[-43.55022,-20.67985],[-43.51725,-20.66071],[-43.50093,-20.64962],[-43.4937,-20.62427],[-43.5006,-20.6227],[-43.5335,-20.5952],[-43.5647,-20.6058]]]]}}]}