{"type":"FeatureCollection","features":[{"type":"Feature","properties":{"territory_id":"mg-3116902-alto-boa-vista","name":"Alto Boa Vista","municipality_id":"mg-3116902","polling_places":1,"approx":true,"official":false,"method":"voronoi-polling-places","whole_municipality":true,"approx_coords_only":false},"geometry":{"type":"MultiPolygon","coordinates":[[[[-49.3653,-19.5394],[-49.3737,-19.5529],[-49.3303,-19.6609],[-49.2677,-19.6934],[-49.2215,-19.6731],[-49.203,-19.6947],[-49.2087,-19.7467],[-49.1395,-19.7869],[-49.0807,-19.7761],[-49.0255,-19.7836],[-49.0079,-19.7991],[-48.9217,-19.8022],[-48.8791,-19.7805],[-48.834,-19.8077],[-48.8228,-19.7837],[-48.8479,-19.7491],[-48.8606,-19.7046],[-48.8243,-19.6545],[-48.844,-19.5905],[-48.8625,-19.619],[-48.9074,-19.583],[-48.9597,-19.574],[-49.0328,-19.582],[-49.0845,-19.5778],[-49.0995,-19.5981],[-49.1635,-19.6035],[-49.2834,-19.5507],[-49.2963,-19.5386],[-49.3651,-19.5391],[-49.3653,-19.5394]]]]}}]}