{"type":"FeatureCollection","features":[{"type":"Feature","properties":{"territory_id":"mg-3116506-centro","name":"Centro","municipality_id":"mg-3116506","polling_places":2,"approx":true,"official":false,"method":"voronoi-polling-places","whole_municipality":false,"approx_coords_only":false},"geometry":{"type":"MultiPolygon","coordinates":[[[[-44.28032,-17.1486],[-44.20288,-17.12707],[-44.13116,-17.10886],[-44.1955,-17.1038],[-44.196,-17.073],[-44.18251,-17.05646],[-44.20633,-17.0786],[-44.24389,-17.08576],[-44.28032,-17.1486]]]]}},{"type":"Feature","properties":{"territory_id":"mg-3116506-distrito-de-vista-alegre-agua-boa","name":"Distrito de Vista Alegre / Água Boa","municipality_id":"mg-3116506","polling_places":1,"approx":true,"official":false,"method":"voronoi-polling-places","whole_municipality":false,"approx_coords_only":false},"geometry":{"type":"MultiPolygon","coordinates":[[[[-44.3323,-16.9458],[-44.29716,-16.97915],[-44.22348,-16.99322],[-44.16347,-16.83445],[-44.2411,-16.8848],[-44.2479,-16.909],[-44.3323,-16.9458]]]]}},{"type":"Feature","properties":{"territory_id":"mg-3116506-mandacaru","name":"Mandacaru","municipality_id":"mg-3116506","polling_places":1,"approx":true,"official":false,"method":"voronoi-polling-places","whole_municipality":false,"approx_coords_only":false},"geometry":{"type":"MultiPolygon","coordinates":[[[[-44.24389,-17.08576],[-44.20633,-17.0786],[-44.18251,-17.05646],[-44.1646,-17.0345],[-44.16301,-17.02128],[-44.20398,-17.00969],[-44.24389,-17.08576]]]]}},{"type":"Feature","properties":{"territory_id":"mg-3116506-povoado-de-boa-sorte","name":"Povoado de Boa Sorte","municipality_id":"mg-3116506","polling_places":1,"approx":true,"official":false,"method":"voronoi-polling-places","whole_municipality":false,"approx_coords_only":false},"geometry":{"type":"MultiPolygon","coordinates":[[[[-44.22348,-16.99322],[-44.20398,-17.00969],[-44.16301,-17.02128],[-44.1604,-16.9996],[-44.1324,-16.964],[-44.133,-16.8923],[-44.12,-16.8799],[-44.1301,-16.8214],[-44.1566,-16.83],[-44.16347,-16.83445],[-44.22348,-16.99322]]]]}},{"type":"Feature","properties":{"territory_id":"mg-3116506-povoado-de-funil","name":"Povoado de Funil","municipality_id":"mg-3116506","polling_places":1,"approx":true,"official":false,"method":"voronoi-polling-places","whole_municipality":false,"approx_coords_only":false},"geometry":{"type":"MultiPolygon","coordinates":[[[[-44.329,-17.2495],[-44.3096,-17.2889],[-44.2565,-17.2589],[-44.2229,-17.2779],[-44.1736,-17.2165],[-44.1637,-17.1902],[-44.1114,-17.1618],[-44.1115,-17.1559],[-44.1057,-17.1458],[-44.1269,-17.1092],[-44.13116,-17.10886],[-44.20288,-17.12707],[-44.28032,-17.1486],[-44.28405,-17.15097],[-44.2694,-17.158],[-44.3055,-17.1963],[-44.329,-17.2495]]]]}},{"type":"Feature","properties":{"territory_id":"mg-3116506-povoado-de-pouso-alto","name":"Povoado de Pouso Alto","municipality_id":"mg-3116506","polling_places":1,"approx":true,"official":false,"method":"voronoi-polling-places","whole_municipality":false,"approx_coords_only":true},"geometry":{"type":"MultiPolygon","coordinates":[[[[-44.3504,-17.1093],[-44.3263,-17.1307],[-44.28405,-17.15097],[-44.28032,-17.1486],[-44.24389,-17.08576],[-44.20398,-17.00969],[-44.22348,-16.99322],[-44.29716,-16.97915],[-44.283,-16.9926],[-44.2965,-17.0206],[-44.3332,-17.0456],[-44.3504,-17.1093]]]]}}]}