{"type":"FeatureCollection","features":[{"type":"Feature","properties":{"territory_id":"mg-3116605-centro","name":"Centro","municipality_id":"mg-3116605","polling_places":5,"approx":true,"official":false,"method":"voronoi-polling-places","whole_municipality":false,"approx_coords_only":false},"geometry":{"type":"MultiPolygon","coordinates":[[[[-44.77137,-20.45332],[-44.76085,-20.46272],[-44.74598,-20.47722],[-44.7413,-20.47497],[-44.75481,-20.45448],[-44.76048,-20.44395],[-44.76129,-20.44176],[-44.76112,-20.43935],[-44.77046,-20.43577],[-44.77004,-20.44013],[-44.77006,-20.44034],[-44.77028,-20.44072],[-44.77137,-20.45332]]]]}},{"type":"Feature","properties":{"territory_id":"mg-3116605-monsenhor-joao-alexandre","name":"Monsenhor Joao Alexandre","municipality_id":"mg-3116605","polling_places":1,"approx":true,"official":false,"method":"voronoi-polling-places","whole_municipality":false,"approx_coords_only":false},"geometry":{"type":"MultiPolygon","coordinates":[[[[-44.73023,-20.38404],[-44.72992,-20.38428],[-44.63804,-20.38344],[-44.6589,-20.3378],[-44.6967,-20.3296],[-44.69986,-20.32567],[-44.73023,-20.38404]]]]}},{"type":"Feature","properties":{"territory_id":"mg-3116605-novo-mundo","name":"Novo Mundo","municipality_id":"mg-3116605","polling_places":1,"approx":true,"official":false,"method":"voronoi-polling-places","whole_municipality":false,"approx_coords_only":false},"geometry":{"type":"MultiPolygon","coordinates":[[[[-44.76129,-20.44176],[-44.76048,-20.44395],[-44.75481,-20.45448],[-44.7413,-20.47497],[-44.73007,-20.47114],[-44.75142,-20.42686],[-44.76112,-20.43935],[-44.76129,-20.44176]]]]}},{"type":"Feature","properties":{"territory_id":"mg-3116605-rosario","name":"Rosário","municipality_id":"mg-3116605","polling_places":1,"approx":true,"official":false,"method":"voronoi-polling-places","whole_municipality":false,"approx_coords_only":false},"geometry":{"type":"MultiPolygon","coordinates":[[[[-44.7741,-20.38271],[-44.77266,-20.4286],[-44.77046,-20.43577],[-44.76112,-20.43935],[-44.75142,-20.42686],[-44.76304,-20.38529],[-44.7741,-20.38271]]]]}},{"type":"Feature","properties":{"territory_id":"mg-3116605-santa-maria","name":"Santa Maria","municipality_id":"mg-3116605","polling_places":1,"approx":true,"official":false,"method":"voronoi-polling-places","whole_municipality":false,"approx_coords_only":false},"geometry":{"type":"MultiPolygon","coordinates":[[[[-44.81376,-20.39075],[-44.78784,-20.44915],[-44.78449,-20.44851],[-44.77266,-20.4286],[-44.7741,-20.38271],[-44.78979,-20.37602],[-44.81376,-20.39075]]]]}},{"type":"Feature","properties":{"territory_id":"mg-3116605-sao-francisco","name":"São Francisco","municipality_id":"mg-3116605","polling_places":1,"approx":true,"official":false,"method":"voronoi-polling-places","whole_municipality":false,"approx_coords_only":false},"geometry":{"type":"MultiPolygon","coordinates":[[[[-44.80789,-20.4863],[-44.80286,-20.50522],[-44.79441,-20.51614],[-44.74598,-20.47722],[-44.76085,-20.46272],[-44.77137,-20.45332],[-44.78396,-20.44857],[-44.78449,-20.44851],[-44.78784,-20.44915],[-44.80789,-20.4863]]]]}},{"type":"Feature","properties":{"territory_id":"mg-3116605-sao-geraldo","name":"Sao Geraldo","municipality_id":"mg-3116605","polling_places":1,"approx":true,"official":false,"method":"voronoi-polling-places","whole_municipality":false,"approx_coords_only":false},"geometry":{"type":"MultiPolygon","coordinates":[[[[-44.78449,-20.44851],[-44.78396,-20.44857],[-44.77028,-20.44072],[-44.77006,-20.44034],[-44.77004,-20.44013],[-44.77046,-20.43577],[-44.77266,-20.4286],[-44.78449,-20.44851]]]]}},{"type":"Feature","properties":{"territory_id":"mg-3116605-valongo","name":"Valongo","municipality_id":"mg-3116605","polling_places":1,"approx":true,"official":false,"method":"voronoi-polling-places","whole_municipality":false,"approx_coords_only":false},"geometry":{"type":"MultiPolygon","coordinates":[[[[-44.78396,-20.44857],[-44.77137,-20.45332],[-44.77028,-20.44072],[-44.78396,-20.44857]]]]}},{"type":"Feature","properties":{"territory_id":"mg-3116605-zona-rural","name":"Zona Rural","municipality_id":"mg-3116605","polling_places":10,"approx":true,"official":false,"method":"voronoi-polling-places","whole_municipality":false,"approx_coords_only":false},"geometry":{"type":"MultiPolygon","coordinates":[[[[-44.9139,-20.3176],[-44.8826,-20.3923],[-44.8925,-20.4715],[-44.8368,-20.5126],[-44.8076,-20.4991],[-44.80286,-20.50522],[-44.80789,-20.4863],[-44.78784,-20.44915],[-44.81376,-20.39075],[-44.78979,-20.37602],[-44.7741,-20.38271],[-44.76304,-20.38529],[-44.75142,-20.42686],[-44.73007,-20.47114],[-44.7413,-20.47497],[-44.74598,-20.47722],[-44.79441,-20.51614],[-44.7764,-20.5394],[-44.74,-20.5555],[-44.6998,-20.5369],[-44.7112,-20.4812],[-44.6556,-20.4677],[-44.6281,-20.4052],[-44.63804,-20.38344],[-44.72992,-20.38428],[-44.73023,-20.38404],[-44.69986,-20.32567],[-44.758,-20.2534],[-44.7737,-20.2494],[-44.8705,-20.3063],[-44.9044,-20.2591],[-44.9139,-20.3176]]]]}}]}