{"type":"FeatureCollection","features":[{"type":"Feature","properties":{"territory_id":"mg-3116001-centro","name":"Centro","municipality_id":"mg-3116001","polling_places":1,"approx":true,"official":false,"method":"voronoi-polling-places","whole_municipality":false,"approx_coords_only":false},"geometry":{"type":"MultiPolygon","coordinates":[[[[-41.7506,-20.0423],[-41.7443,-20.0611],[-41.7267,-20.1023],[-41.66632,-20.09731],[-41.66657,-20.01214],[-41.73157,-20.0148],[-41.7506,-20.0423]]]]}},{"type":"Feature","properties":{"territory_id":"mg-3116001-distrito-de-penha-do-coco","name":"Distrito de Penha do Coco","municipality_id":"mg-3116001","polling_places":1,"approx":true,"official":false,"method":"voronoi-polling-places","whole_municipality":false,"approx_coords_only":false},"geometry":{"type":"MultiPolygon","coordinates":[[[[-41.63865,-19.99058],[-41.59289,-20.06103],[-41.5887,-20.0589],[-41.5594,-20.0333],[-41.5478,-19.9963],[-41.5932,-20.0019],[-41.63567,-19.97982],[-41.63865,-19.99058]]]]}},{"type":"Feature","properties":{"territory_id":"mg-3116001-distrito-de-professor-sperbert-bananal","name":"Distrito de Professor Sperbert - Bananal","municipality_id":"mg-3116001","polling_places":1,"approx":true,"official":false,"method":"voronoi-polling-places","whole_municipality":false,"approx_coords_only":false},"geometry":{"type":"MultiPolygon","coordinates":[[[[-41.73157,-20.0148],[-41.66657,-20.01214],[-41.63865,-19.99058],[-41.63567,-19.97982],[-41.6486,-19.9731],[-41.6566,-19.9421],[-41.7224,-19.9874],[-41.7198,-19.9978],[-41.73157,-20.0148]]]]}},{"type":"Feature","properties":{"territory_id":"mg-3116001-povoado-de-agua-limpa","name":"Povoado de Agua Limpa","municipality_id":"mg-3116001","polling_places":1,"approx":true,"official":false,"method":"voronoi-polling-places","whole_municipality":false,"approx_coords_only":false},"geometry":{"type":"MultiPolygon","coordinates":[[[[-41.66657,-20.01214],[-41.66632,-20.09731],[-41.6638,-20.0971],[-41.59289,-20.06103],[-41.63865,-19.99058],[-41.66657,-20.01214]]]]}}]}