{"type":"FeatureCollection","features":[{"type":"Feature","properties":{"territory_id":"mg-3116159-centro","name":"Centro","municipality_id":"mg-3116159","polling_places":2,"approx":true,"official":false,"method":"voronoi-polling-places","whole_municipality":false,"approx_coords_only":false},"geometry":{"type":"MultiPolygon","coordinates":[[[[-45.7682,-15.1793],[-45.7542,-15.2087],[-45.7199,-15.2415],[-45.6371,-15.2289],[-45.6081,-15.2349],[-45.67076,-15.30468],[-45.63143,-15.29958],[-45.627,-15.29689],[-45.51383,-15.32663],[-45.49477,-15.30316],[-45.57226,-15.20287],[-45.60947,-15.15302],[-45.71627,-15.10535],[-45.7398,-15.1204],[-45.7682,-15.1793]]]]}},{"type":"Feature","properties":{"territory_id":"mg-3116159-comunidade-retiro-velho","name":"Comunidade Retiro Velho","municipality_id":"mg-3116159","polling_places":1,"approx":true,"official":false,"method":"voronoi-polling-places","whole_municipality":false,"approx_coords_only":false},"geometry":{"type":"MultiPolygon","coordinates":[[[[-45.2834,-15.87885],[-45.2649,-15.8631],[-45.2256,-15.8435],[-45.2575,-15.7454],[-45.18,-15.6664],[-45.1218,-15.6261],[-45.0942,-15.5868],[-45.1558,-15.5569],[-45.1818,-15.5567],[-45.2364,-15.4988],[-45.23648,-15.47135],[-45.24079,-15.48422],[-45.2834,-15.87885]]]]}},{"type":"Feature","properties":{"territory_id":"mg-3116159-distrito","name":"Distrito","municipality_id":"mg-3116159","polling_places":1,"approx":true,"official":false,"method":"voronoi-polling-places","whole_municipality":false,"approx_coords_only":false},"geometry":{"type":"MultiPolygon","coordinates":[[[[-45.58522,-15.61048],[-45.37454,-15.53325],[-45.24079,-15.48422],[-45.23648,-15.47135],[-45.2365,-15.4651],[-45.2679,-15.363],[-45.29053,-15.35224],[-45.5844,-15.59513],[-45.58522,-15.61048]]]]}},{"type":"Feature","properties":{"territory_id":"mg-3116159-fazenda","name":"Fazenda","municipality_id":"mg-3116159","polling_places":4,"approx":true,"official":false,"method":"voronoi-polling-places","whole_municipality":false,"approx_coords_only":false},"geometry":{"type":"MultiPolygon","coordinates":[[[[-45.8183,-15.4051],[-45.7927,-15.4309],[-45.7559,-15.4107],[-45.7274,-15.4381],[-45.66,-15.4168],[-45.60089,-15.4412],[-45.51643,-15.3299],[-45.51383,-15.32663],[-45.627,-15.29689],[-45.63143,-15.29958],[-45.67076,-15.30468],[-45.6741,-15.3084],[-45.7099,-15.3404],[-45.7771,-15.3678],[-45.8183,-15.4051]]],[[[-45.37454,-15.88907],[-45.366,-15.8894],[-45.3086,-15.9003],[-45.2834,-15.87885],[-45.24079,-15.48422],[-45.37454,-15.53325],[-45.37454,-15.88907]]]]}},{"type":"Feature","properties":{"territory_id":"mg-3116159-zona-rural","name":"Zona Rural","municipality_id":"mg-3116159","polling_places":5,"approx":true,"official":false,"method":"voronoi-polling-places","whole_municipality":false,"approx_coords_only":false},"geometry":{"type":"MultiPolygon","coordinates":[[[[-45.71627,-15.10535],[-45.60947,-15.15302],[-45.57226,-15.20287],[-45.49477,-15.30316],[-45.51383,-15.32663],[-45.51643,-15.3299],[-45.60089,-15.4412],[-45.6004,-15.4414],[-45.5843,-15.512],[-45.6007,-15.5492],[-45.5836,-15.5803],[-45.5844,-15.59513],[-45.29053,-15.35224],[-45.3207,-15.3379],[-45.3623,-15.3412],[-45.4398,-15.3086],[-45.4653,-15.2731],[-45.47,-15.2199],[-45.4484,-15.2001],[-45.4336,-15.1332],[-45.4903,-15.0982],[-45.5097,-15.049],[-45.5652,-15.0261],[-45.5861,-15.0338],[-45.6169,-15.0141],[-45.65,-15.0238],[-45.6732,-15.0778],[-45.71627,-15.10535]]],[[[-45.5876,-15.6548],[-45.56,-15.6895],[-45.5861,-15.7184],[-45.5084,-15.7658],[-45.4655,-15.7805],[-45.3867,-15.8886],[-45.37454,-15.88907],[-45.37454,-15.53325],[-45.58522,-15.61048],[-45.5876,-15.6548]]]]}}]}