{"type":"FeatureCollection","features":[{"type":"Feature","properties":{"territory_id":"mg-3116209-centro","name":"Centro","municipality_id":"mg-3116209","polling_places":2,"approx":true,"official":false,"method":"voronoi-polling-places","whole_municipality":false,"approx_coords_only":false},"geometry":{"type":"MultiPolygon","coordinates":[[[[-43.1255,-22.00497],[-43.10386,-22.01616],[-43.08556,-22.02509],[-43.04575,-22.02472],[-42.98836,-22.02651],[-42.98254,-22.02386],[-42.99027,-21.94753],[-43.055,-21.9591],[-43.087,-21.9957],[-43.1211,-21.9863],[-43.1255,-22.00497]]]]}},{"type":"Feature","properties":{"territory_id":"mg-3116209-parada-braga","name":"Parada Braga","municipality_id":"mg-3116209","polling_places":1,"approx":true,"official":false,"method":"voronoi-polling-places","whole_municipality":false,"approx_coords_only":false},"geometry":{"type":"MultiPolygon","coordinates":[[[[-43.08556,-22.02509],[-43.05605,-22.08049],[-43.0332,-22.0659],[-43.0022,-22.0328],[-42.98836,-22.02651],[-43.04575,-22.02472],[-43.08556,-22.02509]]]]}},{"type":"Feature","properties":{"territory_id":"mg-3116209-penha-longa","name":"Penha Longa","municipality_id":"mg-3116209","polling_places":2,"approx":true,"official":false,"method":"voronoi-polling-places","whole_municipality":false,"approx_coords_only":false},"geometry":{"type":"MultiPolygon","coordinates":[[[[-43.1532,-22.0744],[-43.1423,-22.1044],[-43.1062,-22.0827],[-43.0755,-22.0929],[-43.05605,-22.08049],[-43.08556,-22.02509],[-43.10386,-22.01616],[-43.1255,-22.00497],[-43.1312,-22.0292],[-43.1306,-22.035],[-43.1532,-22.0744]]]]}},{"type":"Feature","properties":{"territory_id":"mg-3116209-sapucaia-de-minas","name":"Sapucaia de Minas","municipality_id":"mg-3116209","polling_places":1,"approx":true,"official":false,"method":"voronoi-polling-places","whole_municipality":false,"approx_coords_only":false},"geometry":{"type":"MultiPolygon","coordinates":[[[[-42.99027,-21.94753],[-42.98254,-22.02386],[-42.9096,-21.9907],[-42.92,-21.9296],[-42.9072,-21.9077],[-42.8866,-21.8987],[-42.8992,-21.8911],[-42.8888,-21.8692],[-42.8803,-21.8661],[-42.8845,-21.8514],[-42.8819,-21.863],[-42.9145,-21.8886],[-42.9361,-21.9114],[-42.9549,-21.924],[-42.9677,-21.9435],[-42.99027,-21.94753]]]]}}]}