{"type":"FeatureCollection","features":[{"type":"Feature","properties":{"territory_id":"mg-3116308-centro","name":"Centro","municipality_id":"mg-3116308","polling_places":2,"approx":true,"official":false,"method":"voronoi-polling-places","whole_municipality":true,"approx_coords_only":false},"geometry":{"type":"MultiPolygon","coordinates":[[[[-43.4705,-20.9395],[-43.4193,-20.9779],[-43.3749,-20.976],[-43.3474,-20.9496],[-43.3245,-20.9787],[-43.2906,-20.9551],[-43.2952,-20.8533],[-43.3729,-20.8672],[-43.3716,-20.8815],[-43.424,-20.9239],[-43.4705,-20.9395]]]]}}]}