{"type":"FeatureCollection","features":[{"type":"Feature","properties":{"territory_id":"mg-3116100-centro","name":"Centro","municipality_id":"mg-3116100","polling_places":1,"approx":true,"official":false,"method":"voronoi-polling-places","whole_municipality":false,"approx_coords_only":false},"geometry":{"type":"MultiPolygon","coordinates":[[[[-42.5578,-17.05959],[-42.54182,-17.08652],[-42.53794,-17.08756],[-42.44215,-17.11314],[-42.42968,-17.0917],[-42.4311,-17.0907],[-42.43938,-17.07294],[-42.5578,-17.05959]]]]}},{"type":"Feature","properties":{"territory_id":"mg-3116100-povoado-de-boa-vista","name":"Povoado de Boa Vista","municipality_id":"mg-3116100","polling_places":1,"approx":true,"official":false,"method":"voronoi-polling-places","whole_municipality":false,"approx_coords_only":false},"geometry":{"type":"MultiPolygon","coordinates":[[[[-42.53794,-17.09596],[-42.51711,-17.14672],[-42.4729,-17.1486],[-42.46635,-17.15534],[-42.44215,-17.11314],[-42.53794,-17.08756],[-42.53794,-17.09596]]]]}},{"type":"Feature","properties":{"territory_id":"mg-3116100-povoado-de-granjas","name":"Povoado de Granjas","municipality_id":"mg-3116100","polling_places":1,"approx":true,"official":false,"method":"voronoi-polling-places","whole_municipality":false,"approx_coords_only":false},"geometry":{"type":"MultiPolygon","coordinates":[[[[-42.28645,-17.16542],[-42.27469,-17.18661],[-42.11878,-17.34704],[-42.1141,-17.3454],[-42.1038,-17.3544],[-42.1149,-17.3162],[-42.132,-17.3084],[-42.1488,-17.2567],[-42.2491,-17.1743],[-42.2706,-17.1455],[-42.28538,-17.15876],[-42.28645,-17.16542]]]]}},{"type":"Feature","properties":{"territory_id":"mg-3116100-povoado-de-santa-rita","name":"Povoado de Santa Rita","municipality_id":"mg-3116100","polling_places":1,"approx":true,"official":false,"method":"voronoi-polling-places","whole_municipality":false,"approx_coords_only":false},"geometry":{"type":"MultiPolygon","coordinates":[[[[-42.6812,-17.0446],[-42.63,-17.089],[-42.6276,-17.1039],[-42.59503,-17.12594],[-42.57538,-17.05582],[-42.608,-16.9638],[-42.6573,-16.9929],[-42.6812,-17.0446]]]]}},{"type":"Feature","properties":{"territory_id":"mg-3116100-sao-geraldo","name":"São Geraldo","municipality_id":"mg-3116100","polling_places":1,"approx":true,"official":false,"method":"voronoi-polling-places","whole_municipality":false,"approx_coords_only":false},"geometry":{"type":"MultiPolygon","coordinates":[[[[-42.59503,-17.12594],[-42.5939,-17.1267],[-42.5595,-17.1708],[-42.5271,-17.1463],[-42.51711,-17.14672],[-42.53794,-17.09596],[-42.54182,-17.08652],[-42.5578,-17.05959],[-42.57538,-17.05582],[-42.59503,-17.12594]]]]}},{"type":"Feature","properties":{"territory_id":"mg-3116100-zona-rural","name":"Zona Rural","municipality_id":"mg-3116100","polling_places":10,"approx":true,"official":false,"method":"voronoi-polling-places","whole_municipality":false,"approx_coords_only":false},"geometry":{"type":"MultiPolygon","coordinates":[[[[-42.608,-16.9638],[-42.57538,-17.05582],[-42.5578,-17.05959],[-42.43938,-17.07294],[-42.4679,-17.0118],[-42.5218,-17.0102],[-42.5181,-16.9801],[-42.5519,-16.9459],[-42.5819,-16.9484],[-42.608,-16.9638]]],[[[-42.54182,-17.08652],[-42.53794,-17.09596],[-42.53794,-17.08756],[-42.54182,-17.08652]]],[[[-42.46635,-17.15534],[-42.4223,-17.2007],[-42.3869,-17.2236],[-42.3695,-17.2659],[-42.3238,-17.2342],[-42.293,-17.2851],[-42.2002,-17.3212],[-42.1754,-17.3669],[-42.11878,-17.34704],[-42.27469,-17.18661],[-42.28645,-17.16542],[-42.28538,-17.15876],[-42.3154,-17.1857],[-42.3473,-17.1257],[-42.3416,-17.1077],[-42.3937,-17.1172],[-42.42968,-17.0917],[-42.44215,-17.11314],[-42.46635,-17.15534]]]]}}]}