{"type":"FeatureCollection","features":[{"type":"Feature","properties":{"territory_id":"mg-3116704-centro","name":"Centro","municipality_id":"mg-3116704","polling_places":2,"approx":true,"official":false,"method":"voronoi-polling-places","whole_municipality":false,"approx_coords_only":false},"geometry":{"type":"MultiPolygon","coordinates":[[[[-42.84354,-20.87831],[-42.7966,-20.8664],[-42.7558,-20.8766],[-42.7299,-20.8617],[-42.7094,-20.8393],[-42.7126,-20.8156],[-42.7684,-20.8139],[-42.7838,-20.8252],[-42.83,-20.8089],[-42.83508,-20.81809],[-42.83621,-20.82734],[-42.84354,-20.87831]]]]}},{"type":"Feature","properties":{"territory_id":"mg-3116704-zona-rural","name":"Zona Rural","municipality_id":"mg-3116704","polling_places":4,"approx":true,"official":false,"method":"voronoi-polling-places","whole_municipality":false,"approx_coords_only":false},"geometry":{"type":"MultiPolygon","coordinates":[[[[-42.8861,-20.8467],[-42.8518,-20.8804],[-42.84354,-20.87831],[-42.83621,-20.82734],[-42.83508,-20.81809],[-42.8451,-20.8362],[-42.8861,-20.8248],[-42.8861,-20.8467]]]]}}]}