{"type":"FeatureCollection","features":[{"type":"Feature","properties":{"territory_id":"mg-3116803-centro","name":"Centro","municipality_id":"mg-3116803","polling_places":3,"approx":true,"official":false,"method":"voronoi-polling-places","whole_municipality":false,"approx_coords_only":false},"geometry":{"type":"MultiPolygon","coordinates":[[[[-42.85321,-18.11403],[-42.84097,-18.23261],[-42.84154,-18.23476],[-42.84939,-18.23994],[-42.82728,-18.24961],[-42.81028,-18.23115],[-42.78813,-18.21085],[-42.8045,-18.209],[-42.8251,-18.1615],[-42.8289,-18.0978],[-42.85321,-18.11403]]]]}},{"type":"Feature","properties":{"territory_id":"mg-3116803-zona-rural","name":"Zona Rural","municipality_id":"mg-3116803","polling_places":6,"approx":true,"official":false,"method":"voronoi-polling-places","whole_municipality":false,"approx_coords_only":false},"geometry":{"type":"MultiPolygon","coordinates":[[[[-42.9451,-18.2352],[-42.912,-18.2901],[-42.8671,-18.2912],[-42.8694,-18.3643],[-42.8312,-18.361],[-42.8004,-18.3797],[-42.7545,-18.3243],[-42.7282,-18.3175],[-42.7284,-18.2842],[-42.7723,-18.2507],[-42.7612,-18.2139],[-42.78813,-18.21085],[-42.81028,-18.23115],[-42.82728,-18.24961],[-42.84939,-18.23994],[-42.84154,-18.23476],[-42.84097,-18.23261],[-42.85321,-18.11403],[-42.8668,-18.1231],[-42.8897,-18.1592],[-42.9296,-18.1819],[-42.9451,-18.2352]]]]}}]}