{"type":"FeatureCollection","features":[{"type":"Feature","properties":{"territory_id":"mg-3116407-centro","name":"Centro","municipality_id":"mg-3116407","polling_places":3,"approx":true,"official":false,"method":"voronoi-polling-places","whole_municipality":true,"approx_coords_only":false},"geometry":{"type":"MultiPolygon","coordinates":[[[[-47.2767,-20.2916],[-47.2982,-20.3484],[-47.2855,-20.4057],[-47.2935,-20.4187],[-47.291,-20.4505],[-47.2235,-20.4911],[-47.1968,-20.4648],[-47.1929,-20.3827],[-47.2153,-20.367],[-47.211,-20.3296],[-47.184,-20.2908],[-47.2326,-20.2275],[-47.2767,-20.2916]]]]}}]}