{"type":"FeatureCollection","features":[{"type":"Feature","properties":{"territory_id":"mg-3117405-centro","name":"Centro","municipality_id":"mg-3117405","polling_places":1,"approx":true,"official":false,"method":"voronoi-polling-places","whole_municipality":false,"approx_coords_only":false},"geometry":{"type":"MultiPolygon","coordinates":[[[[-41.69247,-19.9668],[-41.65968,-19.94422],[-41.64905,-19.89796],[-41.66907,-19.85811],[-41.6696,-19.8591],[-41.69247,-19.86632],[-41.69247,-19.9668]]]]}},{"type":"Feature","properties":{"territory_id":"mg-3117405-corrego-sao-barnabe","name":"Córrego São Barnabé","municipality_id":"mg-3117405","polling_places":1,"approx":true,"official":false,"method":"voronoi-polling-places","whole_municipality":false,"approx_coords_only":false},"geometry":{"type":"MultiPolygon","coordinates":[[[[-41.66907,-19.85811],[-41.64905,-19.89796],[-41.60181,-19.91747],[-41.6057,-19.893],[-41.5739,-19.8491],[-41.5909,-19.8073],[-41.655,-19.8321],[-41.66907,-19.85811]]]]}},{"type":"Feature","properties":{"territory_id":"mg-3117405-sao-geraldo","name":"São Geraldo","municipality_id":"mg-3117405","polling_places":1,"approx":true,"official":false,"method":"voronoi-polling-places","whole_municipality":false,"approx_coords_only":false},"geometry":{"type":"MultiPolygon","coordinates":[[[[-41.8414,-19.9253],[-41.8151,-19.9425],[-41.8075,-19.9895],[-41.766,-19.9831],[-41.7198,-19.9978],[-41.7224,-19.9874],[-41.69247,-19.9668],[-41.69247,-19.86632],[-41.7146,-19.8733],[-41.7373,-19.9143],[-41.7771,-19.9272],[-41.8414,-19.9253]]]]}},{"type":"Feature","properties":{"territory_id":"mg-3117405-sede","name":"Sede","municipality_id":"mg-3117405","polling_places":1,"approx":true,"official":false,"method":"voronoi-polling-places","whole_municipality":false,"approx_coords_only":false},"geometry":{"type":"MultiPolygon","coordinates":[[[[-41.65968,-19.94422],[-41.6566,-19.9421],[-41.6486,-19.9731],[-41.6218,-19.9641],[-41.5991,-19.9345],[-41.60181,-19.91747],[-41.64905,-19.89796],[-41.65968,-19.94422]]]]}}]}