{"type":"FeatureCollection","features":[{"type":"Feature","properties":{"territory_id":"mg-3117108-centro","name":"Centro","municipality_id":"mg-3117108","polling_places":2,"approx":true,"official":false,"method":"voronoi-polling-places","whole_municipality":false,"approx_coords_only":false},"geometry":{"type":"MultiPolygon","coordinates":[[[[-46.3503,-21.0132],[-46.3467,-21.0678],[-46.3261,-21.1059],[-46.2951,-21.1083],[-46.2923,-21.1533],[-46.26714,-21.16278],[-46.20045,-21.09242],[-46.19647,-21.0859],[-46.17055,-21.04777],[-46.235,-21.0369],[-46.2462,-21.017],[-46.2927,-20.9978],[-46.3503,-21.0132]]]]}},{"type":"Feature","properties":{"territory_id":"mg-3117108-jacutinga","name":"Jacutinga","municipality_id":"mg-3117108","polling_places":1,"approx":true,"official":false,"method":"voronoi-polling-places","whole_municipality":false,"approx_coords_only":false},"geometry":{"type":"MultiPolygon","coordinates":[[[[-46.21559,-21.18221],[-46.1766,-21.1969],[-46.1455,-21.1545],[-46.0701,-21.147],[-46.0848,-21.1123],[-46.1206,-21.0959],[-46.1431,-21.0524],[-46.17055,-21.04777],[-46.19647,-21.0859],[-46.20045,-21.09242],[-46.21559,-21.18221]]]]}},{"type":"Feature","properties":{"territory_id":"mg-3117108-sao-pedro","name":"São Pedro","municipality_id":"mg-3117108","polling_places":1,"approx":true,"official":false,"method":"voronoi-polling-places","whole_municipality":false,"approx_coords_only":false},"geometry":{"type":"MultiPolygon","coordinates":[[[[-46.26714,-21.16278],[-46.21559,-21.18221],[-46.20045,-21.09242],[-46.26714,-21.16278]]]]}}]}