{"type":"FeatureCollection","features":[{"type":"Feature","properties":{"territory_id":"mg-3117306-alagoas","name":"Alagoas","municipality_id":"mg-3117306","polling_places":1,"approx":true,"official":false,"method":"voronoi-polling-places","whole_municipality":false,"approx_coords_only":false},"geometry":{"type":"MultiPolygon","coordinates":[[[[-48.4039,-19.79155],[-48.31587,-20.02067],[-48.25797,-20.14136],[-48.23316,-20.13288],[-48.23951,-20.09786],[-48.2534,-20.0779],[-48.24585,-20.06283],[-48.30135,-19.75641],[-48.3272,-19.7406],[-48.3457,-19.7838],[-48.3452,-19.8236],[-48.388,-19.796],[-48.4039,-19.79155]]]]}},{"type":"Feature","properties":{"territory_id":"mg-3117306-centro","name":"Centro","municipality_id":"mg-3117306","polling_places":1,"approx":false,"official":true,"method":"official-ibge-cd2022","whole_municipality":false,"approx_coords_only":false,"official_name":"Centro","official_code":"3117306014","match":"direct"},"geometry":{"type":"MultiPolygon","coordinates":[[[[-48.37969,-19.91456],[-48.37934,-19.9143],[-48.37866,-19.91515],[-48.37819,-19.91492],[-48.37746,-19.9147],[-48.37732,-19.91508],[-48.37753,-19.91514],[-48.37775,-19.91525],[-48.37721,-19.9166],[-48.37597,-19.919],[-48.37559,-19.91968],[-48.37438,-19.92197],[-48.37418,-19.92232],[-48.3736,-19.9226],[-48.37381,-19.92271],[-48.37375,-19.92294],[-48.37394,-19.92309],[-48.376,-19.92449],[-48.37673,-19.92496],[-48.3791,-19.92612],[-48.38045,-19.92675],[-48.38111,-19.9271],[-48.38131,-19.92728],[-48.38177,-19.92643],[-48.38211,-19.92587],[-48.38218,-19.92569],[-48.3826,-19.92495],[-48.38289,-19.92509],[-48.38347,-19.92437],[-48.38404,-19.9237],[-48.38459,-19.92302],[-48.38515,-19.92238],[-48.38591,-19.92145],[-48.38756,-19.91951],[-48.38801,-19.91902],[-48.38856,-19.91926],[-48.38939,-19.91921],[-48.39012,-19.91777],[-48.3879,-19.91682],[-48.38554,-19.91575],[-48.38477,-19.91538],[-48.38383,-19.91505],[-48.38342,-19.91617],[-48.38126,-19.91473],[-48.38008,-19.91424],[-48.37969,-19.91456]]]]}},{"type":"Feature","properties":{"territory_id":"mg-3117306-conj-hab-ilidio-antunes-de-oliveira","name":"Conj. Hab. Ilidio Antunes de Oliveira","municipality_id":"mg-3117306","polling_places":1,"approx":true,"official":false,"method":"voronoi-polling-places","whole_municipality":false,"approx_coords_only":false},"geometry":{"type":"MultiPolygon","coordinates":[[[[-48.4628,-19.7952],[-48.38453,-19.9153],[-48.38383,-19.91505],[-48.38342,-19.91617],[-48.38126,-19.91473],[-48.38008,-19.91424],[-48.37969,-19.91456],[-48.37934,-19.9143],[-48.37866,-19.91515],[-48.37819,-19.91492],[-48.37746,-19.9147],[-48.37732,-19.91508],[-48.37753,-19.91514],[-48.37775,-19.91525],[-48.37721,-19.9166],[-48.37597,-19.919],[-48.37559,-19.91968],[-48.37438,-19.92197],[-48.37418,-19.92232],[-48.3736,-19.9226],[-48.37381,-19.92271],[-48.37375,-19.92294],[-48.37394,-19.92309],[-48.376,-19.92449],[-48.37673,-19.92496],[-48.37787,-19.92552],[-48.31587,-20.02067],[-48.4039,-19.79155],[-48.4545,-19.7774],[-48.4628,-19.7952]],[[-48.37119,-19.9268],[-48.37064,-19.92587],[-48.37017,-19.92481],[-48.36896,-19.92535],[-48.36646,-19.92642],[-48.36601,-19.92683],[-48.3662,-19.92713],[-48.36613,-19.92722],[-48.36665,-19.928],[-48.36681,-19.92816],[-48.36694,-19.92837],[-48.36737,-19.92896],[-48.36979,-19.92707],[-48.36997,-19.92693],[-48.37018,-19.92732],[-48.37119,-19.9268]]]]}},{"type":"Feature","properties":{"territory_id":"mg-3117306-distrito-de-poncianos","name":"Distrito de Poncianos","municipality_id":"mg-3117306","polling_places":1,"approx":true,"official":false,"method":"voronoi-polling-places","whole_municipality":false,"approx_coords_only":false},"geometry":{"type":"MultiPolygon","coordinates":[[[[-48.30135,-19.75641],[-48.24585,-20.06283],[-48.2285,-20.0282],[-48.2034,-20.0455],[-48.1373,-20.0109],[-48.1272,-19.9843],[-48.1681,-19.9469],[-48.1545,-19.8828],[-48.231,-19.8456],[-48.2729,-19.7738],[-48.30135,-19.75641]]],[[[-48.23951,-20.09786],[-48.23316,-20.13288],[-48.2186,-20.1279],[-48.23951,-20.09786]]]]}},{"type":"Feature","properties":{"territory_id":"mg-3117306-jardim-acapulco","name":"Jardim Acapulco","municipality_id":"mg-3117306","polling_places":2,"approx":false,"official":true,"method":"official-ibge-cd2022","whole_municipality":false,"approx_coords_only":false,"official_name":"Jardim Acapulco","official_code":"3117306001","match":"direct"},"geometry":{"type":"MultiPolygon","coordinates":[[[[-48.38756,-19.91951],[-48.38591,-19.92145],[-48.38515,-19.92238],[-48.38459,-19.92302],[-48.38404,-19.9237],[-48.38347,-19.92437],[-48.38289,-19.92509],[-48.38372,-19.92552],[-48.38423,-19.92642],[-48.38453,-19.92627],[-48.38477,-19.92593],[-48.38562,-19.9249],[-48.38592,-19.92446],[-48.38606,-19.92431],[-48.38632,-19.92387],[-48.38649,-19.92452],[-48.38733,-19.92563],[-48.3887,-19.92719],[-48.38957,-19.92662],[-48.39004,-19.92634],[-48.39068,-19.92598],[-48.39113,-19.92569],[-48.3916,-19.92527],[-48.39246,-19.92428],[-48.39167,-19.92361],[-48.39003,-19.9221],[-48.39109,-19.92079],[-48.39168,-19.92008],[-48.39145,-19.91981],[-48.39143,-19.91973],[-48.3912,-19.91933],[-48.39101,-19.91917],[-48.39086,-19.91914],[-48.39024,-19.91918],[-48.38856,-19.91926],[-48.38801,-19.91902],[-48.38756,-19.91951]]]]}},{"type":"Feature","properties":{"territory_id":"mg-3117306-jardim-alto-do-sol","name":"Jardim Alto do Sol","municipality_id":"mg-3117306","polling_places":1,"approx":true,"official":false,"method":"voronoi-polling-places","whole_municipality":false,"approx_coords_only":false},"geometry":{"type":"MultiPolygon","coordinates":[[[[-48.5638,-19.9718],[-48.5565,-19.9997],[-48.5288,-20.0687],[-48.5374,-20.1336],[-48.4911,-20.1381],[-48.4516,-20.1259],[-48.4058,-20.1135],[-48.3749,-20.1231],[-48.3154,-20.1138],[-48.2651,-20.1438],[-48.25797,-20.14136],[-48.31587,-20.02067],[-48.37787,-19.92552],[-48.3791,-19.92612],[-48.38045,-19.92675],[-48.38111,-19.9271],[-48.38131,-19.92728],[-48.38177,-19.92643],[-48.38211,-19.92587],[-48.38218,-19.92569],[-48.3826,-19.92495],[-48.38289,-19.92509],[-48.38372,-19.92552],[-48.38423,-19.92642],[-48.38453,-19.92627],[-48.38477,-19.92593],[-48.38562,-19.9249],[-48.38592,-19.92446],[-48.38606,-19.92431],[-48.38632,-19.92387],[-48.38649,-19.92452],[-48.38733,-19.92563],[-48.3887,-19.92719],[-48.38957,-19.92662],[-48.39004,-19.92634],[-48.39068,-19.92598],[-48.39113,-19.92569],[-48.3916,-19.92527],[-48.39246,-19.92428],[-48.39167,-19.92361],[-48.39003,-19.9221],[-48.39109,-19.92079],[-48.39168,-19.92008],[-48.39145,-19.91981],[-48.39143,-19.91973],[-48.3912,-19.91933],[-48.39101,-19.91917],[-48.39086,-19.91914],[-48.39024,-19.91918],[-48.38856,-19.91926],[-48.38939,-19.91921],[-48.39012,-19.91777],[-48.3879,-19.91682],[-48.38554,-19.91575],[-48.38477,-19.91538],[-48.38453,-19.9153],[-48.4628,-19.7952],[-48.4814,-19.8351],[-48.5444,-19.8899],[-48.5638,-19.9718]]]]}},{"type":"Feature","properties":{"territory_id":"mg-3117306-jardim-sao-francisco-de-assis","name":"Jardim São Francisco de Assis","municipality_id":"mg-3117306","polling_places":1,"approx":false,"official":true,"method":"official-ibge-cd2022","whole_municipality":false,"approx_coords_only":false,"official_name":"Jardim São Francisco de Assis","official_code":"3117306015","match":"direct"},"geometry":{"type":"MultiPolygon","coordinates":[[[[-48.36979,-19.92707],[-48.36997,-19.92693],[-48.37018,-19.92732],[-48.37119,-19.9268],[-48.37064,-19.92587],[-48.37017,-19.92481],[-48.36896,-19.92535],[-48.36646,-19.92642],[-48.36601,-19.92683],[-48.3662,-19.92713],[-48.36613,-19.92722],[-48.36665,-19.928],[-48.36681,-19.92816],[-48.36694,-19.92837],[-48.36737,-19.92896],[-48.36979,-19.92707]]]]}}]}