{"type":"FeatureCollection","features":[{"type":"Feature","properties":{"territory_id":"mg-3117876-centro","name":"Centro","municipality_id":"mg-3117876","polling_places":2,"approx":true,"official":false,"method":"voronoi-polling-places","whole_municipality":false,"approx_coords_only":false},"geometry":{"type":"MultiPolygon","coordinates":[[[[-44.00493,-19.65412],[-43.95715,-19.63803],[-43.9718,-19.5979],[-43.9924,-19.6009],[-44.00493,-19.65412]]]]}},{"type":"Feature","properties":{"territory_id":"mg-3117876-tavares","name":"Tavares","municipality_id":"mg-3117876","polling_places":1,"approx":true,"official":false,"method":"voronoi-polling-places","whole_municipality":false,"approx_coords_only":false},"geometry":{"type":"MultiPolygon","coordinates":[[[[-44.0053,-19.6557],[-43.988,-19.6873],[-43.9571,-19.6699],[-43.9449,-19.6716],[-43.95715,-19.63803],[-44.00493,-19.65412],[-44.0053,-19.6557]]]]}}]}