{"type":"FeatureCollection","features":[{"type":"Feature","properties":{"territory_id":"mg-3117207-centro","name":"Centro","municipality_id":"mg-3117207","polling_places":3,"approx":true,"official":false,"method":"voronoi-polling-places","whole_municipality":false,"approx_coords_only":false},"geometry":{"type":"MultiPolygon","coordinates":[[[[-45.5088,-22.1771],[-45.5078,-22.1916],[-45.4626,-22.1938],[-45.39638,-22.16897],[-45.40816,-22.15193],[-45.45494,-22.16076],[-45.45494,-22.12841],[-45.5088,-22.1771]]]]}},{"type":"Feature","properties":{"territory_id":"mg-3117207-sao-jose-do-pinhal","name":"São José do Pinhal","municipality_id":"mg-3117207","polling_places":1,"approx":true,"official":false,"method":"voronoi-polling-places","whole_municipality":false,"approx_coords_only":false},"geometry":{"type":"MultiPolygon","coordinates":[[[[-45.43124,-22.11701],[-45.40816,-22.15193],[-45.39638,-22.16897],[-45.3938,-22.168],[-45.3748,-22.141],[-45.334,-22.119],[-45.3365,-22.1031],[-45.3709,-22.0822],[-45.3746,-22.1062],[-45.43124,-22.11701]]]]}},{"type":"Feature","properties":{"territory_id":"mg-3117207-turvo","name":"Turvo","municipality_id":"mg-3117207","polling_places":1,"approx":true,"official":false,"method":"voronoi-polling-places","whole_municipality":false,"approx_coords_only":false},"geometry":{"type":"MultiPolygon","coordinates":[[[[-45.45494,-22.16076],[-45.40816,-22.15193],[-45.43124,-22.11701],[-45.4453,-22.1197],[-45.45494,-22.12841],[-45.45494,-22.16076]]]]}}]}