{"type":"FeatureCollection","features":[{"type":"Feature","properties":{"territory_id":"mg-3117603-bom-jesus-do-oeste","name":"Bom Jesus do Oeste","municipality_id":"mg-3117603","polling_places":1,"approx":true,"official":false,"method":"voronoi-polling-places","whole_municipality":false,"approx_coords_only":false},"geometry":{"type":"MultiPolygon","coordinates":[[[[-44.84243,-19.86909],[-44.816,-19.8927],[-44.7807,-19.8672],[-44.78054,-19.78962],[-44.79649,-19.7933],[-44.84243,-19.86909]]]]}},{"type":"Feature","properties":{"territory_id":"mg-3117603-casquilho","name":"Casquilho","municipality_id":"mg-3117603","polling_places":1,"approx":true,"official":false,"method":"voronoi-polling-places","whole_municipality":false,"approx_coords_only":false},"geometry":{"type":"MultiPolygon","coordinates":[[[[-44.92683,-19.70059],[-44.8611,-19.76312],[-44.85053,-19.72738],[-44.8771,-19.7099],[-44.8917,-19.7199],[-44.92683,-19.70059]]]]}},{"type":"Feature","properties":{"territory_id":"mg-3117603-centro","name":"Centro","municipality_id":"mg-3117603","polling_places":1,"approx":true,"official":false,"method":"voronoi-polling-places","whole_municipality":false,"approx_coords_only":false},"geometry":{"type":"MultiPolygon","coordinates":[[[[-44.9913,-19.7933],[-44.9514,-19.7966],[-44.9269,-19.7757],[-44.89623,-19.80579],[-44.85843,-19.78211],[-44.8611,-19.76312],[-44.92683,-19.70059],[-44.9479,-19.689],[-44.9675,-19.7126],[-44.9638,-19.7529],[-44.9894,-19.7612],[-44.9913,-19.7933]]]]}},{"type":"Feature","properties":{"territory_id":"mg-3117603-santana-da-prata","name":"Santana da Prata","municipality_id":"mg-3117603","polling_places":1,"approx":true,"official":false,"method":"voronoi-polling-places","whole_municipality":false,"approx_coords_only":false},"geometry":{"type":"MultiPolygon","coordinates":[[[[-44.89623,-19.80579],[-44.8846,-19.8172],[-44.8929,-19.8555],[-44.8545,-19.8583],[-44.84243,-19.86909],[-44.79649,-19.7933],[-44.85843,-19.78211],[-44.89623,-19.80579]]]]}},{"type":"Feature","properties":{"territory_id":"mg-3117603-zona-rural","name":"Zona Rural","municipality_id":"mg-3117603","polling_places":1,"approx":true,"official":false,"method":"voronoi-polling-places","whole_municipality":false,"approx_coords_only":false},"geometry":{"type":"MultiPolygon","coordinates":[[[[-44.8611,-19.76312],[-44.85843,-19.78211],[-44.79649,-19.7933],[-44.78054,-19.78962],[-44.7805,-19.7716],[-44.8206,-19.7628],[-44.8385,-19.7353],[-44.85053,-19.72738],[-44.8611,-19.76312]]]]}}]}