{"type":"FeatureCollection","features":[{"type":"Feature","properties":{"territory_id":"mg-3117836-centro","name":"Centro","municipality_id":"mg-3117836","polling_places":1,"approx":true,"official":false,"method":"voronoi-polling-places","whole_municipality":false,"approx_coords_only":false},"geometry":{"type":"MultiPolygon","coordinates":[[[[-44.43622,-15.27438],[-44.42063,-15.30558],[-44.40445,-15.27577],[-44.43387,-15.27385],[-44.43622,-15.27438]]]]}},{"type":"Feature","properties":{"territory_id":"mg-3117836-sape","name":"Sape","municipality_id":"mg-3117836","polling_places":1,"approx":true,"official":false,"method":"voronoi-polling-places","whole_municipality":false,"approx_coords_only":false},"geometry":{"type":"MultiPolygon","coordinates":[[[[-44.43387,-15.27385],[-44.40445,-15.27577],[-44.38603,-15.27594],[-44.41598,-15.24247],[-44.43387,-15.27385]]]]}},{"type":"Feature","properties":{"territory_id":"mg-3117836-zona-rural","name":"Zona Rural","municipality_id":"mg-3117836","polling_places":16,"approx":true,"official":false,"method":"voronoi-polling-places","whole_municipality":false,"approx_coords_only":false},"geometry":{"type":"MultiPolygon","coordinates":[[[[-44.8221,-14.7652],[-44.7789,-14.7683],[-44.7384,-14.812],[-44.692,-14.8421],[-44.674,-14.8806],[-44.7114,-14.9105],[-44.7328,-14.9492],[-44.6982,-15.0258],[-44.6612,-15.0688],[-44.6325,-15.0792],[-44.6324,-15.1237],[-44.6882,-15.2084],[-44.6746,-15.2629],[-44.6388,-15.2716],[-44.627,-15.3396],[-44.5495,-15.3135],[-44.5296,-15.2874],[-44.5057,-15.2914],[-44.5008,-15.3256],[-44.4496,-15.3717],[-44.3647,-15.4615],[-44.3363,-15.4367],[-44.3679,-15.3993],[-44.3627,-15.302],[-44.38603,-15.27594],[-44.40445,-15.27577],[-44.42063,-15.30558],[-44.43622,-15.27438],[-44.43387,-15.27385],[-44.41598,-15.24247],[-44.436,-15.2201],[-44.4692,-15.2696],[-44.4937,-15.2681],[-44.5587,-15.1766],[-44.5779,-15.1236],[-44.5786,-15.0798],[-44.5457,-15.0328],[-44.5213,-14.9782],[-44.4872,-14.9643],[-44.4837,-14.9071],[-44.5298,-14.861],[-44.5295,-14.8164],[-44.5164,-14.7146],[-44.5283,-14.7034],[-44.5574,-14.6642],[-44.5862,-14.666],[-44.6358,-14.6218],[-44.6889,-14.6256],[-44.8092,-14.7172],[-44.8221,-14.7652]]]]}}]}