{"type":"FeatureCollection","features":[{"type":"Feature","properties":{"territory_id":"mg-3117009-agua-branca-de-minas","name":"Água Branca de Minas","municipality_id":"mg-3117009","polling_places":1,"approx":true,"official":false,"method":"voronoi-polling-places","whole_municipality":false,"approx_coords_only":false},"geometry":{"type":"MultiPolygon","coordinates":[[[[-41.79198,-16.22678],[-41.75762,-16.2489],[-41.74828,-16.25464],[-41.69236,-16.19671],[-41.6959,-16.1649],[-41.7156,-16.179],[-41.7673,-16.1844],[-41.7728,-16.18184],[-41.79198,-16.22678]]]]}},{"type":"Feature","properties":{"territory_id":"mg-3117009-bela-vista","name":"Bela Vista","municipality_id":"mg-3117009","polling_places":1,"approx":true,"official":false,"method":"voronoi-polling-places","whole_municipality":false,"approx_coords_only":false},"geometry":{"type":"MultiPolygon","coordinates":[[[[-41.87855,-16.36528],[-41.8718,-16.3753],[-41.8444,-16.3551],[-41.84024,-16.35693],[-41.75762,-16.2489],[-41.79198,-16.22678],[-41.8149,-16.22937],[-41.87855,-16.36528]]]]}},{"type":"Feature","properties":{"territory_id":"mg-3117009-centro","name":"Centro","municipality_id":"mg-3117009","polling_places":1,"approx":true,"official":false,"method":"voronoi-polling-places","whole_municipality":false,"approx_coords_only":false},"geometry":{"type":"MultiPolygon","coordinates":[[[[-41.84024,-16.35693],[-41.8042,-16.3728],[-41.7618,-16.4133],[-41.7229,-16.4256],[-41.67298,-16.37791],[-41.74828,-16.25464],[-41.75762,-16.2489],[-41.84024,-16.35693]]]]}},{"type":"Feature","properties":{"territory_id":"mg-3117009-distrito-da-taboa","name":"Distrito da Taboa","municipality_id":"mg-3117009","polling_places":1,"approx":true,"official":false,"method":"voronoi-polling-places","whole_municipality":false,"approx_coords_only":false},"geometry":{"type":"MultiPolygon","coordinates":[[[[-41.74828,-16.25464],[-41.67298,-16.37791],[-41.6691,-16.3742],[-41.6269,-16.3822],[-41.6391,-16.3279],[-41.6296,-16.2301],[-41.6515,-16.2111],[-41.6915,-16.2044],[-41.69236,-16.19671],[-41.74828,-16.25464]]]]}},{"type":"Feature","properties":{"territory_id":"mg-3117009-retiro-da-saudade","name":"Retiro da Saudade","municipality_id":"mg-3117009","polling_places":1,"approx":true,"official":false,"method":"voronoi-polling-places","whole_municipality":false,"approx_coords_only":false},"geometry":{"type":"MultiPolygon","coordinates":[[[[-41.87297,-16.18965],[-41.8149,-16.22937],[-41.79198,-16.22678],[-41.7728,-16.18184],[-41.8027,-16.1679],[-41.8684,-16.1826],[-41.87297,-16.18965]]]]}},{"type":"Feature","properties":{"territory_id":"mg-3117009-zona-rural","name":"Zona Rural","municipality_id":"mg-3117009","polling_places":1,"approx":true,"official":false,"method":"voronoi-polling-places","whole_municipality":false,"approx_coords_only":false},"geometry":{"type":"MultiPolygon","coordinates":[[[[-41.9325,-16.2814],[-41.9104,-16.3216],[-41.8976,-16.337],[-41.87855,-16.36528],[-41.8149,-16.22937],[-41.87297,-16.18965],[-41.9325,-16.2814]]]]}}]}