{"type":"FeatureCollection","features":[{"type":"Feature","properties":{"territory_id":"mg-3117801-cachoeirinha","name":"Cachoeirinha","municipality_id":"mg-3117801","polling_places":1,"approx":true,"official":false,"method":"voronoi-polling-places","whole_municipality":false,"approx_coords_only":false},"geometry":{"type":"MultiPolygon","coordinates":[[[[-45.79559,-22.40072],[-45.788,-22.41575],[-45.78192,-22.41865],[-45.74057,-22.43827],[-45.68542,-22.43466],[-45.6907,-22.396],[-45.6792,-22.3747],[-45.7222,-22.4079],[-45.7552,-22.3978],[-45.79559,-22.40072]]]]}},{"type":"Feature","properties":{"territory_id":"mg-3117801-campo-do-meio","name":"Campo do Meio","municipality_id":"mg-3117801","polling_places":1,"approx":true,"official":false,"method":"voronoi-polling-places","whole_municipality":false,"approx_coords_only":false},"geometry":{"type":"MultiPolygon","coordinates":[[[[-45.88554,-22.47182],[-45.8833,-22.5003],[-45.8536,-22.4888],[-45.8265,-22.5091],[-45.785,-22.4883],[-45.7786,-22.4697],[-45.7001,-22.4994],[-45.6817,-22.4619],[-45.68542,-22.43466],[-45.74057,-22.43827],[-45.88554,-22.47182]]]]}},{"type":"Feature","properties":{"territory_id":"mg-3117801-centro","name":"Centro","municipality_id":"mg-3117801","polling_places":3,"approx":true,"official":false,"method":"voronoi-polling-places","whole_municipality":false,"approx_coords_only":false},"geometry":{"type":"MultiPolygon","coordinates":[[[[-45.84544,-22.44437],[-45.8247,-22.43321],[-45.79481,-22.4171],[-45.788,-22.41575],[-45.79559,-22.40072],[-45.8314,-22.4033],[-45.84544,-22.44437]]]]}},{"type":"Feature","properties":{"territory_id":"mg-3117801-chacara-dos-euclides","name":"Chácara dos Euclides","municipality_id":"mg-3117801","polling_places":2,"approx":true,"official":false,"method":"voronoi-polling-places","whole_municipality":false,"approx_coords_only":false},"geometry":{"type":"MultiPolygon","coordinates":[[[[-45.8859,-22.4672],[-45.88554,-22.47182],[-45.74057,-22.43827],[-45.78192,-22.41865],[-45.788,-22.41575],[-45.79481,-22.4171],[-45.8247,-22.43321],[-45.84544,-22.44437],[-45.8487,-22.4539],[-45.8859,-22.4672]]]]}}]}