{"type":"FeatureCollection","features":[{"type":"Feature","properties":{"territory_id":"mg-3117702-carlos-eloi-guimaraes","name":"Carlos Elói Guimarães","municipality_id":"mg-3117702","polling_places":1,"approx":true,"official":false,"method":"voronoi-polling-places","whole_municipality":false,"approx_coords_only":false},"geometry":{"type":"MultiPolygon","coordinates":[[[[-45.10659,-21.97562],[-45.0747,-22.0096],[-45.0514,-21.978],[-44.9966,-21.9488],[-44.9979,-21.9042],[-44.995,-21.8627],[-44.9763,-21.8516],[-44.9823,-21.8322],[-45.01815,-21.82254],[-45.07573,-21.88433],[-45.083,-21.89289],[-45.08493,-21.8961],[-45.10659,-21.97562]]]]}},{"type":"Feature","properties":{"territory_id":"mg-3117702-centro","name":"Centro","municipality_id":"mg-3117702","polling_places":4,"approx":true,"official":false,"method":"voronoi-polling-places","whole_municipality":false,"approx_coords_only":false},"geometry":{"type":"MultiPolygon","coordinates":[[[[-45.10871,-21.78094],[-45.08679,-21.87915],[-45.08879,-21.88124],[-45.08977,-21.88564],[-45.08493,-21.8961],[-45.083,-21.89289],[-45.07573,-21.88433],[-45.01815,-21.82254],[-45.0257,-21.8205],[-45.0432,-21.7778],[-45.0831,-21.7725],[-45.10871,-21.78094]]]]}},{"type":"Feature","properties":{"territory_id":"mg-3117702-sao-benedito","name":"São Benedito","municipality_id":"mg-3117702","polling_places":1,"approx":true,"official":false,"method":"voronoi-polling-places","whole_municipality":false,"approx_coords_only":false},"geometry":{"type":"MultiPolygon","coordinates":[[[[-45.11973,-21.85378],[-45.08977,-21.88564],[-45.08879,-21.88124],[-45.11662,-21.84946],[-45.1166,-21.8518],[-45.11973,-21.85378]]]]}},{"type":"Feature","properties":{"territory_id":"mg-3117702-sao-francisco","name":"São Francisco","municipality_id":"mg-3117702","polling_places":1,"approx":true,"official":false,"method":"voronoi-polling-places","whole_municipality":false,"approx_coords_only":false},"geometry":{"type":"MultiPolygon","coordinates":[[[[-45.1171,-21.7837],[-45.11662,-21.84946],[-45.08879,-21.88124],[-45.08679,-21.87915],[-45.10871,-21.78094],[-45.1171,-21.7837]]]]}},{"type":"Feature","properties":{"territory_id":"mg-3117702-vale-do-sol","name":"Vale do Sol","municipality_id":"mg-3117702","polling_places":1,"approx":true,"official":false,"method":"voronoi-polling-places","whole_municipality":false,"approx_coords_only":false},"geometry":{"type":"MultiPolygon","coordinates":[[[[-45.2169,-21.9611],[-45.2004,-21.9854],[-45.1265,-21.982],[-45.1067,-21.9755],[-45.10659,-21.97562],[-45.08493,-21.8961],[-45.08977,-21.88564],[-45.11973,-21.85378],[-45.1417,-21.8677],[-45.2157,-21.9097],[-45.2169,-21.9611]]]]}}]}