{"type":"FeatureCollection","features":[{"type":"Feature","properties":{"territory_id":"mg-3117504-bandeirinha","name":"Bandeirinha","municipality_id":"mg-3117504","polling_places":1,"approx":true,"official":false,"method":"voronoi-polling-places","whole_municipality":false,"approx_coords_only":false},"geometry":{"type":"MultiPolygon","coordinates":[[[[-43.43589,-19.01781],[-43.43441,-19.03051],[-43.4292,-19.02974],[-43.42812,-19.02919],[-43.39078,-18.98054],[-43.41255,-18.97442],[-43.43589,-19.01781]]]]}},{"type":"Feature","properties":{"territory_id":"mg-3117504-barro-vermelho","name":"Barro Vermelho","municipality_id":"mg-3117504","polling_places":1,"approx":true,"official":false,"method":"voronoi-polling-places","whole_municipality":false,"approx_coords_only":false},"geometry":{"type":"MultiPolygon","coordinates":[[[[-43.48931,-19.04595],[-43.4893,-19.04597],[-43.48481,-19.04835],[-43.43589,-19.01781],[-43.41255,-18.97442],[-43.45853,-18.9546],[-43.47392,-18.97114],[-43.48931,-19.04595]]]]}},{"type":"Feature","properties":{"territory_id":"mg-3117504-bela-vista","name":"Bela Vista","municipality_id":"mg-3117504","polling_places":1,"approx":true,"official":false,"method":"voronoi-polling-places","whole_municipality":false,"approx_coords_only":false},"geometry":{"type":"MultiPolygon","coordinates":[[[[-43.42714,-19.03733],[-43.4267,-19.09648],[-43.42475,-19.09839],[-43.42475,-19.03547],[-43.42587,-19.03589],[-43.42714,-19.03733]]]]}},{"type":"Feature","properties":{"territory_id":"mg-3117504-centro","name":"Centro","municipality_id":"mg-3117504","polling_places":4,"approx":true,"official":false,"method":"voronoi-polling-places","whole_municipality":false,"approx_coords_only":false},"geometry":{"type":"MultiPolygon","coordinates":[[[[-43.4292,-19.02974],[-43.42714,-19.03733],[-43.42587,-19.03589],[-43.42475,-19.03547],[-43.42475,-19.09839],[-43.42141,-19.10165],[-43.39604,-19.10887],[-43.42313,-19.03663],[-43.42233,-19.03291],[-43.42441,-19.03255],[-43.42812,-19.02919],[-43.4292,-19.02974]]]]}},{"type":"Feature","properties":{"territory_id":"mg-3117504-distrito","name":"Distrito","municipality_id":"mg-3117504","polling_places":1,"approx":true,"official":false,"method":"voronoi-polling-places","whole_municipality":false,"approx_coords_only":false},"geometry":{"type":"MultiPolygon","coordinates":[[[[-43.6815,-18.9431],[-43.64602,-18.99791],[-43.60244,-18.95868],[-43.61656,-18.90707],[-43.6321,-18.9234],[-43.6815,-18.9431]]]]}},{"type":"Feature","properties":{"territory_id":"mg-3117504-distrito-de-brejauba","name":"Distrito de Brejaúba","municipality_id":"mg-3117504","polling_places":1,"approx":true,"official":false,"method":"voronoi-polling-places","whole_municipality":false,"approx_coords_only":false},"geometry":{"type":"MultiPolygon","coordinates":[[[[-43.20071,-19.21445],[-43.1853,-19.2177],[-43.1912,-19.2423],[-43.159,-19.252],[-43.1253,-19.2371],[-43.1179,-19.1977],[-43.13663,-19.16357],[-43.20071,-19.21445]]]]}},{"type":"Feature","properties":{"territory_id":"mg-3117504-distrito-de-corregos","name":"Distrito de Córregos","municipality_id":"mg-3117504","polling_places":1,"approx":true,"official":false,"method":"voronoi-polling-places","whole_municipality":false,"approx_coords_only":false},"geometry":{"type":"MultiPolygon","coordinates":[[[[-43.57034,-18.86721],[-43.55186,-18.90021],[-43.46247,-18.9331],[-43.44,-18.87252],[-43.4535,-18.8635],[-43.4638,-18.8104],[-43.4846,-18.8104],[-43.49469,-18.80073],[-43.57034,-18.86721]]]]}},{"type":"Feature","properties":{"territory_id":"mg-3117504-distrito-de-costa-sena","name":"Distrito de Costa Sena","municipality_id":"mg-3117504","polling_places":1,"approx":true,"official":false,"method":"voronoi-polling-places","whole_municipality":false,"approx_coords_only":false},"geometry":{"type":"MultiPolygon","coordinates":[[[[-43.72137,-18.68622],[-43.70998,-18.73693],[-43.6742,-18.7296],[-43.638,-18.74334],[-43.57093,-18.69964],[-43.6118,-18.6716],[-43.6536,-18.6657],[-43.6783,-18.6454],[-43.712,-18.64694],[-43.72137,-18.68622]]]]}},{"type":"Feature","properties":{"territory_id":"mg-3117504-distrito-de-itacolomi","name":"Distrito de Itacolomi","municipality_id":"mg-3117504","polling_places":1,"approx":true,"official":false,"method":"voronoi-polling-places","whole_municipality":false,"approx_coords_only":false},"geometry":{"type":"MultiPolygon","coordinates":[[[[-43.56388,-19.02028],[-43.48931,-19.04595],[-43.47392,-18.97114],[-43.55075,-18.97413],[-43.56388,-19.02028]]]]}},{"type":"Feature","properties":{"territory_id":"mg-3117504-distrito-de-santo-antonio-do-norte","name":"Distrito de Santo Antônio do Norte","municipality_id":"mg-3117504","polling_places":1,"approx":true,"official":false,"method":"voronoi-polling-places","whole_municipality":false,"approx_coords_only":false},"geometry":{"type":"MultiPolygon","coordinates":[[[[-43.46772,-19.05942],[-43.4267,-19.09648],[-43.42714,-19.03733],[-43.4292,-19.02974],[-43.43441,-19.03051],[-43.46772,-19.05942]]]]}},{"type":"Feature","properties":{"territory_id":"mg-3117504-distrito-de-sao-sebastiao-do-bom-sucesso","name":"Distrito de São Sebastião do Bom Sucesso","municipality_id":"mg-3117504","polling_places":1,"approx":true,"official":false,"method":"voronoi-polling-places","whole_municipality":false,"approx_coords_only":false},"geometry":{"type":"MultiPolygon","coordinates":[[[[-43.46247,-18.9331],[-43.45853,-18.9546],[-43.41255,-18.97442],[-43.39078,-18.98054],[-43.31467,-18.99433],[-43.3217,-18.9503],[-43.3516,-18.9309],[-43.3579,-18.9059],[-43.3078,-18.8678],[-43.3793,-18.8571],[-43.4273,-18.881],[-43.44,-18.87252],[-43.46247,-18.9331]]]]}},{"type":"Feature","properties":{"territory_id":"mg-3117504-jardim-bouganville","name":"Jardim Bouganville","municipality_id":"mg-3117504","polling_places":1,"approx":true,"official":false,"method":"voronoi-polling-places","whole_municipality":false,"approx_coords_only":false},"geometry":{"type":"MultiPolygon","coordinates":[[[[-43.48481,-19.04835],[-43.46772,-19.05942],[-43.43441,-19.03051],[-43.43589,-19.01781],[-43.48481,-19.04835]]]]}},{"type":"Feature","properties":{"territory_id":"mg-3117504-matozinhos","name":"Matozinhos","municipality_id":"mg-3117504","polling_places":1,"approx":true,"official":false,"method":"voronoi-polling-places","whole_municipality":false,"approx_coords_only":false},"geometry":{"type":"MultiPolygon","coordinates":[[[[-43.42812,-19.02919],[-43.42441,-19.03255],[-43.42233,-19.03291],[-43.29622,-19.03732],[-43.3118,-19.0123],[-43.31467,-18.99433],[-43.39078,-18.98054],[-43.42812,-19.02919]]]]}},{"type":"Feature","properties":{"territory_id":"mg-3117504-povoado-de-capitao-felizardo","name":"Povoado de Capitão Felizardo","municipality_id":"mg-3117504","polling_places":1,"approx":true,"official":false,"method":"voronoi-polling-places","whole_municipality":false,"approx_coords_only":false},"geometry":{"type":"MultiPolygon","coordinates":[[[[-43.82364,-18.65485],[-43.72137,-18.68622],[-43.712,-18.64694],[-43.7287,-18.6477],[-43.736,-18.6242],[-43.7657,-18.6387],[-43.8017,-18.6194],[-43.8197,-18.6534],[-43.82364,-18.65485]]]]}},{"type":"Feature","properties":{"territory_id":"mg-3117504-povoado-de-ouro-fino","name":"Povoado de Ouro Fino","municipality_id":"mg-3117504","polling_places":1,"approx":true,"official":false,"method":"voronoi-polling-places","whole_municipality":false,"approx_coords_only":false},"geometry":{"type":"MultiPolygon","coordinates":[[[[-43.6171,-18.8672],[-43.6084,-18.8985],[-43.61656,-18.90707],[-43.60244,-18.95868],[-43.55871,-18.95931],[-43.55186,-18.90021],[-43.57034,-18.86721],[-43.61541,-18.86372],[-43.6171,-18.8672]]]]}},{"type":"Feature","properties":{"territory_id":"mg-3117504-povoado-de-santo-antonio-do-cruzeiro","name":"Povoado de Santo Antônio do Cruzeiro","municipality_id":"mg-3117504","polling_places":1,"approx":true,"official":false,"method":"voronoi-polling-places","whole_municipality":false,"approx_coords_only":false},"geometry":{"type":"MultiPolygon","coordinates":[[[[-43.638,-18.74334],[-43.6123,-18.7531],[-43.6167,-18.8012],[-43.6016,-18.8354],[-43.61541,-18.86372],[-43.57034,-18.86721],[-43.49469,-18.80073],[-43.5181,-18.7783],[-43.4938,-18.7465],[-43.4914,-18.7182],[-43.564,-18.7044],[-43.57093,-18.69964],[-43.638,-18.74334]]]]}},{"type":"Feature","properties":{"territory_id":"mg-3117504-povoado-de-sao-jose-do-meloso","name":"Povoado de São José do Meloso","municipality_id":"mg-3117504","polling_places":1,"approx":true,"official":false,"method":"voronoi-polling-places","whole_municipality":false,"approx_coords_only":false},"geometry":{"type":"MultiPolygon","coordinates":[[[[-43.55871,-18.95931],[-43.55075,-18.97413],[-43.47392,-18.97114],[-43.45853,-18.9546],[-43.46247,-18.9331],[-43.55186,-18.90021],[-43.55871,-18.95931]]]]}},{"type":"Feature","properties":{"territory_id":"mg-3117504-povoado-de-socorro","name":"Povoado de Socorro","municipality_id":"mg-3117504","polling_places":1,"approx":true,"official":false,"method":"voronoi-polling-places","whole_municipality":false,"approx_coords_only":false},"geometry":{"type":"MultiPolygon","coordinates":[[[[-43.20243,-19.21409],[-43.20071,-19.21445],[-43.13663,-19.16357],[-43.1635,-19.1146],[-43.17267,-19.12663],[-43.20243,-19.21409]]]]}},{"type":"Feature","properties":{"territory_id":"mg-3117504-povoado-de-taboleiro","name":"Povoado de Taboleiro","municipality_id":"mg-3117504","polling_places":1,"approx":true,"official":false,"method":"voronoi-polling-places","whole_municipality":false,"approx_coords_only":false},"geometry":{"type":"MultiPolygon","coordinates":[[[[-43.63058,-19.06227],[-43.6223,-19.0768],[-43.6122,-19.1012],[-43.5651,-19.1213],[-43.55729,-19.14176],[-43.4893,-19.04597],[-43.48931,-19.04595],[-43.56388,-19.02028],[-43.63058,-19.06227]]]]}},{"type":"Feature","properties":{"territory_id":"mg-3117504-povoado-de-tijucal","name":"Povoado de Tijucal","municipality_id":"mg-3117504","polling_places":1,"approx":true,"official":false,"method":"voronoi-polling-places","whole_municipality":false,"approx_coords_only":false},"geometry":{"type":"MultiPolygon","coordinates":[[[[-43.54412,-19.16381],[-43.5075,-19.1683],[-43.4656,-19.1689],[-43.4563,-19.1377],[-43.3745,-19.14],[-43.35956,-19.11985],[-43.39604,-19.10887],[-43.42141,-19.10165],[-43.54412,-19.16381]]]]}},{"type":"Feature","properties":{"territory_id":"mg-3117504-povoado-de-tres-barras","name":"Povoado de Três Barras","municipality_id":"mg-3117504","polling_places":1,"approx":true,"official":false,"method":"voronoi-polling-places","whole_municipality":false,"approx_coords_only":false},"geometry":{"type":"MultiPolygon","coordinates":[[[[-43.55729,-19.14176],[-43.5491,-19.1632],[-43.54412,-19.16381],[-43.42141,-19.10165],[-43.42475,-19.09839],[-43.4267,-19.09648],[-43.46772,-19.05942],[-43.48481,-19.04835],[-43.4893,-19.04597],[-43.55729,-19.14176]]]]}},{"type":"Feature","properties":{"territory_id":"mg-3117504-vila-caetano","name":"Vila Caetano","municipality_id":"mg-3117504","polling_places":1,"approx":true,"official":false,"method":"voronoi-polling-places","whole_municipality":false,"approx_coords_only":false},"geometry":{"type":"MultiPolygon","coordinates":[[[[-43.42313,-19.03663],[-43.39604,-19.10887],[-43.35956,-19.11985],[-43.3441,-19.099],[-43.32003,-19.12361],[-43.3018,-19.0899],[-43.3215,-19.0673],[-43.2925,-19.0433],[-43.29622,-19.03732],[-43.42233,-19.03291],[-43.42313,-19.03663]]]]}},{"type":"Feature","properties":{"territory_id":"mg-3117504-zona-rural","name":"Zona Rural","municipality_id":"mg-3117504","polling_places":3,"approx":true,"official":false,"method":"voronoi-polling-places","whole_municipality":false,"approx_coords_only":false},"geometry":{"type":"MultiPolygon","coordinates":[[[[-43.8689,-18.6715],[-43.8483,-18.705],[-43.8159,-18.7891],[-43.7959,-18.7673],[-43.7391,-18.7429],[-43.70998,-18.73693],[-43.72137,-18.68622],[-43.82364,-18.65485],[-43.8689,-18.6715]]],[[[-43.64602,-18.99791],[-43.6367,-19.0123],[-43.6398,-19.0461],[-43.63058,-19.06227],[-43.56388,-19.02028],[-43.55075,-18.97413],[-43.55871,-18.95931],[-43.60244,-18.95868],[-43.64602,-18.99791]]],[[[-43.32003,-19.12361],[-43.2726,-19.1721],[-43.246,-19.2049],[-43.20243,-19.21409],[-43.17267,-19.12663],[-43.1824,-19.1394],[-43.2547,-19.1399],[-43.295,-19.0977],[-43.3018,-19.0899],[-43.32003,-19.12361]]]]}}]}