{"type":"FeatureCollection","features":[{"type":"Feature","properties":{"territory_id":"mg-3117900-centro","name":"Centro","municipality_id":"mg-3117900","polling_places":2,"approx":true,"official":false,"method":"voronoi-polling-places","whole_municipality":false,"approx_coords_only":false},"geometry":{"type":"MultiPolygon","coordinates":[[[[-46.1171,-22.2087],[-46.06891,-22.22361],[-46.04163,-22.15339],[-45.97427,-22.14757],[-45.9599,-22.1274],[-46.0006,-22.1106],[-46.0146,-22.0442],[-46.051,-22.0357],[-46.0741,-22.0901],[-46.0998,-22.1008],[-46.0972,-22.1715],[-46.1171,-22.2087]]]]}},{"type":"Feature","properties":{"territory_id":"mg-3117900-congonhal","name":"Congonhal","municipality_id":"mg-3117900","polling_places":1,"approx":true,"official":false,"method":"voronoi-polling-places","whole_municipality":false,"approx_coords_only":false},"geometry":{"type":"MultiPolygon","coordinates":[[[[-46.06891,-22.22361],[-46.0444,-22.2312],[-45.9945,-22.2075],[-45.9891,-22.1684],[-45.97427,-22.14757],[-46.04163,-22.15339],[-46.06891,-22.22361]]]]}}]}