{"type":"FeatureCollection","features":[{"type":"Feature","properties":{"territory_id":"mg-3118403-barra-do-cuiete","name":"Barra do Cuiete","municipality_id":"mg-3118403","polling_places":1,"approx":true,"official":false,"method":"voronoi-polling-places","whole_municipality":false,"approx_coords_only":false},"geometry":{"type":"MultiPolygon","coordinates":[[[[-41.6171,-19.1165],[-41.61391,-19.13077],[-41.57723,-19.15662],[-41.54146,-19.13969],[-41.46574,-19.09919],[-41.43219,-19.01755],[-41.43555,-19.0058],[-41.4862,-19.0106],[-41.5319,-19.0376],[-41.5591,-19.1009],[-41.6171,-19.1165]]]]}},{"type":"Feature","properties":{"territory_id":"mg-3118403-benevides-01","name":"Benevides 01","municipality_id":"mg-3118403","polling_places":1,"approx":true,"official":false,"method":"voronoi-polling-places","whole_municipality":false,"approx_coords_only":false},"geometry":{"type":"MultiPolygon","coordinates":[[[[-41.47357,-19.17157],[-41.47283,-19.17427],[-41.46375,-19.17698],[-41.42672,-19.15895],[-41.42791,-19.15731],[-41.47357,-19.17157]]]]}},{"type":"Feature","properties":{"territory_id":"mg-3118403-bueno","name":"Bueno","municipality_id":"mg-3118403","polling_places":1,"approx":true,"official":false,"method":"voronoi-polling-places","whole_municipality":false,"approx_coords_only":false},"geometry":{"type":"MultiPolygon","coordinates":[[[[-41.57998,-19.44837],[-41.5361,-19.4882],[-41.5102,-19.4935],[-41.4737,-19.4164],[-41.49075,-19.3762],[-41.49637,-19.37551],[-41.57998,-19.44837]]]]}},{"type":"Feature","properties":{"territory_id":"mg-3118403-centro","name":"Centro","municipality_id":"mg-3118403","polling_places":5,"approx":true,"official":false,"method":"voronoi-polling-places","whole_municipality":false,"approx_coords_only":false},"geometry":{"type":"MultiPolygon","coordinates":[[[[-41.57723,-19.15662],[-41.56466,-19.19374],[-41.56361,-19.19659],[-41.51263,-19.22365],[-41.47671,-19.18612],[-41.47054,-19.18109],[-41.46375,-19.17698],[-41.47283,-19.17427],[-41.47357,-19.17157],[-41.4771,-19.17159],[-41.54146,-19.13969],[-41.57723,-19.15662]]]]}},{"type":"Feature","properties":{"territory_id":"mg-3118403-chapada-do-bueno","name":"Chapada do Bueno","municipality_id":"mg-3118403","polling_places":1,"approx":true,"official":false,"method":"voronoi-polling-places","whole_municipality":false,"approx_coords_only":false},"geometry":{"type":"MultiPolygon","coordinates":[[[[-41.59297,-19.35185],[-41.57,-19.3442],[-41.5611,-19.3734],[-41.5725,-19.4342],[-41.586,-19.4429],[-41.57998,-19.44837],[-41.49637,-19.37551],[-41.53967,-19.32781],[-41.55581,-19.3256],[-41.59297,-19.35185]]]]}},{"type":"Feature","properties":{"territory_id":"mg-3118403-corrego-padre-angelo","name":"Córrego Padre Ângelo","municipality_id":"mg-3118403","polling_places":1,"approx":true,"official":false,"method":"voronoi-polling-places","whole_municipality":false,"approx_coords_only":false},"geometry":{"type":"MultiPolygon","coordinates":[[[[-41.7037,-19.3323],[-41.6778,-19.3801],[-41.59297,-19.35185],[-41.55581,-19.3256],[-41.58013,-19.23934],[-41.6942,-19.3194],[-41.7037,-19.3323]]]]}},{"type":"Feature","properties":{"territory_id":"mg-3118403-cuiete-velho","name":"Cuiete Velho","municipality_id":"mg-3118403","polling_places":1,"approx":true,"official":false,"method":"voronoi-polling-places","whole_municipality":false,"approx_coords_only":false},"geometry":{"type":"MultiPolygon","coordinates":[[[[-41.69563,-19.26184],[-41.56466,-19.19374],[-41.57723,-19.15662],[-41.61391,-19.13077],[-41.6114,-19.142],[-41.6339,-19.1771],[-41.69563,-19.26184]]]]}},{"type":"Feature","properties":{"territory_id":"mg-3118403-ferruginha","name":"Ferruginha","municipality_id":"mg-3118403","polling_places":1,"approx":true,"official":false,"method":"voronoi-polling-places","whole_municipality":false,"approx_coords_only":false},"geometry":{"type":"MultiPolygon","coordinates":[[[[-41.7039,-19.2732],[-41.6839,-19.3054],[-41.6942,-19.3194],[-41.58013,-19.23934],[-41.56361,-19.19659],[-41.56466,-19.19374],[-41.69563,-19.26184],[-41.7039,-19.2732]]]]}},{"type":"Feature","properties":{"territory_id":"mg-3118403-maos-dadas","name":"Mãos Dadas","municipality_id":"mg-3118403","polling_places":1,"approx":true,"official":false,"method":"voronoi-polling-places","whole_municipality":false,"approx_coords_only":false},"geometry":{"type":"MultiPolygon","coordinates":[[[[-41.51263,-19.22365],[-41.46167,-19.25932],[-41.37729,-19.27434],[-41.349,-19.2723],[-41.3681,-19.2565],[-41.35989,-19.22813],[-41.42672,-19.15895],[-41.46375,-19.17698],[-41.47054,-19.18109],[-41.47671,-19.18612],[-41.51263,-19.22365]]]]}},{"type":"Feature","properties":{"territory_id":"mg-3118403-penha-do-norte","name":"Penha do Norte","municipality_id":"mg-3118403","polling_places":1,"approx":true,"official":false,"method":"voronoi-polling-places","whole_municipality":false,"approx_coords_only":false},"geometry":{"type":"MultiPolygon","coordinates":[[[[-41.46574,-19.09919],[-41.42791,-19.15731],[-41.42672,-19.15895],[-41.35989,-19.22813],[-41.3591,-19.2254],[-41.3813,-19.197],[-41.3112,-19.167],[-41.277,-19.1226],[-41.2772,-19.12039],[-41.43219,-19.01755],[-41.46574,-19.09919]]]]}},{"type":"Feature","properties":{"territory_id":"mg-3118403-rochedo","name":"Rochedo","municipality_id":"mg-3118403","polling_places":1,"approx":true,"official":false,"method":"voronoi-polling-places","whole_municipality":false,"approx_coords_only":false},"geometry":{"type":"MultiPolygon","coordinates":[[[[-41.53967,-19.32781],[-41.49637,-19.37551],[-41.49075,-19.3762],[-41.4994,-19.3558],[-41.4376,-19.325],[-41.4197,-19.2774],[-41.37729,-19.27434],[-41.46167,-19.25932],[-41.53967,-19.32781]]]]}},{"type":"Feature","properties":{"territory_id":"mg-3118403-sao-luiz","name":"Sao Luiz","municipality_id":"mg-3118403","polling_places":1,"approx":true,"official":false,"method":"voronoi-polling-places","whole_municipality":false,"approx_coords_only":false},"geometry":{"type":"MultiPolygon","coordinates":[[[[-41.54146,-19.13969],[-41.4771,-19.17159],[-41.47357,-19.17157],[-41.42791,-19.15731],[-41.46574,-19.09919],[-41.54146,-19.13969]]]]}},{"type":"Feature","properties":{"territory_id":"mg-3118403-sao-pedro-da-agua-limpa","name":"São Pedro da Agua Limpa","municipality_id":"mg-3118403","polling_places":1,"approx":true,"official":false,"method":"voronoi-polling-places","whole_municipality":false,"approx_coords_only":false},"geometry":{"type":"MultiPolygon","coordinates":[[[[-41.43555,-19.0058],[-41.43219,-19.01755],[-41.2772,-19.12039],[-41.2808,-19.0804],[-41.2729,-19.0163],[-41.2877,-18.9822],[-41.2144,-18.9653],[-41.1811,-18.9705],[-41.1351,-18.9296],[-41.1371,-18.8906],[-41.1664,-18.8582],[-41.2148,-18.8776],[-41.2432,-18.8538],[-41.2638,-18.8665],[-41.2987,-18.9188],[-41.3215,-18.9685],[-41.3363,-18.9655],[-41.3576,-19.0225],[-41.4024,-19.0235],[-41.4345,-19.0057],[-41.43555,-19.0058]]]]}},{"type":"Feature","properties":{"territory_id":"mg-3118403-vila-joao-pinto","name":"Vila Joao Pinto","municipality_id":"mg-3118403","polling_places":1,"approx":true,"official":false,"method":"voronoi-polling-places","whole_municipality":false,"approx_coords_only":false},"geometry":{"type":"MultiPolygon","coordinates":[[[[-41.58013,-19.23934],[-41.55581,-19.3256],[-41.53967,-19.32781],[-41.46167,-19.25932],[-41.51263,-19.22365],[-41.56361,-19.19659],[-41.58013,-19.23934]]]]}}]}