{"type":"FeatureCollection","features":[{"type":"Feature","properties":{"territory_id":"mg-3118304-almeidas","name":"Almeidas","municipality_id":"mg-3118304","polling_places":1,"approx":true,"official":false,"method":"voronoi-polling-places","whole_municipality":false,"approx_coords_only":false},"geometry":{"type":"MultiPolygon","coordinates":[[[[-43.77811,-20.64269],[-43.7726,-20.64992],[-43.77223,-20.6473],[-43.77751,-20.63844],[-43.77811,-20.64269]]]]}},{"type":"Feature","properties":{"territory_id":"mg-3118304-amaro-ribeiro","name":"Amaro Ribeiro","municipality_id":"mg-3118304","polling_places":1,"approx":true,"official":false,"method":"voronoi-polling-places","whole_municipality":false,"approx_coords_only":false},"geometry":{"type":"MultiPolygon","coordinates":[[[[-43.85183,-20.7037],[-43.8266,-20.7331],[-43.82513,-20.74116],[-43.7734,-20.7171],[-43.78407,-20.70182],[-43.79872,-20.69279],[-43.81338,-20.68534],[-43.82902,-20.68637],[-43.83675,-20.68762],[-43.85183,-20.7037]]]]}},{"type":"Feature","properties":{"territory_id":"mg-3118304-angelica","name":"Angélica","municipality_id":"mg-3118304","polling_places":1,"approx":true,"official":false,"method":"voronoi-polling-places","whole_municipality":false,"approx_coords_only":false},"geometry":{"type":"MultiPolygon","coordinates":[[[[-43.78762,-20.66882],[-43.78662,-20.67111],[-43.78501,-20.67106],[-43.78054,-20.66918],[-43.78263,-20.66222],[-43.78337,-20.66254],[-43.78567,-20.66384],[-43.78762,-20.66882]]]]}},{"type":"Feature","properties":{"territory_id":"mg-3118304-barreira","name":"Barreira","municipality_id":"mg-3118304","polling_places":1,"approx":true,"official":false,"method":"voronoi-polling-places","whole_municipality":false,"approx_coords_only":false},"geometry":{"type":"MultiPolygon","coordinates":[[[[-43.83384,-20.6337],[-43.83006,-20.66295],[-43.80893,-20.65839],[-43.8063,-20.6487],[-43.81894,-20.63978],[-43.83384,-20.6337]]]]}},{"type":"Feature","properties":{"territory_id":"mg-3118304-buarque-de-macedo","name":"Buarque de Macedo","municipality_id":"mg-3118304","polling_places":1,"approx":true,"official":false,"method":"voronoi-polling-places","whole_municipality":false,"approx_coords_only":false},"geometry":{"type":"MultiPolygon","coordinates":[[[[-43.82513,-20.74116],[-43.8194,-20.7725],[-43.7728,-20.801],[-43.7601,-20.759],[-43.75195,-20.75593],[-43.76186,-20.71694],[-43.7734,-20.7171],[-43.82513,-20.74116]]]]}},{"type":"Feature","properties":{"territory_id":"mg-3118304-cachoeira","name":"Cachoeira","municipality_id":"mg-3118304","polling_places":3,"approx":true,"official":false,"method":"voronoi-polling-places","whole_municipality":false,"approx_coords_only":false},"geometry":{"type":"MultiPolygon","coordinates":[[[[-43.80893,-20.65839],[-43.80582,-20.66013],[-43.80559,-20.66037],[-43.79873,-20.65912],[-43.79725,-20.65564],[-43.79557,-20.65504],[-43.79432,-20.64725],[-43.79976,-20.6461],[-43.80025,-20.64642],[-43.8063,-20.6487],[-43.80893,-20.65839]]]]}},{"type":"Feature","properties":{"territory_id":"mg-3118304-campo-alegre","name":"Campo Alegre","municipality_id":"mg-3118304","polling_places":1,"approx":true,"official":false,"method":"voronoi-polling-places","whole_municipality":false,"approx_coords_only":false},"geometry":{"type":"MultiPolygon","coordinates":[[[[-43.79557,-20.65504],[-43.79465,-20.65649],[-43.79003,-20.65815],[-43.78894,-20.65559],[-43.7877,-20.65217],[-43.7886,-20.649],[-43.79103,-20.64652],[-43.79432,-20.64725],[-43.79557,-20.65504]]]]}},{"type":"Feature","properties":{"territory_id":"mg-3118304-carijos","name":"Carijós","municipality_id":"mg-3118304","polling_places":1,"approx":true,"official":false,"method":"voronoi-polling-places","whole_municipality":false,"approx_coords_only":false},"geometry":{"type":"MultiPolygon","coordinates":[[[[-43.8021,-20.66833],[-43.80009,-20.67703],[-43.79936,-20.677],[-43.7963,-20.67577],[-43.79452,-20.66642],[-43.79905,-20.66733],[-43.8021,-20.66833]]]]}},{"type":"Feature","properties":{"territory_id":"mg-3118304-centro","name":"Centro","municipality_id":"mg-3118304","polling_places":5,"approx":true,"official":false,"method":"voronoi-polling-places","whole_municipality":false,"approx_coords_only":false},"geometry":{"type":"MultiPolygon","coordinates":[[[[-43.79595,-20.65974],[-43.79236,-20.66287],[-43.793,-20.66529],[-43.78762,-20.66882],[-43.78567,-20.66384],[-43.78337,-20.66254],[-43.78263,-20.66222],[-43.78255,-20.66211],[-43.7827,-20.65871],[-43.78356,-20.65872],[-43.78679,-20.65894],[-43.78994,-20.65851],[-43.79003,-20.65815],[-43.79465,-20.65649],[-43.79595,-20.65974]],[[-43.79234,-20.66285],[-43.79011,-20.6595],[-43.78776,-20.6615],[-43.78577,-20.66376],[-43.79234,-20.66285]]]]}},{"type":"Feature","properties":{"territory_id":"mg-3118304-gage","name":"Gagé","municipality_id":"mg-3118304","polling_places":1,"approx":true,"official":false,"method":"voronoi-polling-places","whole_municipality":false,"approx_coords_only":false},"geometry":{"type":"MultiPolygon","coordinates":[[[[-43.84546,-20.60748],[-43.84426,-20.6111],[-43.84384,-20.61139],[-43.79418,-20.61392],[-43.77932,-20.61129],[-43.76362,-20.57866],[-43.7762,-20.56452],[-43.80296,-20.56443],[-43.8062,-20.5916],[-43.84546,-20.60748]]]]}},{"type":"Feature","properties":{"territory_id":"mg-3118304-jardim-america","name":"Jardim América","municipality_id":"mg-3118304","polling_places":1,"approx":true,"official":false,"method":"voronoi-polling-places","whole_municipality":false,"approx_coords_only":false},"geometry":{"type":"MultiPolygon","coordinates":[[[[-43.78263,-20.66222],[-43.78054,-20.66918],[-43.78044,-20.66918],[-43.77731,-20.66413],[-43.77753,-20.66265],[-43.78255,-20.66211],[-43.78263,-20.66222]]]]}},{"type":"Feature","properties":{"territory_id":"mg-3118304-jk","name":"Jk","municipality_id":"mg-3118304","polling_places":1,"approx":true,"official":false,"method":"voronoi-polling-places","whole_municipality":false,"approx_coords_only":false},"geometry":{"type":"MultiPolygon","coordinates":[[[[-43.79103,-20.64652],[-43.7886,-20.649],[-43.77952,-20.64866],[-43.77811,-20.64269],[-43.77751,-20.63844],[-43.77835,-20.6191],[-43.79103,-20.64652]]]]}},{"type":"Feature","properties":{"territory_id":"mg-3118304-joaquim-murtinho","name":"Joaquim Murtinho","municipality_id":"mg-3118304","polling_places":1,"approx":true,"official":false,"method":"voronoi-polling-places","whole_municipality":false,"approx_coords_only":false},"geometry":{"type":"MultiPolygon","coordinates":[[[[-43.80296,-20.56443],[-43.7762,-20.56452],[-43.7998,-20.538],[-43.80296,-20.56443]]]]}},{"type":"Feature","properties":{"territory_id":"mg-3118304-lima-dias-ii","name":"Lima Dias Ii","municipality_id":"mg-3118304","polling_places":1,"approx":true,"official":false,"method":"voronoi-polling-places","whole_municipality":false,"approx_coords_only":false},"geometry":{"type":"MultiPolygon","coordinates":[[[[-43.80145,-20.63888],[-43.79976,-20.6461],[-43.79432,-20.64725],[-43.79103,-20.64652],[-43.77835,-20.6191],[-43.77748,-20.61536],[-43.77932,-20.61129],[-43.79418,-20.61392],[-43.80145,-20.63888]]]]}},{"type":"Feature","properties":{"territory_id":"mg-3118304-lourdes","name":"Lourdes","municipality_id":"mg-3118304","polling_places":1,"approx":true,"official":false,"method":"voronoi-polling-places","whole_municipality":false,"approx_coords_only":false},"geometry":{"type":"MultiPolygon","coordinates":[[[[-43.79873,-20.65912],[-43.79654,-20.65991],[-43.79595,-20.65974],[-43.79465,-20.65649],[-43.79557,-20.65504],[-43.79725,-20.65564],[-43.79873,-20.65912]]]]}},{"type":"Feature","properties":{"territory_id":"mg-3118304-mato-dentro","name":"Mato Dentro","municipality_id":"mg-3118304","polling_places":1,"approx":true,"official":false,"method":"voronoi-polling-places","whole_municipality":false,"approx_coords_only":false},"geometry":{"type":"MultiPolygon","coordinates":[[[[-43.9239,-20.6588],[-43.899,-20.66788],[-43.84426,-20.6111],[-43.84546,-20.60748],[-43.8727,-20.6185],[-43.9095,-20.6036],[-43.9239,-20.6588]]]]}},{"type":"Feature","properties":{"territory_id":"mg-3118304-moinhos","name":"Moinhos","municipality_id":"mg-3118304","polling_places":2,"approx":true,"official":false,"method":"voronoi-polling-places","whole_municipality":false,"approx_coords_only":false},"geometry":{"type":"MultiPolygon","coordinates":[[[[-43.77753,-20.66265],[-43.77731,-20.66413],[-43.77193,-20.66837],[-43.77452,-20.6722],[-43.77437,-20.67358],[-43.76421,-20.68904],[-43.74957,-20.70626],[-43.68944,-20.67172],[-43.69421,-20.66987],[-43.76026,-20.66189],[-43.76414,-20.66261],[-43.77455,-20.65917],[-43.77753,-20.66265]]]]}},{"type":"Feature","properties":{"territory_id":"mg-3118304-morro-da-mina","name":"Morro da Mina","municipality_id":"mg-3118304","polling_places":2,"approx":true,"official":false,"method":"voronoi-polling-places","whole_municipality":false,"approx_coords_only":false},"geometry":{"type":"MultiPolygon","coordinates":[[[[-43.77952,-20.64866],[-43.7769,-20.65255],[-43.7768,-20.65267],[-43.77261,-20.65082],[-43.7726,-20.64992],[-43.77811,-20.64269],[-43.77952,-20.64866]]],[[[-43.77835,-20.6191],[-43.77751,-20.63844],[-43.77223,-20.6473],[-43.76178,-20.6389],[-43.75729,-20.63344],[-43.77748,-20.61536],[-43.77835,-20.6191]]]]}},{"type":"Feature","properties":{"territory_id":"mg-3118304-museu","name":"Museu","municipality_id":"mg-3118304","polling_places":2,"approx":true,"official":false,"method":"voronoi-polling-places","whole_municipality":false,"approx_coords_only":false},"geometry":{"type":"MultiPolygon","coordinates":[[[[-43.7886,-20.649],[-43.7877,-20.65217],[-43.78616,-20.65323],[-43.7822,-20.65761],[-43.77712,-20.65518],[-43.7768,-20.65267],[-43.7769,-20.65255],[-43.77952,-20.64866],[-43.7886,-20.649]]]]}},{"type":"Feature","properties":{"territory_id":"mg-3118304-paulo-vi","name":"Paulo Vi","municipality_id":"mg-3118304","polling_places":2,"approx":true,"official":false,"method":"voronoi-polling-places","whole_municipality":false,"approx_coords_only":false},"geometry":{"type":"MultiPolygon","coordinates":[[[[-43.81338,-20.68534],[-43.79872,-20.69279],[-43.78407,-20.70182],[-43.78468,-20.69893],[-43.79024,-20.68697],[-43.79553,-20.68225],[-43.79936,-20.677],[-43.80009,-20.67703],[-43.81338,-20.68534]]]]}},{"type":"Feature","properties":{"territory_id":"mg-3118304-progresso","name":"Progresso","municipality_id":"mg-3118304","polling_places":1,"approx":true,"official":false,"method":"voronoi-polling-places","whole_municipality":false,"approx_coords_only":false},"geometry":{"type":"MultiPolygon","coordinates":[[[[-43.78044,-20.66918],[-43.77452,-20.6722],[-43.77193,-20.66837],[-43.77731,-20.66413],[-43.78044,-20.66918]]]]}},{"type":"Feature","properties":{"territory_id":"mg-3118304-rancho-novo","name":"Rancho Novo","municipality_id":"mg-3118304","polling_places":1,"approx":true,"official":false,"method":"voronoi-polling-places","whole_municipality":false,"approx_coords_only":false},"geometry":{"type":"MultiPolygon","coordinates":[[[[-43.77932,-20.61129],[-43.77748,-20.61536],[-43.75729,-20.63344],[-43.69421,-20.66987],[-43.68944,-20.67172],[-43.68515,-20.67111],[-43.6788,-20.6215],[-43.7143,-20.5881],[-43.7457,-20.5988],[-43.76362,-20.57866],[-43.77932,-20.61129]]]]}},{"type":"Feature","properties":{"territory_id":"mg-3118304-rosario","name":"Rosário","municipality_id":"mg-3118304","polling_places":1,"approx":true,"official":false,"method":"voronoi-polling-places","whole_municipality":false,"approx_coords_only":false},"geometry":{"type":"MultiPolygon","coordinates":[[[[-43.79234,-20.66285],[-43.78577,-20.66376],[-43.78776,-20.6615],[-43.79011,-20.6595],[-43.79234,-20.66285]]]]}},{"type":"Feature","properties":{"territory_id":"mg-3118304-sagrado-coracao-de-jesus","name":"Sagrado Coração de Jesus","municipality_id":"mg-3118304","polling_places":1,"approx":true,"official":false,"method":"voronoi-polling-places","whole_municipality":false,"approx_coords_only":false},"geometry":{"type":"MultiPolygon","coordinates":[[[[-43.77712,-20.65518],[-43.77455,-20.65917],[-43.76414,-20.66261],[-43.76026,-20.66189],[-43.76974,-20.6515],[-43.77261,-20.65082],[-43.7768,-20.65267],[-43.77712,-20.65518]]]]}},{"type":"Feature","properties":{"territory_id":"mg-3118304-santa-efigenia","name":"Santa Efigênia","municipality_id":"mg-3118304","polling_places":2,"approx":true,"official":false,"method":"voronoi-polling-places","whole_municipality":false,"approx_coords_only":false},"geometry":{"type":"MultiPolygon","coordinates":[[[[-43.79003,-20.65815],[-43.78994,-20.65851],[-43.78679,-20.65894],[-43.78356,-20.65872],[-43.7827,-20.65871],[-43.7822,-20.65761],[-43.78616,-20.65323],[-43.7877,-20.65217],[-43.78894,-20.65559],[-43.79003,-20.65815]]]]}},{"type":"Feature","properties":{"territory_id":"mg-3118304-santa-matilde","name":"Santa Matilde","municipality_id":"mg-3118304","polling_places":3,"approx":true,"official":false,"method":"voronoi-polling-places","whole_municipality":false,"approx_coords_only":false},"geometry":{"type":"MultiPolygon","coordinates":[[[[-43.79936,-20.677],[-43.79553,-20.68225],[-43.79024,-20.68697],[-43.78468,-20.69893],[-43.78391,-20.68025],[-43.78526,-20.67911],[-43.78855,-20.67403],[-43.79322,-20.67575],[-43.7963,-20.67577],[-43.79936,-20.677]]]]}},{"type":"Feature","properties":{"territory_id":"mg-3118304-santo-antonio","name":"Santo Antônio","municipality_id":"mg-3118304","polling_places":1,"approx":true,"official":false,"method":"voronoi-polling-places","whole_municipality":false,"approx_coords_only":false},"geometry":{"type":"MultiPolygon","coordinates":[[[[-43.7827,-20.65871],[-43.78255,-20.66211],[-43.77753,-20.66265],[-43.77455,-20.65917],[-43.77712,-20.65518],[-43.7822,-20.65761],[-43.7827,-20.65871]]]]}},{"type":"Feature","properties":{"territory_id":"mg-3118304-sao-benedito","name":"São Benedito","municipality_id":"mg-3118304","polling_places":1,"approx":true,"official":false,"method":"voronoi-polling-places","whole_municipality":false,"approx_coords_only":false},"geometry":{"type":"MultiPolygon","coordinates":[[[[-43.81894,-20.63978],[-43.8063,-20.6487],[-43.80025,-20.64642],[-43.79976,-20.6461],[-43.80145,-20.63888],[-43.81894,-20.63978]]]]}},{"type":"Feature","properties":{"territory_id":"mg-3118304-sao-dimas","name":"São Dimas","municipality_id":"mg-3118304","polling_places":2,"approx":true,"official":false,"method":"voronoi-polling-places","whole_municipality":false,"approx_coords_only":false},"geometry":{"type":"MultiPolygon","coordinates":[[[[-43.83675,-20.68762],[-43.82902,-20.68637],[-43.81338,-20.68534],[-43.80009,-20.67703],[-43.8021,-20.66833],[-43.80402,-20.66589],[-43.80454,-20.66236],[-43.80559,-20.66037],[-43.80582,-20.66013],[-43.80893,-20.65839],[-43.83006,-20.66295],[-43.83675,-20.68762]]]]}},{"type":"Feature","properties":{"territory_id":"mg-3118304-sao-goncalo","name":"São Gonçalo","municipality_id":"mg-3118304","polling_places":1,"approx":true,"official":false,"method":"voronoi-polling-places","whole_municipality":false,"approx_coords_only":false},"geometry":{"type":"MultiPolygon","coordinates":[[[[-43.899,-20.66788],[-43.8751,-20.6766],[-43.85183,-20.7037],[-43.83675,-20.68762],[-43.83006,-20.66295],[-43.83384,-20.6337],[-43.84384,-20.61139],[-43.84426,-20.6111],[-43.899,-20.66788]]]]}},{"type":"Feature","properties":{"territory_id":"mg-3118304-sao-joao","name":"São João","municipality_id":"mg-3118304","polling_places":5,"approx":true,"official":false,"method":"voronoi-polling-places","whole_municipality":false,"approx_coords_only":false},"geometry":{"type":"MultiPolygon","coordinates":[[[[-43.78855,-20.67403],[-43.78526,-20.67911],[-43.78391,-20.68025],[-43.78468,-20.69893],[-43.78407,-20.70182],[-43.7734,-20.7171],[-43.76186,-20.71694],[-43.74957,-20.70626],[-43.76421,-20.68904],[-43.77437,-20.67358],[-43.77452,-20.6722],[-43.78044,-20.66918],[-43.78054,-20.66918],[-43.78501,-20.67106],[-43.78662,-20.67111],[-43.78855,-20.67403]]]]}},{"type":"Feature","properties":{"territory_id":"mg-3118304-sao-sebastiao","name":"São Sebastião","municipality_id":"mg-3118304","polling_places":3,"approx":true,"official":false,"method":"voronoi-polling-places","whole_municipality":false,"approx_coords_only":false},"geometry":{"type":"MultiPolygon","coordinates":[[[[-43.80559,-20.66037],[-43.80454,-20.66236],[-43.80402,-20.66589],[-43.8021,-20.66833],[-43.79905,-20.66733],[-43.79452,-20.66642],[-43.79397,-20.66572],[-43.79791,-20.66317],[-43.79654,-20.65991],[-43.79873,-20.65912],[-43.80559,-20.66037]]]]}},{"type":"Feature","properties":{"territory_id":"mg-3118304-sao-vicente","name":"São Vicente","municipality_id":"mg-3118304","polling_places":1,"approx":true,"official":false,"method":"voronoi-polling-places","whole_municipality":false,"approx_coords_only":false},"geometry":{"type":"MultiPolygon","coordinates":[[[[-43.76186,-20.71694],[-43.75195,-20.75593],[-43.7182,-20.7432],[-43.6913,-20.7191],[-43.68515,-20.67111],[-43.68944,-20.67172],[-43.74957,-20.70626],[-43.76186,-20.71694]]]]}},{"type":"Feature","properties":{"territory_id":"mg-3118304-satelite","name":"Satélite","municipality_id":"mg-3118304","polling_places":1,"approx":true,"official":false,"method":"voronoi-polling-places","whole_municipality":false,"approx_coords_only":false},"geometry":{"type":"MultiPolygon","coordinates":[[[[-43.84384,-20.61139],[-43.83384,-20.6337],[-43.81894,-20.63978],[-43.80145,-20.63888],[-43.79418,-20.61392],[-43.84384,-20.61139]]]]}},{"type":"Feature","properties":{"territory_id":"mg-3118304-siderurgico","name":"Siderúrgico","municipality_id":"mg-3118304","polling_places":1,"approx":true,"official":false,"method":"voronoi-polling-places","whole_municipality":false,"approx_coords_only":false},"geometry":{"type":"MultiPolygon","coordinates":[[[[-43.79791,-20.66317],[-43.79397,-20.66572],[-43.793,-20.66529],[-43.79236,-20.66287],[-43.79595,-20.65974],[-43.79654,-20.65991],[-43.79791,-20.66317]]]]}},{"type":"Feature","properties":{"territory_id":"mg-3118304-tiete","name":"Tietê","municipality_id":"mg-3118304","polling_places":1,"approx":true,"official":false,"method":"voronoi-polling-places","whole_municipality":false,"approx_coords_only":false},"geometry":{"type":"MultiPolygon","coordinates":[[[[-43.76974,-20.6515],[-43.76026,-20.66189],[-43.69421,-20.66987],[-43.75729,-20.63344],[-43.76178,-20.6389],[-43.76974,-20.6515]]]]}},{"type":"Feature","properties":{"territory_id":"mg-3118304-triangulo","name":"Triângulo","municipality_id":"mg-3118304","polling_places":1,"approx":true,"official":false,"method":"voronoi-polling-places","whole_municipality":false,"approx_coords_only":false},"geometry":{"type":"MultiPolygon","coordinates":[[[[-43.7963,-20.67577],[-43.79322,-20.67575],[-43.78855,-20.67403],[-43.78662,-20.67111],[-43.78762,-20.66882],[-43.793,-20.66529],[-43.79397,-20.66572],[-43.79452,-20.66642],[-43.7963,-20.67577]]]]}},{"type":"Feature","properties":{"territory_id":"mg-3118304-vila-resende","name":"Vila Resende","municipality_id":"mg-3118304","polling_places":1,"approx":true,"official":false,"method":"voronoi-polling-places","whole_municipality":false,"approx_coords_only":false},"geometry":{"type":"MultiPolygon","coordinates":[[[[-43.77261,-20.65082],[-43.76974,-20.6515],[-43.76178,-20.6389],[-43.77223,-20.6473],[-43.7726,-20.64992],[-43.77261,-20.65082]]]]}}]}