{"type":"FeatureCollection","features":[{"type":"Feature","properties":{"territory_id":"mg-3118205-centro","name":"Centro","municipality_id":"mg-3118205","polling_places":2,"approx":true,"official":false,"method":"voronoi-polling-places","whole_municipality":false,"approx_coords_only":false},"geometry":{"type":"MultiPolygon","coordinates":[[[[-47.68357,-19.99704],[-47.6761,-20.0019],[-47.6397,-20.0472],[-47.5947,-20.0259],[-47.5838,-19.9967],[-47.5492,-19.9938],[-47.4896,-19.9693],[-47.5051,-19.9193],[-47.5464,-19.8937],[-47.54514,-19.86541],[-47.56136,-19.88109],[-47.61645,-19.93335],[-47.68357,-19.99704]]]]}},{"type":"Feature","properties":{"territory_id":"mg-3118205-distrito-de-guaxima","name":"Distrito de Guaxima","municipality_id":"mg-3118205","polling_places":1,"approx":true,"official":false,"method":"voronoi-polling-places","whole_municipality":false,"approx_coords_only":true},"geometry":{"type":"MultiPolygon","coordinates":[[[[-47.61645,-19.93335],[-47.56136,-19.88109],[-47.54514,-19.86541],[-47.5438,-19.8354],[-47.5242,-19.7759],[-47.5707,-19.7621],[-47.6038,-19.6698],[-47.61645,-19.67402],[-47.61645,-19.93335]]]]}},{"type":"Feature","properties":{"territory_id":"mg-3118205-distrito-de-jubai","name":"Distrito de Jubai","municipality_id":"mg-3118205","polling_places":1,"approx":true,"official":false,"method":"voronoi-polling-places","whole_municipality":false,"approx_coords_only":true},"geometry":{"type":"MultiPolygon","coordinates":[[[[-47.7626,-19.986],[-47.7127,-19.9781],[-47.68357,-19.99704],[-47.61645,-19.93335],[-47.61645,-19.67402],[-47.6374,-19.681],[-47.6519,-19.7571],[-47.6936,-19.8171],[-47.686,-19.8568],[-47.7575,-19.9032],[-47.7503,-19.9484],[-47.7626,-19.986]]]]}}]}