{"type":"FeatureCollection","features":[{"type":"Feature","properties":{"territory_id":"mg-3118106-centro","name":"Centro","municipality_id":"mg-3118106","polling_places":2,"approx":true,"official":false,"method":"voronoi-polling-places","whole_municipality":false,"approx_coords_only":false},"geometry":{"type":"MultiPolygon","coordinates":[[[[-43.7959,-18.7673],[-43.76901,-18.82631],[-43.67009,-18.83359],[-43.67683,-18.81083],[-43.65798,-18.73576],[-43.6742,-18.7296],[-43.7391,-18.7429],[-43.7959,-18.7673]]]]}},{"type":"Feature","properties":{"territory_id":"mg-3118106-povoado-de-bom-jardim","name":"Povoado de Bom Jardim","municipality_id":"mg-3118106","polling_places":1,"approx":true,"official":false,"method":"voronoi-polling-places","whole_municipality":false,"approx_coords_only":false},"geometry":{"type":"MultiPolygon","coordinates":[[[[-43.67683,-18.81083],[-43.67009,-18.83359],[-43.60652,-18.84549],[-43.6016,-18.8354],[-43.6167,-18.8012],[-43.6123,-18.7531],[-43.65798,-18.73576],[-43.67683,-18.81083]]]]}},{"type":"Feature","properties":{"territory_id":"mg-3118106-povoado-de-santa-cruz-de-alves","name":"Povoado de Santa Cruz de Alves","municipality_id":"mg-3118106","polling_places":1,"approx":true,"official":false,"method":"voronoi-polling-places","whole_municipality":false,"approx_coords_only":false},"geometry":{"type":"MultiPolygon","coordinates":[[[[-43.76901,-18.82631],[-43.7461,-18.8766],[-43.7183,-18.9594],[-43.7384,-19.0183],[-43.6591,-19.0311],[-43.6223,-19.0768],[-43.6398,-19.0461],[-43.6367,-19.0123],[-43.6815,-18.9431],[-43.6321,-18.9234],[-43.6084,-18.8985],[-43.6171,-18.8672],[-43.60652,-18.84549],[-43.67009,-18.83359],[-43.76901,-18.82631]]]]}}]}