{"type":"FeatureCollection","features":[{"type":"Feature","properties":{"territory_id":"mg-3118700-centro","name":"Centro","municipality_id":"mg-3118700","polling_places":3,"approx":false,"official":true,"method":"official-ibge-cd2022","whole_municipality":false,"approx_coords_only":false,"official_name":"Centro","official_code":"3118700003","match":"direct"},"geometry":{"type":"MultiPolygon","coordinates":[[[[-45.44505,-21.18805],[-45.44513,-21.18801],[-45.44433,-21.18693],[-45.44422,-21.18704],[-45.44417,-21.18693],[-45.44433,-21.186],[-45.44428,-21.18563],[-45.44384,-21.18475],[-45.44372,-21.18469],[-45.44344,-21.18461],[-45.44293,-21.18458],[-45.44319,-21.1834],[-45.44342,-21.18296],[-45.44307,-21.18284],[-45.44293,-21.18302],[-45.4427,-21.18355],[-45.44234,-21.18371],[-45.44188,-21.18382],[-45.44163,-21.1838],[-45.44078,-21.18401],[-45.44058,-21.18408],[-45.44045,-21.18421],[-45.44028,-21.18428],[-45.43994,-21.18452],[-45.4398,-21.18457],[-45.4397,-21.18466],[-45.43932,-21.18481],[-45.43914,-21.18483],[-45.43804,-21.18511],[-45.43782,-21.18513],[-45.43728,-21.18523],[-45.43713,-21.18546],[-45.43684,-21.18585],[-45.43457,-21.18843],[-45.43272,-21.18953],[-45.43264,-21.18944],[-45.43147,-21.1879],[-45.4312,-21.18806],[-45.43242,-21.18958],[-45.43258,-21.18982],[-45.43324,-21.19058],[-45.43335,-21.19058],[-45.43475,-21.19016],[-45.4349,-21.19016],[-45.43491,-21.18999],[-45.43518,-21.19002],[-45.43518,-21.18995],[-45.43528,-21.19001],[-45.43641,-21.18998],[-45.43664,-21.19003],[-45.43764,-21.19054],[-45.43789,-21.19061],[-45.43812,-21.19077],[-45.43815,-21.19075],[-45.43866,-21.19149],[-45.43784,-21.19181],[-45.43761,-21.19198],[-45.43704,-21.19236],[-45.43571,-21.19285],[-45.43604,-21.19333],[-45.43612,-21.19349],[-45.43626,-21.19381],[-45.43633,-21.19417],[-45.43634,-21.19436],[-45.43646,-21.19436],[-45.4365,-21.19439],[-45.43653,-21.19445],[-45.43656,-21.19462],[-45.43661,-21.19468],[-45.43681,-21.1947],[-45.43694,-21.19466],[-45.4371,-21.19471],[-45.43723,-21.19471],[-45.43752,-21.19468],[-45.43757,-21.19492],[-45.43762,-21.19524],[-45.4377,-21.19599],[-45.43842,-21.19766],[-45.43853,-21.19736],[-45.43921,-21.19608],[-45.44,-21.19473],[-45.44038,-21.19422],[-45.44217,-21.19237],[-45.44336,-21.19141],[-45.44387,-21.19089],[-45.44415,-21.1907],[-45.44448,-21.19026],[-45.44468,-21.18993],[-45.44516,-21.18846],[-45.44524,-21.1883],[-45.44507,-21.18806],[-45.44505,-21.18805]]]]}},{"type":"Feature","properties":{"territory_id":"mg-3118700-distrito-de-frei-eustaquio","name":"Distrito de Frei Eustáquio","municipality_id":"mg-3118700","polling_places":1,"approx":true,"official":false,"method":"voronoi-polling-places","whole_municipality":false,"approx_coords_only":false},"geometry":{"type":"MultiPolygon","coordinates":[[[[-45.5273,-21.1928],[-45.5172,-21.2187],[-45.4188,-21.2529],[-45.3929,-21.2914],[-45.3855,-21.2469],[-45.3489,-21.189],[-45.3115,-21.1779],[-45.3392,-21.1295],[-45.3421,-21.0687],[-45.3425,-21.0688],[-45.3944,-21.0778],[-45.4333,-21.091],[-45.4502,-21.1426],[-45.5179,-21.1226],[-45.5273,-21.1928]],[[-45.44993,-21.19011],[-45.44704,-21.18952],[-45.4459,-21.18761],[-45.44589,-21.18762],[-45.44512,-21.18801],[-45.44433,-21.18693],[-45.44422,-21.18704],[-45.44417,-21.18693],[-45.44433,-21.186],[-45.44428,-21.18563],[-45.44384,-21.18475],[-45.44372,-21.18469],[-45.44344,-21.18461],[-45.44293,-21.18458],[-45.44319,-21.1834],[-45.44342,-21.18296],[-45.44307,-21.18284],[-45.44293,-21.18302],[-45.4427,-21.18355],[-45.44234,-21.18371],[-45.44188,-21.18382],[-45.44163,-21.1838],[-45.44078,-21.18401],[-45.44058,-21.18408],[-45.44045,-21.18421],[-45.44028,-21.18428],[-45.43994,-21.18452],[-45.4398,-21.18457],[-45.4397,-21.18466],[-45.43932,-21.18481],[-45.43914,-21.18483],[-45.43804,-21.18511],[-45.43782,-21.18513],[-45.43728,-21.18523],[-45.43713,-21.18546],[-45.43684,-21.18585],[-45.43457,-21.18843],[-45.43272,-21.18953],[-45.43264,-21.18944],[-45.43147,-21.1879],[-45.4312,-21.18806],[-45.43242,-21.18958],[-45.43258,-21.18982],[-45.43324,-21.19058],[-45.43335,-21.19058],[-45.43475,-21.19016],[-45.4349,-21.19016],[-45.43491,-21.18999],[-45.43518,-21.19002],[-45.43518,-21.18995],[-45.43528,-21.19001],[-45.43641,-21.18998],[-45.43664,-21.19003],[-45.43764,-21.19054],[-45.43789,-21.19061],[-45.43812,-21.19077],[-45.43815,-21.19075],[-45.43866,-21.19149],[-45.43784,-21.19181],[-45.43761,-21.19198],[-45.43704,-21.19236],[-45.43571,-21.19285],[-45.43604,-21.19333],[-45.43612,-21.19349],[-45.43626,-21.19381],[-45.43633,-21.19417],[-45.43634,-21.19436],[-45.43646,-21.19436],[-45.4365,-21.19439],[-45.43653,-21.19445],[-45.43656,-21.19462],[-45.43661,-21.19468],[-45.43681,-21.1947],[-45.43694,-21.19466],[-45.4371,-21.19471],[-45.43723,-21.19471],[-45.43752,-21.19468],[-45.43757,-21.19492],[-45.43762,-21.19524],[-45.4377,-21.19599],[-45.43842,-21.19766],[-45.43853,-21.19736],[-45.43921,-21.19608],[-45.44,-21.19473],[-45.44038,-21.19422],[-45.44217,-21.19237],[-45.44336,-21.19141],[-45.44387,-21.19089],[-45.44392,-21.19093],[-45.44395,-21.19102],[-45.44404,-21.19112],[-45.44429,-21.19115],[-45.44436,-21.19125],[-45.44451,-21.19136],[-45.44478,-21.19143],[-45.44502,-21.19162],[-45.44525,-21.19176],[-45.44543,-21.19182],[-45.44549,-21.1919],[-45.44566,-21.19198],[-45.44571,-21.19209],[-45.44583,-21.19222],[-45.44598,-21.19226],[-45.44612,-21.19236],[-45.44617,-21.19242],[-45.4462,-21.19254],[-45.44631,-21.19264],[-45.44633,-21.19273],[-45.44651,-21.1929],[-45.44661,-21.19312],[-45.44675,-21.19319],[-45.44681,-21.19335],[-45.44709,-21.19358],[-45.44732,-21.19365],[-45.44778,-21.19366],[-45.44788,-21.19359],[-45.44828,-21.19357],[-45.44849,-21.19353],[-45.44866,-21.19344],[-45.44886,-21.1933],[-45.44913,-21.19321],[-45.449,-21.19277],[-45.44991,-21.19035],[-45.44993,-21.19011]]]]}},{"type":"Feature","properties":{"territory_id":"mg-3118700-lajinha","name":"Lajinha","municipality_id":"mg-3118700","polling_places":1,"approx":false,"official":true,"method":"official-ibge-cd2022","whole_municipality":false,"approx_coords_only":false,"official_name":"Lajinha","official_code":"3118700007","match":"direct"},"geometry":{"type":"MultiPolygon","coordinates":[[[[-45.44589,-21.18762],[-45.44505,-21.18805],[-45.44524,-21.1883],[-45.44516,-21.18846],[-45.44468,-21.18993],[-45.44448,-21.19026],[-45.44415,-21.1907],[-45.44387,-21.19089],[-45.44392,-21.19093],[-45.44395,-21.19102],[-45.44404,-21.19112],[-45.44429,-21.19115],[-45.44436,-21.19125],[-45.44451,-21.19136],[-45.44478,-21.19143],[-45.44502,-21.19162],[-45.44525,-21.19176],[-45.44543,-21.19182],[-45.44549,-21.1919],[-45.44566,-21.19198],[-45.44571,-21.19209],[-45.44583,-21.19222],[-45.44598,-21.19226],[-45.44612,-21.19236],[-45.44617,-21.19242],[-45.4462,-21.19254],[-45.44631,-21.19264],[-45.44633,-21.19273],[-45.44651,-21.1929],[-45.44661,-21.19312],[-45.44675,-21.19319],[-45.44681,-21.19335],[-45.44709,-21.19358],[-45.44732,-21.19365],[-45.44778,-21.19366],[-45.44788,-21.19359],[-45.44828,-21.19357],[-45.44849,-21.19353],[-45.44866,-21.19344],[-45.44886,-21.1933],[-45.44913,-21.19321],[-45.449,-21.19277],[-45.44991,-21.19035],[-45.44993,-21.19011],[-45.44704,-21.18952],[-45.4459,-21.18761],[-45.44589,-21.18762]]]]}}]}