{"type":"FeatureCollection","features":[{"type":"Feature","properties":{"territory_id":"mg-3118908-centro","name":"Centro","municipality_id":"mg-3118908","polling_places":3,"approx":true,"official":false,"method":"voronoi-polling-places","whole_municipality":false,"approx_coords_only":false},"geometry":{"type":"MultiPolygon","coordinates":[[[[-44.4093,-19.13],[-44.3677,-19.2299],[-44.3267,-19.2221],[-44.2978,-19.2428],[-44.2969,-19.215],[-44.25406,-19.17543],[-44.25836,-19.15459],[-44.26413,-19.12708],[-44.26618,-19.1144],[-44.32119,-19.12435],[-44.35246,-19.0726],[-44.3725,-19.0737],[-44.4093,-19.13]]]]}},{"type":"Feature","properties":{"territory_id":"mg-3118908-lagoa-bonita","name":"Lagoa Bonita","municipality_id":"mg-3118908","polling_places":2,"approx":true,"official":false,"method":"voronoi-polling-places","whole_municipality":false,"approx_coords_only":false},"geometry":{"type":"MultiPolygon","coordinates":[[[[-44.27864,-19.01484],[-44.26618,-19.1144],[-44.26413,-19.12708],[-44.25836,-19.15459],[-44.25406,-19.17543],[-44.2419,-19.1642],[-44.2049,-19.174],[-44.1808,-19.1611],[-44.1607,-19.2268],[-44.1383,-19.2435],[-44.0965,-19.2152],[-44.0927,-19.1767],[-44.055,-19.1567],[-44.0264,-19.1042],[-44.0412,-19.079],[-44.074,-19.012],[-44.0973,-18.9455],[-44.1205,-18.9455],[-44.1539,-18.9576],[-44.2172,-18.9518],[-44.2646,-18.9836],[-44.273,-19.0123],[-44.27864,-19.01484]]]]}},{"type":"Feature","properties":{"territory_id":"mg-3118908-zona-rural","name":"Zona Rural","municipality_id":"mg-3118908","polling_places":2,"approx":true,"official":false,"method":"voronoi-polling-places","whole_municipality":false,"approx_coords_only":false},"geometry":{"type":"MultiPolygon","coordinates":[[[[-44.35246,-19.0726],[-44.32119,-19.12435],[-44.26618,-19.1144],[-44.27864,-19.01484],[-44.3052,-19.0268],[-44.3434,-19.0721],[-44.35246,-19.0726]]]]}}]}