{"type":"FeatureCollection","features":[{"type":"Feature","properties":{"territory_id":"mg-3118809-alvacao","name":"Alvação","municipality_id":"mg-3118809","polling_places":1,"approx":true,"official":false,"method":"voronoi-polling-places","whole_municipality":false,"approx_coords_only":false},"geometry":{"type":"MultiPolygon","coordinates":[[[[-44.33682,-16.35472],[-44.33095,-16.41006],[-44.32065,-16.41927],[-44.30907,-16.41271],[-44.28435,-16.38927],[-44.3093,-16.3613],[-44.327,-16.3497],[-44.33682,-16.35472]]]]}},{"type":"Feature","properties":{"territory_id":"mg-3118809-canabrava","name":"Canabrava","municipality_id":"mg-3118809","polling_places":1,"approx":true,"official":false,"method":"voronoi-polling-places","whole_municipality":false,"approx_coords_only":false},"geometry":{"type":"MultiPolygon","coordinates":[[[[-44.46334,-16.67897],[-44.36161,-16.67889],[-44.34267,-16.67404],[-44.29506,-16.6328],[-44.29907,-16.62884],[-44.3702,-16.59065],[-44.43312,-16.61478],[-44.4385,-16.6247],[-44.4629,-16.62623],[-44.46334,-16.67897]]]]}},{"type":"Feature","properties":{"territory_id":"mg-3118809-centro","name":"Centro","municipality_id":"mg-3118809","polling_places":4,"approx":true,"official":false,"method":"voronoi-polling-places","whole_municipality":false,"approx_coords_only":false},"geometry":{"type":"MultiPolygon","coordinates":[[[[-44.46513,-16.71665],[-44.46013,-16.72589],[-44.42522,-16.79418],[-44.41761,-16.8202],[-44.3815,-16.7876],[-44.2945,-16.766],[-44.3008,-16.709],[-44.3147,-16.6889],[-44.31103,-16.68356],[-44.38738,-16.75033],[-44.35248,-16.68692],[-44.34267,-16.67404],[-44.36161,-16.67889],[-44.46334,-16.67897],[-44.46513,-16.71665]]],[[[-44.28165,-16.65786],[-44.26709,-16.65732],[-44.27361,-16.65083],[-44.28165,-16.65786]]]]}},{"type":"Feature","properties":{"territory_id":"mg-3118809-renovacao","name":"Renovação","municipality_id":"mg-3118809","polling_places":1,"approx":true,"official":false,"method":"voronoi-polling-places","whole_municipality":false,"approx_coords_only":false},"geometry":{"type":"MultiPolygon","coordinates":[[[[-44.38738,-16.75033],[-44.31103,-16.68356],[-44.2937,-16.6583],[-44.28165,-16.65786],[-44.27361,-16.65083],[-44.27816,-16.64451],[-44.29506,-16.6328],[-44.34267,-16.67404],[-44.35248,-16.68692],[-44.38738,-16.75033]]]]}},{"type":"Feature","properties":{"territory_id":"mg-3118809-zona-rural","name":"Zona Rural","municipality_id":"mg-3118809","polling_places":26,"approx":true,"official":false,"method":"voronoi-polling-places","whole_municipality":false,"approx_coords_only":false},"geometry":{"type":"MultiPolygon","coordinates":[[[[-44.8538,-16.6984],[-44.8032,-16.6861],[-44.7848,-16.7327],[-44.7158,-16.6779],[-44.6743,-16.6804],[-44.6735,-16.74],[-44.6851,-16.7964],[-44.6347,-16.7762],[-44.6134,-16.814],[-44.6285,-16.835],[-44.6083,-16.8806],[-44.5667,-16.8582],[-44.4288,-16.8303],[-44.41761,-16.8202],[-44.42522,-16.79418],[-44.46013,-16.72589],[-44.46513,-16.71665],[-44.46334,-16.67897],[-44.4629,-16.62623],[-44.4847,-16.6276],[-44.5162,-16.6631],[-44.5868,-16.636],[-44.5879,-16.6216],[-44.6539,-16.5795],[-44.6778,-16.5455],[-44.7128,-16.5645],[-44.7871,-16.6377],[-44.8112,-16.6491],[-44.8538,-16.6984]]],[[[-44.4719,-16.4408],[-44.4262,-16.4718],[-44.4342,-16.5241],[-44.4082,-16.5689],[-44.43312,-16.61478],[-44.3702,-16.59065],[-44.29907,-16.62884],[-44.29506,-16.6328],[-44.27816,-16.64451],[-44.27361,-16.65083],[-44.26709,-16.65732],[-44.2475,-16.6566],[-44.2167,-16.6272],[-44.2145,-16.6903],[-44.1708,-16.7221],[-44.146,-16.7262],[-44.1266,-16.6711],[-44.1069,-16.6438],[-44.1083,-16.611],[-44.0531,-16.6182],[-44.0233,-16.5929],[-44.0048,-16.5491],[-43.9695,-16.515],[-43.979,-16.4717],[-44.0186,-16.4469],[-44.0652,-16.4905],[-44.1012,-16.4661],[-44.1332,-16.4606],[-44.1448,-16.4386],[-44.182,-16.4208],[-44.2109,-16.3905],[-44.2829,-16.3909],[-44.28435,-16.38927],[-44.30907,-16.41271],[-44.32065,-16.41927],[-44.33095,-16.41006],[-44.33682,-16.35472],[-44.4443,-16.4096],[-44.4719,-16.4408]]]]}}]}