{"type":"FeatureCollection","features":[{"type":"Feature","properties":{"territory_id":"mg-3118007-alto-maranhao","name":"Alto Maranhão","municipality_id":"mg-3118007","polling_places":1,"approx":true,"official":false,"method":"voronoi-polling-places","whole_municipality":false,"approx_coords_only":false},"geometry":{"type":"MultiPolygon","coordinates":[[[[-43.90985,-20.60236],[-43.9095,-20.6036],[-43.8727,-20.6185],[-43.8454,-20.60746],[-43.83549,-20.57615],[-43.83859,-20.5454],[-43.85061,-20.537],[-43.85715,-20.53616],[-43.87958,-20.53676],[-43.90985,-20.60236]]]]}},{"type":"Feature","properties":{"territory_id":"mg-3118007-alvorada","name":"Alvorada","municipality_id":"mg-3118007","polling_places":1,"approx":true,"official":false,"method":"voronoi-polling-places","whole_municipality":false,"approx_coords_only":false},"geometry":{"type":"MultiPolygon","coordinates":[[[[-43.84967,-20.49828],[-43.84271,-20.5072],[-43.8379,-20.51092],[-43.8365,-20.51007],[-43.81353,-20.49102],[-43.8051,-20.47236],[-43.83523,-20.47199],[-43.84633,-20.4854],[-43.84967,-20.49828]]]]}},{"type":"Feature","properties":{"territory_id":"mg-3118007-basilica","name":"Basilica","municipality_id":"mg-3118007","polling_places":1,"approx":true,"official":false,"method":"voronoi-polling-places","whole_municipality":false,"approx_coords_only":false},"geometry":{"type":"MultiPolygon","coordinates":[[[[-43.88169,-20.53254],[-43.87958,-20.53676],[-43.85715,-20.53616],[-43.85582,-20.51175],[-43.85928,-20.50745],[-43.86661,-20.50966],[-43.86835,-20.51223],[-43.88169,-20.53254]]]]}},{"type":"Feature","properties":{"territory_id":"mg-3118007-boa-vista","name":"Boa Vista","municipality_id":"mg-3118007","polling_places":1,"approx":true,"official":false,"method":"voronoi-polling-places","whole_municipality":false,"approx_coords_only":false},"geometry":{"type":"MultiPolygon","coordinates":[[[[-43.85715,-20.53616],[-43.85061,-20.537],[-43.84031,-20.5149],[-43.85352,-20.50872],[-43.85582,-20.51175],[-43.85715,-20.53616]]]]}},{"type":"Feature","properties":{"territory_id":"mg-3118007-campinho","name":"Campinho","municipality_id":"mg-3118007","polling_places":1,"approx":true,"official":false,"method":"voronoi-polling-places","whole_municipality":false,"approx_coords_only":false},"geometry":{"type":"MultiPolygon","coordinates":[[[[-43.8843,-20.45052],[-43.86344,-20.49165],[-43.86124,-20.49195],[-43.84633,-20.4854],[-43.83523,-20.47199],[-43.8843,-20.45052]]]]}},{"type":"Feature","properties":{"territory_id":"mg-3118007-centro","name":"Centro","municipality_id":"mg-3118007","polling_places":3,"approx":true,"official":false,"method":"voronoi-polling-places","whole_municipality":false,"approx_coords_only":false},"geometry":{"type":"MultiPolygon","coordinates":[[[[-43.86661,-20.50966],[-43.85928,-20.50745],[-43.85756,-20.50393],[-43.85776,-20.50378],[-43.85871,-20.5008],[-43.86017,-20.49888],[-43.86213,-20.50062],[-43.86229,-20.50064],[-43.86573,-20.5041],[-43.86568,-20.50443],[-43.86661,-20.50966]]]]}},{"type":"Feature","properties":{"territory_id":"mg-3118007-consolacao","name":"Consolação","municipality_id":"mg-3118007","polling_places":1,"approx":true,"official":false,"method":"voronoi-polling-places","whole_municipality":false,"approx_coords_only":false},"geometry":{"type":"MultiPolygon","coordinates":[[[[-43.92682,-20.43924],[-43.9181,-20.48972],[-43.90892,-20.49795],[-43.87145,-20.49697],[-43.86989,-20.4969],[-43.86666,-20.49478],[-43.86344,-20.49165],[-43.8843,-20.45052],[-43.91839,-20.42967],[-43.92682,-20.43924]]]]}},{"type":"Feature","properties":{"territory_id":"mg-3118007-dom-oscar","name":"Dom Oscar","municipality_id":"mg-3118007","polling_places":2,"approx":true,"official":false,"method":"voronoi-polling-places","whole_municipality":false,"approx_coords_only":false},"geometry":{"type":"MultiPolygon","coordinates":[[[[-43.90892,-20.49795],[-43.88169,-20.53254],[-43.86835,-20.51223],[-43.86661,-20.50966],[-43.86568,-20.50443],[-43.86573,-20.5041],[-43.86989,-20.4969],[-43.87145,-20.49697],[-43.90892,-20.49795]]]]}},{"type":"Feature","properties":{"territory_id":"mg-3118007-esmeril","name":"Esmeril","municipality_id":"mg-3118007","polling_places":1,"approx":true,"official":false,"method":"voronoi-polling-places","whole_municipality":false,"approx_coords_only":false},"geometry":{"type":"MultiPolygon","coordinates":[[[[-43.9864,-20.5068],[-43.9771,-20.5388],[-43.94506,-20.53373],[-43.9181,-20.48972],[-43.92682,-20.43924],[-43.9864,-20.5068]]]]}},{"type":"Feature","properties":{"territory_id":"mg-3118007-jardim-profeta","name":"Jardim Profeta","municipality_id":"mg-3118007","polling_places":2,"approx":true,"official":false,"method":"voronoi-polling-places","whole_municipality":false,"approx_coords_only":false},"geometry":{"type":"MultiPolygon","coordinates":[[[[-43.85061,-20.537],[-43.83859,-20.5454],[-43.81522,-20.53642],[-43.81342,-20.53591],[-43.81353,-20.49102],[-43.8365,-20.51007],[-43.8379,-20.51092],[-43.84031,-20.5149],[-43.85061,-20.537]]]]}},{"type":"Feature","properties":{"territory_id":"mg-3118007-joaquim-murtinho","name":"Joaquim Murtinho","municipality_id":"mg-3118007","polling_places":1,"approx":true,"official":false,"method":"voronoi-polling-places","whole_municipality":false,"approx_coords_only":false},"geometry":{"type":"MultiPolygon","coordinates":[[[[-43.83859,-20.5454],[-43.83549,-20.57615],[-43.80293,-20.5642],[-43.8002,-20.54137],[-43.81342,-20.53591],[-43.81522,-20.53642],[-43.83859,-20.5454]]]]}},{"type":"Feature","properties":{"territory_id":"mg-3118007-lamartine","name":"Lamartine","municipality_id":"mg-3118007","polling_places":1,"approx":true,"official":false,"method":"voronoi-polling-places","whole_municipality":false,"approx_coords_only":false},"geometry":{"type":"MultiPolygon","coordinates":[[[[-43.85928,-20.50745],[-43.85582,-20.51175],[-43.85352,-20.50872],[-43.85313,-20.50639],[-43.85466,-20.5035],[-43.85756,-20.50393],[-43.85928,-20.50745]]]]}},{"type":"Feature","properties":{"territory_id":"mg-3118007-lobo-leite","name":"Lobo Leite","municipality_id":"mg-3118007","polling_places":1,"approx":true,"official":false,"method":"voronoi-polling-places","whole_municipality":false,"approx_coords_only":false},"geometry":{"type":"MultiPolygon","coordinates":[[[[-43.81353,-20.49102],[-43.81342,-20.53591],[-43.8002,-20.54137],[-43.7998,-20.538],[-43.7561,-20.5553],[-43.72167,-20.56036],[-43.7078,-20.5559],[-43.7446,-20.51],[-43.7663,-20.4996],[-43.8021,-20.5029],[-43.79895,-20.46881],[-43.8051,-20.47236],[-43.81353,-20.49102]]]]}},{"type":"Feature","properties":{"territory_id":"mg-3118007-matriz","name":"Matriz","municipality_id":"mg-3118007","polling_places":2,"approx":true,"official":false,"method":"voronoi-polling-places","whole_municipality":false,"approx_coords_only":false},"geometry":{"type":"MultiPolygon","coordinates":[[[[-43.86017,-20.49888],[-43.85871,-20.5008],[-43.85776,-20.50378],[-43.85756,-20.50393],[-43.85466,-20.5035],[-43.85217,-20.4998],[-43.85639,-20.49798],[-43.8598,-20.4953],[-43.86017,-20.49888]]]]}},{"type":"Feature","properties":{"territory_id":"mg-3118007-pequiri","name":"Pequiri","municipality_id":"mg-3118007","polling_places":1,"approx":true,"official":false,"method":"voronoi-polling-places","whole_municipality":false,"approx_coords_only":false},"geometry":{"type":"MultiPolygon","coordinates":[[[[-43.86124,-20.49195],[-43.8598,-20.4953],[-43.85639,-20.49798],[-43.85217,-20.4998],[-43.84967,-20.49828],[-43.84633,-20.4854],[-43.86124,-20.49195]]]]}},{"type":"Feature","properties":{"territory_id":"mg-3118007-pires","name":"Pires","municipality_id":"mg-3118007","polling_places":1,"approx":true,"official":false,"method":"voronoi-polling-places","whole_municipality":false,"approx_coords_only":false},"geometry":{"type":"MultiPolygon","coordinates":[[[[-43.91839,-20.42967],[-43.8843,-20.45052],[-43.83523,-20.47199],[-43.8051,-20.47236],[-43.79895,-20.46881],[-43.7979,-20.4575],[-43.8875,-20.4197],[-43.9155,-20.4264],[-43.91839,-20.42967]]]]}},{"type":"Feature","properties":{"territory_id":"mg-3118007-praia","name":"Praia","municipality_id":"mg-3118007","polling_places":2,"approx":true,"official":false,"method":"voronoi-polling-places","whole_municipality":false,"approx_coords_only":false},"geometry":{"type":"MultiPolygon","coordinates":[[[[-43.86989,-20.4969],[-43.86573,-20.5041],[-43.86229,-20.50064],[-43.86213,-20.50062],[-43.86017,-20.49888],[-43.8598,-20.4953],[-43.86124,-20.49195],[-43.86344,-20.49165],[-43.86666,-20.49478],[-43.86989,-20.4969]]]]}},{"type":"Feature","properties":{"territory_id":"mg-3118007-santa-quiteria","name":"Santa Quiteria","municipality_id":"mg-3118007","polling_places":1,"approx":true,"official":false,"method":"voronoi-polling-places","whole_municipality":false,"approx_coords_only":false},"geometry":{"type":"MultiPolygon","coordinates":[[[[-43.94506,-20.53373],[-43.9303,-20.5314],[-43.9085,-20.558],[-43.915,-20.5841],[-43.90985,-20.60236],[-43.87958,-20.53676],[-43.88169,-20.53254],[-43.90892,-20.49795],[-43.9181,-20.48972],[-43.94506,-20.53373]]]]}},{"type":"Feature","properties":{"territory_id":"mg-3118007-vila-andreza","name":"Vila Andreza","municipality_id":"mg-3118007","polling_places":1,"approx":true,"official":false,"method":"voronoi-polling-places","whole_municipality":false,"approx_coords_only":false},"geometry":{"type":"MultiPolygon","coordinates":[[[[-43.85466,-20.5035],[-43.85313,-20.50639],[-43.84271,-20.5072],[-43.84967,-20.49828],[-43.85217,-20.4998],[-43.85466,-20.5035]]]]}},{"type":"Feature","properties":{"territory_id":"mg-3118007-vila-jose-marques","name":"Vila Jose Marques","municipality_id":"mg-3118007","polling_places":1,"approx":true,"official":false,"method":"voronoi-polling-places","whole_municipality":false,"approx_coords_only":false},"geometry":{"type":"MultiPolygon","coordinates":[[[[-43.8454,-20.60746],[-43.8062,-20.5916],[-43.80293,-20.5642],[-43.83549,-20.57615],[-43.8454,-20.60746]]],[[[-43.7561,-20.5553],[-43.7336,-20.5642],[-43.72167,-20.56036],[-43.7561,-20.5553]]]]}},{"type":"Feature","properties":{"territory_id":"mg-3118007-vila-sao-vicente","name":"Vila Sao Vicente","municipality_id":"mg-3118007","polling_places":1,"approx":true,"official":false,"method":"voronoi-polling-places","whole_municipality":false,"approx_coords_only":false},"geometry":{"type":"MultiPolygon","coordinates":[[[[-43.85352,-20.50872],[-43.84031,-20.5149],[-43.8379,-20.51092],[-43.84271,-20.5072],[-43.85313,-20.50639],[-43.85352,-20.50872]]]]}}]}