{"type":"FeatureCollection","features":[{"type":"Feature","properties":{"territory_id":"mg-3118502-centro","name":"Centro","municipality_id":"mg-3118502","polling_places":2,"approx":true,"official":false,"method":"voronoi-polling-places","whole_municipality":true,"approx_coords_only":false},"geometry":{"type":"MultiPolygon","coordinates":[[[[-45.9515,-22.5876],[-45.9043,-22.6016],[-45.8708,-22.5237],[-45.8833,-22.5003],[-45.8859,-22.4672],[-45.9237,-22.4723],[-45.9562,-22.5353],[-45.9484,-22.5521],[-45.9515,-22.5876]]]]}}]}