{"type":"FeatureCollection","features":[{"type":"Feature","properties":{"territory_id":"mg-3118601-agua-branca","name":"Água Branca","municipality_id":"mg-3118601","polling_places":1,"approx":true,"official":false,"method":"voronoi-polling-places","whole_municipality":false,"approx_coords_only":false},"geometry":{"type":"MultiPolygon","coordinates":[[[[-44.03856,-19.93388],[-44.03852,-19.93408],[-44.03561,-19.93574],[-44.02999,-19.93131],[-44.03063,-19.92673],[-44.03168,-19.92646],[-44.03856,-19.93388]]]]}},{"type":"Feature","properties":{"territory_id":"mg-3118601-alvorada","name":"Alvorada","municipality_id":"mg-3118601","polling_places":2,"approx":true,"official":false,"method":"voronoi-polling-places","whole_municipality":false,"approx_coords_only":false},"geometry":{"type":"MultiPolygon","coordinates":[[[[-44.08978,-19.90437],[-44.07838,-19.90724],[-44.07957,-19.91229],[-44.07799,-19.91426],[-44.07063,-19.91588],[-44.06928,-19.91152],[-44.07632,-19.90664],[-44.07181,-19.88484],[-44.08885,-19.89912],[-44.08978,-19.90437]]]]}},{"type":"Feature","properties":{"territory_id":"mg-3118601-amazonas","name":"Amazonas","municipality_id":"mg-3118601","polling_places":3,"approx":true,"official":false,"method":"voronoi-polling-places","whole_municipality":false,"approx_coords_only":false},"geometry":{"type":"MultiPolygon","coordinates":[[[[-44.04782,-19.97275],[-44.04275,-19.97398],[-44.03575,-19.973],[-44.0355,-19.96937],[-44.03435,-19.9667],[-44.03564,-19.96261],[-44.03608,-19.96269],[-44.04674,-19.96128],[-44.04719,-19.97109],[-44.04782,-19.97275]]]]}},{"type":"Feature","properties":{"territory_id":"mg-3118601-arvoredo","name":"Arvoredo","municipality_id":"mg-3118601","polling_places":1,"approx":true,"official":false,"method":"voronoi-polling-places","whole_municipality":false,"approx_coords_only":false},"geometry":{"type":"MultiPolygon","coordinates":[[[[-44.03378,-19.87291],[-44.03152,-19.87943],[-44.02433,-19.88327],[-44.02092,-19.87286],[-44.02356,-19.87173],[-44.03378,-19.87291]]]]}},{"type":"Feature","properties":{"territory_id":"mg-3118601-bandeirantes","name":"Bandeirantes","municipality_id":"mg-3118601","polling_places":2,"approx":true,"official":false,"method":"voronoi-polling-places","whole_municipality":false,"approx_coords_only":false},"geometry":{"type":"MultiPolygon","coordinates":[[[[-44.05773,-19.96721],[-44.04849,-19.97329],[-44.04782,-19.97275],[-44.04719,-19.97109],[-44.04674,-19.96128],[-44.04682,-19.96113],[-44.04922,-19.96082],[-44.05537,-19.95819],[-44.05676,-19.9656],[-44.05773,-19.96721]]]]}},{"type":"Feature","properties":{"territory_id":"mg-3118601-bela-vista","name":"Bela Vista","municipality_id":"mg-3118601","polling_places":2,"approx":true,"official":false,"method":"voronoi-polling-places","whole_municipality":false,"approx_coords_only":false},"geometry":{"type":"MultiPolygon","coordinates":[[[[-44.08317,-19.93913],[-44.07191,-19.93738],[-44.07087,-19.93753],[-44.06921,-19.93615],[-44.06661,-19.93364],[-44.06651,-19.93113],[-44.07378,-19.92386],[-44.07842,-19.92487],[-44.08039,-19.92817],[-44.08038,-19.92883],[-44.08317,-19.93913]]]]}},{"type":"Feature","properties":{"territory_id":"mg-3118601-bernardo-monteiro","name":"Bernardo Monteiro","municipality_id":"mg-3118601","polling_places":1,"approx":true,"official":false,"method":"voronoi-polling-places","whole_municipality":false,"approx_coords_only":false},"geometry":{"type":"MultiPolygon","coordinates":[[[[-44.09633,-19.93429],[-44.08453,-19.94053],[-44.08317,-19.93913],[-44.08038,-19.92883],[-44.08039,-19.92817],[-44.09312,-19.92907],[-44.09633,-19.93429]]]]}},{"type":"Feature","properties":{"territory_id":"mg-3118601-cabral","name":"Cabral","municipality_id":"mg-3118601","polling_places":1,"approx":true,"official":false,"method":"voronoi-polling-places","whole_municipality":false,"approx_coords_only":false},"geometry":{"type":"MultiPolygon","coordinates":[[[[-44.07773,-19.85044],[-44.0679,-19.87939],[-44.04794,-19.88034],[-44.04123,-19.87933],[-44.03484,-19.87246],[-44.03694,-19.86841],[-44.04882,-19.86036],[-44.07773,-19.85044]]]]}},{"type":"Feature","properties":{"territory_id":"mg-3118601-carajas","name":"Carajas","municipality_id":"mg-3118601","polling_places":1,"approx":true,"official":false,"method":"voronoi-polling-places","whole_municipality":false,"approx_coords_only":false},"geometry":{"type":"MultiPolygon","coordinates":[[[[-44.04882,-19.86036],[-44.03694,-19.86841],[-44.02758,-19.85869],[-44.02763,-19.85756],[-44.03053,-19.85511],[-44.04882,-19.86036]]]]}},{"type":"Feature","properties":{"territory_id":"mg-3118601-central-park","name":"Central Park","municipality_id":"mg-3118601","polling_places":1,"approx":true,"official":false,"method":"voronoi-polling-places","whole_municipality":false,"approx_coords_only":false},"geometry":{"type":"MultiPolygon","coordinates":[[[[-44.09064,-19.91624],[-44.0905,-19.91952],[-44.0798,-19.92344],[-44.08089,-19.91773],[-44.08287,-19.91563],[-44.09064,-19.91624]]]]}},{"type":"Feature","properties":{"territory_id":"mg-3118601-centro","name":"Centro","municipality_id":"mg-3118601","polling_places":4,"approx":true,"official":false,"method":"voronoi-polling-places","whole_municipality":false,"approx_coords_only":false},"geometry":{"type":"MultiPolygon","coordinates":[[[[-44.09359,-19.90851],[-44.09064,-19.91624],[-44.08287,-19.91563],[-44.08089,-19.91773],[-44.0798,-19.92344],[-44.07842,-19.92487],[-44.07378,-19.92386],[-44.07056,-19.91732],[-44.07063,-19.91588],[-44.07799,-19.91426],[-44.07957,-19.91229],[-44.07838,-19.90724],[-44.08978,-19.90437],[-44.09045,-19.90535],[-44.09359,-19.90851]]]]}},{"type":"Feature","properties":{"territory_id":"mg-3118601-chacaras-bom-jesus","name":"Chácaras Bom Jesus","municipality_id":"mg-3118601","polling_places":1,"approx":true,"official":false,"method":"voronoi-polling-places","whole_municipality":false,"approx_coords_only":false},"geometry":{"type":"MultiPolygon","coordinates":[[[[-44.04015,-19.8347],[-44.02678,-19.84551],[-44.02294,-19.84373],[-44.02773,-19.83263],[-44.04015,-19.8347]]]]}},{"type":"Feature","properties":{"territory_id":"mg-3118601-cidade-industrial","name":"Cidade Industrial","municipality_id":"mg-3118601","polling_places":2,"approx":true,"official":false,"method":"voronoi-polling-places","whole_municipality":false,"approx_coords_only":false},"geometry":{"type":"MultiPolygon","coordinates":[[[[-44.03438,-19.96062],[-44.02749,-19.96382],[-44.02117,-19.958],[-44.02137,-19.95749],[-44.01864,-19.94936],[-44.01949,-19.94326],[-44.03152,-19.95025],[-44.03215,-19.95166],[-44.03124,-19.95509],[-44.0342,-19.9595],[-44.03438,-19.96062]]]]}},{"type":"Feature","properties":{"territory_id":"mg-3118601-cinco","name":"Cinco","municipality_id":"mg-3118601","polling_places":1,"approx":true,"official":false,"method":"voronoi-polling-places","whole_municipality":false,"approx_coords_only":false},"geometry":{"type":"MultiPolygon","coordinates":[[[[-44.06921,-19.93615],[-44.06245,-19.94763],[-44.05997,-19.94415],[-44.05976,-19.93879],[-44.06661,-19.93364],[-44.06921,-19.93615]]]]}},{"type":"Feature","properties":{"territory_id":"mg-3118601-colonial","name":"Colonial","municipality_id":"mg-3118601","polling_places":1,"approx":true,"official":false,"method":"voronoi-polling-places","whole_municipality":false,"approx_coords_only":false},"geometry":{"type":"MultiPolygon","coordinates":[[[[-44.11441,-19.90483],[-44.11174,-19.90944],[-44.11088,-19.90978],[-44.09359,-19.90851],[-44.09045,-19.90535],[-44.08978,-19.90437],[-44.08885,-19.89912],[-44.11003,-19.88152],[-44.11441,-19.90483]]]]}},{"type":"Feature","properties":{"territory_id":"mg-3118601-colorado","name":"Colorado","municipality_id":"mg-3118601","polling_places":1,"approx":true,"official":false,"method":"voronoi-polling-places","whole_municipality":false,"approx_coords_only":false},"geometry":{"type":"MultiPolygon","coordinates":[[[[-44.03993,-19.90816],[-44.0305,-19.91644],[-44.02338,-19.91565],[-44.02452,-19.90756],[-44.02993,-19.90514],[-44.0353,-19.90549],[-44.03993,-19.90816]]]]}},{"type":"Feature","properties":{"territory_id":"mg-3118601-confisco","name":"Confisco","municipality_id":"mg-3118601","polling_places":1,"approx":true,"official":false,"method":"voronoi-polling-places","whole_municipality":false,"approx_coords_only":false},"geometry":{"type":"MultiPolygon","coordinates":[[[[-44.02578,-19.86107],[-44.02356,-19.87173],[-44.02092,-19.87286],[-44.01553,-19.87225],[-44.01222,-19.86318],[-44.02578,-19.86107]]]]}},{"type":"Feature","properties":{"territory_id":"mg-3118601-conjunto-agua-branca","name":"Conjunto Água Branca","municipality_id":"mg-3118601","polling_places":2,"approx":true,"official":false,"method":"voronoi-polling-places","whole_municipality":false,"approx_coords_only":false},"geometry":{"type":"MultiPolygon","coordinates":[[[[-44.03561,-19.93574],[-44.03348,-19.9386],[-44.03178,-19.93961],[-44.02835,-19.93949],[-44.02244,-19.93888],[-44.02004,-19.93938],[-44.02232,-19.92322],[-44.03063,-19.92673],[-44.02999,-19.93131],[-44.03561,-19.93574]]]]}},{"type":"Feature","properties":{"territory_id":"mg-3118601-darcy-ribeiro","name":"Darcy Ribeiro","municipality_id":"mg-3118601","polling_places":1,"approx":true,"official":false,"method":"voronoi-polling-places","whole_municipality":false,"approx_coords_only":false},"geometry":{"type":"MultiPolygon","coordinates":[[[[-44.13974,-19.86764],[-44.12604,-19.87638],[-44.11094,-19.87385],[-44.08608,-19.83811],[-44.08662,-19.83085],[-44.08985,-19.82604],[-44.1324,-19.84042],[-44.13689,-19.84464],[-44.13974,-19.86764]]]]}},{"type":"Feature","properties":{"territory_id":"mg-3118601-eldoradinho","name":"Eldoradinho","municipality_id":"mg-3118601","polling_places":1,"approx":true,"official":false,"method":"voronoi-polling-places","whole_municipality":false,"approx_coords_only":false},"geometry":{"type":"MultiPolygon","coordinates":[[[[-44.03704,-19.92204],[-44.03168,-19.92646],[-44.03063,-19.92673],[-44.02232,-19.92322],[-44.02338,-19.91565],[-44.0305,-19.91644],[-44.03704,-19.92204]]]]}},{"type":"Feature","properties":{"territory_id":"mg-3118601-eldorado","name":"Eldorado","municipality_id":"mg-3118601","polling_places":7,"approx":true,"official":false,"method":"voronoi-polling-places","whole_municipality":false,"approx_coords_only":false},"geometry":{"type":"MultiPolygon","coordinates":[[[[-44.05768,-19.93793],[-44.04961,-19.94294],[-44.04849,-19.94234],[-44.04364,-19.94652],[-44.04127,-19.94699],[-44.03998,-19.95006],[-44.03215,-19.95166],[-44.03152,-19.95025],[-44.03174,-19.94959],[-44.03356,-19.94508],[-44.03178,-19.93961],[-44.03348,-19.9386],[-44.03561,-19.93574],[-44.03852,-19.93408],[-44.03856,-19.93388],[-44.04537,-19.92378],[-44.04652,-19.92452],[-44.04863,-19.93318],[-44.04258,-19.93734],[-44.04691,-19.9408],[-44.04822,-19.94161],[-44.05034,-19.93537],[-44.05553,-19.93589],[-44.05768,-19.93793]]]]}},{"type":"Feature","properties":{"territory_id":"mg-3118601-fonte-grande","name":"Fonte Grande","municipality_id":"mg-3118601","polling_places":1,"approx":true,"official":false,"method":"voronoi-polling-places","whole_municipality":false,"approx_coords_only":false},"geometry":{"type":"MultiPolygon","coordinates":[[[[-44.09312,-19.92907],[-44.08039,-19.92817],[-44.07842,-19.92487],[-44.0798,-19.92344],[-44.0905,-19.91952],[-44.09268,-19.92311],[-44.09312,-19.92907]]]]}},{"type":"Feature","properties":{"territory_id":"mg-3118601-gloria","name":"Glória","municipality_id":"mg-3118601","polling_places":1,"approx":true,"official":false,"method":"voronoi-polling-places","whole_municipality":false,"approx_coords_only":false},"geometry":{"type":"MultiPolygon","coordinates":[[[[-44.05034,-19.93537],[-44.04822,-19.94161],[-44.04691,-19.9408],[-44.04258,-19.93734],[-44.04863,-19.93318],[-44.04968,-19.93444],[-44.05034,-19.93537]]]]}},{"type":"Feature","properties":{"territory_id":"mg-3118601-icaivera","name":"Icaivera","municipality_id":"mg-3118601","polling_places":1,"approx":true,"official":false,"method":"voronoi-polling-places","whole_municipality":false,"approx_coords_only":false},"geometry":{"type":"MultiPolygon","coordinates":[[[[-44.16037,-19.85366],[-44.1582,-19.86892],[-44.13974,-19.86764],[-44.13689,-19.84464],[-44.16037,-19.85366]]]]}},{"type":"Feature","properties":{"territory_id":"mg-3118601-inconfidentes","name":"Inconfidentes","municipality_id":"mg-3118601","polling_places":2,"approx":true,"official":false,"method":"voronoi-polling-places","whole_municipality":false,"approx_coords_only":false},"geometry":{"type":"MultiPolygon","coordinates":[[[[-44.04682,-19.96113],[-44.04674,-19.96128],[-44.03608,-19.96269],[-44.03564,-19.96261],[-44.03438,-19.96062],[-44.0342,-19.9595],[-44.03124,-19.95509],[-44.03215,-19.95166],[-44.03998,-19.95006],[-44.0424,-19.95464],[-44.04346,-19.95525],[-44.04627,-19.95887],[-44.04682,-19.96113]]]]}},{"type":"Feature","properties":{"territory_id":"mg-3118601-industrial","name":"Industrial","municipality_id":"mg-3118601","polling_places":5,"approx":true,"official":false,"method":"voronoi-polling-places","whole_municipality":false,"approx_coords_only":false},"geometry":{"type":"MultiPolygon","coordinates":[[[[-44.0491,-19.97487],[-44.04275,-19.97398],[-44.04782,-19.97275],[-44.04849,-19.97329],[-44.0491,-19.97487]]],[[[-44.03575,-19.973],[-44.02718,-19.97181],[-44.02751,-19.97132],[-44.02788,-19.96911],[-44.02724,-19.96791],[-44.02749,-19.96382],[-44.03438,-19.96062],[-44.03564,-19.96261],[-44.03435,-19.9667],[-44.0355,-19.96937],[-44.03575,-19.973]]]]}},{"type":"Feature","properties":{"territory_id":"mg-3118601-industrial-sao-luiz","name":"Industrial São Luiz","municipality_id":"mg-3118601","polling_places":1,"approx":true,"official":false,"method":"voronoi-polling-places","whole_municipality":false,"approx_coords_only":false},"geometry":{"type":"MultiPolygon","coordinates":[[[[-44.13445,-19.9236],[-44.12071,-19.92587],[-44.12169,-19.92082],[-44.13445,-19.9236]]]]}},{"type":"Feature","properties":{"territory_id":"mg-3118601-jardim-bandeirantes","name":"Jardim Bandeirantes","municipality_id":"mg-3118601","polling_places":1,"approx":true,"official":false,"method":"voronoi-polling-places","whole_municipality":false,"approx_coords_only":false},"geometry":{"type":"MultiPolygon","coordinates":[[[[-44.04537,-19.92378],[-44.03856,-19.93388],[-44.03168,-19.92646],[-44.03704,-19.92204],[-44.04409,-19.92145],[-44.04537,-19.92378]]]]}},{"type":"Feature","properties":{"territory_id":"mg-3118601-jardim-industrial","name":"Jardim Industrial","municipality_id":"mg-3118601","polling_places":3,"approx":true,"official":false,"method":"voronoi-polling-places","whole_municipality":false,"approx_coords_only":false},"geometry":{"type":"MultiPolygon","coordinates":[[[[-44.02788,-19.96911],[-44.02751,-19.97132],[-44.02718,-19.97181],[-44.0157,-19.9702],[-44.01717,-19.95977],[-44.01964,-19.95971],[-44.02117,-19.958],[-44.02749,-19.96382],[-44.02724,-19.96791],[-44.02788,-19.96911]]]]}},{"type":"Feature","properties":{"territory_id":"mg-3118601-jardim-laguna","name":"Jardim Laguna","municipality_id":"mg-3118601","polling_places":1,"approx":true,"official":false,"method":"voronoi-polling-places","whole_municipality":false,"approx_coords_only":false},"geometry":{"type":"MultiPolygon","coordinates":[[[[-44.0555,-19.89991],[-44.05524,-19.90164],[-44.05449,-19.90273],[-44.04596,-19.90941],[-44.03993,-19.90816],[-44.0353,-19.90549],[-44.03616,-19.89176],[-44.03641,-19.89153],[-44.03891,-19.8921],[-44.0555,-19.89991]]]]}},{"type":"Feature","properties":{"territory_id":"mg-3118601-jardim-riacho-das-pedras","name":"Jardim Riacho das Pedras","municipality_id":"mg-3118601","polling_places":2,"approx":true,"official":false,"method":"voronoi-polling-places","whole_municipality":false,"approx_coords_only":false},"geometry":{"type":"MultiPolygon","coordinates":[[[[-44.0756,-19.9672],[-44.0629,-19.9768],[-44.0491,-19.97487],[-44.04849,-19.97329],[-44.05773,-19.96721],[-44.05676,-19.9656],[-44.05537,-19.95819],[-44.05648,-19.95694],[-44.06708,-19.95685],[-44.07361,-19.96172],[-44.0756,-19.9672]]]]}},{"type":"Feature","properties":{"territory_id":"mg-3118601-jk","name":"Jk","municipality_id":"mg-3118601","polling_places":2,"approx":true,"official":false,"method":"voronoi-polling-places","whole_municipality":false,"approx_coords_only":false},"geometry":{"type":"MultiPolygon","coordinates":[[[[-44.03356,-19.94508],[-44.03174,-19.94959],[-44.03152,-19.95025],[-44.01949,-19.94326],[-44.02004,-19.93938],[-44.02244,-19.93888],[-44.02835,-19.93949],[-44.03178,-19.93961],[-44.03356,-19.94508]]]]}},{"type":"Feature","properties":{"territory_id":"mg-3118601-kennedy","name":"Kennedy","municipality_id":"mg-3118601","polling_places":2,"approx":true,"official":false,"method":"voronoi-polling-places","whole_municipality":false,"approx_coords_only":false},"geometry":{"type":"MultiPolygon","coordinates":[[[[-44.0679,-19.87939],[-44.06789,-19.87977],[-44.0555,-19.89991],[-44.03891,-19.8921],[-44.03641,-19.89153],[-44.03565,-19.88831],[-44.04123,-19.87933],[-44.04794,-19.88034],[-44.0679,-19.87939]]]]}},{"type":"Feature","properties":{"territory_id":"mg-3118601-linda-vista","name":"Linda Vista","municipality_id":"mg-3118601","polling_places":1,"approx":true,"official":false,"method":"voronoi-polling-places","whole_municipality":false,"approx_coords_only":false},"geometry":{"type":"MultiPolygon","coordinates":[[[[-44.07632,-19.90664],[-44.06928,-19.91152],[-44.05524,-19.90164],[-44.0555,-19.89991],[-44.06789,-19.87977],[-44.07181,-19.88484],[-44.07632,-19.90664]]]]}},{"type":"Feature","properties":{"territory_id":"mg-3118601-maria-da-conceicao","name":"Maria da Conceição","municipality_id":"mg-3118601","polling_places":1,"approx":true,"official":false,"method":"voronoi-polling-places","whole_municipality":false,"approx_coords_only":false},"geometry":{"type":"MultiPolygon","coordinates":[[[[-44.07378,-19.92386],[-44.06651,-19.93113],[-44.05954,-19.92595],[-44.06125,-19.9207],[-44.07056,-19.91732],[-44.07378,-19.92386]]]]}},{"type":"Feature","properties":{"territory_id":"mg-3118601-monte-castelo","name":"Monte Castelo","municipality_id":"mg-3118601","polling_places":2,"approx":true,"official":false,"method":"voronoi-polling-places","whole_municipality":false,"approx_coords_only":false},"geometry":{"type":"MultiPolygon","coordinates":[[[[-44.08453,-19.94053],[-44.0689,-19.9488],[-44.07361,-19.96172],[-44.06708,-19.95685],[-44.06263,-19.94781],[-44.07115,-19.94213],[-44.07087,-19.93753],[-44.07191,-19.93738],[-44.08317,-19.93913],[-44.08453,-19.94053]]]]}},{"type":"Feature","properties":{"territory_id":"mg-3118601-morada-nova","name":"Morada Nova","municipality_id":"mg-3118601","polling_places":1,"approx":true,"official":false,"method":"voronoi-polling-places","whole_municipality":false,"approx_coords_only":false},"geometry":{"type":"MultiPolygon","coordinates":[[[[-44.04596,-19.90941],[-44.04409,-19.92145],[-44.03704,-19.92204],[-44.0305,-19.91644],[-44.03993,-19.90816],[-44.04596,-19.90941]]]]}},{"type":"Feature","properties":{"territory_id":"mg-3118601-nacional","name":"Nacional","municipality_id":"mg-3118601","polling_places":3,"approx":true,"official":false,"method":"voronoi-polling-places","whole_municipality":false,"approx_coords_only":false},"geometry":{"type":"MultiPolygon","coordinates":[[[[-44.05232,-19.83674],[-44.03175,-19.85053],[-44.03053,-19.85511],[-44.02763,-19.85756],[-44.0232,-19.85477],[-44.01011,-19.84954],[-44.01097,-19.84715],[-44.02294,-19.84373],[-44.02678,-19.84551],[-44.04015,-19.8347],[-44.05232,-19.83674]]]]}},{"type":"Feature","properties":{"territory_id":"mg-3118601-nossa-senhora-da-conceicao","name":"Nossa Senhora da Conceicao","municipality_id":"mg-3118601","polling_places":1,"approx":true,"official":false,"method":"voronoi-polling-places","whole_municipality":false,"approx_coords_only":false},"geometry":{"type":"MultiPolygon","coordinates":[[[[-44.08662,-19.83085],[-44.08608,-19.83811],[-44.07773,-19.85044],[-44.04882,-19.86036],[-44.03053,-19.85511],[-44.03175,-19.85053],[-44.05232,-19.83674],[-44.0796,-19.8413],[-44.08662,-19.83085]]]]}},{"type":"Feature","properties":{"territory_id":"mg-3118601-nova-contagem","name":"Nova Contagem","municipality_id":"mg-3118601","polling_places":3,"approx":true,"official":false,"method":"voronoi-polling-places","whole_municipality":false,"approx_coords_only":false},"geometry":{"type":"MultiPolygon","coordinates":[[[[-44.15652,-19.83336],[-44.14714,-19.83137],[-44.14175,-19.8356],[-44.1324,-19.84042],[-44.08985,-19.82604],[-44.09613,-19.81669],[-44.14603,-19.81895],[-44.14719,-19.81831],[-44.15652,-19.83336]]]]}},{"type":"Feature","properties":{"territory_id":"mg-3118601-novo-eldorado","name":"Novo Eldorado","municipality_id":"mg-3118601","polling_places":3,"approx":true,"official":false,"method":"voronoi-polling-places","whole_municipality":false,"approx_coords_only":false},"geometry":{"type":"MultiPolygon","coordinates":[[[[-44.06661,-19.93364],[-44.05976,-19.93879],[-44.05768,-19.93793],[-44.05553,-19.93589],[-44.05034,-19.93537],[-44.04968,-19.93444],[-44.04863,-19.93318],[-44.04652,-19.92452],[-44.05226,-19.92513],[-44.05639,-19.92644],[-44.05954,-19.92595],[-44.06651,-19.93113],[-44.06661,-19.93364]]]]}},{"type":"Feature","properties":{"territory_id":"mg-3118601-novo-progresso","name":"Novo Progresso","municipality_id":"mg-3118601","polling_places":4,"approx":true,"official":false,"method":"voronoi-polling-places","whole_municipality":false,"approx_coords_only":false},"geometry":{"type":"MultiPolygon","coordinates":[[[[-44.03641,-19.89153],[-44.03616,-19.89176],[-44.0353,-19.90549],[-44.02993,-19.90514],[-44.02452,-19.90756],[-44.0256,-19.8999],[-44.02166,-19.88908],[-44.02202,-19.88644],[-44.02405,-19.88471],[-44.02504,-19.88518],[-44.03414,-19.88694],[-44.03565,-19.88831],[-44.03641,-19.89153]]]]}},{"type":"Feature","properties":{"territory_id":"mg-3118601-novo-riacho","name":"Novo Riacho","municipality_id":"mg-3118601","polling_places":3,"approx":true,"official":false,"method":"voronoi-polling-places","whole_municipality":false,"approx_coords_only":false},"geometry":{"type":"MultiPolygon","coordinates":[[[[-44.07115,-19.94213],[-44.06263,-19.94781],[-44.06708,-19.95685],[-44.05648,-19.95694],[-44.05335,-19.95201],[-44.05276,-19.95168],[-44.0517,-19.94999],[-44.05214,-19.9461],[-44.05997,-19.94415],[-44.06245,-19.94763],[-44.06921,-19.93615],[-44.07087,-19.93753],[-44.07115,-19.94213]]]]}},{"type":"Feature","properties":{"territory_id":"mg-3118601-parque-sao-joao","name":"Parque São João","municipality_id":"mg-3118601","polling_places":2,"approx":true,"official":false,"method":"voronoi-polling-places","whole_municipality":false,"approx_coords_only":false},"geometry":{"type":"MultiPolygon","coordinates":[[[[-44.06125,-19.9207],[-44.05954,-19.92595],[-44.05639,-19.92644],[-44.05226,-19.92513],[-44.04652,-19.92452],[-44.04537,-19.92378],[-44.04409,-19.92145],[-44.04596,-19.90941],[-44.05449,-19.90273],[-44.05776,-19.91442],[-44.06125,-19.9207]]]]}},{"type":"Feature","properties":{"territory_id":"mg-3118601-parque-turistas","name":"Parque Turistas","municipality_id":"mg-3118601","polling_places":1,"approx":true,"official":false,"method":"voronoi-polling-places","whole_municipality":false,"approx_coords_only":false},"geometry":{"type":"MultiPolygon","coordinates":[[[[-44.02433,-19.88327],[-44.02405,-19.88471],[-44.02202,-19.88644],[-44.0205,-19.8859],[-44.01553,-19.87225],[-44.02092,-19.87286],[-44.02433,-19.88327]]]]}},{"type":"Feature","properties":{"territory_id":"mg-3118601-perobas","name":"Perobas","municipality_id":"mg-3118601","polling_places":1,"approx":true,"official":false,"method":"voronoi-polling-places","whole_municipality":false,"approx_coords_only":false},"geometry":{"type":"MultiPolygon","coordinates":[[[[-44.07063,-19.91588],[-44.07056,-19.91732],[-44.06125,-19.9207],[-44.05776,-19.91442],[-44.05449,-19.90273],[-44.05524,-19.90164],[-44.06928,-19.91152],[-44.07063,-19.91588]]]]}},{"type":"Feature","properties":{"territory_id":"mg-3118601-petrolandia","name":"Petrolândia","municipality_id":"mg-3118601","polling_places":2,"approx":true,"official":false,"method":"voronoi-polling-places","whole_municipality":false,"approx_coords_only":false},"geometry":{"type":"MultiPolygon","coordinates":[[[[-44.11427,-19.92693],[-44.11014,-19.92761],[-44.11293,-19.92338],[-44.11427,-19.92693]]]]}},{"type":"Feature","properties":{"territory_id":"mg-3118601-praia","name":"Praia","municipality_id":"mg-3118601","polling_places":1,"approx":true,"official":false,"method":"voronoi-polling-places","whole_municipality":false,"approx_coords_only":false},"geometry":{"type":"MultiPolygon","coordinates":[[[[-44.11094,-19.87385],[-44.11003,-19.88152],[-44.08885,-19.89912],[-44.07181,-19.88484],[-44.06789,-19.87977],[-44.0679,-19.87939],[-44.07773,-19.85044],[-44.08608,-19.83811],[-44.11094,-19.87385]]]]}},{"type":"Feature","properties":{"territory_id":"mg-3118601-retiro","name":"Retiro","municipality_id":"mg-3118601","polling_places":2,"approx":true,"official":false,"method":"voronoi-polling-places","whole_municipality":false,"approx_coords_only":false},"geometry":{"type":"MultiPolygon","coordinates":[[[[-44.162,-19.8422],[-44.16037,-19.85366],[-44.13689,-19.84464],[-44.1324,-19.84042],[-44.14175,-19.8356],[-44.14714,-19.83137],[-44.15652,-19.83336],[-44.162,-19.8422]]]]}},{"type":"Feature","properties":{"territory_id":"mg-3118601-riacho-das-pedras","name":"Riacho das Pedras","municipality_id":"mg-3118601","polling_places":5,"approx":true,"official":false,"method":"voronoi-polling-places","whole_municipality":false,"approx_coords_only":false},"geometry":{"type":"MultiPolygon","coordinates":[[[[-44.05648,-19.95694],[-44.05537,-19.95819],[-44.04922,-19.96082],[-44.04682,-19.96113],[-44.04627,-19.95887],[-44.04346,-19.95525],[-44.0424,-19.95464],[-44.03998,-19.95006],[-44.04127,-19.94699],[-44.04364,-19.94652],[-44.04849,-19.94234],[-44.04961,-19.94294],[-44.05214,-19.9461],[-44.0517,-19.94999],[-44.05276,-19.95168],[-44.05335,-19.95201],[-44.05648,-19.95694]]]]}},{"type":"Feature","properties":{"territory_id":"mg-3118601-santa-cruz-industrial","name":"Santa Cruz Industrial","municipality_id":"mg-3118601","polling_places":1,"approx":true,"official":false,"method":"voronoi-polling-places","whole_municipality":false,"approx_coords_only":false},"geometry":{"type":"MultiPolygon","coordinates":[[[[-44.05997,-19.94415],[-44.05214,-19.9461],[-44.04961,-19.94294],[-44.05768,-19.93793],[-44.05976,-19.93879],[-44.05997,-19.94415]]]]}},{"type":"Feature","properties":{"territory_id":"mg-3118601-santa-helena","name":"Santa Helena","municipality_id":"mg-3118601","polling_places":1,"approx":true,"official":false,"method":"voronoi-polling-places","whole_municipality":false,"approx_coords_only":false},"geometry":{"type":"MultiPolygon","coordinates":[[[[-44.10521,-19.91892],[-44.1031,-19.93071],[-44.09633,-19.93429],[-44.09312,-19.92907],[-44.09268,-19.92311],[-44.10521,-19.91892]]]]}},{"type":"Feature","properties":{"territory_id":"mg-3118601-sao-joaquim","name":"Sao Joaquim","municipality_id":"mg-3118601","polling_places":2,"approx":true,"official":false,"method":"voronoi-polling-places","whole_municipality":false,"approx_coords_only":false},"geometry":{"type":"MultiPolygon","coordinates":[[[[-44.04123,-19.87933],[-44.03565,-19.88831],[-44.03414,-19.88694],[-44.02504,-19.88518],[-44.02405,-19.88471],[-44.02433,-19.88327],[-44.03152,-19.87943],[-44.03378,-19.87291],[-44.03484,-19.87246],[-44.04123,-19.87933]]]]}},{"type":"Feature","properties":{"territory_id":"mg-3118601-sao-mateus","name":"Sao Mateus","municipality_id":"mg-3118601","polling_places":1,"approx":true,"official":false,"method":"voronoi-polling-places","whole_municipality":false,"approx_coords_only":false},"geometry":{"type":"MultiPolygon","coordinates":[[[[-44.03694,-19.86841],[-44.03484,-19.87246],[-44.03378,-19.87291],[-44.02356,-19.87173],[-44.02578,-19.86107],[-44.02758,-19.85869],[-44.03694,-19.86841]]]]}},{"type":"Feature","properties":{"territory_id":"mg-3118601-sapucaias-2","name":"Sapucaias 2","municipality_id":"mg-3118601","polling_places":1,"approx":true,"official":false,"method":"voronoi-polling-places","whole_municipality":false,"approx_coords_only":false},"geometry":{"type":"MultiPolygon","coordinates":[[[[-44.15312,-19.90463],[-44.1508,-19.9209],[-44.13445,-19.9236],[-44.12169,-19.92082],[-44.11341,-19.91241],[-44.11174,-19.90944],[-44.11441,-19.90483],[-44.15312,-19.90463]]]]}},{"type":"Feature","properties":{"territory_id":"mg-3118601-solar-do-madeira","name":"Solar do Madeira","municipality_id":"mg-3118601","polling_places":1,"approx":true,"official":false,"method":"voronoi-polling-places","whole_municipality":false,"approx_coords_only":false},"geometry":{"type":"MultiPolygon","coordinates":[[[[-44.1533,-19.90334],[-44.15312,-19.90463],[-44.11441,-19.90483],[-44.11003,-19.88152],[-44.11094,-19.87385],[-44.12604,-19.87638],[-44.1533,-19.90334]]]]}},{"type":"Feature","properties":{"territory_id":"mg-3118601-tijuco","name":"Tijuco","municipality_id":"mg-3118601","polling_places":1,"approx":true,"official":false,"method":"voronoi-polling-places","whole_municipality":false,"approx_coords_only":false},"geometry":{"type":"MultiPolygon","coordinates":[[[[-44.02763,-19.85756],[-44.02758,-19.85869],[-44.02578,-19.86107],[-44.01222,-19.86318],[-44.0087,-19.8535],[-44.01011,-19.84954],[-44.0232,-19.85477],[-44.02763,-19.85756]]]]}},{"type":"Feature","properties":{"territory_id":"mg-3118601-tropical-olhos-d-agua","name":"Tropical - Olhos D'agua","municipality_id":"mg-3118601","polling_places":2,"approx":true,"official":false,"method":"voronoi-polling-places","whole_municipality":false,"approx_coords_only":false},"geometry":{"type":"MultiPolygon","coordinates":[[[[-44.12169,-19.92082],[-44.12071,-19.92587],[-44.11427,-19.92693],[-44.11293,-19.92338],[-44.11014,-19.92761],[-44.1084,-19.9279],[-44.1031,-19.93071],[-44.10521,-19.91892],[-44.11088,-19.90978],[-44.11174,-19.90944],[-44.11341,-19.91241],[-44.12169,-19.92082]]]]}},{"type":"Feature","properties":{"territory_id":"mg-3118601-tupa","name":"Tupã","municipality_id":"mg-3118601","polling_places":1,"approx":true,"official":false,"method":"voronoi-polling-places","whole_municipality":false,"approx_coords_only":false},"geometry":{"type":"MultiPolygon","coordinates":[[[[-44.1582,-19.86892],[-44.1533,-19.90334],[-44.12604,-19.87638],[-44.13974,-19.86764],[-44.1582,-19.86892]]]]}},{"type":"Feature","properties":{"territory_id":"mg-3118601-vila-belem","name":"Vila Belém","municipality_id":"mg-3118601","polling_places":1,"approx":true,"official":false,"method":"voronoi-polling-places","whole_municipality":false,"approx_coords_only":false},"geometry":{"type":"MultiPolygon","coordinates":[[[[-44.11088,-19.90978],[-44.10521,-19.91892],[-44.09268,-19.92311],[-44.0905,-19.91952],[-44.09064,-19.91624],[-44.09359,-19.90851],[-44.11088,-19.90978]]]]}},{"type":"Feature","properties":{"territory_id":"mg-3118601-vila-ipe-amarelo","name":"Vila Ipê Amarelo","municipality_id":"mg-3118601","polling_places":1,"approx":true,"official":false,"method":"voronoi-polling-places","whole_municipality":false,"approx_coords_only":false},"geometry":{"type":"MultiPolygon","coordinates":[[[[-44.14719,-19.81831],[-44.14603,-19.81895],[-44.09613,-19.81669],[-44.1013,-19.809],[-44.1351,-19.7988],[-44.14719,-19.81831]]]]}},{"type":"Feature","properties":{"territory_id":"mg-3118601-vila-perola","name":"Vila Perola","municipality_id":"mg-3118601","polling_places":1,"approx":true,"official":false,"method":"voronoi-polling-places","whole_municipality":false,"approx_coords_only":false},"geometry":{"type":"MultiPolygon","coordinates":[[[[-44.02202,-19.88644],[-44.02166,-19.88908],[-44.0205,-19.8859],[-44.02202,-19.88644]]]]}},{"type":"Feature","properties":{"territory_id":"mg-3118601-vila-sao-paulo","name":"Vila Sao Paulo","municipality_id":"mg-3118601","polling_places":1,"approx":true,"official":false,"method":"voronoi-polling-places","whole_municipality":false,"approx_coords_only":false},"geometry":{"type":"MultiPolygon","coordinates":[[[[-44.02137,-19.95749],[-44.02117,-19.958],[-44.01964,-19.95971],[-44.01717,-19.95977],[-44.01864,-19.94936],[-44.02137,-19.95749]]]]}},{"type":"Feature","properties":{"territory_id":"mg-3118601-xangri-la","name":"Xangri-lá","municipality_id":"mg-3118601","polling_places":1,"approx":true,"official":false,"method":"voronoi-polling-places","whole_municipality":false,"approx_coords_only":false},"geometry":{"type":"MultiPolygon","coordinates":[[[[-44.02773,-19.83263],[-44.02294,-19.84373],[-44.01097,-19.84715],[-44.0168,-19.8308],[-44.02773,-19.83263]]]]}}]}