{"type":"FeatureCollection","features":[{"type":"Feature","properties":{"territory_id":"mg-3119708-centro","name":"Centro","municipality_id":"mg-3119708","polling_places":1,"approx":true,"official":false,"method":"voronoi-polling-places","whole_municipality":false,"approx_coords_only":false},"geometry":{"type":"MultiPolygon","coordinates":[[[[-44.27549,-21.01438],[-44.2234,-21.02644],[-44.21632,-21.013],[-44.23434,-20.98547],[-44.27549,-21.01438]]]]}},{"type":"Feature","properties":{"territory_id":"mg-3119708-nossa-senhora-da-conceicao","name":"Nossa Senhora da Conceição","municipality_id":"mg-3119708","polling_places":1,"approx":true,"official":false,"method":"voronoi-polling-places","whole_municipality":false,"approx_coords_only":false},"geometry":{"type":"MultiPolygon","coordinates":[[[[-44.2234,-21.02644],[-44.20334,-21.04127],[-44.20359,-21.02938],[-44.21632,-21.013],[-44.2234,-21.02644]]]]}},{"type":"Feature","properties":{"territory_id":"mg-3119708-vila-fatima","name":"Vila Fátima","municipality_id":"mg-3119708","polling_places":1,"approx":true,"official":false,"method":"voronoi-polling-places","whole_municipality":false,"approx_coords_only":false},"geometry":{"type":"MultiPolygon","coordinates":[[[[-44.2778,-21.016],[-44.2743,-21.0569],[-44.2638,-21.0838],[-44.2245,-21.0747],[-44.20233,-21.06615],[-44.2013,-21.05747],[-44.20334,-21.04127],[-44.2234,-21.02644],[-44.27549,-21.01438],[-44.2778,-21.016]]]]}},{"type":"Feature","properties":{"territory_id":"mg-3119708-zona-rural","name":"Zona Rural","municipality_id":"mg-3119708","polling_places":4,"approx":true,"official":false,"method":"voronoi-polling-places","whole_municipality":false,"approx_coords_only":false},"geometry":{"type":"MultiPolygon","coordinates":[[[[-44.23434,-20.98547],[-44.21632,-21.013],[-44.20359,-21.02938],[-44.20334,-21.04127],[-44.2013,-21.05747],[-44.20233,-21.06615],[-44.1996,-21.0651],[-44.1429,-21.0733],[-44.1343,-21.023],[-44.1473,-20.9505],[-44.1895,-20.9762],[-44.2247,-20.9787],[-44.23434,-20.98547]]]]}}]}