{"type":"FeatureCollection","features":[{"type":"Feature","properties":{"territory_id":"mg-3119500-centro","name":"Centro","municipality_id":"mg-3119500","polling_places":2,"approx":true,"official":false,"method":"voronoi-polling-places","whole_municipality":false,"approx_coords_only":false},"geometry":{"type":"MultiPolygon","coordinates":[[[[-42.24712,-16.7298],[-42.22476,-16.71859],[-42.19172,-16.64294],[-42.18402,-16.61639],[-42.17888,-16.61625],[-42.16187,-16.58825],[-42.18618,-16.60014],[-42.24645,-16.62526],[-42.24712,-16.7298]]]]}},{"type":"Feature","properties":{"territory_id":"mg-3119500-comunidade-de-alagadico","name":"Comunidade de Alagadico","municipality_id":"mg-3119500","polling_places":1,"approx":true,"official":false,"method":"voronoi-polling-places","whole_municipality":false,"approx_coords_only":false},"geometry":{"type":"MultiPolygon","coordinates":[[[[-42.28227,-16.48022],[-42.24645,-16.62526],[-42.18618,-16.60014],[-42.16187,-16.58825],[-42.14012,-16.57452],[-42.21632,-16.47439],[-42.2653,-16.4683],[-42.28227,-16.48022]]]]}},{"type":"Feature","properties":{"territory_id":"mg-3119500-freire-cardoso","name":"Freire Cardoso","municipality_id":"mg-3119500","polling_places":1,"approx":true,"official":false,"method":"voronoi-polling-places","whole_municipality":false,"approx_coords_only":false},"geometry":{"type":"MultiPolygon","coordinates":[[[[-42.21632,-16.47439],[-42.14012,-16.57452],[-42.04592,-16.63773],[-42.042,-16.6305],[-42.0431,-16.5836],[-42.0418,-16.5494],[-42.0226,-16.4875],[-42.1054,-16.4371],[-42.1211,-16.456],[-42.1817,-16.4787],[-42.21632,-16.47439]]]]}},{"type":"Feature","properties":{"territory_id":"mg-3119500-lagoa-seca","name":"Lagoa Seca","municipality_id":"mg-3119500","polling_places":1,"approx":true,"official":false,"method":"voronoi-polling-places","whole_municipality":false,"approx_coords_only":false},"geometry":{"type":"MultiPolygon","coordinates":[[[[-42.19172,-16.64294],[-42.17888,-16.61625],[-42.18402,-16.61639],[-42.19172,-16.64294]]]]}},{"type":"Feature","properties":{"territory_id":"mg-3119500-povoado-de-barra-de-salinas","name":"Povoado de Barra de Salinas","municipality_id":"mg-3119500","polling_places":1,"approx":true,"official":false,"method":"voronoi-polling-places","whole_municipality":false,"approx_coords_only":false},"geometry":{"type":"MultiPolygon","coordinates":[[[[-42.3779,-16.4738],[-42.3706,-16.5051],[-42.322,-16.5147],[-42.2893,-16.5527],[-42.3098,-16.6006],[-42.3097,-16.6586],[-42.2923,-16.6672],[-42.2549,-16.7337],[-42.24712,-16.7298],[-42.24645,-16.62526],[-42.28227,-16.48022],[-42.3033,-16.495],[-42.3779,-16.4738]]]]}},{"type":"Feature","properties":{"territory_id":"mg-3119500-vereda","name":"Vereda","municipality_id":"mg-3119500","polling_places":1,"approx":true,"official":false,"method":"voronoi-polling-places","whole_municipality":false,"approx_coords_only":false},"geometry":{"type":"MultiPolygon","coordinates":[[[[-42.22476,-16.71859],[-42.2148,-16.7136],[-42.2089,-16.7641],[-42.1739,-16.7675],[-42.1511,-16.7426],[-42.0947,-16.7277],[-42.04592,-16.63773],[-42.14012,-16.57452],[-42.16187,-16.58825],[-42.17888,-16.61625],[-42.19172,-16.64294],[-42.22476,-16.71859]]]]}}]}