{"type":"FeatureCollection","features":[{"type":"Feature","properties":{"territory_id":"mg-3119955-centro","name":"Centro","municipality_id":"mg-3119955","polling_places":2,"approx":true,"official":false,"method":"voronoi-polling-places","whole_municipality":false,"approx_coords_only":false},"geometry":{"type":"MultiPolygon","coordinates":[[[[-45.5883,-20.4673],[-45.55629,-20.48587],[-45.5526,-20.48018],[-45.55103,-20.44822],[-45.53097,-20.39154],[-45.556,-20.3852],[-45.586,-20.4433],[-45.5883,-20.4673]]]]}},{"type":"Feature","properties":{"territory_id":"mg-3119955-corrego-fundo-de-baixo","name":"Córrego Fundo de Baixo","municipality_id":"mg-3119955","polling_places":1,"approx":true,"official":false,"method":"voronoi-polling-places","whole_municipality":false,"approx_coords_only":false},"geometry":{"type":"MultiPolygon","coordinates":[[[[-45.55629,-20.48587],[-45.539,-20.4959],[-45.5301,-20.5159],[-45.484,-20.4998],[-45.4898,-20.4373],[-45.50181,-20.41532],[-45.5526,-20.48018],[-45.55629,-20.48587]]]]}},{"type":"Feature","properties":{"territory_id":"mg-3119955-mizael-bernardes","name":"Mizael Bernardes","municipality_id":"mg-3119955","polling_places":1,"approx":true,"official":false,"method":"voronoi-polling-places","whole_municipality":false,"approx_coords_only":false},"geometry":{"type":"MultiPolygon","coordinates":[[[[-45.5526,-20.48018],[-45.50181,-20.41532],[-45.5122,-20.3963],[-45.53097,-20.39154],[-45.55103,-20.44822],[-45.5526,-20.48018]]]]}}]}