{"type":"FeatureCollection","features":[{"type":"Feature","properties":{"territory_id":"mg-3119104-centro","name":"Centro","municipality_id":"mg-3119104","polling_places":15,"approx":true,"official":false,"method":"voronoi-polling-places","whole_municipality":false,"approx_coords_only":false},"geometry":{"type":"MultiPolygon","coordinates":[[[[-44.62373,-18.33737],[-44.5882,-18.40308],[-44.46156,-18.36672],[-44.45942,-18.36901],[-44.53441,-18.50444],[-44.49584,-18.58075],[-44.4467,-18.5503],[-44.4558,-18.5247],[-44.43127,-18.47007],[-44.45251,-18.37094],[-44.45265,-18.37054],[-44.45183,-18.36615],[-44.45152,-18.36573],[-44.45099,-18.36525],[-44.45003,-18.36238],[-44.45362,-18.36107],[-44.45576,-18.35891],[-44.45898,-18.35404],[-44.46165,-18.35393],[-44.56326,-18.31803],[-44.5736,-18.32144],[-44.62373,-18.33737]]]]}},{"type":"Feature","properties":{"territory_id":"mg-3119104-clarindo-de-paiva","name":"Clarindo de Paiva","municipality_id":"mg-3119104","polling_places":1,"approx":true,"official":false,"method":"voronoi-polling-places","whole_municipality":false,"approx_coords_only":false},"geometry":{"type":"MultiPolygon","coordinates":[[[[-44.5882,-18.40308],[-44.53441,-18.50444],[-44.45942,-18.36901],[-44.46156,-18.36672],[-44.5882,-18.40308]]]]}},{"type":"Feature","properties":{"territory_id":"mg-3119104-gomes-carneiro","name":"Gomes Carneiro","municipality_id":"mg-3119104","polling_places":2,"approx":true,"official":false,"method":"voronoi-polling-places","whole_municipality":false,"approx_coords_only":false},"geometry":{"type":"MultiPolygon","coordinates":[[[[-44.45099,-18.36525],[-44.44697,-18.36725],[-44.44691,-18.36755],[-44.41456,-18.43038],[-44.4061,-18.3833],[-44.3742,-18.3339],[-44.3478,-18.3288],[-44.32426,-18.29105],[-44.43059,-18.34643],[-44.43303,-18.34749],[-44.45003,-18.36238],[-44.45099,-18.36525]]]]}},{"type":"Feature","properties":{"territory_id":"mg-3119104-maciel","name":"Maciel","municipality_id":"mg-3119104","polling_places":2,"approx":true,"official":false,"method":"voronoi-polling-places","whole_municipality":false,"approx_coords_only":false},"geometry":{"type":"MultiPolygon","coordinates":[[[[-44.45265,-18.37054],[-44.45251,-18.37094],[-44.43127,-18.47007],[-44.4153,-18.4345],[-44.41456,-18.43038],[-44.44691,-18.36755],[-44.44697,-18.36725],[-44.45099,-18.36525],[-44.45152,-18.36573],[-44.45183,-18.36615],[-44.45265,-18.37054]]]]}},{"type":"Feature","properties":{"territory_id":"mg-3119104-major-salvo","name":"Major Salvo","municipality_id":"mg-3119104","polling_places":1,"approx":true,"official":false,"method":"voronoi-polling-places","whole_municipality":false,"approx_coords_only":false},"geometry":{"type":"MultiPolygon","coordinates":[[[[-44.56326,-18.31803],[-44.46165,-18.35393],[-44.45898,-18.35404],[-44.43303,-18.34749],[-44.43059,-18.34643],[-44.32426,-18.29105],[-44.315,-18.2762],[-44.3139,-18.2317],[-44.33398,-18.22041],[-44.56326,-18.31803]]]]}},{"type":"Feature","properties":{"territory_id":"mg-3119104-maria-do-carmo","name":"Maria do Carmo","municipality_id":"mg-3119104","polling_places":1,"approx":true,"official":false,"method":"voronoi-polling-places","whole_municipality":false,"approx_coords_only":false},"geometry":{"type":"MultiPolygon","coordinates":[[[[-44.45898,-18.35404],[-44.45576,-18.35891],[-44.45362,-18.36107],[-44.45003,-18.36238],[-44.43303,-18.34749],[-44.45898,-18.35404]]]]}},{"type":"Feature","properties":{"territory_id":"mg-3119104-zona-rural","name":"Zona Rural","municipality_id":"mg-3119104","polling_places":5,"approx":true,"official":false,"method":"voronoi-polling-places","whole_municipality":false,"approx_coords_only":false},"geometry":{"type":"MultiPolygon","coordinates":[[[[-44.8656,-18.436],[-44.848,-18.474],[-44.8496,-18.5459],[-44.856,-18.5692],[-44.8206,-18.5975],[-44.8047,-18.65],[-44.8219,-18.6583],[-44.7477,-18.6777],[-44.7064,-18.626],[-44.6884,-18.5557],[-44.6322,-18.5278],[-44.5881,-18.5201],[-44.5406,-18.5668],[-44.5167,-18.6169],[-44.4977,-18.5819],[-44.49584,-18.58075],[-44.53441,-18.50444],[-44.5882,-18.40308],[-44.62373,-18.33737],[-44.5736,-18.32144],[-44.56326,-18.31803],[-44.33398,-18.22041],[-44.3913,-18.1882],[-44.4325,-18.2097],[-44.4605,-18.1965],[-44.4477,-18.1682],[-44.4748,-18.1163],[-44.4836,-18.0745],[-44.5383,-18.0488],[-44.5269,-17.9991],[-44.5439,-17.9837],[-44.5919,-17.9889],[-44.6209,-18.0557],[-44.6732,-18.0879],[-44.7078,-18.0867],[-44.7336,-18.1395],[-44.749,-18.17],[-44.8054,-18.1712],[-44.813,-18.2128],[-44.8335,-18.2299],[-44.8111,-18.2969],[-44.83,-18.3154],[-44.8376,-18.3872],[-44.8656,-18.436]]]]}}]}