{"type":"FeatureCollection","features":[{"type":"Feature","properties":{"territory_id":"mg-3119005-centro","name":"Centro","municipality_id":"mg-3119005","polling_places":2,"approx":true,"official":false,"method":"voronoi-polling-places","whole_municipality":true,"approx_coords_only":false},"geometry":{"type":"MultiPolygon","coordinates":[[[[-45.5562,-21.7891],[-45.5683,-21.7505],[-45.6208,-21.7583],[-45.7051,-21.678],[-45.729,-21.7074],[-45.7071,-21.7537],[-45.7316,-21.8055],[-45.7389,-21.862],[-45.7047,-21.8319],[-45.6061,-21.8493],[-45.6017,-21.8004],[-45.5562,-21.7891]]]]}}]}