{"type":"FeatureCollection","features":[{"type":"Feature","properties":{"territory_id":"mg-3119609-centro","name":"Centro","municipality_id":"mg-3119609","polling_places":4,"approx":true,"official":false,"method":"voronoi-polling-places","whole_municipality":false,"approx_coords_only":false},"geometry":{"type":"MultiPolygon","coordinates":[[[[-43.29302,-21.55147],[-43.26656,-21.58721],[-43.26656,-21.64008],[-43.263,-21.6374],[-43.2264,-21.6314],[-43.2137,-21.61],[-43.2633,-21.5449],[-43.29302,-21.55147]]]]}},{"type":"Feature","properties":{"territory_id":"mg-3119609-distrito-ribeirao-de-santo-antonio","name":"Distrito Ribeirão de Santo Antônio","municipality_id":"mg-3119609","polling_places":1,"approx":true,"official":false,"method":"voronoi-polling-places","whole_municipality":false,"approx_coords_only":false},"geometry":{"type":"MultiPolygon","coordinates":[[[[-43.3593,-21.6265],[-43.3256,-21.662],[-43.2949,-21.6614],[-43.26656,-21.64008],[-43.26656,-21.58721],[-43.29302,-21.55147],[-43.3361,-21.561],[-43.3577,-21.5878],[-43.3593,-21.6265]]]]}}]}