{"type":"FeatureCollection","features":[{"type":"Feature","properties":{"territory_id":"mg-3119906-campos-do-raposo","name":"Campos do Raposo","municipality_id":"mg-3119906","polling_places":1,"approx":true,"official":false,"method":"voronoi-polling-places","whole_municipality":false,"approx_coords_only":false},"geometry":{"type":"MultiPolygon","coordinates":[[[[-46.01421,-22.6995],[-46.0139,-22.6996],[-45.959,-22.6908],[-45.9363,-22.6514],[-45.9615,-22.6138],[-45.9515,-22.5876],[-45.9484,-22.5521],[-45.96295,-22.55711],[-46.01421,-22.6995]]]]}},{"type":"Feature","properties":{"territory_id":"mg-3119906-centro","name":"Centro","municipality_id":"mg-3119906","polling_places":2,"approx":true,"official":false,"method":"voronoi-polling-places","whole_municipality":false,"approx_coords_only":false},"geometry":{"type":"MultiPolygon","coordinates":[[[[-46.0539,-22.6874],[-46.01421,-22.6995],[-45.96295,-22.55711],[-45.9905,-22.5666],[-46.0325,-22.5978],[-46.0377,-22.6464],[-46.0539,-22.6874]]]]}}]}