{"type":"FeatureCollection","features":[{"type":"Feature","properties":{"territory_id":"mg-3119401-amaro-lanari","name":"Amaro Lanari","municipality_id":"mg-3119401","polling_places":3,"approx":false,"official":true,"method":"official-ibge-cd2022","whole_municipality":false,"approx_coords_only":false,"official_name":"Amaro Lanari","official_code":"3119401002","match":"direct"},"geometry":{"type":"MultiPolygon","coordinates":[[[[-42.57064,-19.5289],[-42.56891,-19.52995],[-42.56829,-19.53142],[-42.56904,-19.53302],[-42.56933,-19.53346],[-42.56934,-19.53406],[-42.56991,-19.5347],[-42.57064,-19.53514],[-42.57154,-19.53474],[-42.57214,-19.53363],[-42.57239,-19.53268],[-42.57276,-19.53209],[-42.57314,-19.5318],[-42.57389,-19.53164],[-42.57439,-19.5316],[-42.57513,-19.53516],[-42.5762,-19.53664],[-42.57914,-19.53658],[-42.57981,-19.53578],[-42.57993,-19.53572],[-42.58041,-19.5352],[-42.58046,-19.535],[-42.58058,-19.53094],[-42.57999,-19.53053],[-42.57966,-19.5301],[-42.5794,-19.52968],[-42.5791,-19.52886],[-42.57907,-19.52801],[-42.57934,-19.52703],[-42.58079,-19.5229],[-42.58087,-19.52227],[-42.58072,-19.52129],[-42.58051,-19.52087],[-42.58015,-19.52033],[-42.57969,-19.51987],[-42.57913,-19.5195],[-42.57826,-19.51919],[-42.57732,-19.5189],[-42.57649,-19.51848],[-42.57602,-19.5181],[-42.57565,-19.51767],[-42.57538,-19.51719],[-42.57533,-19.517],[-42.57392,-19.51714],[-42.57465,-19.52159],[-42.57483,-19.523],[-42.57491,-19.52354],[-42.57507,-19.5251],[-42.57483,-19.52597],[-42.57462,-19.52655],[-42.57349,-19.52739],[-42.57189,-19.52806],[-42.57064,-19.5289]]]]}},{"type":"Feature","properties":{"territory_id":"mg-3119401-caladinho-de-cima","name":"Caladinho de Cima","municipality_id":"mg-3119401","polling_places":2,"approx":true,"official":false,"method":"voronoi-polling-places","whole_municipality":false,"approx_coords_only":false},"geometry":{"type":"MultiPolygon","coordinates":[[[[-42.62527,-19.4556],[-42.62246,-19.47299],[-42.62175,-19.47309],[-42.62005,-19.47305],[-42.61811,-19.47376],[-42.61658,-19.47244],[-42.61537,-19.47161],[-42.61352,-19.47105],[-42.61232,-19.47216],[-42.61442,-19.47442],[-42.6158,-19.47606],[-42.61571,-19.47751],[-42.61592,-19.48175],[-42.61669,-19.48431],[-42.61704,-19.48407],[-42.61737,-19.48405],[-42.61754,-19.48446],[-42.61807,-19.48431],[-42.61848,-19.48384],[-42.61867,-19.48314],[-42.61895,-19.48264],[-42.6194,-19.48221],[-42.61934,-19.48227],[-42.6193,-19.48248],[-42.6195,-19.48271],[-42.61946,-19.48277],[-42.61949,-19.48295],[-42.61952,-19.48303],[-42.61952,-19.4831],[-42.61942,-19.48319],[-42.61933,-19.48329],[-42.61929,-19.48339],[-42.61935,-19.48352],[-42.61945,-19.48366],[-42.61951,-19.4838],[-42.61944,-19.48394],[-42.61944,-19.48403],[-42.61942,-19.48414],[-42.61937,-19.48422],[-42.61928,-19.48432],[-42.61923,-19.48444],[-42.61922,-19.48456],[-42.61914,-19.48487],[-42.61884,-19.48532],[-42.61877,-19.48553],[-42.61879,-19.48569],[-42.61877,-19.48613],[-42.61884,-19.48631],[-42.61897,-19.48643],[-42.61903,-19.48657],[-42.61904,-19.48672],[-42.61899,-19.48687],[-42.6189,-19.48703],[-42.61871,-19.48719],[-42.61848,-19.48752],[-42.61815,-19.48771],[-42.61803,-19.4879],[-42.61798,-19.48803],[-42.61729,-19.4884],[-42.618,-19.48896],[-42.61859,-19.48983],[-42.61898,-19.49004],[-42.61962,-19.48972],[-42.61975,-19.48977],[-42.61963,-19.4905],[-42.61955,-19.49067],[-42.61948,-19.49072],[-42.61916,-19.49131],[-42.61902,-19.49161],[-42.61903,-19.49161],[-42.6189,-19.49158],[-42.61875,-19.49157],[-42.61858,-19.49158],[-42.61833,-19.49155],[-42.61767,-19.4916],[-42.61747,-19.49165],[-42.61729,-19.49175],[-42.61687,-19.49219],[-42.61656,-19.49238],[-42.61635,-19.49246],[-42.61611,-19.49253],[-42.61566,-19.49253],[-42.61531,-19.49349],[-42.61492,-19.49419],[-42.61326,-19.49675],[-42.61308,-19.49713],[-42.6136,-19.49831],[-42.61293,-19.50079],[-42.59972,-19.50614],[-42.59557,-19.52088],[-42.58238,-19.53167],[-42.58146,-19.53133],[-42.58075,-19.53103],[-42.58058,-19.53094],[-42.57999,-19.53053],[-42.57966,-19.5301],[-42.5794,-19.52968],[-42.5791,-19.52886],[-42.57907,-19.52801],[-42.57934,-19.52703],[-42.58079,-19.5229],[-42.58087,-19.52227],[-42.58072,-19.52129],[-42.58051,-19.52087],[-42.58015,-19.52033],[-42.57969,-19.51987],[-42.57913,-19.5195],[-42.57826,-19.51919],[-42.57732,-19.5189],[-42.57649,-19.51848],[-42.57602,-19.5181],[-42.57565,-19.51767],[-42.57538,-19.51719],[-42.57533,-19.517],[-42.57392,-19.51714],[-42.57465,-19.52159],[-42.57483,-19.523],[-42.57491,-19.52354],[-42.57507,-19.5251],[-42.57488,-19.52578],[-42.5736,-19.5153],[-42.6045,-19.4916],[-42.5978,-19.4653],[-42.62527,-19.4556]]],[[[-42.6212,-19.48081],[-42.6212,-19.48082],[-42.62018,-19.4793],[-42.6212,-19.48081]]],[[[-42.61927,-19.47913],[-42.61925,-19.47931],[-42.61926,-19.47917],[-42.61927,-19.47913]]]]}},{"type":"Feature","properties":{"territory_id":"mg-3119401-caladinho-do-meio","name":"Caladinho do Meio","municipality_id":"mg-3119401","polling_places":1,"approx":true,"official":false,"method":"voronoi-polling-places","whole_municipality":false,"approx_coords_only":false},"geometry":{"type":"MultiPolygon","coordinates":[[[[-42.61828,-19.50423],[-42.61825,-19.50898],[-42.61781,-19.51021],[-42.59557,-19.52088],[-42.59972,-19.50614],[-42.61293,-19.50079],[-42.61241,-19.50273],[-42.61255,-19.50283],[-42.61298,-19.50299],[-42.61341,-19.50325],[-42.61465,-19.50372],[-42.61476,-19.50375],[-42.61513,-19.50383],[-42.61559,-19.50395],[-42.61631,-19.50407],[-42.61725,-19.50434],[-42.61774,-19.50444],[-42.61828,-19.50423]]]]}},{"type":"Feature","properties":{"territory_id":"mg-3119401-centro","name":"Centro","municipality_id":"mg-3119401","polling_places":7,"approx":false,"official":true,"method":"official-ibge-cd2022","whole_municipality":false,"approx_coords_only":false,"official_name":"Centro","official_code":"3119401008","match":"direct"},"geometry":{"type":"MultiPolygon","coordinates":[[[[-42.62626,-19.53307],[-42.62643,-19.53294],[-42.62742,-19.53246],[-42.6294,-19.53031],[-42.63034,-19.52916],[-42.63098,-19.52844],[-42.6317,-19.52771],[-42.63196,-19.52732],[-42.63194,-19.52731],[-42.63185,-19.52707],[-42.63154,-19.52615],[-42.63141,-19.52592],[-42.6312,-19.52615],[-42.63099,-19.52649],[-42.6308,-19.52688],[-42.63059,-19.52748],[-42.63048,-19.52771],[-42.6304,-19.52788],[-42.63017,-19.5282],[-42.62986,-19.52853],[-42.6297,-19.52866],[-42.62914,-19.52904],[-42.62885,-19.52928],[-42.62748,-19.53033],[-42.6274,-19.53018],[-42.6275,-19.53013],[-42.62771,-19.52996],[-42.6278,-19.52986],[-42.62786,-19.52975],[-42.62816,-19.52952],[-42.62864,-19.5291],[-42.62881,-19.52898],[-42.62922,-19.52859],[-42.62896,-19.52857],[-42.62866,-19.52859],[-42.62844,-19.52864],[-42.62811,-19.52878],[-42.62778,-19.52904],[-42.6276,-19.52915],[-42.62735,-19.52926],[-42.62708,-19.5293],[-42.62709,-19.52882],[-42.62708,-19.52875],[-42.62702,-19.52864],[-42.62651,-19.52887],[-42.62589,-19.52779],[-42.62572,-19.52734],[-42.62559,-19.52694],[-42.62569,-19.52674],[-42.62592,-19.52647],[-42.62722,-19.52484],[-42.62785,-19.52401],[-42.62798,-19.5238],[-42.62812,-19.52349],[-42.62831,-19.52311],[-42.62822,-19.52308],[-42.62791,-19.52307],[-42.62771,-19.52308],[-42.62759,-19.52313],[-42.62752,-19.52301],[-42.62732,-19.52304],[-42.62729,-19.52297],[-42.62659,-19.52238],[-42.62619,-19.52197],[-42.6261,-19.5219],[-42.62602,-19.5219],[-42.62582,-19.52238],[-42.62359,-19.52474],[-42.62291,-19.52535],[-42.62099,-19.52675],[-42.62092,-19.52668],[-42.62033,-19.52631],[-42.61936,-19.5271],[-42.61953,-19.52715],[-42.61965,-19.52731],[-42.62113,-19.52869],[-42.62141,-19.52897],[-42.62164,-19.52911],[-42.62184,-19.52948],[-42.62266,-19.5306],[-42.62397,-19.53227],[-42.62415,-19.53252],[-42.6245,-19.53288],[-42.62466,-19.53297],[-42.62522,-19.53324],[-42.62582,-19.53329],[-42.62606,-19.53313],[-42.62624,-19.53312],[-42.62625,-19.5331],[-42.62626,-19.53307]]]]}},{"type":"Feature","properties":{"territory_id":"mg-3119401-cocais-dos-arrudas","name":"Cocais dos Arrudas","municipality_id":"mg-3119401","polling_places":1,"approx":true,"official":false,"method":"voronoi-polling-places","whole_municipality":false,"approx_coords_only":false},"geometry":{"type":"MultiPolygon","coordinates":[[[[-42.7921,-19.4079],[-42.7697,-19.4123],[-42.7459,-19.4696],[-42.7422,-19.5138],[-42.73818,-19.51773],[-42.65412,-19.4454],[-42.6578,-19.4441],[-42.695,-19.4177],[-42.706,-19.3905],[-42.6852,-19.3682],[-42.6976,-19.3538],[-42.742,-19.3553],[-42.7921,-19.4079]]]]}},{"type":"Feature","properties":{"territory_id":"mg-3119401-corrego-alto","name":"Corrego Alto","municipality_id":"mg-3119401","polling_places":1,"approx":false,"official":true,"method":"official-ibge-cd2022","whole_municipality":false,"approx_coords_only":false,"official_name":"Córrego Alto","official_code":"3119401036","match":"direct"},"geometry":{"type":"MultiPolygon","coordinates":[[[[-42.62005,-19.47884],[-42.62008,-19.47912],[-42.62018,-19.4793],[-42.62141,-19.48114],[-42.62234,-19.48058],[-42.62233,-19.4801],[-42.62228,-19.47967],[-42.6222,-19.47911],[-42.6221,-19.47866],[-42.62229,-19.4786],[-42.62247,-19.4786],[-42.62263,-19.47857],[-42.62268,-19.47852],[-42.6227,-19.47847],[-42.62269,-19.47843],[-42.62259,-19.47823],[-42.62255,-19.47801],[-42.62259,-19.47789],[-42.62269,-19.47778],[-42.62288,-19.47764],[-42.62314,-19.47726],[-42.62328,-19.47723],[-42.62342,-19.47723],[-42.6237,-19.47726],[-42.62388,-19.47732],[-42.62403,-19.47729],[-42.62418,-19.47708],[-42.62451,-19.47705],[-42.62491,-19.47685],[-42.62517,-19.47657],[-42.62526,-19.47632],[-42.62534,-19.47625],[-42.62561,-19.47641],[-42.62582,-19.47647],[-42.62623,-19.47626],[-42.62644,-19.47584],[-42.62632,-19.47564],[-42.62629,-19.4755],[-42.62637,-19.47536],[-42.62662,-19.47521],[-42.62737,-19.47514],[-42.62763,-19.47501],[-42.62778,-19.47472],[-42.62788,-19.47445],[-42.62783,-19.47409],[-42.62756,-19.4738],[-42.62756,-19.47355],[-42.62568,-19.4733],[-42.62331,-19.47288],[-42.62175,-19.47309],[-42.62005,-19.47305],[-42.61811,-19.47376],[-42.61658,-19.47244],[-42.61537,-19.47161],[-42.61352,-19.47105],[-42.61232,-19.47216],[-42.61442,-19.47442],[-42.6158,-19.47606],[-42.61571,-19.47751],[-42.61592,-19.48175],[-42.61669,-19.48431],[-42.61704,-19.48407],[-42.61737,-19.48405],[-42.61754,-19.48446],[-42.61807,-19.48431],[-42.61848,-19.48384],[-42.61867,-19.48314],[-42.61895,-19.48264],[-42.6194,-19.48221],[-42.61942,-19.48214],[-42.61941,-19.48203],[-42.61927,-19.48197],[-42.61921,-19.48186],[-42.61937,-19.48172],[-42.61944,-19.48173],[-42.61955,-19.48159],[-42.61962,-19.48154],[-42.61965,-19.48141],[-42.61959,-19.48131],[-42.61952,-19.48111],[-42.61948,-19.48105],[-42.61945,-19.48085],[-42.61937,-19.48066],[-42.61936,-19.48053],[-42.61939,-19.48046],[-42.61939,-19.48038],[-42.61937,-19.48031],[-42.61933,-19.48025],[-42.6193,-19.47978],[-42.61928,-19.47971],[-42.61925,-19.47964],[-42.61928,-19.47948],[-42.61925,-19.47931],[-42.61926,-19.47917],[-42.61929,-19.47903],[-42.61973,-19.47886],[-42.62005,-19.47884]]]]}},{"type":"Feature","properties":{"territory_id":"mg-3119401-floresta","name":"Floresta","municipality_id":"mg-3119401","polling_places":2,"approx":false,"official":true,"method":"official-ibge-cd2022","whole_municipality":false,"approx_coords_only":false,"official_name":"Floresta","official_code":"3119401038","match":"direct"},"geometry":{"type":"MultiPolygon","coordinates":[[[[-42.62798,-19.48529],[-42.62805,-19.48523],[-42.62845,-19.48476],[-42.6285,-19.48476],[-42.62879,-19.48527],[-42.62948,-19.4867],[-42.63015,-19.48883],[-42.63021,-19.48906],[-42.63021,-19.48921],[-42.63075,-19.48926],[-42.63188,-19.48934],[-42.632,-19.48944],[-42.6324,-19.48987],[-42.63283,-19.49028],[-42.63292,-19.49022],[-42.63285,-19.48995],[-42.63283,-19.48966],[-42.63279,-19.48941],[-42.63274,-19.48925],[-42.63263,-19.48907],[-42.63262,-19.48895],[-42.63257,-19.48886],[-42.63223,-19.48786],[-42.63207,-19.48722],[-42.63205,-19.48699],[-42.63217,-19.48672],[-42.63253,-19.48621],[-42.63257,-19.48604],[-42.63253,-19.48598],[-42.63249,-19.48595],[-42.63247,-19.48583],[-42.63227,-19.48527],[-42.63198,-19.48463],[-42.63177,-19.484],[-42.63173,-19.48365],[-42.63165,-19.48335],[-42.63168,-19.483],[-42.63161,-19.48255],[-42.63153,-19.48165],[-42.63157,-19.48144],[-42.63125,-19.4812],[-42.63065,-19.48063],[-42.63014,-19.4799],[-42.62947,-19.47882],[-42.6292,-19.47886],[-42.62893,-19.47885],[-42.62859,-19.47853],[-42.62704,-19.48026],[-42.62576,-19.48179],[-42.62484,-19.48285],[-42.62507,-19.48321],[-42.62513,-19.48333],[-42.62484,-19.48376],[-42.6248,-19.48391],[-42.6248,-19.48393],[-42.62621,-19.48397],[-42.62651,-19.48487],[-42.62692,-19.48491],[-42.62716,-19.48521],[-42.62715,-19.48571],[-42.62647,-19.48654],[-42.62694,-19.48655],[-42.62733,-19.48666],[-42.62816,-19.48636],[-42.62843,-19.48647],[-42.6286,-19.48616],[-42.62842,-19.48592],[-42.62798,-19.48529]]]]}},{"type":"Feature","properties":{"territory_id":"mg-3119401-giovanini","name":"Giovanini","municipality_id":"mg-3119401","polling_places":2,"approx":true,"official":false,"method":"voronoi-polling-places","whole_municipality":false,"approx_coords_only":false},"geometry":{"type":"MultiPolygon","coordinates":[[[[-42.73758,-19.51832],[-42.7246,-19.531],[-42.667,-19.5281],[-42.62808,-19.53174],[-42.6294,-19.53031],[-42.63034,-19.52916],[-42.63098,-19.52844],[-42.6317,-19.52771],[-42.63196,-19.52732],[-42.63194,-19.52731],[-42.63185,-19.52707],[-42.63154,-19.52615],[-42.63141,-19.52592],[-42.63145,-19.52588],[-42.63172,-19.52571],[-42.63211,-19.52555],[-42.63275,-19.5253],[-42.63445,-19.52472],[-42.63483,-19.52472],[-42.63576,-19.52475],[-42.63511,-19.52372],[-42.63493,-19.52341],[-42.63486,-19.52336],[-42.63494,-19.52237],[-42.63464,-19.52236],[-42.63416,-19.52229],[-42.6323,-19.5221],[-42.63224,-19.52248],[-42.6322,-19.52289],[-42.63164,-19.52308],[-42.63118,-19.52322],[-42.63044,-19.52319],[-42.62954,-19.52313],[-42.62831,-19.52311],[-42.62822,-19.52308],[-42.62791,-19.52307],[-42.62771,-19.52308],[-42.62759,-19.52313],[-42.62752,-19.52301],[-42.62732,-19.52304],[-42.62729,-19.52297],[-42.62659,-19.52238],[-42.62619,-19.52197],[-42.6261,-19.5219],[-42.62602,-19.5219],[-42.62582,-19.52238],[-42.62359,-19.52474],[-42.62518,-19.52305],[-42.62417,-19.52215],[-42.62398,-19.52202],[-42.6237,-19.52191],[-42.62414,-19.52085],[-42.62441,-19.5203],[-42.62401,-19.52046],[-42.62352,-19.52082],[-42.62313,-19.52117],[-42.62282,-19.52175],[-42.62241,-19.5228],[-42.62238,-19.52297],[-42.62204,-19.52345],[-42.62183,-19.52363],[-42.62145,-19.52387],[-42.61781,-19.51021],[-42.61825,-19.50898],[-42.61929,-19.50928],[-42.61961,-19.50965],[-42.61993,-19.51011],[-42.61995,-19.51068],[-42.62064,-19.51167],[-42.62133,-19.51199],[-42.62182,-19.51187],[-42.62212,-19.51199],[-42.62323,-19.51264],[-42.62387,-19.51292],[-42.62477,-19.51305],[-42.62603,-19.51329],[-42.62621,-19.51341],[-42.62603,-19.51434],[-42.62639,-19.51483],[-42.62722,-19.51499],[-42.62741,-19.51518],[-42.62742,-19.51522],[-42.62757,-19.51525],[-42.62762,-19.51505],[-42.62763,-19.51492],[-42.62777,-19.51451],[-42.62793,-19.51418],[-42.62806,-19.51359],[-42.62814,-19.51311],[-42.6283,-19.51276],[-42.62831,-19.5124],[-42.62814,-19.51188],[-42.62804,-19.51146],[-42.6278,-19.51116],[-42.62774,-19.511],[-42.73758,-19.51832]]],[[[-42.63138,-19.52595],[-42.6312,-19.52615],[-42.6313,-19.52603],[-42.63138,-19.52595]]],[[[-42.6312,-19.52615],[-42.63101,-19.52645],[-42.63106,-19.52636],[-42.6312,-19.52615]]],[[[-42.63095,-19.52656],[-42.6308,-19.52688],[-42.63092,-19.52663],[-42.63095,-19.52656]]],[[[-42.63059,-19.52748],[-42.63048,-19.52771],[-42.6304,-19.52788],[-42.63059,-19.52748]]],[[[-42.62986,-19.52853],[-42.6297,-19.52866],[-42.62968,-19.52868],[-42.62986,-19.52853]]],[[[-42.62927,-19.52515],[-42.62812,-19.5273],[-42.62794,-19.52761],[-42.62847,-19.52785],[-42.62854,-19.52787],[-42.62848,-19.52789],[-42.62838,-19.528],[-42.62825,-19.52807],[-42.62822,-19.52811],[-42.62821,-19.52823],[-42.62806,-19.52825],[-42.62811,-19.52878],[-42.62778,-19.52904],[-42.6276,-19.52915],[-42.62735,-19.52926],[-42.62708,-19.5293],[-42.62709,-19.52882],[-42.62708,-19.52875],[-42.62702,-19.52864],[-42.62651,-19.52887],[-42.62589,-19.52779],[-42.62572,-19.52734],[-42.62559,-19.52694],[-42.62569,-19.52674],[-42.62592,-19.52647],[-42.62722,-19.52484],[-42.62785,-19.52401],[-42.62798,-19.5238],[-42.62837,-19.524],[-42.62879,-19.5243],[-42.62924,-19.52464],[-42.62903,-19.52499],[-42.62927,-19.52515]]],[[[-42.62386,-19.53214],[-42.62367,-19.53216],[-42.62356,-19.53175],[-42.62386,-19.53214]]]]}},{"type":"Feature","properties":{"territory_id":"mg-3119401-jardim-primavera","name":"Jardim Primavera","municipality_id":"mg-3119401","polling_places":1,"approx":false,"official":true,"method":"official-ibge-cd2022","whole_municipality":false,"approx_coords_only":false,"official_name":"Jardim Primavera","official_code":"3119401041","match":"direct"},"geometry":{"type":"MultiPolygon","coordinates":[[[[-42.64444,-19.47663],[-42.64464,-19.47668],[-42.64479,-19.47669],[-42.64616,-19.47665],[-42.6462,-19.47678],[-42.64637,-19.47685],[-42.64652,-19.47694],[-42.64668,-19.47699],[-42.6468,-19.47691],[-42.64685,-19.47683],[-42.64709,-19.47595],[-42.6472,-19.47568],[-42.64722,-19.47555],[-42.64752,-19.47446],[-42.64743,-19.4743],[-42.64741,-19.4742],[-42.6472,-19.47387],[-42.64687,-19.47324],[-42.64681,-19.47309],[-42.6467,-19.47296],[-42.64657,-19.47275],[-42.64624,-19.47231],[-42.646,-19.47231],[-42.64582,-19.47252],[-42.6459,-19.47278],[-42.64589,-19.47294],[-42.64585,-19.47309],[-42.64569,-19.47316],[-42.64525,-19.47319],[-42.64511,-19.47335],[-42.64458,-19.47372],[-42.64386,-19.47411],[-42.6437,-19.47422],[-42.64357,-19.4742],[-42.6432,-19.47437],[-42.64275,-19.47448],[-42.64251,-19.47494],[-42.64264,-19.47555],[-42.64285,-19.47573],[-42.64297,-19.47574],[-42.64303,-19.47587],[-42.64319,-19.47595],[-42.6431,-19.476],[-42.64309,-19.47608],[-42.64288,-19.47603],[-42.64283,-19.47616],[-42.64292,-19.47624],[-42.6428,-19.47634],[-42.64268,-19.47632],[-42.64262,-19.47643],[-42.6427,-19.47654],[-42.64251,-19.47668],[-42.64243,-19.47686],[-42.64263,-19.47718],[-42.64245,-19.47728],[-42.64232,-19.47706],[-42.64219,-19.47708],[-42.64219,-19.47723],[-42.64195,-19.4772],[-42.64172,-19.47732],[-42.64162,-19.47756],[-42.64183,-19.47753],[-42.64242,-19.47762],[-42.64268,-19.47751],[-42.64284,-19.47748],[-42.64296,-19.47728],[-42.64322,-19.47732],[-42.6433,-19.47709],[-42.64356,-19.47692],[-42.64422,-19.47662],[-42.64444,-19.47663]]]]}},{"type":"Feature","properties":{"territory_id":"mg-3119401-julia-kubitschek","name":"Julia Kubitschek","municipality_id":"mg-3119401","polling_places":1,"approx":false,"official":true,"method":"official-ibge-cd2022","whole_municipality":false,"approx_coords_only":false,"official_name":"Julia Kubitschek","official_code":"3119401044","match":"direct"},"geometry":{"type":"MultiPolygon","coordinates":[[[[-42.62769,-19.5104],[-42.62769,-19.5103],[-42.62774,-19.51019],[-42.62774,-19.50953],[-42.62788,-19.50915],[-42.62788,-19.50908],[-42.62792,-19.50873],[-42.62796,-19.50862],[-42.62808,-19.5085],[-42.6281,-19.50838],[-42.62803,-19.50825],[-42.62806,-19.508],[-42.62823,-19.50787],[-42.62854,-19.50758],[-42.62862,-19.50746],[-42.629,-19.5071],[-42.62907,-19.50696],[-42.62918,-19.50662],[-42.62918,-19.5063],[-42.62912,-19.50615],[-42.62907,-19.50591],[-42.62921,-19.50567],[-42.6294,-19.50545],[-42.62946,-19.50532],[-42.62946,-19.50511],[-42.62935,-19.5049],[-42.6293,-19.50472],[-42.62925,-19.50427],[-42.62921,-19.50416],[-42.62923,-19.50398],[-42.62928,-19.50379],[-42.62928,-19.50367],[-42.62916,-19.50351],[-42.62903,-19.50339],[-42.62891,-19.50321],[-42.62889,-19.50293],[-42.62899,-19.50254],[-42.62915,-19.50234],[-42.62919,-19.50209],[-42.62916,-19.50185],[-42.62886,-19.50116],[-42.62883,-19.50092],[-42.62884,-19.50062],[-42.62895,-19.50043],[-42.62892,-19.50011],[-42.62892,-19.49992],[-42.62885,-19.49973],[-42.62895,-19.49941],[-42.62899,-19.49914],[-42.62901,-19.49837],[-42.62938,-19.49811],[-42.62973,-19.49775],[-42.62989,-19.49745],[-42.63026,-19.49723],[-42.63055,-19.49681],[-42.63068,-19.49649],[-42.63069,-19.49633],[-42.63068,-19.49614],[-42.63064,-19.496],[-42.63052,-19.49585],[-42.63019,-19.49582],[-42.6296,-19.49605],[-42.62879,-19.49615],[-42.62825,-19.49636],[-42.62781,-19.49672],[-42.62738,-19.49686],[-42.62682,-19.49698],[-42.62584,-19.49725],[-42.62486,-19.49773],[-42.62433,-19.49803],[-42.62361,-19.49831],[-42.62295,-19.49824],[-42.62126,-19.49816],[-42.62131,-19.50004],[-42.62145,-19.50127],[-42.62163,-19.50194],[-42.62173,-19.50225],[-42.62184,-19.50247],[-42.62202,-19.50267],[-42.62219,-19.50282],[-42.62234,-19.50296],[-42.62253,-19.50298],[-42.62258,-19.50305],[-42.62261,-19.50317],[-42.62261,-19.50322],[-42.62352,-19.5039],[-42.62385,-19.5041],[-42.62298,-19.50428],[-42.62237,-19.50446],[-42.62174,-19.50454],[-42.62127,-19.50462],[-42.62057,-19.50466],[-42.62008,-19.50472],[-42.61978,-19.50472],[-42.62028,-19.50515],[-42.61959,-19.50641],[-42.61894,-19.50801],[-42.61917,-19.50914],[-42.61961,-19.50965],[-42.61993,-19.51011],[-42.61995,-19.51068],[-42.62064,-19.51167],[-42.62133,-19.51199],[-42.62182,-19.51187],[-42.62212,-19.51199],[-42.62323,-19.51264],[-42.62387,-19.51292],[-42.62477,-19.51305],[-42.62603,-19.51329],[-42.62621,-19.51341],[-42.62603,-19.51434],[-42.62639,-19.51483],[-42.62722,-19.51499],[-42.62741,-19.51518],[-42.62742,-19.51522],[-42.62757,-19.51525],[-42.62762,-19.51505],[-42.62763,-19.51492],[-42.62777,-19.51451],[-42.62793,-19.51418],[-42.62806,-19.51359],[-42.62814,-19.51311],[-42.6283,-19.51276],[-42.62831,-19.5124],[-42.62814,-19.51188],[-42.62804,-19.51146],[-42.6278,-19.51116],[-42.62769,-19.51086],[-42.62765,-19.51055],[-42.62768,-19.51042],[-42.62769,-19.5104]]]]}},{"type":"Feature","properties":{"territory_id":"mg-3119401-mangueiras","name":"Mangueiras","municipality_id":"mg-3119401","polling_places":1,"approx":false,"official":true,"method":"official-ibge-cd2022","whole_municipality":false,"approx_coords_only":false,"official_name":"Mangueiras","official_code":"3119401013","match":"direct"},"geometry":{"type":"MultiPolygon","coordinates":[[[[-42.60087,-19.53559],[-42.60106,-19.53509],[-42.60116,-19.53497],[-42.60192,-19.53354],[-42.60211,-19.53214],[-42.6022,-19.53126],[-42.60242,-19.53075],[-42.60264,-19.53039],[-42.60317,-19.52996],[-42.60384,-19.52991],[-42.60375,-19.52964],[-42.60245,-19.52773],[-42.60229,-19.5273],[-42.60165,-19.52794],[-42.60148,-19.52817],[-42.60125,-19.5285],[-42.60099,-19.52902],[-42.60065,-19.52996],[-42.6005,-19.53045],[-42.59977,-19.53014],[-42.59907,-19.53001],[-42.59848,-19.52968],[-42.59852,-19.52963],[-42.59855,-19.52947],[-42.59864,-19.52936],[-42.59871,-19.52907],[-42.59867,-19.529],[-42.59871,-19.52886],[-42.59929,-19.52798],[-42.59938,-19.52781],[-42.5961,-19.52627],[-42.59346,-19.52711],[-42.59296,-19.53102],[-42.59317,-19.53351],[-42.59307,-19.53439],[-42.59312,-19.53477],[-42.59314,-19.5357],[-42.59238,-19.53573],[-42.59144,-19.53568],[-42.59042,-19.53551],[-42.58922,-19.53514],[-42.58829,-19.5347],[-42.58713,-19.53403],[-42.58587,-19.53327],[-42.58478,-19.53266],[-42.58393,-19.53226],[-42.58146,-19.53133],[-42.58075,-19.53103],[-42.58058,-19.53094],[-42.58046,-19.535],[-42.58041,-19.5352],[-42.58096,-19.535],[-42.58193,-19.53458],[-42.58342,-19.53437],[-42.58511,-19.53496],[-42.58578,-19.53499],[-42.59185,-19.53712],[-42.59542,-19.53736],[-42.59636,-19.53739],[-42.5972,-19.53739],[-42.59848,-19.53746],[-42.59883,-19.53725],[-42.59917,-19.53725],[-42.59971,-19.53688],[-42.60051,-19.53594],[-42.60087,-19.53559]]]]}},{"type":"Feature","properties":{"territory_id":"mg-3119401-manoel-maia","name":"Manoel Maia","municipality_id":"mg-3119401","polling_places":1,"approx":false,"official":true,"method":"official-ibge-cd2022","whole_municipality":false,"approx_coords_only":false,"official_name":"Manoel Maia","official_code":"3119401046","match":"direct"},"geometry":{"type":"MultiPolygon","coordinates":[[[[-42.63447,-19.48343],[-42.63487,-19.48328],[-42.63507,-19.48317],[-42.63521,-19.48325],[-42.63526,-19.48342],[-42.63547,-19.4839],[-42.63565,-19.48403],[-42.63583,-19.48406],[-42.63596,-19.48405],[-42.63606,-19.48402],[-42.63673,-19.48336],[-42.6368,-19.48323],[-42.63683,-19.48308],[-42.63691,-19.48292],[-42.63706,-19.48269],[-42.63733,-19.48251],[-42.63748,-19.48238],[-42.63763,-19.48208],[-42.6377,-19.48189],[-42.63774,-19.48165],[-42.63771,-19.48155],[-42.63775,-19.48143],[-42.63772,-19.48092],[-42.63778,-19.48074],[-42.63777,-19.48038],[-42.63783,-19.48022],[-42.6378,-19.47996],[-42.63767,-19.4796],[-42.63742,-19.47929],[-42.63735,-19.47926],[-42.63725,-19.47927],[-42.63722,-19.47932],[-42.63693,-19.47944],[-42.6359,-19.47974],[-42.63575,-19.47982],[-42.63486,-19.48007],[-42.635,-19.48059],[-42.63459,-19.48071],[-42.63378,-19.4809],[-42.63414,-19.48196],[-42.63398,-19.48203],[-42.63362,-19.4821],[-42.63324,-19.4822],[-42.63282,-19.48243],[-42.63279,-19.48254],[-42.63279,-19.48299],[-42.63295,-19.48394],[-42.63297,-19.48416],[-42.63293,-19.48432],[-42.63286,-19.48447],[-42.63274,-19.48462],[-42.63254,-19.48498],[-42.63238,-19.48515],[-42.63226,-19.48525],[-42.63247,-19.48583],[-42.63249,-19.48595],[-42.63253,-19.48598],[-42.63257,-19.48604],[-42.63351,-19.48461],[-42.63393,-19.48388],[-42.63433,-19.48349],[-42.63447,-19.48343]]]]}},{"type":"Feature","properties":{"territory_id":"mg-3119401-melo-viana","name":"Melo Viana","municipality_id":"mg-3119401","polling_places":1,"approx":false,"official":true,"method":"official-ibge-cd2022","whole_municipality":false,"approx_coords_only":false,"official_name":"Melo Viana","official_code":"3119401048","match":"direct"},"geometry":{"type":"MultiPolygon","coordinates":[[[[-42.63185,-19.50315],[-42.63219,-19.5015],[-42.63303,-19.50209],[-42.63432,-19.5031],[-42.63465,-19.50275],[-42.63457,-19.5024],[-42.63452,-19.50207],[-42.63432,-19.50037],[-42.63432,-19.50025],[-42.63389,-19.5001],[-42.63402,-19.49949],[-42.63423,-19.49814],[-42.63427,-19.49811],[-42.63461,-19.49809],[-42.63458,-19.49788],[-42.63446,-19.49759],[-42.63451,-19.49727],[-42.63443,-19.49684],[-42.63427,-19.49664],[-42.63424,-19.49653],[-42.63398,-19.4953],[-42.63373,-19.49539],[-42.63353,-19.49528],[-42.63349,-19.49522],[-42.63346,-19.49505],[-42.63331,-19.49507],[-42.6331,-19.49523],[-42.63277,-19.49525],[-42.63261,-19.4951],[-42.63245,-19.49504],[-42.63233,-19.49503],[-42.63221,-19.49498],[-42.6321,-19.49497],[-42.63183,-19.49507],[-42.63165,-19.49519],[-42.63155,-19.49532],[-42.63146,-19.49542],[-42.63133,-19.49545],[-42.63084,-19.49549],[-42.63068,-19.49552],[-42.63055,-19.49558],[-42.6305,-19.49571],[-42.63052,-19.49585],[-42.63064,-19.496],[-42.63068,-19.49614],[-42.63069,-19.49633],[-42.63068,-19.49649],[-42.63055,-19.49681],[-42.63026,-19.49723],[-42.62989,-19.49745],[-42.62973,-19.49775],[-42.62938,-19.49811],[-42.62901,-19.49837],[-42.62899,-19.49914],[-42.62895,-19.49941],[-42.62885,-19.49973],[-42.62892,-19.49992],[-42.62892,-19.50011],[-42.62895,-19.50043],[-42.62884,-19.50062],[-42.62883,-19.50092],[-42.62886,-19.50116],[-42.62916,-19.50185],[-42.62919,-19.50209],[-42.62915,-19.50234],[-42.62899,-19.50254],[-42.62889,-19.50293],[-42.62891,-19.50321],[-42.62903,-19.50339],[-42.62916,-19.50351],[-42.62928,-19.50367],[-42.62928,-19.50379],[-42.62923,-19.50398],[-42.62921,-19.50416],[-42.62925,-19.50427],[-42.6293,-19.50472],[-42.62935,-19.5049],[-42.62946,-19.50511],[-42.62946,-19.50532],[-42.6294,-19.50545],[-42.62921,-19.50567],[-42.62907,-19.50591],[-42.62912,-19.50615],[-42.62918,-19.5063],[-42.62918,-19.50662],[-42.62907,-19.50696],[-42.629,-19.5071],[-42.62862,-19.50746],[-42.62854,-19.50758],[-42.62865,-19.50764],[-42.62947,-19.50782],[-42.62985,-19.5076],[-42.63004,-19.50756],[-42.63009,-19.50728],[-42.63079,-19.50742],[-42.63091,-19.50743],[-42.63083,-19.50737],[-42.63098,-19.50662],[-42.63117,-19.50583],[-42.63123,-19.50579],[-42.63128,-19.50569],[-42.63144,-19.50494],[-42.63167,-19.50401],[-42.63184,-19.50319],[-42.63185,-19.50315]]]]}},{"type":"Feature","properties":{"territory_id":"mg-3119401-nossa-senhora-da-penha","name":"Nossa Senhora da Penha","municipality_id":"mg-3119401","polling_places":1,"approx":false,"official":true,"method":"official-ibge-cd2022","whole_municipality":false,"approx_coords_only":false,"official_name":"Nossa Senhora da Penha","official_code":"3119401017","match":"direct"},"geometry":{"type":"MultiPolygon","coordinates":[[[[-42.6307,-19.52716],[-42.6308,-19.52688],[-42.63092,-19.52663],[-42.63106,-19.52636],[-42.6312,-19.52615],[-42.6313,-19.52603],[-42.63145,-19.52588],[-42.63172,-19.52571],[-42.63211,-19.52555],[-42.63275,-19.5253],[-42.63445,-19.52472],[-42.63483,-19.52472],[-42.63576,-19.52475],[-42.63511,-19.52372],[-42.63493,-19.52341],[-42.63486,-19.52336],[-42.63494,-19.52237],[-42.63464,-19.52236],[-42.63416,-19.52229],[-42.6323,-19.5221],[-42.63224,-19.52248],[-42.6322,-19.52289],[-42.63164,-19.52308],[-42.63118,-19.52322],[-42.63044,-19.52319],[-42.62954,-19.52313],[-42.62831,-19.52311],[-42.62812,-19.52349],[-42.62798,-19.5238],[-42.62837,-19.524],[-42.62879,-19.5243],[-42.62924,-19.52464],[-42.62903,-19.52499],[-42.62927,-19.52515],[-42.62812,-19.5273],[-42.62794,-19.52761],[-42.62847,-19.52785],[-42.62854,-19.52787],[-42.62848,-19.52789],[-42.62838,-19.528],[-42.62825,-19.52807],[-42.62822,-19.52811],[-42.62821,-19.52823],[-42.62806,-19.52825],[-42.62811,-19.52878],[-42.62844,-19.52864],[-42.62866,-19.52859],[-42.62896,-19.52857],[-42.62922,-19.52859],[-42.62881,-19.52898],[-42.62864,-19.5291],[-42.62816,-19.52952],[-42.62786,-19.52975],[-42.6278,-19.52986],[-42.62771,-19.52996],[-42.6275,-19.53013],[-42.6274,-19.53018],[-42.62748,-19.53033],[-42.62885,-19.52928],[-42.62914,-19.52904],[-42.62961,-19.52873],[-42.62986,-19.52853],[-42.63017,-19.5282],[-42.63028,-19.52806],[-42.6304,-19.52788],[-42.63059,-19.52748],[-42.63065,-19.52731],[-42.6307,-19.52716]]]]}},{"type":"Feature","properties":{"territory_id":"mg-3119401-santa-cruz","name":"Santa Cruz","municipality_id":"mg-3119401","polling_places":3,"approx":false,"official":true,"method":"official-ibge-cd2022","whole_municipality":false,"approx_coords_only":false,"official_name":"Santa Cruz","official_code":"3119401053","match":"direct"},"geometry":{"type":"MultiPolygon","coordinates":[[[[-42.61897,-19.48643],[-42.61903,-19.48657],[-42.61904,-19.48672],[-42.61899,-19.48687],[-42.6189,-19.48703],[-42.61871,-19.48719],[-42.61848,-19.48752],[-42.61815,-19.48771],[-42.61803,-19.4879],[-42.61798,-19.48803],[-42.61729,-19.4884],[-42.618,-19.48896],[-42.61859,-19.48983],[-42.61898,-19.49004],[-42.61962,-19.48972],[-42.61997,-19.48984],[-42.61955,-19.49067],[-42.61948,-19.49072],[-42.61916,-19.49131],[-42.61902,-19.49161],[-42.6192,-19.49168],[-42.6194,-19.49172],[-42.61951,-19.4918],[-42.61958,-19.49179],[-42.61977,-19.49186],[-42.61994,-19.4919],[-42.62018,-19.492],[-42.62032,-19.492],[-42.6204,-19.49206],[-42.62076,-19.492],[-42.62099,-19.49193],[-42.62118,-19.49202],[-42.62146,-19.49208],[-42.62158,-19.49201],[-42.62166,-19.49194],[-42.62236,-19.49107],[-42.62242,-19.49109],[-42.62273,-19.49087],[-42.62296,-19.49079],[-42.62355,-19.4907],[-42.62375,-19.49056],[-42.62384,-19.49042],[-42.62411,-19.49046],[-42.62427,-19.49055],[-42.62446,-19.49072],[-42.62461,-19.49083],[-42.62493,-19.49121],[-42.62518,-19.49146],[-42.62534,-19.4915],[-42.62545,-19.49149],[-42.62553,-19.49152],[-42.62565,-19.49157],[-42.6257,-19.49166],[-42.62576,-19.49165],[-42.62584,-19.49171],[-42.62589,-19.49172],[-42.62598,-19.49166],[-42.62605,-19.49169],[-42.62609,-19.49177],[-42.62616,-19.49179],[-42.62625,-19.49177],[-42.62651,-19.49187],[-42.62659,-19.49177],[-42.62664,-19.49168],[-42.62662,-19.49161],[-42.62645,-19.49148],[-42.6264,-19.49124],[-42.62663,-19.49048],[-42.62664,-19.49035],[-42.62662,-19.49031],[-42.6265,-19.49024],[-42.62639,-19.49015],[-42.62611,-19.49002],[-42.62597,-19.48999],[-42.62587,-19.48976],[-42.62538,-19.48948],[-42.62512,-19.4892],[-42.62496,-19.48913],[-42.62486,-19.48893],[-42.6247,-19.48873],[-42.62451,-19.48854],[-42.62456,-19.4884],[-42.62458,-19.4882],[-42.62457,-19.48798],[-42.6246,-19.48773],[-42.62449,-19.48746],[-42.62438,-19.4873],[-42.62437,-19.48716],[-42.6243,-19.4869],[-42.62414,-19.48678],[-42.62398,-19.48661],[-42.6238,-19.48631],[-42.62389,-19.48598],[-42.62387,-19.48584],[-42.62376,-19.48573],[-42.62368,-19.48558],[-42.62368,-19.4853],[-42.62375,-19.48499],[-42.62376,-19.48468],[-42.62389,-19.48454],[-42.62416,-19.48433],[-42.62433,-19.48422],[-42.62438,-19.4841],[-42.62357,-19.48375],[-42.62302,-19.48345],[-42.62288,-19.48333],[-42.62018,-19.4793],[-42.62008,-19.47912],[-42.62005,-19.47884],[-42.61973,-19.47886],[-42.61929,-19.47903],[-42.61927,-19.47908],[-42.61925,-19.47931],[-42.61928,-19.47948],[-42.61925,-19.47964],[-42.61928,-19.47971],[-42.6193,-19.47978],[-42.61933,-19.48025],[-42.61937,-19.48031],[-42.61939,-19.48038],[-42.61939,-19.48046],[-42.61936,-19.48053],[-42.61937,-19.48066],[-42.61945,-19.48085],[-42.61948,-19.48105],[-42.61952,-19.48111],[-42.61959,-19.48131],[-42.61965,-19.48141],[-42.61962,-19.48154],[-42.61955,-19.48159],[-42.61944,-19.48173],[-42.61937,-19.48172],[-42.61921,-19.48186],[-42.61927,-19.48197],[-42.61941,-19.48203],[-42.61942,-19.48214],[-42.6194,-19.48221],[-42.61934,-19.48227],[-42.6193,-19.48248],[-42.6195,-19.48271],[-42.61946,-19.48277],[-42.61949,-19.48295],[-42.61952,-19.48303],[-42.61952,-19.4831],[-42.61942,-19.48319],[-42.61933,-19.48329],[-42.61929,-19.48339],[-42.61935,-19.48352],[-42.61945,-19.48366],[-42.61951,-19.4838],[-42.61944,-19.48394],[-42.61944,-19.48403],[-42.61942,-19.48414],[-42.61937,-19.48422],[-42.61928,-19.48432],[-42.61923,-19.48444],[-42.61922,-19.48456],[-42.61914,-19.48487],[-42.61884,-19.48532],[-42.61877,-19.48553],[-42.61879,-19.48569],[-42.61877,-19.48613],[-42.61884,-19.48631],[-42.61897,-19.48643]]]]}},{"type":"Feature","properties":{"territory_id":"mg-3119401-santa-helena","name":"Santa Helena","municipality_id":"mg-3119401","polling_places":2,"approx":false,"official":true,"method":"official-ibge-cd2022","whole_municipality":false,"approx_coords_only":false,"official_name":"Santa Helena","official_code":"3119401019","match":"direct"},"geometry":{"type":"MultiPolygon","coordinates":[[[[-42.62148,-19.5264],[-42.62291,-19.52535],[-42.62331,-19.52499],[-42.62359,-19.52474],[-42.62518,-19.52305],[-42.62417,-19.52215],[-42.62398,-19.52202],[-42.6237,-19.52191],[-42.62414,-19.52085],[-42.62441,-19.5203],[-42.62401,-19.52046],[-42.62352,-19.52082],[-42.62313,-19.52117],[-42.62282,-19.52175],[-42.62241,-19.5228],[-42.62238,-19.52297],[-42.62204,-19.52345],[-42.62183,-19.52363],[-42.6214,-19.5239],[-42.62111,-19.52404],[-42.62076,-19.52415],[-42.62037,-19.52438],[-42.61942,-19.52471],[-42.61928,-19.52478],[-42.61913,-19.5249],[-42.61885,-19.52506],[-42.61874,-19.52526],[-42.61791,-19.52586],[-42.61751,-19.52648],[-42.61936,-19.5271],[-42.62033,-19.52631],[-42.62092,-19.52668],[-42.62099,-19.52675],[-42.62132,-19.52651],[-42.62148,-19.5264]]]]}},{"type":"Feature","properties":{"territory_id":"mg-3119401-santa-terezinha-ii","name":"Santa Terezinha Ii","municipality_id":"mg-3119401","polling_places":1,"approx":true,"official":false,"method":"voronoi-polling-places","whole_municipality":false,"approx_coords_only":false},"geometry":{"type":"MultiPolygon","coordinates":[[[[-42.62367,-19.53216],[-42.60156,-19.53423],[-42.60192,-19.53354],[-42.60211,-19.53214],[-42.6022,-19.53126],[-42.60242,-19.53075],[-42.60264,-19.53039],[-42.60317,-19.52996],[-42.60384,-19.52991],[-42.60375,-19.52964],[-42.60245,-19.52773],[-42.60229,-19.5273],[-42.60165,-19.52794],[-42.60148,-19.52817],[-42.60125,-19.5285],[-42.60099,-19.52902],[-42.60065,-19.52996],[-42.6005,-19.53045],[-42.59977,-19.53014],[-42.59907,-19.53001],[-42.59848,-19.52968],[-42.59852,-19.52963],[-42.59855,-19.52947],[-42.59864,-19.52936],[-42.59871,-19.52907],[-42.59867,-19.529],[-42.59871,-19.52886],[-42.59929,-19.52798],[-42.59938,-19.52781],[-42.5961,-19.52627],[-42.59346,-19.52711],[-42.59296,-19.53102],[-42.59317,-19.53351],[-42.59307,-19.53439],[-42.59312,-19.53477],[-42.59312,-19.53502],[-42.58983,-19.53532],[-42.58922,-19.53514],[-42.58829,-19.5347],[-42.58713,-19.53403],[-42.58587,-19.53327],[-42.58478,-19.53266],[-42.58393,-19.53226],[-42.58238,-19.53167],[-42.59557,-19.52088],[-42.61781,-19.51021],[-42.62145,-19.52387],[-42.6214,-19.5239],[-42.62111,-19.52404],[-42.62076,-19.52415],[-42.62037,-19.52438],[-42.61942,-19.52471],[-42.61928,-19.52478],[-42.61913,-19.5249],[-42.61885,-19.52506],[-42.61874,-19.52526],[-42.61791,-19.52586],[-42.61751,-19.52648],[-42.61936,-19.5271],[-42.61953,-19.52715],[-42.61965,-19.52731],[-42.62113,-19.52869],[-42.62141,-19.52897],[-42.62164,-19.52911],[-42.62184,-19.52948],[-42.62266,-19.5306],[-42.62356,-19.53175],[-42.62367,-19.53216]],[[-42.61269,-19.51793],[-42.61263,-19.51773],[-42.61251,-19.51761],[-42.61244,-19.51751],[-42.6126,-19.51732],[-42.61258,-19.51722],[-42.61257,-19.51713],[-42.61227,-19.51686],[-42.61199,-19.5168],[-42.61183,-19.51668],[-42.61165,-19.51651],[-42.61145,-19.51623],[-42.61135,-19.5162],[-42.61156,-19.51658],[-42.61189,-19.5169],[-42.61186,-19.51693],[-42.61167,-19.51703],[-42.61009,-19.51766],[-42.60894,-19.51803],[-42.60872,-19.51815],[-42.60893,-19.51824],[-42.60904,-19.51854],[-42.60912,-19.51867],[-42.60922,-19.51882],[-42.60961,-19.5193],[-42.61008,-19.5204],[-42.61019,-19.52059],[-42.61021,-19.52059],[-42.61032,-19.52075],[-42.61054,-19.52051],[-42.61069,-19.52022],[-42.61101,-19.51929],[-42.61112,-19.51908],[-42.61134,-19.51878],[-42.6116,-19.51853],[-42.61187,-19.51843],[-42.61203,-19.51841],[-42.61221,-19.51834],[-42.61238,-19.51822],[-42.61261,-19.51814],[-42.61269,-19.51793]]],[[[-42.58738,-19.53555],[-42.57937,-19.5363],[-42.57981,-19.53578],[-42.57993,-19.53572],[-42.58041,-19.5352],[-42.58096,-19.535],[-42.58193,-19.53458],[-42.58342,-19.53437],[-42.58511,-19.53496],[-42.58578,-19.53499],[-42.58738,-19.53555]]]]}},{"type":"Feature","properties":{"territory_id":"mg-3119401-santo-antonio","name":"Santo Antonio","municipality_id":"mg-3119401","polling_places":2,"approx":false,"official":true,"method":"official-ibge-cd2022","whole_municipality":false,"approx_coords_only":false,"official_name":"Santo Antônio","official_code":"3119401070","match":"direct"},"geometry":{"type":"MultiPolygon","coordinates":[[[[-42.63257,-19.48886],[-42.63262,-19.48895],[-42.63263,-19.48907],[-42.63274,-19.48925],[-42.63279,-19.48941],[-42.63283,-19.48966],[-42.63285,-19.48995],[-42.63292,-19.49022],[-42.63349,-19.48996],[-42.63442,-19.48958],[-42.63455,-19.4888],[-42.63449,-19.48863],[-42.63441,-19.48853],[-42.63325,-19.48872],[-42.63266,-19.48885],[-42.63262,-19.48884],[-42.63257,-19.48886]]]]}},{"type":"Feature","properties":{"territory_id":"mg-3119401-santo-eloi","name":"Santo Eloi","municipality_id":"mg-3119401","polling_places":1,"approx":true,"official":false,"method":"voronoi-polling-places","whole_municipality":false,"approx_coords_only":false},"geometry":{"type":"MultiPolygon","coordinates":[[[[-42.73818,-19.51773],[-42.73758,-19.51832],[-42.62774,-19.511],[-42.62769,-19.51086],[-42.62765,-19.51055],[-42.62768,-19.51042],[-42.62769,-19.5104],[-42.62769,-19.5103],[-42.62774,-19.51019],[-42.62774,-19.50953],[-42.62788,-19.50915],[-42.62788,-19.50908],[-42.62792,-19.50873],[-42.62796,-19.50862],[-42.62808,-19.5085],[-42.6281,-19.50838],[-42.62803,-19.50825],[-42.62806,-19.508],[-42.62823,-19.50787],[-42.62854,-19.50758],[-42.62865,-19.50764],[-42.62947,-19.50782],[-42.62985,-19.5076],[-42.63004,-19.50756],[-42.63009,-19.50728],[-42.63079,-19.50742],[-42.63091,-19.50743],[-42.63083,-19.50737],[-42.63098,-19.50662],[-42.63117,-19.50583],[-42.63123,-19.50579],[-42.63128,-19.50569],[-42.63144,-19.50494],[-42.63167,-19.50401],[-42.63184,-19.50319],[-42.63185,-19.50315],[-42.63219,-19.5015],[-42.63303,-19.50209],[-42.63432,-19.5031],[-42.63481,-19.50347],[-42.63495,-19.50337],[-42.63514,-19.50327],[-42.63532,-19.5032],[-42.63565,-19.50311],[-42.63586,-19.50307],[-42.63607,-19.50304],[-42.63649,-19.50303],[-42.63695,-19.50282],[-42.6372,-19.50264],[-42.63736,-19.50256],[-42.6379,-19.50233],[-42.63904,-19.50196],[-42.63932,-19.50192],[-42.63957,-19.50196],[-42.64041,-19.5022],[-42.64095,-19.5024],[-42.64111,-19.50151],[-42.64099,-19.50074],[-42.64071,-19.50072],[-42.64044,-19.50066],[-42.64015,-19.50063],[-42.64022,-19.50034],[-42.64009,-19.49979],[-42.63999,-19.49969],[-42.63978,-19.49941],[-42.63978,-19.49926],[-42.64023,-19.49889],[-42.64057,-19.49867],[-42.64027,-19.49813],[-42.64077,-19.49802],[-42.64008,-19.49733],[-42.63964,-19.49714],[-42.6384,-19.49677],[-42.63707,-19.4966],[-42.63649,-19.49682],[-42.63636,-19.49681],[-42.63616,-19.49689],[-42.63606,-19.49696],[-42.63599,-19.49697],[-42.63592,-19.49691],[-42.63576,-19.49724],[-42.63576,-19.49766],[-42.63505,-19.49759],[-42.63446,-19.49759],[-42.63451,-19.49727],[-42.63443,-19.49684],[-42.63427,-19.49664],[-42.63424,-19.49653],[-42.63398,-19.4953],[-42.63373,-19.49539],[-42.63353,-19.49528],[-42.63349,-19.49522],[-42.63346,-19.49505],[-42.63331,-19.49507],[-42.6331,-19.49523],[-42.63277,-19.49525],[-42.63261,-19.4951],[-42.63245,-19.49504],[-42.63233,-19.49503],[-42.63221,-19.49498],[-42.63222,-19.49492],[-42.63222,-19.4949],[-42.63223,-19.49481],[-42.63239,-19.49474],[-42.63235,-19.49458],[-42.63227,-19.49439],[-42.632,-19.49442],[-42.6318,-19.4943],[-42.63165,-19.49417],[-42.63146,-19.49411],[-42.63142,-19.49397],[-42.63142,-19.4938],[-42.6313,-19.49355],[-42.6312,-19.49342],[-42.63102,-19.4932],[-42.63086,-19.49314],[-42.63046,-19.49304],[-42.63004,-19.49254],[-42.62975,-19.49209],[-42.6297,-19.49186],[-42.62957,-19.49179],[-42.62926,-19.49176],[-42.62896,-19.49181],[-42.62854,-19.49197],[-42.62848,-19.49205],[-42.62831,-19.49206],[-42.62805,-19.49202],[-42.6276,-19.49188],[-42.62743,-19.49161],[-42.62721,-19.49148],[-42.62698,-19.49155],[-42.62691,-19.49172],[-42.62682,-19.4917],[-42.62675,-19.49166],[-42.62673,-19.49162],[-42.62662,-19.49161],[-42.62645,-19.49148],[-42.6264,-19.49124],[-42.62663,-19.49048],[-42.62664,-19.49035],[-42.62662,-19.49031],[-42.6265,-19.49024],[-42.62639,-19.49015],[-42.62611,-19.49002],[-42.62597,-19.48999],[-42.62587,-19.48976],[-42.62538,-19.48948],[-42.62512,-19.4892],[-42.62496,-19.48913],[-42.62486,-19.48893],[-42.6247,-19.48873],[-42.62451,-19.48854],[-42.62456,-19.4884],[-42.62458,-19.4882],[-42.62457,-19.48798],[-42.6246,-19.48773],[-42.62449,-19.48746],[-42.62438,-19.4873],[-42.62437,-19.48716],[-42.6243,-19.4869],[-42.62414,-19.48678],[-42.62398,-19.48661],[-42.6238,-19.48631],[-42.62389,-19.48598],[-42.62387,-19.48584],[-42.62376,-19.48573],[-42.62368,-19.48558],[-42.62368,-19.4853],[-42.62375,-19.48499],[-42.62376,-19.48468],[-42.62389,-19.48454],[-42.62416,-19.48433],[-42.62433,-19.48422],[-42.62438,-19.4841],[-42.62357,-19.48375],[-42.62302,-19.48345],[-42.62288,-19.48333],[-42.6212,-19.48082],[-42.6212,-19.48081],[-42.62141,-19.48114],[-42.62234,-19.48058],[-42.62233,-19.4801],[-42.62228,-19.47967],[-42.6222,-19.47911],[-42.6221,-19.47866],[-42.62229,-19.4786],[-42.62247,-19.4786],[-42.62263,-19.47857],[-42.62268,-19.47852],[-42.6227,-19.47847],[-42.62269,-19.47843],[-42.62259,-19.47823],[-42.62255,-19.47801],[-42.62259,-19.47789],[-42.62269,-19.47778],[-42.62288,-19.47764],[-42.62314,-19.47726],[-42.62328,-19.47723],[-42.62342,-19.47723],[-42.6237,-19.47726],[-42.62388,-19.47732],[-42.62403,-19.47729],[-42.62418,-19.47708],[-42.62451,-19.47705],[-42.62491,-19.47685],[-42.62517,-19.47657],[-42.62526,-19.47632],[-42.62534,-19.47625],[-42.62561,-19.47641],[-42.62582,-19.47647],[-42.62623,-19.47626],[-42.62644,-19.47584],[-42.62632,-19.47564],[-42.62629,-19.4755],[-42.62637,-19.47536],[-42.62662,-19.47521],[-42.62737,-19.47514],[-42.62763,-19.47501],[-42.62778,-19.47472],[-42.62788,-19.47445],[-42.62783,-19.47409],[-42.62756,-19.4738],[-42.62756,-19.47355],[-42.62568,-19.4733],[-42.62331,-19.47288],[-42.62246,-19.47299],[-42.62527,-19.4556],[-42.65412,-19.4454],[-42.73818,-19.51773]],[[-42.64752,-19.47446],[-42.64743,-19.4743],[-42.64741,-19.4742],[-42.6472,-19.47387],[-42.64687,-19.47324],[-42.64681,-19.47309],[-42.6467,-19.47296],[-42.64657,-19.47275],[-42.64624,-19.47231],[-42.646,-19.47231],[-42.64582,-19.47252],[-42.6459,-19.47278],[-42.64589,-19.47294],[-42.64585,-19.47309],[-42.64569,-19.47316],[-42.64525,-19.47319],[-42.64511,-19.47335],[-42.64458,-19.47372],[-42.64386,-19.47411],[-42.6437,-19.47422],[-42.64357,-19.4742],[-42.6432,-19.47437],[-42.64275,-19.47448],[-42.64251,-19.47494],[-42.64264,-19.47555],[-42.64285,-19.47573],[-42.64297,-19.47574],[-42.64303,-19.47587],[-42.64319,-19.47595],[-42.6431,-19.476],[-42.64309,-19.47608],[-42.64288,-19.47603],[-42.64283,-19.47616],[-42.64292,-19.47624],[-42.6428,-19.47634],[-42.64268,-19.47632],[-42.64262,-19.47643],[-42.6427,-19.47654],[-42.64251,-19.47668],[-42.64243,-19.47686],[-42.64263,-19.47718],[-42.64245,-19.47728],[-42.64232,-19.47706],[-42.64219,-19.47708],[-42.64219,-19.47723],[-42.64195,-19.4772],[-42.64172,-19.47732],[-42.64162,-19.47756],[-42.64183,-19.47753],[-42.64242,-19.47762],[-42.64268,-19.47751],[-42.64284,-19.47748],[-42.64296,-19.47728],[-42.64322,-19.47732],[-42.6433,-19.47709],[-42.64356,-19.47692],[-42.64422,-19.47662],[-42.64444,-19.47663],[-42.64464,-19.47668],[-42.64479,-19.47669],[-42.64616,-19.47665],[-42.6462,-19.47678],[-42.64637,-19.47685],[-42.64652,-19.47694],[-42.64668,-19.47699],[-42.6468,-19.47691],[-42.64685,-19.47683],[-42.64709,-19.47595],[-42.6472,-19.47568],[-42.64722,-19.47555],[-42.64752,-19.47446]],[[-42.63783,-19.48022],[-42.6378,-19.47996],[-42.63767,-19.4796],[-42.63742,-19.47929],[-42.63735,-19.47926],[-42.63725,-19.47927],[-42.63722,-19.47932],[-42.63693,-19.47944],[-42.6359,-19.47974],[-42.63575,-19.47982],[-42.63486,-19.48007],[-42.635,-19.48059],[-42.63459,-19.48071],[-42.63378,-19.4809],[-42.63414,-19.48196],[-42.63398,-19.48203],[-42.63362,-19.4821],[-42.63324,-19.4822],[-42.63282,-19.48243],[-42.63279,-19.48254],[-42.63279,-19.48299],[-42.63295,-19.48394],[-42.63297,-19.48416],[-42.63293,-19.48432],[-42.63286,-19.48447],[-42.63274,-19.48462],[-42.63254,-19.48498],[-42.63238,-19.48515],[-42.63226,-19.48525],[-42.63198,-19.48463],[-42.63177,-19.484],[-42.63173,-19.48365],[-42.63165,-19.48335],[-42.63168,-19.483],[-42.63161,-19.48255],[-42.63153,-19.48165],[-42.63157,-19.48144],[-42.63125,-19.4812],[-42.63065,-19.48063],[-42.63014,-19.4799],[-42.62947,-19.47882],[-42.6292,-19.47886],[-42.62893,-19.47885],[-42.62859,-19.47853],[-42.62704,-19.48026],[-42.62576,-19.48179],[-42.62484,-19.48285],[-42.62507,-19.48321],[-42.62513,-19.48333],[-42.62484,-19.48376],[-42.6248,-19.48391],[-42.6248,-19.48393],[-42.62621,-19.48397],[-42.62651,-19.48487],[-42.62692,-19.48491],[-42.62716,-19.48521],[-42.62715,-19.48571],[-42.62647,-19.48654],[-42.62694,-19.48655],[-42.62733,-19.48666],[-42.62816,-19.48636],[-42.62843,-19.48647],[-42.6286,-19.48616],[-42.62842,-19.48592],[-42.62798,-19.48529],[-42.62805,-19.48523],[-42.62845,-19.48476],[-42.6285,-19.48476],[-42.62879,-19.48527],[-42.62948,-19.4867],[-42.63015,-19.48883],[-42.63021,-19.48906],[-42.63021,-19.48921],[-42.63075,-19.48926],[-42.63188,-19.48934],[-42.632,-19.48944],[-42.6324,-19.48987],[-42.63283,-19.49028],[-42.63292,-19.49022],[-42.63349,-19.48996],[-42.63442,-19.48958],[-42.63455,-19.4888],[-42.63449,-19.48863],[-42.63441,-19.48853],[-42.63325,-19.48872],[-42.63266,-19.48885],[-42.63262,-19.48884],[-42.63257,-19.48886],[-42.63223,-19.48786],[-42.63207,-19.48722],[-42.63205,-19.48699],[-42.63217,-19.48672],[-42.63253,-19.48621],[-42.63257,-19.48604],[-42.63351,-19.48461],[-42.63393,-19.48388],[-42.63433,-19.48349],[-42.63447,-19.48343],[-42.63487,-19.48328],[-42.63507,-19.48317],[-42.63521,-19.48325],[-42.63526,-19.48342],[-42.63547,-19.4839],[-42.63565,-19.48403],[-42.63583,-19.48406],[-42.63596,-19.48405],[-42.63606,-19.48402],[-42.63673,-19.48336],[-42.6368,-19.48323],[-42.63683,-19.48308],[-42.63691,-19.48292],[-42.63706,-19.48269],[-42.63733,-19.48251],[-42.63748,-19.48238],[-42.63763,-19.48208],[-42.6377,-19.48189],[-42.63774,-19.48165],[-42.63771,-19.48155],[-42.63775,-19.48143],[-42.63772,-19.48092],[-42.63778,-19.48074],[-42.63777,-19.48038],[-42.63783,-19.48022]]],[[[-42.62565,-19.49157],[-42.62545,-19.49149],[-42.62553,-19.49152],[-42.62565,-19.49157]]],[[[-42.62534,-19.4915],[-42.62521,-19.49171],[-42.6238,-19.49133],[-42.62396,-19.49153],[-42.62424,-19.49173],[-42.62372,-19.4929],[-42.62293,-19.4936],[-42.62229,-19.4946],[-42.62118,-19.49612],[-42.62022,-19.49665],[-42.61931,-19.49661],[-42.61866,-19.49692],[-42.61895,-19.49671],[-42.61901,-19.49645],[-42.61894,-19.49608],[-42.61891,-19.4958],[-42.61911,-19.49565],[-42.6191,-19.49528],[-42.61914,-19.49502],[-42.61911,-19.49474],[-42.6195,-19.4943],[-42.61993,-19.49392],[-42.6202,-19.49359],[-42.62032,-19.4935],[-42.62056,-19.4935],[-42.62144,-19.49357],[-42.62174,-19.49344],[-42.62181,-19.49287],[-42.62163,-19.49268],[-42.62151,-19.4924],[-42.62048,-19.49242],[-42.62028,-19.4924],[-42.62001,-19.49229],[-42.6202,-19.492],[-42.62032,-19.492],[-42.6204,-19.49206],[-42.62076,-19.492],[-42.62099,-19.49193],[-42.62118,-19.49202],[-42.62146,-19.49208],[-42.62158,-19.49201],[-42.62166,-19.49194],[-42.62236,-19.49107],[-42.62242,-19.49109],[-42.62273,-19.49087],[-42.62296,-19.49079],[-42.62355,-19.4907],[-42.62375,-19.49056],[-42.62384,-19.49042],[-42.62411,-19.49046],[-42.62427,-19.49055],[-42.62446,-19.49072],[-42.62461,-19.49083],[-42.62493,-19.49121],[-42.62518,-19.49146],[-42.62534,-19.4915]]],[[[-42.62028,-19.50515],[-42.61959,-19.50641],[-42.61894,-19.50801],[-42.61917,-19.50914],[-42.61929,-19.50928],[-42.61825,-19.50898],[-42.61828,-19.50423],[-42.61833,-19.50421],[-42.61951,-19.50435],[-42.61978,-19.50472],[-42.62028,-19.50515]]],[[[-42.62016,-19.49199],[-42.62012,-19.49198],[-42.61994,-19.4919],[-42.62016,-19.49199]]],[[[-42.61997,-19.48984],[-42.61963,-19.4905],[-42.61975,-19.48977],[-42.61997,-19.48984]]]]}},{"type":"Feature","properties":{"territory_id":"mg-3119401-sao-domingos","name":"Sao Domingos","municipality_id":"mg-3119401","polling_places":3,"approx":false,"official":true,"method":"official-ibge-cd2022","whole_municipality":false,"approx_coords_only":false,"official_name":"São Domingos","official_code":"3119401059","match":"direct"},"geometry":{"type":"MultiPolygon","coordinates":[[[[-42.63532,-19.5032],[-42.63565,-19.50311],[-42.63586,-19.50307],[-42.63607,-19.50304],[-42.63649,-19.50303],[-42.63695,-19.50282],[-42.6372,-19.50264],[-42.63736,-19.50256],[-42.6379,-19.50233],[-42.63904,-19.50196],[-42.63932,-19.50192],[-42.63957,-19.50196],[-42.64041,-19.5022],[-42.64095,-19.5024],[-42.64111,-19.50151],[-42.64099,-19.50074],[-42.64071,-19.50072],[-42.64044,-19.50066],[-42.64015,-19.50063],[-42.64022,-19.50034],[-42.64009,-19.49979],[-42.63999,-19.49969],[-42.63978,-19.49941],[-42.63978,-19.49926],[-42.64023,-19.49889],[-42.64057,-19.49867],[-42.64027,-19.49813],[-42.64077,-19.49802],[-42.64008,-19.49733],[-42.63964,-19.49714],[-42.6384,-19.49677],[-42.63707,-19.4966],[-42.63649,-19.49682],[-42.63636,-19.49681],[-42.63616,-19.49689],[-42.63606,-19.49696],[-42.63599,-19.49697],[-42.63592,-19.49691],[-42.63576,-19.49724],[-42.63576,-19.49766],[-42.63505,-19.49759],[-42.63446,-19.49759],[-42.63458,-19.49788],[-42.63461,-19.49809],[-42.63427,-19.49811],[-42.63423,-19.49814],[-42.63402,-19.49949],[-42.63389,-19.5001],[-42.63432,-19.50025],[-42.63432,-19.50037],[-42.63452,-19.50207],[-42.63457,-19.5024],[-42.63465,-19.50275],[-42.63432,-19.5031],[-42.63481,-19.50347],[-42.63495,-19.50337],[-42.63514,-19.50327],[-42.63532,-19.5032]]]]}},{"type":"Feature","properties":{"territory_id":"mg-3119401-silvio-pereira-i","name":"Silvio Pereira I","municipality_id":"mg-3119401","polling_places":1,"approx":false,"official":true,"method":"official-ibge-cd2022","whole_municipality":false,"approx_coords_only":false,"official_name":"Silvio Pereira I","official_code":"3119401062","match":"direct"},"geometry":{"type":"MultiPolygon","coordinates":[[[[-42.63222,-19.4949],[-42.63223,-19.49481],[-42.63239,-19.49474],[-42.63235,-19.49458],[-42.63227,-19.49439],[-42.632,-19.49442],[-42.6318,-19.4943],[-42.63165,-19.49417],[-42.63146,-19.49411],[-42.63142,-19.49397],[-42.63142,-19.4938],[-42.6313,-19.49355],[-42.6312,-19.49342],[-42.63102,-19.4932],[-42.63086,-19.49314],[-42.63046,-19.49304],[-42.63004,-19.49254],[-42.62975,-19.49209],[-42.6297,-19.49186],[-42.62957,-19.49179],[-42.62926,-19.49176],[-42.62896,-19.49181],[-42.62854,-19.49197],[-42.62848,-19.49205],[-42.62831,-19.49206],[-42.62805,-19.49202],[-42.6276,-19.49188],[-42.62743,-19.49161],[-42.62721,-19.49148],[-42.62698,-19.49155],[-42.62691,-19.49172],[-42.62682,-19.4917],[-42.62675,-19.49166],[-42.62673,-19.49162],[-42.62662,-19.49161],[-42.62664,-19.49168],[-42.62659,-19.49177],[-42.62651,-19.49187],[-42.62625,-19.49177],[-42.62616,-19.49179],[-42.62609,-19.49177],[-42.62605,-19.49169],[-42.62598,-19.49166],[-42.62589,-19.49172],[-42.62584,-19.49171],[-42.62576,-19.49165],[-42.6257,-19.49166],[-42.62565,-19.49157],[-42.62545,-19.49149],[-42.62534,-19.4915],[-42.62521,-19.49171],[-42.6238,-19.49133],[-42.62396,-19.49153],[-42.62424,-19.49173],[-42.62372,-19.4929],[-42.62293,-19.4936],[-42.62229,-19.4946],[-42.62118,-19.49612],[-42.62022,-19.49665],[-42.62126,-19.49816],[-42.62295,-19.49824],[-42.62361,-19.49831],[-42.62433,-19.49803],[-42.62486,-19.49773],[-42.62584,-19.49725],[-42.62682,-19.49698],[-42.62738,-19.49686],[-42.62781,-19.49672],[-42.62825,-19.49636],[-42.62879,-19.49615],[-42.6296,-19.49605],[-42.63019,-19.49582],[-42.63052,-19.49585],[-42.6305,-19.49571],[-42.63055,-19.49558],[-42.63068,-19.49552],[-42.63084,-19.49549],[-42.63133,-19.49545],[-42.63146,-19.49542],[-42.63155,-19.49532],[-42.63165,-19.49519],[-42.63183,-19.49507],[-42.6321,-19.49497],[-42.63221,-19.49498],[-42.63222,-19.49492],[-42.63222,-19.4949]]]]}},{"type":"Feature","properties":{"territory_id":"mg-3119401-silvio-pereira-ii","name":"Silvio Pereira Ii","municipality_id":"mg-3119401","polling_places":1,"approx":false,"official":true,"method":"official-ibge-cd2022","whole_municipality":false,"approx_coords_only":false,"official_name":"Silvio Pereira II","official_code":"3119401063","match":"direct"},"geometry":{"type":"MultiPolygon","coordinates":[[[[-42.61866,-19.49692],[-42.61895,-19.49671],[-42.61901,-19.49645],[-42.61894,-19.49608],[-42.61891,-19.4958],[-42.61911,-19.49565],[-42.6191,-19.49528],[-42.61914,-19.49502],[-42.61911,-19.49474],[-42.6195,-19.4943],[-42.61993,-19.49392],[-42.6202,-19.49359],[-42.62032,-19.4935],[-42.62056,-19.4935],[-42.62144,-19.49357],[-42.62174,-19.49344],[-42.62181,-19.49287],[-42.62163,-19.49268],[-42.62151,-19.4924],[-42.62048,-19.49242],[-42.62028,-19.4924],[-42.62001,-19.49229],[-42.6202,-19.492],[-42.62012,-19.49198],[-42.61994,-19.4919],[-42.61977,-19.49186],[-42.61958,-19.49179],[-42.61951,-19.4918],[-42.6194,-19.49172],[-42.6192,-19.49168],[-42.61908,-19.49163],[-42.6189,-19.49158],[-42.61875,-19.49157],[-42.61858,-19.49158],[-42.61833,-19.49155],[-42.61767,-19.4916],[-42.61747,-19.49165],[-42.61729,-19.49175],[-42.61687,-19.49219],[-42.61656,-19.49238],[-42.61635,-19.49246],[-42.61611,-19.49253],[-42.61566,-19.49253],[-42.61531,-19.49349],[-42.61492,-19.49419],[-42.61326,-19.49675],[-42.61308,-19.49713],[-42.6136,-19.49831],[-42.61241,-19.50273],[-42.61255,-19.50283],[-42.61298,-19.50299],[-42.61341,-19.50325],[-42.61465,-19.50372],[-42.61476,-19.50375],[-42.61513,-19.50383],[-42.61559,-19.50395],[-42.61631,-19.50407],[-42.61725,-19.50434],[-42.61774,-19.50444],[-42.61833,-19.50421],[-42.61951,-19.50435],[-42.61978,-19.50472],[-42.62008,-19.50472],[-42.62057,-19.50466],[-42.62127,-19.50462],[-42.62174,-19.50454],[-42.62237,-19.50446],[-42.62298,-19.50428],[-42.62385,-19.5041],[-42.62352,-19.5039],[-42.62261,-19.50322],[-42.62261,-19.50317],[-42.62258,-19.50305],[-42.62253,-19.50298],[-42.62234,-19.50296],[-42.62219,-19.50282],[-42.62202,-19.50267],[-42.62184,-19.50247],[-42.62173,-19.50225],[-42.62163,-19.50194],[-42.62145,-19.50127],[-42.62131,-19.50004],[-42.62126,-19.49816],[-42.62022,-19.49665],[-42.61931,-19.49661],[-42.61866,-19.49692]]]]}},{"type":"Feature","properties":{"territory_id":"mg-3119401-universitario","name":"Universitário","municipality_id":"mg-3119401","polling_places":1,"approx":false,"official":true,"method":"official-ibge-cd2022","whole_municipality":false,"approx_coords_only":false,"official_name":"Universitário","official_code":"3119401022","match":"direct"},"geometry":{"type":"MultiPolygon","coordinates":[[[[-42.61189,-19.5169],[-42.61186,-19.51693],[-42.61167,-19.51703],[-42.61009,-19.51766],[-42.60894,-19.51803],[-42.60872,-19.51815],[-42.60893,-19.51824],[-42.60904,-19.51854],[-42.60912,-19.51867],[-42.60922,-19.51882],[-42.60961,-19.5193],[-42.61008,-19.5204],[-42.61019,-19.52059],[-42.61021,-19.52059],[-42.61032,-19.52075],[-42.61054,-19.52051],[-42.61069,-19.52022],[-42.61101,-19.51929],[-42.61112,-19.51908],[-42.61134,-19.51878],[-42.6116,-19.51853],[-42.61187,-19.51843],[-42.61203,-19.51841],[-42.61221,-19.51834],[-42.61238,-19.51822],[-42.61261,-19.51814],[-42.61269,-19.51793],[-42.61263,-19.51773],[-42.61251,-19.51761],[-42.61244,-19.51751],[-42.6126,-19.51732],[-42.61258,-19.51722],[-42.61257,-19.51713],[-42.61227,-19.51686],[-42.61199,-19.5168],[-42.61183,-19.51668],[-42.61165,-19.51651],[-42.61145,-19.51623],[-42.61135,-19.5162],[-42.61156,-19.51658],[-42.61189,-19.5169]]]]}}]}