{"type":"FeatureCollection","features":[{"type":"Feature","properties":{"territory_id":"mg-3119203-bananalzinho-tronqueiras","name":"Bananalzinho Tronqueiras","municipality_id":"mg-3119203","polling_places":1,"approx":true,"official":false,"method":"voronoi-polling-places","whole_municipality":false,"approx_coords_only":false},"geometry":{"type":"MultiPolygon","coordinates":[[[[-42.3633,-18.7308],[-42.3518,-18.7443],[-42.3013,-18.7396],[-42.2961,-18.73689],[-42.33111,-18.6869],[-42.36286,-18.69963],[-42.3633,-18.7308]]]]}},{"type":"Feature","properties":{"territory_id":"mg-3119203-centro","name":"Centro","municipality_id":"mg-3119203","polling_places":2,"approx":true,"official":false,"method":"voronoi-polling-places","whole_municipality":false,"approx_coords_only":false},"geometry":{"type":"MultiPolygon","coordinates":[[[[-42.34,-18.61374],[-42.31471,-18.65207],[-42.30719,-18.65365],[-42.28309,-18.65904],[-42.23669,-18.62335],[-42.26565,-18.59357],[-42.27908,-18.5793],[-42.34,-18.61374]]]]}},{"type":"Feature","properties":{"territory_id":"mg-3119203-conceicao-do-tronqueiras","name":"Conceicao do Tronqueiras","municipality_id":"mg-3119203","polling_places":1,"approx":true,"official":false,"method":"voronoi-polling-places","whole_municipality":false,"approx_coords_only":false},"geometry":{"type":"MultiPolygon","coordinates":[[[[-42.27772,-18.7273],[-42.2501,-18.7129],[-42.206,-18.7109],[-42.18804,-18.684],[-42.27,-18.68837],[-42.27772,-18.7273]]]]}},{"type":"Feature","properties":{"territory_id":"mg-3119203-sao-sebastiao-do-bugre","name":"Sao Sebastiao do Bugre","municipality_id":"mg-3119203","polling_places":1,"approx":true,"official":false,"method":"voronoi-polling-places","whole_municipality":false,"approx_coords_only":false},"geometry":{"type":"MultiPolygon","coordinates":[[[[-42.1928,-18.62711],[-42.16649,-18.66156],[-42.0491,-18.5836],[-42.0911,-18.5466],[-42.1458,-18.5476],[-42.1632,-18.565],[-42.18607,-18.56328],[-42.1928,-18.62711]]]]}},{"type":"Feature","properties":{"territory_id":"mg-3119203-zona-rural","name":"Zona Rural","municipality_id":"mg-3119203","polling_places":5,"approx":true,"official":false,"method":"voronoi-polling-places","whole_municipality":false,"approx_coords_only":false},"geometry":{"type":"MultiPolygon","coordinates":[[[[-42.4462,-18.5316],[-42.4196,-18.6095],[-42.3621,-18.6462],[-42.36286,-18.69963],[-42.33111,-18.6869],[-42.2961,-18.73689],[-42.27772,-18.7273],[-42.27,-18.68837],[-42.18804,-18.684],[-42.1783,-18.6694],[-42.16649,-18.66156],[-42.1928,-18.62711],[-42.18607,-18.56328],[-42.2244,-18.5604],[-42.2313,-18.5356],[-42.2787,-18.5641],[-42.2861,-18.5385],[-42.3441,-18.5134],[-42.3707,-18.5192],[-42.4462,-18.5316]],[[-42.34,-18.61374],[-42.27908,-18.5793],[-42.26565,-18.59357],[-42.23669,-18.62335],[-42.28309,-18.65904],[-42.30719,-18.65365],[-42.31471,-18.65207],[-42.34,-18.61374]]]]}}]}