{"type":"FeatureCollection","features":[{"type":"Feature","properties":{"territory_id":"mg-3119807-cachoeirinha","name":"Cachoeirinha","municipality_id":"mg-3119807","polling_places":1,"approx":true,"official":false,"method":"voronoi-polling-places","whole_municipality":false,"approx_coords_only":false},"geometry":{"type":"MultiPolygon","coordinates":[[[[-46.1327,-19.8017],[-46.0882,-19.8329],[-46.0642,-19.8666],[-46.06366,-19.86666],[-45.9207,-19.72191],[-45.9255,-19.7008],[-45.9397,-19.6962],[-45.9356,-19.6394],[-45.9486,-19.6083],[-46.0098,-19.6557],[-46.0694,-19.65],[-46.1193,-19.6642],[-46.1033,-19.6955],[-46.1327,-19.8017]]]]}},{"type":"Feature","properties":{"territory_id":"mg-3119807-rosario","name":"Rosário","municipality_id":"mg-3119807","polling_places":2,"approx":true,"official":false,"method":"voronoi-polling-places","whole_municipality":false,"approx_coords_only":false},"geometry":{"type":"MultiPolygon","coordinates":[[[[-46.06366,-19.86666],[-46.0267,-19.8708],[-45.9888,-19.9129],[-45.885,-19.909],[-45.8472,-19.8981],[-45.7976,-19.9147],[-45.8206,-19.8916],[-45.8089,-19.8462],[-45.8509,-19.8204],[-45.8807,-19.7811],[-45.8782,-19.7637],[-45.9192,-19.7285],[-45.9207,-19.72191],[-46.06366,-19.86666]]]]}}]}