{"type":"FeatureCollection","features":[{"type":"Feature","properties":{"territory_id":"mg-3119302-brasil-novo","name":"Brasil Novo","municipality_id":"mg-3119302","polling_places":1,"approx":false,"official":true,"method":"official-ibge-cd2022","whole_municipality":false,"approx_coords_only":false,"official_name":"Brasil Novo","official_code":"3119302014","match":"direct"},"geometry":{"type":"MultiPolygon","coordinates":[[[[-47.20732,-18.49542],[-47.20683,-18.49593],[-47.20549,-18.49727],[-47.20543,-18.49723],[-47.20534,-18.49733],[-47.2068,-18.49867],[-47.20974,-18.50134],[-47.21152,-18.50294],[-47.21301,-18.50431],[-47.21569,-18.50675],[-47.21579,-18.50681],[-47.21603,-18.50643],[-47.21606,-18.50628],[-47.21602,-18.50579],[-47.21592,-18.50527],[-47.21582,-18.50457],[-47.21577,-18.50382],[-47.21576,-18.5033],[-47.21546,-18.50072],[-47.21429,-18.49864],[-47.21261,-18.49628],[-47.21201,-18.49562],[-47.2115,-18.49522],[-47.21096,-18.49412],[-47.2107,-18.4937],[-47.21045,-18.49384],[-47.2099,-18.49285],[-47.20747,-18.49527],[-47.20732,-18.49542]]]]}},{"type":"Feature","properties":{"territory_id":"mg-3119302-centro","name":"Centro","municipality_id":"mg-3119302","polling_places":5,"approx":false,"official":true,"method":"official-ibge-cd2022","whole_municipality":false,"approx_coords_only":false,"official_name":"Centro","official_code":"3119302001","match":"direct"},"geometry":{"type":"MultiPolygon","coordinates":[[[[-47.19504,-18.47155],[-47.19299,-18.47335],[-47.19471,-18.47517],[-47.19488,-18.47513],[-47.19499,-18.47513],[-47.19508,-18.47516],[-47.1952,-18.47524],[-47.19526,-18.47534],[-47.19529,-18.47546],[-47.19527,-18.47563],[-47.19523,-18.4757],[-47.1961,-18.47659],[-47.19789,-18.47849],[-47.19803,-18.47861],[-47.19882,-18.47946],[-47.20155,-18.4823],[-47.20235,-18.48157],[-47.20307,-18.48232],[-47.20404,-18.48209],[-47.20432,-18.48239],[-47.20424,-18.48215],[-47.20447,-18.48127],[-47.20477,-18.48053],[-47.20507,-18.47924],[-47.20592,-18.47925],[-47.20649,-18.47924],[-47.20653,-18.47879],[-47.20646,-18.47822],[-47.20618,-18.47677],[-47.20581,-18.4749],[-47.20538,-18.47289],[-47.20449,-18.46976],[-47.20436,-18.46948],[-47.20426,-18.46933],[-47.2035,-18.46861],[-47.20322,-18.46842],[-47.20262,-18.46816],[-47.19812,-18.46767],[-47.19801,-18.46856],[-47.19798,-18.46896],[-47.19711,-18.46974],[-47.1957,-18.47097],[-47.19504,-18.47155]]]]}},{"type":"Feature","properties":{"territory_id":"mg-3119302-distrito-alegre","name":"Distrito Alegre","municipality_id":"mg-3119302","polling_places":1,"approx":true,"official":false,"method":"voronoi-polling-places","whole_municipality":false,"approx_coords_only":false},"geometry":{"type":"MultiPolygon","coordinates":[[[[-47.17319,-18.30396],[-47.14619,-18.32854],[-46.99532,-18.33585],[-46.9964,-18.3353],[-46.9943,-18.285],[-46.9742,-18.2686],[-46.9202,-18.2635],[-46.9506,-18.2051],[-46.99,-18.2254],[-47.0005,-18.1936],[-47.0349,-18.2124],[-47.0881,-18.2024],[-47.103,-18.1508],[-47.0881,-18.1202],[-47.12909,-18.05655],[-47.17319,-18.30396]]]]}},{"type":"Feature","properties":{"territory_id":"mg-3119302-distrito-lagamar-dos-coqueiros","name":"Distrito Lagamar dos Coqueiros","municipality_id":"mg-3119302","polling_places":1,"approx":true,"official":false,"method":"voronoi-polling-places","whole_municipality":false,"approx_coords_only":false},"geometry":{"type":"MultiPolygon","coordinates":[[[[-47.4298,-18.1652],[-47.4108,-18.2208],[-47.3706,-18.224],[-47.3812,-18.2617],[-47.347,-18.3175],[-47.3598,-18.3465],[-47.33721,-18.38321],[-47.17319,-18.30396],[-47.12909,-18.05655],[-47.157,-18.0132],[-47.1742,-18.0002],[-47.1626,-17.9645],[-47.187,-17.9554],[-47.2235,-17.9931],[-47.2842,-18.0256],[-47.2834,-18.0408],[-47.3243,-18.0698],[-47.37,-18.116],[-47.4079,-18.1419],[-47.4298,-18.1652]]]]}},{"type":"Feature","properties":{"territory_id":"mg-3119302-distrito-mateiro","name":"Distrito Mateiro","municipality_id":"mg-3119302","polling_places":1,"approx":true,"official":false,"method":"voronoi-polling-places","whole_municipality":false,"approx_coords_only":false},"geometry":{"type":"MultiPolygon","coordinates":[[[[-47.14619,-18.32854],[-47.08708,-18.47706],[-46.91949,-18.48391],[-46.90089,-18.46058],[-46.9314,-18.3988],[-46.9612,-18.4066],[-46.972,-18.3477],[-46.99532,-18.33585],[-47.14619,-18.32854]]]]}},{"type":"Feature","properties":{"territory_id":"mg-3119302-distrito-pantano","name":"Distrito Pântano","municipality_id":"mg-3119302","polling_places":1,"approx":true,"official":false,"method":"voronoi-polling-places","whole_municipality":false,"approx_coords_only":false},"geometry":{"type":"MultiPolygon","coordinates":[[[[-46.91949,-18.48391],[-46.91865,-18.73147],[-46.8873,-18.7185],[-46.8644,-18.7286],[-46.8495,-18.6693],[-46.8103,-18.6507],[-46.8224,-18.6291],[-46.8204,-18.5814],[-46.8024,-18.5292],[-46.8442,-18.5249],[-46.8877,-18.4873],[-46.90089,-18.46058],[-46.91949,-18.48391]]]]}},{"type":"Feature","properties":{"territory_id":"mg-3119302-distrito-santa-rosa-dos-dourados","name":"Distrito Santa Rosa dos Dourados","municipality_id":"mg-3119302","polling_places":1,"approx":true,"official":false,"method":"voronoi-polling-places","whole_municipality":false,"approx_coords_only":false},"geometry":{"type":"MultiPolygon","coordinates":[[[[-47.26513,-18.73256],[-47.2038,-18.7611],[-47.1584,-18.7611],[-47.1153,-18.745],[-47.0745,-18.697],[-47.02883,-18.697],[-47.14136,-18.58141],[-47.2057,-18.58851],[-47.25228,-18.68137],[-47.26513,-18.73256]]]]}},{"type":"Feature","properties":{"territory_id":"mg-3119302-piteiras","name":"Piteiras","municipality_id":"mg-3119302","polling_places":1,"approx":false,"official":true,"method":"official-ibge-cd2022","whole_municipality":false,"approx_coords_only":false,"official_name":"Piteiras","official_code":"3119302006","match":"direct"},"geometry":{"type":"MultiPolygon","coordinates":[[[[-47.20909,-18.49364],[-47.2099,-18.49285],[-47.21045,-18.49384],[-47.2107,-18.4937],[-47.2096,-18.49166],[-47.20967,-18.49158],[-47.21103,-18.4886],[-47.20882,-18.48649],[-47.20748,-18.4846],[-47.20685,-18.48312],[-47.20648,-18.48185],[-47.20634,-18.48108],[-47.20638,-18.48006],[-47.20661,-18.47937],[-47.20663,-18.47926],[-47.20649,-18.47924],[-47.20592,-18.47925],[-47.20507,-18.47924],[-47.20477,-18.48053],[-47.20447,-18.48127],[-47.20424,-18.48215],[-47.20432,-18.48239],[-47.20404,-18.48209],[-47.20307,-18.48232],[-47.20235,-18.48157],[-47.20155,-18.4823],[-47.2041,-18.48497],[-47.20398,-18.4851],[-47.20341,-18.48556],[-47.20228,-18.48654],[-47.20171,-18.48702],[-47.20155,-18.48724],[-47.20016,-18.48783],[-47.20185,-18.48956],[-47.20401,-18.49184],[-47.20525,-18.49312],[-47.20723,-18.49533],[-47.20732,-18.49542],[-47.2089,-18.49384],[-47.20909,-18.49364]]]]}},{"type":"Feature","properties":{"territory_id":"mg-3119302-santa-maria","name":"Santa Maria","municipality_id":"mg-3119302","polling_places":1,"approx":false,"official":true,"method":"official-ibge-cd2022","whole_municipality":false,"approx_coords_only":false,"official_name":"Santa Maria","official_code":"3119302007","match":"direct"},"geometry":{"type":"MultiPolygon","coordinates":[[[[-47.21548,-18.47717],[-47.21574,-18.47717],[-47.21574,-18.47709],[-47.21577,-18.47701],[-47.21746,-18.47414],[-47.2124,-18.47137],[-47.21214,-18.47125],[-47.212,-18.47121],[-47.21173,-18.47117],[-47.21151,-18.47119],[-47.21114,-18.47127],[-47.20828,-18.47203],[-47.20765,-18.47222],[-47.20646,-18.47254],[-47.20557,-18.47277],[-47.20558,-18.47282],[-47.20538,-18.47289],[-47.20581,-18.4749],[-47.20646,-18.47822],[-47.20683,-18.47822],[-47.20775,-18.47809],[-47.20852,-18.47775],[-47.20912,-18.47784],[-47.2109,-18.47826],[-47.21244,-18.47855],[-47.213,-18.47878],[-47.21478,-18.47937],[-47.21543,-18.4796],[-47.21547,-18.47905],[-47.21547,-18.47776],[-47.21548,-18.47717]]]]}},{"type":"Feature","properties":{"territory_id":"mg-3119302-vila-branca","name":"Vila Branca","municipality_id":"mg-3119302","polling_places":1,"approx":true,"official":false,"method":"voronoi-polling-places","whole_municipality":false,"approx_coords_only":false},"geometry":{"type":"MultiPolygon","coordinates":[[[[-47.33721,-18.38321],[-47.3129,-18.4227],[-47.3148,-18.4621],[-47.32603,-18.48903],[-47.2057,-18.58851],[-47.14136,-18.58141],[-47.08708,-18.47706],[-47.14619,-18.32854],[-47.17319,-18.30396],[-47.33721,-18.38321]],[[-47.21746,-18.47414],[-47.2124,-18.47137],[-47.21214,-18.47125],[-47.212,-18.47121],[-47.21173,-18.47117],[-47.21151,-18.47119],[-47.21114,-18.47127],[-47.20828,-18.47203],[-47.20765,-18.47222],[-47.20646,-18.47254],[-47.20557,-18.47277],[-47.20558,-18.47282],[-47.20538,-18.47289],[-47.20449,-18.46976],[-47.20436,-18.46948],[-47.20426,-18.46933],[-47.2035,-18.46861],[-47.20322,-18.46842],[-47.20262,-18.46816],[-47.19812,-18.46767],[-47.19801,-18.46856],[-47.19798,-18.46896],[-47.19711,-18.46974],[-47.1957,-18.47097],[-47.19504,-18.47155],[-47.19299,-18.47335],[-47.19471,-18.47517],[-47.19488,-18.47513],[-47.19499,-18.47513],[-47.19508,-18.47516],[-47.1952,-18.47524],[-47.19526,-18.47534],[-47.19529,-18.47546],[-47.19527,-18.47563],[-47.19523,-18.4757],[-47.1961,-18.47659],[-47.19789,-18.47849],[-47.19803,-18.47861],[-47.19882,-18.47946],[-47.20155,-18.4823],[-47.2041,-18.48497],[-47.20398,-18.4851],[-47.20341,-18.48556],[-47.20228,-18.48654],[-47.20171,-18.48702],[-47.20155,-18.48724],[-47.20016,-18.48783],[-47.20185,-18.48956],[-47.20401,-18.49184],[-47.20525,-18.49312],[-47.20723,-18.49533],[-47.20732,-18.49542],[-47.20683,-18.49593],[-47.20549,-18.49727],[-47.20543,-18.49723],[-47.20534,-18.49733],[-47.2068,-18.49867],[-47.20974,-18.50134],[-47.21152,-18.50294],[-47.21301,-18.50431],[-47.21569,-18.50675],[-47.21579,-18.50681],[-47.21603,-18.50643],[-47.21606,-18.50628],[-47.21602,-18.50579],[-47.21592,-18.50527],[-47.21582,-18.50457],[-47.21577,-18.50382],[-47.21576,-18.5033],[-47.21546,-18.50072],[-47.21429,-18.49864],[-47.21261,-18.49628],[-47.21201,-18.49562],[-47.2115,-18.49522],[-47.21096,-18.49412],[-47.2107,-18.4937],[-47.2096,-18.49166],[-47.20967,-18.49158],[-47.21103,-18.4886],[-47.20882,-18.48649],[-47.20748,-18.4846],[-47.20685,-18.48312],[-47.20648,-18.48185],[-47.20634,-18.48108],[-47.20638,-18.48006],[-47.20661,-18.47937],[-47.20663,-18.47926],[-47.20649,-18.47924],[-47.20653,-18.47879],[-47.20646,-18.47822],[-47.20683,-18.47822],[-47.20775,-18.47809],[-47.20852,-18.47775],[-47.20912,-18.47784],[-47.2109,-18.47826],[-47.21244,-18.47855],[-47.213,-18.47878],[-47.21478,-18.47937],[-47.21543,-18.4796],[-47.21547,-18.47905],[-47.21547,-18.47776],[-47.21548,-18.47717],[-47.21574,-18.47717],[-47.21574,-18.47709],[-47.21577,-18.47701],[-47.21746,-18.47414]]],[[[-47.2099,-18.49285],[-47.20881,-18.49393],[-47.2089,-18.49384],[-47.20909,-18.49364],[-47.2099,-18.49285]]]]}},{"type":"Feature","properties":{"territory_id":"mg-3119302-zona-rural","name":"Zona Rural","municipality_id":"mg-3119302","polling_places":3,"approx":true,"official":false,"method":"voronoi-polling-places","whole_municipality":false,"approx_coords_only":false},"geometry":{"type":"MultiPolygon","coordinates":[[[[-47.3485,-18.6436],[-47.3392,-18.6792],[-47.2775,-18.7268],[-47.26513,-18.73256],[-47.25228,-18.68137],[-47.2057,-18.58851],[-47.32603,-18.48903],[-47.3326,-18.5048],[-47.3296,-18.5355],[-47.2967,-18.5532],[-47.3319,-18.5884],[-47.3485,-18.6436]]],[[[-47.14136,-18.58141],[-47.02883,-18.697],[-47.0062,-18.697],[-46.9712,-18.7184],[-46.9608,-18.7489],[-46.91865,-18.73147],[-46.91949,-18.48391],[-47.08708,-18.47706],[-47.14136,-18.58141]]]]}}]}