{"type":"FeatureCollection","features":[{"type":"Feature","properties":{"territory_id":"mg-3120409-centro","name":"Centro","municipality_id":"mg-3120409","polling_places":2,"approx":true,"official":false,"method":"voronoi-polling-places","whole_municipality":false,"approx_coords_only":false},"geometry":{"type":"MultiPolygon","coordinates":[[[[-43.81913,-20.8458],[-43.78773,-20.87188],[-43.7812,-20.8634],[-43.7309,-20.845],[-43.7728,-20.801],[-43.80165,-20.78335],[-43.81293,-20.8327],[-43.81913,-20.8458]]]]}},{"type":"Feature","properties":{"territory_id":"mg-3120409-olhos-d-agua","name":"Olhos D'água","municipality_id":"mg-3120409","polling_places":1,"approx":true,"official":false,"method":"voronoi-polling-places","whole_municipality":false,"approx_coords_only":false},"geometry":{"type":"MultiPolygon","coordinates":[[[[-43.89106,-20.8893],[-43.8828,-20.8953],[-43.816,-20.8719],[-43.797,-20.8839],[-43.78773,-20.87188],[-43.81913,-20.8458],[-43.85422,-20.83189],[-43.89106,-20.8893]]]]}},{"type":"Feature","properties":{"territory_id":"mg-3120409-pinheiros","name":"Pinheiros","municipality_id":"mg-3120409","polling_places":1,"approx":true,"official":false,"method":"voronoi-polling-places","whole_municipality":false,"approx_coords_only":false},"geometry":{"type":"MultiPolygon","coordinates":[[[[-43.85422,-20.83189],[-43.81913,-20.8458],[-43.81293,-20.8327],[-43.80165,-20.78335],[-43.8194,-20.7725],[-43.85299,-20.78678],[-43.85422,-20.83189]]]]}},{"type":"Feature","properties":{"territory_id":"mg-3120409-sao-caetano","name":"São Caetano","municipality_id":"mg-3120409","polling_places":1,"approx":true,"official":false,"method":"voronoi-polling-places","whole_municipality":false,"approx_coords_only":false},"geometry":{"type":"MultiPolygon","coordinates":[[[[-43.8956,-20.886],[-43.89106,-20.8893],[-43.85422,-20.83189],[-43.85299,-20.78678],[-43.8942,-20.8043],[-43.8807,-20.8538],[-43.8956,-20.886]]]]}}]}