{"type":"FeatureCollection","features":[{"type":"Feature","properties":{"territory_id":"mg-3120201-centro","name":"Centro","municipality_id":"mg-3120201","polling_places":3,"approx":true,"official":false,"method":"voronoi-polling-places","whole_municipality":false,"approx_coords_only":false},"geometry":{"type":"MultiPolygon","coordinates":[[[[-45.6794,-20.8615],[-45.6505,-20.874],[-45.6125,-20.8696],[-45.5894,-20.9365],[-45.5372,-20.9378],[-45.4636,-20.9247],[-45.4312,-20.8912],[-45.42678,-20.88655],[-45.4981,-20.84692],[-45.50937,-20.83924],[-45.54812,-20.8089],[-45.67802,-20.84119],[-45.6794,-20.8615]]]]}},{"type":"Feature","properties":{"territory_id":"mg-3120201-zona-rural","name":"Zona Rural","municipality_id":"mg-3120201","polling_places":2,"approx":true,"official":false,"method":"voronoi-polling-places","whole_municipality":false,"approx_coords_only":false},"geometry":{"type":"MultiPolygon","coordinates":[[[[-45.7337,-20.7347],[-45.7137,-20.784],[-45.6755,-20.8043],[-45.67802,-20.84119],[-45.54812,-20.8089],[-45.50937,-20.83924],[-45.4981,-20.84692],[-45.42678,-20.88655],[-45.3898,-20.8476],[-45.3921,-20.829],[-45.4532,-20.762],[-45.4828,-20.7447],[-45.5123,-20.6964],[-45.5861,-20.687],[-45.6137,-20.7031],[-45.7337,-20.7347]]]]}}]}