{"type":"FeatureCollection","features":[{"type":"Feature","properties":{"territory_id":"mg-3120870-centro","name":"Centro","municipality_id":"mg-3120870","polling_places":2,"approx":true,"official":false,"method":"voronoi-polling-places","whole_municipality":false,"approx_coords_only":false},"geometry":{"type":"MultiPolygon","coordinates":[[[[-41.917,-15.9064],[-41.8639,-15.9583],[-41.8311,-15.9784],[-41.7862,-15.9635],[-41.7503,-15.9662],[-41.70641,-15.9482],[-41.7497,-15.82027],[-41.76996,-15.75871],[-41.7747,-15.7613],[-41.8195,-15.7574],[-41.8421,-15.7364],[-41.8805,-15.7484],[-41.8587,-15.8027],[-41.8652,-15.8365],[-41.9059,-15.8752],[-41.917,-15.9064]]]]}},{"type":"Feature","properties":{"territory_id":"mg-3120870-distrito-de-maristela","name":"Distrito de Maristela","municipality_id":"mg-3120870","polling_places":1,"approx":true,"official":false,"method":"voronoi-polling-places","whole_municipality":false,"approx_coords_only":false},"geometry":{"type":"MultiPolygon","coordinates":[[[[-41.76996,-15.75871],[-41.7497,-15.82027],[-41.70641,-15.9482],[-41.663,-15.9304],[-41.6195,-15.9368],[-41.6515,-15.9014],[-41.6427,-15.8806],[-41.5906,-15.8571],[-41.6039,-15.7934],[-41.6568,-15.8122],[-41.6966,-15.8007],[-41.7336,-15.7837],[-41.7159,-15.7574],[-41.7319,-15.7379],[-41.76996,-15.75871]]]]}}]}