{"type":"FeatureCollection","features":[{"type":"Feature","properties":{"territory_id":"mg-3120904-angicos","name":"Angicos","municipality_id":"mg-3120904","polling_places":1,"approx":true,"official":false,"method":"voronoi-polling-places","whole_municipality":false,"approx_coords_only":false},"geometry":{"type":"MultiPolygon","coordinates":[[[[-44.5586,-18.93004],[-44.47748,-18.95509],[-44.388,-18.86106],[-44.42401,-18.84029],[-44.44319,-18.83182],[-44.55161,-18.81106],[-44.5586,-18.93004]]]]}},{"type":"Feature","properties":{"territory_id":"mg-3120904-anguereta","name":"Anguereta","municipality_id":"mg-3120904","polling_places":1,"approx":true,"official":false,"method":"voronoi-polling-places","whole_municipality":false,"approx_coords_only":false},"geometry":{"type":"MultiPolygon","coordinates":[[[[-44.7097,-19.1105],[-44.6782,-19.1412],[-44.6711,-19.166],[-44.6942,-19.2061],[-44.6517,-19.2267],[-44.6352,-19.2311],[-44.59698,-19.21383],[-44.59691,-19.15522],[-44.59879,-19.088],[-44.61681,-19.06618],[-44.69583,-19.08322],[-44.7097,-19.1105]]]]}},{"type":"Feature","properties":{"territory_id":"mg-3120904-bananal","name":"Bananal","municipality_id":"mg-3120904","polling_places":1,"approx":true,"official":false,"method":"voronoi-polling-places","whole_municipality":false,"approx_coords_only":false},"geometry":{"type":"MultiPolygon","coordinates":[[[[-44.59345,-18.97643],[-44.45159,-19.104],[-44.40513,-19.11479],[-44.40008,-19.1159],[-44.38188,-19.08806],[-44.47748,-18.95509],[-44.5586,-18.93004],[-44.59056,-18.95378],[-44.59345,-18.97643]]]]}},{"type":"Feature","properties":{"territory_id":"mg-3120904-bela-vista","name":"Bela Vista","municipality_id":"mg-3120904","polling_places":4,"approx":true,"official":false,"method":"voronoi-polling-places","whole_municipality":false,"approx_coords_only":false},"geometry":{"type":"MultiPolygon","coordinates":[[[[-44.46235,-18.76633],[-44.44499,-18.77694],[-44.43763,-18.77032],[-44.4322,-18.77544],[-44.43145,-18.7657],[-44.43128,-18.76553],[-44.43106,-18.75946],[-44.43573,-18.75671],[-44.43884,-18.76311],[-44.44645,-18.76587],[-44.46235,-18.76633]]]]}},{"type":"Feature","properties":{"territory_id":"mg-3120904-boa-esperanca","name":"Boa Esperanca","municipality_id":"mg-3120904","polling_places":1,"approx":true,"official":false,"method":"voronoi-polling-places","whole_municipality":false,"approx_coords_only":false},"geometry":{"type":"MultiPolygon","coordinates":[[[[-44.46259,-18.76626],[-44.44156,-18.79633],[-44.43884,-18.78257],[-44.44499,-18.77694],[-44.46235,-18.76633],[-44.46259,-18.76626]]]]}},{"type":"Feature","properties":{"territory_id":"mg-3120904-bom-jesus","name":"Bom Jesus","municipality_id":"mg-3120904","polling_places":1,"approx":true,"official":false,"method":"voronoi-polling-places","whole_municipality":false,"approx_coords_only":false},"geometry":{"type":"MultiPolygon","coordinates":[[[[-44.44306,-18.73434],[-44.44099,-18.74131],[-44.42767,-18.74332],[-44.42025,-18.72792],[-44.44306,-18.73434]]]]}},{"type":"Feature","properties":{"territory_id":"mg-3120904-cachoeira-do-choro","name":"Cachoeira do Choro","municipality_id":"mg-3120904","polling_places":1,"approx":true,"official":false,"method":"voronoi-polling-places","whole_municipality":false,"approx_coords_only":false},"geometry":{"type":"MultiPolygon","coordinates":[[[[-44.7874,-18.9891],[-44.7512,-18.9858],[-44.7357,-19.0157],[-44.6828,-19.0576],[-44.69583,-19.08322],[-44.61681,-19.06618],[-44.59345,-18.97643],[-44.59056,-18.95378],[-44.7818,-18.90271],[-44.7874,-18.9891]]]]}},{"type":"Feature","properties":{"territory_id":"mg-3120904-canabrava","name":"Canabrava","municipality_id":"mg-3120904","polling_places":1,"approx":true,"official":false,"method":"voronoi-polling-places","whole_municipality":false,"approx_coords_only":false},"geometry":{"type":"MultiPolygon","coordinates":[[[[-44.7818,-18.90271],[-44.59056,-18.95378],[-44.5586,-18.93004],[-44.55161,-18.81106],[-44.57095,-18.76241],[-44.6074,-18.70244],[-44.6088,-18.7035],[-44.6317,-18.7357],[-44.6689,-18.7364],[-44.6486,-18.7873],[-44.6931,-18.8104],[-44.7111,-18.8386],[-44.7799,-18.8734],[-44.7818,-18.90271]]]]}},{"type":"Feature","properties":{"territory_id":"mg-3120904-centro","name":"Centro","municipality_id":"mg-3120904","polling_places":4,"approx":true,"official":false,"method":"voronoi-polling-places","whole_municipality":false,"approx_coords_only":false},"geometry":{"type":"MultiPolygon","coordinates":[[[[-44.43818,-18.75204],[-44.43573,-18.75671],[-44.43106,-18.75946],[-44.43055,-18.75931],[-44.43031,-18.75907],[-44.42359,-18.75442],[-44.42195,-18.75427],[-44.42182,-18.7531],[-44.42416,-18.74714],[-44.42657,-18.74595],[-44.42704,-18.74536],[-44.4379,-18.75197],[-44.43818,-18.75204]]]]}},{"type":"Feature","properties":{"territory_id":"mg-3120904-curiango","name":"Curiango","municipality_id":"mg-3120904","polling_places":1,"approx":true,"official":false,"method":"voronoi-polling-places","whole_municipality":false,"approx_coords_only":false},"geometry":{"type":"MultiPolygon","coordinates":[[[[-44.44147,-18.74986],[-44.43818,-18.75204],[-44.4379,-18.75197],[-44.42704,-18.74536],[-44.42767,-18.74332],[-44.44099,-18.74131],[-44.44147,-18.74986]]]]}},{"type":"Feature","properties":{"territory_id":"mg-3120904-esperanca","name":"Esperanca","municipality_id":"mg-3120904","polling_places":1,"approx":true,"official":false,"method":"voronoi-polling-places","whole_municipality":false,"approx_coords_only":false},"geometry":{"type":"MultiPolygon","coordinates":[[[[-44.57095,-18.76241],[-44.55161,-18.81106],[-44.44319,-18.83182],[-44.44156,-18.79633],[-44.46259,-18.76626],[-44.46545,-18.76509],[-44.57095,-18.76241]]]]}},{"type":"Feature","properties":{"territory_id":"mg-3120904-estiva","name":"Estiva","municipality_id":"mg-3120904","polling_places":1,"approx":true,"official":false,"method":"voronoi-polling-places","whole_municipality":false,"approx_coords_only":false},"geometry":{"type":"MultiPolygon","coordinates":[[[[-44.29472,-18.51679],[-44.19745,-18.46613],[-44.1873,-18.4214],[-44.2347,-18.3996],[-44.2712,-18.3604],[-44.2616,-18.3302],[-44.27761,-18.32447],[-44.29472,-18.51679]]]]}},{"type":"Feature","properties":{"territory_id":"mg-3120904-ipiranga","name":"Ipiranga","municipality_id":"mg-3120904","polling_places":1,"approx":true,"official":false,"method":"voronoi-polling-places","whole_municipality":false,"approx_coords_only":false},"geometry":{"type":"MultiPolygon","coordinates":[[[[-44.44319,-18.83182],[-44.42401,-18.84029],[-44.42491,-18.7785],[-44.43126,-18.77782],[-44.43884,-18.78257],[-44.44156,-18.79633],[-44.44319,-18.83182]]]]}},{"type":"Feature","properties":{"territory_id":"mg-3120904-jardim-paraiso","name":"Jardim Paraiso","municipality_id":"mg-3120904","polling_places":1,"approx":true,"official":false,"method":"voronoi-polling-places","whole_municipality":false,"approx_coords_only":false},"geometry":{"type":"MultiPolygon","coordinates":[[[[-44.4267,-18.76659],[-44.42131,-18.77648],[-44.39365,-18.77051],[-44.41698,-18.76044],[-44.42323,-18.76212],[-44.4267,-18.76659]]]]}},{"type":"Feature","properties":{"territory_id":"mg-3120904-lucio-cardoso","name":"Lucio Cardoso","municipality_id":"mg-3120904","polling_places":1,"approx":true,"official":false,"method":"voronoi-polling-places","whole_municipality":false,"approx_coords_only":false},"geometry":{"type":"MultiPolygon","coordinates":[[[[-44.54933,-18.65833],[-44.44306,-18.73434],[-44.42025,-18.72792],[-44.37661,-18.6996],[-44.372,-18.6614],[-44.3733,-18.6234],[-44.32877,-18.61798],[-44.35087,-18.59372],[-44.45241,-18.55384],[-44.4977,-18.5819],[-44.5167,-18.6169],[-44.4627,-18.6455],[-44.5489,-18.658],[-44.54933,-18.65833]]]]}},{"type":"Feature","properties":{"territory_id":"mg-3120904-maria-amalia","name":"Maria Amalia","municipality_id":"mg-3120904","polling_places":1,"approx":true,"official":false,"method":"voronoi-polling-places","whole_municipality":false,"approx_coords_only":false},"geometry":{"type":"MultiPolygon","coordinates":[[[[-44.46545,-18.76509],[-44.46259,-18.76626],[-44.46235,-18.76633],[-44.44645,-18.76587],[-44.43884,-18.76311],[-44.43573,-18.75671],[-44.43818,-18.75204],[-44.44147,-18.74986],[-44.46545,-18.76509]]]]}},{"type":"Feature","properties":{"territory_id":"mg-3120904-mascarenhas","name":"Mascarenhas","municipality_id":"mg-3120904","polling_places":1,"approx":true,"official":false,"method":"voronoi-polling-places","whole_municipality":false,"approx_coords_only":false},"geometry":{"type":"MultiPolygon","coordinates":[[[[-44.47748,-18.95509],[-44.38188,-19.08806],[-44.3725,-19.0737],[-44.3434,-19.0721],[-44.3052,-19.0268],[-44.28306,-19.01683],[-44.34007,-18.89703],[-44.3575,-18.904],[-44.3744,-18.8825],[-44.37332,-18.85873],[-44.388,-18.86106],[-44.47748,-18.95509]]]]}},{"type":"Feature","properties":{"territory_id":"mg-3120904-passaginha","name":"Passaginha","municipality_id":"mg-3120904","polling_places":3,"approx":true,"official":false,"method":"voronoi-polling-places","whole_municipality":false,"approx_coords_only":false},"geometry":{"type":"MultiPolygon","coordinates":[[[[-44.42416,-18.74714],[-44.42182,-18.7531],[-44.42195,-18.75427],[-44.41698,-18.76044],[-44.39365,-18.77051],[-44.38521,-18.77099],[-44.37823,-18.71309],[-44.41406,-18.74249],[-44.42416,-18.74714]]]]}},{"type":"Feature","properties":{"territory_id":"mg-3120904-ponte-nova","name":"Ponte Nova","municipality_id":"mg-3120904","polling_places":1,"approx":true,"official":false,"method":"voronoi-polling-places","whole_municipality":false,"approx_coords_only":false},"geometry":{"type":"MultiPolygon","coordinates":[[[[-44.42491,-18.7785],[-44.42401,-18.84029],[-44.388,-18.86106],[-44.37332,-18.85873],[-44.3723,-18.8361],[-44.389,-18.8024],[-44.38521,-18.77099],[-44.39365,-18.77051],[-44.42131,-18.77648],[-44.42491,-18.7785]]]]}},{"type":"Feature","properties":{"territory_id":"mg-3120904-saco-novo","name":"Saco Novo","municipality_id":"mg-3120904","polling_places":1,"approx":true,"official":false,"method":"voronoi-polling-places","whole_municipality":false,"approx_coords_only":false},"geometry":{"type":"MultiPolygon","coordinates":[[[[-44.34007,-18.89703],[-44.28306,-19.01683],[-44.273,-19.0123],[-44.2646,-18.9836],[-44.23056,-18.96077],[-44.22209,-18.83311],[-44.2467,-18.79285],[-44.2833,-18.8058],[-44.2697,-18.8317],[-44.311,-18.8854],[-44.34007,-18.89703]]]]}},{"type":"Feature","properties":{"territory_id":"mg-3120904-santa-cruz","name":"Santa Cruz","municipality_id":"mg-3120904","polling_places":1,"approx":true,"official":false,"method":"voronoi-polling-places","whole_municipality":false,"approx_coords_only":false},"geometry":{"type":"MultiPolygon","coordinates":[[[[-44.42767,-18.74332],[-44.42704,-18.74536],[-44.42657,-18.74595],[-44.42416,-18.74714],[-44.41406,-18.74249],[-44.37823,-18.71309],[-44.37661,-18.6996],[-44.42025,-18.72792],[-44.42767,-18.74332]]]]}},{"type":"Feature","properties":{"territory_id":"mg-3120904-santa-rita","name":"Santa Rita","municipality_id":"mg-3120904","polling_places":1,"approx":true,"official":false,"method":"voronoi-polling-places","whole_municipality":false,"approx_coords_only":false},"geometry":{"type":"MultiPolygon","coordinates":[[[[-44.6074,-18.70244],[-44.57095,-18.76241],[-44.46545,-18.76509],[-44.44147,-18.74986],[-44.44099,-18.74131],[-44.44306,-18.73434],[-44.54933,-18.65833],[-44.6074,-18.70244]]]]}},{"type":"Feature","properties":{"territory_id":"mg-3120904-santa-rita-do-cedro","name":"Santa Rita do Cedro","municipality_id":"mg-3120904","polling_places":1,"approx":true,"official":false,"method":"voronoi-polling-places","whole_municipality":false,"approx_coords_only":false},"geometry":{"type":"MultiPolygon","coordinates":[[[[-44.2467,-18.79285],[-44.22209,-18.83311],[-44.11623,-18.86688],[-44.1129,-18.8643],[-44.1418,-18.8287],[-44.1575,-18.7668],[-44.1965,-18.7448],[-44.2375,-18.7896],[-44.2467,-18.79285]]]]}},{"type":"Feature","properties":{"territory_id":"mg-3120904-sao-geraldo-do-jatai","name":"Sao Geraldo do Jatai","municipality_id":"mg-3120904","polling_places":1,"approx":true,"official":false,"method":"voronoi-polling-places","whole_municipality":false,"approx_coords_only":false},"geometry":{"type":"MultiPolygon","coordinates":[[[[-44.23056,-18.96077],[-44.2172,-18.9518],[-44.1539,-18.9576],[-44.1205,-18.9455],[-44.0746,-18.9145],[-44.1137,-18.9077],[-44.1326,-18.8796],[-44.11623,-18.86688],[-44.22209,-18.83311],[-44.23056,-18.96077]]]]}},{"type":"Feature","properties":{"territory_id":"mg-3120904-sao-jose-da-lagoa","name":"Sao Jose da Lagoa","municipality_id":"mg-3120904","polling_places":2,"approx":true,"official":false,"method":"voronoi-polling-places","whole_municipality":false,"approx_coords_only":false},"geometry":{"type":"MultiPolygon","coordinates":[[[[-44.59879,-19.088],[-44.59691,-19.15522],[-44.59698,-19.21383],[-44.5697,-19.2015],[-44.5222,-19.1632],[-44.4565,-19.164],[-44.4093,-19.13],[-44.40008,-19.1159],[-44.40513,-19.11479],[-44.45159,-19.104],[-44.59879,-19.088]]]]}},{"type":"Feature","properties":{"territory_id":"mg-3120904-tapera","name":"Tapera","municipality_id":"mg-3120904","polling_places":1,"approx":true,"official":false,"method":"voronoi-polling-places","whole_municipality":false,"approx_coords_only":false},"geometry":{"type":"MultiPolygon","coordinates":[[[[-44.61681,-19.06618],[-44.59879,-19.088],[-44.45159,-19.104],[-44.59345,-18.97643],[-44.61681,-19.06618]]]]}},{"type":"Feature","properties":{"territory_id":"mg-3120904-tibira","name":"Tibira","municipality_id":"mg-3120904","polling_places":3,"approx":true,"official":false,"method":"voronoi-polling-places","whole_municipality":false,"approx_coords_only":false},"geometry":{"type":"MultiPolygon","coordinates":[[[[-44.4322,-18.77544],[-44.43126,-18.77782],[-44.42491,-18.7785],[-44.42131,-18.77648],[-44.4267,-18.76659],[-44.42323,-18.76212],[-44.41698,-18.76044],[-44.42195,-18.75427],[-44.42359,-18.75442],[-44.43031,-18.75907],[-44.43055,-18.75931],[-44.43106,-18.75946],[-44.43128,-18.76553],[-44.43145,-18.7657],[-44.4322,-18.77544]]]]}},{"type":"Feature","properties":{"territory_id":"mg-3120904-tomaz-gonzaga","name":"Tomaz Gonzaga","municipality_id":"mg-3120904","polling_places":1,"approx":true,"official":false,"method":"voronoi-polling-places","whole_municipality":false,"approx_coords_only":false},"geometry":{"type":"MultiPolygon","coordinates":[[[[-44.4558,-18.5247],[-44.4467,-18.5503],[-44.45241,-18.55384],[-44.35087,-18.59372],[-44.29472,-18.51679],[-44.27761,-18.32447],[-44.2999,-18.3165],[-44.315,-18.2762],[-44.3478,-18.3288],[-44.3742,-18.3339],[-44.4061,-18.3833],[-44.4153,-18.4345],[-44.4558,-18.5247]]]]}},{"type":"Feature","properties":{"territory_id":"mg-3120904-vargem-de-cima","name":"Vargem de Cima","municipality_id":"mg-3120904","polling_places":1,"approx":true,"official":false,"method":"voronoi-polling-places","whole_municipality":false,"approx_coords_only":false},"geometry":{"type":"MultiPolygon","coordinates":[[[[-44.35087,-18.59372],[-44.32877,-18.61798],[-44.2748,-18.6114],[-44.2197,-18.5819],[-44.1822,-18.5669],[-44.1795,-18.5062],[-44.1998,-18.4765],[-44.19745,-18.46613],[-44.29472,-18.51679],[-44.35087,-18.59372]]]]}},{"type":"Feature","properties":{"territory_id":"mg-3120904-vila-de-lourdes","name":"Vila de Lourdes","municipality_id":"mg-3120904","polling_places":1,"approx":true,"official":false,"method":"voronoi-polling-places","whole_municipality":false,"approx_coords_only":false},"geometry":{"type":"MultiPolygon","coordinates":[[[[-44.44499,-18.77694],[-44.43884,-18.78257],[-44.43126,-18.77782],[-44.4322,-18.77544],[-44.43763,-18.77032],[-44.44499,-18.77694]]]]}}]}