{"type":"FeatureCollection","features":[{"type":"Feature","properties":{"territory_id":"mg-3120607-centro","name":"Centro","municipality_id":"mg-3120607","polling_places":2,"approx":false,"official":true,"method":"official-ibge-cd2022","whole_municipality":false,"approx_coords_only":false,"official_name":"Centro","official_code":"3120607001","match":"direct"},"geometry":{"type":"MultiPolygon","coordinates":[[[[-44.33521,-20.39663],[-44.33526,-20.39667],[-44.33617,-20.39702],[-44.33643,-20.39646],[-44.33735,-20.39658],[-44.33743,-20.39663],[-44.33741,-20.3968],[-44.33739,-20.39731],[-44.33827,-20.39737],[-44.33876,-20.39743],[-44.33878,-20.39736],[-44.33881,-20.3973],[-44.33881,-20.39717],[-44.33885,-20.39711],[-44.33891,-20.3971],[-44.3391,-20.397],[-44.33916,-20.39695],[-44.33924,-20.39685],[-44.33927,-20.39668],[-44.33933,-20.39661],[-44.33951,-20.39652],[-44.33971,-20.39646],[-44.33977,-20.39642],[-44.33987,-20.39618],[-44.33989,-20.39609],[-44.33987,-20.39602],[-44.33981,-20.39597],[-44.33966,-20.39579],[-44.33955,-20.39559],[-44.33954,-20.39539],[-44.33957,-20.39529],[-44.33966,-20.39515],[-44.33972,-20.39511],[-44.3399,-20.39504],[-44.34005,-20.39493],[-44.34017,-20.39488],[-44.34053,-20.39488],[-44.34059,-20.39491],[-44.34073,-20.39509],[-44.34083,-20.39518],[-44.34095,-20.39522],[-44.3412,-20.39524],[-44.34124,-20.39521],[-44.34133,-20.39501],[-44.34132,-20.39477],[-44.34129,-20.39471],[-44.34129,-20.39465],[-44.34134,-20.39461],[-44.34155,-20.39463],[-44.34161,-20.39466],[-44.34175,-20.39467],[-44.34191,-20.39467],[-44.34211,-20.39461],[-44.34223,-20.39452],[-44.34228,-20.39441],[-44.34228,-20.39428],[-44.34239,-20.39388],[-44.34239,-20.39382],[-44.34243,-20.39374],[-44.34243,-20.39354],[-44.34246,-20.39347],[-44.34246,-20.39334],[-44.34243,-20.39317],[-44.34243,-20.39308],[-44.34251,-20.39296],[-44.34252,-20.39285],[-44.34244,-20.39267],[-44.3423,-20.39253],[-44.34227,-20.39243],[-44.3422,-20.39231],[-44.34219,-20.39224],[-44.34216,-20.3922],[-44.3421,-20.39214],[-44.34182,-20.39198],[-44.34153,-20.39159],[-44.34152,-20.39142],[-44.34157,-20.39126],[-44.34156,-20.39105],[-44.34163,-20.39087],[-44.34162,-20.39071],[-44.34157,-20.39062],[-44.34152,-20.39048],[-44.34149,-20.39019],[-44.34156,-20.38997],[-44.34168,-20.38981],[-44.34179,-20.38971],[-44.34179,-20.38965],[-44.34181,-20.38956],[-44.34187,-20.38949],[-44.34196,-20.38944],[-44.34204,-20.38933],[-44.34208,-20.38916],[-44.34208,-20.38907],[-44.34214,-20.38895],[-44.34215,-20.38885],[-44.34212,-20.38882],[-44.34201,-20.38874],[-44.34176,-20.3887],[-44.34161,-20.38863],[-44.34134,-20.38842],[-44.34125,-20.38841],[-44.34115,-20.38835],[-44.34117,-20.38826],[-44.34126,-20.38815],[-44.34128,-20.38805],[-44.34123,-20.38796],[-44.34113,-20.38788],[-44.34107,-20.38771],[-44.34104,-20.38768],[-44.3409,-20.38766],[-44.34082,-20.38771],[-44.34074,-20.38782],[-44.34069,-20.38785],[-44.34059,-20.38785],[-44.34052,-20.38782],[-44.34041,-20.38772],[-44.34025,-20.38772],[-44.3401,-20.38777],[-44.34005,-20.38782],[-44.33981,-20.38794],[-44.33998,-20.38799],[-44.34014,-20.38823],[-44.34021,-20.38838],[-44.34023,-20.38853],[-44.3401,-20.38867],[-44.33981,-20.3888],[-44.33967,-20.38897],[-44.33951,-20.38912],[-44.33933,-20.38921],[-44.33908,-20.38927],[-44.33877,-20.3894],[-44.33848,-20.38939],[-44.33787,-20.38976],[-44.33755,-20.38979],[-44.33715,-20.3899],[-44.33699,-20.38991],[-44.3368,-20.39008],[-44.33653,-20.39027],[-44.33625,-20.39052],[-44.33604,-20.39057],[-44.3359,-20.39058],[-44.33571,-20.39071],[-44.33568,-20.39137],[-44.33564,-20.39142],[-44.33558,-20.3916],[-44.33554,-20.39184],[-44.33542,-20.392],[-44.33538,-20.39211],[-44.33536,-20.39227],[-44.33522,-20.39251],[-44.33504,-20.39259],[-44.33491,-20.39262],[-44.33449,-20.39262],[-44.33437,-20.39265],[-44.33402,-20.39269],[-44.33381,-20.39275],[-44.33375,-20.39279],[-44.33352,-20.39289],[-44.33343,-20.39296],[-44.3334,-20.39303],[-44.33329,-20.39315],[-44.33321,-20.39347],[-44.33317,-20.39353],[-44.33305,-20.39358],[-44.33295,-20.39364],[-44.33287,-20.39384],[-44.33278,-20.39395],[-44.33264,-20.39405],[-44.33242,-20.39407],[-44.33217,-20.39414],[-44.33204,-20.39423],[-44.33193,-20.39435],[-44.33153,-20.39459],[-44.33135,-20.39528],[-44.33144,-20.39524],[-44.33198,-20.39476],[-44.33223,-20.39461],[-44.33286,-20.39434],[-44.33303,-20.39423],[-44.33311,-20.39415],[-44.33325,-20.39397],[-44.3335,-20.39378],[-44.33361,-20.39372],[-44.33436,-20.39344],[-44.33447,-20.39359],[-44.33489,-20.39363],[-44.33503,-20.39362],[-44.33545,-20.39439],[-44.33518,-20.39652],[-44.33521,-20.39663]]]]}}]}