{"type":"FeatureCollection","features":[{"type":"Feature","properties":{"territory_id":"mg-3120508-barra-grande","name":"Barra Grande","municipality_id":"mg-3120508","polling_places":1,"approx":true,"official":false,"method":"voronoi-polling-places","whole_municipality":false,"approx_coords_only":false},"geometry":{"type":"MultiPolygon","coordinates":[[[[-45.3938,-22.168],[-45.3665,-22.2224],[-45.3744,-22.2696],[-45.3328,-22.26],[-45.32657,-22.29261],[-45.31254,-22.25602],[-45.27992,-22.16591],[-45.38871,-22.16077],[-45.3938,-22.168]]]]}},{"type":"Feature","properties":{"territory_id":"mg-3120508-centro","name":"Centro","municipality_id":"mg-3120508","polling_places":2,"approx":true,"official":false,"method":"voronoi-polling-places","whole_municipality":false,"approx_coords_only":false},"geometry":{"type":"MultiPolygon","coordinates":[[[[-45.32657,-22.29261],[-45.3252,-22.2998],[-45.2556,-22.3049],[-45.2435,-22.282],[-45.227,-22.2568],[-45.1644,-22.2006],[-45.1797,-22.1987],[-45.2345,-22.1487],[-45.24005,-22.13668],[-45.27992,-22.16591],[-45.31254,-22.25602],[-45.32657,-22.29261]]]]}},{"type":"Feature","properties":{"territory_id":"mg-3120508-vargem-alegre","name":"Vargem Alegre","municipality_id":"mg-3120508","polling_places":1,"approx":true,"official":false,"method":"voronoi-polling-places","whole_municipality":false,"approx_coords_only":false},"geometry":{"type":"MultiPolygon","coordinates":[[[[-45.38871,-22.16077],[-45.27992,-22.16591],[-45.24005,-22.13668],[-45.2506,-22.1138],[-45.2929,-22.1324],[-45.334,-22.119],[-45.3748,-22.141],[-45.38871,-22.16077]]]]}}]}