{"type":"FeatureCollection","features":[{"type":"Feature","properties":{"territory_id":"mg-3120003-centro","name":"Centro","municipality_id":"mg-3120003","polling_places":2,"approx":true,"official":false,"method":"voronoi-polling-places","whole_municipality":false,"approx_coords_only":false},"geometry":{"type":"MultiPolygon","coordinates":[[[[-42.5509,-19.8855],[-42.509,-19.9074],[-42.4595,-19.9005],[-42.4307,-19.8531],[-42.3704,-19.8598],[-42.367,-19.8321],[-42.36146,-19.82574],[-42.39533,-19.81358],[-42.47975,-19.7783],[-42.4979,-19.7949],[-42.5509,-19.8855]]]]}},{"type":"Feature","properties":{"territory_id":"mg-3120003-cgo-mantimento","name":"Cgo Mantimento","municipality_id":"mg-3120003","polling_places":1,"approx":true,"official":false,"method":"voronoi-polling-places","whole_municipality":false,"approx_coords_only":false},"geometry":{"type":"MultiPolygon","coordinates":[[[[-42.47975,-19.7783],[-42.39533,-19.81358],[-42.36146,-19.82574],[-42.3358,-19.7963],[-42.3634,-19.7602],[-42.3821,-19.777],[-42.4397,-19.7604],[-42.4745,-19.7735],[-42.47975,-19.7783]]]]}}]}