{"type":"FeatureCollection","features":[{"type":"Feature","properties":{"territory_id":"mg-3120151-centro","name":"Centro","municipality_id":"mg-3120151","polling_places":1,"approx":true,"official":false,"method":"voronoi-polling-places","whole_municipality":false,"approx_coords_only":false},"geometry":{"type":"MultiPolygon","coordinates":[[[[-41.02939,-17.13323],[-40.98185,-17.33557],[-40.9522,-17.3326],[-40.89522,-17.33822],[-40.92526,-17.14662],[-40.9719,-17.1743],[-41.02939,-17.13323]]]]}},{"type":"Feature","properties":{"territory_id":"mg-3120151-crisolita","name":"Crisólita","municipality_id":"mg-3120151","polling_places":1,"approx":true,"official":false,"method":"voronoi-polling-places","whole_municipality":false,"approx_coords_only":false},"geometry":{"type":"MultiPolygon","coordinates":[[[[-40.92526,-17.14662],[-40.89522,-17.33822],[-40.8539,-17.3423],[-40.816,-17.3761],[-40.7774,-17.3496],[-40.7477,-17.3466],[-40.7478,-17.3208],[-40.7836,-17.262],[-40.7503,-17.177],[-40.7592,-17.1599],[-40.7987,-17.1365],[-40.8423,-17.1079],[-40.8804,-17.12],[-40.92526,-17.14662]]]]}},{"type":"Feature","properties":{"territory_id":"mg-3120151-nova-santa-luzia","name":"Nova Santa Luzia","municipality_id":"mg-3120151","polling_places":1,"approx":true,"official":false,"method":"voronoi-polling-places","whole_municipality":false,"approx_coords_only":false},"geometry":{"type":"MultiPolygon","coordinates":[[[[-41.2053,-17.2238],[-41.184,-17.2469],[-41.1798,-17.2812],[-41.1526,-17.3038],[-41.1065,-17.3184],[-41.0715,-17.3471],[-41.0332,-17.3446],[-41.0007,-17.3611],[-40.9861,-17.336],[-40.98185,-17.33557],[-41.02939,-17.13323],[-41.0318,-17.1315],[-41.0552,-17.1641],[-41.1004,-17.1287],[-41.1261,-17.1249],[-41.1539,-17.1297],[-41.1641,-17.1893],[-41.2053,-17.2238]]]]}}]}