{"type":"FeatureCollection","features":[{"type":"Feature","properties":{"territory_id":"mg-3120300-barreiro","name":"Barreiro","municipality_id":"mg-3120300","polling_places":1,"approx":true,"official":false,"method":"voronoi-polling-places","whole_municipality":false,"approx_coords_only":false},"geometry":{"type":"MultiPolygon","coordinates":[[[[-42.92788,-16.82592],[-42.919,-16.8441],[-42.8716,-16.8046],[-42.8088,-16.8729],[-42.737,-16.8516],[-42.7331,-16.8268],[-42.6815,-16.809],[-42.67539,-16.80301],[-42.80867,-16.77943],[-42.91073,-16.80515],[-42.92788,-16.82592]]]]}},{"type":"Feature","properties":{"territory_id":"mg-3120300-boa-vista-do-bananal","name":"Boa Vista do Bananal","municipality_id":"mg-3120300","polling_places":1,"approx":true,"official":false,"method":"voronoi-polling-places","whole_municipality":false,"approx_coords_only":false},"geometry":{"type":"MultiPolygon","coordinates":[[[[-42.9973,-16.7689],[-42.9449,-16.7911],[-42.92788,-16.82592],[-42.91073,-16.80515],[-42.91798,-16.74484],[-42.98801,-16.67993],[-42.9908,-16.6814],[-42.9844,-16.7287],[-42.9973,-16.7689]]]]}},{"type":"Feature","properties":{"territory_id":"mg-3120300-centro","name":"Centro","municipality_id":"mg-3120300","polling_places":1,"approx":true,"official":false,"method":"voronoi-polling-places","whole_municipality":false,"approx_coords_only":false},"geometry":{"type":"MultiPolygon","coordinates":[[[[-42.91024,-16.7297],[-42.83388,-16.70982],[-42.85775,-16.59647],[-42.91024,-16.7297]]]]}},{"type":"Feature","properties":{"territory_id":"mg-3120300-paiol","name":"Paiol","municipality_id":"mg-3120300","polling_places":1,"approx":true,"official":false,"method":"voronoi-polling-places","whole_municipality":false,"approx_coords_only":false},"geometry":{"type":"MultiPolygon","coordinates":[[[[-42.85775,-16.59647],[-42.83388,-16.70982],[-42.80867,-16.77943],[-42.67539,-16.80301],[-42.642,-16.7703],[-42.6005,-16.7321],[-42.6248,-16.7139],[-42.6772,-16.7209],[-42.6948,-16.6762],[-42.7369,-16.6551],[-42.7419,-16.6015],[-42.7308,-16.5734],[-42.7642,-16.5445],[-42.7858,-16.5472],[-42.8244,-16.5994],[-42.85687,-16.58718],[-42.85775,-16.59647]]]]}},{"type":"Feature","properties":{"territory_id":"mg-3120300-planalto","name":"Planalto","municipality_id":"mg-3120300","polling_places":1,"approx":true,"official":false,"method":"voronoi-polling-places","whole_municipality":false,"approx_coords_only":false},"geometry":{"type":"MultiPolygon","coordinates":[[[[-42.91798,-16.74484],[-42.91073,-16.80515],[-42.80867,-16.77943],[-42.83388,-16.70982],[-42.91024,-16.7297],[-42.91798,-16.74484]]]]}},{"type":"Feature","properties":{"territory_id":"mg-3120300-zona-rural","name":"Zona Rural","municipality_id":"mg-3120300","polling_places":1,"approx":true,"official":false,"method":"voronoi-polling-places","whole_municipality":false,"approx_coords_only":false},"geometry":{"type":"MultiPolygon","coordinates":[[[[-42.98801,-16.67993],[-42.91798,-16.74484],[-42.91024,-16.7297],[-42.85775,-16.59647],[-42.85687,-16.58718],[-42.8741,-16.5807],[-42.9234,-16.5916],[-42.9548,-16.6624],[-42.98801,-16.67993]]]]}}]}