{"type":"FeatureCollection","features":[{"type":"Feature","properties":{"territory_id":"mg-3120805-centro","name":"Centro","municipality_id":"mg-3120805","polling_places":2,"approx":true,"official":false,"method":"voronoi-polling-places","whole_municipality":false,"approx_coords_only":false},"geometry":{"type":"MultiPolygon","coordinates":[[[[-44.81988,-21.83481],[-44.80723,-21.84398],[-44.79924,-21.84793],[-44.77146,-21.86282],[-44.7543,-21.8571],[-44.75214,-21.82871],[-44.81012,-21.83499],[-44.81988,-21.83481]]]]}},{"type":"Feature","properties":{"territory_id":"mg-3120805-kennedy","name":"Kennedy","municipality_id":"mg-3120805","polling_places":2,"approx":true,"official":false,"method":"voronoi-polling-places","whole_municipality":false,"approx_coords_only":false},"geometry":{"type":"MultiPolygon","coordinates":[[[[-44.8848,-21.8368],[-44.862,-21.8502],[-44.8578,-21.8846],[-44.8333,-21.9093],[-44.7888,-21.8686],[-44.77146,-21.86282],[-44.79924,-21.84793],[-44.80723,-21.84398],[-44.81988,-21.83481],[-44.87384,-21.81335],[-44.8848,-21.8368]]]]}},{"type":"Feature","properties":{"territory_id":"mg-3120805-vila-magalhaes","name":"Vila Magalhães","municipality_id":"mg-3120805","polling_places":1,"approx":true,"official":false,"method":"voronoi-polling-places","whole_municipality":false,"approx_coords_only":false},"geometry":{"type":"MultiPolygon","coordinates":[[[[-44.8931,-21.686],[-44.8824,-21.7082],[-44.8875,-21.7573],[-44.8662,-21.797],[-44.87384,-21.81335],[-44.81988,-21.83481],[-44.81012,-21.83499],[-44.75214,-21.82871],[-44.7518,-21.8243],[-44.7242,-21.7645],[-44.6916,-21.7433],[-44.7031,-21.7148],[-44.6807,-21.6743],[-44.6762,-21.6403],[-44.7534,-21.605],[-44.7916,-21.5965],[-44.8041,-21.5865],[-44.868,-21.6078],[-44.8781,-21.6277],[-44.8931,-21.686]]]]}}]}