{"type":"FeatureCollection","features":[{"type":"Feature","properties":{"territory_id":"mg-3120839-centro","name":"Centro","municipality_id":"mg-3120839","polling_places":3,"approx":true,"official":false,"method":"voronoi-polling-places","whole_municipality":true,"approx_coords_only":false},"geometry":{"type":"MultiPolygon","coordinates":[[[[-41.0608,-19.0565],[-41.0716,-19.0256],[-41.0322,-18.9908],[-41.065,-18.9448],[-41.1037,-18.9341],[-41.1371,-18.8906],[-41.1351,-18.9296],[-41.1811,-18.9705],[-41.2144,-18.9653],[-41.1602,-18.9881],[-41.2343,-19.062],[-41.234,-19.0861],[-41.1363,-19.0786],[-41.1149,-19.0622],[-41.0893,-19.0792],[-41.0608,-19.0565]]]]}}]}