{"type":"FeatureCollection","features":[{"type":"Feature","properties":{"territory_id":"mg-3120706-centro","name":"Centro","municipality_id":"mg-3120706","polling_places":1,"approx":true,"official":false,"method":"voronoi-polling-places","whole_municipality":false,"approx_coords_only":false},"geometry":{"type":"MultiPolygon","coordinates":[[[[-46.775,-18.9582],[-46.7533,-19.002],[-46.7232,-19.0219],[-46.6848,-19.0062],[-46.68085,-19.01074],[-46.6184,-18.9501],[-46.6161,-18.9241],[-46.6444,-18.8739],[-46.659,-18.912],[-46.7039,-18.9365],[-46.7502,-18.9401],[-46.775,-18.9582]]]]}},{"type":"Feature","properties":{"territory_id":"mg-3120706-distrito-de-brejo-bonito","name":"Distrito de Brejo Bonito","municipality_id":"mg-3120706","polling_places":1,"approx":true,"official":false,"method":"voronoi-polling-places","whole_municipality":false,"approx_coords_only":false},"geometry":{"type":"MultiPolygon","coordinates":[[[[-46.68085,-19.01074],[-46.6474,-19.0492],[-46.6237,-19.0381],[-46.5675,-18.9879],[-46.5934,-19.0057],[-46.6189,-18.9557],[-46.6184,-18.9501],[-46.68085,-19.01074]]]]}}]}