{"type":"FeatureCollection","features":[{"type":"Feature","properties":{"territory_id":"mg-3120102-centro","name":"Centro","municipality_id":"mg-3120102","polling_places":2,"approx":true,"official":false,"method":"voronoi-polling-places","whole_municipality":true,"approx_coords_only":false},"geometry":{"type":"MultiPolygon","coordinates":[[[[-43.4082,-17.9471],[-43.4526,-17.9336],[-43.4596,-17.8645],[-43.4726,-17.8348],[-43.4996,-17.8491],[-43.5219,-17.9348],[-43.5245,-17.9708],[-43.553,-17.9801],[-43.5516,-18.0454],[-43.4965,-18.0935],[-43.4872,-18.1289],[-43.4587,-18.1468],[-43.4583,-18.1891],[-43.4331,-18.2193],[-43.4009,-18.2313],[-43.3839,-18.2567],[-43.4022,-18.2935],[-43.3244,-18.3231],[-43.3057,-18.2808],[-43.2755,-18.2799],[-43.2628,-18.3034],[-43.273,-18.2525],[-43.3205,-18.2377],[-43.3738,-18.2339],[-43.3914,-18.154],[-43.3609,-18.1008],[-43.3974,-18.0861],[-43.4497,-18.0427],[-43.4082,-17.9471]]]]}}]}