{"type":"FeatureCollection","features":[{"type":"Feature","properties":{"territory_id":"mg-3121100-agua-limpa","name":"Água Limpa","municipality_id":"mg-3121100","polling_places":1,"approx":true,"official":false,"method":"voronoi-polling-places","whole_municipality":false,"approx_coords_only":false},"geometry":{"type":"MultiPolygon","coordinates":[[[[-45.3706,-22.4465],[-45.3593,-22.4672],[-45.34205,-22.50777],[-45.33833,-22.50681],[-45.35056,-22.44845],[-45.36247,-22.43711],[-45.3706,-22.4465]]]]}},{"type":"Feature","properties":{"territory_id":"mg-3121100-barra","name":"Barra","municipality_id":"mg-3121100","polling_places":1,"approx":true,"official":false,"method":"voronoi-polling-places","whole_municipality":false,"approx_coords_only":false},"geometry":{"type":"MultiPolygon","coordinates":[[[[-45.27726,-22.38621],[-45.25573,-22.40259],[-45.23383,-22.38894],[-45.23149,-22.37126],[-45.261,-22.3764],[-45.27726,-22.38621]]]]}},{"type":"Feature","properties":{"territory_id":"mg-3121100-barreira","name":"Barreira","municipality_id":"mg-3121100","polling_places":1,"approx":true,"official":false,"method":"voronoi-polling-places","whole_municipality":false,"approx_coords_only":false},"geometry":{"type":"MultiPolygon","coordinates":[[[[-45.29067,-22.61349],[-45.2691,-22.6114],[-45.2545,-22.5816],[-45.1821,-22.54891],[-45.25071,-22.52315],[-45.28851,-22.5555],[-45.29067,-22.61349]]]]}},{"type":"Feature","properties":{"territory_id":"mg-3121100-barreirinho","name":"Barreirinho","municipality_id":"mg-3121100","polling_places":1,"approx":true,"official":false,"method":"voronoi-polling-places","whole_municipality":false,"approx_coords_only":false},"geometry":{"type":"MultiPolygon","coordinates":[[[[-45.35056,-22.44845],[-45.33833,-22.50681],[-45.32703,-22.50719],[-45.28456,-22.45636],[-45.28621,-22.45476],[-45.35056,-22.44845]]]]}},{"type":"Feature","properties":{"territory_id":"mg-3121100-bigua","name":"Biguá","municipality_id":"mg-3121100","polling_places":1,"approx":true,"official":false,"method":"voronoi-polling-places","whole_municipality":false,"approx_coords_only":false},"geometry":{"type":"MultiPolygon","coordinates":[[[[-45.36247,-22.43711],[-45.35056,-22.44845],[-45.28621,-22.45476],[-45.31889,-22.40272],[-45.3347,-22.405],[-45.36247,-22.43711]]]]}},{"type":"Feature","properties":{"territory_id":"mg-3121100-centro","name":"Centro","municipality_id":"mg-3121100","polling_places":1,"approx":true,"official":false,"method":"voronoi-polling-places","whole_municipality":false,"approx_coords_only":false},"geometry":{"type":"MultiPolygon","coordinates":[[[[-45.32703,-22.50719],[-45.28851,-22.5555],[-45.25071,-22.52315],[-45.25108,-22.46518],[-45.26817,-22.45638],[-45.28456,-22.45636],[-45.32703,-22.50719]]]]}},{"type":"Feature","properties":{"territory_id":"mg-3121100-mogiano","name":"Mogiano","municipality_id":"mg-3121100","polling_places":1,"approx":true,"official":false,"method":"voronoi-polling-places","whole_municipality":false,"approx_coords_only":false},"geometry":{"type":"MultiPolygon","coordinates":[[[[-45.23383,-22.38894],[-45.19964,-22.41886],[-45.17,-22.4006],[-45.2231,-22.3698],[-45.23149,-22.37126],[-45.23383,-22.38894]]]]}},{"type":"Feature","properties":{"territory_id":"mg-3121100-ponte-de-zinco","name":"Ponte de Zinco","municipality_id":"mg-3121100","polling_places":1,"approx":true,"official":false,"method":"voronoi-polling-places","whole_municipality":false,"approx_coords_only":false},"geometry":{"type":"MultiPolygon","coordinates":[[[[-45.4204,-22.6212],[-45.4,-22.6537],[-45.333,-22.6176],[-45.29067,-22.61349],[-45.28851,-22.5555],[-45.32703,-22.50719],[-45.33833,-22.50681],[-45.34205,-22.50777],[-45.3371,-22.5194],[-45.3727,-22.5564],[-45.3951,-22.6148],[-45.4204,-22.6212]]]]}},{"type":"Feature","properties":{"territory_id":"mg-3121100-rio-claro","name":"Rio Claro","municipality_id":"mg-3121100","polling_places":1,"approx":true,"official":false,"method":"voronoi-polling-places","whole_municipality":false,"approx_coords_only":false},"geometry":{"type":"MultiPolygon","coordinates":[[[[-45.31889,-22.40272],[-45.28621,-22.45476],[-45.28456,-22.45636],[-45.26817,-22.45638],[-45.25573,-22.40259],[-45.27726,-22.38621],[-45.3001,-22.4],[-45.31889,-22.40272]]]]}},{"type":"Feature","properties":{"territory_id":"mg-3121100-rosario","name":"Rosário","municipality_id":"mg-3121100","polling_places":1,"approx":true,"official":false,"method":"voronoi-polling-places","whole_municipality":false,"approx_coords_only":false},"geometry":{"type":"MultiPolygon","coordinates":[[[[-45.25108,-22.46518],[-45.25071,-22.52315],[-45.1821,-22.54891],[-45.1772,-22.5467],[-45.1668,-22.5307],[-45.198,-22.48],[-45.2456,-22.474],[-45.2437,-22.46403],[-45.25108,-22.46518]]]]}},{"type":"Feature","properties":{"territory_id":"mg-3121100-sertao-pequeno","name":"Sertão Pequeno","municipality_id":"mg-3121100","polling_places":1,"approx":true,"official":false,"method":"voronoi-polling-places","whole_municipality":false,"approx_coords_only":false},"geometry":{"type":"MultiPolygon","coordinates":[[[[-45.26817,-22.45638],[-45.25108,-22.46518],[-45.2437,-22.46403],[-45.2398,-22.4436],[-45.19964,-22.41886],[-45.23383,-22.38894],[-45.25573,-22.40259],[-45.26817,-22.45638]]]]}}]}