{"type":"FeatureCollection","features":[{"type":"Feature","properties":{"territory_id":"mg-3121407-aguiar","name":"Aguiar","municipality_id":"mg-3121407","polling_places":1,"approx":true,"official":false,"method":"voronoi-polling-places","whole_municipality":false,"approx_coords_only":false},"geometry":{"type":"MultiPolygon","coordinates":[[[[-44.20767,-20.56179],[-44.14741,-20.62173],[-44.1369,-20.6013],[-44.137,-20.5563],[-44.1802,-20.5229],[-44.20303,-20.51874],[-44.20767,-20.56179]]]]}},{"type":"Feature","properties":{"territory_id":"mg-3121407-centro","name":"Centro","municipality_id":"mg-3121407","polling_places":2,"approx":true,"official":false,"method":"voronoi-polling-places","whole_municipality":false,"approx_coords_only":false},"geometry":{"type":"MultiPolygon","coordinates":[[[[-44.39928,-20.67718],[-44.39637,-20.68505],[-44.29819,-20.69796],[-44.3036,-20.65355],[-44.30395,-20.6488],[-44.33957,-20.64005],[-44.39928,-20.67718]]]]}},{"type":"Feature","properties":{"territory_id":"mg-3121407-distrito-pereirinhas","name":"Distrito Pereirinhas","municipality_id":"mg-3121407","polling_places":1,"approx":true,"official":false,"method":"voronoi-polling-places","whole_municipality":false,"approx_coords_only":false},"geometry":{"type":"MultiPolygon","coordinates":[[[[-44.30395,-20.6488],[-44.3036,-20.65355],[-44.29819,-20.69796],[-44.2729,-20.72386],[-44.265,-20.7235],[-44.2612,-20.6784],[-44.226,-20.6493],[-44.22512,-20.64951],[-44.25041,-20.61003],[-44.2781,-20.60512],[-44.30395,-20.6488]]]]}},{"type":"Feature","properties":{"territory_id":"mg-3121407-distrito-sao-sebastiao-do-gil","name":"Distrito Sao Sebastiao do Gil","municipality_id":"mg-3121407","polling_places":1,"approx":true,"official":false,"method":"voronoi-polling-places","whole_municipality":false,"approx_coords_only":false},"geometry":{"type":"MultiPolygon","coordinates":[[[[-44.25041,-20.61003],[-44.22512,-20.64951],[-44.1953,-20.6567],[-44.1562,-20.6388],[-44.14741,-20.62173],[-44.20767,-20.56179],[-44.25041,-20.61003]]]]}},{"type":"Feature","properties":{"territory_id":"mg-3121407-povoado-barro-branco","name":"Povoado Barro Branco","municipality_id":"mg-3121407","polling_places":1,"approx":true,"official":false,"method":"voronoi-polling-places","whole_municipality":false,"approx_coords_only":false},"geometry":{"type":"MultiPolygon","coordinates":[[[[-44.4029,-20.6674],[-44.39928,-20.67718],[-44.33957,-20.64005],[-44.34076,-20.61276],[-44.3572,-20.6081],[-44.3606,-20.6373],[-44.4029,-20.6674]]]]}},{"type":"Feature","properties":{"territory_id":"mg-3121407-povoado-miranda","name":"Povoado Miranda","municipality_id":"mg-3121407","polling_places":1,"approx":true,"official":false,"method":"voronoi-polling-places","whole_municipality":false,"approx_coords_only":false},"geometry":{"type":"MultiPolygon","coordinates":[[[[-44.4213,-20.7125],[-44.3803,-20.7572],[-44.3608,-20.7115],[-44.3322,-20.7266],[-44.2729,-20.72386],[-44.29819,-20.69796],[-44.39637,-20.68505],[-44.3942,-20.6909],[-44.4213,-20.7125]]]]}},{"type":"Feature","properties":{"territory_id":"mg-3121407-povoado-mumbeca","name":"Povoado Mumbeca","municipality_id":"mg-3121407","polling_places":1,"approx":true,"official":false,"method":"voronoi-polling-places","whole_municipality":false,"approx_coords_only":false},"geometry":{"type":"MultiPolygon","coordinates":[[[[-44.34076,-20.61276],[-44.33957,-20.64005],[-44.30395,-20.6488],[-44.2781,-20.60512],[-44.31037,-20.5707],[-44.3156,-20.5855],[-44.3339,-20.6147],[-44.34076,-20.61276]]]]}},{"type":"Feature","properties":{"territory_id":"mg-3121407-povoado-samambaia","name":"Povoado Samambaia","municipality_id":"mg-3121407","polling_places":1,"approx":true,"official":false,"method":"voronoi-polling-places","whole_municipality":false,"approx_coords_only":false},"geometry":{"type":"MultiPolygon","coordinates":[[[[-44.31037,-20.5707],[-44.2781,-20.60512],[-44.25041,-20.61003],[-44.20767,-20.56179],[-44.20303,-20.51874],[-44.2153,-20.5165],[-44.304,-20.5527],[-44.31037,-20.5707]]]]}}]}