{"type":"FeatureCollection","features":[{"type":"Feature","properties":{"territory_id":"mg-3121258-centro","name":"Centro","municipality_id":"mg-3121258","polling_places":2,"approx":true,"official":false,"method":"voronoi-polling-places","whole_municipality":false,"approx_coords_only":false},"geometry":{"type":"MultiPolygon","coordinates":[[[[-47.8509,-19.9898],[-47.7626,-19.986],[-47.75782,-19.97138],[-47.77054,-19.97145],[-47.84688,-19.96783],[-47.8509,-19.9898]]]]}},{"type":"Feature","properties":{"territory_id":"mg-3121258-cohab","name":"Cohab","municipality_id":"mg-3121258","polling_places":1,"approx":true,"official":false,"method":"voronoi-polling-places","whole_municipality":false,"approx_coords_only":false},"geometry":{"type":"MultiPolygon","coordinates":[[[[-47.8601,-19.9108],[-47.8397,-19.9286],[-47.84688,-19.96783],[-47.77054,-19.97145],[-47.75782,-19.97138],[-47.7503,-19.9484],[-47.7575,-19.9032],[-47.7973,-19.9047],[-47.8417,-19.8669],[-47.8601,-19.9108]]]]}}]}