{"type":"FeatureCollection","features":[{"type":"Feature","properties":{"territory_id":"mg-3121605-baixadao","name":"Baixadão","municipality_id":"mg-3121605","polling_places":1,"approx":true,"official":false,"method":"voronoi-polling-places","whole_municipality":false,"approx_coords_only":false},"geometry":{"type":"MultiPolygon","coordinates":[[[[-43.34578,-17.49854],[-43.2594,-17.57519],[-43.24726,-17.579],[-43.2472,-17.5734],[-43.2274,-17.5627],[-43.2176,-17.4143],[-43.2415,-17.4205],[-43.2954,-17.3797],[-43.2799,-17.3957],[-43.319,-17.4731],[-43.34578,-17.49854]]]]}},{"type":"Feature","properties":{"territory_id":"mg-3121605-batatal","name":"Batatal","municipality_id":"mg-3121605","polling_places":1,"approx":true,"official":false,"method":"voronoi-polling-places","whole_municipality":false,"approx_coords_only":false},"geometry":{"type":"MultiPolygon","coordinates":[[[[-43.93978,-18.13171],[-43.91482,-18.37311],[-43.8785,-18.3628],[-43.8586,-18.3686],[-43.8312,-18.3332],[-43.76516,-18.33626],[-43.77142,-18.28245],[-43.80218,-18.18275],[-43.92312,-18.10219],[-43.9177,-18.1189],[-43.93978,-18.13171]]]]}},{"type":"Feature","properties":{"territory_id":"mg-3121605-bela-vista","name":"Bela Vista","municipality_id":"mg-3121605","polling_places":1,"approx":true,"official":false,"method":"voronoi-polling-places","whole_municipality":false,"approx_coords_only":false},"geometry":{"type":"MultiPolygon","coordinates":[[[[-43.62441,-18.26723],[-43.6111,-18.2466],[-43.61089,-18.23351],[-43.62195,-18.22972],[-43.62441,-18.26723]]]]}},{"type":"Feature","properties":{"territory_id":"mg-3121605-bom-jesus","name":"Bom Jesus","municipality_id":"mg-3121605","polling_places":1,"approx":true,"official":false,"method":"voronoi-polling-places","whole_municipality":false,"approx_coords_only":false},"geometry":{"type":"MultiPolygon","coordinates":[[[[-43.6111,-18.2466],[-43.60715,-18.24332],[-43.60529,-18.23861],[-43.60499,-18.23286],[-43.61089,-18.23351],[-43.6111,-18.2466]]]]}},{"type":"Feature","properties":{"territory_id":"mg-3121605-braunas","name":"Braúnas","municipality_id":"mg-3121605","polling_places":1,"approx":true,"official":false,"method":"voronoi-polling-places","whole_municipality":false,"approx_coords_only":false},"geometry":{"type":"MultiPolygon","coordinates":[[[[-43.68077,-17.83979],[-43.52124,-17.87457],[-43.48919,-17.7269],[-43.58371,-17.61764],[-43.6111,-17.6294],[-43.6027,-17.6707],[-43.6071,-17.7499],[-43.6771,-17.8311],[-43.68077,-17.83979]]]]}},{"type":"Feature","properties":{"territory_id":"mg-3121605-capoeirao","name":"Capoeirão","municipality_id":"mg-3121605","polling_places":1,"approx":true,"official":false,"method":"voronoi-polling-places","whole_municipality":false,"approx_coords_only":false},"geometry":{"type":"MultiPolygon","coordinates":[[[[-43.4804,-17.72623],[-43.395,-17.73619],[-43.36137,-17.66428],[-43.36665,-17.62776],[-43.38914,-17.61559],[-43.4804,-17.72623]]]]}},{"type":"Feature","properties":{"territory_id":"mg-3121605-cazuza","name":"Cazuza","municipality_id":"mg-3121605","polling_places":1,"approx":true,"official":false,"method":"voronoi-polling-places","whole_municipality":false,"approx_coords_only":false},"geometry":{"type":"MultiPolygon","coordinates":[[[[-43.66321,-18.22662],[-43.63505,-18.30545],[-43.62441,-18.26723],[-43.62195,-18.22972],[-43.65075,-18.16479],[-43.66321,-18.22662]]]]}},{"type":"Feature","properties":{"territory_id":"mg-3121605-centro","name":"Centro","municipality_id":"mg-3121605","polling_places":5,"approx":true,"official":false,"method":"voronoi-polling-places","whole_municipality":false,"approx_coords_only":false},"geometry":{"type":"MultiPolygon","coordinates":[[[[-43.62862,-18.30048],[-43.59273,-18.24966],[-43.59149,-18.249],[-43.59328,-18.24136],[-43.59452,-18.24136],[-43.59712,-18.23912],[-43.59872,-18.23844],[-43.59932,-18.23926],[-43.60082,-18.24097],[-43.60529,-18.23861],[-43.60715,-18.24332],[-43.60137,-18.24317],[-43.6006,-18.24408],[-43.59784,-18.24476],[-43.59759,-18.24485],[-43.59738,-18.24562],[-43.60867,-18.263],[-43.62862,-18.30048]]]]}},{"type":"Feature","properties":{"territory_id":"mg-3121605-cidade-nova","name":"Cidade Nova","municipality_id":"mg-3121605","polling_places":1,"approx":true,"official":false,"method":"voronoi-polling-places","whole_municipality":false,"approx_coords_only":false},"geometry":{"type":"MultiPolygon","coordinates":[[[[-43.65075,-18.16479],[-43.62195,-18.22972],[-43.61089,-18.23351],[-43.60499,-18.23286],[-43.60218,-18.23097],[-43.56508,-18.1709],[-43.58915,-18.15358],[-43.65048,-18.15766],[-43.65075,-18.16479]]]]}},{"type":"Feature","properties":{"territory_id":"mg-3121605-conselheiro-mata","name":"Conselheiro Mata","municipality_id":"mg-3121605","polling_places":1,"approx":true,"official":false,"method":"voronoi-polling-places","whole_municipality":false,"approx_coords_only":false},"geometry":{"type":"MultiPolygon","coordinates":[[[[-44.0884,-18.2204],[-44.0549,-18.2748],[-44.0008,-18.289],[-43.9884,-18.3454],[-43.9303,-18.3775],[-43.91482,-18.37311],[-43.93978,-18.13171],[-43.9558,-18.141],[-43.9542,-18.1576],[-44.015,-18.2126],[-44.0441,-18.2003],[-44.0884,-18.2204]]]]}},{"type":"Feature","properties":{"territory_id":"mg-3121605-consolacao","name":"Consolação","municipality_id":"mg-3121605","polling_places":1,"approx":true,"official":false,"method":"voronoi-polling-places","whole_municipality":false,"approx_coords_only":false},"geometry":{"type":"MultiPolygon","coordinates":[[[[-43.63233,-18.30637],[-43.6256,-18.3072],[-43.60742,-18.32781],[-43.58703,-18.24883],[-43.59149,-18.249],[-43.59273,-18.24966],[-43.62862,-18.30048],[-43.63233,-18.30637]]],[[[-43.6165,-18.35815],[-43.61512,-18.35762],[-43.61028,-18.33888],[-43.6165,-18.35815]]]]}},{"type":"Feature","properties":{"territory_id":"mg-3121605-desembargador-otoni","name":"Desembargador Otoni","municipality_id":"mg-3121605","polling_places":1,"approx":true,"official":false,"method":"voronoi-polling-places","whole_municipality":false,"approx_coords_only":false},"geometry":{"type":"MultiPolygon","coordinates":[[[[-43.395,-17.73619],[-43.34423,-17.77554],[-43.3266,-17.765],[-43.3349,-17.7341],[-43.291,-17.7127],[-43.29744,-17.68042],[-43.36137,-17.66428],[-43.395,-17.73619]]]]}},{"type":"Feature","properties":{"territory_id":"mg-3121605-dom-joao","name":"Dom João","municipality_id":"mg-3121605","polling_places":2,"approx":true,"official":false,"method":"voronoi-polling-places","whole_municipality":false,"approx_coords_only":false},"geometry":{"type":"MultiPolygon","coordinates":[[[[-43.63505,-18.30545],[-43.63497,-18.30604],[-43.63233,-18.30637],[-43.62862,-18.30048],[-43.60867,-18.263],[-43.59738,-18.24562],[-43.59759,-18.24485],[-43.59784,-18.24476],[-43.6006,-18.24408],[-43.60137,-18.24317],[-43.60715,-18.24332],[-43.6111,-18.2466],[-43.62441,-18.26723],[-43.63505,-18.30545]]]]}},{"type":"Feature","properties":{"territory_id":"mg-3121605-extracao","name":"Extração","municipality_id":"mg-3121605","polling_places":1,"approx":true,"official":false,"method":"voronoi-polling-places","whole_municipality":false,"approx_coords_only":false},"geometry":{"type":"MultiPolygon","coordinates":[[[[-43.59012,-18.34837],[-43.47277,-18.35095],[-43.4555,-18.3261],[-43.4585,-18.3061],[-43.4022,-18.2935],[-43.3839,-18.2567],[-43.4009,-18.2313],[-43.4331,-18.2193],[-43.45289,-18.19559],[-43.51901,-18.1963],[-43.53882,-18.23129],[-43.59012,-18.34837]]]]}},{"type":"Feature","properties":{"territory_id":"mg-3121605-guinda","name":"Guinda","municipality_id":"mg-3121605","polling_places":1,"approx":true,"official":false,"method":"voronoi-polling-places","whole_municipality":false,"approx_coords_only":false},"geometry":{"type":"MultiPolygon","coordinates":[[[[-43.77142,-18.28245],[-43.76516,-18.33626],[-43.7642,-18.3363],[-43.6822,-18.3753],[-43.6837,-18.3],[-43.63497,-18.30604],[-43.63505,-18.30545],[-43.66321,-18.22662],[-43.77142,-18.28245]]]]}},{"type":"Feature","properties":{"territory_id":"mg-3121605-inhai","name":"Inhaí","municipality_id":"mg-3121605","polling_places":1,"approx":true,"official":false,"method":"voronoi-polling-places","whole_municipality":false,"approx_coords_only":false},"geometry":{"type":"MultiPolygon","coordinates":[[[[-43.77637,-17.93865],[-43.68268,-18.0143],[-43.62319,-18.01277],[-43.51113,-17.88964],[-43.52124,-17.87457],[-43.68077,-17.83979],[-43.6964,-17.8768],[-43.7506,-17.8901],[-43.7637,-17.9246],[-43.77637,-17.93865]]]]}},{"type":"Feature","properties":{"territory_id":"mg-3121605-jardim","name":"Jardim","municipality_id":"mg-3121605","polling_places":1,"approx":true,"official":false,"method":"voronoi-polling-places","whole_municipality":false,"approx_coords_only":false},"geometry":{"type":"MultiPolygon","coordinates":[[[[-43.59328,-18.24136],[-43.59149,-18.249],[-43.58703,-18.24883],[-43.53882,-18.23129],[-43.51901,-18.1963],[-43.51931,-18.19615],[-43.59328,-18.24136]]]]}},{"type":"Feature","properties":{"territory_id":"mg-3121605-mao-torta","name":"Mão Torta","municipality_id":"mg-3121605","polling_places":1,"approx":true,"official":false,"method":"voronoi-polling-places","whole_municipality":false,"approx_coords_only":false},"geometry":{"type":"MultiPolygon","coordinates":[[[[-43.45126,-17.53723],[-43.38914,-17.61559],[-43.36665,-17.62776],[-43.2594,-17.57519],[-43.34578,-17.49854],[-43.371,-17.5225],[-43.4364,-17.5307],[-43.45126,-17.53723]]]]}},{"type":"Feature","properties":{"territory_id":"mg-3121605-maria-nunes","name":"Maria Nunes","municipality_id":"mg-3121605","polling_places":1,"approx":true,"official":false,"method":"voronoi-polling-places","whole_municipality":false,"approx_coords_only":false},"geometry":{"type":"MultiPolygon","coordinates":[[[[-43.62319,-18.01277],[-43.56287,-18.06458],[-43.53748,-18.05773],[-43.5516,-18.0454],[-43.553,-17.9801],[-43.5245,-17.9708],[-43.5219,-17.9348],[-43.51029,-17.8902],[-43.51113,-17.88964],[-43.62319,-18.01277]]],[[[-43.45311,-17.92852],[-43.4526,-17.9336],[-43.43966,-17.93753],[-43.45311,-17.92852]]]]}},{"type":"Feature","properties":{"territory_id":"mg-3121605-mendanha","name":"Mendanha","municipality_id":"mg-3121605","polling_places":1,"approx":true,"official":false,"method":"voronoi-polling-places","whole_municipality":false,"approx_coords_only":false},"geometry":{"type":"MultiPolygon","coordinates":[[[[-43.58915,-18.15358],[-43.56508,-18.1709],[-43.54865,-18.18014],[-43.51931,-18.19615],[-43.51901,-18.1963],[-43.45289,-18.19559],[-43.4583,-18.1891],[-43.4587,-18.1468],[-43.4872,-18.1289],[-43.4965,-18.0935],[-43.53748,-18.05773],[-43.56287,-18.06458],[-43.58915,-18.15358]]]]}},{"type":"Feature","properties":{"territory_id":"mg-3121605-palha","name":"Palha","municipality_id":"mg-3121605","polling_places":1,"approx":true,"official":false,"method":"voronoi-polling-places","whole_municipality":false,"approx_coords_only":false},"geometry":{"type":"MultiPolygon","coordinates":[[[[-43.61512,-18.35762],[-43.59012,-18.34837],[-43.53882,-18.23129],[-43.58703,-18.24883],[-43.60742,-18.32781],[-43.6069,-18.3284],[-43.61028,-18.33888],[-43.61512,-18.35762]]]]}},{"type":"Feature","properties":{"territory_id":"mg-3121605-pedraria","name":"Pedraria","municipality_id":"mg-3121605","polling_places":1,"approx":true,"official":false,"method":"voronoi-polling-places","whole_municipality":false,"approx_coords_only":false},"geometry":{"type":"MultiPolygon","coordinates":[[[[-43.58371,-17.61764],[-43.48919,-17.7269],[-43.4804,-17.72623],[-43.38914,-17.61559],[-43.45126,-17.53723],[-43.5031,-17.56],[-43.5493,-17.5398],[-43.5807,-17.5829],[-43.5678,-17.6108],[-43.58371,-17.61764]]]]}},{"type":"Feature","properties":{"territory_id":"mg-3121605-pinheiro","name":"Pinheiro","municipality_id":"mg-3121605","polling_places":1,"approx":true,"official":false,"method":"voronoi-polling-places","whole_municipality":false,"approx_coords_only":false},"geometry":{"type":"MultiPolygon","coordinates":[[[[-43.68268,-18.0143],[-43.67732,-18.14303],[-43.65048,-18.15766],[-43.58915,-18.15358],[-43.56287,-18.06458],[-43.62319,-18.01277],[-43.68268,-18.0143]]]]}},{"type":"Feature","properties":{"territory_id":"mg-3121605-planalto-de-minas","name":"Planalto de Minas","municipality_id":"mg-3121605","polling_places":1,"approx":true,"official":false,"method":"voronoi-polling-places","whole_municipality":false,"approx_coords_only":false},"geometry":{"type":"MultiPolygon","coordinates":[[[[-43.36665,-17.62776],[-43.36137,-17.66428],[-43.29744,-17.68042],[-43.3014,-17.6606],[-43.2479,-17.6425],[-43.24726,-17.579],[-43.2594,-17.57519],[-43.36665,-17.62776]]]]}},{"type":"Feature","properties":{"territory_id":"mg-3121605-polivalente","name":"Polivalente","municipality_id":"mg-3121605","polling_places":1,"approx":true,"official":false,"method":"voronoi-polling-places","whole_municipality":false,"approx_coords_only":false},"geometry":{"type":"MultiPolygon","coordinates":[[[[-43.60529,-18.23861],[-43.60082,-18.24097],[-43.59932,-18.23926],[-43.59872,-18.23844],[-43.60218,-18.23097],[-43.60499,-18.23286],[-43.60529,-18.23861]]]]}},{"type":"Feature","properties":{"territory_id":"mg-3121605-rio-grande","name":"Rio Grande","municipality_id":"mg-3121605","polling_places":2,"approx":true,"official":false,"method":"voronoi-polling-places","whole_municipality":false,"approx_coords_only":false},"geometry":{"type":"MultiPolygon","coordinates":[[[[-43.60218,-18.23097],[-43.59872,-18.23844],[-43.59712,-18.23912],[-43.59452,-18.24136],[-43.59328,-18.24136],[-43.51931,-18.19615],[-43.54865,-18.18014],[-43.56508,-18.1709],[-43.60218,-18.23097]]]]}},{"type":"Feature","properties":{"territory_id":"mg-3121605-sao-joao-da-chapada","name":"São João da Chapada","municipality_id":"mg-3121605","polling_places":1,"approx":true,"official":false,"method":"voronoi-polling-places","whole_municipality":false,"approx_coords_only":false},"geometry":{"type":"MultiPolygon","coordinates":[[[[-43.9369,-18.0597],[-43.92312,-18.10219],[-43.80218,-18.18275],[-43.67732,-18.14303],[-43.68268,-18.0143],[-43.77637,-17.93865],[-43.7911,-17.955],[-43.8199,-18.0259],[-43.9369,-18.0597]]]]}},{"type":"Feature","properties":{"territory_id":"mg-3121605-senador-mourao","name":"Senador Mourão","municipality_id":"mg-3121605","polling_places":1,"approx":true,"official":false,"method":"voronoi-polling-places","whole_municipality":false,"approx_coords_only":false},"geometry":{"type":"MultiPolygon","coordinates":[[[[-43.52124,-17.87457],[-43.51113,-17.88964],[-43.51029,-17.8902],[-43.4996,-17.8491],[-43.4726,-17.8348],[-43.4596,-17.8645],[-43.45311,-17.92852],[-43.43966,-17.93753],[-43.4082,-17.9471],[-43.3761,-17.8734],[-43.3813,-17.7977],[-43.34423,-17.77554],[-43.395,-17.73619],[-43.4804,-17.72623],[-43.48919,-17.7269],[-43.52124,-17.87457]]]]}},{"type":"Feature","properties":{"territory_id":"mg-3121605-sopa","name":"Sopa","municipality_id":"mg-3121605","polling_places":1,"approx":true,"official":false,"method":"voronoi-polling-places","whole_municipality":false,"approx_coords_only":false},"geometry":{"type":"MultiPolygon","coordinates":[[[[-43.80218,-18.18275],[-43.77142,-18.28245],[-43.66321,-18.22662],[-43.65075,-18.16479],[-43.65048,-18.15766],[-43.67732,-18.14303],[-43.80218,-18.18275]]]]}},{"type":"Feature","properties":{"territory_id":"mg-3121605-vau","name":"Vau","municipality_id":"mg-3121605","polling_places":1,"approx":true,"official":false,"method":"voronoi-polling-places","whole_municipality":false,"approx_coords_only":false},"geometry":{"type":"MultiPolygon","coordinates":[[[[-43.6281,-18.3941],[-43.5939,-18.4029],[-43.5704,-18.4393],[-43.5304,-18.4339],[-43.47277,-18.35095],[-43.59012,-18.34837],[-43.61512,-18.35762],[-43.6165,-18.35815],[-43.6281,-18.3941]]]]}}]}