{"type":"FeatureCollection","features":[{"type":"Feature","properties":{"territory_id":"mg-3121803-centro","name":"Centro","municipality_id":"mg-3121803","polling_places":3,"approx":true,"official":false,"method":"voronoi-polling-places","whole_municipality":false,"approx_coords_only":false},"geometry":{"type":"MultiPolygon","coordinates":[[[[-42.82558,-19.83306],[-42.78771,-19.8706],[-42.78429,-19.87405],[-42.7819,-19.872],[-42.69896,-19.8705],[-42.69987,-19.85797],[-42.74577,-19.79308],[-42.7774,-19.7948],[-42.82558,-19.83306]]]]}},{"type":"Feature","properties":{"territory_id":"mg-3121803-distrito-conceicao-de-minas","name":"Distrito Conceição de Minas","municipality_id":"mg-3121803","polling_places":1,"approx":true,"official":false,"method":"voronoi-polling-places","whole_municipality":false,"approx_coords_only":false},"geometry":{"type":"MultiPolygon","coordinates":[[[[-42.74577,-19.79308],[-42.69987,-19.85797],[-42.65336,-19.7903],[-42.6627,-19.7889],[-42.7214,-19.7583],[-42.7388,-19.7927],[-42.74577,-19.79308]]]]}},{"type":"Feature","properties":{"territory_id":"mg-3121803-zona-rural","name":"Zona Rural","municipality_id":"mg-3121803","polling_places":2,"approx":true,"official":false,"method":"voronoi-polling-places","whole_municipality":false,"approx_coords_only":false},"geometry":{"type":"MultiPolygon","coordinates":[[[[-42.8637,-19.8925],[-42.8268,-19.9105],[-42.78429,-19.87405],[-42.78771,-19.8706],[-42.82558,-19.83306],[-42.8609,-19.8611],[-42.8637,-19.8925]]],[[[-42.69987,-19.85797],[-42.69896,-19.8705],[-42.6823,-19.8702],[-42.6408,-19.9062],[-42.6118,-19.886],[-42.5515,-19.8859],[-42.5509,-19.8855],[-42.4979,-19.7949],[-42.4745,-19.7735],[-42.479,-19.7519],[-42.4881,-19.7828],[-42.5298,-19.8088],[-42.65336,-19.7903],[-42.69987,-19.85797]]]]}}]}