{"type":"FeatureCollection","features":[{"type":"Feature","properties":{"territory_id":"mg-3121902-centro","name":"Centro","municipality_id":"mg-3121902","polling_places":3,"approx":true,"official":false,"method":"voronoi-polling-places","whole_municipality":false,"approx_coords_only":false},"geometry":{"type":"MultiPolygon","coordinates":[[[[-43.04413,-21.00249],[-43.0075,-21.0359],[-42.99587,-21.03867],[-42.98372,-21.01934],[-43.00056,-20.98259],[-43.00167,-20.97919],[-43.00906,-20.937],[-43.04413,-21.00249]]]]}},{"type":"Feature","properties":{"territory_id":"mg-3121902-santa-filomena","name":"Santa Filomena","municipality_id":"mg-3121902","polling_places":1,"approx":true,"official":false,"method":"voronoi-polling-places","whole_municipality":false,"approx_coords_only":false},"geometry":{"type":"MultiPolygon","coordinates":[[[[-43.00906,-20.937],[-43.00167,-20.97919],[-43.00056,-20.98259],[-42.98372,-21.01934],[-42.94789,-20.981],[-42.9758,-20.9625],[-42.9923,-20.9274],[-43.00601,-20.92801],[-43.00906,-20.937]]]]}},{"type":"Feature","properties":{"territory_id":"mg-3121902-zona-rural","name":"Zona Rural","municipality_id":"mg-3121902","polling_places":2,"approx":true,"official":false,"method":"voronoi-polling-places","whole_municipality":false,"approx_coords_only":false},"geometry":{"type":"MultiPolygon","coordinates":[[[[-43.0688,-20.98],[-43.04413,-21.00249],[-43.00906,-20.937],[-43.00601,-20.92801],[-43.0369,-20.9294],[-43.0688,-20.9647],[-43.0688,-20.98]]],[[[-42.99587,-21.03867],[-42.9667,-21.0456],[-42.9226,-21.0142],[-42.9426,-20.9845],[-42.94789,-20.981],[-42.98372,-21.01934],[-42.99587,-21.03867]]]]}}]}