{"type":"FeatureCollection","features":[{"type":"Feature","properties":{"territory_id":"mg-3121001-centro","name":"Centro","municipality_id":"mg-3121001","polling_places":2,"approx":true,"official":false,"method":"voronoi-polling-places","whole_municipality":false,"approx_coords_only":false},"geometry":{"type":"MultiPolygon","coordinates":[[[[-43.6908,-18.3911],[-43.6838,-18.4703],[-43.68367,-18.49136],[-43.66383,-18.4738],[-43.58684,-18.41384],[-43.5939,-18.4029],[-43.6281,-18.3941],[-43.6069,-18.3284],[-43.6256,-18.3072],[-43.6837,-18.3],[-43.6822,-18.3753],[-43.6908,-18.3911]]]]}},{"type":"Feature","properties":{"territory_id":"mg-3121001-palmital","name":"Palmital","municipality_id":"mg-3121001","polling_places":1,"approx":true,"official":false,"method":"voronoi-polling-places","whole_municipality":false,"approx_coords_only":false},"geometry":{"type":"MultiPolygon","coordinates":[[[[-43.68367,-18.49231],[-43.6833,-18.5539],[-43.6716,-18.58],[-43.67262,-18.58141],[-43.62922,-18.59592],[-43.6011,-18.5531],[-43.5987,-18.533],[-43.6086,-18.519],[-43.60332,-18.50798],[-43.68367,-18.49231]]]]}},{"type":"Feature","properties":{"territory_id":"mg-3121001-santa-cruz","name":"Santa Cruz","municipality_id":"mg-3121001","polling_places":1,"approx":true,"official":false,"method":"voronoi-polling-places","whole_municipality":false,"approx_coords_only":true},"geometry":{"type":"MultiPolygon","coordinates":[[[[-43.68367,-18.49136],[-43.68367,-18.49231],[-43.60332,-18.50798],[-43.5704,-18.4393],[-43.58684,-18.41384],[-43.66383,-18.4738],[-43.68367,-18.49136]]]]}},{"type":"Feature","properties":{"territory_id":"mg-3121001-tombadouro","name":"Tombadouro","municipality_id":"mg-3121001","polling_places":1,"approx":true,"official":false,"method":"voronoi-polling-places","whole_municipality":false,"approx_coords_only":false},"geometry":{"type":"MultiPolygon","coordinates":[[[[-43.736,-18.6242],[-43.7287,-18.6477],[-43.70471,-18.64661],[-43.70247,-18.61111],[-43.736,-18.6242]]]]}},{"type":"Feature","properties":{"territory_id":"mg-3121001-vargem-do-basto","name":"Vargem do Basto","municipality_id":"mg-3121001","polling_places":1,"approx":true,"official":false,"method":"voronoi-polling-places","whole_municipality":false,"approx_coords_only":false},"geometry":{"type":"MultiPolygon","coordinates":[[[[-43.70471,-18.64661],[-43.6783,-18.6454],[-43.6524,-18.6312],[-43.62922,-18.59592],[-43.67262,-18.58141],[-43.6909,-18.6066],[-43.70247,-18.61111],[-43.70471,-18.64661]]]]}}]}