{"type":"FeatureCollection","features":[{"type":"Feature","properties":{"territory_id":"mg-3121704-bela-vista","name":"Bela Vista","municipality_id":"mg-3121704","polling_places":1,"approx":true,"official":false,"method":"voronoi-polling-places","whole_municipality":false,"approx_coords_only":false},"geometry":{"type":"MultiPolygon","coordinates":[[[[-43.14082,-20.45464],[-43.11505,-20.49956],[-43.0525,-20.4558],[-43.0769,-20.432],[-43.1248,-20.4487],[-43.14082,-20.45464]]]]}},{"type":"Feature","properties":{"territory_id":"mg-3121704-centro","name":"Centro","municipality_id":"mg-3121704","polling_places":1,"approx":true,"official":false,"method":"voronoi-polling-places","whole_municipality":false,"approx_coords_only":false},"geometry":{"type":"MultiPolygon","coordinates":[[[[-43.23066,-20.48168],[-43.22576,-20.53807],[-43.17342,-20.51783],[-43.17928,-20.49797],[-43.20493,-20.48441],[-43.23066,-20.48168]]]]}},{"type":"Feature","properties":{"territory_id":"mg-3121704-miguel-rodrigues","name":"Miguel Rodrigues","municipality_id":"mg-3121704","polling_places":1,"approx":true,"official":false,"method":"voronoi-polling-places","whole_municipality":false,"approx_coords_only":false},"geometry":{"type":"MultiPolygon","coordinates":[[[[-43.20493,-20.48441],[-43.17928,-20.49797],[-43.18255,-20.4772],[-43.20493,-20.48441]]]]}},{"type":"Feature","properties":{"territory_id":"mg-3121704-nova-diogo","name":"Nova Diogo","municipality_id":"mg-3121704","polling_places":1,"approx":true,"official":false,"method":"voronoi-polling-places","whole_municipality":false,"approx_coords_only":false},"geometry":{"type":"MultiPolygon","coordinates":[[[[-43.23805,-20.45308],[-43.23066,-20.48168],[-43.20493,-20.48441],[-43.18255,-20.4772],[-43.18243,-20.43676],[-43.1936,-20.4272],[-43.2193,-20.4543],[-43.23805,-20.45308]]]]}},{"type":"Feature","properties":{"territory_id":"mg-3121704-zona-rural","name":"Zona Rural","municipality_id":"mg-3121704","polling_places":2,"approx":true,"official":false,"method":"voronoi-polling-places","whole_municipality":false,"approx_coords_only":false},"geometry":{"type":"MultiPolygon","coordinates":[[[[-43.291,-20.4966],[-43.2609,-20.5179],[-43.2504,-20.5476],[-43.22576,-20.53807],[-43.23066,-20.48168],[-43.23805,-20.45308],[-43.2686,-20.4511],[-43.291,-20.4966]]],[[[-43.18255,-20.4772],[-43.17928,-20.49797],[-43.17342,-20.51783],[-43.1573,-20.5116],[-43.1234,-20.5054],[-43.11505,-20.49956],[-43.14082,-20.45464],[-43.1553,-20.46],[-43.18243,-20.43676],[-43.18255,-20.4772]]]]}}]}