{"type":"FeatureCollection","features":[{"type":"Feature","properties":{"territory_id":"mg-3121308-centro","name":"Centro","municipality_id":"mg-3121308","polling_places":2,"approx":true,"official":false,"method":"voronoi-polling-places","whole_municipality":false,"approx_coords_only":false},"geometry":{"type":"MultiPolygon","coordinates":[[[[-43.0603,-21.4304],[-43.0523,-21.4809],[-43.0278,-21.504],[-42.9848,-21.4896],[-42.9424,-21.5191],[-42.9097,-21.5159],[-42.8856,-21.4835],[-42.89316,-21.44724],[-42.96701,-21.45841],[-43.05714,-21.42384],[-43.0603,-21.4304]]]]}},{"type":"Feature","properties":{"territory_id":"mg-3121308-industrial","name":"Industrial","municipality_id":"mg-3121308","polling_places":1,"approx":true,"official":false,"method":"voronoi-polling-places","whole_municipality":false,"approx_coords_only":false},"geometry":{"type":"MultiPolygon","coordinates":[[[[-43.05714,-21.42384],[-42.96701,-21.45841],[-42.89316,-21.44724],[-42.8944,-21.4413],[-42.8943,-21.3725],[-42.938,-21.3679],[-42.979,-21.39],[-43.0459,-21.4005],[-43.05714,-21.42384]]]]}}]}