{"type":"FeatureCollection","features":[{"type":"Feature","properties":{"territory_id":"mg-3121209-centro","name":"Centro","municipality_id":"mg-3121209","polling_places":2,"approx":true,"official":false,"method":"voronoi-polling-places","whole_municipality":false,"approx_coords_only":false},"geometry":{"type":"MultiPolygon","coordinates":[[[[-47.111,-20.2624],[-47.0771,-20.2765],[-47.0512,-20.3078],[-47.001,-20.315],[-46.9788,-20.3731],[-46.9239,-20.3607],[-46.9006,-20.4134],[-46.8236,-20.4179],[-46.8222,-20.43368],[-46.70167,-20.27598],[-46.7428,-20.2677],[-46.7763,-20.2747],[-46.784,-20.2257],[-46.8214,-20.1952],[-46.8727,-20.1766],[-46.9069,-20.1815],[-46.9338,-20.1704],[-46.9845,-20.1958],[-47.0468,-20.188],[-47.1092,-20.2038],[-47.111,-20.2624]]]]}},{"type":"Feature","properties":{"territory_id":"mg-3121209-distrito-babilonia","name":"Distrito Babilônia","municipality_id":"mg-3121209","polling_places":1,"approx":true,"official":false,"method":"voronoi-polling-places","whole_municipality":false,"approx_coords_only":false},"geometry":{"type":"MultiPolygon","coordinates":[[[[-46.70357,-20.49677],[-46.6945,-20.4982],[-46.6575,-20.5336],[-46.5945,-20.567],[-46.5353,-20.5511],[-46.5104,-20.5203],[-46.519,-20.4948],[-46.4642,-20.4431],[-46.4998,-20.3778],[-46.5197,-20.3582],[-46.5653,-20.3661],[-46.5718,-20.3423],[-46.59213,-20.33815],[-46.65764,-20.43101],[-46.70357,-20.49677]]]]}},{"type":"Feature","properties":{"territory_id":"mg-3121209-distrito-de-indaia-olhos-d-agua","name":"Distrito de Indaiá - Olhos D'água","municipality_id":"mg-3121209","polling_places":2,"approx":true,"official":false,"method":"voronoi-polling-places","whole_municipality":false,"approx_coords_only":false},"geometry":{"type":"MultiPolygon","coordinates":[[[[-46.8222,-20.43368],[-46.8197,-20.4619],[-46.778,-20.485],[-46.70357,-20.49677],[-46.65764,-20.43101],[-46.59213,-20.33815],[-46.611,-20.3343],[-46.6755,-20.3022],[-46.6956,-20.2772],[-46.70167,-20.27598],[-46.8222,-20.43368]]]]}}]}