{"type":"FeatureCollection","features":[{"type":"Feature","properties":{"territory_id":"mg-3121506-centro","name":"Centro","municipality_id":"mg-3121506","polling_places":2,"approx":true,"official":false,"method":"voronoi-polling-places","whole_municipality":true,"approx_coords_only":false},"geometry":{"type":"MultiPolygon","coordinates":[[[[-43.4172,-21.1581],[-43.498,-21.115],[-43.5124,-21.0646],[-43.5619,-21.1319],[-43.6008,-21.1119],[-43.6068,-21.1295],[-43.5988,-21.1666],[-43.5154,-21.2033],[-43.4514,-21.1939],[-43.4172,-21.1581]]]]}}]}