{"type":"FeatureCollection","features":[{"type":"Feature","properties":{"territory_id":"mg-3122603-centro","name":"Centro","municipality_id":"mg-3122603","polling_places":4,"approx":true,"official":false,"method":"voronoi-polling-places","whole_municipality":false,"approx_coords_only":false},"geometry":{"type":"MultiPolygon","coordinates":[[[[-43.3215,-19.0673],[-43.295,-19.0977],[-43.2606,-19.0959],[-43.23706,-19.0423],[-43.23758,-18.97606],[-43.23762,-18.92006],[-43.26303,-18.91646],[-43.28567,-18.91218],[-43.31166,-19.01253],[-43.2925,-19.0433],[-43.3215,-19.0673]]]]}},{"type":"Feature","properties":{"territory_id":"mg-3122603-distrito-de-gororos","name":"Distrito de Gororós","municipality_id":"mg-3122603","polling_places":1,"approx":true,"official":false,"method":"voronoi-polling-places","whole_municipality":false,"approx_coords_only":false},"geometry":{"type":"MultiPolygon","coordinates":[[[[-43.28321,-18.80214],[-43.259,-18.8368],[-43.20223,-18.84287],[-43.2127,-18.7727],[-43.2466,-18.7722],[-43.2655,-18.7972],[-43.28321,-18.80214]]]]}},{"type":"Feature","properties":{"territory_id":"mg-3122603-povoado-corrego-de-sao-joao","name":"Povoado Córrego de São João","municipality_id":"mg-3122603","polling_places":1,"approx":true,"official":false,"method":"voronoi-polling-places","whole_municipality":false,"approx_coords_only":false},"geometry":{"type":"MultiPolygon","coordinates":[[[[-43.33678,-18.88984],[-43.28683,-18.91076],[-43.259,-18.8368],[-43.28321,-18.80214],[-43.3257,-18.814],[-43.3078,-18.8678],[-43.33678,-18.88984]]]]}},{"type":"Feature","properties":{"territory_id":"mg-3122603-povoado-corrego-do-machado","name":"Povoado Córrego do Machado","municipality_id":"mg-3122603","polling_places":1,"approx":true,"official":false,"method":"voronoi-polling-places","whole_municipality":false,"approx_coords_only":false},"geometry":{"type":"MultiPolygon","coordinates":[[[[-43.28683,-18.91076],[-43.28567,-18.91218],[-43.26303,-18.91646],[-43.23762,-18.92006],[-43.17691,-18.90725],[-43.1996,-18.8605],[-43.20223,-18.84287],[-43.259,-18.8368],[-43.28683,-18.91076]]]]}},{"type":"Feature","properties":{"territory_id":"mg-3122603-povoado-de-corrego-da-serra","name":"Povoado de Córrego da Serra","municipality_id":"mg-3122603","polling_places":1,"approx":true,"official":false,"method":"voronoi-polling-places","whole_municipality":false,"approx_coords_only":false},"geometry":{"type":"MultiPolygon","coordinates":[[[[-43.23762,-18.92006],[-43.23758,-18.97606],[-43.23706,-19.0423],[-43.2205,-19.0046],[-43.156,-18.9709],[-43.1681,-18.9254],[-43.17691,-18.90725],[-43.23762,-18.92006]]]]}},{"type":"Feature","properties":{"territory_id":"mg-3122603-povoado-de-sao-jose-da-ilha","name":"Povoado de São José da Ilha","municipality_id":"mg-3122603","polling_places":1,"approx":true,"official":false,"method":"voronoi-polling-places","whole_municipality":false,"approx_coords_only":false},"geometry":{"type":"MultiPolygon","coordinates":[[[[-43.3579,-18.9059],[-43.3516,-18.9309],[-43.3217,-18.9503],[-43.3118,-19.0123],[-43.31166,-19.01253],[-43.28567,-18.91218],[-43.28683,-18.91076],[-43.33678,-18.88984],[-43.3579,-18.9059]]]]}}]}