{"type":"FeatureCollection","features":[{"type":"Feature","properties":{"territory_id":"mg-3122702-campestre","name":"Campestre","municipality_id":"mg-3122702","polling_places":1,"approx":true,"official":false,"method":"voronoi-polling-places","whole_municipality":false,"approx_coords_only":false},"geometry":{"type":"MultiPolygon","coordinates":[[[[-43.0597,-20.1893],[-42.9572,-20.2041],[-42.92879,-20.19518],[-43.00428,-20.14069],[-43.00653,-20.13909],[-43.0269,-20.1634],[-43.0597,-20.1893]]]]}},{"type":"Feature","properties":{"territory_id":"mg-3122702-centro","name":"Centro","municipality_id":"mg-3122702","polling_places":1,"approx":true,"official":false,"method":"voronoi-polling-places","whole_municipality":false,"approx_coords_only":false},"geometry":{"type":"MultiPolygon","coordinates":[[[[-43.00428,-20.14069],[-42.92879,-20.19518],[-42.92215,-20.1931],[-43.00428,-20.14069]]]]}},{"type":"Feature","properties":{"territory_id":"mg-3122702-prefeitura","name":"Prefeitura","municipality_id":"mg-3122702","polling_places":1,"approx":true,"official":false,"method":"voronoi-polling-places","whole_municipality":false,"approx_coords_only":false},"geometry":{"type":"MultiPolygon","coordinates":[[[[-43.00653,-20.13909],[-43.00428,-20.14069],[-42.92215,-20.1931],[-42.8801,-20.1799],[-42.8697,-20.1447],[-42.88628,-20.12819],[-42.97834,-20.10543],[-43.00653,-20.13909]]]]}},{"type":"Feature","properties":{"territory_id":"mg-3122702-zona-rural","name":"Zona Rural","municipality_id":"mg-3122702","polling_places":1,"approx":true,"official":false,"method":"voronoi-polling-places","whole_municipality":false,"approx_coords_only":false},"geometry":{"type":"MultiPolygon","coordinates":[[[[-42.97834,-20.10543],[-42.88628,-20.12819],[-42.8957,-20.1188],[-42.8941,-20.0569],[-42.8737,-20.0366],[-42.9275,-20.0349],[-42.9603,-20.0555],[-42.9588,-20.0821],[-42.97834,-20.10543]]]]}}]}