{"type":"FeatureCollection","features":[{"type":"Feature","properties":{"territory_id":"mg-3122108-centro","name":"Centro","municipality_id":"mg-3122108","polling_places":4,"approx":true,"official":false,"method":"voronoi-polling-places","whole_municipality":false,"approx_coords_only":false},"geometry":{"type":"MultiPolygon","coordinates":[[[[-41.5422,-18.8173],[-41.5046,-18.7965],[-41.4356,-18.786],[-41.42622,-18.78193],[-41.48352,-18.77577],[-41.48498,-18.77518],[-41.49785,-18.7569],[-41.52412,-18.75844],[-41.5422,-18.8173]]]]}},{"type":"Feature","properties":{"territory_id":"mg-3122108-distrito-de-central-de-santa-helena","name":"Distrito de Central de Santa Helena","municipality_id":"mg-3122108","polling_places":1,"approx":true,"official":false,"method":"voronoi-polling-places","whole_municipality":false,"approx_coords_only":false},"geometry":{"type":"MultiPolygon","coordinates":[[[[-41.5932,-18.7482],[-41.571,-18.8055],[-41.544,-18.8183],[-41.5422,-18.8173],[-41.52412,-18.75844],[-41.5735,-18.5984],[-41.5817,-18.6165],[-41.5812,-18.6723],[-41.5932,-18.7482]]]]}},{"type":"Feature","properties":{"territory_id":"mg-3122108-povoado-de-linopolis","name":"Povoado de Linopolis","municipality_id":"mg-3122108","polling_places":1,"approx":true,"official":false,"method":"voronoi-polling-places","whole_municipality":false,"approx_coords_only":false},"geometry":{"type":"MultiPolygon","coordinates":[[[[-41.5735,-18.5984],[-41.52412,-18.75844],[-41.49785,-18.7569],[-41.39018,-18.73151],[-41.3917,-18.7279],[-41.3778,-18.7012],[-41.4424,-18.6985],[-41.4904,-18.6372],[-41.5135,-18.5909],[-41.5397,-18.5815],[-41.5672,-18.5845],[-41.5735,-18.5984]]]]}},{"type":"Feature","properties":{"territory_id":"mg-3122108-povoado-de-macedonia","name":"Povoado de Macedonia","municipality_id":"mg-3122108","polling_places":1,"approx":true,"official":false,"method":"voronoi-polling-places","whole_municipality":false,"approx_coords_only":false},"geometry":{"type":"MultiPolygon","coordinates":[[[[-41.49785,-18.7569],[-41.48498,-18.77518],[-41.48352,-18.77577],[-41.42622,-18.78193],[-41.3778,-18.7609],[-41.39018,-18.73151],[-41.49785,-18.7569]]]]}}]}