{"type":"FeatureCollection","features":[{"type":"Feature","properties":{"territory_id":"mg-3122454-alvorada","name":"Alvorada","municipality_id":"mg-3122454","polling_places":1,"approx":true,"official":false,"method":"voronoi-polling-places","whole_municipality":false,"approx_coords_only":false},"geometry":{"type":"MultiPolygon","coordinates":[[[[-41.1481,-15.8006],[-41.0892,-15.7917],[-41.08001,-15.79292],[-40.93188,-15.65646],[-40.9631,-15.6484],[-40.9781,-15.6881],[-41.0061,-15.7138],[-41.0787,-15.7199],[-41.1216,-15.743],[-41.1425,-15.772],[-41.1481,-15.8006]]]]}},{"type":"Feature","properties":{"territory_id":"mg-3122454-centro","name":"Centro","municipality_id":"mg-3122454","polling_places":1,"approx":true,"official":false,"method":"voronoi-polling-places","whole_municipality":false,"approx_coords_only":false},"geometry":{"type":"MultiPolygon","coordinates":[[[[-41.08001,-15.79292],[-41.0311,-15.7994],[-41.0096,-15.8283],[-40.9925,-15.8382],[-40.9632,-15.8066],[-40.9018,-15.8332],[-40.8409,-15.817],[-40.7949,-15.8388],[-40.7278,-15.8952],[-40.7182,-15.8609],[-40.7327,-15.8287],[-40.7239,-15.8058],[-40.7626,-15.7423],[-40.8044,-15.713],[-40.8168,-15.6476],[-40.8414,-15.6825],[-40.9026,-15.6918],[-40.9143,-15.661],[-40.93188,-15.65646],[-41.08001,-15.79292]]]]}}]}