{"type":"FeatureCollection","features":[{"type":"Feature","properties":{"territory_id":"mg-3122355-centro","name":"Centro","municipality_id":"mg-3122355","polling_places":3,"approx":true,"official":false,"method":"voronoi-polling-places","whole_municipality":true,"approx_coords_only":false},"geometry":{"type":"MultiPolygon","coordinates":[[[[-41.3302,-15.7433],[-41.3422,-15.6386],[-41.4171,-15.6357],[-41.413,-15.6579],[-41.428,-15.712],[-41.3809,-15.7363],[-41.3426,-15.8012],[-41.3302,-15.7433]]]]}}]}