{"type":"FeatureCollection","features":[{"type":"Feature","properties":{"territory_id":"mg-3122504-centro","name":"Centro","municipality_id":"mg-3122504","polling_places":2,"approx":true,"official":false,"method":"voronoi-polling-places","whole_municipality":false,"approx_coords_only":false},"geometry":{"type":"MultiPolygon","coordinates":[[[[-42.1273,-19.36302],[-42.10978,-19.38237],[-42.10755,-19.37585],[-42.08932,-19.36227],[-42.0977,-19.3632],[-42.1168,-19.3452],[-42.1273,-19.36302]]]]}},{"type":"Feature","properties":{"territory_id":"mg-3122504-sao-paulo","name":"Sao Paulo","municipality_id":"mg-3122504","polling_places":1,"approx":true,"official":false,"method":"voronoi-polling-places","whole_municipality":false,"approx_coords_only":true},"geometry":{"type":"MultiPolygon","coordinates":[[[[-42.10709,-19.42783],[-42.104,-19.4292],[-42.0284,-19.3767],[-42.042,-19.357],[-42.08702,-19.36201],[-42.10294,-19.39265],[-42.10709,-19.42783]]]]}},{"type":"Feature","properties":{"territory_id":"mg-3122504-serapiao","name":"Serapiao","municipality_id":"mg-3122504","polling_places":2,"approx":true,"official":false,"method":"voronoi-polling-places","whole_municipality":false,"approx_coords_only":false},"geometry":{"type":"MultiPolygon","coordinates":[[[[-42.1362,-19.4149],[-42.10709,-19.42783],[-42.10294,-19.39265],[-42.08702,-19.36201],[-42.08932,-19.36227],[-42.10755,-19.37585],[-42.10978,-19.38237],[-42.1273,-19.36302],[-42.1347,-19.3756],[-42.1362,-19.4149]]]]}}]}