{"type":"FeatureCollection","features":[{"type":"Feature","properties":{"territory_id":"mg-3122470-centro","name":"Centro","municipality_id":"mg-3122470","polling_places":1,"approx":true,"official":false,"method":"voronoi-polling-places","whole_municipality":false,"approx_coords_only":false},"geometry":{"type":"MultiPolygon","coordinates":[[[[-46.4674,-16.7013],[-46.4362,-16.7161],[-46.417,-16.7709],[-46.39747,-16.80589],[-46.16754,-16.76953],[-46.1564,-16.7013],[-46.1609,-16.6593],[-46.1951,-16.6522],[-46.2879,-16.579],[-46.3052,-16.5455],[-46.3736,-16.6047],[-46.4084,-16.6604],[-46.4674,-16.7013]]]]}},{"type":"Feature","properties":{"territory_id":"mg-3122470-vila","name":"Vila","municipality_id":"mg-3122470","polling_places":1,"approx":true,"official":false,"method":"voronoi-polling-places","whole_municipality":false,"approx_coords_only":false},"geometry":{"type":"MultiPolygon","coordinates":[[[[-46.39747,-16.80589],[-46.3902,-16.8189],[-46.3066,-16.8712],[-46.2596,-16.9246],[-46.205,-16.9394],[-46.1857,-16.9262],[-46.1875,-16.8791],[-46.2057,-16.8553],[-46.1947,-16.8023],[-46.169,-16.7785],[-46.16754,-16.76953],[-46.39747,-16.80589]]]]}}]}