{"type":"FeatureCollection","features":[{"type":"Feature","properties":{"territory_id":"mg-3122207-centro","name":"Centro","municipality_id":"mg-3122207","polling_places":3,"approx":true,"official":false,"method":"voronoi-polling-places","whole_municipality":true,"approx_coords_only":false},"geometry":{"type":"MultiPolygon","coordinates":[[[[-42.5349,-18.7247],[-42.5569,-18.7262],[-42.6396,-18.7711],[-42.6231,-18.8711],[-42.6065,-18.8764],[-42.5754,-18.8365],[-42.5791,-18.7988],[-42.5231,-18.78],[-42.5045,-18.7873],[-42.4745,-18.7363],[-42.5349,-18.7247]]]]}}]}