{"type":"FeatureCollection","features":[{"type":"Feature","properties":{"territory_id":"mg-3122009-bom-jesus","name":"Bom Jesus","municipality_id":"mg-3122009","polling_places":1,"approx":true,"official":false,"method":"voronoi-polling-places","whole_municipality":false,"approx_coords_only":false},"geometry":{"type":"MultiPolygon","coordinates":[[[[-42.3582,-20.5789],[-42.2966,-20.5854],[-42.2634,-20.6151],[-42.2482,-20.6459],[-42.2161,-20.6662],[-42.21567,-20.6665],[-42.20229,-20.58286],[-42.20092,-20.56668],[-42.2108,-20.593],[-42.238,-20.5656],[-42.2769,-20.5479],[-42.3194,-20.547],[-42.3582,-20.5789]]]]}},{"type":"Feature","properties":{"territory_id":"mg-3122009-centro","name":"Centro","municipality_id":"mg-3122009","polling_places":2,"approx":true,"official":false,"method":"voronoi-polling-places","whole_municipality":false,"approx_coords_only":false},"geometry":{"type":"MultiPolygon","coordinates":[[[[-42.21567,-20.6665],[-42.1837,-20.6888],[-42.1343,-20.6904],[-42.11738,-20.67523],[-42.14663,-20.61268],[-42.14669,-20.60985],[-42.20229,-20.58286],[-42.21567,-20.6665]]]]}},{"type":"Feature","properties":{"territory_id":"mg-3122009-cidade-nova","name":"Cidade Nova","municipality_id":"mg-3122009","polling_places":1,"approx":true,"official":false,"method":"voronoi-polling-places","whole_municipality":false,"approx_coords_only":false},"geometry":{"type":"MultiPolygon","coordinates":[[[[-42.14669,-20.60985],[-42.14663,-20.61268],[-42.11738,-20.67523],[-42.0956,-20.6557],[-42.08923,-20.63621],[-42.13474,-20.61301],[-42.14535,-20.61011],[-42.14669,-20.60985]]]]}},{"type":"Feature","properties":{"territory_id":"mg-3122009-givisiez","name":"Givisiez","municipality_id":"mg-3122009","polling_places":4,"approx":true,"official":false,"method":"voronoi-polling-places","whole_municipality":false,"approx_coords_only":false},"geometry":{"type":"MultiPolygon","coordinates":[[[[-42.20229,-20.58286],[-42.14669,-20.60985],[-42.14535,-20.61011],[-42.13474,-20.61301],[-42.08923,-20.63621],[-42.0773,-20.5997],[-42.0867,-20.5416],[-42.0658,-20.5171],[-42.0688,-20.5095],[-42.0925,-20.4925],[-42.1345,-20.4936],[-42.1359,-20.4687],[-42.1563,-20.4677],[-42.167,-20.5265],[-42.1956,-20.5525],[-42.20092,-20.56668],[-42.20229,-20.58286]]]]}}]}