{"type":"FeatureCollection","features":[{"type":"Feature","properties":{"territory_id":"mg-3122405-centro","name":"Centro","municipality_id":"mg-3122405","polling_places":2,"approx":true,"official":false,"method":"voronoi-polling-places","whole_municipality":true,"approx_coords_only":false},"geometry":{"type":"MultiPolygon","coordinates":[[[[-46.2096,-21.4466],[-46.2991,-21.4707],[-46.321,-21.5052],[-46.3573,-21.5276],[-46.3225,-21.5732],[-46.2956,-21.5718],[-46.2527,-21.5542],[-46.2299,-21.5908],[-46.1743,-21.5817],[-46.181,-21.5192],[-46.1406,-21.5039],[-46.1455,-21.4811],[-46.1881,-21.4686],[-46.1851,-21.4409],[-46.2096,-21.4466]]]]}}]}