{"type":"FeatureCollection","features":[{"type":"Feature","properties":{"territory_id":"mg-3122900-centro","name":"Centro","municipality_id":"mg-3122900","polling_places":1,"approx":true,"official":false,"method":"voronoi-polling-places","whole_municipality":false,"approx_coords_only":false},"geometry":{"type":"MultiPolygon","coordinates":[[[[-42.82227,-21.33018],[-42.77474,-21.36647],[-42.766,-21.3426],[-42.7671,-21.2959],[-42.78505,-21.28014],[-42.81972,-21.32487],[-42.82227,-21.33018]]]]}},{"type":"Feature","properties":{"territory_id":"mg-3122900-sao-manoel-do-guaiacu","name":"São Manoel do Guaiaçu","municipality_id":"mg-3122900","polling_places":1,"approx":true,"official":false,"method":"voronoi-polling-places","whole_municipality":false,"approx_coords_only":false},"geometry":{"type":"MultiPolygon","coordinates":[[[[-42.8387,-21.3644],[-42.8303,-21.388],[-42.7813,-21.3844],[-42.77474,-21.36647],[-42.82227,-21.33018],[-42.8387,-21.3644]]]]}},{"type":"Feature","properties":{"territory_id":"mg-3122900-vila-sao-jose","name":"Vila São José","municipality_id":"mg-3122900","polling_places":1,"approx":true,"official":false,"method":"voronoi-polling-places","whole_municipality":false,"approx_coords_only":false},"geometry":{"type":"MultiPolygon","coordinates":[[[[-42.81972,-21.32487],[-42.78505,-21.28014],[-42.795,-21.2714],[-42.8138,-21.2607],[-42.8182,-21.3217],[-42.81972,-21.32487]]]]}}]}