{"type":"FeatureCollection","features":[{"type":"Feature","properties":{"territory_id":"mg-3122801-bocaina","name":"Bocaina","municipality_id":"mg-3122801","polling_places":1,"approx":true,"official":false,"method":"voronoi-polling-places","whole_municipality":false,"approx_coords_only":false},"geometry":{"type":"MultiPolygon","coordinates":[[[[-45.18175,-22.21618],[-45.13968,-22.23747],[-45.1266,-22.17987],[-45.1372,-22.1767],[-45.1644,-22.2006],[-45.18175,-22.21618]]]]}},{"type":"Feature","properties":{"territory_id":"mg-3122801-centro","name":"Centro","municipality_id":"mg-3122801","polling_places":1,"approx":true,"official":false,"method":"voronoi-polling-places","whole_municipality":false,"approx_coords_only":false},"geometry":{"type":"MultiPolygon","coordinates":[[[[-45.2435,-22.282],[-45.2194,-22.269],[-45.1741,-22.2882],[-45.1632,-22.2718],[-45.15342,-22.26692],[-45.18612,-22.2201],[-45.227,-22.2568],[-45.2435,-22.282]]]]}},{"type":"Feature","properties":{"territory_id":"mg-3122801-serrinha","name":"Serrinha","municipality_id":"mg-3122801","polling_places":1,"approx":true,"official":false,"method":"voronoi-polling-places","whole_municipality":false,"approx_coords_only":false},"geometry":{"type":"MultiPolygon","coordinates":[[[[-45.18612,-22.2201],[-45.15342,-22.26692],[-45.12292,-22.25168],[-45.13968,-22.23747],[-45.18175,-22.21618],[-45.18612,-22.2201]]]]}},{"type":"Feature","properties":{"territory_id":"mg-3122801-vicoso-velho","name":"Viçoso Velho","municipality_id":"mg-3122801","polling_places":1,"approx":true,"official":false,"method":"voronoi-polling-places","whole_municipality":false,"approx_coords_only":false},"geometry":{"type":"MultiPolygon","coordinates":[[[[-45.13968,-22.23747],[-45.12292,-22.25168],[-45.0825,-22.2315],[-45.0736,-22.2369],[-45.0649,-22.175],[-45.1121,-22.1842],[-45.1266,-22.17987],[-45.13968,-22.23747]]]]}}]}