{"type":"FeatureCollection","features":[{"type":"Feature","properties":{"territory_id":"mg-3122306-alvorada","name":"Alvorada","municipality_id":"mg-3122306","polling_places":1,"approx":true,"official":false,"method":"voronoi-polling-places","whole_municipality":false,"approx_coords_only":false},"geometry":{"type":"MultiPolygon","coordinates":[[[[-44.91426,-20.11982],[-44.90998,-20.12531],[-44.90731,-20.1264],[-44.8993,-20.12666],[-44.89371,-20.12284],[-44.89109,-20.10895],[-44.91426,-20.11982]]]]}},{"type":"Feature","properties":{"territory_id":"mg-3122306-bela-vista","name":"Bela Vista","municipality_id":"mg-3122306","polling_places":1,"approx":true,"official":false,"method":"voronoi-polling-places","whole_municipality":false,"approx_coords_only":false},"geometry":{"type":"MultiPolygon","coordinates":[[[[-44.91151,-20.17786],[-44.89413,-20.17939],[-44.89309,-20.17747],[-44.8939,-20.16822],[-44.90647,-20.16478],[-44.90854,-20.16624],[-44.91151,-20.17786]]]]}},{"type":"Feature","properties":{"territory_id":"mg-3122306-bom-pastor","name":"Bom Pastor","municipality_id":"mg-3122306","polling_places":1,"approx":true,"official":false,"method":"voronoi-polling-places","whole_municipality":false,"approx_coords_only":false},"geometry":{"type":"MultiPolygon","coordinates":[[[[-44.89371,-20.12284],[-44.88358,-20.1253],[-44.88137,-20.12513],[-44.88064,-20.11328],[-44.88965,-20.10656],[-44.89109,-20.10895],[-44.89371,-20.12284]]]]}},{"type":"Feature","properties":{"territory_id":"mg-3122306-buritis","name":"Buritis","municipality_id":"mg-3122306","polling_places":1,"approx":true,"official":false,"method":"voronoi-polling-places","whole_municipality":false,"approx_coords_only":false},"geometry":{"type":"MultiPolygon","coordinates":[[[[-44.92002,-20.23819],[-44.9044,-20.2591],[-44.8705,-20.3063],[-44.79317,-20.26084],[-44.83644,-20.215],[-44.84188,-20.21347],[-44.84253,-20.21343],[-44.89722,-20.22123],[-44.9124,-20.22925],[-44.92002,-20.23819]]]]}},{"type":"Feature","properties":{"territory_id":"mg-3122306-casa-nova","name":"Casa Nova","municipality_id":"mg-3122306","polling_places":1,"approx":true,"official":false,"method":"voronoi-polling-places","whole_municipality":false,"approx_coords_only":false},"geometry":{"type":"MultiPolygon","coordinates":[[[[-44.98296,-20.15895],[-44.93188,-20.17565],[-44.92378,-20.16704],[-44.91892,-20.15428],[-44.93125,-20.14356],[-44.95657,-20.13587],[-44.98296,-20.15895]]]]}},{"type":"Feature","properties":{"territory_id":"mg-3122306-catalao","name":"Catalão","municipality_id":"mg-3122306","polling_places":2,"approx":true,"official":false,"method":"voronoi-polling-places","whole_municipality":false,"approx_coords_only":false},"geometry":{"type":"MultiPolygon","coordinates":[[[[-44.91147,-20.15421],[-44.90917,-20.1575],[-44.89734,-20.15561],[-44.89734,-20.15555],[-44.89559,-20.15167],[-44.89745,-20.14687],[-44.8978,-20.14637],[-44.90389,-20.14842],[-44.90482,-20.15037],[-44.91147,-20.15421]]]]}},{"type":"Feature","properties":{"territory_id":"mg-3122306-centro","name":"Centro","municipality_id":"mg-3122306","polling_places":11,"approx":true,"official":false,"method":"voronoi-polling-places","whole_municipality":false,"approx_coords_only":false},"geometry":{"type":"MultiPolygon","coordinates":[[[[-44.8978,-20.14637],[-44.89745,-20.14687],[-44.89559,-20.15167],[-44.89277,-20.15101],[-44.89097,-20.1471],[-44.88945,-20.14667],[-44.8863,-20.15002],[-44.88394,-20.14721],[-44.88272,-20.14459],[-44.88208,-20.1438],[-44.88171,-20.14371],[-44.88048,-20.14193],[-44.8785,-20.13697],[-44.87924,-20.1344],[-44.87957,-20.13403],[-44.88236,-20.13489],[-44.88599,-20.13839],[-44.89252,-20.13501],[-44.89298,-20.13508],[-44.89305,-20.1354],[-44.89478,-20.13843],[-44.89499,-20.14219],[-44.89501,-20.1423],[-44.89764,-20.14529],[-44.8978,-20.14637]]]]}},{"type":"Feature","properties":{"territory_id":"mg-3122306-danilo-passos-i","name":"Danilo Passos I","municipality_id":"mg-3122306","polling_places":1,"approx":true,"official":false,"method":"voronoi-polling-places","whole_municipality":false,"approx_coords_only":false},"geometry":{"type":"MultiPolygon","coordinates":[[[[-44.88137,-20.12513],[-44.88108,-20.12537],[-44.87277,-20.12473],[-44.87453,-20.11231],[-44.88064,-20.11328],[-44.88137,-20.12513]]]]}},{"type":"Feature","properties":{"territory_id":"mg-3122306-danilo-passos-ii","name":"Danilo Passos Ii","municipality_id":"mg-3122306","polling_places":1,"approx":true,"official":false,"method":"voronoi-polling-places","whole_municipality":false,"approx_coords_only":false},"geometry":{"type":"MultiPolygon","coordinates":[[[[-44.87453,-20.11231],[-44.87277,-20.12473],[-44.86544,-20.12612],[-44.86319,-20.12389],[-44.8629,-20.12213],[-44.87404,-20.11211],[-44.87453,-20.11231]]]]}},{"type":"Feature","properties":{"territory_id":"mg-3122306-davanuze","name":"Davanuze","municipality_id":"mg-3122306","polling_places":1,"approx":true,"official":false,"method":"voronoi-polling-places","whole_municipality":false,"approx_coords_only":false},"geometry":{"type":"MultiPolygon","coordinates":[[[[-44.85597,-20.1744],[-44.84188,-20.21347],[-44.83644,-20.215],[-44.81775,-20.15501],[-44.84449,-20.14659],[-44.84623,-20.14713],[-44.84954,-20.15383],[-44.85597,-20.1744]]]]}},{"type":"Feature","properties":{"territory_id":"mg-3122306-dona-rosa","name":"Dona Rosa","municipality_id":"mg-3122306","polling_places":1,"approx":true,"official":false,"method":"voronoi-polling-places","whole_municipality":false,"approx_coords_only":false},"geometry":{"type":"MultiPolygon","coordinates":[[[[-44.86395,-20.16617],[-44.85597,-20.1744],[-44.84954,-20.15383],[-44.86395,-20.16617]]]]}},{"type":"Feature","properties":{"territory_id":"mg-3122306-espirito-santo","name":"Espírito Santo","municipality_id":"mg-3122306","polling_places":1,"approx":true,"official":false,"method":"voronoi-polling-places","whole_municipality":false,"approx_coords_only":false},"geometry":{"type":"MultiPolygon","coordinates":[[[[-44.87924,-20.1344],[-44.8785,-20.13697],[-44.87131,-20.14057],[-44.87003,-20.1408],[-44.86447,-20.14004],[-44.86629,-20.13139],[-44.87924,-20.1344]]]]}},{"type":"Feature","properties":{"territory_id":"mg-3122306-esplanada","name":"Esplanada","municipality_id":"mg-3122306","polling_places":2,"approx":true,"official":false,"method":"voronoi-polling-places","whole_municipality":false,"approx_coords_only":false},"geometry":{"type":"MultiPolygon","coordinates":[[[[-44.89734,-20.15555],[-44.89734,-20.15561],[-44.89319,-20.16695],[-44.88858,-20.1638],[-44.88485,-20.15733],[-44.88579,-20.15492],[-44.88661,-20.15313],[-44.8863,-20.15002],[-44.88945,-20.14667],[-44.89097,-20.1471],[-44.89277,-20.15101],[-44.89559,-20.15167],[-44.89734,-20.15555]]]]}},{"type":"Feature","properties":{"territory_id":"mg-3122306-ferrador","name":"Ferrador","municipality_id":"mg-3122306","polling_places":1,"approx":true,"official":false,"method":"voronoi-polling-places","whole_municipality":false,"approx_coords_only":false},"geometry":{"type":"MultiPolygon","coordinates":[[[[-44.83644,-20.215],[-44.79317,-20.26084],[-44.7737,-20.2494],[-44.758,-20.2534],[-44.7527,-20.2221],[-44.7934,-20.1822],[-44.80789,-20.14791],[-44.81775,-20.15501],[-44.83644,-20.215]]]]}},{"type":"Feature","properties":{"territory_id":"mg-3122306-icarai-ii","name":"Icaraí Ii","municipality_id":"mg-3122306","polling_places":1,"approx":true,"official":false,"method":"voronoi-polling-places","whole_municipality":false,"approx_coords_only":false},"geometry":{"type":"MultiPolygon","coordinates":[[[[-44.86319,-20.12389],[-44.84737,-20.13154],[-44.83775,-20.10727],[-44.861,-20.11914],[-44.8629,-20.12213],[-44.86319,-20.12389]]]]}},{"type":"Feature","properties":{"territory_id":"mg-3122306-interlagos","name":"Interlagos","municipality_id":"mg-3122306","polling_places":3,"approx":true,"official":false,"method":"voronoi-polling-places","whole_municipality":false,"approx_coords_only":false},"geometry":{"type":"MultiPolygon","coordinates":[[[[-44.88076,-20.15613],[-44.87626,-20.15999],[-44.87571,-20.1611],[-44.87434,-20.16723],[-44.8734,-20.16798],[-44.86623,-20.16479],[-44.86631,-20.15922],[-44.86821,-20.15703],[-44.86993,-20.15446],[-44.87068,-20.15266],[-44.8755,-20.15113],[-44.8765,-20.15188],[-44.88076,-20.15613]]]]}},{"type":"Feature","properties":{"territory_id":"mg-3122306-ipiranga","name":"Ipiranga","municipality_id":"mg-3122306","polling_places":1,"approx":true,"official":false,"method":"voronoi-polling-places","whole_municipality":false,"approx_coords_only":false},"geometry":{"type":"MultiPolygon","coordinates":[[[[-44.91506,-20.13806],[-44.91231,-20.14319],[-44.90583,-20.1431],[-44.90327,-20.13999],[-44.90319,-20.1394],[-44.90731,-20.1264],[-44.90998,-20.12531],[-44.91506,-20.13806]]]]}},{"type":"Feature","properties":{"territory_id":"mg-3122306-jardim-belvedere-i-e-ii","name":"Jardim Belvedere I e Ii","municipality_id":"mg-3122306","polling_places":2,"approx":true,"official":false,"method":"voronoi-polling-places","whole_municipality":false,"approx_coords_only":false},"geometry":{"type":"MultiPolygon","coordinates":[[[[-44.93188,-20.17565],[-44.9251,-20.18374],[-44.91151,-20.17786],[-44.90854,-20.16624],[-44.92378,-20.16704],[-44.93188,-20.17565]]]]}},{"type":"Feature","properties":{"territory_id":"mg-3122306-jardim-dos-candides","name":"Jardim dos Candidés","municipality_id":"mg-3122306","polling_places":1,"approx":true,"official":false,"method":"voronoi-polling-places","whole_municipality":false,"approx_coords_only":false},"geometry":{"type":"MultiPolygon","coordinates":[[[[-44.84737,-20.13154],[-44.84449,-20.14659],[-44.81775,-20.15501],[-44.80789,-20.14791],[-44.8209,-20.1171],[-44.83701,-20.10632],[-44.83775,-20.10727],[-44.84737,-20.13154]]]]}},{"type":"Feature","properties":{"territory_id":"mg-3122306-jardinopolis","name":"Jardinópolis","municipality_id":"mg-3122306","polling_places":1,"approx":true,"official":false,"method":"voronoi-polling-places","whole_municipality":false,"approx_coords_only":false},"geometry":{"type":"MultiPolygon","coordinates":[[[[-45.0117,-20.16987],[-45.0084,-20.171],[-44.9661,-20.2138],[-44.9416,-20.2093],[-44.92002,-20.23819],[-44.9124,-20.22925],[-44.9251,-20.18374],[-44.93188,-20.17565],[-44.98296,-20.15895],[-45.0117,-20.16987]]]]}},{"type":"Feature","properties":{"territory_id":"mg-3122306-lagoa-dos-mandarins","name":"Lagoa dos Mandarins","municipality_id":"mg-3122306","polling_places":1,"approx":true,"official":false,"method":"voronoi-polling-places","whole_municipality":false,"approx_coords_only":false},"geometry":{"type":"MultiPolygon","coordinates":[[[[-44.86591,-20.10124],[-44.861,-20.11914],[-44.83775,-20.10727],[-44.83701,-20.10632],[-44.8608,-20.0904],[-44.86188,-20.08759],[-44.86591,-20.10124]]]]}},{"type":"Feature","properties":{"territory_id":"mg-3122306-manoel-valinhas","name":"Manoel Valinhas","municipality_id":"mg-3122306","polling_places":1,"approx":true,"official":false,"method":"voronoi-polling-places","whole_municipality":false,"approx_coords_only":false},"geometry":{"type":"MultiPolygon","coordinates":[[[[-44.88108,-20.12537],[-44.87957,-20.13403],[-44.87924,-20.1344],[-44.86629,-20.13139],[-44.86544,-20.12612],[-44.87277,-20.12473],[-44.88108,-20.12537]]]]}},{"type":"Feature","properties":{"territory_id":"mg-3122306-maria-helena","name":"Maria Helena","municipality_id":"mg-3122306","polling_places":1,"approx":true,"official":false,"method":"voronoi-polling-places","whole_municipality":false,"approx_coords_only":false},"geometry":{"type":"MultiPolygon","coordinates":[[[[-44.87068,-20.15266],[-44.86993,-20.15446],[-44.86821,-20.15703],[-44.86631,-20.15922],[-44.84697,-20.14709],[-44.86162,-20.1428],[-44.87068,-20.15266]]]]}},{"type":"Feature","properties":{"territory_id":"mg-3122306-nacoes","name":"Nações","municipality_id":"mg-3122306","polling_places":1,"approx":true,"official":false,"method":"voronoi-polling-places","whole_municipality":false,"approx_coords_only":false},"geometry":{"type":"MultiPolygon","coordinates":[[[[-44.86631,-20.15922],[-44.86623,-20.16479],[-44.86395,-20.16617],[-44.84954,-20.15383],[-44.84623,-20.14713],[-44.84697,-20.14709],[-44.86631,-20.15922]]]]}},{"type":"Feature","properties":{"territory_id":"mg-3122306-niteroi","name":"Niterói","municipality_id":"mg-3122306","polling_places":3,"approx":true,"official":false,"method":"voronoi-polling-places","whole_municipality":false,"approx_coords_only":false},"geometry":{"type":"MultiPolygon","coordinates":[[[[-44.88171,-20.14371],[-44.87638,-20.14896],[-44.87585,-20.14976],[-44.87003,-20.1408],[-44.87131,-20.14057],[-44.8785,-20.13697],[-44.88048,-20.14193],[-44.88171,-20.14371]]]]}},{"type":"Feature","properties":{"territory_id":"mg-3122306-nossa-senhora-das-gracas","name":"Nossa Senhora das Graças","municipality_id":"mg-3122306","polling_places":1,"approx":true,"official":false,"method":"voronoi-polling-places","whole_municipality":false,"approx_coords_only":false},"geometry":{"type":"MultiPolygon","coordinates":[[[[-44.88858,-20.1638],[-44.87434,-20.16723],[-44.87571,-20.1611],[-44.87626,-20.15999],[-44.88076,-20.15613],[-44.88485,-20.15733],[-44.88858,-20.1638]]]]}},{"type":"Feature","properties":{"territory_id":"mg-3122306-nova-holanda","name":"Nova Holanda","municipality_id":"mg-3122306","polling_places":1,"approx":true,"official":false,"method":"voronoi-polling-places","whole_municipality":false,"approx_coords_only":false},"geometry":{"type":"MultiPolygon","coordinates":[[[[-44.8939,-20.16822],[-44.89309,-20.17747],[-44.87529,-20.1784],[-44.8734,-20.16798],[-44.87434,-20.16723],[-44.88858,-20.1638],[-44.89319,-20.16695],[-44.8939,-20.16822]]]]}},{"type":"Feature","properties":{"territory_id":"mg-3122306-oliveiras","name":"Oliveiras","municipality_id":"mg-3122306","polling_places":1,"approx":true,"official":false,"method":"voronoi-polling-places","whole_municipality":false,"approx_coords_only":false},"geometry":{"type":"MultiPolygon","coordinates":[[[[-44.89496,-20.07514],[-44.88965,-20.10656],[-44.88064,-20.11328],[-44.87453,-20.11231],[-44.87404,-20.11211],[-44.86591,-20.10124],[-44.86188,-20.08759],[-44.87391,-20.05624],[-44.89496,-20.07514]]]]}},{"type":"Feature","properties":{"territory_id":"mg-3122306-orion","name":"Orion","municipality_id":"mg-3122306","polling_places":1,"approx":true,"official":false,"method":"voronoi-polling-places","whole_municipality":false,"approx_coords_only":false},"geometry":{"type":"MultiPolygon","coordinates":[[[[-44.95657,-20.13587],[-44.93125,-20.14356],[-44.91506,-20.13806],[-44.90998,-20.12531],[-44.91426,-20.11982],[-44.93229,-20.10538],[-44.95505,-20.13317],[-44.95657,-20.13587]]]]}},{"type":"Feature","properties":{"territory_id":"mg-3122306-paraiso","name":"Paraíso","municipality_id":"mg-3122306","polling_places":1,"approx":true,"official":false,"method":"voronoi-polling-places","whole_municipality":false,"approx_coords_only":false},"geometry":{"type":"MultiPolygon","coordinates":[[[[-44.87529,-20.1784],[-44.84253,-20.21343],[-44.84188,-20.21347],[-44.85597,-20.1744],[-44.86395,-20.16617],[-44.86623,-20.16479],[-44.8734,-20.16798],[-44.87529,-20.1784]]]]}},{"type":"Feature","properties":{"territory_id":"mg-3122306-planalto","name":"Planalto","municipality_id":"mg-3122306","polling_places":1,"approx":true,"official":false,"method":"voronoi-polling-places","whole_municipality":false,"approx_coords_only":false},"geometry":{"type":"MultiPolygon","coordinates":[[[[-44.91417,-20.1532],[-44.91147,-20.15421],[-44.90482,-20.15037],[-44.90389,-20.14842],[-44.90583,-20.1431],[-44.91231,-20.14319],[-44.91417,-20.1532]]]]}},{"type":"Feature","properties":{"territory_id":"mg-3122306-porto-velho","name":"Porto Velho","municipality_id":"mg-3122306","polling_places":3,"approx":true,"official":false,"method":"voronoi-polling-places","whole_municipality":false,"approx_coords_only":false},"geometry":{"type":"MultiPolygon","coordinates":[[[[-44.88661,-20.15313],[-44.88579,-20.15492],[-44.88485,-20.15733],[-44.88076,-20.15613],[-44.8765,-20.15188],[-44.8755,-20.15113],[-44.87585,-20.14976],[-44.87638,-20.14896],[-44.88171,-20.14371],[-44.88208,-20.1438],[-44.88272,-20.14459],[-44.88394,-20.14721],[-44.8863,-20.15002],[-44.88661,-20.15313]]]]}},{"type":"Feature","properties":{"territory_id":"mg-3122306-primavera","name":"Primavera","municipality_id":"mg-3122306","polling_places":1,"approx":true,"official":false,"method":"voronoi-polling-places","whole_municipality":false,"approx_coords_only":false},"geometry":{"type":"MultiPolygon","coordinates":[[[[-44.86629,-20.13139],[-44.86447,-20.14004],[-44.86162,-20.1428],[-44.84697,-20.14709],[-44.84623,-20.14713],[-44.84449,-20.14659],[-44.84737,-20.13154],[-44.86319,-20.12389],[-44.86544,-20.12612],[-44.86629,-20.13139]]]]}},{"type":"Feature","properties":{"territory_id":"mg-3122306-quinta-das-palmeiras","name":"Quinta das Palmeiras","municipality_id":"mg-3122306","polling_places":1,"approx":true,"official":false,"method":"voronoi-polling-places","whole_municipality":false,"approx_coords_only":false},"geometry":{"type":"MultiPolygon","coordinates":[[[[-44.89722,-20.22123],[-44.84253,-20.21343],[-44.87529,-20.1784],[-44.89309,-20.17747],[-44.89413,-20.17939],[-44.89722,-20.22123]]]]}},{"type":"Feature","properties":{"territory_id":"mg-3122306-realengo","name":"Realengo","municipality_id":"mg-3122306","polling_places":1,"approx":true,"official":false,"method":"voronoi-polling-places","whole_municipality":false,"approx_coords_only":false},"geometry":{"type":"MultiPolygon","coordinates":[[[[-44.9251,-20.18374],[-44.9124,-20.22925],[-44.89722,-20.22123],[-44.89413,-20.17939],[-44.91151,-20.17786],[-44.9251,-20.18374]]]]}},{"type":"Feature","properties":{"territory_id":"mg-3122306-santa-clara","name":"Santa Clara","municipality_id":"mg-3122306","polling_places":1,"approx":true,"official":false,"method":"voronoi-polling-places","whole_municipality":false,"approx_coords_only":false},"geometry":{"type":"MultiPolygon","coordinates":[[[[-44.88973,-20.13371],[-44.88236,-20.13489],[-44.87957,-20.13403],[-44.88108,-20.12537],[-44.88137,-20.12513],[-44.88358,-20.1253],[-44.88973,-20.13371]]]]}},{"type":"Feature","properties":{"territory_id":"mg-3122306-santo-antonio-dos-campos","name":"Santo Antônio dos Campos","municipality_id":"mg-3122306","polling_places":2,"approx":true,"official":false,"method":"voronoi-polling-places","whole_municipality":false,"approx_coords_only":false},"geometry":{"type":"MultiPolygon","coordinates":[[[[-45.05406,-20.15544],[-45.0117,-20.16987],[-44.98296,-20.15895],[-44.95657,-20.13587],[-44.95505,-20.13317],[-44.93229,-20.10538],[-44.9297,-20.08875],[-44.9403,-20.07968],[-44.97851,-20.07843],[-44.98974,-20.07556],[-45.05406,-20.15544]]]]}},{"type":"Feature","properties":{"territory_id":"mg-3122306-sao-jose","name":"São José","municipality_id":"mg-3122306","polling_places":1,"approx":true,"official":false,"method":"voronoi-polling-places","whole_municipality":false,"approx_coords_only":false},"geometry":{"type":"MultiPolygon","coordinates":[[[[-44.90917,-20.1575],[-44.90647,-20.16478],[-44.8939,-20.16822],[-44.89319,-20.16695],[-44.89734,-20.15561],[-44.90917,-20.1575]]]]}},{"type":"Feature","properties":{"territory_id":"mg-3122306-sao-judas-tadeu","name":"São Judas Tadeu","municipality_id":"mg-3122306","polling_places":1,"approx":true,"official":false,"method":"voronoi-polling-places","whole_municipality":false,"approx_coords_only":false},"geometry":{"type":"MultiPolygon","coordinates":[[[[-44.92378,-20.16704],[-44.90854,-20.16624],[-44.90647,-20.16478],[-44.90917,-20.1575],[-44.91147,-20.15421],[-44.91417,-20.1532],[-44.91892,-20.15428],[-44.92378,-20.16704]]]]}},{"type":"Feature","properties":{"territory_id":"mg-3122306-sao-luis","name":"São Luís","municipality_id":"mg-3122306","polling_places":1,"approx":true,"official":false,"method":"voronoi-polling-places","whole_municipality":false,"approx_coords_only":false},"geometry":{"type":"MultiPolygon","coordinates":[[[[-44.87585,-20.14976],[-44.8755,-20.15113],[-44.87068,-20.15266],[-44.86162,-20.1428],[-44.86447,-20.14004],[-44.87003,-20.1408],[-44.87585,-20.14976]]]]}},{"type":"Feature","properties":{"territory_id":"mg-3122306-sao-sebastiao","name":"São Sebastião","municipality_id":"mg-3122306","polling_places":2,"approx":true,"official":false,"method":"voronoi-polling-places","whole_municipality":false,"approx_coords_only":false},"geometry":{"type":"MultiPolygon","coordinates":[[[[-44.8993,-20.12666],[-44.89298,-20.13508],[-44.89252,-20.13501],[-44.88973,-20.13371],[-44.88358,-20.1253],[-44.89371,-20.12284],[-44.8993,-20.12666]]]]}},{"type":"Feature","properties":{"territory_id":"mg-3122306-serra-verde","name":"Serra Verde","municipality_id":"mg-3122306","polling_places":1,"approx":true,"official":false,"method":"voronoi-polling-places","whole_municipality":false,"approx_coords_only":false},"geometry":{"type":"MultiPolygon","coordinates":[[[[-44.93229,-20.10538],[-44.91426,-20.11982],[-44.89109,-20.10895],[-44.88965,-20.10656],[-44.89496,-20.07514],[-44.9297,-20.08875],[-44.93229,-20.10538]]]]}},{"type":"Feature","properties":{"territory_id":"mg-3122306-sidil","name":"Sidil","municipality_id":"mg-3122306","polling_places":2,"approx":true,"official":false,"method":"voronoi-polling-places","whole_municipality":false,"approx_coords_only":false},"geometry":{"type":"MultiPolygon","coordinates":[[[[-44.90731,-20.1264],[-44.90319,-20.1394],[-44.90327,-20.13999],[-44.89764,-20.14529],[-44.89501,-20.1423],[-44.89499,-20.14219],[-44.89478,-20.13843],[-44.89305,-20.1354],[-44.89298,-20.13508],[-44.8993,-20.12666],[-44.90731,-20.1264]]]]}},{"type":"Feature","properties":{"territory_id":"mg-3122306-tiete","name":"Tietê","municipality_id":"mg-3122306","polling_places":1,"approx":true,"official":false,"method":"voronoi-polling-places","whole_municipality":false,"approx_coords_only":false},"geometry":{"type":"MultiPolygon","coordinates":[[[[-44.93125,-20.14356],[-44.91892,-20.15428],[-44.91417,-20.1532],[-44.91231,-20.14319],[-44.91506,-20.13806],[-44.93125,-20.14356]]]]}},{"type":"Feature","properties":{"territory_id":"mg-3122306-vila-belo-horizonte","name":"Vila Belo Horizonte","municipality_id":"mg-3122306","polling_places":1,"approx":true,"official":false,"method":"voronoi-polling-places","whole_municipality":false,"approx_coords_only":false},"geometry":{"type":"MultiPolygon","coordinates":[[[[-44.90583,-20.1431],[-44.90389,-20.14842],[-44.8978,-20.14637],[-44.89764,-20.14529],[-44.90327,-20.13999],[-44.90583,-20.1431]]]]}},{"type":"Feature","properties":{"territory_id":"mg-3122306-vila-cruzeiro","name":"Vila Cruzeiro","municipality_id":"mg-3122306","polling_places":1,"approx":true,"official":false,"method":"voronoi-polling-places","whole_municipality":false,"approx_coords_only":false},"geometry":{"type":"MultiPolygon","coordinates":[[[[-44.89252,-20.13501],[-44.88599,-20.13839],[-44.88236,-20.13489],[-44.88973,-20.13371],[-44.89252,-20.13501]]]]}},{"type":"Feature","properties":{"territory_id":"mg-3122306-vila-romana","name":"Vila Romana","municipality_id":"mg-3122306","polling_places":1,"approx":true,"official":false,"method":"voronoi-polling-places","whole_municipality":false,"approx_coords_only":false},"geometry":{"type":"MultiPolygon","coordinates":[[[[-44.87404,-20.11211],[-44.8629,-20.12213],[-44.861,-20.11914],[-44.86591,-20.10124],[-44.87404,-20.11211]]]]}},{"type":"Feature","properties":{"territory_id":"mg-3122306-zona-rural","name":"Zona Rural","municipality_id":"mg-3122306","polling_places":7,"approx":true,"official":false,"method":"voronoi-polling-places","whole_municipality":false,"approx_coords_only":false},"geometry":{"type":"MultiPolygon","coordinates":[[[[-45.1223,-20.076],[-45.0968,-20.1229],[-45.0715,-20.1495],[-45.05406,-20.15544],[-44.98974,-20.07556],[-44.97851,-20.07843],[-44.9403,-20.07968],[-44.9297,-20.08875],[-44.89496,-20.07514],[-44.87391,-20.05624],[-44.9053,-19.9745],[-44.8775,-19.9447],[-44.8879,-19.9183],[-44.9193,-19.9425],[-44.9648,-19.9348],[-44.9549,-19.9626],[-44.9862,-20.0089],[-45.0472,-20.0117],[-45.0782,-20.0627],[-45.1223,-20.076]]]]}}]}