{"type":"FeatureCollection","features":[{"type":"Feature","properties":{"territory_id":"mg-3123700-centro","name":"Centro","municipality_id":"mg-3123700","polling_places":3,"approx":true,"official":false,"method":"voronoi-polling-places","whole_municipality":false,"approx_coords_only":false},"geometry":{"type":"MultiPolygon","coordinates":[[[[-42.07402,-19.24658],[-42.06208,-19.24882],[-42.04674,-19.20979],[-42.01067,-19.15599],[-42.02396,-19.14931],[-42.03499,-19.14328],[-42.04897,-19.19798],[-42.07402,-19.24658]]]]}},{"type":"Feature","properties":{"territory_id":"mg-3123700-divino-do-traira","name":"Divino do Traíra","municipality_id":"mg-3123700","polling_places":1,"approx":true,"official":false,"method":"voronoi-polling-places","whole_municipality":false,"approx_coords_only":false},"geometry":{"type":"MultiPolygon","coordinates":[[[[-42.04601,-19.13664],[-42.03499,-19.14328],[-42.02396,-19.14931],[-42.01067,-19.15599],[-41.99698,-19.16219],[-41.9669,-19.1401],[-41.9664,-19.104],[-41.9997,-19.0715],[-41.99658,-19.06416],[-42.0444,-19.10664],[-42.0381,-19.1191],[-42.04601,-19.13664]]],[[[-41.95384,-19.0262],[-41.9457,-19.0225],[-41.94468,-19.01806],[-41.95384,-19.0262]]]]}},{"type":"Feature","properties":{"territory_id":"mg-3123700-sao-jose-do-acacio","name":"São José do Acácio","municipality_id":"mg-3123700","polling_places":1,"approx":true,"official":false,"method":"voronoi-polling-places","whole_municipality":false,"approx_coords_only":false},"geometry":{"type":"MultiPolygon","coordinates":[[[[-42.0538,-19.0445],[-42.0238,-19.07],[-42.0468,-19.1019],[-42.0444,-19.10664],[-41.99658,-19.06416],[-41.9868,-19.0412],[-41.95384,-19.0262],[-41.94468,-19.01806],[-41.9375,-18.987],[-41.9617,-18.9875],[-42.0538,-19.0445]]]]}},{"type":"Feature","properties":{"territory_id":"mg-3123700-vila-martins","name":"Vila Martins","municipality_id":"mg-3123700","polling_places":1,"approx":true,"official":false,"method":"voronoi-polling-places","whole_municipality":false,"approx_coords_only":false},"geometry":{"type":"MultiPolygon","coordinates":[[[[-42.1154,-19.1898],[-42.0736,-19.2056],[-42.0867,-19.2442],[-42.07402,-19.24658],[-42.04897,-19.19798],[-42.03499,-19.14328],[-42.04601,-19.13664],[-42.0557,-19.1581],[-42.1154,-19.1898]]]]}},{"type":"Feature","properties":{"territory_id":"mg-3123700-vila-rainha","name":"Vila Rainha","municipality_id":"mg-3123700","polling_places":1,"approx":true,"official":false,"method":"voronoi-polling-places","whole_municipality":false,"approx_coords_only":false},"geometry":{"type":"MultiPolygon","coordinates":[[[[-42.06208,-19.24882],[-42.0377,-19.2534],[-42.0142,-19.2309],[-42.0064,-19.1691],[-41.99698,-19.16219],[-42.01067,-19.15599],[-42.04674,-19.20979],[-42.06208,-19.24882]]]]}}]}