{"type":"FeatureCollection","features":[{"type":"Feature","properties":{"territory_id":"mg-3123205-centro","name":"Centro","municipality_id":"mg-3123205","polling_places":4,"approx":true,"official":false,"method":"voronoi-polling-places","whole_municipality":false,"approx_coords_only":false},"geometry":{"type":"MultiPolygon","coordinates":[[[[-45.7449,-19.4917],[-45.7133,-19.4984],[-45.6844,-19.5428],[-45.7103,-19.5684],[-45.6609,-19.6071],[-45.63654,-19.66223],[-45.60489,-19.48336],[-45.59768,-19.46682],[-45.59641,-19.46616],[-45.69468,-19.31251],[-45.713,-19.314],[-45.6817,-19.3436],[-45.6777,-19.3998],[-45.7317,-19.4518],[-45.7449,-19.4917]]]]}},{"type":"Feature","properties":{"territory_id":"mg-3123205-osvaldo-soares","name":"Osvaldo Soares","municipality_id":"mg-3123205","polling_places":1,"approx":true,"official":false,"method":"voronoi-polling-places","whole_municipality":false,"approx_coords_only":false},"geometry":{"type":"MultiPolygon","coordinates":[[[[-45.63654,-19.66223],[-45.6362,-19.663],[-45.597,-19.6547],[-45.5605,-19.6613],[-45.5307,-19.7009],[-45.51,-19.6984],[-45.4888,-19.6532],[-45.4539,-19.609],[-45.4299,-19.5969],[-45.4091,-19.5509],[-45.41575,-19.53013],[-45.58773,-19.4665],[-45.59641,-19.46616],[-45.59768,-19.46682],[-45.60489,-19.48336],[-45.63654,-19.66223]]]]}},{"type":"Feature","properties":{"territory_id":"mg-3123205-sao-jose","name":"Sao Jose","municipality_id":"mg-3123205","polling_places":1,"approx":true,"official":false,"method":"voronoi-polling-places","whole_municipality":false,"approx_coords_only":false},"geometry":{"type":"MultiPolygon","coordinates":[[[[-45.68542,-19.31176],[-45.58773,-19.4665],[-45.41575,-19.53013],[-45.4237,-19.5053],[-45.3908,-19.5016],[-45.4049,-19.4916],[-45.3768,-19.4425],[-45.3639,-19.3989],[-45.3257,-19.3712],[-45.3387,-19.3445],[-45.3657,-19.3513],[-45.4661,-19.3222],[-45.5018,-19.3562],[-45.564,-19.3609],[-45.6236,-19.3557],[-45.6613,-19.3098],[-45.68542,-19.31176]]]]}},{"type":"Feature","properties":{"territory_id":"mg-3123205-sao-sebastiao","name":"Sao Sebastiao","municipality_id":"mg-3123205","polling_places":1,"approx":true,"official":false,"method":"voronoi-polling-places","whole_municipality":false,"approx_coords_only":false},"geometry":{"type":"MultiPolygon","coordinates":[[[[-45.69468,-19.31251],[-45.59641,-19.46616],[-45.58773,-19.4665],[-45.68542,-19.31176],[-45.69468,-19.31251]]]]}}]}