{"type":"FeatureCollection","features":[{"type":"Feature","properties":{"territory_id":"mg-3123601-centro","name":"Centro","municipality_id":"mg-3123601","polling_places":7,"approx":true,"official":false,"method":"voronoi-polling-places","whole_municipality":false,"approx_coords_only":false},"geometry":{"type":"MultiPolygon","coordinates":[[[[-45.7051,-21.678],[-45.6208,-21.7583],[-45.5683,-21.7505],[-45.5799,-21.7316],[-45.5287,-21.6891],[-45.51746,-21.68387],[-45.52229,-21.67531],[-45.55155,-21.61376],[-45.55456,-21.60577],[-45.56083,-21.60426],[-45.56845,-21.59548],[-45.64417,-21.45236],[-45.664,-21.4593],[-45.664,-21.595],[-45.6919,-21.6273],[-45.6793,-21.6456],[-45.7051,-21.678]]]]}},{"type":"Feature","properties":{"territory_id":"mg-3123601-nossa-senhora-aparecida","name":"Nossa Senhora Aparecida","municipality_id":"mg-3123601","polling_places":1,"approx":true,"official":false,"method":"voronoi-polling-places","whole_municipality":false,"approx_coords_only":false},"geometry":{"type":"MultiPolygon","coordinates":[[[[-45.64417,-21.45236],[-45.56845,-21.59548],[-45.56083,-21.60426],[-45.55456,-21.60577],[-45.54076,-21.55885],[-45.5475,-21.5451],[-45.5451,-21.4982],[-45.5609,-21.5033],[-45.5899,-21.4628],[-45.6283,-21.4468],[-45.64417,-21.45236]]]]}},{"type":"Feature","properties":{"territory_id":"mg-3123601-sao-cristovao","name":"São Cristóvão","municipality_id":"mg-3123601","polling_places":1,"approx":true,"official":false,"method":"voronoi-polling-places","whole_municipality":false,"approx_coords_only":false},"geometry":{"type":"MultiPolygon","coordinates":[[[[-45.55456,-21.60577],[-45.55155,-21.61376],[-45.52229,-21.67531],[-45.51746,-21.68387],[-45.4618,-21.658],[-45.4566,-21.621],[-45.5197,-21.6018],[-45.54076,-21.55885],[-45.55456,-21.60577]]]]}}]}