{"type":"FeatureCollection","features":[{"type":"Feature","properties":{"territory_id":"mg-3123908-centro","name":"Centro","municipality_id":"mg-3123908","polling_places":3,"approx":true,"official":false,"method":"voronoi-polling-places","whole_municipality":false,"approx_coords_only":false},"geometry":{"type":"MultiPolygon","coordinates":[[[[-44.1141,-20.67871],[-44.09049,-20.70566],[-44.06001,-20.67355],[-44.04745,-20.6615],[-44.078,-20.66982],[-44.1141,-20.67871]]]]}},{"type":"Feature","properties":{"territory_id":"mg-3123908-colonia","name":"Colônia","municipality_id":"mg-3123908","polling_places":1,"approx":true,"official":false,"method":"voronoi-polling-places","whole_municipality":false,"approx_coords_only":false},"geometry":{"type":"MultiPolygon","coordinates":[[[[-44.265,-20.7235],[-44.237,-20.7224],[-44.1863,-20.7545],[-44.18504,-20.75487],[-44.19763,-20.65614],[-44.226,-20.6493],[-44.2612,-20.6784],[-44.265,-20.7235]]]]}},{"type":"Feature","properties":{"territory_id":"mg-3123908-distrito-serra-do-camapua","name":"Distrito Serra do Camapua","municipality_id":"mg-3123908","polling_places":1,"approx":true,"official":false,"method":"voronoi-polling-places","whole_municipality":false,"approx_coords_only":false},"geometry":{"type":"MultiPolygon","coordinates":[[[[-44.04408,-20.76828],[-44.0233,-20.8015],[-44.0023,-20.8001],[-43.9567,-20.7591],[-43.9709,-20.7313],[-43.97064,-20.73075],[-44.03347,-20.7482],[-44.04408,-20.76828]]]]}},{"type":"Feature","properties":{"territory_id":"mg-3123908-madruga-da-pedra","name":"Madruga da Pedra","municipality_id":"mg-3123908","polling_places":1,"approx":true,"official":false,"method":"voronoi-polling-places","whole_municipality":false,"approx_coords_only":false},"geometry":{"type":"MultiPolygon","coordinates":[[[[-44.19763,-20.65614],[-44.18504,-20.75487],[-44.17013,-20.75918],[-44.12305,-20.67059],[-44.12992,-20.65468],[-44.15603,-20.63847],[-44.1562,-20.6388],[-44.1953,-20.6567],[-44.19763,-20.65614]]]]}},{"type":"Feature","properties":{"territory_id":"mg-3123908-povoado-brumadinho","name":"Povoado Brumadinho","municipality_id":"mg-3123908","polling_places":1,"approx":true,"official":false,"method":"voronoi-polling-places","whole_municipality":false,"approx_coords_only":false},"geometry":{"type":"MultiPolygon","coordinates":[[[[-44.1487,-20.76551],[-44.09443,-20.78752],[-44.07392,-20.76677],[-44.0913,-20.72276],[-44.1487,-20.76551]]]]}},{"type":"Feature","properties":{"territory_id":"mg-3123908-povoado-castro","name":"Povoado Castro","municipality_id":"mg-3123908","polling_places":1,"approx":true,"official":false,"method":"voronoi-polling-places","whole_municipality":false,"approx_coords_only":false},"geometry":{"type":"MultiPolygon","coordinates":[[[[-44.0913,-20.72276],[-44.07392,-20.76677],[-44.04408,-20.76828],[-44.03347,-20.7482],[-44.0496,-20.70906],[-44.08858,-20.7085],[-44.0913,-20.72276]]]]}},{"type":"Feature","properties":{"territory_id":"mg-3123908-povoado-coelhos","name":"Povoado Coelhos","municipality_id":"mg-3123908","polling_places":1,"approx":true,"official":false,"method":"voronoi-polling-places","whole_municipality":false,"approx_coords_only":false},"geometry":{"type":"MultiPolygon","coordinates":[[[[-44.17013,-20.75918],[-44.1497,-20.7651],[-44.1487,-20.76551],[-44.0913,-20.72276],[-44.08858,-20.7085],[-44.09049,-20.70566],[-44.1141,-20.67871],[-44.12305,-20.67059],[-44.17013,-20.75918]]]]}},{"type":"Feature","properties":{"territory_id":"mg-3123908-povoado-sao-jose-das-merces","name":"Povoado Sao Jose das Merces","municipality_id":"mg-3123908","polling_places":1,"approx":true,"official":false,"method":"voronoi-polling-places","whole_municipality":false,"approx_coords_only":false},"geometry":{"type":"MultiPolygon","coordinates":[[[[-44.15603,-20.63847],[-44.12992,-20.65468],[-44.06472,-20.6199],[-44.1369,-20.6013],[-44.15603,-20.63847]]]]}},{"type":"Feature","properties":{"territory_id":"mg-3123908-povoado-sao-jose-das-neves","name":"Povoado Sao Jose das Neves","municipality_id":"mg-3123908","polling_places":1,"approx":true,"official":false,"method":"voronoi-polling-places","whole_municipality":false,"approx_coords_only":false},"geometry":{"type":"MultiPolygon","coordinates":[[[[-44.09443,-20.78752],[-44.0548,-20.8036],[-44.0233,-20.8015],[-44.04408,-20.76828],[-44.07392,-20.76677],[-44.09443,-20.78752]]]]}},{"type":"Feature","properties":{"territory_id":"mg-3123908-santa-efigenia","name":"Santa Efigenia","municipality_id":"mg-3123908","polling_places":1,"approx":true,"official":false,"method":"voronoi-polling-places","whole_municipality":false,"approx_coords_only":false},"geometry":{"type":"MultiPolygon","coordinates":[[[[-44.09049,-20.70566],[-44.08858,-20.7085],[-44.0496,-20.70906],[-43.99735,-20.66453],[-44.01325,-20.64208],[-44.04745,-20.6615],[-44.06001,-20.67355],[-44.09049,-20.70566]]]]}},{"type":"Feature","properties":{"territory_id":"mg-3123908-senhor-dos-passos","name":"Senhor dos Passos","municipality_id":"mg-3123908","polling_places":1,"approx":true,"official":false,"method":"voronoi-polling-places","whole_municipality":false,"approx_coords_only":false},"geometry":{"type":"MultiPolygon","coordinates":[[[[-44.12992,-20.65468],[-44.12305,-20.67059],[-44.1141,-20.67871],[-44.078,-20.66982],[-44.04745,-20.6615],[-44.01325,-20.64208],[-44.0223,-20.6293],[-44.043,-20.6255],[-44.06472,-20.6199],[-44.12992,-20.65468]]]]}},{"type":"Feature","properties":{"territory_id":"mg-3123908-zona-rural","name":"Zona Rural","municipality_id":"mg-3123908","polling_places":1,"approx":true,"official":false,"method":"voronoi-polling-places","whole_municipality":false,"approx_coords_only":false},"geometry":{"type":"MultiPolygon","coordinates":[[[[-44.0496,-20.70906],[-44.03347,-20.7482],[-43.97064,-20.73075],[-43.9447,-20.6763],[-43.9815,-20.6869],[-43.99735,-20.66453],[-44.0496,-20.70906]]]]}}]}