{"type":"FeatureCollection","features":[{"type":"Feature","properties":{"territory_id":"mg-3123106-centro","name":"Centro","municipality_id":"mg-3123106","polling_places":2,"approx":true,"official":false,"method":"voronoi-polling-places","whole_municipality":false,"approx_coords_only":false},"geometry":{"type":"MultiPolygon","coordinates":[[[[-43.0835,-19.0244],[-43.0783,-19.06],[-43.0427,-19.0681],[-42.9957,-19.103],[-42.9897,-19.1241],[-42.95583,-19.14589],[-42.92424,-19.05543],[-42.90449,-18.98559],[-42.928,-18.9603],[-42.9444,-18.929],[-42.9846,-18.9301],[-42.9851,-18.9641],[-43.0437,-19.0345],[-43.0835,-19.0244]]]]}},{"type":"Feature","properties":{"territory_id":"mg-3123106-vila-esperanca","name":"Vila Esperanca","municipality_id":"mg-3123106","polling_places":1,"approx":true,"official":false,"method":"voronoi-polling-places","whole_municipality":false,"approx_coords_only":false},"geometry":{"type":"MultiPolygon","coordinates":[[[[-42.92424,-19.05543],[-42.90108,-19.11055],[-42.87999,-19.11855],[-42.85686,-19.07087],[-42.8644,-19.0675],[-42.8817,-19.0101],[-42.90449,-18.98559],[-42.92424,-19.05543]]]]}},{"type":"Feature","properties":{"territory_id":"mg-3123106-zona-rural","name":"Zona Rural","municipality_id":"mg-3123106","polling_places":3,"approx":true,"official":false,"method":"voronoi-polling-places","whole_municipality":false,"approx_coords_only":false},"geometry":{"type":"MultiPolygon","coordinates":[[[[-42.95583,-19.14589],[-42.9468,-19.1517],[-42.9341,-19.1192],[-42.9036,-19.1096],[-42.90108,-19.11055],[-42.92424,-19.05543],[-42.95583,-19.14589]]],[[[-42.87999,-19.11855],[-42.873,-19.1212],[-42.823,-19.1592],[-42.7474,-19.15],[-42.7682,-19.1179],[-42.8004,-19.0961],[-42.85686,-19.07087],[-42.87999,-19.11855]]]]}}]}