{"type":"FeatureCollection","features":[{"type":"Feature","properties":{"territory_id":"mg-3123007-alto-cardoso","name":"Alto Cardoso","municipality_id":"mg-3123007","polling_places":1,"approx":true,"official":false,"method":"voronoi-polling-places","whole_municipality":false,"approx_coords_only":false},"geometry":{"type":"MultiPolygon","coordinates":[[[[-44.0446,-21.13631],[-44.03285,-21.12389],[-44.02804,-21.1147],[-44.02676,-21.10853],[-44.02787,-21.10566],[-44.04443,-21.09854],[-44.0446,-21.13631]]]]}},{"type":"Feature","properties":{"territory_id":"mg-3123007-cachoeirinha","name":"Cachoeirinha","municipality_id":"mg-3123007","polling_places":1,"approx":true,"official":false,"method":"voronoi-polling-places","whole_municipality":false,"approx_coords_only":false},"geometry":{"type":"MultiPolygon","coordinates":[[[[-44.04443,-21.09854],[-44.02787,-21.10566],[-44.02255,-21.1038],[-44.02129,-21.10313],[-44.01005,-21.09503],[-44.01051,-21.0908],[-44.03318,-21.06503],[-44.0444,-21.0924],[-44.04443,-21.09854]]]]}},{"type":"Feature","properties":{"territory_id":"mg-3123007-caixa-d-agua","name":"Caixa D'água","municipality_id":"mg-3123007","polling_places":1,"approx":true,"official":false,"method":"voronoi-polling-places","whole_municipality":false,"approx_coords_only":false},"geometry":{"type":"MultiPolygon","coordinates":[[[[-44.03285,-21.12389],[-44.0178,-21.1142],[-44.02282,-21.11046],[-44.02804,-21.1147],[-44.03285,-21.12389]]]]}},{"type":"Feature","properties":{"territory_id":"mg-3123007-catete-de-baixo","name":"Catete de Baixo","municipality_id":"mg-3123007","polling_places":1,"approx":true,"official":false,"method":"voronoi-polling-places","whole_municipality":false,"approx_coords_only":false},"geometry":{"type":"MultiPolygon","coordinates":[[[[-44.0447,-21.1576],[-44.0134,-21.1608],[-43.97873,-21.14197],[-44.00432,-21.11036],[-44.0178,-21.1142],[-44.03285,-21.12389],[-44.0446,-21.13631],[-44.0447,-21.1576]]]]}},{"type":"Feature","properties":{"territory_id":"mg-3123007-caxambu","name":"Caxambu","municipality_id":"mg-3123007","polling_places":1,"approx":true,"official":false,"method":"voronoi-polling-places","whole_municipality":false,"approx_coords_only":false},"geometry":{"type":"MultiPolygon","coordinates":[[[[-44.03318,-21.06503],[-44.01051,-21.0908],[-43.93195,-21.07489],[-43.9296,-21.063],[-43.9638,-21.0419],[-43.9873,-21.0584],[-44.025,-21.0451],[-44.03318,-21.06503]]]]}},{"type":"Feature","properties":{"territory_id":"mg-3123007-centro","name":"Centro","municipality_id":"mg-3123007","polling_places":5,"approx":true,"official":false,"method":"voronoi-polling-places","whole_municipality":false,"approx_coords_only":false},"geometry":{"type":"MultiPolygon","coordinates":[[[[-44.02787,-21.10566],[-44.02676,-21.10853],[-44.02492,-21.10862],[-44.02375,-21.10905],[-44.02326,-21.10932],[-44.02282,-21.10994],[-44.02282,-21.11046],[-44.0178,-21.1142],[-44.00432,-21.11036],[-44.0084,-21.10018],[-44.01005,-21.09503],[-44.02129,-21.10313],[-44.02255,-21.1038],[-44.02787,-21.10566]]]]}},{"type":"Feature","properties":{"territory_id":"mg-3123007-rosario","name":"Rosário","municipality_id":"mg-3123007","polling_places":1,"approx":true,"official":false,"method":"voronoi-polling-places","whole_municipality":false,"approx_coords_only":false},"geometry":{"type":"MultiPolygon","coordinates":[[[[-44.02804,-21.1147],[-44.02282,-21.11046],[-44.02282,-21.10994],[-44.02326,-21.10932],[-44.02375,-21.10905],[-44.02492,-21.10862],[-44.02676,-21.10853],[-44.02804,-21.1147]]]]}},{"type":"Feature","properties":{"territory_id":"mg-3123007-sao-sebastiao-de-campinas","name":"São Sebastião de Campinas","municipality_id":"mg-3123007","polling_places":1,"approx":true,"official":false,"method":"voronoi-polling-places","whole_municipality":false,"approx_coords_only":true},"geometry":{"type":"MultiPolygon","coordinates":[[[[-44.01051,-21.0908],[-44.01005,-21.09503],[-44.0084,-21.10018],[-44.00432,-21.11036],[-43.97873,-21.14197],[-43.9412,-21.1216],[-43.93195,-21.07489],[-44.01051,-21.0908]]]]}}]}