{"type":"FeatureCollection","features":[{"type":"Feature","properties":{"territory_id":"mg-3123528-centro","name":"Centro","municipality_id":"mg-3123528","polling_places":3,"approx":true,"official":false,"method":"voronoi-polling-places","whole_municipality":false,"approx_coords_only":false},"geometry":{"type":"MultiPolygon","coordinates":[[[[-41.85104,-20.20237],[-41.8155,-20.2094],[-41.8203,-20.2341],[-41.775,-20.2601],[-41.7568,-20.2069],[-41.75297,-20.20419],[-41.78763,-20.17157],[-41.79682,-20.17619],[-41.84007,-20.19143],[-41.85104,-20.20237]]]]}},{"type":"Feature","properties":{"territory_id":"mg-3123528-zona-rural","name":"Zona Rural","municipality_id":"mg-3123528","polling_places":6,"approx":true,"official":false,"method":"voronoi-polling-places","whole_municipality":false,"approx_coords_only":false},"geometry":{"type":"MultiPolygon","coordinates":[[[[-41.8874,-20.1692],[-41.8731,-20.198],[-41.85104,-20.20237],[-41.84007,-20.19143],[-41.79682,-20.17619],[-41.78763,-20.17157],[-41.75297,-20.20419],[-41.7363,-20.1924],[-41.7448,-20.1327],[-41.7267,-20.1023],[-41.7443,-20.0611],[-41.8108,-20.0425],[-41.8296,-20.1147],[-41.8626,-20.1557],[-41.8874,-20.1692]]]]}}]}