{"type":"FeatureCollection","features":[{"type":"Feature","properties":{"territory_id":"mg-3123403-centro","name":"Centro","municipality_id":"mg-3123403","polling_places":1,"approx":true,"official":false,"method":"voronoi-polling-places","whole_municipality":false,"approx_coords_only":false},"geometry":{"type":"MultiPolygon","coordinates":[[[[-45.95339,-20.27617],[-45.8045,-20.31261],[-45.8011,-20.3081],[-45.8203,-20.2888],[-45.8665,-20.2315],[-45.8902,-20.2172],[-45.9504,-20.2548],[-45.95339,-20.27617]]]]}},{"type":"Feature","properties":{"territory_id":"mg-3123403-dr-orlando-de-andrade","name":"Dr. Orlando de Andrade","municipality_id":"mg-3123403","polling_places":1,"approx":true,"official":false,"method":"voronoi-polling-places","whole_municipality":false,"approx_coords_only":false},"geometry":{"type":"MultiPolygon","coordinates":[[[[-45.976,-20.3383],[-45.9237,-20.3412],[-45.9042,-20.3294],[-45.8345,-20.3524],[-45.8045,-20.31261],[-45.95339,-20.27617],[-45.9562,-20.2962],[-45.9399,-20.314],[-45.976,-20.3383]]]]}}]}