{"type":"FeatureCollection","features":[{"type":"Feature","properties":{"territory_id":"mg-3123304-centro","name":"Centro","municipality_id":"mg-3123304","polling_places":2,"approx":true,"official":false,"method":"voronoi-polling-places","whole_municipality":true,"approx_coords_only":false},"geometry":{"type":"MultiPolygon","coordinates":[[[[-43.2397,-21.0877],[-43.1515,-21.0688],[-43.1317,-21.1201],[-43.1198,-21.1191],[-43.102,-21.1107],[-43.0871,-21.083],[-43.0837,-21.0298],[-43.107,-20.9963],[-43.1024,-20.9558],[-43.1305,-20.9823],[-43.1639,-20.9588],[-43.1728,-20.9254],[-43.2053,-20.9312],[-43.2391,-20.969],[-43.2557,-21.0108],[-43.233,-21.0478],[-43.2434,-21.0835],[-43.2397,-21.0877]]]]}}]}