{"type":"FeatureCollection","features":[{"type":"Feature","properties":{"territory_id":"mg-3123502-centro","name":"Centro","municipality_id":"mg-3123502","polling_places":1,"approx":true,"official":false,"method":"voronoi-polling-places","whole_municipality":false,"approx_coords_only":false},"geometry":{"type":"MultiPolygon","coordinates":[[[[-47.7695,-18.4183],[-47.7472,-18.4231],[-47.7116,-18.457],[-47.6801,-18.453],[-47.6249,-18.4766],[-47.61005,-18.47888],[-47.51915,-18.39878],[-47.5782,-18.408],[-47.6471,-18.3524],[-47.6797,-18.3561],[-47.694,-18.375],[-47.737,-18.3626],[-47.7695,-18.4183]]]]}},{"type":"Feature","properties":{"territory_id":"mg-3123502-chapada-das-perdizes","name":"Chapada das Perdizes","municipality_id":"mg-3123502","polling_places":1,"approx":true,"official":false,"method":"voronoi-polling-places","whole_municipality":false,"approx_coords_only":false},"geometry":{"type":"MultiPolygon","coordinates":[[[[-47.61005,-18.47888],[-47.5851,-18.4827],[-47.5863,-18.5052],[-47.5569,-18.5218],[-47.4878,-18.5139],[-47.4534,-18.4673],[-47.4812,-18.4558],[-47.4885,-18.4192],[-47.5116,-18.3976],[-47.51915,-18.39878],[-47.61005,-18.47888]]]]}}]}