{"type":"FeatureCollection","features":[{"type":"Feature","properties":{"territory_id":"mg-3123809-centro","name":"Centro","municipality_id":"mg-3123809","polling_places":2,"approx":true,"official":false,"method":"voronoi-polling-places","whole_municipality":false,"approx_coords_only":false},"geometry":{"type":"MultiPolygon","coordinates":[[[[-44.1594,-17.2998],[-44.1281,-17.3562],[-44.1175,-17.4064],[-44.085,-17.4273],[-44.0591,-17.4487],[-44.0214,-17.4135],[-44.0256,-17.3851],[-44.0022,-17.3567],[-43.9677,-17.3792],[-43.95281,-17.37881],[-43.91586,-17.28701],[-43.91395,-17.28232],[-43.98202,-17.28098],[-44.14414,-17.27707],[-44.1594,-17.2998]]]]}},{"type":"Feature","properties":{"territory_id":"mg-3123809-zona-rural","name":"Zona Rural","municipality_id":"mg-3123809","polling_places":2,"approx":true,"official":false,"method":"voronoi-polling-places","whole_municipality":false,"approx_coords_only":false},"geometry":{"type":"MultiPolygon","coordinates":[[[[-44.14414,-17.27707],[-43.98202,-17.28098],[-43.91395,-17.28232],[-43.91586,-17.28701],[-43.95281,-17.37881],[-43.9223,-17.378],[-43.8664,-17.3409],[-43.8339,-17.2794],[-43.8788,-17.2299],[-43.9389,-17.2069],[-43.9696,-17.2317],[-43.9982,-17.198],[-44.0502,-17.1584],[-44.1115,-17.1559],[-44.1114,-17.1618],[-44.0789,-17.2109],[-44.1128,-17.2304],[-44.14414,-17.27707]]]]}}]}