{"type":"FeatureCollection","features":[{"type":"Feature","properties":{"territory_id":"mg-3124401-centro","name":"Centro","municipality_id":"mg-3124401","polling_places":1,"approx":true,"official":false,"method":"voronoi-polling-places","whole_municipality":false,"approx_coords_only":false},"geometry":{"type":"MultiPolygon","coordinates":[[[[-46.04913,-22.03614],[-46.0146,-22.0442],[-46.0006,-22.1106],[-45.9599,-22.1274],[-45.9036,-22.1105],[-45.9285,-22.0873],[-45.90611,-22.05151],[-45.99369,-22.00473],[-46.04913,-22.03614]]]]}},{"type":"Feature","properties":{"territory_id":"mg-3124401-passa-quatro","name":"Passa Quatro","municipality_id":"mg-3124401","polling_places":1,"approx":true,"official":false,"method":"voronoi-polling-places","whole_municipality":false,"approx_coords_only":false},"geometry":{"type":"MultiPolygon","coordinates":[[[[-45.99369,-22.00473],[-45.90611,-22.05151],[-45.9041,-22.0483],[-45.9062,-22.0224],[-45.9201,-21.988],[-45.9604,-21.9878],[-45.96787,-21.97545],[-45.99369,-22.00473]]]]}},{"type":"Feature","properties":{"territory_id":"mg-3124401-zona-rural","name":"Zona Rural","municipality_id":"mg-3124401","polling_places":1,"approx":true,"official":false,"method":"voronoi-polling-places","whole_municipality":false,"approx_coords_only":false},"geometry":{"type":"MultiPolygon","coordinates":[[[[-46.072,-21.9117],[-46.0556,-21.9414],[-46.051,-22.0357],[-46.04913,-22.03614],[-45.99369,-22.00473],[-45.96787,-21.97545],[-45.9873,-21.9433],[-45.9871,-21.9102],[-46.0321,-21.8863],[-46.0615,-21.8756],[-46.072,-21.9117]]]]}}]}