{"type":"FeatureCollection","features":[{"type":"Feature","properties":{"territory_id":"mg-3124302-alto-sao-joao","name":"Alto São João","municipality_id":"mg-3124302","polling_places":1,"approx":true,"official":false,"method":"voronoi-polling-places","whole_municipality":false,"approx_coords_only":false},"geometry":{"type":"MultiPolygon","coordinates":[[[[-42.82706,-14.92186],[-42.81499,-14.92493],[-42.81258,-14.92007],[-42.81229,-14.91828],[-42.82706,-14.92186]]]]}},{"type":"Feature","properties":{"territory_id":"mg-3124302-centro","name":"Centro","municipality_id":"mg-3124302","polling_places":3,"approx":true,"official":false,"method":"voronoi-polling-places","whole_municipality":false,"approx_coords_only":false},"geometry":{"type":"MultiPolygon","coordinates":[[[[-42.84101,-14.94485],[-42.82614,-14.94532],[-42.81337,-14.93257],[-42.81418,-14.92703],[-42.81404,-14.92659],[-42.81468,-14.92559],[-42.81499,-14.92493],[-42.82706,-14.92186],[-42.83667,-14.92229],[-42.83982,-14.93958],[-42.84013,-14.9412],[-42.84101,-14.94485]]]]}},{"type":"Feature","properties":{"territory_id":"mg-3124302-comunidade-pajeu","name":"Comunidade Pajeú","municipality_id":"mg-3124302","polling_places":1,"approx":true,"official":false,"method":"voronoi-polling-places","whole_municipality":false,"approx_coords_only":false},"geometry":{"type":"MultiPolygon","coordinates":[[[[-42.8543,-15.0383],[-42.8252,-15.0373],[-42.82422,-15.03983],[-42.80056,-15.03973],[-42.79004,-14.99979],[-42.79736,-14.99385],[-42.80302,-14.99288],[-42.84664,-15.01863],[-42.85411,-15.03235],[-42.8543,-15.0383]]]]}},{"type":"Feature","properties":{"territory_id":"mg-3124302-comunidade-varzea-da-faca","name":"Comunidade Várzea da Faca","municipality_id":"mg-3124302","polling_places":1,"approx":true,"official":false,"method":"voronoi-polling-places","whole_municipality":false,"approx_coords_only":false},"geometry":{"type":"MultiPolygon","coordinates":[[[[-42.71049,-14.91245],[-42.70809,-14.97748],[-42.69662,-14.98045],[-42.69662,-14.91248],[-42.71049,-14.91245]]]]}},{"type":"Feature","properties":{"territory_id":"mg-3124302-comunidade-varzea-da-pedra","name":"Comunidade Varzea da Pedra","municipality_id":"mg-3124302","polling_places":1,"approx":true,"official":false,"method":"voronoi-polling-places","whole_municipality":false,"approx_coords_only":false},"geometry":{"type":"MultiPolygon","coordinates":[[[[-42.76505,-14.92809],[-42.72197,-14.97741],[-42.70809,-14.97748],[-42.71049,-14.91245],[-42.73543,-14.88403],[-42.74496,-14.88864],[-42.75142,-14.89587],[-42.76505,-14.92809]]]]}},{"type":"Feature","properties":{"territory_id":"mg-3124302-distrito-de-itamirim","name":"Distrito de Itamirim","municipality_id":"mg-3124302","polling_places":2,"approx":true,"official":false,"method":"voronoi-polling-places","whole_municipality":false,"approx_coords_only":false},"geometry":{"type":"MultiPolygon","coordinates":[[[[-42.9364,-14.81772],[-42.93385,-14.85806],[-42.93207,-14.85772],[-42.89054,-14.8508],[-42.84217,-14.79973],[-42.8724,-14.7754],[-42.8721,-14.7647],[-42.89829,-14.75198],[-42.9364,-14.81772]]]]}},{"type":"Feature","properties":{"territory_id":"mg-3124302-jardim-oriente","name":"Jardim Oriente","municipality_id":"mg-3124302","polling_places":2,"approx":true,"official":false,"method":"voronoi-polling-places","whole_municipality":false,"approx_coords_only":false},"geometry":{"type":"MultiPolygon","coordinates":[[[[-42.81418,-14.92703],[-42.81337,-14.93257],[-42.81031,-14.93152],[-42.80097,-14.92996],[-42.81181,-14.92658],[-42.81239,-14.9266],[-42.81276,-14.92651],[-42.81404,-14.92659],[-42.81418,-14.92703]]]]}},{"type":"Feature","properties":{"territory_id":"mg-3124302-ponte-nova","name":"Ponte Nova","municipality_id":"mg-3124302","polling_places":1,"approx":true,"official":false,"method":"voronoi-polling-places","whole_municipality":false,"approx_coords_only":false},"geometry":{"type":"MultiPolygon","coordinates":[[[[-42.84316,-14.88593],[-42.83768,-14.90963],[-42.80886,-14.91465],[-42.79995,-14.91027],[-42.80969,-14.89321],[-42.84316,-14.88593]]]]}},{"type":"Feature","properties":{"territory_id":"mg-3124302-povoado-barreiro","name":"Povoado Barreiro","municipality_id":"mg-3124302","polling_places":1,"approx":true,"official":false,"method":"voronoi-polling-places","whole_municipality":false,"approx_coords_only":false},"geometry":{"type":"MultiPolygon","coordinates":[[[[-42.99676,-14.91998],[-42.9905,-14.9298],[-42.9691,-14.93706],[-42.9566,-14.9346],[-42.9193,-14.894],[-42.8499,-14.9517],[-42.85554,-14.95811],[-42.85509,-14.95798],[-42.84101,-14.94485],[-42.84013,-14.9412],[-42.83982,-14.93958],[-42.83667,-14.92229],[-42.83768,-14.90963],[-42.84316,-14.88593],[-42.86325,-14.86441],[-42.89054,-14.8508],[-42.93207,-14.85772],[-42.93385,-14.85806],[-42.99676,-14.91998]]]]}},{"type":"Feature","properties":{"territory_id":"mg-3124302-povoado-barriguda","name":"Povoado Barriguda","municipality_id":"mg-3124302","polling_places":1,"approx":true,"official":false,"method":"voronoi-polling-places","whole_municipality":false,"approx_coords_only":false},"geometry":{"type":"MultiPolygon","coordinates":[[[[-43.27961,-14.66876],[-43.23295,-14.7623],[-43.2204,-14.74333],[-43.22349,-14.65484],[-43.2451,-14.6565],[-43.27961,-14.66876]]]]}},{"type":"Feature","properties":{"territory_id":"mg-3124302-povoado-de-barro-vermelho","name":"Povoado de Barro Vermelho","municipality_id":"mg-3124302","polling_places":1,"approx":true,"official":false,"method":"voronoi-polling-places","whole_municipality":false,"approx_coords_only":false},"geometry":{"type":"MultiPolygon","coordinates":[[[[-42.80056,-15.03973],[-42.79172,-15.0535],[-42.75043,-15.03873],[-42.75206,-15.00193],[-42.79004,-14.99979],[-42.80056,-15.03973]]]]}},{"type":"Feature","properties":{"territory_id":"mg-3124302-povoado-de-bonita","name":"Povoado de Bonita","municipality_id":"mg-3124302","polling_places":1,"approx":true,"official":false,"method":"voronoi-polling-places","whole_municipality":false,"approx_coords_only":false},"geometry":{"type":"MultiPolygon","coordinates":[[[[-42.9905,-14.9298],[-42.984,-14.94],[-42.9691,-14.93706],[-42.9905,-14.9298]]],[[[-42.9036,-15.04],[-42.8543,-15.0383],[-42.85411,-15.03235],[-42.88604,-14.99923],[-42.9036,-15.04]]]]}},{"type":"Feature","properties":{"territory_id":"mg-3124302-povoado-de-cana-brava","name":"Povoado de Cana Brava","municipality_id":"mg-3124302","polling_places":1,"approx":true,"official":false,"method":"voronoi-polling-places","whole_municipality":false,"approx_coords_only":false},"geometry":{"type":"MultiPolygon","coordinates":[[[[-42.69662,-14.98045],[-42.6958,-14.98066],[-42.64415,-14.93144],[-42.6486,-14.93],[-42.66945,-14.91254],[-42.69662,-14.91248],[-42.69662,-14.98045]]]]}},{"type":"Feature","properties":{"territory_id":"mg-3124302-povoado-de-capivara-de-baixo","name":"Povoado de Capivara de Baixo","municipality_id":"mg-3124302","polling_places":1,"approx":true,"official":false,"method":"voronoi-polling-places","whole_municipality":false,"approx_coords_only":false},"geometry":{"type":"MultiPolygon","coordinates":[[[[-43.07004,-14.68322],[-43.05529,-14.72885],[-42.96673,-14.74582],[-42.94319,-14.71695],[-42.9527,-14.7084],[-43.0109,-14.7017],[-43.0367,-14.6831],[-43.07004,-14.68322]]]]}},{"type":"Feature","properties":{"territory_id":"mg-3124302-povoado-de-capivara-de-cima","name":"Povoado de Capivara de Cima","municipality_id":"mg-3124302","polling_places":1,"approx":true,"official":false,"method":"voronoi-polling-places","whole_municipality":false,"approx_coords_only":false},"geometry":{"type":"MultiPolygon","coordinates":[[[[-43.08245,-14.86962],[-43.0785,-14.8742],[-43.003,-14.9102],[-42.99676,-14.91998],[-42.93385,-14.85806],[-42.9364,-14.81772],[-42.96673,-14.74582],[-43.05529,-14.72885],[-43.08245,-14.86962]]]]}},{"type":"Feature","properties":{"territory_id":"mg-3124302-povoado-de-charco","name":"Povoado de Charco","municipality_id":"mg-3124302","polling_places":1,"approx":true,"official":false,"method":"voronoi-polling-places","whole_municipality":false,"approx_coords_only":false},"geometry":{"type":"MultiPolygon","coordinates":[[[[-42.85558,-14.95816],[-42.84664,-15.01863],[-42.80302,-14.99288],[-42.80827,-14.98789],[-42.85509,-14.95798],[-42.85554,-14.95811],[-42.85558,-14.95816]]]]}},{"type":"Feature","properties":{"territory_id":"mg-3124302-povoado-de-espigao","name":"Povoado de Espigão","municipality_id":"mg-3124302","polling_places":1,"approx":true,"official":false,"method":"voronoi-polling-places","whole_municipality":false,"approx_coords_only":false},"geometry":{"type":"MultiPolygon","coordinates":[[[[-42.62025,-14.9392],[-42.60168,-15.06279],[-42.5991,-15.064],[-42.5679,-15.0241],[-42.5157,-14.9829],[-42.5607,-14.9623],[-42.5856,-14.9316],[-42.6187,-14.9397],[-42.62025,-14.9392]]]]}},{"type":"Feature","properties":{"territory_id":"mg-3124302-povoado-de-estreito","name":"Povoado de Estreito","municipality_id":"mg-3124302","polling_places":1,"approx":true,"official":false,"method":"voronoi-polling-places","whole_municipality":false,"approx_coords_only":false},"geometry":{"type":"MultiPolygon","coordinates":[[[[-42.89054,-14.8508],[-42.86325,-14.86441],[-42.79881,-14.85362],[-42.78769,-14.84337],[-42.78675,-14.83927],[-42.7955,-14.8373],[-42.84217,-14.79973],[-42.89054,-14.8508]]]]}},{"type":"Feature","properties":{"territory_id":"mg-3124302-povoado-de-galheiro","name":"Povoado de Galheiro","municipality_id":"mg-3124302","polling_places":1,"approx":true,"official":false,"method":"voronoi-polling-places","whole_municipality":false,"approx_coords_only":false},"geometry":{"type":"MultiPolygon","coordinates":[[[[-42.88604,-14.99923],[-42.85411,-15.03235],[-42.84664,-15.01863],[-42.85558,-14.95816],[-42.8806,-14.9866],[-42.88604,-14.99923]]]]}},{"type":"Feature","properties":{"territory_id":"mg-3124302-povoado-de-peri-peri","name":"Povoado de Peri Peri","municipality_id":"mg-3124302","polling_places":1,"approx":true,"official":false,"method":"voronoi-polling-places","whole_municipality":false,"approx_coords_only":false},"geometry":{"type":"MultiPolygon","coordinates":[[[[-43.22349,-14.65484],[-43.2204,-14.74333],[-43.10404,-14.67846],[-43.175,-14.6511],[-43.22349,-14.65484]]]]}},{"type":"Feature","properties":{"territory_id":"mg-3124302-povoado-de-pernambuco","name":"Povoado de Pernambuco","municipality_id":"mg-3124302","polling_places":1,"approx":true,"official":false,"method":"voronoi-polling-places","whole_municipality":false,"approx_coords_only":false},"geometry":{"type":"MultiPolygon","coordinates":[[[[-42.85509,-14.95798],[-42.80827,-14.98789],[-42.81324,-14.94851],[-42.82614,-14.94532],[-42.84101,-14.94485],[-42.85509,-14.95798]]]]}},{"type":"Feature","properties":{"territory_id":"mg-3124302-povoado-de-raposa-do-rio-verde","name":"Povoado de Raposa do Rio Verde","municipality_id":"mg-3124302","polling_places":1,"approx":true,"official":false,"method":"voronoi-polling-places","whole_municipality":false,"approx_coords_only":false},"geometry":{"type":"MultiPolygon","coordinates":[[[[-42.73543,-14.88403],[-42.71049,-14.91245],[-42.69662,-14.91248],[-42.66945,-14.91254],[-42.7069,-14.8812],[-42.72752,-14.87434],[-42.73543,-14.88403]]]]}},{"type":"Feature","properties":{"territory_id":"mg-3124302-povoado-de-roca-velha","name":"Povoado de Roça Velha","municipality_id":"mg-3124302","polling_places":1,"approx":true,"official":false,"method":"voronoi-polling-places","whole_municipality":false,"approx_coords_only":false},"geometry":{"type":"MultiPolygon","coordinates":[[[[-43.487,-14.7903],[-43.4818,-14.8014],[-43.3816,-14.7804],[-43.3482,-14.7988],[-43.2852,-14.7938],[-43.25253,-14.80443],[-43.23295,-14.7623],[-43.27961,-14.66876],[-43.4242,-14.7201],[-43.4613,-14.7462],[-43.487,-14.7903]]]]}},{"type":"Feature","properties":{"territory_id":"mg-3124302-povoado-de-santa-marta","name":"Povoado de Santa Marta","municipality_id":"mg-3124302","polling_places":1,"approx":true,"official":false,"method":"voronoi-polling-places","whole_municipality":false,"approx_coords_only":false},"geometry":{"type":"MultiPolygon","coordinates":[[[[-42.78769,-14.84337],[-42.74496,-14.88864],[-42.73543,-14.88403],[-42.72752,-14.87434],[-42.7472,-14.8678],[-42.7551,-14.8464],[-42.78675,-14.83927],[-42.78769,-14.84337]]]]}},{"type":"Feature","properties":{"territory_id":"mg-3124302-povoado-de-sao-pedro","name":"Povoado de São Pedro","municipality_id":"mg-3124302","polling_places":1,"approx":true,"official":false,"method":"voronoi-polling-places","whole_municipality":false,"approx_coords_only":false},"geometry":{"type":"MultiPolygon","coordinates":[[[[-42.82422,-15.03983],[-42.79557,-15.11387],[-42.79172,-15.0535],[-42.80056,-15.03973],[-42.82422,-15.03983]]]]}},{"type":"Feature","properties":{"territory_id":"mg-3124302-povoado-de-sussuarana","name":"Povoado de Sussuarana","municipality_id":"mg-3124302","polling_places":1,"approx":true,"official":false,"method":"voronoi-polling-places","whole_municipality":false,"approx_coords_only":false},"geometry":{"type":"MultiPolygon","coordinates":[[[[-42.86325,-14.86441],[-42.84316,-14.88593],[-42.80969,-14.89321],[-42.79495,-14.88112],[-42.79881,-14.85362],[-42.86325,-14.86441]]]]}},{"type":"Feature","properties":{"territory_id":"mg-3124302-povoado-do-mingu","name":"Povoado do Mingu","municipality_id":"mg-3124302","polling_places":1,"approx":true,"official":false,"method":"voronoi-polling-places","whole_municipality":false,"approx_coords_only":false},"geometry":{"type":"MultiPolygon","coordinates":[[[[-42.81324,-14.94851],[-42.80827,-14.98789],[-42.80302,-14.99288],[-42.79736,-14.99385],[-42.78526,-14.94476],[-42.81324,-14.94851]]]]}},{"type":"Feature","properties":{"territory_id":"mg-3124302-povoado-do-rio-grande","name":"Povoado do Rio Grande","municipality_id":"mg-3124302","polling_places":1,"approx":true,"official":false,"method":"voronoi-polling-places","whole_municipality":false,"approx_coords_only":false},"geometry":{"type":"MultiPolygon","coordinates":[[[[-42.75206,-15.00193],[-42.75043,-15.03873],[-42.70037,-15.10905],[-42.6826,-15.0974],[-42.6848,-15.0749],[-42.6617,-15.04397],[-42.6958,-14.98066],[-42.69662,-14.98045],[-42.70809,-14.97748],[-42.72197,-14.97741],[-42.75206,-15.00193]]]]}},{"type":"Feature","properties":{"territory_id":"mg-3124302-povoado-japore","name":"Povoado Japoré","municipality_id":"mg-3124302","polling_places":1,"approx":true,"official":false,"method":"voronoi-polling-places","whole_municipality":false,"approx_coords_only":false},"geometry":{"type":"MultiPolygon","coordinates":[[[[-42.6958,-14.98066],[-42.6617,-15.04397],[-42.6565,-15.037],[-42.63905,-15.04521],[-42.63905,-14.9331],[-42.64415,-14.93144],[-42.6958,-14.98066]]]]}},{"type":"Feature","properties":{"territory_id":"mg-3124302-povoado-lagoa-dos-marroas","name":"Povoado Lagoa dos Marroas","municipality_id":"mg-3124302","polling_places":1,"approx":true,"official":false,"method":"voronoi-polling-places","whole_municipality":false,"approx_coords_only":false},"geometry":{"type":"MultiPolygon","coordinates":[[[[-42.79881,-14.85362],[-42.79495,-14.88112],[-42.75142,-14.89587],[-42.74496,-14.88864],[-42.78769,-14.84337],[-42.79881,-14.85362]]]]}},{"type":"Feature","properties":{"territory_id":"mg-3124302-povoado-tanque-de-pedra","name":"Povoado Tanque de Pedra","municipality_id":"mg-3124302","polling_places":1,"approx":true,"official":false,"method":"voronoi-polling-places","whole_municipality":false,"approx_coords_only":false},"geometry":{"type":"MultiPolygon","coordinates":[[[[-43.25253,-14.80443],[-43.248,-14.8059],[-43.1963,-14.8519],[-43.0968,-14.853],[-43.08245,-14.86962],[-43.05529,-14.72885],[-43.07004,-14.68322],[-43.0915,-14.6833],[-43.10404,-14.67846],[-43.2204,-14.74333],[-43.23295,-14.7623],[-43.25253,-14.80443]]]]}},{"type":"Feature","properties":{"territory_id":"mg-3124302-santos-dumont","name":"Santos Dumont","municipality_id":"mg-3124302","polling_places":1,"approx":true,"official":false,"method":"voronoi-polling-places","whole_municipality":false,"approx_coords_only":false},"geometry":{"type":"MultiPolygon","coordinates":[[[[-42.82614,-14.94532],[-42.81324,-14.94851],[-42.78526,-14.94476],[-42.77093,-14.92952],[-42.77179,-14.92911],[-42.77631,-14.92912],[-42.80097,-14.92996],[-42.81031,-14.93152],[-42.81337,-14.93257],[-42.82614,-14.94532]]]]}},{"type":"Feature","properties":{"territory_id":"mg-3124302-sao-cristovao","name":"São Cristovão","municipality_id":"mg-3124302","polling_places":4,"approx":true,"official":false,"method":"voronoi-polling-places","whole_municipality":false,"approx_coords_only":false},"geometry":{"type":"MultiPolygon","coordinates":[[[[-42.81499,-14.92493],[-42.81468,-14.92559],[-42.81404,-14.92659],[-42.81276,-14.92651],[-42.81239,-14.9266],[-42.81181,-14.92658],[-42.80097,-14.92996],[-42.77631,-14.92912],[-42.77179,-14.92911],[-42.79995,-14.91027],[-42.80886,-14.91465],[-42.81229,-14.91828],[-42.81258,-14.92007],[-42.81499,-14.92493]]]]}},{"type":"Feature","properties":{"territory_id":"mg-3124302-sao-domingos-cigano","name":"São Domingos / Cigano","municipality_id":"mg-3124302","polling_places":1,"approx":true,"official":false,"method":"voronoi-polling-places","whole_municipality":false,"approx_coords_only":false},"geometry":{"type":"MultiPolygon","coordinates":[[[[-42.83768,-14.90963],[-42.83667,-14.92229],[-42.82706,-14.92186],[-42.81229,-14.91828],[-42.80886,-14.91465],[-42.83768,-14.90963]]]]}},{"type":"Feature","properties":{"territory_id":"mg-3124302-vila-de-santana","name":"Vila de Santana","municipality_id":"mg-3124302","polling_places":1,"approx":true,"official":false,"method":"voronoi-polling-places","whole_municipality":false,"approx_coords_only":false},"geometry":{"type":"MultiPolygon","coordinates":[[[[-42.80969,-14.89321],[-42.79995,-14.91027],[-42.77179,-14.92911],[-42.77093,-14.92952],[-42.76505,-14.92809],[-42.75142,-14.89587],[-42.79495,-14.88112],[-42.80969,-14.89321]]]]}},{"type":"Feature","properties":{"territory_id":"mg-3124302-zona-rural","name":"Zona Rural","municipality_id":"mg-3124302","polling_places":4,"approx":true,"official":false,"method":"voronoi-polling-places","whole_municipality":false,"approx_coords_only":false},"geometry":{"type":"MultiPolygon","coordinates":[[[[-42.96673,-14.74582],[-42.9364,-14.81772],[-42.89829,-14.75198],[-42.9112,-14.7457],[-42.94319,-14.71695],[-42.96673,-14.74582]]],[[[-42.79736,-14.99385],[-42.79004,-14.99979],[-42.75206,-15.00193],[-42.72197,-14.97741],[-42.76505,-14.92809],[-42.77093,-14.92952],[-42.78526,-14.94476],[-42.79736,-14.99385]]],[[[-42.79557,-15.11387],[-42.7778,-15.1598],[-42.70037,-15.10905],[-42.75043,-15.03873],[-42.79172,-15.0535],[-42.79557,-15.11387]]],[[[-42.63905,-15.04521],[-42.60168,-15.06279],[-42.62025,-14.9392],[-42.63905,-14.9331],[-42.63905,-15.04521]]]]}}]}