{"type":"FeatureCollection","features":[{"type":"Feature","properties":{"territory_id":"mg-3124500-boa-vista","name":"Boa Vista","municipality_id":"mg-3124500","polling_places":1,"approx":true,"official":false,"method":"voronoi-polling-places","whole_municipality":false,"approx_coords_only":false},"geometry":{"type":"MultiPolygon","coordinates":[[[[-46.0488,-22.5179],[-46.0044,-22.5196],[-45.9934,-22.5488],[-45.9562,-22.5353],[-45.92553,-22.47585],[-45.98018,-22.46085],[-46.00989,-22.47873],[-46.01568,-22.48298],[-46.04831,-22.50952],[-46.0488,-22.5179]]]]}},{"type":"Feature","properties":{"territory_id":"mg-3124500-centro","name":"Centro","municipality_id":"mg-3124500","polling_places":3,"approx":true,"official":false,"method":"voronoi-polling-places","whole_municipality":false,"approx_coords_only":false},"geometry":{"type":"MultiPolygon","coordinates":[[[[-46.06561,-22.45613],[-46.04831,-22.50952],[-46.01568,-22.48298],[-46.00989,-22.47873],[-45.98018,-22.46085],[-46.01707,-22.42088],[-46.03213,-22.42357],[-46.0364,-22.42403],[-46.06561,-22.45613]]]]}},{"type":"Feature","properties":{"territory_id":"mg-3124500-corrego-dos-mulatos","name":"Corrego dos Mulatos","municipality_id":"mg-3124500","polling_places":1,"approx":true,"official":false,"method":"voronoi-polling-places","whole_municipality":false,"approx_coords_only":false},"geometry":{"type":"MultiPolygon","coordinates":[[[[-46.01707,-22.42088],[-45.98018,-22.46085],[-45.92553,-22.47585],[-45.9237,-22.4723],[-45.932,-22.453],[-45.9194,-22.4082],[-45.9473,-22.4146],[-46.00554,-22.40645],[-46.01707,-22.42088]]]]}},{"type":"Feature","properties":{"territory_id":"mg-3124500-fazenda-velha","name":"Fazenda Velha","municipality_id":"mg-3124500","polling_places":1,"approx":true,"official":false,"method":"voronoi-polling-places","whole_municipality":false,"approx_coords_only":false},"geometry":{"type":"MultiPolygon","coordinates":[[[[-46.09747,-22.44666],[-46.06561,-22.45613],[-46.0364,-22.42403],[-46.05983,-22.38701],[-46.0674,-22.4087],[-46.0972,-22.3952],[-46.09747,-22.44666]]]]}},{"type":"Feature","properties":{"territory_id":"mg-3124500-pantano-dos-rosas","name":"Pantano dos Rosas","municipality_id":"mg-3124500","polling_places":1,"approx":true,"official":false,"method":"voronoi-polling-places","whole_municipality":false,"approx_coords_only":false},"geometry":{"type":"MultiPolygon","coordinates":[[[[-46.05983,-22.38701],[-46.0364,-22.42403],[-46.03213,-22.42357],[-46.01707,-22.42088],[-46.00554,-22.40645],[-46.0073,-22.4062],[-46.0385,-22.3606],[-46.0548,-22.3726],[-46.05983,-22.38701]]]]}},{"type":"Feature","properties":{"territory_id":"mg-3124500-pinhal-ii","name":"Pinhal Ii","municipality_id":"mg-3124500","polling_places":1,"approx":true,"official":false,"method":"voronoi-polling-places","whole_municipality":false,"approx_coords_only":false},"geometry":{"type":"MultiPolygon","coordinates":[[[[-46.1157,-22.4941],[-46.0619,-22.5174],[-46.0488,-22.5179],[-46.04831,-22.50952],[-46.06561,-22.45613],[-46.09747,-22.44666],[-46.0975,-22.4514],[-46.1157,-22.4941]]]]}}]}