{"type":"FeatureCollection","features":[{"type":"Feature","properties":{"territory_id":"mg-3124005-centro","name":"Centro","municipality_id":"mg-3124005","polling_places":5,"approx":true,"official":false,"method":"voronoi-polling-places","whole_municipality":false,"approx_coords_only":false},"geometry":{"type":"MultiPolygon","coordinates":[[[[-42.7299,-20.8617],[-42.7207,-20.8955],[-42.70813,-20.89826],[-42.67568,-20.86424],[-42.65386,-20.84224],[-42.60309,-20.84756],[-42.62913,-20.77565],[-42.63548,-20.75662],[-42.6505,-20.7586],[-42.6745,-20.8129],[-42.7094,-20.8393],[-42.7299,-20.8617]]]]}},{"type":"Feature","properties":{"territory_id":"mg-3124005-godinhos","name":"Godinhos","municipality_id":"mg-3124005","polling_places":1,"approx":true,"official":false,"method":"voronoi-polling-places","whole_municipality":false,"approx_coords_only":false},"geometry":{"type":"MultiPolygon","coordinates":[[[[-42.66257,-20.90828],[-42.6511,-20.9108],[-42.64072,-20.93079],[-42.63288,-20.93404],[-42.57418,-20.93785],[-42.5661,-20.9221],[-42.54515,-20.89994],[-42.59294,-20.85932],[-42.59865,-20.8577],[-42.66257,-20.90828]]]]}},{"type":"Feature","properties":{"territory_id":"mg-3124005-santa-terezinha","name":"Santa Terezinha","municipality_id":"mg-3124005","polling_places":1,"approx":true,"official":false,"method":"voronoi-polling-places","whole_municipality":false,"approx_coords_only":false},"geometry":{"type":"MultiPolygon","coordinates":[[[[-42.64072,-20.93079],[-42.6119,-20.9863],[-42.60356,-20.97704],[-42.63288,-20.93404],[-42.64072,-20.93079]]]]}},{"type":"Feature","properties":{"territory_id":"mg-3124005-sao-pedro","name":"Sao Pedro","municipality_id":"mg-3124005","polling_places":1,"approx":true,"official":false,"method":"voronoi-polling-places","whole_municipality":false,"approx_coords_only":false},"geometry":{"type":"MultiPolygon","coordinates":[[[[-42.70813,-20.89826],[-42.66257,-20.90828],[-42.59865,-20.8577],[-42.60309,-20.84756],[-42.65386,-20.84224],[-42.67568,-20.86424],[-42.70813,-20.89826]]]]}},{"type":"Feature","properties":{"territory_id":"mg-3124005-ventania","name":"Ventania","municipality_id":"mg-3124005","polling_places":1,"approx":true,"official":false,"method":"voronoi-polling-places","whole_municipality":false,"approx_coords_only":false},"geometry":{"type":"MultiPolygon","coordinates":[[[[-42.63288,-20.93404],[-42.60356,-20.97704],[-42.582,-20.9531],[-42.57418,-20.93785],[-42.63288,-20.93404]]]]}},{"type":"Feature","properties":{"territory_id":"mg-3124005-zona-rural","name":"Zona Rural","municipality_id":"mg-3124005","polling_places":3,"approx":true,"official":false,"method":"voronoi-polling-places","whole_municipality":false,"approx_coords_only":false},"geometry":{"type":"MultiPolygon","coordinates":[[[[-42.63548,-20.75662],[-42.62913,-20.77565],[-42.60309,-20.84756],[-42.59865,-20.8577],[-42.59294,-20.85932],[-42.54515,-20.89994],[-42.514,-20.867],[-42.4902,-20.8295],[-42.4792,-20.7602],[-42.5135,-20.7533],[-42.5421,-20.7772],[-42.5747,-20.7747],[-42.6057,-20.7527],[-42.63548,-20.75662]]]]}}]}