{"type":"FeatureCollection","features":[{"type":"Feature","properties":{"territory_id":"mg-3124807-bairro-santa-rita","name":"Bairro Santa Rita","municipality_id":"mg-3124807","polling_places":1,"approx":true,"official":false,"method":"voronoi-polling-places","whole_municipality":false,"approx_coords_only":false},"geometry":{"type":"MultiPolygon","coordinates":[[[[-47.76342,-18.76938],[-47.69465,-18.73349],[-47.62113,-18.68427],[-47.72443,-18.63464],[-47.76342,-18.76938]]]]}},{"type":"Feature","properties":{"territory_id":"mg-3124807-centro","name":"Centro","municipality_id":"mg-3124807","polling_places":2,"approx":true,"official":false,"method":"voronoi-polling-places","whole_municipality":false,"approx_coords_only":false},"geometry":{"type":"MultiPolygon","coordinates":[[[[-47.79359,-18.83934],[-47.7821,-18.8408],[-47.7221,-18.8303],[-47.6915,-18.8851],[-47.7088,-18.9228],[-47.6705,-18.9416],[-47.6467,-18.8848],[-47.6589,-18.8432],[-47.6578,-18.8013],[-47.6103,-18.7975],[-47.6198,-18.7463],[-47.5826,-18.7201],[-47.59924,-18.69194],[-47.62113,-18.68427],[-47.69465,-18.73349],[-47.76342,-18.76938],[-47.79359,-18.83934]]]]}},{"type":"Feature","properties":{"territory_id":"mg-3124807-distrito-de-chapada-de-minas","name":"Distrito de Chapada de Minas","municipality_id":"mg-3124807","polling_places":1,"approx":true,"official":false,"method":"voronoi-polling-places","whole_municipality":false,"approx_coords_only":false},"geometry":{"type":"MultiPolygon","coordinates":[[[[-47.75645,-18.58458],[-47.72443,-18.63464],[-47.62113,-18.68427],[-47.59924,-18.69194],[-47.6089,-18.6756],[-47.5825,-18.6184],[-47.5986,-18.6019],[-47.75645,-18.58458]]]]}},{"type":"Feature","properties":{"territory_id":"mg-3124807-distrito-de-dolearina","name":"Distrito de Dolearina","municipality_id":"mg-3124807","polling_places":1,"approx":true,"official":false,"method":"voronoi-polling-places","whole_municipality":false,"approx_coords_only":false},"geometry":{"type":"MultiPolygon","coordinates":[[[[-47.8926,-18.676],[-47.8728,-18.7122],[-47.8737,-18.8292],[-47.79359,-18.83934],[-47.76342,-18.76938],[-47.72443,-18.63464],[-47.75645,-18.58458],[-47.76104,-18.57745],[-47.7862,-18.5947],[-47.8078,-18.6419],[-47.8305,-18.6435],[-47.8627,-18.6802],[-47.8926,-18.676]]]]}},{"type":"Feature","properties":{"territory_id":"mg-3124807-povoado-de-sao-felix","name":"Povoado de Sao Felix","municipality_id":"mg-3124807","polling_places":1,"approx":true,"official":false,"method":"voronoi-polling-places","whole_municipality":false,"approx_coords_only":false},"geometry":{"type":"MultiPolygon","coordinates":[[[[-47.76104,-18.57745],[-47.75645,-18.58458],[-47.5986,-18.6019],[-47.6307,-18.569],[-47.6297,-18.5385],[-47.6643,-18.5368],[-47.6878,-18.5567],[-47.7202,-18.5542],[-47.7595,-18.5764],[-47.76104,-18.57745]]]]}}]}