{"type":"FeatureCollection","features":[{"type":"Feature","properties":{"territory_id":"mg-3124708-centro","name":"Centro","municipality_id":"mg-3124708","polling_places":3,"approx":true,"official":false,"method":"voronoi-polling-places","whole_municipality":false,"approx_coords_only":false},"geometry":{"type":"MultiPolygon","coordinates":[[[[-45.9428,-19.59944],[-45.8185,-19.59825],[-45.663,-19.60546],[-45.7103,-19.5684],[-45.6844,-19.5428],[-45.7133,-19.4984],[-45.7449,-19.4917],[-45.7799,-19.4737],[-45.8036,-19.4791],[-45.8644,-19.4295],[-45.9007,-19.4379],[-45.9022,-19.4652],[-45.8917,-19.4802],[-45.9026,-19.538],[-45.9428,-19.59944]]]]}},{"type":"Feature","properties":{"territory_id":"mg-3124708-distrito-bau","name":"Distrito Bau","municipality_id":"mg-3124708","polling_places":1,"approx":true,"official":false,"method":"voronoi-polling-places","whole_municipality":false,"approx_coords_only":false},"geometry":{"type":"MultiPolygon","coordinates":[[[[-45.9486,-19.6083],[-45.9356,-19.6394],[-45.9397,-19.6962],[-45.9255,-19.7008],[-45.8941,-19.7043],[-45.8488,-19.6841],[-45.8132,-19.7051],[-45.7323,-19.6896],[-45.699,-19.6964],[-45.6613,-19.665],[-45.6362,-19.663],[-45.6609,-19.6071],[-45.663,-19.60546],[-45.8185,-19.59825],[-45.9428,-19.59944],[-45.9486,-19.6083]]]]}}]}