{"type":"FeatureCollection","features":[{"type":"Feature","properties":{"territory_id":"mg-3124906-catete","name":"Catete","municipality_id":"mg-3124906","polling_places":1,"approx":true,"official":false,"method":"voronoi-polling-places","whole_municipality":false,"approx_coords_only":false},"geometry":{"type":"MultiPolygon","coordinates":[[[[-42.2988,-21.1226],[-42.2323,-21.1336],[-42.2134,-21.119],[-42.18299,-21.12901],[-42.18174,-21.10379],[-42.18953,-21.03506],[-42.19024,-21.03481],[-42.25919,-21.03177],[-42.27203,-21.03892],[-42.2539,-21.0511],[-42.2963,-21.088],[-42.2988,-21.1226]]]]}},{"type":"Feature","properties":{"territory_id":"mg-3124906-centro","name":"Centro","municipality_id":"mg-3124906","polling_places":4,"approx":true,"official":false,"method":"voronoi-polling-places","whole_municipality":false,"approx_coords_only":false},"geometry":{"type":"MultiPolygon","coordinates":[[[[-42.3026,-21.0184],[-42.27203,-21.03892],[-42.25919,-21.03177],[-42.19024,-21.03481],[-42.2189,-21.0248],[-42.2175,-21.0084],[-42.1647,-20.9737],[-42.1696,-20.8956],[-42.1873,-20.8699],[-42.2098,-20.8544],[-42.2331,-20.8903],[-42.2598,-20.9055],[-42.2742,-20.9644],[-42.2987,-21.0001],[-42.3026,-21.0184]]],[[[-42.18953,-21.03506],[-42.18174,-21.10379],[-42.14643,-21.07001],[-42.1731,-21.0408],[-42.18953,-21.03506]]]]}},{"type":"Feature","properties":{"territory_id":"mg-3124906-nossa-senhora-de-lourdes","name":"Nossa Senhora de Lourdes","municipality_id":"mg-3124906","polling_places":1,"approx":true,"official":false,"method":"voronoi-polling-places","whole_municipality":false,"approx_coords_only":false},"geometry":{"type":"MultiPolygon","coordinates":[[[[-42.18299,-21.12901],[-42.1745,-21.1318],[-42.1185,-21.0748],[-42.1447,-21.0719],[-42.14643,-21.07001],[-42.18174,-21.10379],[-42.18299,-21.12901]]]]}}]}