{"type":"FeatureCollection","features":[{"type":"Feature","properties":{"territory_id":"mg-3124104-andiroba","name":"Andiroba","municipality_id":"mg-3124104","polling_places":1,"approx":true,"official":false,"method":"voronoi-polling-places","whole_municipality":false,"approx_coords_only":false},"geometry":{"type":"MultiPolygon","coordinates":[[[[-44.29821,-19.67725],[-44.27037,-19.69976],[-44.21145,-19.67967],[-44.20481,-19.67435],[-44.19539,-19.6595],[-44.1981,-19.642],[-44.20812,-19.62454],[-44.29426,-19.64003],[-44.29821,-19.67725]]]]}},{"type":"Feature","properties":{"territory_id":"mg-3124104-boa-vista-comunidade","name":"Boa Vista (comunidade)","municipality_id":"mg-3124104","polling_places":1,"approx":true,"official":false,"method":"voronoi-polling-places","whole_municipality":false,"approx_coords_only":false},"geometry":{"type":"MultiPolygon","coordinates":[[[[-44.44142,-19.76896],[-44.3793,-19.8492],[-44.37753,-19.85321],[-44.374,-19.84998],[-44.34542,-19.79777],[-44.34338,-19.77799],[-44.35685,-19.74163],[-44.42046,-19.74688],[-44.44142,-19.76896]]]]}},{"type":"Feature","properties":{"territory_id":"mg-3124104-cachoeirinha-comunidade","name":"Cachoeirinha (comunidade)","municipality_id":"mg-3124104","polling_places":1,"approx":true,"official":false,"method":"voronoi-polling-places","whole_municipality":false,"approx_coords_only":false},"geometry":{"type":"MultiPolygon","coordinates":[[[[-44.49849,-19.69257],[-44.41824,-19.67881],[-44.41085,-19.65954],[-44.41835,-19.63596],[-44.4485,-19.6312],[-44.498,-19.639],[-44.49849,-19.69257]]]]}},{"type":"Feature","properties":{"territory_id":"mg-3124104-caio-martins-comunidade","name":"Caio Martins (comunidade)","municipality_id":"mg-3124104","polling_places":1,"approx":true,"official":false,"method":"voronoi-polling-places","whole_municipality":false,"approx_coords_only":false},"geometry":{"type":"MultiPolygon","coordinates":[[[[-44.37753,-19.85321],[-44.3546,-19.9052],[-44.3368,-19.9398],[-44.3165,-19.9383],[-44.3156,-19.9069],[-44.2667,-19.8794],[-44.2363,-19.879],[-44.23599,-19.8778],[-44.24221,-19.84262],[-44.24765,-19.83821],[-44.29205,-19.82828],[-44.374,-19.84998],[-44.37753,-19.85321]]]]}},{"type":"Feature","properties":{"territory_id":"mg-3124104-caracois-de-baixo-comunidade","name":"Caracois de Baixo (comunidade)","municipality_id":"mg-3124104","polling_places":1,"approx":true,"official":false,"method":"voronoi-polling-places","whole_municipality":false,"approx_coords_only":false},"geometry":{"type":"MultiPolygon","coordinates":[[[[-44.27436,-19.76002],[-44.27409,-19.77542],[-44.24765,-19.83821],[-44.24221,-19.84262],[-44.20758,-19.80069],[-44.21123,-19.77551],[-44.27429,-19.75985],[-44.27436,-19.76002]]]]}},{"type":"Feature","properties":{"territory_id":"mg-3124104-caracois-de-cima-comunidade","name":"Caracois de Cima (comunidade)","municipality_id":"mg-3124104","polling_places":1,"approx":true,"official":false,"method":"voronoi-polling-places","whole_municipality":false,"approx_coords_only":false},"geometry":{"type":"MultiPolygon","coordinates":[[[[-44.27429,-19.75985],[-44.21123,-19.77551],[-44.20712,-19.74644],[-44.26748,-19.7072],[-44.27429,-19.75985]]]]}},{"type":"Feature","properties":{"territory_id":"mg-3124104-castelo-branco","name":"Castelo Branco","municipality_id":"mg-3124104","polling_places":1,"approx":true,"official":false,"method":"voronoi-polling-places","whole_municipality":false,"approx_coords_only":false},"geometry":{"type":"MultiPolygon","coordinates":[[[[-44.33756,-19.71775],[-44.30826,-19.7556],[-44.29533,-19.7627],[-44.27436,-19.76002],[-44.27429,-19.75985],[-44.26748,-19.7072],[-44.27037,-19.69976],[-44.29821,-19.67725],[-44.31697,-19.68614],[-44.33756,-19.71775]]]]}},{"type":"Feature","properties":{"territory_id":"mg-3124104-centro","name":"Centro","municipality_id":"mg-3124104","polling_places":4,"approx":true,"official":false,"method":"voronoi-polling-places","whole_municipality":false,"approx_coords_only":false},"geometry":{"type":"MultiPolygon","coordinates":[[[[-44.35685,-19.74163],[-44.34338,-19.77799],[-44.31725,-19.77557],[-44.31374,-19.77246],[-44.30575,-19.76721],[-44.29533,-19.7627],[-44.30826,-19.7556],[-44.33756,-19.71775],[-44.3528,-19.7374],[-44.35685,-19.74163]]]]}},{"type":"Feature","properties":{"territory_id":"mg-3124104-dumaville","name":"Dumaville","municipality_id":"mg-3124104","polling_places":1,"approx":true,"official":false,"method":"voronoi-polling-places","whole_municipality":false,"approx_coords_only":false},"geometry":{"type":"MultiPolygon","coordinates":[[[[-44.33631,-19.79869],[-44.29218,-19.82807],[-44.30772,-19.79967],[-44.33631,-19.79869]]]]}},{"type":"Feature","properties":{"territory_id":"mg-3124104-fernao-dias","name":"Fernao Dias","municipality_id":"mg-3124104","polling_places":1,"approx":true,"official":false,"method":"voronoi-polling-places","whole_municipality":false,"approx_coords_only":false},"geometry":{"type":"MultiPolygon","coordinates":[[[[-44.31725,-19.77557],[-44.30346,-19.79009],[-44.27409,-19.77542],[-44.27436,-19.76002],[-44.29533,-19.7627],[-44.30575,-19.76721],[-44.31374,-19.77246],[-44.31725,-19.77557]]]]}},{"type":"Feature","properties":{"territory_id":"mg-3124104-lagoa","name":"Lagoa","municipality_id":"mg-3124104","polling_places":1,"approx":true,"official":false,"method":"voronoi-polling-places","whole_municipality":false,"approx_coords_only":false},"geometry":{"type":"MultiPolygon","coordinates":[[[[-44.27037,-19.69976],[-44.26748,-19.7072],[-44.20712,-19.74644],[-44.19268,-19.73892],[-44.18832,-19.72955],[-44.21145,-19.67967],[-44.27037,-19.69976]]]]}},{"type":"Feature","properties":{"territory_id":"mg-3124104-manga","name":"Manga","municipality_id":"mg-3124104","polling_places":1,"approx":true,"official":false,"method":"voronoi-polling-places","whole_municipality":false,"approx_coords_only":false},"geometry":{"type":"MultiPolygon","coordinates":[[[[-44.20481,-19.67435],[-44.19928,-19.67923],[-44.15999,-19.70332],[-44.14622,-19.69252],[-44.1568,-19.6789],[-44.1949,-19.6627],[-44.19539,-19.6595],[-44.20481,-19.67435]]]]}},{"type":"Feature","properties":{"territory_id":"mg-3124104-melo-viana","name":"Melo Viana","municipality_id":"mg-3124104","polling_places":1,"approx":true,"official":false,"method":"voronoi-polling-places","whole_municipality":false,"approx_coords_only":false},"geometry":{"type":"MultiPolygon","coordinates":[[[[-44.21145,-19.67967],[-44.18832,-19.72955],[-44.17369,-19.7168],[-44.19928,-19.67923],[-44.20481,-19.67435],[-44.21145,-19.67967]]]]}},{"type":"Feature","properties":{"territory_id":"mg-3124104-moradas-santa-quiteria","name":"Moradas Santa Quiteria","municipality_id":"mg-3124104","polling_places":1,"approx":true,"official":false,"method":"voronoi-polling-places","whole_municipality":false,"approx_coords_only":false},"geometry":{"type":"MultiPolygon","coordinates":[[[[-44.34542,-19.79777],[-44.33631,-19.79869],[-44.30772,-19.79967],[-44.30346,-19.79009],[-44.31725,-19.77557],[-44.34338,-19.77799],[-44.34542,-19.79777]]]]}},{"type":"Feature","properties":{"territory_id":"mg-3124104-nossa-fazenda-area-externa","name":"Nossa Fazenda - Area Externa","municipality_id":"mg-3124104","polling_places":1,"approx":true,"official":false,"method":"voronoi-polling-places","whole_municipality":false,"approx_coords_only":false},"geometry":{"type":"MultiPolygon","coordinates":[[[[-44.15415,-19.77659],[-44.15076,-19.79226],[-44.14257,-19.78703],[-44.1526,-19.77122],[-44.15415,-19.77659]]]]}},{"type":"Feature","properties":{"territory_id":"mg-3124104-novo-oriente","name":"Novo Oriente","municipality_id":"mg-3124104","polling_places":1,"approx":true,"official":false,"method":"voronoi-polling-places","whole_municipality":false,"approx_coords_only":false},"geometry":{"type":"MultiPolygon","coordinates":[[[[-44.19928,-19.67923],[-44.17369,-19.7168],[-44.1695,-19.71451],[-44.16678,-19.7129],[-44.15999,-19.70332],[-44.19928,-19.67923]]]]}},{"type":"Feature","properties":{"territory_id":"mg-3124104-novo-retiro","name":"Novo Retiro","municipality_id":"mg-3124104","polling_places":2,"approx":true,"official":false,"method":"voronoi-polling-places","whole_municipality":false,"approx_coords_only":false},"geometry":{"type":"MultiPolygon","coordinates":[[[[-44.24221,-19.84262],[-44.23599,-19.8778],[-44.2266,-19.8411],[-44.17503,-19.84198],[-44.17174,-19.83165],[-44.16316,-19.8327],[-44.15657,-19.82615],[-44.17696,-19.8034],[-44.17757,-19.80335],[-44.18932,-19.80003],[-44.20758,-19.80069],[-44.24221,-19.84262]]]]}},{"type":"Feature","properties":{"territory_id":"mg-3124104-pousadas-dos-bandeirantes","name":"Pousadas dos Bandeirantes","municipality_id":"mg-3124104","polling_places":1,"approx":true,"official":false,"method":"voronoi-polling-places","whole_municipality":false,"approx_coords_only":false},"geometry":{"type":"MultiPolygon","coordinates":[[[[-44.30772,-19.79967],[-44.29218,-19.82807],[-44.29205,-19.82828],[-44.24765,-19.83821],[-44.27409,-19.77542],[-44.30346,-19.79009],[-44.30772,-19.79967]]]]}},{"type":"Feature","properties":{"territory_id":"mg-3124104-quintas-sao-jose","name":"Quintas Sao Jose","municipality_id":"mg-3124104","polling_places":1,"approx":true,"official":false,"method":"voronoi-polling-places","whole_municipality":false,"approx_coords_only":false},"geometry":{"type":"MultiPolygon","coordinates":[[[[-44.16678,-19.7129],[-44.14953,-19.73245],[-44.1332,-19.7093],[-44.14622,-19.69252],[-44.15999,-19.70332],[-44.16678,-19.7129]]]]}},{"type":"Feature","properties":{"territory_id":"mg-3124104-recanto-da-mata","name":"Recanto da Mata","municipality_id":"mg-3124104","polling_places":1,"approx":true,"official":false,"method":"voronoi-polling-places","whole_municipality":false,"approx_coords_only":false},"geometry":{"type":"MultiPolygon","coordinates":[[[[-44.15309,-19.79675],[-44.14046,-19.80745],[-44.1351,-19.7988],[-44.14257,-19.78703],[-44.15076,-19.79226],[-44.15309,-19.79675]]]]}},{"type":"Feature","properties":{"territory_id":"mg-3124104-recreio-do-retiro","name":"Recreio do Retiro","municipality_id":"mg-3124104","polling_places":1,"approx":true,"official":false,"method":"voronoi-polling-places","whole_municipality":false,"approx_coords_only":false},"geometry":{"type":"MultiPolygon","coordinates":[[[[-44.17696,-19.8034],[-44.15657,-19.82615],[-44.15295,-19.8276],[-44.14046,-19.80745],[-44.15309,-19.79675],[-44.17696,-19.8034]]]]}},{"type":"Feature","properties":{"territory_id":"mg-3124104-residencial-caio-martins","name":"Residencial Caio Martins","municipality_id":"mg-3124104","polling_places":1,"approx":true,"official":false,"method":"voronoi-polling-places","whole_municipality":false,"approx_coords_only":false},"geometry":{"type":"MultiPolygon","coordinates":[[[[-44.374,-19.84998],[-44.29205,-19.82828],[-44.29218,-19.82807],[-44.33631,-19.79869],[-44.34542,-19.79777],[-44.374,-19.84998]]]]}},{"type":"Feature","properties":{"territory_id":"mg-3124104-retiro","name":"Retiro","municipality_id":"mg-3124104","polling_places":1,"approx":true,"official":false,"method":"voronoi-polling-places","whole_municipality":false,"approx_coords_only":false},"geometry":{"type":"MultiPolygon","coordinates":[[[[-44.17503,-19.84198],[-44.16471,-19.84215],[-44.16316,-19.8327],[-44.17174,-19.83165],[-44.17503,-19.84198]]]]}},{"type":"Feature","properties":{"territory_id":"mg-3124104-sao-francisco-de-assis","name":"Sao Francisco de Assis","municipality_id":"mg-3124104","polling_places":1,"approx":true,"official":false,"method":"voronoi-polling-places","whole_municipality":false,"approx_coords_only":false},"geometry":{"type":"MultiPolygon","coordinates":[[[[-44.1711,-19.77346],[-44.15415,-19.77659],[-44.1526,-19.77122],[-44.1641,-19.7531],[-44.16361,-19.75241],[-44.1671,-19.75247],[-44.1711,-19.77346]]]]}},{"type":"Feature","properties":{"territory_id":"mg-3124104-sao-jose-comunidade","name":"Sao Jose (comunidade)","municipality_id":"mg-3124104","polling_places":1,"approx":true,"official":false,"method":"voronoi-polling-places","whole_municipality":false,"approx_coords_only":false},"geometry":{"type":"MultiPolygon","coordinates":[[[[-44.4986,-19.705],[-44.4347,-19.7396],[-44.4441,-19.7655],[-44.44142,-19.76896],[-44.42046,-19.74688],[-44.41824,-19.67881],[-44.49849,-19.69257],[-44.4986,-19.705]]]]}},{"type":"Feature","properties":{"territory_id":"mg-3124104-sao-pedro","name":"Sao Pedro","municipality_id":"mg-3124104","polling_places":1,"approx":true,"official":false,"method":"voronoi-polling-places","whole_municipality":false,"approx_coords_only":false},"geometry":{"type":"MultiPolygon","coordinates":[[[[-44.18932,-19.80003],[-44.17757,-19.80335],[-44.17696,-19.8034],[-44.15309,-19.79675],[-44.15076,-19.79226],[-44.15415,-19.77659],[-44.1711,-19.77346],[-44.18932,-19.80003]]]]}},{"type":"Feature","properties":{"territory_id":"mg-3124104-serra-verde","name":"Serra Verde","municipality_id":"mg-3124104","polling_places":1,"approx":true,"official":false,"method":"voronoi-polling-places","whole_municipality":false,"approx_coords_only":false},"geometry":{"type":"MultiPolygon","coordinates":[[[[-44.16471,-19.84215],[-44.162,-19.8422],[-44.15295,-19.8276],[-44.15657,-19.82615],[-44.16316,-19.8327],[-44.16471,-19.84215]]]]}},{"type":"Feature","properties":{"territory_id":"mg-3124104-tijuco-comunidade","name":"Tijuco (comunidade)","municipality_id":"mg-3124104","polling_places":2,"approx":true,"official":false,"method":"voronoi-polling-places","whole_municipality":false,"approx_coords_only":false},"geometry":{"type":"MultiPolygon","coordinates":[[[[-44.19268,-19.73892],[-44.1671,-19.75247],[-44.16361,-19.75241],[-44.14953,-19.73245],[-44.16678,-19.7129],[-44.1695,-19.71451],[-44.17369,-19.7168],[-44.18832,-19.72955],[-44.19268,-19.73892]]]]}},{"type":"Feature","properties":{"territory_id":"mg-3124104-urucuia-comunidade","name":"Urucuia (comunidade)","municipality_id":"mg-3124104","polling_places":1,"approx":true,"official":false,"method":"voronoi-polling-places","whole_municipality":false,"approx_coords_only":false},"geometry":{"type":"MultiPolygon","coordinates":[[[[-44.41835,-19.63596],[-44.41085,-19.65954],[-44.31697,-19.68614],[-44.29821,-19.67725],[-44.29426,-19.64003],[-44.30748,-19.59049],[-44.315,-19.592],[-44.3908,-19.5791],[-44.4004,-19.5891],[-44.408,-19.6376],[-44.41835,-19.63596]]]]}},{"type":"Feature","properties":{"territory_id":"mg-3124104-vale-do-bom-jesus-comunidade","name":"Vale do Bom Jesus (comunidade)","municipality_id":"mg-3124104","polling_places":1,"approx":true,"official":false,"method":"voronoi-polling-places","whole_municipality":false,"approx_coords_only":false},"geometry":{"type":"MultiPolygon","coordinates":[[[[-44.30748,-19.59049],[-44.29426,-19.64003],[-44.20812,-19.62454],[-44.2226,-19.5993],[-44.2429,-19.5775],[-44.30748,-19.59049]]]]}},{"type":"Feature","properties":{"territory_id":"mg-3124104-vargem-bento-da-costa","name":"Vargem Bento da Costa","municipality_id":"mg-3124104","polling_places":1,"approx":true,"official":false,"method":"voronoi-polling-places","whole_municipality":false,"approx_coords_only":false},"geometry":{"type":"MultiPolygon","coordinates":[[[[-44.42046,-19.74688],[-44.35685,-19.74163],[-44.3528,-19.7374],[-44.33756,-19.71775],[-44.31697,-19.68614],[-44.41085,-19.65954],[-44.41824,-19.67881],[-44.42046,-19.74688]]]]}},{"type":"Feature","properties":{"territory_id":"mg-3124104-volta","name":"Volta","municipality_id":"mg-3124104","polling_places":1,"approx":true,"official":false,"method":"voronoi-polling-places","whole_municipality":false,"approx_coords_only":false},"geometry":{"type":"MultiPolygon","coordinates":[[[[-44.21123,-19.77551],[-44.20758,-19.80069],[-44.18932,-19.80003],[-44.1711,-19.77346],[-44.1671,-19.75247],[-44.19268,-19.73892],[-44.20712,-19.74644],[-44.21123,-19.77551]]]]}}]}