{"type":"FeatureCollection","features":[{"type":"Feature","properties":{"territory_id":"mg-3124203-area-de-lazer","name":"Area de Lazer","municipality_id":"mg-3124203","polling_places":1,"approx":true,"official":false,"method":"voronoi-polling-places","whole_municipality":false,"approx_coords_only":false},"geometry":{"type":"MultiPolygon","coordinates":[[[[-41.96957,-20.67321],[-41.9576,-20.6951],[-41.9111,-20.6612],[-41.91084,-20.66133],[-41.91145,-20.65366],[-41.91253,-20.65136],[-41.9136,-20.65021],[-41.91811,-20.64987],[-41.92028,-20.65021],[-41.96469,-20.66878],[-41.96957,-20.67321]]]]}},{"type":"Feature","properties":{"territory_id":"mg-3124203-centro","name":"Centro","municipality_id":"mg-3124203","polling_places":13,"approx":true,"official":false,"method":"voronoi-polling-places","whole_municipality":false,"approx_coords_only":false},"geometry":{"type":"MultiPolygon","coordinates":[[[[-41.96469,-20.66878],[-41.92028,-20.65021],[-41.91811,-20.64987],[-41.9136,-20.65021],[-41.91253,-20.65136],[-41.91145,-20.65366],[-41.91084,-20.66133],[-41.87412,-20.67957],[-41.86122,-20.62998],[-41.87939,-20.6261],[-41.89425,-20.62086],[-41.90669,-20.61543],[-41.91626,-20.64189],[-41.9407,-20.64063],[-41.96469,-20.66878]],[[-41.90921,-20.65217],[-41.9086,-20.65063],[-41.90806,-20.65116],[-41.90837,-20.65273],[-41.90921,-20.65217]]]]}},{"type":"Feature","properties":{"territory_id":"mg-3124203-santa-ines","name":"Santa Inês","municipality_id":"mg-3124203","polling_places":1,"approx":true,"official":false,"method":"voronoi-polling-places","whole_municipality":false,"approx_coords_only":false},"geometry":{"type":"MultiPolygon","coordinates":[[[[-41.9407,-20.64063],[-41.91626,-20.64189],[-41.90669,-20.61543],[-41.91563,-20.61075],[-41.9407,-20.64063]]]]}},{"type":"Feature","properties":{"territory_id":"mg-3124203-zona-rural","name":"Zona Rural","municipality_id":"mg-3124203","polling_places":7,"approx":true,"official":false,"method":"voronoi-polling-places","whole_municipality":false,"approx_coords_only":false},"geometry":{"type":"MultiPolygon","coordinates":[[[[-42.0867,-20.5416],[-42.0773,-20.5997],[-42.0218,-20.6131],[-41.9884,-20.6388],[-41.96957,-20.67321],[-41.96469,-20.66878],[-41.9407,-20.64063],[-41.91563,-20.61075],[-41.90669,-20.61543],[-41.89425,-20.62086],[-41.87939,-20.6261],[-41.86122,-20.62998],[-41.87412,-20.67957],[-41.8507,-20.6912],[-41.8132,-20.6533],[-41.8413,-20.6004],[-41.8284,-20.5573],[-41.8043,-20.5384],[-41.8254,-20.4833],[-41.8502,-20.4982],[-41.8707,-20.5698],[-41.8989,-20.5806],[-41.9626,-20.5468],[-41.9938,-20.5521],[-42.0658,-20.5171],[-42.0867,-20.5416]]],[[[-41.90921,-20.65217],[-41.90837,-20.65273],[-41.90806,-20.65116],[-41.9086,-20.65063],[-41.90921,-20.65217]]]]}}]}