{"type":"FeatureCollection","features":[{"type":"Feature","properties":{"territory_id":"mg-3124609-agua-viva","name":"Agua Viva","municipality_id":"mg-3124609","polling_places":1,"approx":true,"official":false,"method":"voronoi-polling-places","whole_municipality":false,"approx_coords_only":false},"geometry":{"type":"MultiPolygon","coordinates":[[[[-42.5589,-21.6807],[-42.5266,-21.7033],[-42.50357,-21.71001],[-42.46403,-21.66125],[-42.45552,-21.6505],[-42.5016,-21.6598],[-42.5332,-21.6497],[-42.5589,-21.6807]]]]}},{"type":"Feature","properties":{"territory_id":"mg-3124609-centro","name":"Centro","municipality_id":"mg-3124609","polling_places":3,"approx":true,"official":false,"method":"voronoi-polling-places","whole_municipality":false,"approx_coords_only":false},"geometry":{"type":"MultiPolygon","coordinates":[[[[-42.50357,-21.71001],[-42.4823,-21.7162],[-42.4632,-21.7862],[-42.4597,-21.7848],[-42.3777,-21.7484],[-42.4228,-21.7398],[-42.4346,-21.6958],[-42.4352,-21.6464],[-42.45552,-21.6505],[-42.46403,-21.66125],[-42.50357,-21.71001]]]]}}]}