{"type":"FeatureCollection","features":[{"type":"Feature","properties":{"territory_id":"mg-3125606-centro","name":"Centro","municipality_id":"mg-3125606","polling_places":3,"approx":true,"official":false,"method":"voronoi-polling-places","whole_municipality":false,"approx_coords_only":false},"geometry":{"type":"MultiPolygon","coordinates":[[[[-40.8908,-16.6216],[-40.815,-16.6465],[-40.8258,-16.6836],[-40.7892,-16.692],[-40.7559,-16.7187],[-40.7269,-16.7227],[-40.72033,-16.73129],[-40.65042,-16.68339],[-40.6514,-16.6801],[-40.6345,-16.6093],[-40.6765,-16.5996],[-40.682,-16.5715],[-40.6538,-16.5563],[-40.6647,-16.5137],[-40.7064,-16.4939],[-40.7903,-16.5151],[-40.8208,-16.4812],[-40.8853,-16.5791],[-40.8908,-16.6216]]]]}},{"type":"Feature","properties":{"territory_id":"mg-3125606-zona-rural","name":"Zona Rural","municipality_id":"mg-3125606","polling_places":1,"approx":true,"official":false,"method":"voronoi-polling-places","whole_municipality":false,"approx_coords_only":false},"geometry":{"type":"MultiPolygon","coordinates":[[[[-40.72033,-16.73129],[-40.6974,-16.7613],[-40.6889,-16.8073],[-40.7111,-16.8321],[-40.7091,-16.8404],[-40.6715,-16.8334],[-40.6285,-16.788],[-40.6026,-16.7891],[-40.5893,-16.7818],[-40.5791,-16.7534],[-40.6059,-16.7265],[-40.6371,-16.7284],[-40.65042,-16.68339],[-40.72033,-16.73129]]]]}}]}