{"type":"FeatureCollection","features":[{"type":"Feature","properties":{"territory_id":"mg-3125002-centro","name":"Centro","municipality_id":"mg-3125002","polling_places":4,"approx":true,"official":false,"method":"voronoi-polling-places","whole_municipality":false,"approx_coords_only":false},"geometry":{"type":"MultiPolygon","coordinates":[[[[-43.55301,-21.54054],[-43.51303,-21.56526],[-43.5102,-21.5598],[-43.4729,-21.5306],[-43.5028,-21.5142],[-43.5454,-21.5207],[-43.55301,-21.54054]]]]}},{"type":"Feature","properties":{"territory_id":"mg-3125002-zona-rural","name":"Zona Rural","municipality_id":"mg-3125002","polling_places":1,"approx":true,"official":false,"method":"voronoi-polling-places","whole_municipality":false,"approx_coords_only":false},"geometry":{"type":"MultiPolygon","coordinates":[[[[-43.6395,-21.6079],[-43.5417,-21.6206],[-43.51303,-21.56526],[-43.55301,-21.54054],[-43.5556,-21.5473],[-43.5871,-21.5697],[-43.6342,-21.58],[-43.6395,-21.6079]]]]}}]}