{"type":"FeatureCollection","features":[{"type":"Feature","properties":{"territory_id":"mg-3125705-centro","name":"Centro","municipality_id":"mg-3125705","polling_places":4,"approx":true,"official":false,"method":"voronoi-polling-places","whole_municipality":false,"approx_coords_only":false},"geometry":{"type":"MultiPolygon","coordinates":[[[[-44.92918,-18.74347],[-44.912,-18.75582],[-44.90536,-18.76247],[-44.85731,-18.84819],[-44.7799,-18.8734],[-44.75948,-18.86307],[-44.89783,-18.75673],[-44.89886,-18.75312],[-44.86748,-18.68748],[-44.92918,-18.74347]]]]}},{"type":"Feature","properties":{"territory_id":"mg-3125705-gameleira","name":"Gameleira","municipality_id":"mg-3125705","polling_places":1,"approx":true,"official":false,"method":"voronoi-polling-places","whole_municipality":false,"approx_coords_only":false},"geometry":{"type":"MultiPolygon","coordinates":[[[[-44.89886,-18.75312],[-44.89783,-18.75673],[-44.75948,-18.86307],[-44.7111,-18.8386],[-44.6931,-18.8104],[-44.6486,-18.7873],[-44.6689,-18.7364],[-44.7107,-18.7044],[-44.7551,-18.7244],[-44.8037,-18.6879],[-44.8219,-18.6583],[-44.8047,-18.65],[-44.8105,-18.63086],[-44.86748,-18.68748],[-44.89886,-18.75312]]]]}},{"type":"Feature","properties":{"territory_id":"mg-3125705-lagoa-do-meio","name":"Lagoa do Meio","municipality_id":"mg-3125705","polling_places":1,"approx":true,"official":false,"method":"voronoi-polling-places","whole_municipality":false,"approx_coords_only":false},"geometry":{"type":"MultiPolygon","coordinates":[[[[-45.20013,-18.78508],[-45.1859,-18.8095],[-45.1605,-18.8076],[-45.1328,-18.838],[-45.0666,-18.8474],[-45.0557,-18.8217],[-45.00743,-18.82281],[-45.01093,-18.80522],[-45.07215,-18.73526],[-45.20013,-18.78508]]]]}},{"type":"Feature","properties":{"territory_id":"mg-3125705-pianco","name":"Pianco","municipality_id":"mg-3125705","polling_places":1,"approx":true,"official":false,"method":"voronoi-polling-places","whole_municipality":false,"approx_coords_only":false},"geometry":{"type":"MultiPolygon","coordinates":[[[[-44.98104,-18.76764],[-44.92918,-18.74347],[-44.86748,-18.68748],[-44.8105,-18.63086],[-44.8206,-18.5975],[-44.856,-18.5692],[-44.8496,-18.5459],[-44.9034,-18.5265],[-44.91411,-18.5139],[-44.98104,-18.76764]]]]}},{"type":"Feature","properties":{"territory_id":"mg-3125705-ribeirao-do-bagre","name":"Ribeirao do Bagre","municipality_id":"mg-3125705","polling_places":1,"approx":true,"official":false,"method":"voronoi-polling-places","whole_municipality":false,"approx_coords_only":false},"geometry":{"type":"MultiPolygon","coordinates":[[[[-45.01093,-18.80522],[-45.00743,-18.82281],[-44.9862,-18.8233],[-44.8914,-18.8622],[-44.8708,-18.8438],[-44.85731,-18.84819],[-44.90536,-18.76247],[-44.912,-18.75582],[-44.92918,-18.74347],[-44.98104,-18.76764],[-45.01093,-18.80522]]]]}},{"type":"Feature","properties":{"territory_id":"mg-3125705-salto","name":"Salto","municipality_id":"mg-3125705","polling_places":1,"approx":true,"official":false,"method":"voronoi-polling-places","whole_municipality":false,"approx_coords_only":false},"geometry":{"type":"MultiPolygon","coordinates":[[[[-45.08866,-18.53017],[-45.07215,-18.73526],[-45.01093,-18.80522],[-44.98104,-18.76764],[-44.91411,-18.5139],[-44.9227,-18.5038],[-44.9989,-18.5206],[-45.0442,-18.5019],[-45.08866,-18.53017]]]]}},{"type":"Feature","properties":{"territory_id":"mg-3125705-sao-jose-do-buriti","name":"Sao Jose do Buriti","municipality_id":"mg-3125705","polling_places":1,"approx":true,"official":false,"method":"voronoi-polling-places","whole_municipality":false,"approx_coords_only":false},"geometry":{"type":"MultiPolygon","coordinates":[[[[-45.2457,-18.6359],[-45.1896,-18.7291],[-45.2021,-18.7817],[-45.20013,-18.78508],[-45.07215,-18.73526],[-45.08866,-18.53017],[-45.0964,-18.5351],[-45.1559,-18.599],[-45.1447,-18.6455],[-45.1624,-18.6673],[-45.2139,-18.6446],[-45.2375,-18.5934],[-45.2457,-18.6359]]]]}}]}