{"type":"FeatureCollection","features":[{"type":"Feature","properties":{"territory_id":"mg-3125101-agenor","name":"Agenor","municipality_id":"mg-3125101","polling_places":1,"approx":true,"official":false,"method":"voronoi-polling-places","whole_municipality":false,"approx_coords_only":false},"geometry":{"type":"MultiPolygon","coordinates":[[[[-46.32071,-22.88387],[-46.32027,-22.89515],[-46.29241,-22.88378],[-46.30893,-22.85535],[-46.31581,-22.85764],[-46.32025,-22.86298],[-46.32071,-22.88387]]]]}},{"type":"Feature","properties":{"territory_id":"mg-3125101-barreiro","name":"Barreiro","municipality_id":"mg-3125101","polling_places":1,"approx":true,"official":false,"method":"voronoi-polling-places","whole_municipality":false,"approx_coords_only":false},"geometry":{"type":"MultiPolygon","coordinates":[[[[-46.3243,-22.84537],[-46.30957,-22.84666],[-46.30305,-22.83416],[-46.32296,-22.83942],[-46.3243,-22.84537]]]]}},{"type":"Feature","properties":{"territory_id":"mg-3125101-bela-vista","name":"Bela Vista","municipality_id":"mg-3125101","polling_places":1,"approx":true,"official":false,"method":"voronoi-polling-places","whole_municipality":false,"approx_coords_only":false},"geometry":{"type":"MultiPolygon","coordinates":[[[[-46.32685,-22.84983],[-46.31857,-22.85186],[-46.31023,-22.84888],[-46.30957,-22.84666],[-46.3243,-22.84537],[-46.32685,-22.84983]]]]}},{"type":"Feature","properties":{"territory_id":"mg-3125101-centro","name":"Centro","municipality_id":"mg-3125101","polling_places":4,"approx":true,"official":false,"method":"voronoi-polling-places","whole_municipality":false,"approx_coords_only":false},"geometry":{"type":"MultiPolygon","coordinates":[[[[-46.32845,-22.85079],[-46.32122,-22.86007],[-46.32025,-22.86298],[-46.31581,-22.85764],[-46.30893,-22.85535],[-46.31023,-22.84888],[-46.31857,-22.85186],[-46.32685,-22.84983],[-46.32845,-22.85079]]]]}},{"type":"Feature","properties":{"territory_id":"mg-3125101-jardim-europa","name":"Jardim Europa","municipality_id":"mg-3125101","polling_places":1,"approx":true,"official":false,"method":"voronoi-polling-places","whole_municipality":false,"approx_coords_only":false},"geometry":{"type":"MultiPolygon","coordinates":[[[[-46.36056,-22.85152],[-46.33091,-22.89949],[-46.32027,-22.89515],[-46.32071,-22.88387],[-46.3296,-22.851],[-46.36056,-22.85152]]]]}},{"type":"Feature","properties":{"territory_id":"mg-3125101-jardim-sao-cristovao","name":"Jardim São Cristóvão","municipality_id":"mg-3125101","polling_places":1,"approx":true,"official":false,"method":"voronoi-polling-places","whole_municipality":false,"approx_coords_only":false},"geometry":{"type":"MultiPolygon","coordinates":[[[[-46.3296,-22.851],[-46.32071,-22.88387],[-46.32025,-22.86298],[-46.32122,-22.86007],[-46.32845,-22.85079],[-46.3296,-22.851]]]]}},{"type":"Feature","properties":{"territory_id":"mg-3125101-juncal","name":"Juncal","municipality_id":"mg-3125101","polling_places":1,"approx":true,"official":false,"method":"voronoi-polling-places","whole_municipality":false,"approx_coords_only":false},"geometry":{"type":"MultiPolygon","coordinates":[[[[-46.34673,-22.77717],[-46.30533,-22.80106],[-46.23824,-22.7814],[-46.2491,-22.7518],[-46.2997,-22.7217],[-46.3326,-22.7661],[-46.34673,-22.77717]]]]}},{"type":"Feature","properties":{"territory_id":"mg-3125101-mantiqueira","name":"Mantiqueira","municipality_id":"mg-3125101","polling_places":1,"approx":true,"official":false,"method":"voronoi-polling-places","whole_municipality":false,"approx_coords_only":false},"geometry":{"type":"MultiPolygon","coordinates":[[[[-46.3763,-22.8771],[-46.3449,-22.9052],[-46.33091,-22.89949],[-46.36056,-22.85152],[-46.37508,-22.83842],[-46.3763,-22.8771]]]]}},{"type":"Feature","properties":{"territory_id":"mg-3125101-ponte-nova","name":"Ponte Nova","municipality_id":"mg-3125101","polling_places":1,"approx":true,"official":false,"method":"voronoi-polling-places","whole_municipality":false,"approx_coords_only":false},"geometry":{"type":"MultiPolygon","coordinates":[[[[-46.37508,-22.83842],[-46.36056,-22.85152],[-46.3296,-22.851],[-46.32845,-22.85079],[-46.32685,-22.84983],[-46.3243,-22.84537],[-46.32296,-22.83942],[-46.36668,-22.80108],[-46.3745,-22.8202],[-46.37508,-22.83842]]]]}},{"type":"Feature","properties":{"territory_id":"mg-3125101-roseira","name":"Roseira","municipality_id":"mg-3125101","polling_places":1,"approx":true,"official":false,"method":"voronoi-polling-places","whole_municipality":false,"approx_coords_only":false},"geometry":{"type":"MultiPolygon","coordinates":[[[[-46.30533,-22.80106],[-46.29598,-22.82723],[-46.25965,-22.85659],[-46.23287,-22.79605],[-46.23824,-22.7814],[-46.30533,-22.80106]]]]}},{"type":"Feature","properties":{"territory_id":"mg-3125101-salto-de-cima","name":"Salto de Cima","municipality_id":"mg-3125101","polling_places":1,"approx":true,"official":false,"method":"voronoi-polling-places","whole_municipality":false,"approx_coords_only":false},"geometry":{"type":"MultiPolygon","coordinates":[[[[-46.25965,-22.85659],[-46.25402,-22.88957],[-46.1922,-22.8652],[-46.1685,-22.8377],[-46.229,-22.8066],[-46.23287,-22.79605],[-46.25965,-22.85659]]]]}},{"type":"Feature","properties":{"territory_id":"mg-3125101-tenentes-ii","name":"Tenentes Ii","municipality_id":"mg-3125101","polling_places":1,"approx":true,"official":false,"method":"voronoi-polling-places","whole_municipality":false,"approx_coords_only":false},"geometry":{"type":"MultiPolygon","coordinates":[[[[-46.36668,-22.80108],[-46.32296,-22.83942],[-46.30305,-22.83416],[-46.29598,-22.82723],[-46.30533,-22.80106],[-46.34673,-22.77717],[-46.3617,-22.7889],[-46.36668,-22.80108]]]]}},{"type":"Feature","properties":{"territory_id":"mg-3125101-vila-rica","name":"Vila Rica","municipality_id":"mg-3125101","polling_places":1,"approx":true,"official":false,"method":"voronoi-polling-places","whole_municipality":false,"approx_coords_only":false},"geometry":{"type":"MultiPolygon","coordinates":[[[[-46.31023,-22.84888],[-46.30893,-22.85535],[-46.29241,-22.88378],[-46.279,-22.8783],[-46.2574,-22.8909],[-46.25402,-22.88957],[-46.25965,-22.85659],[-46.29598,-22.82723],[-46.30305,-22.83416],[-46.30957,-22.84666],[-46.31023,-22.84888]]]]}}]}