{"type":"FeatureCollection","features":[{"type":"Feature","properties":{"territory_id":"mg-3125200-centro","name":"Centro","municipality_id":"mg-3125200","polling_places":1,"approx":true,"official":false,"method":"voronoi-polling-places","whole_municipality":false,"approx_coords_only":true},"geometry":{"type":"MultiPolygon","coordinates":[[[[-45.84255,-21.41364],[-45.81982,-21.46904],[-45.80328,-21.50933],[-45.7642,-21.4229],[-45.8314,-21.3936],[-45.84255,-21.41364]]]]}},{"type":"Feature","properties":{"territory_id":"mg-3125200-dos-rochas","name":"Dos Rochas","municipality_id":"mg-3125200","polling_places":1,"approx":true,"official":false,"method":"voronoi-polling-places","whole_municipality":false,"approx_coords_only":false},"geometry":{"type":"MultiPolygon","coordinates":[[[[-45.8585,-21.4779],[-45.8557,-21.5181],[-45.8138,-21.5326],[-45.80328,-21.50933],[-45.81982,-21.46904],[-45.84255,-21.41364],[-45.8442,-21.4166],[-45.8345,-21.4607],[-45.8585,-21.4779]]]]}}]}