{"type":"FeatureCollection","features":[{"type":"Feature","properties":{"territory_id":"mg-3125408-centro","name":"Centro","municipality_id":"mg-3125408","polling_places":1,"approx":true,"official":false,"method":"voronoi-polling-places","whole_municipality":false,"approx_coords_only":false},"geometry":{"type":"MultiPolygon","coordinates":[[[[-43.3144,-18.0444],[-43.3047,-18.1113],[-43.31392,-18.13374],[-43.19512,-18.10593],[-43.22302,-18.02741],[-43.2685,-18.0405],[-43.2809,-18.0227],[-43.3144,-18.0444]]]]}},{"type":"Feature","properties":{"territory_id":"mg-3125408-real","name":"Real","municipality_id":"mg-3125408","polling_places":1,"approx":true,"official":false,"method":"voronoi-polling-places","whole_municipality":false,"approx_coords_only":false},"geometry":{"type":"MultiPolygon","coordinates":[[[[-43.3206,-18.15],[-43.3035,-18.1965],[-43.3205,-18.2377],[-43.273,-18.2525],[-43.2386,-18.2749],[-43.221,-18.2406],[-43.2346,-18.2186],[-43.1859,-18.2004],[-43.1846,-18.1784],[-43.15022,-18.12781],[-43.19512,-18.10593],[-43.31392,-18.13374],[-43.3206,-18.15]]]]}},{"type":"Feature","properties":{"territory_id":"mg-3125408-sao-jose-da-cachoeira","name":"São José da Cachoeira","municipality_id":"mg-3125408","polling_places":1,"approx":true,"official":false,"method":"voronoi-polling-places","whole_municipality":false,"approx_coords_only":false},"geometry":{"type":"MultiPolygon","coordinates":[[[[-43.22302,-18.02741],[-43.19512,-18.10593],[-43.15022,-18.12781],[-43.1373,-18.1088],[-43.1601,-18.0851],[-43.1657,-18.0374],[-43.1976,-18.0201],[-43.22302,-18.02741]]]]}}]}