{"type":"FeatureCollection","features":[{"type":"Feature","properties":{"territory_id":"mg-3125903-borba-gato","name":"Borba Gato","municipality_id":"mg-3125903","polling_places":1,"approx":true,"official":false,"method":"voronoi-polling-places","whole_municipality":false,"approx_coords_only":false},"geometry":{"type":"MultiPolygon","coordinates":[[[[-43.05647,-19.06497],[-43.02114,-19.17003],[-42.97221,-19.17538],[-42.95986,-19.1433],[-42.9897,-19.1241],[-42.9957,-19.103],[-43.0427,-19.0681],[-43.05647,-19.06497]]]]}},{"type":"Feature","properties":{"territory_id":"mg-3125903-centro","name":"Centro","municipality_id":"mg-3125903","polling_places":1,"approx":true,"official":false,"method":"voronoi-polling-places","whole_municipality":false,"approx_coords_only":false},"geometry":{"type":"MultiPolygon","coordinates":[[[[-43.09187,-19.22255],[-43.05655,-19.25927],[-43.02427,-19.24351],[-43.02004,-19.22994],[-43.05904,-19.18961],[-43.06978,-19.19459],[-43.09187,-19.22255]]]]}},{"type":"Feature","properties":{"territory_id":"mg-3125903-cubas","name":"Cubas","municipality_id":"mg-3125903","polling_places":1,"approx":true,"official":false,"method":"voronoi-polling-places","whole_municipality":false,"approx_coords_only":false},"geometry":{"type":"MultiPolygon","coordinates":[[[[-42.85223,-19.27794],[-42.78654,-19.40206],[-42.742,-19.3553],[-42.727,-19.3204],[-42.7439,-19.282],[-42.7462,-19.2253],[-42.7756,-19.2152],[-42.78824,-19.19509],[-42.85223,-19.27794]]],[[[-42.75681,-19.1544],[-42.7486,-19.1524],[-42.7474,-19.15],[-42.75404,-19.15081],[-42.75681,-19.1544]]]]}},{"type":"Feature","properties":{"territory_id":"mg-3125903-esmeraldas-de-ferros","name":"Esmeraldas de Ferros","municipality_id":"mg-3125903","polling_places":1,"approx":true,"official":false,"method":"voronoi-polling-places","whole_municipality":false,"approx_coords_only":false},"geometry":{"type":"MultiPolygon","coordinates":[[[[-42.95555,-19.30776],[-42.942,-19.3208],[-42.8974,-19.4295],[-42.8767,-19.4322],[-42.8205,-19.4089],[-42.7921,-19.4079],[-42.78654,-19.40206],[-42.85223,-19.27794],[-42.93698,-19.27794],[-42.95555,-19.30776]]]]}},{"type":"Feature","properties":{"territory_id":"mg-3125903-santa-luzia","name":"Santa Luzia","municipality_id":"mg-3125903","polling_places":1,"approx":true,"official":false,"method":"voronoi-polling-places","whole_municipality":false,"approx_coords_only":false},"geometry":{"type":"MultiPolygon","coordinates":[[[[-43.05904,-19.18961],[-43.02004,-19.22994],[-42.99504,-19.23336],[-42.94823,-19.22157],[-42.94869,-19.21054],[-42.97221,-19.17538],[-43.02114,-19.17003],[-43.05904,-19.18961]]]]}},{"type":"Feature","properties":{"territory_id":"mg-3125903-santa-rita-de-cassia","name":"Santa Rita de Cássia","municipality_id":"mg-3125903","polling_places":1,"approx":true,"official":false,"method":"voronoi-polling-places","whole_municipality":false,"approx_coords_only":false},"geometry":{"type":"MultiPolygon","coordinates":[[[[-43.05655,-19.25927],[-43.03633,-19.29307],[-43.01232,-19.3098],[-42.9578,-19.3056],[-42.95555,-19.30776],[-42.93698,-19.27794],[-42.94823,-19.22157],[-42.99504,-19.23336],[-43.02427,-19.24351],[-43.05655,-19.25927]]]]}},{"type":"Feature","properties":{"territory_id":"mg-3125903-santa-rita-do-rio-do-peixe","name":"Santa Rita do Rio do Peixe","municipality_id":"mg-3125903","polling_places":3,"approx":true,"official":false,"method":"voronoi-polling-places","whole_municipality":false,"approx_coords_only":false},"geometry":{"type":"MultiPolygon","coordinates":[[[[-43.1635,-19.1146],[-43.1179,-19.1977],[-43.12393,-19.22979],[-43.09187,-19.22255],[-43.06978,-19.19459],[-43.05904,-19.18961],[-43.02114,-19.17003],[-43.05647,-19.06497],[-43.0783,-19.06],[-43.0944,-19.1061],[-43.1635,-19.1146]]]]}},{"type":"Feature","properties":{"territory_id":"mg-3125903-santo-antonio-da-fortaleza","name":"Santo Antônio da Fortaleza","municipality_id":"mg-3125903","polling_places":1,"approx":true,"official":false,"method":"voronoi-polling-places","whole_municipality":false,"approx_coords_only":false},"geometry":{"type":"MultiPolygon","coordinates":[[[[-42.97221,-19.17538],[-42.94869,-19.21054],[-42.82215,-19.1591],[-42.823,-19.1592],[-42.873,-19.1212],[-42.9036,-19.1096],[-42.9341,-19.1192],[-42.9468,-19.1517],[-42.95986,-19.1433],[-42.97221,-19.17538]]]]}},{"type":"Feature","properties":{"territory_id":"mg-3125903-sao-geraldo","name":"São Geraldo","municipality_id":"mg-3125903","polling_places":1,"approx":true,"official":false,"method":"voronoi-polling-places","whole_municipality":false,"approx_coords_only":false},"geometry":{"type":"MultiPolygon","coordinates":[[[[-43.02427,-19.24351],[-42.99504,-19.23336],[-43.02004,-19.22994],[-43.02427,-19.24351]]]]}},{"type":"Feature","properties":{"territory_id":"mg-3125903-sete-cachoeiras","name":"Sete Cachoeiras","municipality_id":"mg-3125903","polling_places":2,"approx":true,"official":false,"method":"voronoi-polling-places","whole_municipality":false,"approx_coords_only":false},"geometry":{"type":"MultiPolygon","coordinates":[[[[-42.94869,-19.21054],[-42.94823,-19.22157],[-42.93698,-19.27794],[-42.85223,-19.27794],[-42.78824,-19.19509],[-42.7925,-19.1883],[-42.781,-19.1603],[-42.75681,-19.1544],[-42.75404,-19.15081],[-42.82215,-19.1591],[-42.94869,-19.21054]]]]}},{"type":"Feature","properties":{"territory_id":"mg-3125903-zona-rural","name":"Zona Rural","municipality_id":"mg-3125903","polling_places":2,"approx":true,"official":false,"method":"voronoi-polling-places","whole_municipality":false,"approx_coords_only":false},"geometry":{"type":"MultiPolygon","coordinates":[[[[-43.1494,-19.3128],[-43.1398,-19.3345],[-43.1077,-19.338],[-43.1027,-19.3818],[-43.0792,-19.3711],[-43.0686,-19.3299],[-43.0448,-19.3123],[-43.01232,-19.3098],[-43.03633,-19.29307],[-43.05655,-19.25927],[-43.09187,-19.22255],[-43.12393,-19.22979],[-43.1253,-19.2371],[-43.1289,-19.284],[-43.1494,-19.3128]]]]}}]}