{"type":"FeatureCollection","features":[{"type":"Feature","properties":{"territory_id":"mg-3125507-centro","name":"Centro","municipality_id":"mg-3125507","polling_places":1,"approx":true,"official":false,"method":"voronoi-polling-places","whole_municipality":false,"approx_coords_only":false},"geometry":{"type":"MultiPolygon","coordinates":[[[[-43.44693,-18.03633],[-43.33985,-18.0251],[-43.4219,-17.97867],[-43.44693,-18.03633]]]]}},{"type":"Feature","properties":{"territory_id":"mg-3125507-pequizeiro","name":"Pequizeiro","municipality_id":"mg-3125507","polling_places":1,"approx":true,"official":false,"method":"voronoi-polling-places","whole_municipality":false,"approx_coords_only":false},"geometry":{"type":"MultiPolygon","coordinates":[[[[-43.4219,-17.97867],[-43.33985,-18.0251],[-43.2813,-18.02296],[-43.2809,-18.0227],[-43.2939,-17.9961],[-43.325,-18.0063],[-43.3205,-17.9544],[-43.3533,-17.9425],[-43.4082,-17.9471],[-43.4219,-17.97867]]]]}},{"type":"Feature","properties":{"territory_id":"mg-3125507-zona-rural","name":"Zona Rural","municipality_id":"mg-3125507","polling_places":1,"approx":true,"official":false,"method":"voronoi-polling-places","whole_municipality":false,"approx_coords_only":false},"geometry":{"type":"MultiPolygon","coordinates":[[[[-43.4497,-18.0427],[-43.3974,-18.0861],[-43.3609,-18.1008],[-43.3914,-18.154],[-43.3738,-18.2339],[-43.3205,-18.2377],[-43.3035,-18.1965],[-43.3206,-18.15],[-43.3047,-18.1113],[-43.3144,-18.0444],[-43.2813,-18.02296],[-43.33985,-18.0251],[-43.44693,-18.03633],[-43.4497,-18.0427]]]]}}]}