{"type":"FeatureCollection","features":[{"type":"Feature","properties":{"territory_id":"mg-3125804-centro","name":"Centro","municipality_id":"mg-3125804","polling_places":2,"approx":true,"official":false,"method":"voronoi-polling-places","whole_municipality":false,"approx_coords_only":false},"geometry":{"type":"MultiPolygon","coordinates":[[[[-42.12654,-19.14494],[-42.1154,-19.1898],[-42.0557,-19.1581],[-42.0381,-19.1191],[-42.0468,-19.1019],[-42.0238,-19.07],[-42.05058,-19.04724],[-42.12529,-19.14339],[-42.12654,-19.14494]]]]}},{"type":"Feature","properties":{"territory_id":"mg-3125804-senhora-da-penha","name":"Senhora da Penha","municipality_id":"mg-3125804","polling_places":1,"approx":true,"official":false,"method":"voronoi-polling-places","whole_municipality":false,"approx_coords_only":false},"geometry":{"type":"MultiPolygon","coordinates":[[[[-42.1778,-19.1208],[-42.1296,-19.1326],[-42.12654,-19.14494],[-42.12529,-19.14339],[-42.05058,-19.04724],[-42.0538,-19.0445],[-42.0899,-19.0525],[-42.1266,-19.025],[-42.1356,-19.0363],[-42.1329,-19.0586],[-42.1778,-19.1208]]]]}}]}