{"type":"FeatureCollection","features":[{"type":"Feature","properties":{"territory_id":"mg-3125952-bom-jesus-do-madeira","name":"Bom Jesus do Madeira","municipality_id":"mg-3125952","polling_places":1,"approx":true,"official":false,"method":"voronoi-polling-places","whole_municipality":false,"approx_coords_only":false},"geometry":{"type":"MultiPolygon","coordinates":[[[[-42.4799,-20.7215],[-42.471,-20.75],[-42.4171,-20.7688],[-42.3909,-20.7581],[-42.38379,-20.76282],[-42.41365,-20.65945],[-42.4799,-20.7215]]]]}},{"type":"Feature","properties":{"territory_id":"mg-3125952-centro","name":"Centro","municipality_id":"mg-3125952","polling_places":4,"approx":true,"official":false,"method":"voronoi-polling-places","whole_municipality":false,"approx_coords_only":false},"geometry":{"type":"MultiPolygon","coordinates":[[[[-42.33776,-20.76278],[-42.2947,-20.7356],[-42.2472,-20.7371],[-42.2161,-20.6662],[-42.23465,-20.65447],[-42.25923,-20.66108],[-42.31415,-20.67565],[-42.31972,-20.69832],[-42.33776,-20.76278]]]]}},{"type":"Feature","properties":{"territory_id":"mg-3125952-samambaia","name":"Samambaia","municipality_id":"mg-3125952","polling_places":1,"approx":true,"official":false,"method":"voronoi-polling-places","whole_municipality":false,"approx_coords_only":false},"geometry":{"type":"MultiPolygon","coordinates":[[[[-42.40237,-20.62353],[-42.31415,-20.67565],[-42.25923,-20.66108],[-42.23465,-20.65447],[-42.2482,-20.6459],[-42.2634,-20.6151],[-42.2966,-20.5854],[-42.3582,-20.5789],[-42.3791,-20.589],[-42.40237,-20.62353]]]]}},{"type":"Feature","properties":{"territory_id":"mg-3125952-sao-pedro-do-gloria","name":"Sao Pedro do Gloria","municipality_id":"mg-3125952","polling_places":1,"approx":true,"official":false,"method":"voronoi-polling-places","whole_municipality":false,"approx_coords_only":false},"geometry":{"type":"MultiPolygon","coordinates":[[[[-42.41365,-20.65945],[-42.38379,-20.76282],[-42.3614,-20.7777],[-42.33776,-20.76278],[-42.31972,-20.69832],[-42.31415,-20.67565],[-42.40237,-20.62353],[-42.4101,-20.635],[-42.4089,-20.655],[-42.41365,-20.65945]]]]}}]}