{"type":"FeatureCollection","features":[{"type":"Feature","properties":{"territory_id":"mg-3125309-cafarnaum","name":"Cafarnaum","municipality_id":"mg-3125309","polling_places":1,"approx":true,"official":false,"method":"voronoi-polling-places","whole_municipality":false,"approx_coords_only":false},"geometry":{"type":"MultiPolygon","coordinates":[[[[-42.1722,-20.7857],[-42.1024,-20.805],[-42.06547,-20.80627],[-42.04502,-20.74486],[-42.0475,-20.7419],[-42.0858,-20.7307],[-42.1459,-20.7495],[-42.1722,-20.7857]]]]}},{"type":"Feature","properties":{"territory_id":"mg-3125309-centro","name":"Centro","municipality_id":"mg-3125309","polling_places":2,"approx":true,"official":false,"method":"voronoi-polling-places","whole_municipality":false,"approx_coords_only":false},"geometry":{"type":"MultiPolygon","coordinates":[[[[-42.06547,-20.80627],[-42.0386,-20.8072],[-41.9297,-20.8436],[-41.9282,-20.794],[-41.9268,-20.7437],[-41.9682,-20.7326],[-41.9674,-20.7551],[-42.0204,-20.7743],[-42.04502,-20.74486],[-42.06547,-20.80627]]]]}}]}