{"type":"FeatureCollection","features":[{"type":"Feature","properties":{"territory_id":"mg-3126406-centro","name":"Centro","municipality_id":"mg-3126406","polling_places":2,"approx":true,"official":false,"method":"voronoi-polling-places","whole_municipality":false,"approx_coords_only":false},"geometry":{"type":"MultiPolygon","coordinates":[[[[-44.48727,-19.63731],[-44.4485,-19.6312],[-44.408,-19.6376],[-44.4004,-19.5891],[-44.4466,-19.5442],[-44.45011,-19.54473],[-44.44747,-19.56086],[-44.44731,-19.56176],[-44.44747,-19.56175],[-44.48488,-19.56044],[-44.48727,-19.63731]]]]}},{"type":"Feature","properties":{"territory_id":"mg-3126406-povoado-corrego-de-areia","name":"Povoado Corrego de Areia","municipality_id":"mg-3126406","polling_places":1,"approx":true,"official":false,"method":"voronoi-polling-places","whole_municipality":false,"approx_coords_only":false},"geometry":{"type":"MultiPolygon","coordinates":[[[[-44.5791,-19.5075],[-44.5579,-19.5367],[-44.5699,-19.5618],[-44.546,-19.5862],[-44.5652,-19.6042],[-44.5408,-19.6069],[-44.498,-19.639],[-44.48727,-19.63731],[-44.48488,-19.56044],[-44.48464,-19.54997],[-44.4901,-19.5508],[-44.5221,-19.5115],[-44.5142,-19.4839],[-44.5418,-19.428],[-44.5501,-19.4264],[-44.5541,-19.4307],[-44.5791,-19.5075]]]]}},{"type":"Feature","properties":{"territory_id":"mg-3126406-povoado-de-beira-corrego","name":"Povoado de Beira Córrego","municipality_id":"mg-3126406","polling_places":1,"approx":true,"official":false,"method":"voronoi-polling-places","whole_municipality":false,"approx_coords_only":false},"geometry":{"type":"MultiPolygon","coordinates":[[[[-44.44747,-19.56175],[-44.44731,-19.56176],[-44.44747,-19.56086],[-44.44747,-19.56175]]]]}},{"type":"Feature","properties":{"territory_id":"mg-3126406-povoado-de-tres-barras","name":"Povoado de Tres Barras","municipality_id":"mg-3126406","polling_places":1,"approx":true,"official":false,"method":"voronoi-polling-places","whole_municipality":false,"approx_coords_only":false},"geometry":{"type":"MultiPolygon","coordinates":[[[[-44.48488,-19.56044],[-44.44747,-19.56175],[-44.44747,-19.56086],[-44.45011,-19.54473],[-44.48464,-19.54997],[-44.48488,-19.56044]]]]}}]}