{"type":"FeatureCollection","features":[{"type":"Feature","properties":{"territory_id":"mg-3126703-alfredo-dias","name":"Alfredo Dias","municipality_id":"mg-3126703","polling_places":2,"approx":true,"official":false,"method":"voronoi-polling-places","whole_municipality":false,"approx_coords_only":false},"geometry":{"type":"MultiPolygon","coordinates":[[[[-43.51647,-16.53236],[-43.49663,-16.5528],[-43.49505,-16.48284],[-43.49487,-16.48225],[-43.49603,-16.47543],[-43.50203,-16.46408],[-43.50167,-16.47587],[-43.51647,-16.53236]]]]}},{"type":"Feature","properties":{"territory_id":"mg-3126703-centro","name":"Centro","municipality_id":"mg-3126703","polling_places":3,"approx":true,"official":false,"method":"voronoi-polling-places","whole_municipality":false,"approx_coords_only":false},"geometry":{"type":"MultiPolygon","coordinates":[[[[-43.50943,-16.42836],[-43.50203,-16.46408],[-43.49603,-16.47543],[-43.49487,-16.48225],[-43.49238,-16.47932],[-43.48711,-16.47747],[-43.48958,-16.47433],[-43.50943,-16.42836]]]]}},{"type":"Feature","properties":{"territory_id":"mg-3126703-comunidade-de-baixa-do-charquinho","name":"Comunidade de Baixa do Charquinho","municipality_id":"mg-3126703","polling_places":1,"approx":true,"official":false,"method":"voronoi-polling-places","whole_municipality":false,"approx_coords_only":false},"geometry":{"type":"MultiPolygon","coordinates":[[[[-43.56084,-16.32201],[-43.47401,-16.35631],[-43.45788,-16.31244],[-43.47504,-16.29055],[-43.53447,-16.28804],[-43.54907,-16.29612],[-43.56084,-16.32201]]]]}},{"type":"Feature","properties":{"territory_id":"mg-3126703-comunidade-de-boa-sorte","name":"Comunidade de Boa Sorte","municipality_id":"mg-3126703","polling_places":1,"approx":true,"official":false,"method":"voronoi-polling-places","whole_municipality":false,"approx_coords_only":false},"geometry":{"type":"MultiPolygon","coordinates":[[[[-43.67462,-16.34325],[-43.60625,-16.3469],[-43.56084,-16.32201],[-43.54907,-16.29612],[-43.57705,-16.18678],[-43.6735,-16.2968],[-43.67462,-16.34325]]]]}},{"type":"Feature","properties":{"territory_id":"mg-3126703-comunidade-de-brejao-e-mingau","name":"Comunidade de Brejão e Mingau","municipality_id":"mg-3126703","polling_places":1,"approx":true,"official":false,"method":"voronoi-polling-places","whole_municipality":false,"approx_coords_only":false},"geometry":{"type":"MultiPolygon","coordinates":[[[[-43.42535,-16.16462],[-43.38015,-16.2404],[-43.3517,-16.24436],[-43.38318,-16.13602],[-43.42287,-16.15742],[-43.42535,-16.16462]]]]}},{"type":"Feature","properties":{"territory_id":"mg-3126703-comunidade-de-jacare","name":"Comunidade de Jacaré","municipality_id":"mg-3126703","polling_places":1,"approx":true,"official":false,"method":"voronoi-polling-places","whole_municipality":false,"approx_coords_only":false},"geometry":{"type":"MultiPolygon","coordinates":[[[[-43.57705,-16.18678],[-43.54907,-16.29612],[-43.53447,-16.28804],[-43.48368,-16.22405],[-43.55758,-16.16456],[-43.57705,-16.18678]]]]}},{"type":"Feature","properties":{"territory_id":"mg-3126703-comunidade-de-pocinho","name":"Comunidade de Pocinho","municipality_id":"mg-3126703","polling_places":1,"approx":true,"official":false,"method":"voronoi-polling-places","whole_municipality":false,"approx_coords_only":false},"geometry":{"type":"MultiPolygon","coordinates":[[[[-43.55758,-16.16456],[-43.48368,-16.22405],[-43.47952,-16.22518],[-43.45594,-16.22175],[-43.42535,-16.16462],[-43.42287,-16.15742],[-43.53205,-16.11085],[-43.5378,-16.142],[-43.55758,-16.16456]]]]}},{"type":"Feature","properties":{"territory_id":"mg-3126703-distrito-de-cana-brava","name":"Distrito de Cana Brava","municipality_id":"mg-3126703","polling_places":1,"approx":true,"official":false,"method":"voronoi-polling-places","whole_municipality":false,"approx_coords_only":false},"geometry":{"type":"MultiPolygon","coordinates":[[[[-43.47401,-16.35631],[-43.45687,-16.39672],[-43.41292,-16.40748],[-43.36687,-16.31695],[-43.43332,-16.29914],[-43.45788,-16.31244],[-43.47401,-16.35631]]]]}},{"type":"Feature","properties":{"territory_id":"mg-3126703-distrito-de-catuni","name":"Distrito de Catuni","municipality_id":"mg-3126703","polling_places":3,"approx":true,"official":false,"method":"voronoi-polling-places","whole_municipality":false,"approx_coords_only":false},"geometry":{"type":"MultiPolygon","coordinates":[[[[-43.41292,-16.40748],[-43.39116,-16.43151],[-43.3757,-16.4112],[-43.3563,-16.427],[-43.29812,-16.42161],[-43.28721,-16.31844],[-43.27614,-16.31596],[-43.2194,-16.30457],[-43.26453,-16.17641],[-43.26725,-16.16794],[-43.3406,-16.25256],[-43.32985,-16.29384],[-43.36687,-16.31695],[-43.41292,-16.40748]]]]}},{"type":"Feature","properties":{"territory_id":"mg-3126703-joao-goncalves","name":"João Gonçalves","municipality_id":"mg-3126703","polling_places":2,"approx":true,"official":false,"method":"voronoi-polling-places","whole_municipality":false,"approx_coords_only":false},"geometry":{"type":"MultiPolygon","coordinates":[[[[-43.50994,-16.42658],[-43.50943,-16.42836],[-43.48958,-16.47433],[-43.48711,-16.47747],[-43.48095,-16.4811],[-43.47847,-16.48347],[-43.4789,-16.41225],[-43.50177,-16.42312],[-43.50994,-16.42658]]]]}},{"type":"Feature","properties":{"territory_id":"mg-3126703-jose-maria-alkimin","name":"José Maria Alkimin","municipality_id":"mg-3126703","polling_places":1,"approx":true,"official":false,"method":"voronoi-polling-places","whole_municipality":false,"approx_coords_only":false},"geometry":{"type":"MultiPolygon","coordinates":[[[[-43.4789,-16.41225],[-43.47847,-16.48347],[-43.4604,-16.51487],[-43.47222,-16.40858],[-43.4789,-16.41225]]]]}},{"type":"Feature","properties":{"territory_id":"mg-3126703-juquinha-dias","name":"Juquinha Dias","municipality_id":"mg-3126703","polling_places":1,"approx":true,"official":false,"method":"voronoi-polling-places","whole_municipality":false,"approx_coords_only":false},"geometry":{"type":"MultiPolygon","coordinates":[[[[-43.56751,-16.48568],[-43.51647,-16.53236],[-43.50167,-16.47587],[-43.50203,-16.46408],[-43.50943,-16.42836],[-43.50994,-16.42658],[-43.54064,-16.43298],[-43.56751,-16.48568]]]]}},{"type":"Feature","properties":{"territory_id":"mg-3126703-parque-jardim-brejo-das-almas","name":"Parque Jardim Brejo das Almas","municipality_id":"mg-3126703","polling_places":1,"approx":true,"official":false,"method":"voronoi-polling-places","whole_municipality":false,"approx_coords_only":false},"geometry":{"type":"MultiPolygon","coordinates":[[[[-43.47222,-16.40858],[-43.4604,-16.51487],[-43.43507,-16.5946],[-43.432,-16.5805],[-43.4367,-16.5536],[-43.4088,-16.5172],[-43.4171,-16.492],[-43.405,-16.4497],[-43.39116,-16.43151],[-43.41292,-16.40748],[-43.45687,-16.39672],[-43.47222,-16.40858]]]]}},{"type":"Feature","properties":{"territory_id":"mg-3126703-povoado","name":"Povoado","municipality_id":"mg-3126703","polling_places":1,"approx":true,"official":false,"method":"voronoi-polling-places","whole_municipality":false,"approx_coords_only":false},"geometry":{"type":"MultiPolygon","coordinates":[[[[-43.748,-16.58187],[-43.73403,-16.60961],[-43.61519,-16.6455],[-43.65593,-16.55728],[-43.748,-16.58187]]]]}},{"type":"Feature","properties":{"territory_id":"mg-3126703-povoado-de-camarinhas","name":"Povoado de Camarinhas","municipality_id":"mg-3126703","polling_places":1,"approx":true,"official":false,"method":"voronoi-polling-places","whole_municipality":false,"approx_coords_only":false},"geometry":{"type":"MultiPolygon","coordinates":[[[[-43.7616,-16.5336],[-43.7406,-16.5441],[-43.7497,-16.5785],[-43.748,-16.58187],[-43.65593,-16.55728],[-43.62526,-16.53462],[-43.61304,-16.49701],[-43.69483,-16.4156],[-43.6962,-16.4164],[-43.7468,-16.4052],[-43.7364,-16.4839],[-43.7586,-16.5012],[-43.7616,-16.5336]]]]}},{"type":"Feature","properties":{"territory_id":"mg-3126703-povoado-de-cedro","name":"Povoado de Cedro","municipality_id":"mg-3126703","polling_places":1,"approx":true,"official":false,"method":"voronoi-polling-places","whole_municipality":false,"approx_coords_only":false},"geometry":{"type":"MultiPolygon","coordinates":[[[[-43.29812,-16.42161],[-43.2851,-16.4204],[-43.2131,-16.3839],[-43.1927,-16.3894],[-43.1656,-16.3608],[-43.15988,-16.31136],[-43.2194,-16.30457],[-43.27614,-16.31596],[-43.28721,-16.31844],[-43.29812,-16.42161]]]]}},{"type":"Feature","properties":{"territory_id":"mg-3126703-povoado-de-charquinho","name":"Povoado de Charquinho","municipality_id":"mg-3126703","polling_places":1,"approx":true,"official":false,"method":"voronoi-polling-places","whole_municipality":false,"approx_coords_only":false},"geometry":{"type":"MultiPolygon","coordinates":[[[[-43.43332,-16.29914],[-43.36687,-16.31695],[-43.32985,-16.29384],[-43.3406,-16.25256],[-43.3517,-16.24436],[-43.38015,-16.2404],[-43.42856,-16.24162],[-43.43332,-16.29914]]]]}},{"type":"Feature","properties":{"territory_id":"mg-3126703-povoado-de-coqueiro","name":"Povoado de Coqueiro","municipality_id":"mg-3126703","polling_places":1,"approx":true,"official":false,"method":"voronoi-polling-places","whole_municipality":false,"approx_coords_only":false},"geometry":{"type":"MultiPolygon","coordinates":[[[[-43.65593,-16.55728],[-43.61519,-16.6455],[-43.49033,-16.73924],[-43.4934,-16.7305],[-43.4733,-16.70817],[-43.62526,-16.53462],[-43.65593,-16.55728]]]]}},{"type":"Feature","properties":{"territory_id":"mg-3126703-povoado-de-furado-dantas","name":"Povoado de Furado Dantas","municipality_id":"mg-3126703","polling_places":1,"approx":true,"official":false,"method":"voronoi-polling-places","whole_municipality":false,"approx_coords_only":false},"geometry":{"type":"MultiPolygon","coordinates":[[[[-43.53447,-16.28804],[-43.47504,-16.29055],[-43.47952,-16.22518],[-43.48368,-16.22405],[-43.53447,-16.28804]]]]}},{"type":"Feature","properties":{"territory_id":"mg-3126703-povoado-de-junco","name":"Povoado de Junco","municipality_id":"mg-3126703","polling_places":1,"approx":true,"official":false,"method":"voronoi-polling-places","whole_municipality":false,"approx_coords_only":false},"geometry":{"type":"MultiPolygon","coordinates":[[[[-43.60625,-16.3469],[-43.54064,-16.43298],[-43.50994,-16.42658],[-43.50177,-16.42312],[-43.4789,-16.41225],[-43.47222,-16.40858],[-43.45687,-16.39672],[-43.47401,-16.35631],[-43.56084,-16.32201],[-43.60625,-16.3469]]]]}},{"type":"Feature","properties":{"territory_id":"mg-3126703-povoado-de-mocambinho","name":"Povoado de Mocambinho","municipality_id":"mg-3126703","polling_places":1,"approx":true,"official":false,"method":"voronoi-polling-places","whole_municipality":false,"approx_coords_only":false},"geometry":{"type":"MultiPolygon","coordinates":[[[[-43.73403,-16.60961],[-43.7018,-16.6736],[-43.7037,-16.6914],[-43.6678,-16.7251],[-43.6231,-16.7107],[-43.5632,-16.7306],[-43.5427,-16.7485],[-43.5057,-16.8089],[-43.4872,-16.8147],[-43.4753,-16.7821],[-43.49033,-16.73924],[-43.61519,-16.6455],[-43.73403,-16.60961]]]]}},{"type":"Feature","properties":{"territory_id":"mg-3126703-povoado-de-pocoes","name":"Povoado de Poções","municipality_id":"mg-3126703","polling_places":1,"approx":true,"official":false,"method":"voronoi-polling-places","whole_municipality":false,"approx_coords_only":false},"geometry":{"type":"MultiPolygon","coordinates":[[[[-43.45594,-16.22175],[-43.42856,-16.24162],[-43.38015,-16.2404],[-43.42535,-16.16462],[-43.45594,-16.22175]]]]}},{"type":"Feature","properties":{"territory_id":"mg-3126703-povoado-de-santo-andre","name":"Povoado de Santo André","municipality_id":"mg-3126703","polling_places":1,"approx":true,"official":false,"method":"voronoi-polling-places","whole_municipality":false,"approx_coords_only":false},"geometry":{"type":"MultiPolygon","coordinates":[[[[-43.38318,-16.13602],[-43.3517,-16.24436],[-43.3406,-16.25256],[-43.26725,-16.16794],[-43.25391,-16.13056],[-43.2603,-16.1211],[-43.2995,-16.1293],[-43.3342,-16.1164],[-43.3724,-16.1215],[-43.37297,-16.12077],[-43.38318,-16.13602]]]]}},{"type":"Feature","properties":{"territory_id":"mg-3126703-povoado-de-santos-reis","name":"Povoado de Santos Reis","municipality_id":"mg-3126703","polling_places":1,"approx":true,"official":false,"method":"voronoi-polling-places","whole_municipality":false,"approx_coords_only":false},"geometry":{"type":"MultiPolygon","coordinates":[[[[-43.26725,-16.16794],[-43.26453,-16.17641],[-43.2194,-16.30457],[-43.15988,-16.31136],[-43.1573,-16.2891],[-43.1326,-16.2323],[-43.1566,-16.2074],[-43.2351,-16.1584],[-43.25391,-16.13056],[-43.26725,-16.16794]]]]}},{"type":"Feature","properties":{"territory_id":"mg-3126703-povoado-de-sao-geraldo","name":"Povoado de São Geraldo","municipality_id":"mg-3126703","polling_places":1,"approx":true,"official":false,"method":"voronoi-polling-places","whole_municipality":false,"approx_coords_only":false},"geometry":{"type":"MultiPolygon","coordinates":[[[[-43.53205,-16.11085],[-43.42287,-16.15742],[-43.38318,-16.13602],[-43.37297,-16.12077],[-43.3893,-16.0999],[-43.4624,-16.0836],[-43.49,-16.0974],[-43.5276,-16.0867],[-43.53205,-16.11085]]]]}},{"type":"Feature","properties":{"territory_id":"mg-3126703-povoado-de-sao-paulino","name":"Povoado de São Paulino","municipality_id":"mg-3126703","polling_places":1,"approx":true,"official":false,"method":"voronoi-polling-places","whole_municipality":false,"approx_coords_only":false},"geometry":{"type":"MultiPolygon","coordinates":[[[[-43.62526,-16.53462],[-43.4733,-16.70817],[-43.4727,-16.7075],[-43.4698,-16.6737],[-43.4453,-16.6415],[-43.44028,-16.61846],[-43.49663,-16.5528],[-43.51647,-16.53236],[-43.56751,-16.48568],[-43.61304,-16.49701],[-43.62526,-16.53462]]]]}},{"type":"Feature","properties":{"territory_id":"mg-3126703-povoado-de-tabual","name":"Povoado de Tabual","municipality_id":"mg-3126703","polling_places":1,"approx":true,"official":false,"method":"voronoi-polling-places","whole_municipality":false,"approx_coords_only":false},"geometry":{"type":"MultiPolygon","coordinates":[[[[-43.69483,-16.4156],[-43.61304,-16.49701],[-43.56751,-16.48568],[-43.54064,-16.43298],[-43.60625,-16.3469],[-43.67462,-16.34325],[-43.6761,-16.4046],[-43.69483,-16.4156]]]]}},{"type":"Feature","properties":{"territory_id":"mg-3126703-povoado-de-terra-quebrada","name":"Povoado de Terra Quebrada","municipality_id":"mg-3126703","polling_places":1,"approx":true,"official":false,"method":"voronoi-polling-places","whole_municipality":false,"approx_coords_only":false},"geometry":{"type":"MultiPolygon","coordinates":[[[[-43.47952,-16.22518],[-43.47504,-16.29055],[-43.45788,-16.31244],[-43.43332,-16.29914],[-43.42856,-16.24162],[-43.45594,-16.22175],[-43.47952,-16.22518]]]]}},{"type":"Feature","properties":{"territory_id":"mg-3126703-sao-jorge","name":"São Jorge","municipality_id":"mg-3126703","polling_places":1,"approx":true,"official":false,"method":"voronoi-polling-places","whole_municipality":false,"approx_coords_only":false},"geometry":{"type":"MultiPolygon","coordinates":[[[[-43.49663,-16.5528],[-43.44028,-16.61846],[-43.43507,-16.5946],[-43.4604,-16.51487],[-43.47847,-16.48347],[-43.48095,-16.4811],[-43.48711,-16.47747],[-43.49238,-16.47932],[-43.49487,-16.48225],[-43.49505,-16.48284],[-43.49663,-16.5528]]]]}}]}