{"type":"FeatureCollection","features":[{"type":"Feature","properties":{"territory_id":"mg-3126950-centro","name":"Centro","municipality_id":"mg-3126950","polling_places":1,"approx":true,"official":false,"method":"voronoi-polling-places","whole_municipality":false,"approx_coords_only":false},"geometry":{"type":"MultiPolygon","coordinates":[[[[-42.77814,-18.14861],[-42.73894,-18.20503],[-42.73857,-18.20489],[-42.73255,-18.14025],[-42.7729,-18.1281],[-42.77499,-18.13046],[-42.77814,-18.14861]]]]}},{"type":"Feature","properties":{"territory_id":"mg-3126950-zona-rural","name":"Zona Rural","municipality_id":"mg-3126950","polling_places":6,"approx":true,"official":false,"method":"voronoi-polling-places","whole_municipality":false,"approx_coords_only":false},"geometry":{"type":"MultiPolygon","coordinates":[[[[-42.8289,-18.0978],[-42.8251,-18.1615],[-42.8045,-18.209],[-42.7612,-18.2139],[-42.73894,-18.20503],[-42.77814,-18.14861],[-42.77499,-18.13046],[-42.7729,-18.1281],[-42.73255,-18.14025],[-42.73857,-18.20489],[-42.6987,-18.189],[-42.6751,-18.1359],[-42.6837,-18.1045],[-42.7031,-18.0917],[-42.7621,-18.0829],[-42.7935,-18.1045],[-42.8289,-18.0978]]]]}}]}