{"type":"FeatureCollection","features":[{"type":"Feature","properties":{"territory_id":"mg-3126604-alto-esplanada","name":"Alto Esplanada","municipality_id":"mg-3126604","polling_places":1,"approx":true,"official":false,"method":"voronoi-polling-places","whole_municipality":false,"approx_coords_only":false},"geometry":{"type":"MultiPolygon","coordinates":[[[[-44.27055,-17.26684],[-44.23437,-17.33013],[-44.23542,-17.31503],[-44.26702,-17.26484],[-44.27055,-17.26684]]]]}},{"type":"Feature","properties":{"territory_id":"mg-3126604-centro","name":"Centro","municipality_id":"mg-3126604","polling_places":1,"approx":true,"official":false,"method":"voronoi-polling-places","whole_municipality":false,"approx_coords_only":false},"geometry":{"type":"MultiPolygon","coordinates":[[[[-44.23542,-17.31503],[-44.23437,-17.33013],[-44.21819,-17.38508],[-44.17211,-17.31037],[-44.23542,-17.31503]]]]}},{"type":"Feature","properties":{"territory_id":"mg-3126604-povoado-de-santo-antonio","name":"Povoado de Santo Antônio","municipality_id":"mg-3126604","polling_places":1,"approx":true,"official":false,"method":"voronoi-polling-places","whole_municipality":false,"approx_coords_only":false},"geometry":{"type":"MultiPolygon","coordinates":[[[[-44.18599,-17.23193],[-44.1473,-17.27257],[-44.14207,-17.27399],[-44.1128,-17.2304],[-44.0789,-17.2109],[-44.1114,-17.1618],[-44.1637,-17.1902],[-44.1736,-17.2165],[-44.18599,-17.23193]]]]}},{"type":"Feature","properties":{"territory_id":"mg-3126604-zona-rural","name":"Zona Rural","municipality_id":"mg-3126604","polling_places":5,"approx":true,"official":false,"method":"voronoi-polling-places","whole_municipality":false,"approx_coords_only":false},"geometry":{"type":"MultiPolygon","coordinates":[[[[-44.4682,-17.6048],[-44.4467,-17.6097],[-44.3958,-17.692],[-44.3602,-17.7031],[-44.2933,-17.7012],[-44.1915,-17.6536],[-44.1595,-17.6555],[-44.116,-17.6135],[-44.125,-17.5719],[-44.0955,-17.5312],[-44.085,-17.4273],[-44.1175,-17.4064],[-44.1281,-17.3562],[-44.1594,-17.2998],[-44.14207,-17.27399],[-44.1473,-17.27257],[-44.18599,-17.23193],[-44.2229,-17.2779],[-44.2565,-17.2589],[-44.26702,-17.26484],[-44.23542,-17.31503],[-44.17211,-17.31037],[-44.21819,-17.38508],[-44.23437,-17.33013],[-44.27055,-17.26684],[-44.3096,-17.2889],[-44.329,-17.2495],[-44.3574,-17.2582],[-44.375,-17.3027],[-44.4051,-17.3071],[-44.4223,-17.3585],[-44.4203,-17.4472],[-44.4338,-17.4559],[-44.4579,-17.5051],[-44.4509,-17.5292],[-44.4682,-17.6048]]]]}}]}