{"type":"FeatureCollection","features":[{"type":"Feature","properties":{"territory_id":"mg-3126307-bom-jesus","name":"Bom Jesus","municipality_id":"mg-3126307","polling_places":1,"approx":true,"official":false,"method":"voronoi-polling-places","whole_municipality":false,"approx_coords_only":false},"geometry":{"type":"MultiPolygon","coordinates":[[[[-46.8746,-20.8857],[-46.8449,-20.9156],[-46.8045,-20.9288],[-46.7981,-20.9757],[-46.7521,-20.969],[-46.7469,-20.939],[-46.6992,-20.9268],[-46.68319,-20.90907],[-46.72016,-20.83861],[-46.72089,-20.83772],[-46.7467,-20.8327],[-46.7635,-20.85],[-46.8094,-20.8124],[-46.8368,-20.8213],[-46.8746,-20.8857]]]]}},{"type":"Feature","properties":{"territory_id":"mg-3126307-centro","name":"Centro","municipality_id":"mg-3126307","polling_places":1,"approx":true,"official":false,"method":"voronoi-polling-places","whole_municipality":false,"approx_coords_only":false},"geometry":{"type":"MultiPolygon","coordinates":[[[[-46.72016,-20.83861],[-46.68319,-20.90907],[-46.6732,-20.898],[-46.67276,-20.8834],[-46.72016,-20.83861]]]]}},{"type":"Feature","properties":{"territory_id":"mg-3126307-nossa-senhora-aparecida","name":"Nossa Senhora Aparecida","municipality_id":"mg-3126307","polling_places":1,"approx":true,"official":false,"method":"voronoi-polling-places","whole_municipality":false,"approx_coords_only":false},"geometry":{"type":"MultiPolygon","coordinates":[[[[-46.72089,-20.83772],[-46.72016,-20.83861],[-46.67276,-20.8834],[-46.6723,-20.8682],[-46.7056,-20.8407],[-46.72089,-20.83772]]]]}}]}