{"type":"FeatureCollection","features":[{"type":"Feature","properties":{"territory_id":"mg-3126752-centro","name":"Centro","municipality_id":"mg-3126752","polling_places":2,"approx":true,"official":false,"method":"voronoi-polling-places","whole_municipality":false,"approx_coords_only":false},"geometry":{"type":"MultiPolygon","coordinates":[[[[-42.1485,-18.0156],[-42.0942,-18.0834],[-42.0605,-18.1037],[-42.0496,-18.1458],[-41.9996,-18.1232],[-41.9148,-18.1169],[-41.90671,-18.10545],[-41.95711,-17.95524],[-41.98221,-17.93948],[-42.04869,-17.89646],[-42.0595,-17.9116],[-42.051,-17.9523],[-42.1485,-18.0156]]]]}},{"type":"Feature","properties":{"territory_id":"mg-3126752-distrito-de-antonio-ferreira","name":"Distrito de Antonio Ferreira","municipality_id":"mg-3126752","polling_places":1,"approx":true,"official":false,"method":"voronoi-polling-places","whole_municipality":false,"approx_coords_only":false},"geometry":{"type":"MultiPolygon","coordinates":[[[[-41.95711,-17.95524],[-41.90671,-18.10545],[-41.8648,-18.0461],[-41.8348,-18.0415],[-41.8178,-18.0099],[-41.7993,-17.9396],[-41.8401,-17.9322],[-41.8761,-17.894],[-41.8717,-17.8601],[-41.9176,-17.853],[-41.91848,-17.85319],[-41.95711,-17.95524]]]]}},{"type":"Feature","properties":{"territory_id":"mg-3126752-povoado-do-norete","name":"Povoado do Norete","municipality_id":"mg-3126752","polling_places":1,"approx":true,"official":false,"method":"voronoi-polling-places","whole_municipality":false,"approx_coords_only":false},"geometry":{"type":"MultiPolygon","coordinates":[[[[-42.04869,-17.89646],[-41.98221,-17.93948],[-41.95711,-17.95524],[-41.91848,-17.85319],[-41.9893,-17.8684],[-42.0204,-17.8568],[-42.04869,-17.89646]]]]}}]}