{"type":"FeatureCollection","features":[{"type":"Feature","properties":{"territory_id":"mg-3126000-cachoeira-de-almas-zona-rural","name":"Cachoeira de Almas (zona Rural)","municipality_id":"mg-3126000","polling_places":1,"approx":true,"official":false,"method":"voronoi-polling-places","whole_municipality":false,"approx_coords_only":false},"geometry":{"type":"MultiPolygon","coordinates":[[[[-44.5271,-19.9531],[-44.4795,-19.9161],[-44.47353,-19.91831],[-44.46234,-19.88508],[-44.48575,-19.83857],[-44.5145,-19.8597],[-44.5271,-19.9531]]]]}},{"type":"Feature","properties":{"territory_id":"mg-3126000-centro","name":"Centro","municipality_id":"mg-3126000","polling_places":2,"approx":true,"official":false,"method":"voronoi-polling-places","whole_municipality":false,"approx_coords_only":false},"geometry":{"type":"MultiPolygon","coordinates":[[[[-44.47353,-19.91831],[-44.4387,-19.9312],[-44.3546,-19.9052],[-44.3793,-19.8492],[-44.39624,-19.82732],[-44.46234,-19.88508],[-44.47353,-19.91831]]]]}},{"type":"Feature","properties":{"territory_id":"mg-3126000-povoado-de-gameleira","name":"Povoado de Gameleira","municipality_id":"mg-3126000","polling_places":1,"approx":true,"official":false,"method":"voronoi-polling-places","whole_municipality":false,"approx_coords_only":false},"geometry":{"type":"MultiPolygon","coordinates":[[[[-44.48575,-19.83857],[-44.46234,-19.88508],[-44.39624,-19.82732],[-44.4441,-19.7655],[-44.4422,-19.7818],[-44.4817,-19.8356],[-44.48575,-19.83857]]]]}}]}