{"type":"FeatureCollection","features":[{"type":"Feature","properties":{"territory_id":"mg-3126802-centro","name":"Centro","municipality_id":"mg-3126802","polling_places":2,"approx":true,"official":false,"method":"voronoi-polling-places","whole_municipality":false,"approx_coords_only":false},"geometry":{"type":"MultiPolygon","coordinates":[[[[-41.49194,-18.02884],[-41.48851,-18.07671],[-41.48746,-18.09867],[-41.4386,-18.13554],[-41.4141,-18.1037],[-41.4088,-18.0748],[-41.3716,-18.062],[-41.3692,-18.0317],[-41.3936,-18.0021],[-41.4616,-18.0071],[-41.49194,-18.02884]]]]}},{"type":"Feature","properties":{"territory_id":"mg-3126802-distrito-de-cachoeira-do-arana","name":"Distrito de Cachoeira do Aranã","municipality_id":"mg-3126802","polling_places":1,"approx":true,"official":false,"method":"voronoi-polling-places","whole_municipality":false,"approx_coords_only":false},"geometry":{"type":"MultiPolygon","coordinates":[[[[-41.63738,-18.11984],[-41.5709,-18.14244],[-41.48746,-18.09867],[-41.48851,-18.07671],[-41.49194,-18.02884],[-41.5039,-18.0374],[-41.5405,-18.008],[-41.5709,-18.019],[-41.5745,-18.0404],[-41.6184,-18.0716],[-41.626,-18.1078],[-41.63738,-18.11984]]]]}},{"type":"Feature","properties":{"territory_id":"mg-3126802-povoado-de-cibrao","name":"Povoado de Cibrao","municipality_id":"mg-3126802","polling_places":1,"approx":true,"official":false,"method":"voronoi-polling-places","whole_municipality":false,"approx_coords_only":false},"geometry":{"type":"MultiPolygon","coordinates":[[[[-41.657,-18.1406],[-41.6429,-18.2014],[-41.5978,-18.2328],[-41.5834,-18.2598],[-41.528,-18.2519],[-41.51577,-18.25361],[-41.5709,-18.14244],[-41.63738,-18.11984],[-41.657,-18.1406]]]]}},{"type":"Feature","properties":{"territory_id":"mg-3126802-zona-rural","name":"Zona Rural","municipality_id":"mg-3126802","polling_places":1,"approx":true,"official":false,"method":"voronoi-polling-places","whole_municipality":false,"approx_coords_only":false},"geometry":{"type":"MultiPolygon","coordinates":[[[[-41.5709,-18.14244],[-41.51577,-18.25361],[-41.4529,-18.2624],[-41.4191,-18.2816],[-41.3636,-18.2719],[-41.3696,-18.2478],[-41.4252,-18.2018],[-41.4227,-18.1695],[-41.4405,-18.138],[-41.4386,-18.13554],[-41.48746,-18.09867],[-41.5709,-18.14244]]]]}}]}