{"type":"FeatureCollection","features":[{"type":"Feature","properties":{"territory_id":"mg-3126208-capuava","name":"Capuava","municipality_id":"mg-3126208","polling_places":1,"approx":true,"official":false,"method":"voronoi-polling-places","whole_municipality":false,"approx_coords_only":false},"geometry":{"type":"MultiPolygon","coordinates":[[[[-46.36566,-15.00598],[-46.20547,-15.41885],[-46.1948,-15.4071],[-46.151,-15.4132],[-46.1124,-15.4026],[-46.0621,-15.4219],[-46.0328,-15.4059],[-46.0217,-15.3666],[-45.9896,-15.3813],[-45.9344,-15.3833],[-45.901,-15.4227],[-45.8437,-15.4255],[-45.8183,-15.4051],[-45.7771,-15.3678],[-45.7099,-15.3404],[-45.6741,-15.3084],[-45.6081,-15.2349],[-45.6371,-15.2289],[-45.7199,-15.2415],[-45.7542,-15.2087],[-45.7682,-15.1793],[-45.75627,-15.15456],[-45.82705,-15.12447],[-45.8722,-15.1588],[-45.9187,-15.1334],[-45.9606,-15.1439],[-45.9845,-15.196],[-46.0295,-15.2018],[-46.0581,-15.2627],[-46.0971,-15.2431],[-46.1165,-15.2048],[-46.0478,-15.1637],[-46.0437,-15.1181],[-45.99034,-15.05503],[-46.23384,-14.9515],[-46.36566,-15.00598]]]]}},{"type":"Feature","properties":{"territory_id":"mg-3126208-centro","name":"Centro","municipality_id":"mg-3126208","polling_places":2,"approx":true,"official":false,"method":"voronoi-polling-places","whole_municipality":false,"approx_coords_only":false},"geometry":{"type":"MultiPolygon","coordinates":[[[[-46.49097,-14.70458],[-46.36566,-15.00598],[-46.23384,-14.9515],[-45.99034,-15.05503],[-45.975,-15.0369],[-45.9661,-14.9656],[-46.0039,-14.9023],[-46.0376,-14.8747],[-46.0394,-14.8753],[-46.0881,-14.9364],[-46.1191,-14.9206],[-46.1721,-14.9473],[-46.2322,-14.9223],[-46.2869,-14.9281],[-46.3193,-14.9004],[-46.3005,-14.8581],[-46.3251,-14.8456],[-46.3222,-14.8146],[-46.4238,-14.756],[-46.4749,-14.7052],[-46.49097,-14.70458]]],[[[-45.82705,-15.12447],[-45.75627,-15.15456],[-45.7398,-15.1204],[-45.8117,-15.1128],[-45.82705,-15.12447]]]]}},{"type":"Feature","properties":{"territory_id":"mg-3126208-formoso","name":"Formoso","municipality_id":"mg-3126208","polling_places":1,"approx":true,"official":false,"method":"voronoi-polling-places","whole_municipality":false,"approx_coords_only":false},"geometry":{"type":"MultiPolygon","coordinates":[[[[-46.5638,-14.7834],[-46.5605,-14.815],[-46.5216,-14.8512],[-46.5399,-14.8919],[-46.5408,-14.9516],[-46.5181,-14.9705],[-46.5308,-15.0053],[-46.5027,-15.0509],[-46.4222,-15.0977],[-46.4378,-15.1311],[-46.4089,-15.1797],[-46.4183,-15.1983],[-46.4007,-15.2346],[-46.3363,-15.2994],[-46.306,-15.3453],[-46.3027,-15.3919],[-46.2877,-15.4122],[-46.2554,-15.3976],[-46.2107,-15.4246],[-46.20547,-15.41885],[-46.36566,-15.00598],[-46.49097,-14.70458],[-46.5034,-14.7041],[-46.5103,-14.7383],[-46.5442,-14.753],[-46.5638,-14.7834]]]]}}]}