{"type":"FeatureCollection","features":[{"type":"Feature","properties":{"territory_id":"mg-3126109-agua-vermelha","name":"Água Vermelha","municipality_id":"mg-3126109","polling_places":1,"approx":true,"official":false,"method":"voronoi-polling-places","whole_municipality":false,"approx_coords_only":false},"geometry":{"type":"MultiPolygon","coordinates":[[[[-45.48737,-20.46353],[-45.48718,-20.46552],[-45.4462,-20.46013],[-45.44613,-20.45991],[-45.45012,-20.45034],[-45.45038,-20.45011],[-45.48737,-20.46353]]]]}},{"type":"Feature","properties":{"territory_id":"mg-3126109-alvorada","name":"Alvorada","municipality_id":"mg-3126109","polling_places":1,"approx":true,"official":false,"method":"voronoi-polling-places","whole_municipality":false,"approx_coords_only":false},"geometry":{"type":"MultiPolygon","coordinates":[[[[-45.43376,-20.47665],[-45.42291,-20.48996],[-45.42259,-20.48044],[-45.42575,-20.47302],[-45.42935,-20.47424],[-45.43376,-20.47665]]]]}},{"type":"Feature","properties":{"territory_id":"mg-3126109-centenario","name":"Centenário","municipality_id":"mg-3126109","polling_places":1,"approx":true,"official":false,"method":"voronoi-polling-places","whole_municipality":false,"approx_coords_only":false},"geometry":{"type":"MultiPolygon","coordinates":[[[[-45.44522,-20.47504],[-45.43822,-20.47396],[-45.43559,-20.47091],[-45.43462,-20.46438],[-45.43615,-20.46208],[-45.44425,-20.46497],[-45.44522,-20.47504]]]]}},{"type":"Feature","properties":{"territory_id":"mg-3126109-centro","name":"Centro","municipality_id":"mg-3126109","polling_places":9,"approx":true,"official":false,"method":"voronoi-polling-places","whole_municipality":false,"approx_coords_only":false},"geometry":{"type":"MultiPolygon","coordinates":[[[[-45.43615,-20.46208],[-45.43462,-20.46438],[-45.43559,-20.47091],[-45.43078,-20.46965],[-45.42876,-20.4689],[-45.42712,-20.46892],[-45.42599,-20.4693],[-45.4255,-20.46961],[-45.42385,-20.46908],[-45.42316,-20.46816],[-45.42269,-20.46208],[-45.42343,-20.46148],[-45.42402,-20.45842],[-45.43047,-20.45476],[-45.43141,-20.4536],[-45.43531,-20.45691],[-45.43615,-20.46208]]]]}},{"type":"Feature","properties":{"territory_id":"mg-3126109-cidade-nova","name":"Cidade Nova","municipality_id":"mg-3126109","polling_places":1,"approx":true,"official":false,"method":"voronoi-polling-places","whole_municipality":false,"approx_coords_only":false},"geometry":{"type":"MultiPolygon","coordinates":[[[[-45.45218,-20.40962],[-45.44603,-20.43142],[-45.43587,-20.44513],[-45.43079,-20.44834],[-45.40159,-20.43546],[-45.4316,-20.37277],[-45.45218,-20.40962]]]]}},{"type":"Feature","properties":{"territory_id":"mg-3126109-engenho-de-serra","name":"Engenho de Serra","municipality_id":"mg-3126109","polling_places":1,"approx":true,"official":false,"method":"voronoi-polling-places","whole_municipality":false,"approx_coords_only":false},"geometry":{"type":"MultiPolygon","coordinates":[[[[-45.43141,-20.4536],[-45.43047,-20.45476],[-45.42402,-20.45842],[-45.39549,-20.44193],[-45.40159,-20.43546],[-45.43079,-20.44834],[-45.43141,-20.4536]]]]}},{"type":"Feature","properties":{"territory_id":"mg-3126109-furnastur","name":"Furnastur","municipality_id":"mg-3126109","polling_places":1,"approx":true,"official":false,"method":"voronoi-polling-places","whole_municipality":false,"approx_coords_only":false},"geometry":{"type":"MultiPolygon","coordinates":[[[[-45.73488,-20.52686],[-45.62957,-20.61722],[-45.61416,-20.60818],[-45.59622,-20.58566],[-45.60304,-20.53144],[-45.71028,-20.49953],[-45.7158,-20.5077],[-45.73488,-20.52686]]]]}},{"type":"Feature","properties":{"territory_id":"mg-3126109-lajinha","name":"Lajinha","municipality_id":"mg-3126109","polling_places":1,"approx":true,"official":false,"method":"voronoi-polling-places","whole_municipality":false,"approx_coords_only":false},"geometry":{"type":"MultiPolygon","coordinates":[[[[-45.42385,-20.46908],[-45.41783,-20.47235],[-45.38783,-20.46046],[-45.41332,-20.46337],[-45.42316,-20.46816],[-45.42385,-20.46908]]]]}},{"type":"Feature","properties":{"territory_id":"mg-3126109-nossa-senhora-de-lourdes","name":"Nossa Senhora de Lourdes","municipality_id":"mg-3126109","polling_places":1,"approx":true,"official":false,"method":"voronoi-polling-places","whole_municipality":false,"approx_coords_only":false},"geometry":{"type":"MultiPolygon","coordinates":[[[[-45.42575,-20.47302],[-45.42259,-20.48044],[-45.41783,-20.47235],[-45.42385,-20.46908],[-45.4255,-20.46961],[-45.42575,-20.47302]]]]}},{"type":"Feature","properties":{"territory_id":"mg-3126109-novo-horizonte","name":"Novo Horizonte","municipality_id":"mg-3126109","polling_places":1,"approx":true,"official":false,"method":"voronoi-polling-places","whole_municipality":false,"approx_coords_only":false},"geometry":{"type":"MultiPolygon","coordinates":[[[[-45.50336,-20.50656],[-45.4882,-20.51232],[-45.44522,-20.47504],[-45.44425,-20.46497],[-45.4462,-20.46013],[-45.48718,-20.46552],[-45.484,-20.4998],[-45.50336,-20.50656]]]]}},{"type":"Feature","properties":{"territory_id":"mg-3126109-ouro-negro","name":"Ouro Negro","municipality_id":"mg-3126109","polling_places":1,"approx":true,"official":false,"method":"voronoi-polling-places","whole_municipality":false,"approx_coords_only":false},"geometry":{"type":"MultiPolygon","coordinates":[[[[-45.45012,-20.45034],[-45.44613,-20.45991],[-45.44129,-20.45652],[-45.44249,-20.4514],[-45.45012,-20.45034]]]]}},{"type":"Feature","properties":{"territory_id":"mg-3126109-quinzinho","name":"Quinzinho","municipality_id":"mg-3126109","polling_places":1,"approx":true,"official":false,"method":"voronoi-polling-places","whole_municipality":false,"approx_coords_only":false},"geometry":{"type":"MultiPolygon","coordinates":[[[[-45.43078,-20.46965],[-45.42935,-20.47424],[-45.42575,-20.47302],[-45.4255,-20.46961],[-45.42599,-20.4693],[-45.42712,-20.46892],[-45.42876,-20.4689],[-45.43078,-20.46965]]]]}},{"type":"Feature","properties":{"territory_id":"mg-3126109-rosario","name":"Rosário","municipality_id":"mg-3126109","polling_places":2,"approx":true,"official":false,"method":"voronoi-polling-places","whole_municipality":false,"approx_coords_only":false},"geometry":{"type":"MultiPolygon","coordinates":[[[[-45.42402,-20.45842],[-45.42343,-20.46148],[-45.42269,-20.46208],[-45.42316,-20.46816],[-45.41332,-20.46337],[-45.38783,-20.46046],[-45.37734,-20.4579],[-45.39549,-20.44193],[-45.42402,-20.45842]]]]}},{"type":"Feature","properties":{"territory_id":"mg-3126109-sagrado-coracao-de-jesus","name":"Sagrado Coração de Jesus","municipality_id":"mg-3126109","polling_places":1,"approx":true,"official":false,"method":"voronoi-polling-places","whole_municipality":false,"approx_coords_only":false},"geometry":{"type":"MultiPolygon","coordinates":[[[[-45.4462,-20.46013],[-45.44425,-20.46497],[-45.43615,-20.46208],[-45.43531,-20.45691],[-45.44129,-20.45652],[-45.44613,-20.45991],[-45.4462,-20.46013]]]]}},{"type":"Feature","properties":{"territory_id":"mg-3126109-sao-jose","name":"São José","municipality_id":"mg-3126109","polling_places":1,"approx":true,"official":false,"method":"voronoi-polling-places","whole_municipality":false,"approx_coords_only":false},"geometry":{"type":"MultiPolygon","coordinates":[[[[-45.43822,-20.47396],[-45.43376,-20.47665],[-45.42935,-20.47424],[-45.43078,-20.46965],[-45.43559,-20.47091],[-45.43822,-20.47396]]]]}},{"type":"Feature","properties":{"territory_id":"mg-3126109-sao-luiz","name":"São Luiz","municipality_id":"mg-3126109","polling_places":1,"approx":true,"official":false,"method":"voronoi-polling-places","whole_municipality":false,"approx_coords_only":false},"geometry":{"type":"MultiPolygon","coordinates":[[[[-45.44249,-20.4514],[-45.44129,-20.45652],[-45.43531,-20.45691],[-45.43141,-20.4536],[-45.43079,-20.44834],[-45.43587,-20.44513],[-45.44249,-20.4514]]]]}},{"type":"Feature","properties":{"territory_id":"mg-3126109-vargem-grande","name":"Vargem Grande","municipality_id":"mg-3126109","polling_places":1,"approx":true,"official":false,"method":"voronoi-polling-places","whole_municipality":false,"approx_coords_only":false},"geometry":{"type":"MultiPolygon","coordinates":[[[[-45.4882,-20.51232],[-45.40674,-20.56224],[-45.4028,-20.56047],[-45.42291,-20.48996],[-45.43376,-20.47665],[-45.43822,-20.47396],[-45.44522,-20.47504],[-45.4882,-20.51232]]]]}},{"type":"Feature","properties":{"territory_id":"mg-3126109-vila-jose-branco","name":"Vila José Branco","municipality_id":"mg-3126109","polling_places":1,"approx":true,"official":false,"method":"voronoi-polling-places","whole_municipality":false,"approx_coords_only":false},"geometry":{"type":"MultiPolygon","coordinates":[[[[-45.42291,-20.48996],[-45.4028,-20.56047],[-45.38846,-20.55593],[-45.30487,-20.4997],[-45.37734,-20.4579],[-45.38783,-20.46046],[-45.41783,-20.47235],[-45.42259,-20.48044],[-45.42291,-20.48996]]]]}},{"type":"Feature","properties":{"territory_id":"mg-3126109-vila-nirmatele","name":"Vila Nirmatele","municipality_id":"mg-3126109","polling_places":1,"approx":true,"official":false,"method":"voronoi-polling-places","whole_municipality":false,"approx_coords_only":false},"geometry":{"type":"MultiPolygon","coordinates":[[[[-45.45038,-20.45011],[-45.45012,-20.45034],[-45.44249,-20.4514],[-45.43587,-20.44513],[-45.44603,-20.43142],[-45.45038,-20.45011]]]]}},{"type":"Feature","properties":{"territory_id":"mg-3126109-vila-souza-e-silva","name":"Vila Souza e Silva","municipality_id":"mg-3126109","polling_places":1,"approx":true,"official":false,"method":"voronoi-polling-places","whole_municipality":false,"approx_coords_only":false},"geometry":{"type":"MultiPolygon","coordinates":[[[[-45.48949,-20.4406],[-45.48737,-20.46353],[-45.45038,-20.45011],[-45.44603,-20.43142],[-45.45218,-20.40962],[-45.48949,-20.4406]]]]}},{"type":"Feature","properties":{"territory_id":"mg-3126109-zona-rural","name":"Zona Rural","municipality_id":"mg-3126109","polling_places":11,"approx":true,"official":false,"method":"voronoi-polling-places","whole_municipality":false,"approx_coords_only":false},"geometry":{"type":"MultiPolygon","coordinates":[[[[-45.8318,-20.6667],[-45.7885,-20.7172],[-45.7589,-20.7118],[-45.7337,-20.7347],[-45.6137,-20.7031],[-45.5861,-20.687],[-45.5123,-20.6964],[-45.4857,-20.6714],[-45.4109,-20.6586],[-45.3572,-20.6739],[-45.3173,-20.6563],[-45.2935,-20.6705],[-45.2603,-20.6509],[-45.2617,-20.6077],[-45.2925,-20.5905],[-45.2633,-20.5631],[-45.3036,-20.5202],[-45.2988,-20.4747],[-45.3215,-20.4362],[-45.304,-20.3765],[-45.3206,-20.3506],[-45.3369,-20.3336],[-45.3857,-20.319],[-45.4191,-20.3445],[-45.4697,-20.3257],[-45.5055,-20.3512],[-45.5122,-20.3963],[-45.4898,-20.4373],[-45.48949,-20.4406],[-45.45218,-20.40962],[-45.4316,-20.37277],[-45.40159,-20.43546],[-45.39549,-20.44193],[-45.37734,-20.4579],[-45.30487,-20.4997],[-45.38846,-20.55593],[-45.4028,-20.56047],[-45.40674,-20.56224],[-45.4882,-20.51232],[-45.50336,-20.50656],[-45.5301,-20.5159],[-45.539,-20.4959],[-45.5883,-20.4673],[-45.6064,-20.4785],[-45.6476,-20.4629],[-45.6693,-20.4388],[-45.71028,-20.49953],[-45.60304,-20.53144],[-45.59622,-20.58566],[-45.53589,-20.5473],[-45.50868,-20.60802],[-45.52689,-20.6269],[-45.61416,-20.60818],[-45.62957,-20.61722],[-45.73488,-20.52686],[-45.7398,-20.5318],[-45.7563,-20.5742],[-45.7839,-20.589],[-45.7986,-20.6289],[-45.8318,-20.6667]]]]}},{"type":"Feature","properties":{"territory_id":"mg-3126109-zona-rural-cunhas","name":"Zona Rural Cunhas","municipality_id":"mg-3126109","polling_places":1,"approx":true,"official":false,"method":"voronoi-polling-places","whole_municipality":false,"approx_coords_only":false},"geometry":{"type":"MultiPolygon","coordinates":[[[[-45.61416,-20.60818],[-45.52689,-20.6269],[-45.50868,-20.60802],[-45.53589,-20.5473],[-45.59622,-20.58566],[-45.61416,-20.60818]]]]}}]}