{"type":"FeatureCollection","features":[{"type":"Feature","properties":{"territory_id":"mg-3126505-bairro-centro","name":"Bairro Centro","municipality_id":"mg-3126505","polling_places":1,"approx":true,"official":false,"method":"voronoi-polling-places","whole_municipality":false,"approx_coords_only":false},"geometry":{"type":"MultiPolygon","coordinates":[[[[-42.35084,-16.99222],[-42.34971,-16.99241],[-42.32558,-16.97051],[-42.33296,-16.95831],[-42.35084,-16.99222]]]]}},{"type":"Feature","properties":{"territory_id":"mg-3126505-bairro-de-fatima","name":"Bairro de Fátima","municipality_id":"mg-3126505","polling_places":1,"approx":true,"official":false,"method":"voronoi-polling-places","whole_municipality":false,"approx_coords_only":false},"geometry":{"type":"MultiPolygon","coordinates":[[[[-42.34971,-16.99241],[-42.32119,-17.00007],[-42.31229,-16.99241],[-42.32558,-16.97051],[-42.34971,-16.99241]]]]}},{"type":"Feature","properties":{"territory_id":"mg-3126505-povoado-de-tocoios","name":"Povoado de Tocoios","municipality_id":"mg-3126505","polling_places":1,"approx":true,"official":false,"method":"voronoi-polling-places","whole_municipality":false,"approx_coords_only":false},"geometry":{"type":"MultiPolygon","coordinates":[[[[-42.4311,-17.0907],[-42.40545,-17.10888],[-42.34904,-17.06053],[-42.35985,-17.03413],[-42.37829,-17.02209],[-42.41066,-17.00245],[-42.4212,-17.0157],[-42.4311,-17.0907]]]]}},{"type":"Feature","properties":{"territory_id":"mg-3126505-zona-rural","name":"Zona Rural","municipality_id":"mg-3126505","polling_places":12,"approx":true,"official":false,"method":"voronoi-polling-places","whole_municipality":false,"approx_coords_only":false},"geometry":{"type":"MultiPolygon","coordinates":[[[[-42.41066,-17.00245],[-42.37829,-17.02209],[-42.35985,-17.03413],[-42.34904,-17.06053],[-42.40545,-17.10888],[-42.3937,-17.1172],[-42.3416,-17.1077],[-42.3265,-17.0799],[-42.2733,-17.0571],[-42.2349,-17.0621],[-42.2565,-16.9919],[-42.2306,-16.9585],[-42.1666,-16.9275],[-42.1625,-16.9081],[-42.187,-16.8649],[-42.2145,-16.8832],[-42.274,-16.8635],[-42.3369,-16.8609],[-42.3507,-16.8921],[-42.3911,-16.914],[-42.3669,-16.9341],[-42.3764,-16.9594],[-42.41066,-17.00245]],[[-42.35084,-16.99222],[-42.33296,-16.95831],[-42.32558,-16.97051],[-42.31229,-16.99241],[-42.32119,-17.00007],[-42.34971,-16.99241],[-42.35084,-16.99222]]]]}}]}