{"type":"FeatureCollection","features":[{"type":"Feature","properties":{"territory_id":"mg-3126901-bom-jesus-do-prata","name":"Bom Jesus do Prata","municipality_id":"mg-3126901","polling_places":1,"approx":true,"official":false,"method":"voronoi-polling-places","whole_municipality":false,"approx_coords_only":false},"geometry":{"type":"MultiPolygon","coordinates":[[[[-41.82843,-18.66111],[-41.782,-18.6521],[-41.758,-18.5947],[-41.7241,-18.6013],[-41.6953,-18.5613],[-41.7265,-18.5318],[-41.7779,-18.5531],[-41.8068,-18.5266],[-41.8125,-18.4646],[-41.81302,-18.46417],[-41.82319,-18.48339],[-41.82337,-18.48609],[-41.82751,-18.59775],[-41.82793,-18.62677],[-41.82,-18.6394],[-41.82842,-18.66002],[-41.82843,-18.66111]]]]}},{"type":"Feature","properties":{"territory_id":"mg-3126901-brasilandia","name":"Brasilândia","municipality_id":"mg-3126901","polling_places":1,"approx":true,"official":false,"method":"voronoi-polling-places","whole_municipality":false,"approx_coords_only":false},"geometry":{"type":"MultiPolygon","coordinates":[[[[-42.00363,-18.44397],[-41.92719,-18.43207],[-41.9258,-18.3797],[-41.9659,-18.3798],[-42.00363,-18.44397]]]]}},{"type":"Feature","properties":{"territory_id":"mg-3126901-centro","name":"Centro","municipality_id":"mg-3126901","polling_places":4,"approx":true,"official":false,"method":"voronoi-polling-places","whole_municipality":false,"approx_coords_only":false},"geometry":{"type":"MultiPolygon","coordinates":[[[[-41.97805,-18.53242],[-41.972,-18.5343],[-41.9349,-18.58],[-41.886,-18.5732],[-41.8411,-18.6058],[-41.82793,-18.62677],[-41.82751,-18.59775],[-41.82337,-18.48609],[-41.82319,-18.48339],[-41.97805,-18.53242]]],[[[-41.8289,-18.6612],[-41.82843,-18.66111],[-41.82842,-18.66002],[-41.8289,-18.6612]]]]}},{"type":"Feature","properties":{"territory_id":"mg-3126901-corrego-do-tabocal","name":"Córrego do Tabocal","municipality_id":"mg-3126901","polling_places":1,"approx":true,"official":false,"method":"voronoi-polling-places","whole_municipality":false,"approx_coords_only":false},"geometry":{"type":"MultiPolygon","coordinates":[[[[-42.044,-18.4702],[-42.0222,-18.5187],[-41.97805,-18.53242],[-41.82319,-18.48339],[-41.81302,-18.46417],[-41.8423,-18.4398],[-41.8999,-18.4356],[-41.9275,-18.4437],[-41.92719,-18.43207],[-42.00363,-18.44397],[-42.012,-18.4582],[-42.0276,-18.4546],[-42.044,-18.4702]]]]}}]}