{"type":"FeatureCollection","features":[{"type":"Feature","properties":{"territory_id":"mg-3127305-centro","name":"Centro","municipality_id":"mg-3127305","polling_places":3,"approx":true,"official":false,"method":"voronoi-polling-places","whole_municipality":false,"approx_coords_only":false},"geometry":{"type":"MultiPolygon","coordinates":[[[[-41.59619,-18.98279],[-41.5371,-19.0135],[-41.5319,-19.0376],[-41.4862,-19.0106],[-41.4345,-19.0057],[-41.4024,-19.0235],[-41.4585,-18.9524],[-41.4305,-18.9079],[-41.44351,-18.89727],[-41.52836,-18.93175],[-41.59619,-18.98279]]]]}},{"type":"Feature","properties":{"territory_id":"mg-3127305-distrito-de-sapucaia-do-norte","name":"Distrito de Sapucaia do Norte","municipality_id":"mg-3127305","polling_places":1,"approx":true,"official":false,"method":"voronoi-polling-places","whole_municipality":false,"approx_coords_only":true},"geometry":{"type":"MultiPolygon","coordinates":[[[[-41.69301,-18.86416],[-41.52836,-18.93175],[-41.44351,-18.89727],[-41.4605,-18.8834],[-41.4063,-18.8665],[-41.3606,-18.8254],[-41.3459,-18.7669],[-41.3778,-18.7609],[-41.4356,-18.786],[-41.5046,-18.7965],[-41.544,-18.8183],[-41.571,-18.8055],[-41.5932,-18.7482],[-41.6464,-18.751],[-41.6899,-18.7948],[-41.6783,-18.8438],[-41.69301,-18.86416]]]]}},{"type":"Feature","properties":{"territory_id":"mg-3127305-povoado-de-santa-cruz","name":"Povoado de Santa Cruz","municipality_id":"mg-3127305","polling_places":1,"approx":true,"official":false,"method":"voronoi-polling-places","whole_municipality":false,"approx_coords_only":false},"geometry":{"type":"MultiPolygon","coordinates":[[[[-41.7134,-18.9101],[-41.7058,-18.9406],[-41.6728,-18.9633],[-41.6127,-18.9742],[-41.59619,-18.98279],[-41.52836,-18.93175],[-41.69301,-18.86416],[-41.7111,-18.8892],[-41.7134,-18.9101]]]]}}]}