{"type":"FeatureCollection","features":[{"type":"Feature","properties":{"territory_id":"mg-3127388-centro","name":"Centro","municipality_id":"mg-3127388","polling_places":2,"approx":true,"official":false,"method":"voronoi-polling-places","whole_municipality":false,"approx_coords_only":false},"geometry":{"type":"MultiPolygon","coordinates":[[[[-43.23445,-21.49548],[-43.18068,-21.5695],[-43.15475,-21.60948],[-43.1347,-21.5982],[-43.1232,-21.571],[-43.1323,-21.5209],[-43.1644,-21.504],[-43.2148,-21.5074],[-43.23445,-21.49548]]]]}},{"type":"Feature","properties":{"territory_id":"mg-3127388-nossa-senhora-de-lourdes","name":"Nossa Senhora de Lourdes","municipality_id":"mg-3127388","polling_places":1,"approx":true,"official":false,"method":"voronoi-polling-places","whole_municipality":false,"approx_coords_only":false},"geometry":{"type":"MultiPolygon","coordinates":[[[[-43.2633,-21.5449],[-43.2137,-21.61],[-43.2264,-21.6314],[-43.1889,-21.6089],[-43.1692,-21.6176],[-43.15475,-21.60948],[-43.18068,-21.5695],[-43.23445,-21.49548],[-43.2354,-21.4949],[-43.257,-21.5063],[-43.2633,-21.5449]]]]}}]}