{"type":"FeatureCollection","features":[{"type":"Feature","properties":{"territory_id":"mg-3127008-centro","name":"Centro","municipality_id":"mg-3127008","polling_places":3,"approx":true,"official":false,"method":"voronoi-polling-places","whole_municipality":false,"approx_coords_only":false},"geometry":{"type":"MultiPolygon","coordinates":[[[[-49.23017,-20.29872],[-49.2253,-20.3053],[-49.1836,-20.3147],[-49.16229,-20.29972],[-49.17031,-20.29133],[-49.2156,-20.23289],[-49.2176,-20.2336],[-49.22477,-20.23301],[-49.20532,-20.28463],[-49.23017,-20.29872]]]]}},{"type":"Feature","properties":{"territory_id":"mg-3127008-jardim-angelo-passuelo","name":"Jardim Angelo Passuelo","municipality_id":"mg-3127008","polling_places":1,"approx":true,"official":false,"method":"voronoi-polling-places","whole_municipality":false,"approx_coords_only":false},"geometry":{"type":"MultiPolygon","coordinates":[[[[-49.2652,-20.2297],[-49.2597,-20.2588],[-49.23017,-20.29872],[-49.20532,-20.28463],[-49.22477,-20.23301],[-49.2652,-20.2297]]]]}},{"type":"Feature","properties":{"territory_id":"mg-3127008-vila-santo-antonio","name":"Vila Santo Antonio","municipality_id":"mg-3127008","polling_places":1,"approx":true,"official":false,"method":"voronoi-polling-places","whole_municipality":false,"approx_coords_only":false},"geometry":{"type":"MultiPolygon","coordinates":[[[[-49.2156,-20.23289],[-49.17031,-20.29133],[-49.16229,-20.29972],[-49.1207,-20.2705],[-49.0659,-20.1535],[-49.1025,-20.1237],[-49.1395,-20.1487],[-49.1691,-20.2164],[-49.2156,-20.23289]]]]}}]}