{"type":"FeatureCollection","features":[{"type":"Feature","properties":{"territory_id":"mg-3127073-centro","name":"Centro","municipality_id":"mg-3127073","polling_places":1,"approx":true,"official":false,"method":"voronoi-polling-places","whole_municipality":false,"approx_coords_only":false},"geometry":{"type":"MultiPolygon","coordinates":[[[[-42.53234,-16.12385],[-42.50381,-16.19527],[-42.46316,-16.18549],[-42.48436,-16.10262],[-42.52662,-16.11721],[-42.53234,-16.12385]]]]}},{"type":"Feature","properties":{"territory_id":"mg-3127073-zona-rural","name":"Zona Rural","municipality_id":"mg-3127073","polling_places":13,"approx":true,"official":false,"method":"voronoi-polling-places","whole_municipality":false,"approx_coords_only":false},"geometry":{"type":"MultiPolygon","coordinates":[[[[-42.7061,-16.1583],[-42.6997,-16.1724],[-42.6257,-16.1618],[-42.5443,-16.2101],[-42.5434,-16.2401],[-42.5109,-16.2656],[-42.4928,-16.308],[-42.4698,-16.2917],[-42.4688,-16.2584],[-42.4251,-16.2505],[-42.3945,-16.2792],[-42.3421,-16.2956],[-42.3587,-16.2829],[-42.3529,-16.1956],[-42.3824,-16.1598],[-42.3875,-16.1286],[-42.4193,-16.1075],[-42.4244,-16.0798],[-42.4813,-16.0615],[-42.4636,-15.9993],[-42.4724,-15.9778],[-42.5271,-15.9932],[-42.5164,-15.9598],[-42.5402,-15.9544],[-42.5879,-15.9683],[-42.6167,-15.9516],[-42.6358,-15.974],[-42.6318,-16.009],[-42.6654,-16.0763],[-42.6642,-16.1208],[-42.6806,-16.1502],[-42.7061,-16.1583]],[[-42.53234,-16.12385],[-42.52662,-16.11721],[-42.48436,-16.10262],[-42.46316,-16.18549],[-42.50381,-16.19527],[-42.53234,-16.12385]]]]}}]}