{"type":"FeatureCollection","features":[{"type":"Feature","properties":{"territory_id":"mg-3127701-altinopolis","name":"Altinopolis","municipality_id":"mg-3127701","polling_places":2,"approx":false,"official":true,"method":"official-ibge-cd2022","whole_municipality":false,"approx_coords_only":false,"official_name":"Altinópolis","official_code":"3127701085","match":"direct"},"geometry":{"type":"MultiPolygon","coordinates":[[[[-41.96156,-18.86131],[-41.96227,-18.86232],[-41.96274,-18.86305],[-41.96344,-18.86404],[-41.96426,-18.86384],[-41.96762,-18.8632],[-41.96821,-18.86378],[-41.96825,-18.86374],[-41.96925,-18.86236],[-41.97103,-18.86355],[-41.97076,-18.86297],[-41.9706,-18.86226],[-41.97097,-18.86231],[-41.97124,-18.86225],[-41.97154,-18.86208],[-41.97193,-18.86174],[-41.97222,-18.86141],[-41.97245,-18.8612],[-41.9732,-18.86069],[-41.97343,-18.86061],[-41.97368,-18.8606],[-41.97372,-18.86062],[-41.97373,-18.86065],[-41.97369,-18.86076],[-41.97355,-18.86097],[-41.97334,-18.86172],[-41.97447,-18.86185],[-41.97465,-18.86085],[-41.9748,-18.85984],[-41.97483,-18.85935],[-41.97498,-18.85803],[-41.97509,-18.85746],[-41.97528,-18.8568],[-41.9757,-18.85579],[-41.97615,-18.85494],[-41.97643,-18.85436],[-41.97619,-18.8545],[-41.97586,-18.85456],[-41.97534,-18.85458],[-41.97311,-18.85473],[-41.97268,-18.85473],[-41.97245,-18.85472],[-41.97197,-18.85465],[-41.97156,-18.85453],[-41.96971,-18.85362],[-41.96867,-18.85334],[-41.96823,-18.85317],[-41.96807,-18.85306],[-41.96236,-18.85446],[-41.96199,-18.85449],[-41.96083,-18.85474],[-41.96028,-18.85479],[-41.9595,-18.85479],[-41.95973,-18.85496],[-41.95989,-18.85516],[-41.96004,-18.85537],[-41.96017,-18.85561],[-41.96028,-18.85586],[-41.96047,-18.85644],[-41.96087,-18.85749],[-41.96091,-18.85774],[-41.96092,-18.858],[-41.96092,-18.85823],[-41.96081,-18.85907],[-41.96078,-18.85946],[-41.96082,-18.85981],[-41.96091,-18.86013],[-41.96102,-18.86041],[-41.96116,-18.86068],[-41.96156,-18.86131]]]]}},{"type":"Feature","properties":{"territory_id":"mg-3127701-barro-azul","name":"Barro Azul","municipality_id":"mg-3127701","polling_places":1,"approx":true,"official":false,"method":"voronoi-polling-places","whole_municipality":false,"approx_coords_only":false},"geometry":{"type":"MultiPolygon","coordinates":[[[[-41.83834,-18.69574],[-41.79965,-18.91058],[-41.759,-18.8975],[-41.74866,-18.90036],[-41.68688,-18.75506],[-41.82541,-18.67074],[-41.83834,-18.69574]]]]}},{"type":"Feature","properties":{"territory_id":"mg-3127701-carapina","name":"Carapina","municipality_id":"mg-3127701","polling_places":1,"approx":false,"official":true,"method":"official-ibge-cd2022","whole_municipality":false,"approx_coords_only":false,"official_name":"Carapina","official_code":"3127701013","match":"direct"},"geometry":{"type":"MultiPolygon","coordinates":[[[[-41.94287,-18.84905],[-41.94519,-18.84987],[-41.94845,-18.85096],[-41.94851,-18.85085],[-41.9496,-18.84929],[-41.949,-18.84892],[-41.9487,-18.84879],[-41.94811,-18.84833],[-41.94827,-18.84806],[-41.94824,-18.84771],[-41.94717,-18.84703],[-41.9478,-18.84617],[-41.94778,-18.84611],[-41.94801,-18.84618],[-41.94872,-18.84648],[-41.94884,-18.84646],[-41.94904,-18.84638],[-41.94913,-18.84631],[-41.94941,-18.84593],[-41.94667,-18.84421],[-41.9466,-18.84406],[-41.94568,-18.84443],[-41.94481,-18.84469],[-41.94443,-18.84484],[-41.94358,-18.84537],[-41.94334,-18.84555],[-41.94057,-18.84697],[-41.94024,-18.84711],[-41.94012,-18.84714],[-41.93955,-18.84724],[-41.94111,-18.8482],[-41.94153,-18.84845],[-41.94221,-18.84878],[-41.9425,-18.8489],[-41.94287,-18.84905]]]]}},{"type":"Feature","properties":{"territory_id":"mg-3127701-centro","name":"Centro","municipality_id":"mg-3127701","polling_places":9,"approx":false,"official":true,"method":"official-ibge-cd2022","whole_municipality":false,"approx_coords_only":false,"official_name":"Centro","official_code":"3127701015","match":"direct"},"geometry":{"type":"MultiPolygon","coordinates":[[[[-41.9373,-18.85366],[-41.93445,-18.85411],[-41.93454,-18.85583],[-41.93695,-18.85497],[-41.93778,-18.85692],[-41.93794,-18.85714],[-41.93806,-18.85727],[-41.93837,-18.85759],[-41.9384,-18.85756],[-41.93979,-18.85741],[-41.94008,-18.85916],[-41.94296,-18.86062],[-41.94371,-18.86176],[-41.94551,-18.86416],[-41.94632,-18.86394],[-41.94649,-18.86387],[-41.94666,-18.86384],[-41.94677,-18.8638],[-41.94702,-18.86367],[-41.94715,-18.86364],[-41.94728,-18.86364],[-41.94789,-18.86389],[-41.94798,-18.8639],[-41.94812,-18.86389],[-41.94867,-18.86415],[-41.94901,-18.86424],[-41.94919,-18.86431],[-41.94935,-18.86439],[-41.94959,-18.86455],[-41.95002,-18.86387],[-41.94979,-18.86357],[-41.95019,-18.86324],[-41.95101,-18.86254],[-41.95095,-18.8618],[-41.95161,-18.86222],[-41.9517,-18.8621],[-41.95175,-18.86199],[-41.95179,-18.86177],[-41.95184,-18.86166],[-41.95193,-18.86159],[-41.95203,-18.86156],[-41.9531,-18.8614],[-41.95316,-18.86137],[-41.95349,-18.86095],[-41.95359,-18.86086],[-41.95369,-18.86082],[-41.95383,-18.8608],[-41.95463,-18.86077],[-41.95472,-18.86072],[-41.95482,-18.86062],[-41.95497,-18.86053],[-41.95526,-18.86045],[-41.95524,-18.86035],[-41.95523,-18.86019],[-41.95525,-18.86008],[-41.9553,-18.85997],[-41.95548,-18.85998],[-41.95605,-18.85928],[-41.95444,-18.85856],[-41.9536,-18.8581],[-41.95249,-18.85745],[-41.95185,-18.85636],[-41.95118,-18.85493],[-41.951,-18.85481],[-41.95542,-18.8545],[-41.95605,-18.85452],[-41.95722,-18.85485],[-41.95735,-18.85487],[-41.95771,-18.85479],[-41.95794,-18.85478],[-41.95896,-18.8548],[-41.9595,-18.85479],[-41.95934,-18.85469],[-41.9591,-18.85458],[-41.95831,-18.85427],[-41.95481,-18.85303],[-41.95192,-18.85203],[-41.95073,-18.85165],[-41.95022,-18.85152],[-41.94845,-18.85096],[-41.94371,-18.84936],[-41.94287,-18.84905],[-41.94221,-18.84878],[-41.94153,-18.84845],[-41.94111,-18.8482],[-41.93862,-18.85185],[-41.93788,-18.85138],[-41.93749,-18.85195],[-41.93713,-18.8524],[-41.9373,-18.85366]]]]}},{"type":"Feature","properties":{"territory_id":"mg-3127701-conjunto-sir","name":"Conjunto Sir","municipality_id":"mg-3127701","polling_places":1,"approx":true,"official":false,"method":"voronoi-polling-places","whole_municipality":false,"approx_coords_only":false},"geometry":{"type":"MultiPolygon","coordinates":[[[[-41.94161,-18.75153],[-41.92604,-18.82152],[-41.90479,-18.88187],[-41.84453,-18.92488],[-41.8435,-18.9247],[-41.79965,-18.91058],[-41.83834,-18.69574],[-41.94161,-18.75153]],[[-41.89782,-18.83491],[-41.89222,-18.83564],[-41.89242,-18.83712],[-41.89252,-18.83789],[-41.8926,-18.83862],[-41.89256,-18.83862],[-41.89262,-18.83912],[-41.89304,-18.84209],[-41.89521,-18.84204],[-41.89679,-18.84224],[-41.89703,-18.84027],[-41.89732,-18.83848],[-41.89724,-18.83844],[-41.8973,-18.83798],[-41.89782,-18.83491]]]]}},{"type":"Feature","properties":{"territory_id":"mg-3127701-corrego-dos-borges","name":"Córrego dos Borges","municipality_id":"mg-3127701","polling_places":1,"approx":true,"official":false,"method":"voronoi-polling-places","whole_municipality":false,"approx_coords_only":false},"geometry":{"type":"MultiPolygon","coordinates":[[[[-42.08174,-18.8743],[-42.03756,-18.90191],[-41.98516,-18.85933],[-41.9851,-18.85918],[-41.98403,-18.85639],[-41.98374,-18.85571],[-41.98362,-18.85534],[-41.98353,-18.85499],[-41.98349,-18.8547],[-41.98346,-18.85415],[-41.9835,-18.85302],[-41.98375,-18.85022],[-41.98381,-18.84942],[-41.98381,-18.84891],[-41.98379,-18.84864],[-41.98373,-18.84837],[-41.98364,-18.84812],[-41.98337,-18.84765],[-41.98318,-18.84742],[-41.98296,-18.84722],[-41.98276,-18.84707],[-41.98236,-18.84686],[-41.98078,-18.84614],[-41.97978,-18.84805],[-41.97978,-18.84768],[-41.97975,-18.84757],[-41.97969,-18.84745],[-41.97952,-18.84727],[-41.97943,-18.84723],[-41.9792,-18.84717],[-41.97656,-18.84712],[-41.97633,-18.84714],[-41.97615,-18.84718],[-41.97595,-18.84726],[-41.97576,-18.84737],[-41.9756,-18.8475],[-41.97547,-18.84766],[-41.97535,-18.84784],[-41.97527,-18.84807],[-41.97521,-18.84829],[-41.97517,-18.84852],[-41.97515,-18.84877],[-41.97521,-18.84966],[-41.9752,-18.84984],[-41.97516,-18.85002],[-41.97507,-18.85022],[-41.97497,-18.85036],[-41.97474,-18.85059],[-41.97462,-18.8507],[-41.97459,-18.85074],[-41.9742,-18.85042],[-41.9818,-18.76055],[-41.98746,-18.75996],[-42.08174,-18.8743]],[[-42.0022,-18.84132],[-42.0021,-18.83473],[-42.00204,-18.82953],[-42.002,-18.82811],[-41.99984,-18.82861],[-41.99718,-18.82948],[-41.99077,-18.83071],[-41.99052,-18.83034],[-41.99021,-18.83017],[-41.99008,-18.83003],[-41.99009,-18.82975],[-41.9902,-18.82954],[-41.98996,-18.82886],[-41.99012,-18.82837],[-41.99016,-18.82794],[-41.99026,-18.82767],[-41.99009,-18.82729],[-41.98964,-18.82697],[-41.98932,-18.82652],[-41.9887,-18.82618],[-41.98784,-18.82553],[-41.98765,-18.82522],[-41.98737,-18.82485],[-41.98723,-18.82433],[-41.98728,-18.82398],[-41.98734,-18.82374],[-41.98721,-18.82338],[-41.98693,-18.82305],[-41.98674,-18.82275],[-41.98655,-18.82251],[-41.98639,-18.82264],[-41.98616,-18.82255],[-41.98606,-18.82254],[-41.98629,-18.8239],[-41.9864,-18.8245],[-41.98652,-18.82491],[-41.98671,-18.82536],[-41.98687,-18.82565],[-41.98733,-18.8263],[-41.9876,-18.82662],[-41.98814,-18.82742],[-41.98829,-18.82772],[-41.98865,-18.8286],[-41.98887,-18.82949],[-41.98939,-18.83238],[-41.98952,-18.83297],[-41.98957,-18.83329],[-41.98961,-18.8337],[-41.98962,-18.83443],[-41.98953,-18.83504],[-41.98944,-18.83539],[-41.98925,-18.83596],[-41.98898,-18.83657],[-41.98869,-18.83712],[-41.98825,-18.83787],[-41.98768,-18.83866],[-41.9874,-18.83897],[-41.98685,-18.83947],[-41.987,-18.8396],[-41.98741,-18.84012],[-41.9879,-18.84036],[-41.98816,-18.84098],[-41.98847,-18.84225],[-41.98861,-18.84224],[-41.98875,-18.8422],[-41.98911,-18.84375],[-41.98963,-18.84401],[-41.99081,-18.84482],[-41.99203,-18.84505],[-41.99242,-18.84504],[-41.99309,-18.8449],[-41.99355,-18.84459],[-41.99386,-18.8442],[-41.99432,-18.8447],[-41.99455,-18.84501],[-41.99516,-18.84566],[-41.996,-18.84602],[-41.99658,-18.8462],[-41.99777,-18.84514],[-42.00048,-18.84133],[-42.0022,-18.84132]]]]}},{"type":"Feature","properties":{"territory_id":"mg-3127701-corrego-dos-prazeres","name":"Corrego dos Prazeres","municipality_id":"mg-3127701","polling_places":1,"approx":true,"official":false,"method":"voronoi-polling-places","whole_municipality":false,"approx_coords_only":false},"geometry":{"type":"MultiPolygon","coordinates":[[[[-42.2739,-18.8744],[-42.261,-18.8993],[-42.26158,-18.91564],[-42.23971,-18.91151],[-42.22118,-18.86423],[-42.27334,-18.83453],[-42.2739,-18.8744]]]]}},{"type":"Feature","properties":{"territory_id":"mg-3127701-distrito-de-alto-santa-helena","name":"Distrito de Alto Santa Helena","municipality_id":"mg-3127701","polling_places":1,"approx":true,"official":false,"method":"voronoi-polling-places","whole_municipality":false,"approx_coords_only":false},"geometry":{"type":"MultiPolygon","coordinates":[[[[-41.61479,-18.68417],[-41.59257,-18.74423],[-41.5812,-18.6723],[-41.5817,-18.6165],[-41.5672,-18.5845],[-41.5397,-18.5815],[-41.5733,-18.573],[-41.59067,-18.58232],[-41.61479,-18.68417]]]]}},{"type":"Feature","properties":{"territory_id":"mg-3127701-distrito-de-baguari","name":"Distrito de Baguari","municipality_id":"mg-3127701","polling_places":1,"approx":true,"official":false,"method":"voronoi-polling-places","whole_municipality":false,"approx_coords_only":false},"geometry":{"type":"MultiPolygon","coordinates":[[[[-42.15916,-19.0195],[-42.1356,-19.0363],[-42.1266,-19.025],[-42.0959,-19.0008],[-42.0909,-18.9738],[-42.0208,-18.9272],[-42.01648,-18.92779],[-42.03756,-18.90191],[-42.08174,-18.8743],[-42.10082,-18.87399],[-42.1137,-18.88137],[-42.15844,-18.97483],[-42.15916,-19.0195]]]]}},{"type":"Feature","properties":{"territory_id":"mg-3127701-distrito-de-brejaubinha","name":"Distrito de Brejaubinha","municipality_id":"mg-3127701","polling_places":1,"approx":true,"official":false,"method":"voronoi-polling-places","whole_municipality":false,"approx_coords_only":false},"geometry":{"type":"MultiPolygon","coordinates":[[[[-42.25013,-18.72085],[-42.23949,-18.79688],[-42.20304,-18.80939],[-42.19178,-18.78422],[-42.21938,-18.71151],[-42.24811,-18.71281],[-42.25013,-18.72085]]]]}},{"type":"Feature","properties":{"territory_id":"mg-3127701-distrito-de-capoeirao","name":"Distrito de Capoeirao","municipality_id":"mg-3127701","polling_places":1,"approx":true,"official":false,"method":"voronoi-polling-places","whole_municipality":false,"approx_coords_only":false},"geometry":{"type":"MultiPolygon","coordinates":[[[[-42.20304,-18.80939],[-42.19072,-18.83606],[-42.14077,-18.77252],[-42.19178,-18.78422],[-42.20304,-18.80939]]]]}},{"type":"Feature","properties":{"territory_id":"mg-3127701-distrito-de-corrego-dos-desiderios","name":"Distrito de Córrego dos Desiderios","municipality_id":"mg-3127701","polling_places":1,"approx":true,"official":false,"method":"voronoi-polling-places","whole_municipality":false,"approx_coords_only":false},"geometry":{"type":"MultiPolygon","coordinates":[[[[-42.32235,-18.81591],[-42.3031,-18.806],[-42.27377,-18.82435],[-42.23949,-18.79688],[-42.25013,-18.72085],[-42.32235,-18.81591]]]]}},{"type":"Feature","properties":{"territory_id":"mg-3127701-distrito-de-melquiades","name":"Distrito de Melquiades","municipality_id":"mg-3127701","polling_places":1,"approx":true,"official":false,"method":"voronoi-polling-places","whole_municipality":false,"approx_coords_only":false},"geometry":{"type":"MultiPolygon","coordinates":[[[[-42.27377,-18.82435],[-42.2732,-18.8247],[-42.27334,-18.83453],[-42.22118,-18.86423],[-42.18763,-18.84779],[-42.19072,-18.83606],[-42.20304,-18.80939],[-42.23949,-18.79688],[-42.27377,-18.82435]]]]}},{"type":"Feature","properties":{"territory_id":"mg-3127701-distrito-de-nova-brasilia","name":"Distrito de Nova Brasilia","municipality_id":"mg-3127701","polling_places":1,"approx":true,"official":false,"method":"voronoi-polling-places","whole_municipality":false,"approx_coords_only":false},"geometry":{"type":"MultiPolygon","coordinates":[[[[-41.82541,-18.67074],[-41.68688,-18.75506],[-41.65524,-18.7599],[-41.6464,-18.751],[-41.5932,-18.7482],[-41.59257,-18.74423],[-41.61479,-18.68417],[-41.76513,-18.61175],[-41.782,-18.6521],[-41.82478,-18.6604],[-41.82541,-18.67074]]]]}},{"type":"Feature","properties":{"territory_id":"mg-3127701-distrito-de-penha-do-cassiano","name":"Distrito de Penha do Cassiano","municipality_id":"mg-3127701","polling_places":1,"approx":true,"official":false,"method":"voronoi-polling-places","whole_municipality":false,"approx_coords_only":false},"geometry":{"type":"MultiPolygon","coordinates":[[[[-42.23971,-18.91151],[-42.15844,-18.97483],[-42.1137,-18.88137],[-42.18763,-18.84779],[-42.22118,-18.86423],[-42.23971,-18.91151]]]]}},{"type":"Feature","properties":{"territory_id":"mg-3127701-distrito-de-ribeirao-dos-bernardos","name":"Distrito de Ribeirao dos Bernardos","municipality_id":"mg-3127701","polling_places":1,"approx":true,"official":false,"method":"voronoi-polling-places","whole_municipality":false,"approx_coords_only":false},"geometry":{"type":"MultiPolygon","coordinates":[[[[-42.19072,-18.83606],[-42.18763,-18.84779],[-42.1137,-18.88137],[-42.10082,-18.87399],[-42.12018,-18.76325],[-42.14077,-18.77252],[-42.19072,-18.83606]]]]}},{"type":"Feature","properties":{"territory_id":"mg-3127701-distrito-de-santo-antonio-do-pontal","name":"Distrito de Santo Antonio do Pontal","municipality_id":"mg-3127701","polling_places":1,"approx":true,"official":false,"method":"voronoi-polling-places","whole_municipality":false,"approx_coords_only":false},"geometry":{"type":"MultiPolygon","coordinates":[[[[-42.12018,-18.76325],[-42.10082,-18.87399],[-42.08174,-18.8743],[-41.98746,-18.75996],[-42.04501,-18.71911],[-42.10533,-18.70726],[-42.12018,-18.76325]]]]}},{"type":"Feature","properties":{"territory_id":"mg-3127701-distrito-de-santo-antonio-do-porto","name":"Distrito de Santo Antonio do Porto","municipality_id":"mg-3127701","polling_places":1,"approx":true,"official":false,"method":"voronoi-polling-places","whole_municipality":false,"approx_coords_only":false},"geometry":{"type":"MultiPolygon","coordinates":[[[[-42.21938,-18.71151],[-42.19178,-18.78422],[-42.14077,-18.77252],[-42.12018,-18.76325],[-42.10533,-18.70726],[-42.15289,-18.65252],[-42.1783,-18.6694],[-42.206,-18.7109],[-42.21938,-18.71151]]]]}},{"type":"Feature","properties":{"territory_id":"mg-3127701-distrito-de-sao-jose-do-goiabal","name":"Distrito de Sao Jose do Goiabal","municipality_id":"mg-3127701","polling_places":1,"approx":true,"official":false,"method":"voronoi-polling-places","whole_municipality":false,"approx_coords_only":false},"geometry":{"type":"MultiPolygon","coordinates":[[[[-42.3397,-18.7924],[-42.327,-18.8183],[-42.32235,-18.81591],[-42.25013,-18.72085],[-42.24811,-18.71281],[-42.2501,-18.7129],[-42.3013,-18.7396],[-42.3243,-18.7483],[-42.3397,-18.7924]]]]}},{"type":"Feature","properties":{"territory_id":"mg-3127701-distrito-de-sao-jose-do-itapinoa","name":"Distrito de São José do Itapinoã","municipality_id":"mg-3127701","polling_places":1,"approx":true,"official":false,"method":"voronoi-polling-places","whole_municipality":false,"approx_coords_only":false},"geometry":{"type":"MultiPolygon","coordinates":[[[[-41.76513,-18.61175],[-41.61479,-18.68417],[-41.59067,-18.58232],[-41.6464,-18.6122],[-41.6953,-18.5613],[-41.7241,-18.6013],[-41.758,-18.5947],[-41.76513,-18.61175]]]]}},{"type":"Feature","properties":{"territory_id":"mg-3127701-distrito-de-sao-vitor","name":"Distrito de Sao Vitor","municipality_id":"mg-3127701","polling_places":1,"approx":true,"official":false,"method":"voronoi-polling-places","whole_municipality":false,"approx_coords_only":false},"geometry":{"type":"MultiPolygon","coordinates":[[[[-41.74866,-18.90036],[-41.7134,-18.9101],[-41.7111,-18.8892],[-41.6783,-18.8438],[-41.6899,-18.7948],[-41.65524,-18.7599],[-41.68688,-18.75506],[-41.74866,-18.90036]]]]}},{"type":"Feature","properties":{"territory_id":"mg-3127701-distrito-de-vila-nova-floresta-paca","name":"Distrito de Vila Nova Floresta (paca)","municipality_id":"mg-3127701","polling_places":1,"approx":true,"official":false,"method":"voronoi-polling-places","whole_municipality":false,"approx_coords_only":false},"geometry":{"type":"MultiPolygon","coordinates":[[[[-42.2771,-18.972],[-42.2463,-18.9932],[-42.2084,-18.9844],[-42.15916,-19.0195],[-42.15844,-18.97483],[-42.23971,-18.91151],[-42.26158,-18.91564],[-42.2625,-18.9418],[-42.2771,-18.972]]]]}},{"type":"Feature","properties":{"territory_id":"mg-3127701-distrito-de-xonim-de-baixo","name":"Distrito de Xonim de Baixo","municipality_id":"mg-3127701","polling_places":1,"approx":true,"official":false,"method":"voronoi-polling-places","whole_municipality":false,"approx_coords_only":false},"geometry":{"type":"MultiPolygon","coordinates":[[[[-42.04501,-18.71911],[-41.98746,-18.75996],[-41.9818,-18.76055],[-41.94161,-18.75153],[-41.83834,-18.69574],[-41.82541,-18.67074],[-41.82478,-18.6604],[-41.8289,-18.6612],[-42.00525,-18.64376],[-42.04501,-18.71911]]]]}},{"type":"Feature","properties":{"territory_id":"mg-3127701-distrito-de-xonim-de-cima","name":"Distrito de Xonim de Cima","municipality_id":"mg-3127701","polling_places":1,"approx":true,"official":false,"method":"voronoi-polling-places","whole_municipality":false,"approx_coords_only":false},"geometry":{"type":"MultiPolygon","coordinates":[[[[-42.15289,-18.65252],[-42.10533,-18.70726],[-42.04501,-18.71911],[-42.00525,-18.64376],[-42.018,-18.6425],[-41.9976,-18.6107],[-42.008,-18.5525],[-42.0491,-18.5836],[-42.15289,-18.65252]]]]}},{"type":"Feature","properties":{"territory_id":"mg-3127701-distrito-industrial","name":"Distrito Industrial","municipality_id":"mg-3127701","polling_places":1,"approx":false,"official":true,"method":"official-ibge-cd2022","whole_municipality":false,"approx_coords_only":false,"official_name":"Distrito Industrial","official_code":"3127701005","match":"direct"},"geometry":{"type":"MultiPolygon","coordinates":[[[[-41.99553,-18.91554],[-41.99596,-18.91551],[-41.99635,-18.91569],[-41.99689,-18.91588],[-41.99773,-18.91649],[-41.99795,-18.91682],[-41.99852,-18.91702],[-41.99873,-18.91706],[-41.99931,-18.91712],[-42.00001,-18.91726],[-42.00025,-18.91746],[-42.00066,-18.91755],[-42.00155,-18.91751],[-42.00206,-18.91734],[-42.00244,-18.91717],[-42.00281,-18.91696],[-42.00304,-18.91659],[-42.0034,-18.91645],[-42.00384,-18.91643],[-42.00415,-18.91657],[-42.0045,-18.91665],[-42.00546,-18.91697],[-42.00623,-18.91719],[-42.00705,-18.91768],[-42.00778,-18.91808],[-42.00828,-18.91832],[-42.00884,-18.91865],[-42.00995,-18.91921],[-42.01028,-18.9194],[-42.01056,-18.91945],[-42.01077,-18.91952],[-42.01088,-18.91952],[-42.01173,-18.9198],[-42.01213,-18.92],[-42.01249,-18.92021],[-42.01272,-18.92037],[-42.0129,-18.92052],[-42.01332,-18.92096],[-42.01519,-18.92008],[-42.01405,-18.91875],[-42.01083,-18.91487],[-42.00866,-18.91222],[-42.00549,-18.90841],[-42.005,-18.90785],[-42.00458,-18.90735],[-42.00393,-18.90645],[-42.00376,-18.90614],[-42.00354,-18.90559],[-42.00336,-18.90504],[-42.00332,-18.90474],[-42.00331,-18.90412],[-42.0037,-18.9015],[-42.00416,-18.89812],[-42.00434,-18.89707],[-42.00453,-18.89484],[-42.00483,-18.89333],[-42.00486,-18.89295],[-42.00491,-18.89283],[-42.00497,-18.89219],[-42.00509,-18.89146],[-42.0051,-18.89123],[-42.00527,-18.88982],[-42.00526,-18.88945],[-42.00521,-18.88915],[-42.00508,-18.88871],[-42.00493,-18.88838],[-42.00485,-18.8883],[-42.00463,-18.88798],[-42.00439,-18.88767],[-42.00413,-18.88745],[-42.00409,-18.88752],[-42.00404,-18.88759],[-42.004,-18.88761],[-42.00394,-18.88771],[-42.00393,-18.8878],[-42.00394,-18.88788],[-42.00397,-18.88792],[-42.00398,-18.88802],[-42.00395,-18.88807],[-42.00385,-18.88814],[-42.00373,-18.8882],[-42.00362,-18.88821],[-42.00354,-18.88819],[-42.00343,-18.88813],[-42.00329,-18.88808],[-42.00313,-18.88806],[-42.00296,-18.88808],[-42.00281,-18.88814],[-42.00273,-18.88825],[-42.00264,-18.88826],[-42.00242,-18.88813],[-42.00233,-18.88812],[-42.00225,-18.88816],[-42.00221,-18.88823],[-42.00224,-18.88831],[-42.00223,-18.88838],[-42.00218,-18.88843],[-42.00209,-18.88845],[-42.00195,-18.88855],[-42.00185,-18.88855],[-42.00166,-18.88838],[-42.00154,-18.88834],[-42.00139,-18.88835],[-42.00126,-18.88838],[-42.00118,-18.88847],[-42.00113,-18.88865],[-42.00109,-18.88871],[-42.00102,-18.88874],[-42.00092,-18.88872],[-42.00082,-18.88873],[-42.00076,-18.88877],[-42.0007,-18.88891],[-42.00075,-18.88899],[-42.00074,-18.8891],[-42.00065,-18.88916],[-42.00051,-18.88918],[-42.00044,-18.88912],[-42.00037,-18.88903],[-42.00031,-18.88898],[-42.00022,-18.88896],[-42.00015,-18.88901],[-42.00006,-18.88913],[-41.99999,-18.88918],[-41.99991,-18.8892],[-41.99981,-18.88926],[-41.99948,-18.88928],[-41.99933,-18.88932],[-41.99913,-18.88943],[-41.99891,-18.8896],[-41.99877,-18.88976],[-41.9986,-18.88987],[-41.99837,-18.8899],[-41.99815,-18.88999],[-41.99793,-18.89034],[-41.99776,-18.89044],[-41.99749,-18.89043],[-41.99729,-18.89033],[-41.99719,-18.89022],[-41.99708,-18.89019],[-41.99696,-18.89021],[-41.99679,-18.89037],[-41.99671,-18.89064],[-41.99674,-18.89076],[-41.9967,-18.89093],[-41.99665,-18.89103],[-41.99649,-18.8912],[-41.99641,-18.89125],[-41.99631,-18.89124],[-41.99623,-18.89127],[-41.99609,-18.89139],[-41.99602,-18.89142],[-41.99587,-18.89144],[-41.99575,-18.89147],[-41.99565,-18.89151],[-41.99552,-18.8917],[-41.99545,-18.89176],[-41.9952,-18.8918],[-41.99507,-18.89175],[-41.99493,-18.89165],[-41.99475,-18.8916],[-41.99442,-18.89158],[-41.99429,-18.89161],[-41.9942,-18.89166],[-41.99417,-18.89174],[-41.9941,-18.8918],[-41.99407,-18.89187],[-41.99406,-18.89196],[-41.99397,-18.89203],[-41.99382,-18.89201],[-41.99356,-18.89195],[-41.99332,-18.89176],[-41.99318,-18.89174],[-41.99286,-18.89175],[-41.99269,-18.89179],[-41.99258,-18.89178],[-41.9925,-18.89181],[-41.99237,-18.89189],[-41.99231,-18.89191],[-41.99213,-18.89191],[-41.99202,-18.89197],[-41.99179,-18.89196],[-41.99148,-18.89185],[-41.99138,-18.89184],[-41.99127,-18.89187],[-41.99118,-18.89194],[-41.99112,-18.89204],[-41.99111,-18.89214],[-41.99113,-18.89222],[-41.99122,-18.89235],[-41.99122,-18.8924],[-41.99111,-18.89251],[-41.99105,-18.89261],[-41.99099,-18.89291],[-41.99093,-18.89304],[-41.99074,-18.89329],[-41.99068,-18.8934],[-41.99067,-18.8935],[-41.99062,-18.89357],[-41.99053,-18.89362],[-41.99043,-18.89364],[-41.9902,-18.89364],[-41.99006,-18.89368],[-41.98993,-18.89377],[-41.9898,-18.89401],[-41.9897,-18.89425],[-41.9896,-18.89435],[-41.98942,-18.89442],[-41.98929,-18.89445],[-41.98907,-18.89443],[-41.98896,-18.89447],[-41.98864,-18.89467],[-41.98859,-18.89475],[-41.98859,-18.89482],[-41.98869,-18.89493],[-41.98871,-18.89497],[-41.98871,-18.89502],[-41.98864,-18.89509],[-41.98854,-18.89508],[-41.98844,-18.89516],[-41.98832,-18.8952],[-41.98827,-18.89528],[-41.98818,-18.89538],[-41.98811,-18.89535],[-41.98809,-18.89522],[-41.98812,-18.89502],[-41.98809,-18.89485],[-41.98805,-18.89475],[-41.98795,-18.89468],[-41.98778,-18.89465],[-41.9876,-18.8947],[-41.98755,-18.8947],[-41.98746,-18.89472],[-41.98725,-18.89487],[-41.98718,-18.89487],[-41.9871,-18.89486],[-41.98698,-18.8948],[-41.98662,-18.89472],[-41.98654,-18.89466],[-41.98646,-18.89465],[-41.98637,-18.89466],[-41.98628,-18.89464],[-41.98622,-18.89466],[-41.98614,-18.89474],[-41.98602,-18.89483],[-41.98592,-18.89488],[-41.98588,-18.89492],[-41.98586,-18.89502],[-41.9858,-18.89509],[-41.98568,-18.89546],[-41.98565,-18.89552],[-41.98558,-18.89558],[-41.98553,-18.89568],[-41.98547,-18.89571],[-41.98528,-18.89574],[-41.98505,-18.89565],[-41.98493,-18.89557],[-41.98487,-18.89552],[-41.98484,-18.89546],[-41.98486,-18.89537],[-41.98492,-18.89523],[-41.98493,-18.89497],[-41.98487,-18.89481],[-41.98493,-18.89452],[-41.98491,-18.89443],[-41.98484,-18.89431],[-41.98483,-18.89423],[-41.98478,-18.89413],[-41.98448,-18.89398],[-41.98432,-18.89394],[-41.98411,-18.89382],[-41.98394,-18.89376],[-41.98365,-18.89351],[-41.98342,-18.89338],[-41.98332,-18.89337],[-41.98316,-18.89338],[-41.98304,-18.89333],[-41.98293,-18.89327],[-41.98276,-18.89306],[-41.9827,-18.89274],[-41.98271,-18.89268],[-41.98275,-18.89259],[-41.98289,-18.89253],[-41.98295,-18.89245],[-41.98306,-18.89213],[-41.98308,-18.89199],[-41.98305,-18.89188],[-41.983,-18.89179],[-41.98281,-18.89165],[-41.98237,-18.89156],[-41.98176,-18.89157],[-41.98139,-18.89168],[-41.98122,-18.89175],[-41.98108,-18.89173],[-41.981,-18.89167],[-41.98094,-18.89137],[-41.98091,-18.89128],[-41.98085,-18.89123],[-41.98057,-18.89123],[-41.98049,-18.89117],[-41.98033,-18.89109],[-41.98025,-18.89103],[-41.98017,-18.89091],[-41.98013,-18.8907],[-41.98,-18.89057],[-41.9799,-18.89052],[-41.97979,-18.89052],[-41.97952,-18.89029],[-41.97936,-18.89007],[-41.97931,-18.88993],[-41.9793,-18.88981],[-41.97935,-18.88969],[-41.97956,-18.8894],[-41.97959,-18.88932],[-41.97958,-18.88916],[-41.97952,-18.88906],[-41.97908,-18.88881],[-41.97896,-18.88871],[-41.97874,-18.8884],[-41.97852,-18.88824],[-41.9784,-18.88818],[-41.97809,-18.88791],[-41.97731,-18.88768],[-41.97709,-18.88766],[-41.97658,-18.88756],[-41.97616,-18.88743],[-41.97574,-18.88742],[-41.97538,-18.88736],[-41.97475,-18.88712],[-41.97419,-18.887],[-41.97405,-18.88692],[-41.97391,-18.8869],[-41.97376,-18.8869],[-41.97367,-18.88689],[-41.97359,-18.88686],[-41.97333,-18.8869],[-41.97287,-18.88686],[-41.97264,-18.88675],[-41.9725,-18.88673],[-41.9723,-18.88674],[-41.97218,-18.88677],[-41.97209,-18.88681],[-41.97199,-18.88691],[-41.97187,-18.88699],[-41.97172,-18.88712],[-41.97296,-18.88851],[-41.97318,-18.88872],[-41.97344,-18.88894],[-41.9746,-18.88983],[-41.97697,-18.89163],[-41.97785,-18.89235],[-41.97819,-18.89269],[-41.99002,-18.90475],[-41.99203,-18.90682],[-41.99517,-18.91],[-41.99645,-18.91133],[-41.99641,-18.91158],[-41.99557,-18.91536],[-41.99553,-18.91554]]]]}},{"type":"Feature","properties":{"territory_id":"mg-3127701-elvamar","name":"Elvamar","municipality_id":"mg-3127701","polling_places":1,"approx":false,"official":true,"method":"official-ibge-cd2022","whole_municipality":false,"approx_coords_only":false,"official_name":"Elvamar","official_code":"3127701020","match":"direct"},"geometry":{"type":"MultiPolygon","coordinates":[[[[-41.94109,-18.87317],[-41.93801,-18.86721],[-41.93731,-18.86534],[-41.93751,-18.8612],[-41.93729,-18.85989],[-41.92989,-18.86439],[-41.93004,-18.86451],[-41.93084,-18.86524],[-41.9315,-18.86603],[-41.93235,-18.86722],[-41.93268,-18.86793],[-41.93278,-18.86826],[-41.93292,-18.86897],[-41.9332,-18.86988],[-41.93334,-18.87005],[-41.93366,-18.87019],[-41.93384,-18.87037],[-41.93395,-18.87057],[-41.93429,-18.87175],[-41.93443,-18.87206],[-41.9347,-18.87352],[-41.93469,-18.87446],[-41.93478,-18.87468],[-41.93495,-18.87487],[-41.93523,-18.87498],[-41.93542,-18.87498],[-41.93689,-18.87459],[-41.93737,-18.87469],[-41.93786,-18.8749],[-41.93907,-18.87575],[-41.93995,-18.87634],[-41.94048,-18.87672],[-41.94146,-18.87774],[-41.94211,-18.87878],[-41.94246,-18.87933],[-41.94364,-18.88101],[-41.94401,-18.88134],[-41.94417,-18.88144],[-41.94435,-18.88153],[-41.94456,-18.88155],[-41.94454,-18.88145],[-41.94455,-18.88137],[-41.94461,-18.88106],[-41.94496,-18.88081],[-41.94499,-18.88054],[-41.94486,-18.88029],[-41.94484,-18.87999],[-41.94473,-18.87985],[-41.94465,-18.87965],[-41.94453,-18.8795],[-41.94452,-18.87924],[-41.94455,-18.87904],[-41.94451,-18.87887],[-41.9444,-18.87867],[-41.94419,-18.8786],[-41.94395,-18.87842],[-41.94386,-18.87818],[-41.94386,-18.87799],[-41.94388,-18.87783],[-41.94411,-18.87764],[-41.94418,-18.87739],[-41.94427,-18.87726],[-41.94428,-18.8769],[-41.94433,-18.87679],[-41.9444,-18.87641],[-41.94431,-18.87622],[-41.94379,-18.87597],[-41.94374,-18.87582],[-41.94461,-18.87453],[-41.94423,-18.87437],[-41.94109,-18.87317]]]]}},{"type":"Feature","properties":{"territory_id":"mg-3127701-esperanca","name":"Esperanca","municipality_id":"mg-3127701","polling_places":2,"approx":false,"official":true,"method":"official-ibge-cd2022","whole_municipality":false,"approx_coords_only":false,"official_name":"Esperança","official_code":"3127701021","match":"direct"},"geometry":{"type":"MultiPolygon","coordinates":[[[[-41.95335,-18.8391],[-41.95405,-18.83855],[-41.95411,-18.8382],[-41.95409,-18.83786],[-41.9539,-18.83772],[-41.95379,-18.83772],[-41.95365,-18.83778],[-41.95332,-18.83758],[-41.95343,-18.83719],[-41.95348,-18.83683],[-41.95404,-18.83478],[-41.95371,-18.83465],[-41.95342,-18.83485],[-41.95312,-18.83498],[-41.95297,-18.83494],[-41.95174,-18.83447],[-41.95124,-18.83429],[-41.95104,-18.83493],[-41.95067,-18.83734],[-41.95118,-18.83733],[-41.95111,-18.83767],[-41.95031,-18.83781],[-41.94977,-18.83783],[-41.94928,-18.83787],[-41.9492,-18.83791],[-41.94902,-18.83816],[-41.94913,-18.83845],[-41.94917,-18.83956],[-41.94976,-18.83998],[-41.95027,-18.84041],[-41.95077,-18.84049],[-41.95051,-18.8411],[-41.9503,-18.84155],[-41.95021,-18.84181],[-41.95032,-18.84249],[-41.95077,-18.84268],[-41.95096,-18.84282],[-41.95106,-18.84292],[-41.9513,-18.84324],[-41.95144,-18.84309],[-41.95173,-18.84267],[-41.95208,-18.84211],[-41.95224,-18.84144],[-41.95137,-18.84084],[-41.95131,-18.84078],[-41.95131,-18.8407],[-41.95134,-18.84064],[-41.95174,-18.84032],[-41.95219,-18.84],[-41.95221,-18.8399],[-41.95217,-18.83981],[-41.95165,-18.83911],[-41.95209,-18.83905],[-41.95282,-18.83911],[-41.95326,-18.83918],[-41.95335,-18.8391]]]]}},{"type":"Feature","properties":{"territory_id":"mg-3127701-fraternidade","name":"Fraternidade","municipality_id":"mg-3127701","polling_places":1,"approx":false,"official":true,"method":"official-ibge-cd2022","whole_municipality":false,"approx_coords_only":false,"official_name":"Fraternidade","official_code":"3127701025","match":"direct"},"geometry":{"type":"MultiPolygon","coordinates":[[[[-41.97457,-18.87811],[-41.97449,-18.87783],[-41.97445,-18.87778],[-41.97449,-18.87775],[-41.97487,-18.87697],[-41.97544,-18.87711],[-41.97567,-18.87632],[-41.97573,-18.8762],[-41.97585,-18.87613],[-41.97597,-18.87603],[-41.9762,-18.8754],[-41.97289,-18.87421],[-41.97238,-18.87547],[-41.97305,-18.87571],[-41.97302,-18.87582],[-41.97285,-18.87603],[-41.97267,-18.87689],[-41.97243,-18.87777],[-41.97211,-18.87909],[-41.97219,-18.87909],[-41.97213,-18.88011],[-41.97185,-18.88142],[-41.97399,-18.88144],[-41.97472,-18.87813],[-41.97457,-18.87811]]]]}},{"type":"Feature","properties":{"territory_id":"mg-3127701-gra-duquesa","name":"Gra-duquesa","municipality_id":"mg-3127701","polling_places":3,"approx":false,"official":true,"method":"official-ibge-cd2022","whole_municipality":false,"approx_coords_only":false,"official_name":"Grã-Duquesa","official_code":"3127701026","match":"direct"},"geometry":{"type":"MultiPolygon","coordinates":[[[[-41.95148,-18.8466],[-41.951,-18.84729],[-41.95243,-18.8478],[-41.95163,-18.85194],[-41.95481,-18.85303],[-41.95831,-18.85427],[-41.9591,-18.85458],[-41.95934,-18.85469],[-41.9595,-18.85479],[-41.96028,-18.85479],[-41.96083,-18.85474],[-41.96199,-18.85449],[-41.96236,-18.85446],[-41.96205,-18.85393],[-41.96199,-18.85378],[-41.96186,-18.85327],[-41.96179,-18.85313],[-41.9617,-18.853],[-41.95945,-18.85109],[-41.96146,-18.84623],[-41.96185,-18.84516],[-41.96254,-18.84353],[-41.96279,-18.84326],[-41.96032,-18.84079],[-41.95993,-18.84038],[-41.96017,-18.84023],[-41.96077,-18.83993],[-41.96067,-18.83904],[-41.96036,-18.83924],[-41.95844,-18.83852],[-41.95671,-18.83792],[-41.95611,-18.8393],[-41.9561,-18.83937],[-41.9559,-18.83992],[-41.95587,-18.8401],[-41.95589,-18.8403],[-41.95593,-18.84052],[-41.95586,-18.84049],[-41.95571,-18.8405],[-41.95564,-18.84052],[-41.9556,-18.84058],[-41.95547,-18.8409],[-41.95541,-18.84098],[-41.95523,-18.84139],[-41.95508,-18.84164],[-41.95486,-18.84222],[-41.95484,-18.84244],[-41.95433,-18.84278],[-41.95384,-18.84326],[-41.95292,-18.84464],[-41.95276,-18.84478],[-41.95263,-18.84476],[-41.9525,-18.84482],[-41.9523,-18.84512],[-41.95228,-18.84524],[-41.95235,-18.84536],[-41.95211,-18.84568],[-41.9518,-18.84614],[-41.95148,-18.8466]]]]}},{"type":"Feature","properties":{"territory_id":"mg-3127701-ilha-dos-araujos","name":"Ilha dos Araujos","municipality_id":"mg-3127701","polling_places":3,"approx":false,"official":true,"method":"official-ibge-cd2022","whole_municipality":false,"approx_coords_only":false,"official_name":"Ilha dos Araújos","official_code":"3127701027","match":"direct"},"geometry":{"type":"MultiPolygon","coordinates":[[[[-41.93731,-18.86534],[-41.93801,-18.86721],[-41.94109,-18.87317],[-41.94423,-18.87437],[-41.94461,-18.87453],[-41.94566,-18.87492],[-41.94592,-18.87505],[-41.95133,-18.87952],[-41.95222,-18.87653],[-41.95226,-18.87632],[-41.95191,-18.8749],[-41.95169,-18.87327],[-41.95134,-18.87221],[-41.95126,-18.87185],[-41.95072,-18.87042],[-41.95021,-18.86933],[-41.94911,-18.86746],[-41.94814,-18.86634],[-41.94551,-18.86416],[-41.94371,-18.86176],[-41.94296,-18.86062],[-41.94008,-18.85916],[-41.937,-18.85908],[-41.93729,-18.85989],[-41.93751,-18.8612],[-41.93731,-18.86534]]]]}},{"type":"Feature","properties":{"territory_id":"mg-3127701-jardim-atalaia","name":"Jardim Atalaia","municipality_id":"mg-3127701","polling_places":2,"approx":false,"official":true,"method":"official-ibge-cd2022","whole_municipality":false,"approx_coords_only":false,"official_name":"Jardim Atalaia","official_code":"3127701030","match":"direct"},"geometry":{"type":"MultiPolygon","coordinates":[[[[-41.95057,-18.91329],[-41.95087,-18.91288],[-41.95097,-18.91258],[-41.95119,-18.91217],[-41.95141,-18.91143],[-41.95195,-18.91118],[-41.95278,-18.9106],[-41.9535,-18.91008],[-41.9541,-18.90959],[-41.95397,-18.90941],[-41.95389,-18.90926],[-41.95383,-18.909],[-41.95388,-18.90881],[-41.95395,-18.9087],[-41.95404,-18.90861],[-41.95418,-18.90855],[-41.95534,-18.90843],[-41.95573,-18.90834],[-41.95645,-18.90787],[-41.95662,-18.9078],[-41.95678,-18.90776],[-41.95897,-18.90751],[-41.95984,-18.90733],[-41.95999,-18.90725],[-41.96007,-18.90716],[-41.96006,-18.90626],[-41.96001,-18.9062],[-41.95951,-18.90595],[-41.95839,-18.90495],[-41.95744,-18.90557],[-41.95661,-18.90526],[-41.95448,-18.90439],[-41.95347,-18.9047],[-41.95332,-18.90511],[-41.95311,-18.9054],[-41.95273,-18.90551],[-41.95222,-18.90582],[-41.95203,-18.90604],[-41.95162,-18.90632],[-41.95141,-18.90663],[-41.95115,-18.90677],[-41.9511,-18.90682],[-41.95064,-18.90767],[-41.94808,-18.90702],[-41.94822,-18.90875],[-41.94743,-18.90881],[-41.94686,-18.90904],[-41.94719,-18.90963],[-41.94138,-18.9123],[-41.94101,-18.9151],[-41.94058,-18.91819],[-41.9405,-18.9189],[-41.94231,-18.91909],[-41.9438,-18.91865],[-41.94409,-18.91815],[-41.94472,-18.91824],[-41.94489,-18.91829],[-41.94519,-18.91819],[-41.94562,-18.91797],[-41.94646,-18.9168],[-41.94784,-18.91579],[-41.94899,-18.91476],[-41.94998,-18.91448],[-41.95172,-18.91607],[-41.95203,-18.91573],[-41.95365,-18.91575],[-41.95482,-18.91639],[-41.95527,-18.91577],[-41.95582,-18.9153],[-41.95651,-18.9145],[-41.95659,-18.91436],[-41.95623,-18.9144],[-41.9564,-18.91393],[-41.95516,-18.91412],[-41.95497,-18.91413],[-41.95478,-18.9141],[-41.95424,-18.91391],[-41.9536,-18.91364],[-41.9531,-18.91354],[-41.95121,-18.91368],[-41.95105,-18.91363],[-41.95057,-18.91329]]]]}},{"type":"Feature","properties":{"territory_id":"mg-3127701-jardim-do-trevo","name":"Jardim do Trevo","municipality_id":"mg-3127701","polling_places":1,"approx":false,"official":true,"method":"official-ibge-cd2022","whole_municipality":false,"approx_coords_only":false,"official_name":"Jardim do Trevo","official_code":"3127701031","match":"direct"},"geometry":{"type":"MultiPolygon","coordinates":[[[[-41.98875,-18.8422],[-41.98911,-18.84375],[-41.98963,-18.84401],[-41.99081,-18.84482],[-41.99203,-18.84505],[-41.99242,-18.84504],[-41.99309,-18.8449],[-41.99355,-18.84459],[-41.99386,-18.8442],[-41.99432,-18.8447],[-41.99455,-18.84501],[-41.99516,-18.84566],[-41.996,-18.84602],[-41.99658,-18.8462],[-41.99777,-18.84514],[-42.00048,-18.84133],[-41.99891,-18.8402],[-41.99899,-18.83994],[-41.99831,-18.83942],[-41.99687,-18.83879],[-41.99684,-18.83822],[-41.99583,-18.83609],[-41.99575,-18.836],[-41.99551,-18.83589],[-41.99527,-18.83582],[-41.99491,-18.83575],[-41.99474,-18.83576],[-41.99462,-18.83584],[-41.99442,-18.83602],[-41.99385,-18.83635],[-41.9932,-18.83661],[-41.99244,-18.83682],[-41.99236,-18.83704],[-41.99121,-18.83667],[-41.9914,-18.83616],[-41.99097,-18.83632],[-41.99066,-18.83638],[-41.98991,-18.83615],[-41.98945,-18.83603],[-41.98925,-18.83596],[-41.98898,-18.83657],[-41.98869,-18.83712],[-41.98825,-18.83787],[-41.98768,-18.83866],[-41.9874,-18.83897],[-41.98685,-18.83947],[-41.987,-18.8396],[-41.98741,-18.84012],[-41.9879,-18.84036],[-41.98816,-18.84098],[-41.98847,-18.84225],[-41.98861,-18.84224],[-41.98875,-18.8422]]]]}},{"type":"Feature","properties":{"territory_id":"mg-3127701-jardim-perola","name":"Jardim Perola","municipality_id":"mg-3127701","polling_places":2,"approx":false,"official":true,"method":"official-ibge-cd2022","whole_municipality":false,"approx_coords_only":false,"official_name":"Jardim Pérola","official_code":"3127701033","match":"direct"},"geometry":{"type":"MultiPolygon","coordinates":[[[[-41.96904,-18.87717],[-41.96982,-18.87633],[-41.96985,-18.87626],[-41.97126,-18.87744],[-41.97139,-18.87747],[-41.97193,-18.87669],[-41.97267,-18.87689],[-41.97285,-18.87603],[-41.97302,-18.87582],[-41.97305,-18.87571],[-41.97238,-18.87547],[-41.97289,-18.87421],[-41.9762,-18.8754],[-41.97597,-18.87603],[-41.97585,-18.87613],[-41.97573,-18.8762],[-41.97567,-18.87632],[-41.97544,-18.87711],[-41.97558,-18.87714],[-41.97591,-18.87723],[-41.97612,-18.87655],[-41.97616,-18.87652],[-41.97651,-18.8766],[-41.97691,-18.87566],[-41.97723,-18.87483],[-41.97726,-18.87468],[-41.97725,-18.87437],[-41.97733,-18.87435],[-41.97731,-18.87367],[-41.97726,-18.87333],[-41.97726,-18.87318],[-41.97735,-18.87297],[-41.97736,-18.87284],[-41.97746,-18.87269],[-41.97777,-18.87226],[-41.97822,-18.87174],[-41.97705,-18.87129],[-41.9763,-18.87103],[-41.97653,-18.87042],[-41.97267,-18.86908],[-41.97244,-18.86898],[-41.97212,-18.86866],[-41.97201,-18.86864],[-41.97191,-18.86865],[-41.9718,-18.8687],[-41.97144,-18.86901],[-41.96632,-18.87414],[-41.96724,-18.8789],[-41.96737,-18.87886],[-41.96816,-18.87804],[-41.96904,-18.87717]]]]}},{"type":"Feature","properties":{"territory_id":"mg-3127701-jk-1","name":"Jk 1","municipality_id":"mg-3127701","polling_places":1,"approx":true,"official":false,"method":"voronoi-polling-places","whole_municipality":false,"approx_coords_only":false},"geometry":{"type":"MultiPolygon","coordinates":[[[[-41.99678,-18.91811],[-41.99518,-18.91709],[-41.99536,-18.91632],[-41.99678,-18.91811]]],[[[-41.98681,-18.91173],[-41.98083,-18.9079],[-41.98156,-18.90698],[-41.98292,-18.90782],[-41.98488,-18.90977],[-41.9851,-18.90996],[-41.98681,-18.91173]]],[[[-41.97101,-18.88798],[-41.97094,-18.88807],[-41.97084,-18.88824],[-41.97074,-18.88849],[-41.9707,-18.88873],[-41.97064,-18.88884],[-41.97052,-18.88903],[-41.97038,-18.88911],[-41.97028,-18.8892],[-41.97017,-18.88945],[-41.97009,-18.88962],[-41.96999,-18.88969],[-41.96985,-18.88974],[-41.96957,-18.88998],[-41.96919,-18.89015],[-41.96909,-18.89024],[-41.96886,-18.89054],[-41.9688,-18.89077],[-41.9688,-18.89095],[-41.96882,-18.8911],[-41.96892,-18.89129],[-41.96891,-18.89139],[-41.96879,-18.89149],[-41.96858,-18.89176],[-41.96838,-18.8919],[-41.96826,-18.89202],[-41.9682,-18.89215],[-41.96809,-18.89221],[-41.968,-18.89231],[-41.96795,-18.89258],[-41.96791,-18.89266],[-41.96774,-18.89287],[-41.96771,-18.89295],[-41.96766,-18.89303],[-41.96742,-18.89321],[-41.9673,-18.89352],[-41.9673,-18.89361],[-41.96734,-18.89369],[-41.96726,-18.89384],[-41.96716,-18.89394],[-41.96711,-18.89401],[-41.96704,-18.89423],[-41.96698,-18.89429],[-41.96682,-18.89436],[-41.96673,-18.89446],[-41.96662,-18.89461],[-41.96646,-18.89476],[-41.96594,-18.89509],[-41.96445,-18.89742],[-41.95663,-18.89241],[-41.9563,-18.89193],[-41.95592,-18.89134],[-41.95377,-18.88841],[-41.95232,-18.88346],[-41.95133,-18.87952],[-41.95231,-18.8834],[-41.95601,-18.8826],[-41.95678,-18.88237],[-41.95734,-18.88214],[-41.95791,-18.88189],[-41.95824,-18.88172],[-41.95858,-18.88151],[-41.95957,-18.88084],[-41.96044,-18.87999],[-41.97101,-18.88798]]],[[[-41.95191,-18.8749],[-41.9517,-18.87339],[-41.95172,-18.87351],[-41.95191,-18.8749]]],[[[-41.94488,-18.88488],[-41.94032,-18.88196],[-41.93452,-18.87695],[-41.93811,-18.87508],[-41.93907,-18.87575],[-41.93995,-18.87634],[-41.94048,-18.87672],[-41.94146,-18.87774],[-41.94211,-18.87878],[-41.94246,-18.87933],[-41.94364,-18.88101],[-41.94401,-18.88134],[-41.94417,-18.88144],[-41.94435,-18.88153],[-41.94456,-18.88155],[-41.94454,-18.88145],[-41.9446,-18.88168],[-41.94466,-18.88183],[-41.94463,-18.88202],[-41.94465,-18.8823],[-41.94481,-18.88276],[-41.94471,-18.88342],[-41.94464,-18.88414],[-41.94476,-18.88432],[-41.94482,-18.88448],[-41.94481,-18.88461],[-41.94488,-18.88488]]],[[[-41.94461,-18.88106],[-41.94454,-18.88145],[-41.94455,-18.88137],[-41.94461,-18.88106]]]]}},{"type":"Feature","properties":{"territory_id":"mg-3127701-lourdes","name":"Lourdes","municipality_id":"mg-3127701","polling_places":3,"approx":false,"official":true,"method":"official-ibge-cd2022","whole_municipality":false,"approx_coords_only":false,"official_name":"Lourdes","official_code":"3127701037","match":"direct"},"geometry":{"type":"MultiPolygon","coordinates":[[[[-41.95463,-18.86077],[-41.95383,-18.8608],[-41.95369,-18.86082],[-41.95359,-18.86086],[-41.95349,-18.86095],[-41.95316,-18.86137],[-41.9531,-18.8614],[-41.95203,-18.86156],[-41.95193,-18.86159],[-41.95184,-18.86166],[-41.95179,-18.86177],[-41.95175,-18.86199],[-41.9517,-18.8621],[-41.95161,-18.86222],[-41.95095,-18.8618],[-41.95101,-18.86254],[-41.95019,-18.86324],[-41.95074,-18.86388],[-41.9536,-18.86697],[-41.95374,-18.86704],[-41.95365,-18.86694],[-41.95358,-18.8668],[-41.95357,-18.8667],[-41.9536,-18.8666],[-41.95365,-18.8665],[-41.95378,-18.86636],[-41.95444,-18.8673],[-41.95555,-18.86664],[-41.95604,-18.86696],[-41.95629,-18.86732],[-41.95689,-18.86694],[-41.95754,-18.86597],[-41.96068,-18.86797],[-41.96093,-18.86868],[-41.9613,-18.86928],[-41.96138,-18.86947],[-41.96147,-18.86952],[-41.96212,-18.86938],[-41.96324,-18.86917],[-41.96354,-18.86909],[-41.96403,-18.869],[-41.96525,-18.86871],[-41.96496,-18.86714],[-41.96484,-18.86668],[-41.96467,-18.8662],[-41.96427,-18.86536],[-41.96412,-18.86507],[-41.96351,-18.86415],[-41.96274,-18.86305],[-41.96227,-18.86232],[-41.96156,-18.86131],[-41.96116,-18.86068],[-41.96071,-18.86092],[-41.96063,-18.86089],[-41.95983,-18.86125],[-41.95967,-18.8613],[-41.95929,-18.8615],[-41.95902,-18.86154],[-41.95895,-18.8615],[-41.95861,-18.86151],[-41.95838,-18.86154],[-41.95817,-18.86167],[-41.95796,-18.86189],[-41.95785,-18.86194],[-41.95774,-18.86195],[-41.95764,-18.86192],[-41.95755,-18.86186],[-41.95729,-18.8616],[-41.95711,-18.86146],[-41.95698,-18.86138],[-41.95682,-18.86134],[-41.9567,-18.86134],[-41.9566,-18.86131],[-41.95652,-18.86124],[-41.95645,-18.86092],[-41.95638,-18.86081],[-41.95621,-18.86063],[-41.9561,-18.86056],[-41.95597,-18.86051],[-41.95565,-18.86043],[-41.95551,-18.86042],[-41.95526,-18.86045],[-41.95497,-18.86053],[-41.95482,-18.86062],[-41.95472,-18.86072],[-41.95463,-18.86077]]]]}},{"type":"Feature","properties":{"territory_id":"mg-3127701-mae-de-deus","name":"Mae de Deus","municipality_id":"mg-3127701","polling_places":1,"approx":false,"official":true,"method":"official-ibge-cd2022","whole_municipality":false,"approx_coords_only":false,"official_name":"Mãe de Deus","official_code":"3127701038","match":"direct"},"geometry":{"type":"MultiPolygon","coordinates":[[[[-41.97326,-18.86661],[-41.97336,-18.8664],[-41.9736,-18.86585],[-41.97378,-18.86531],[-41.97389,-18.86515],[-41.97406,-18.8647],[-41.97415,-18.86411],[-41.97425,-18.86355],[-41.97427,-18.86336],[-41.97447,-18.86185],[-41.97334,-18.86172],[-41.97355,-18.86097],[-41.97369,-18.86076],[-41.97373,-18.86065],[-41.97372,-18.86062],[-41.97368,-18.8606],[-41.97343,-18.86061],[-41.9732,-18.86069],[-41.97245,-18.8612],[-41.97222,-18.86141],[-41.97193,-18.86174],[-41.97154,-18.86208],[-41.97124,-18.86225],[-41.97097,-18.86231],[-41.9706,-18.86226],[-41.97076,-18.86297],[-41.97103,-18.86355],[-41.97126,-18.86389],[-41.97131,-18.86403],[-41.97132,-18.86418],[-41.97131,-18.86426],[-41.97129,-18.86433],[-41.97123,-18.86442],[-41.971,-18.86464],[-41.97081,-18.86472],[-41.97059,-18.86478],[-41.9703,-18.8648],[-41.96964,-18.86585],[-41.97011,-18.86635],[-41.97174,-18.86787],[-41.9721,-18.86753],[-41.97255,-18.86775],[-41.97297,-18.86713],[-41.97326,-18.86661]]]]}},{"type":"Feature","properties":{"territory_id":"mg-3127701-maria-eugenia","name":"Maria Eugenia","municipality_id":"mg-3127701","polling_places":1,"approx":false,"official":true,"method":"official-ibge-cd2022","whole_municipality":false,"approx_coords_only":false,"official_name":"Maria Eugênia","official_code":"3127701039","match":"direct"},"geometry":{"type":"MultiPolygon","coordinates":[[[[-41.95433,-18.84278],[-41.95484,-18.84244],[-41.95486,-18.84222],[-41.95508,-18.84164],[-41.95523,-18.84139],[-41.95541,-18.84098],[-41.95547,-18.8409],[-41.9556,-18.84058],[-41.95564,-18.84052],[-41.95571,-18.8405],[-41.95586,-18.84049],[-41.95593,-18.84052],[-41.95589,-18.8403],[-41.95587,-18.8401],[-41.9559,-18.83992],[-41.9561,-18.83937],[-41.95611,-18.8393],[-41.95671,-18.83792],[-41.95677,-18.83788],[-41.95717,-18.83688],[-41.95774,-18.83539],[-41.95578,-18.83471],[-41.95554,-18.83532],[-41.95404,-18.83478],[-41.95348,-18.83683],[-41.95343,-18.83719],[-41.95332,-18.83758],[-41.95365,-18.83778],[-41.95379,-18.83772],[-41.9539,-18.83772],[-41.95409,-18.83786],[-41.95411,-18.8382],[-41.95405,-18.83855],[-41.95326,-18.83918],[-41.95282,-18.83911],[-41.95209,-18.83905],[-41.95165,-18.83911],[-41.95217,-18.83981],[-41.95221,-18.8399],[-41.95219,-18.84],[-41.95174,-18.84032],[-41.95134,-18.84064],[-41.95131,-18.8407],[-41.95131,-18.84078],[-41.95137,-18.84084],[-41.95224,-18.84144],[-41.95208,-18.84211],[-41.95173,-18.84267],[-41.95144,-18.84309],[-41.95166,-18.84344],[-41.95172,-18.84371],[-41.95179,-18.84387],[-41.95189,-18.84398],[-41.95292,-18.84464],[-41.95384,-18.84326],[-41.95433,-18.84278]]]]}},{"type":"Feature","properties":{"territory_id":"mg-3127701-morada-do-vale","name":"Morada do Vale","municipality_id":"mg-3127701","polling_places":1,"approx":false,"official":true,"method":"official-ibge-cd2022","whole_municipality":false,"approx_coords_only":false,"official_name":"Morada do Vale","official_code":"3127701041","match":"direct"},"geometry":{"type":"MultiPolygon","coordinates":[[[[-41.96067,-18.83904],[-41.96077,-18.83993],[-41.96017,-18.84023],[-41.95993,-18.84038],[-41.96032,-18.84079],[-41.96314,-18.84361],[-41.96364,-18.84407],[-41.9647,-18.84367],[-41.96516,-18.84345],[-41.96593,-18.84247],[-41.96632,-18.84277],[-41.96654,-18.84242],[-41.96714,-18.8408],[-41.96718,-18.84075],[-41.96685,-18.84035],[-41.96668,-18.8401],[-41.96654,-18.83985],[-41.96643,-18.83961],[-41.96605,-18.83846],[-41.9659,-18.83811],[-41.96573,-18.83785],[-41.96549,-18.83757],[-41.96516,-18.83726],[-41.96374,-18.83616],[-41.96367,-18.83623],[-41.96357,-18.83628],[-41.96344,-18.83629],[-41.96332,-18.83625],[-41.96326,-18.83618],[-41.9632,-18.83598],[-41.96324,-18.83583],[-41.96096,-18.83412],[-41.95973,-18.83323],[-41.95885,-18.83427],[-41.95774,-18.83539],[-41.95717,-18.83688],[-41.95677,-18.83788],[-41.95671,-18.83792],[-41.95844,-18.83852],[-41.96036,-18.83924],[-41.96067,-18.83904]]]]}},{"type":"Feature","properties":{"territory_id":"mg-3127701-nossa-senhora-das-gracas","name":"Nossa Senhora das Gracas","municipality_id":"mg-3127701","polling_places":1,"approx":false,"official":true,"method":"official-ibge-cd2022","whole_municipality":false,"approx_coords_only":false,"official_name":"Nossa Senhora das Graças","official_code":"3127701043","match":"direct"},"geometry":{"type":"MultiPolygon","coordinates":[[[[-41.9518,-18.84614],[-41.95211,-18.84568],[-41.95235,-18.84536],[-41.95228,-18.84524],[-41.9523,-18.84512],[-41.9525,-18.84482],[-41.95263,-18.84476],[-41.95276,-18.84478],[-41.95292,-18.84464],[-41.95189,-18.84398],[-41.95179,-18.84387],[-41.95172,-18.84371],[-41.95166,-18.84344],[-41.95144,-18.84309],[-41.9513,-18.84324],[-41.95106,-18.84292],[-41.95096,-18.84282],[-41.95077,-18.84268],[-41.9504,-18.84251],[-41.95002,-18.8424],[-41.94978,-18.84238],[-41.94859,-18.84248],[-41.94828,-18.84261],[-41.94782,-18.84296],[-41.94707,-18.84382],[-41.94684,-18.84395],[-41.9466,-18.84406],[-41.94667,-18.84421],[-41.94941,-18.84593],[-41.94913,-18.84631],[-41.94904,-18.84638],[-41.94884,-18.84646],[-41.94872,-18.84648],[-41.94801,-18.84618],[-41.94778,-18.84611],[-41.9478,-18.84617],[-41.94717,-18.84703],[-41.94824,-18.84771],[-41.94827,-18.84806],[-41.94811,-18.84833],[-41.9487,-18.84879],[-41.949,-18.84892],[-41.9496,-18.84929],[-41.94851,-18.85085],[-41.94845,-18.85096],[-41.95022,-18.85152],[-41.95073,-18.85165],[-41.95163,-18.85194],[-41.95243,-18.8478],[-41.951,-18.84729],[-41.95148,-18.8466],[-41.9518,-18.84614]]]]}},{"type":"Feature","properties":{"territory_id":"mg-3127701-nova-vila-bretas","name":"Nova Vila Bretas","municipality_id":"mg-3127701","polling_places":2,"approx":false,"official":true,"method":"official-ibge-cd2022","whole_municipality":false,"approx_coords_only":false,"official_name":"Nova Vila Bretas","official_code":"3127701044","match":"direct"},"geometry":{"type":"MultiPolygon","coordinates":[[[[-41.9707,-18.86975],[-41.97144,-18.86901],[-41.97195,-18.86846],[-41.97236,-18.86801],[-41.97255,-18.86775],[-41.9721,-18.86753],[-41.97174,-18.86787],[-41.97011,-18.86635],[-41.96964,-18.86585],[-41.96904,-18.86657],[-41.96875,-18.86699],[-41.96878,-18.86705],[-41.9685,-18.86745],[-41.96825,-18.86787],[-41.96748,-18.8675],[-41.96731,-18.86774],[-41.96672,-18.86745],[-41.96637,-18.86719],[-41.96616,-18.86698],[-41.966,-18.86687],[-41.96577,-18.86676],[-41.96555,-18.86672],[-41.96484,-18.86668],[-41.96496,-18.86714],[-41.9654,-18.86946],[-41.96582,-18.87158],[-41.96606,-18.87288],[-41.96632,-18.87414],[-41.96957,-18.87087],[-41.9707,-18.86975]]]]}},{"type":"Feature","properties":{"territory_id":"mg-3127701-palmeiras","name":"Palmeiras","municipality_id":"mg-3127701","polling_places":1,"approx":false,"official":true,"method":"official-ibge-cd2022","whole_municipality":false,"approx_coords_only":false,"official_name":"Palmeiras","official_code":"3127701047","match":"direct"},"geometry":{"type":"MultiPolygon","coordinates":[[[[-41.97822,-18.87174],[-41.97849,-18.87156],[-41.97866,-18.87152],[-41.97911,-18.87161],[-41.97896,-18.87206],[-41.97857,-18.87211],[-41.97841,-18.87233],[-41.97834,-18.87267],[-41.98022,-18.87305],[-41.98308,-18.87378],[-41.98319,-18.87311],[-41.98498,-18.87339],[-41.98366,-18.87829],[-41.99317,-18.87646],[-41.99306,-18.8759],[-41.99286,-18.87507],[-41.99245,-18.87366],[-41.99224,-18.87307],[-41.99124,-18.87052],[-41.99093,-18.86978],[-41.9906,-18.86865],[-41.98995,-18.86603],[-41.98967,-18.86546],[-41.98783,-18.86328],[-41.9827,-18.86406],[-41.98254,-18.86239],[-41.98167,-18.86238],[-41.98161,-18.86255],[-41.9815,-18.8628],[-41.98134,-18.86294],[-41.98114,-18.86304],[-41.98094,-18.8631],[-41.98001,-18.86356],[-41.97971,-18.86388],[-41.97956,-18.86432],[-41.97957,-18.86442],[-41.97954,-18.8645],[-41.97949,-18.86455],[-41.97934,-18.86457],[-41.97909,-18.86457],[-41.97911,-18.86447],[-41.97899,-18.86431],[-41.97855,-18.86402],[-41.97744,-18.86349],[-41.97528,-18.86214],[-41.97526,-18.86139],[-41.97456,-18.86133],[-41.97447,-18.86185],[-41.97427,-18.86336],[-41.97425,-18.86355],[-41.97415,-18.86411],[-41.97406,-18.8647],[-41.97389,-18.86515],[-41.97378,-18.86531],[-41.9736,-18.86585],[-41.97336,-18.8664],[-41.97297,-18.86713],[-41.97255,-18.86775],[-41.97236,-18.86801],[-41.97144,-18.86901],[-41.9718,-18.8687],[-41.97191,-18.86865],[-41.97201,-18.86864],[-41.97212,-18.86866],[-41.97244,-18.86898],[-41.97267,-18.86908],[-41.97653,-18.87042],[-41.9763,-18.87103],[-41.97705,-18.87129],[-41.97822,-18.87174]]]]}},{"type":"Feature","properties":{"territory_id":"mg-3127701-park-fraternidade","name":"Park Fraternidade","municipality_id":"mg-3127701","polling_places":1,"approx":true,"official":false,"method":"voronoi-polling-places","whole_municipality":false,"approx_coords_only":false},"geometry":{"type":"MultiPolygon","coordinates":[[[[-42.03756,-18.90191],[-42.01648,-18.92779],[-42.00831,-18.92891],[-41.99678,-18.91811],[-41.99536,-18.91632],[-41.99559,-18.91529],[-41.99557,-18.91536],[-41.99553,-18.91554],[-41.99596,-18.91551],[-41.99635,-18.91569],[-41.99689,-18.91588],[-41.99773,-18.91649],[-41.99795,-18.91682],[-41.99852,-18.91702],[-41.99873,-18.91706],[-41.99931,-18.91712],[-42.00001,-18.91726],[-42.00025,-18.91746],[-42.00066,-18.91755],[-42.00155,-18.91751],[-42.00206,-18.91734],[-42.00244,-18.91717],[-42.00281,-18.91696],[-42.00304,-18.91659],[-42.0034,-18.91645],[-42.00384,-18.91643],[-42.00415,-18.91657],[-42.0045,-18.91665],[-42.00546,-18.91697],[-42.00623,-18.91719],[-42.00705,-18.91768],[-42.00778,-18.91808],[-42.00828,-18.91832],[-42.00884,-18.91865],[-42.00995,-18.91921],[-42.01028,-18.9194],[-42.01056,-18.91945],[-42.01077,-18.91952],[-42.01088,-18.91952],[-42.01173,-18.9198],[-42.01213,-18.92],[-42.01249,-18.92021],[-42.01272,-18.92037],[-42.0129,-18.92052],[-42.01332,-18.92096],[-42.01519,-18.92008],[-42.01405,-18.91875],[-42.01083,-18.91487],[-42.00866,-18.91222],[-42.00549,-18.90841],[-42.005,-18.90785],[-42.00458,-18.90735],[-42.00393,-18.90645],[-42.00376,-18.90614],[-42.00354,-18.90559],[-42.00336,-18.90504],[-42.00332,-18.90474],[-42.00331,-18.90412],[-42.0037,-18.9015],[-42.00416,-18.89812],[-42.00434,-18.89707],[-42.00453,-18.89484],[-42.00483,-18.89333],[-42.00486,-18.89295],[-42.00491,-18.89283],[-42.00497,-18.89219],[-42.00509,-18.89146],[-42.0051,-18.89123],[-42.00527,-18.88982],[-42.00526,-18.88945],[-42.00521,-18.88915],[-42.00508,-18.88871],[-42.00493,-18.88838],[-42.00485,-18.8883],[-42.00463,-18.88798],[-42.00439,-18.88767],[-42.00413,-18.88745],[-42.00409,-18.88752],[-42.00404,-18.88759],[-42.004,-18.88761],[-42.00394,-18.88771],[-42.00393,-18.8878],[-42.00394,-18.88788],[-42.00397,-18.88792],[-42.00398,-18.88802],[-42.00395,-18.88807],[-42.00385,-18.88814],[-42.00373,-18.8882],[-42.00362,-18.88821],[-42.00354,-18.88819],[-42.00343,-18.88813],[-42.00329,-18.88808],[-42.00313,-18.88806],[-42.00296,-18.88808],[-42.00281,-18.88814],[-42.00273,-18.88825],[-42.00264,-18.88826],[-42.00242,-18.88813],[-42.00233,-18.88812],[-42.00225,-18.88816],[-42.00221,-18.88823],[-42.00224,-18.88831],[-42.00223,-18.88838],[-42.00218,-18.88843],[-42.00209,-18.88845],[-42.00195,-18.88855],[-42.00185,-18.88855],[-42.00166,-18.88838],[-42.00154,-18.88834],[-42.00139,-18.88835],[-42.00126,-18.88838],[-42.00118,-18.88847],[-42.00113,-18.88865],[-42.00109,-18.88871],[-42.00102,-18.88874],[-42.00092,-18.88872],[-42.00082,-18.88873],[-42.00076,-18.88877],[-42.0007,-18.88891],[-42.00075,-18.88899],[-42.00074,-18.8891],[-42.00065,-18.88916],[-42.00051,-18.88918],[-42.00044,-18.88912],[-42.00037,-18.88903],[-42.00031,-18.88898],[-42.00022,-18.88896],[-42.00015,-18.88901],[-42.00006,-18.88913],[-41.99999,-18.88918],[-41.99991,-18.8892],[-41.99981,-18.88926],[-41.99948,-18.88928],[-41.99933,-18.88932],[-41.99913,-18.88943],[-41.99891,-18.8896],[-41.99877,-18.88976],[-41.9986,-18.88987],[-41.99837,-18.8899],[-41.99815,-18.88999],[-41.99793,-18.89034],[-41.99776,-18.89044],[-41.99749,-18.89043],[-41.99729,-18.89033],[-41.99719,-18.89022],[-41.99708,-18.89019],[-41.99696,-18.89021],[-41.99679,-18.89037],[-41.99671,-18.89064],[-41.99674,-18.89076],[-41.9967,-18.89093],[-41.99665,-18.89103],[-41.99649,-18.8912],[-41.99641,-18.89125],[-41.99631,-18.89124],[-41.99623,-18.89127],[-41.99609,-18.89139],[-41.99602,-18.89142],[-41.99587,-18.89144],[-41.99575,-18.89147],[-41.99565,-18.89151],[-41.99552,-18.8917],[-41.99545,-18.89176],[-41.9952,-18.8918],[-41.99507,-18.89175],[-41.99493,-18.89165],[-41.99475,-18.8916],[-41.99442,-18.89158],[-41.99429,-18.89161],[-41.9942,-18.89166],[-41.99417,-18.89174],[-41.9941,-18.8918],[-41.99407,-18.89187],[-41.99406,-18.89196],[-41.99397,-18.89203],[-41.99382,-18.89201],[-41.99356,-18.89195],[-41.99332,-18.89176],[-41.99318,-18.89174],[-41.99286,-18.89175],[-41.99269,-18.89179],[-41.99258,-18.89178],[-41.9925,-18.89181],[-41.99237,-18.89189],[-41.99231,-18.89191],[-41.99213,-18.89191],[-41.99202,-18.89197],[-41.99179,-18.89196],[-41.99148,-18.89185],[-41.99138,-18.89184],[-41.99127,-18.89187],[-41.99118,-18.89194],[-41.99112,-18.89204],[-41.99111,-18.89214],[-41.99113,-18.89222],[-41.99122,-18.89235],[-41.99122,-18.8924],[-41.99111,-18.89251],[-41.99105,-18.89261],[-41.99099,-18.89291],[-41.99093,-18.89304],[-41.99074,-18.89329],[-41.99068,-18.8934],[-41.99067,-18.8935],[-41.99062,-18.89357],[-41.99053,-18.89362],[-41.99043,-18.89364],[-41.9902,-18.89364],[-41.99006,-18.89368],[-41.98993,-18.89377],[-41.9898,-18.89401],[-41.9897,-18.89425],[-41.9896,-18.89435],[-41.98942,-18.89442],[-41.98929,-18.89445],[-41.98907,-18.89443],[-41.98896,-18.89447],[-41.98864,-18.89467],[-41.98859,-18.89475],[-41.98859,-18.89482],[-41.98869,-18.89493],[-41.98871,-18.89497],[-41.98871,-18.89502],[-41.98864,-18.89509],[-41.98854,-18.89508],[-41.98844,-18.89516],[-41.98832,-18.8952],[-41.98827,-18.89528],[-41.98818,-18.89538],[-41.98811,-18.89535],[-41.98809,-18.89522],[-41.98812,-18.89502],[-41.98809,-18.89485],[-41.98805,-18.89475],[-41.98795,-18.89468],[-41.98778,-18.89465],[-41.9876,-18.8947],[-41.98755,-18.8947],[-41.98746,-18.89472],[-41.98725,-18.89487],[-41.98718,-18.89487],[-41.9871,-18.89486],[-41.98698,-18.8948],[-41.98662,-18.89472],[-41.98654,-18.89466],[-41.98646,-18.89465],[-41.98637,-18.89466],[-41.98628,-18.89464],[-41.98622,-18.89466],[-41.98614,-18.89474],[-41.98602,-18.89483],[-41.98592,-18.89488],[-41.98588,-18.89492],[-41.98586,-18.89502],[-41.9858,-18.89509],[-41.98568,-18.89546],[-41.98565,-18.89552],[-41.98558,-18.89558],[-41.98553,-18.89568],[-41.98547,-18.89571],[-41.98528,-18.89574],[-41.98505,-18.89565],[-41.98493,-18.89557],[-41.98487,-18.89552],[-41.98484,-18.89546],[-41.98486,-18.89537],[-41.98492,-18.89523],[-41.98493,-18.89497],[-41.98487,-18.89481],[-41.98493,-18.89452],[-41.98491,-18.89443],[-41.98484,-18.89431],[-41.98483,-18.89423],[-41.98478,-18.89413],[-41.98448,-18.89398],[-41.98432,-18.89394],[-41.98411,-18.89382],[-41.98394,-18.89376],[-41.98365,-18.89351],[-41.98342,-18.89338],[-41.98332,-18.89337],[-41.98316,-18.89338],[-41.98304,-18.89333],[-41.98293,-18.89327],[-41.98276,-18.89306],[-41.9827,-18.89274],[-41.98271,-18.89268],[-41.98275,-18.89259],[-41.98289,-18.89253],[-41.98295,-18.89245],[-41.98306,-18.89213],[-41.98308,-18.89199],[-41.98305,-18.89188],[-41.983,-18.89179],[-41.98281,-18.89165],[-41.98237,-18.89156],[-41.98176,-18.89157],[-41.98139,-18.89168],[-41.98122,-18.89175],[-41.98108,-18.89173],[-41.981,-18.89167],[-41.98094,-18.89137],[-41.98091,-18.89128],[-41.98085,-18.89123],[-41.98057,-18.89123],[-41.98049,-18.89117],[-41.98033,-18.89109],[-41.98025,-18.89103],[-41.98017,-18.89091],[-41.98013,-18.8907],[-41.98,-18.89057],[-41.9799,-18.89052],[-41.97979,-18.89052],[-41.97952,-18.89029],[-41.97936,-18.89007],[-41.97931,-18.88993],[-41.9793,-18.88981],[-41.97935,-18.88969],[-41.97956,-18.8894],[-41.97959,-18.88932],[-41.97958,-18.88916],[-41.97952,-18.88906],[-41.97908,-18.88881],[-41.97896,-18.88871],[-41.97874,-18.8884],[-41.97852,-18.88824],[-41.9784,-18.88818],[-41.97809,-18.88791],[-41.97731,-18.88768],[-41.97709,-18.88766],[-41.97658,-18.88756],[-41.97616,-18.88743],[-41.97574,-18.88742],[-41.97538,-18.88736],[-41.97479,-18.88714],[-41.97353,-18.88143],[-41.97399,-18.88144],[-41.97472,-18.87813],[-41.97457,-18.87811],[-41.97449,-18.87783],[-41.97445,-18.87778],[-41.97449,-18.87775],[-41.97487,-18.87697],[-41.97544,-18.87711],[-41.97558,-18.87714],[-41.97591,-18.87723],[-41.97612,-18.87655],[-41.97616,-18.87652],[-41.97651,-18.8766],[-41.97691,-18.87566],[-41.97723,-18.87483],[-41.97726,-18.87468],[-41.97725,-18.87437],[-41.97733,-18.87435],[-41.97731,-18.87367],[-41.97726,-18.87333],[-41.97726,-18.87318],[-41.97735,-18.87297],[-41.97736,-18.87284],[-41.97746,-18.87269],[-41.97777,-18.87226],[-41.97822,-18.87174],[-41.97849,-18.87156],[-41.97866,-18.87152],[-41.97911,-18.87161],[-41.97896,-18.87206],[-41.97857,-18.87211],[-41.97841,-18.87233],[-41.97834,-18.87267],[-41.98022,-18.87305],[-41.98308,-18.87378],[-41.98319,-18.87311],[-41.98498,-18.87339],[-41.98366,-18.87829],[-41.99317,-18.87646],[-41.99306,-18.8759],[-41.99286,-18.87507],[-41.99245,-18.87366],[-41.99224,-18.87307],[-41.99124,-18.87052],[-41.99093,-18.86978],[-41.9906,-18.86865],[-41.98995,-18.86603],[-41.98967,-18.86546],[-41.98783,-18.86328],[-41.98634,-18.86167],[-41.9861,-18.86133],[-41.98587,-18.86092],[-41.98563,-18.86043],[-41.98516,-18.85933],[-42.03756,-18.90191]],[[-41.99278,-18.88628],[-41.99234,-18.88533],[-41.99226,-18.88501],[-41.99224,-18.88431],[-41.99209,-18.88385],[-41.99195,-18.8836],[-41.99179,-18.88344],[-41.99084,-18.88281],[-41.98901,-18.88432],[-41.9887,-18.88457],[-41.98882,-18.88607],[-41.98886,-18.88654],[-41.98896,-18.88727],[-41.98921,-18.88664],[-41.98944,-18.88671],[-41.99002,-18.88645],[-41.99013,-18.88666],[-41.99047,-18.88679],[-41.99083,-18.88713],[-41.99195,-18.88616],[-41.99232,-18.88581],[-41.99257,-18.8861],[-41.99278,-18.88628]]],[[[-41.99069,-18.90544],[-41.98491,-18.89955],[-41.98406,-18.89867],[-41.99002,-18.90475],[-41.99069,-18.90544]]],[[[-41.98155,-18.89611],[-41.97785,-18.89235],[-41.97819,-18.89269],[-41.98155,-18.89611]]],[[[-41.97721,-18.85287],[-41.97632,-18.85459],[-41.97643,-18.85436],[-41.97721,-18.85287]]],[[[-41.97533,-18.8567],[-41.97526,-18.8569],[-41.97528,-18.8568],[-41.97533,-18.8567]]],[[[-41.975,-18.85794],[-41.97483,-18.85935],[-41.97498,-18.85803],[-41.975,-18.85794]]],[[[-41.97459,-18.85074],[-41.97444,-18.85089],[-41.97358,-18.85148],[-41.97322,-18.85168],[-41.97263,-18.85193],[-41.97223,-18.85205],[-41.9721,-18.85208],[-41.9742,-18.85042],[-41.97459,-18.85074]]],[[[-41.97267,-18.87689],[-41.97259,-18.87719],[-41.97252,-18.87685],[-41.97267,-18.87689]]],[[[-41.97132,-18.86418],[-41.97131,-18.86426],[-41.97129,-18.86433],[-41.97132,-18.86418]]]]}},{"type":"Feature","properties":{"territory_id":"mg-3127701-penha","name":"Penha","municipality_id":"mg-3127701","polling_places":1,"approx":false,"official":true,"method":"official-ibge-cd2022","whole_municipality":false,"approx_coords_only":false,"official_name":"Penha","official_code":"3127701048","match":"direct"},"geometry":{"type":"MultiPolygon","coordinates":[[[[-41.9887,-18.88457],[-41.98882,-18.88607],[-41.98886,-18.88654],[-41.98896,-18.88727],[-41.98921,-18.88664],[-41.98944,-18.88671],[-41.99002,-18.88645],[-41.99013,-18.88666],[-41.99047,-18.88679],[-41.99083,-18.88713],[-41.99195,-18.88616],[-41.99232,-18.88581],[-41.99257,-18.8861],[-41.99278,-18.88628],[-41.99234,-18.88533],[-41.99226,-18.88501],[-41.99224,-18.88431],[-41.99209,-18.88385],[-41.99195,-18.8836],[-41.99179,-18.88344],[-41.99084,-18.88281],[-41.98901,-18.88432],[-41.9887,-18.88457]]]]}},{"type":"Feature","properties":{"territory_id":"mg-3127701-planalto","name":"Planalto","municipality_id":"mg-3127701","polling_places":1,"approx":false,"official":true,"method":"official-ibge-cd2022","whole_municipality":false,"approx_coords_only":false,"official_name":"Planalto","official_code":"3127701049","match":"direct"},"geometry":{"type":"MultiPolygon","coordinates":[[[[-41.97462,-18.8507],[-41.97444,-18.85089],[-41.97358,-18.85148],[-41.97322,-18.85168],[-41.97263,-18.85193],[-41.97223,-18.85205],[-41.96873,-18.85291],[-41.96807,-18.85306],[-41.96823,-18.85317],[-41.96867,-18.85334],[-41.96971,-18.85362],[-41.97156,-18.85453],[-41.97197,-18.85465],[-41.97245,-18.85472],[-41.97268,-18.85473],[-41.97311,-18.85473],[-41.97534,-18.85458],[-41.97586,-18.85456],[-41.97619,-18.8545],[-41.97643,-18.85436],[-41.97731,-18.85267],[-41.97759,-18.85217],[-41.97832,-18.85068],[-41.97874,-18.85003],[-41.97978,-18.84806],[-41.97978,-18.84768],[-41.97975,-18.84757],[-41.97969,-18.84745],[-41.97952,-18.84727],[-41.97943,-18.84723],[-41.9792,-18.84717],[-41.97656,-18.84712],[-41.97633,-18.84714],[-41.97615,-18.84718],[-41.97595,-18.84726],[-41.97576,-18.84737],[-41.9756,-18.8475],[-41.97547,-18.84766],[-41.97535,-18.84784],[-41.97527,-18.84807],[-41.97521,-18.84829],[-41.97517,-18.84852],[-41.97515,-18.84877],[-41.97521,-18.84966],[-41.9752,-18.84984],[-41.97516,-18.85002],[-41.97507,-18.85022],[-41.97497,-18.85036],[-41.97474,-18.85059],[-41.97462,-18.8507]]]]}},{"type":"Feature","properties":{"territory_id":"mg-3127701-recanto-dos-sonhos","name":"Recanto dos Sonhos","municipality_id":"mg-3127701","polling_places":1,"approx":true,"official":false,"method":"voronoi-polling-places","whole_municipality":false,"approx_coords_only":false},"geometry":{"type":"MultiPolygon","coordinates":[[[[-41.97479,-18.88714],[-41.97475,-18.88712],[-41.97419,-18.887],[-41.97405,-18.88692],[-41.97391,-18.8869],[-41.97376,-18.8869],[-41.97367,-18.88689],[-41.97359,-18.88686],[-41.97333,-18.8869],[-41.97287,-18.88686],[-41.97264,-18.88675],[-41.9725,-18.88673],[-41.9723,-18.88674],[-41.97218,-18.88677],[-41.97209,-18.88681],[-41.97199,-18.88691],[-41.97187,-18.88699],[-41.97172,-18.88712],[-41.9716,-18.88723],[-41.9715,-18.88748],[-41.97126,-18.88779],[-41.97107,-18.88791],[-41.97101,-18.88798],[-41.96044,-18.87999],[-41.96058,-18.87985],[-41.96142,-18.87905],[-41.96201,-18.87844],[-41.96245,-18.87802],[-41.9628,-18.87765],[-41.96367,-18.87679],[-41.96632,-18.87414],[-41.96724,-18.8789],[-41.96737,-18.87886],[-41.96816,-18.87804],[-41.96904,-18.87717],[-41.96982,-18.87633],[-41.96985,-18.87626],[-41.97126,-18.87744],[-41.97139,-18.87747],[-41.97193,-18.87669],[-41.97252,-18.87685],[-41.97259,-18.87719],[-41.97243,-18.87777],[-41.97211,-18.87909],[-41.97219,-18.87909],[-41.97213,-18.88011],[-41.97185,-18.88142],[-41.97353,-18.88143],[-41.97479,-18.88714]]],[[[-41.97025,-18.8702],[-41.96632,-18.87414],[-41.96957,-18.87087],[-41.97025,-18.8702]]],[[[-41.96532,-18.86907],[-41.96525,-18.86871],[-41.96496,-18.86714],[-41.96532,-18.86907]]],[[[-41.96467,-18.8662],[-41.96433,-18.86548],[-41.96448,-18.86577],[-41.96467,-18.8662]]],[[[-41.9635,-18.86413],[-41.96274,-18.86305],[-41.96344,-18.86404],[-41.9635,-18.86413]]],[[[-41.95967,-18.8613],[-41.95929,-18.8615],[-41.95902,-18.86154],[-41.95895,-18.8615],[-41.95861,-18.86151],[-41.95838,-18.86154],[-41.95817,-18.86167],[-41.95796,-18.86189],[-41.95785,-18.86194],[-41.95774,-18.86195],[-41.95764,-18.86192],[-41.95755,-18.86186],[-41.95751,-18.86182],[-41.95796,-18.86144],[-41.95872,-18.86098],[-41.9593,-18.86121],[-41.95947,-18.8614],[-41.95967,-18.8613]]],[[[-41.95492,-18.868],[-41.95378,-18.86636],[-41.95444,-18.8673],[-41.95492,-18.868]]],[[[-41.95126,-18.87185],[-41.95072,-18.87042],[-41.95112,-18.87147],[-41.95126,-18.87185]]]]}},{"type":"Feature","properties":{"territory_id":"mg-3127701-santa-efigenia","name":"Santa Efigenia","municipality_id":"mg-3127701","polling_places":2,"approx":true,"official":false,"method":"voronoi-polling-places","whole_municipality":false,"approx_coords_only":false},"geometry":{"type":"MultiPolygon","coordinates":[[[[-41.9818,-18.76055],[-41.9742,-18.85042],[-41.9721,-18.85208],[-41.96873,-18.85291],[-41.96807,-18.85306],[-41.96236,-18.85446],[-41.96205,-18.85393],[-41.96199,-18.85378],[-41.96186,-18.85327],[-41.96179,-18.85313],[-41.9617,-18.853],[-41.95945,-18.85109],[-41.96146,-18.84623],[-41.96185,-18.84516],[-41.96254,-18.84353],[-41.96279,-18.84326],[-41.96032,-18.84079],[-41.96314,-18.84361],[-41.96364,-18.84407],[-41.9647,-18.84367],[-41.96516,-18.84345],[-41.96593,-18.84247],[-41.96632,-18.84277],[-41.96654,-18.84242],[-41.96714,-18.8408],[-41.96718,-18.84075],[-41.96685,-18.84035],[-41.96668,-18.8401],[-41.96654,-18.83985],[-41.96643,-18.83961],[-41.96605,-18.83846],[-41.9659,-18.83811],[-41.96573,-18.83785],[-41.96549,-18.83757],[-41.96516,-18.83726],[-41.96374,-18.83616],[-41.96367,-18.83623],[-41.96357,-18.83628],[-41.96344,-18.83629],[-41.96332,-18.83625],[-41.96326,-18.83618],[-41.9632,-18.83598],[-41.96324,-18.83583],[-41.96096,-18.83412],[-41.95973,-18.83323],[-41.95885,-18.83427],[-41.95774,-18.83539],[-41.95578,-18.83471],[-41.95554,-18.83532],[-41.95404,-18.83478],[-41.95371,-18.83465],[-41.95342,-18.83485],[-41.95312,-18.83498],[-41.95297,-18.83494],[-41.95174,-18.83447],[-41.95124,-18.83429],[-41.95104,-18.83493],[-41.95067,-18.83734],[-41.95118,-18.83733],[-41.95111,-18.83767],[-41.95031,-18.83781],[-41.94977,-18.83783],[-41.94928,-18.83787],[-41.9492,-18.83791],[-41.94902,-18.83816],[-41.94913,-18.83845],[-41.94917,-18.83956],[-41.94976,-18.83998],[-41.95027,-18.84041],[-41.95077,-18.84049],[-41.95051,-18.8411],[-41.9503,-18.84155],[-41.95021,-18.84181],[-41.95032,-18.84249],[-41.95033,-18.84249],[-41.95002,-18.8424],[-41.94978,-18.84238],[-41.94859,-18.84248],[-41.94828,-18.84261],[-41.94782,-18.84296],[-41.94707,-18.84382],[-41.94684,-18.84395],[-41.9466,-18.84406],[-41.94568,-18.84443],[-41.94481,-18.84469],[-41.94443,-18.84484],[-41.94358,-18.84537],[-41.94334,-18.84555],[-41.94057,-18.84697],[-41.94024,-18.84711],[-41.94012,-18.84714],[-41.93955,-18.84724],[-41.94111,-18.8482],[-41.93862,-18.85185],[-41.93788,-18.85138],[-41.93749,-18.85195],[-41.93713,-18.8524],[-41.9373,-18.85366],[-41.93445,-18.85411],[-41.93454,-18.85583],[-41.93695,-18.85497],[-41.93778,-18.85692],[-41.93794,-18.85714],[-41.93806,-18.85727],[-41.93837,-18.85759],[-41.9384,-18.85756],[-41.93979,-18.85741],[-41.94008,-18.85916],[-41.937,-18.85908],[-41.93729,-18.85989],[-41.92989,-18.86439],[-41.93004,-18.86451],[-41.93084,-18.86524],[-41.9315,-18.86603],[-41.93235,-18.86722],[-41.93268,-18.86793],[-41.93278,-18.86826],[-41.93292,-18.86897],[-41.9332,-18.86988],[-41.93334,-18.87005],[-41.93366,-18.87019],[-41.93384,-18.87037],[-41.93395,-18.87057],[-41.93429,-18.87175],[-41.93443,-18.87206],[-41.9347,-18.87352],[-41.93469,-18.87446],[-41.93478,-18.87468],[-41.93495,-18.87487],[-41.93523,-18.87498],[-41.93542,-18.87498],[-41.93689,-18.87459],[-41.93737,-18.87469],[-41.93786,-18.8749],[-41.93811,-18.87508],[-41.93452,-18.87695],[-41.90479,-18.88187],[-41.92604,-18.82152],[-41.94161,-18.75153],[-41.9818,-18.76055]],[[-41.93556,-18.84622],[-41.93533,-18.84593],[-41.93545,-18.84563],[-41.93289,-18.84477],[-41.93244,-18.84458],[-41.93187,-18.8443],[-41.93039,-18.84347],[-41.92999,-18.84326],[-41.92954,-18.84306],[-41.92903,-18.84285],[-41.92842,-18.84264],[-41.92812,-18.84255],[-41.9275,-18.84239],[-41.92739,-18.84236],[-41.92688,-18.84225],[-41.92502,-18.8419],[-41.92449,-18.84176],[-41.92387,-18.84153],[-41.9228,-18.84582],[-41.9253,-18.84668],[-41.92661,-18.84725],[-41.92926,-18.84843],[-41.93044,-18.84912],[-41.93053,-18.84895],[-41.93096,-18.84879],[-41.93148,-18.84863],[-41.9323,-18.84811],[-41.93256,-18.84793],[-41.93403,-18.84707],[-41.93556,-18.84622]]],[[[-41.95886,-18.85972],[-41.95844,-18.86086],[-41.95872,-18.86098],[-41.95796,-18.86144],[-41.95751,-18.86182],[-41.95729,-18.8616],[-41.95711,-18.86146],[-41.95698,-18.86138],[-41.95682,-18.86134],[-41.9567,-18.86134],[-41.9566,-18.86131],[-41.95652,-18.86124],[-41.95645,-18.86092],[-41.95638,-18.86081],[-41.95621,-18.86063],[-41.9561,-18.86056],[-41.95597,-18.86051],[-41.95565,-18.86043],[-41.95551,-18.86042],[-41.95526,-18.86045],[-41.95524,-18.86035],[-41.95523,-18.86019],[-41.95525,-18.86008],[-41.9553,-18.85997],[-41.95548,-18.85998],[-41.95605,-18.85928],[-41.9577,-18.85993],[-41.95768,-18.85975],[-41.95847,-18.85963],[-41.95886,-18.85972]]],[[[-41.95512,-18.85552],[-41.95485,-18.85606],[-41.95459,-18.85716],[-41.95438,-18.85736],[-41.95442,-18.85784],[-41.95464,-18.85827],[-41.95444,-18.85856],[-41.9536,-18.8581],[-41.95249,-18.85745],[-41.95185,-18.85636],[-41.95118,-18.85493],[-41.951,-18.85481],[-41.95504,-18.85453],[-41.95512,-18.85552]]],[[[-41.95405,-18.83855],[-41.95326,-18.83918],[-41.95335,-18.8391],[-41.95405,-18.83855]]],[[[-41.94911,-18.86746],[-41.94814,-18.86634],[-41.94893,-18.86726],[-41.94911,-18.86746]]],[[[-41.94447,-18.84961],[-41.94371,-18.84936],[-41.94287,-18.84905],[-41.94447,-18.84961]]]]}},{"type":"Feature","properties":{"territory_id":"mg-3127701-santa-paula","name":"Santa Paula","municipality_id":"mg-3127701","polling_places":1,"approx":false,"official":true,"method":"official-ibge-cd2022","whole_municipality":false,"approx_coords_only":false,"official_name":"Santa Paula","official_code":"3127701055","match":"direct"},"geometry":{"type":"MultiPolygon","coordinates":[[[[-41.98939,-18.83238],[-41.98952,-18.83297],[-41.98957,-18.83329],[-41.98961,-18.8337],[-41.98962,-18.83443],[-41.98953,-18.83504],[-41.98944,-18.83539],[-41.98925,-18.83596],[-41.98945,-18.83603],[-41.98991,-18.83615],[-41.99066,-18.83638],[-41.99097,-18.83632],[-41.9914,-18.83616],[-41.99121,-18.83667],[-41.99236,-18.83704],[-41.99244,-18.83682],[-41.9932,-18.83661],[-41.99385,-18.83635],[-41.99442,-18.83602],[-41.99462,-18.83584],[-41.99474,-18.83576],[-41.99491,-18.83575],[-41.99527,-18.83582],[-41.99551,-18.83589],[-41.99575,-18.836],[-41.99583,-18.83609],[-41.99684,-18.83822],[-41.99687,-18.83879],[-41.99831,-18.83942],[-41.99899,-18.83994],[-41.99891,-18.8402],[-42.00048,-18.84133],[-42.0022,-18.84132],[-42.0021,-18.83473],[-42.00204,-18.82953],[-42.002,-18.82811],[-41.99984,-18.82861],[-41.99718,-18.82948],[-41.99077,-18.83071],[-41.99052,-18.83034],[-41.99021,-18.83017],[-41.99008,-18.83003],[-41.99009,-18.82975],[-41.9902,-18.82954],[-41.98996,-18.82886],[-41.99012,-18.82837],[-41.99016,-18.82794],[-41.99026,-18.82767],[-41.99009,-18.82729],[-41.98964,-18.82697],[-41.98932,-18.82652],[-41.9887,-18.82618],[-41.98784,-18.82553],[-41.98765,-18.82522],[-41.98737,-18.82485],[-41.98723,-18.82433],[-41.98728,-18.82398],[-41.98734,-18.82374],[-41.98721,-18.82338],[-41.98693,-18.82305],[-41.98674,-18.82275],[-41.98655,-18.82251],[-41.98639,-18.82264],[-41.98616,-18.82255],[-41.98606,-18.82254],[-41.98629,-18.8239],[-41.9864,-18.8245],[-41.98652,-18.82491],[-41.98671,-18.82536],[-41.98687,-18.82565],[-41.98733,-18.8263],[-41.9876,-18.82662],[-41.98814,-18.82742],[-41.98829,-18.82772],[-41.98865,-18.8286],[-41.98887,-18.82949],[-41.98939,-18.83238]]]]}},{"type":"Feature","properties":{"territory_id":"mg-3127701-santa-rita","name":"Santa Rita","municipality_id":"mg-3127701","polling_places":6,"approx":false,"official":true,"method":"official-ibge-cd2022","whole_municipality":false,"approx_coords_only":false,"official_name":"Santa Rita","official_code":"3127701056","match":"direct"},"geometry":{"type":"MultiPolygon","coordinates":[[[[-41.98338,-18.89797],[-41.97785,-18.89235],[-41.97697,-18.89163],[-41.9746,-18.88983],[-41.97344,-18.88894],[-41.97318,-18.88872],[-41.97296,-18.88851],[-41.97172,-18.88712],[-41.9716,-18.88723],[-41.9715,-18.88748],[-41.97126,-18.88779],[-41.97107,-18.88791],[-41.97094,-18.88807],[-41.97084,-18.88824],[-41.97074,-18.88849],[-41.9707,-18.88873],[-41.97064,-18.88884],[-41.97052,-18.88903],[-41.97038,-18.88911],[-41.97028,-18.8892],[-41.97017,-18.88945],[-41.97009,-18.88962],[-41.96999,-18.88969],[-41.96985,-18.88974],[-41.96957,-18.88998],[-41.96919,-18.89015],[-41.96909,-18.89024],[-41.96886,-18.89054],[-41.9688,-18.89077],[-41.9688,-18.89095],[-41.96882,-18.8911],[-41.96892,-18.89129],[-41.96891,-18.89139],[-41.96879,-18.89149],[-41.96858,-18.89176],[-41.96838,-18.8919],[-41.96826,-18.89202],[-41.9682,-18.89215],[-41.96809,-18.89221],[-41.968,-18.89231],[-41.96795,-18.89258],[-41.96791,-18.89266],[-41.96774,-18.89287],[-41.96771,-18.89295],[-41.96766,-18.89303],[-41.96742,-18.89321],[-41.9673,-18.89352],[-41.9673,-18.89361],[-41.96734,-18.89369],[-41.96726,-18.89384],[-41.96716,-18.89394],[-41.96711,-18.89401],[-41.96704,-18.89423],[-41.96698,-18.89429],[-41.96682,-18.89436],[-41.96673,-18.89446],[-41.96662,-18.89461],[-41.96646,-18.89476],[-41.96594,-18.89509],[-41.9642,-18.89781],[-41.9663,-18.89813],[-41.96661,-18.89824],[-41.97269,-18.90138],[-41.97481,-18.90266],[-41.98134,-18.90686],[-41.98156,-18.90698],[-41.98292,-18.90782],[-41.98488,-18.90977],[-41.9851,-18.90996],[-41.98855,-18.91352],[-41.9894,-18.91428],[-41.9943,-18.92096],[-41.9957,-18.91479],[-41.99641,-18.91158],[-41.99645,-18.91133],[-41.99517,-18.91],[-41.98491,-18.89955],[-41.98338,-18.89797]]]]}},{"type":"Feature","properties":{"territory_id":"mg-3127701-santa-terezinha","name":"Santa Terezinha","municipality_id":"mg-3127701","polling_places":1,"approx":false,"official":true,"method":"official-ibge-cd2022","whole_municipality":false,"approx_coords_only":false,"official_name":"Santa Terezinha","official_code":"3127701057","match":"direct"},"geometry":{"type":"MultiPolygon","coordinates":[[[[-41.94893,-18.86726],[-41.94911,-18.86746],[-41.95021,-18.86933],[-41.95072,-18.87042],[-41.95112,-18.87147],[-41.95161,-18.87077],[-41.95165,-18.87067],[-41.95204,-18.87017],[-41.95245,-18.8698],[-41.95249,-18.86974],[-41.95266,-18.86963],[-41.95267,-18.86957],[-41.95403,-18.8688],[-41.95501,-18.86813],[-41.95378,-18.86636],[-41.95365,-18.8665],[-41.9536,-18.8666],[-41.95357,-18.8667],[-41.95358,-18.8668],[-41.95365,-18.86694],[-41.95374,-18.86704],[-41.9536,-18.86697],[-41.95074,-18.86388],[-41.95019,-18.86324],[-41.94979,-18.86357],[-41.95002,-18.86387],[-41.94959,-18.86455],[-41.94935,-18.86439],[-41.94919,-18.86431],[-41.94901,-18.86424],[-41.94867,-18.86415],[-41.94812,-18.86389],[-41.94798,-18.8639],[-41.94789,-18.86389],[-41.94728,-18.86364],[-41.94715,-18.86364],[-41.94702,-18.86367],[-41.94677,-18.8638],[-41.94666,-18.86384],[-41.94649,-18.86387],[-41.94632,-18.86394],[-41.94551,-18.86416],[-41.94814,-18.86634],[-41.94893,-18.86726]]]]}},{"type":"Feature","properties":{"territory_id":"mg-3127701-santo-antonio","name":"Santo Antonio","municipality_id":"mg-3127701","polling_places":1,"approx":false,"official":true,"method":"official-ibge-cd2022","whole_municipality":false,"approx_coords_only":false,"official_name":"Santo Antônio","official_code":"3127701059","match":"direct"},"geometry":{"type":"MultiPolygon","coordinates":[[[[-41.9703,-18.8648],[-41.97059,-18.86478],[-41.97081,-18.86472],[-41.971,-18.86464],[-41.97123,-18.86442],[-41.97129,-18.86433],[-41.97132,-18.86418],[-41.97131,-18.86403],[-41.97126,-18.86389],[-41.97103,-18.86355],[-41.96925,-18.86236],[-41.96825,-18.86374],[-41.96821,-18.86378],[-41.96762,-18.8632],[-41.96426,-18.86384],[-41.96344,-18.86404],[-41.96412,-18.86507],[-41.96448,-18.86577],[-41.96467,-18.8662],[-41.96484,-18.86668],[-41.96555,-18.86672],[-41.96577,-18.86676],[-41.966,-18.86687],[-41.96616,-18.86698],[-41.96637,-18.86719],[-41.96672,-18.86745],[-41.96731,-18.86774],[-41.96748,-18.8675],[-41.96825,-18.86787],[-41.9685,-18.86745],[-41.96878,-18.86705],[-41.96875,-18.86699],[-41.96904,-18.86657],[-41.96964,-18.86585],[-41.9703,-18.8648]]]]}},{"type":"Feature","properties":{"territory_id":"mg-3127701-santos-dumont-ii","name":"Santos Dumont Ii","municipality_id":"mg-3127701","polling_places":1,"approx":false,"official":true,"method":"official-ibge-cd2022","whole_municipality":false,"approx_coords_only":false,"official_name":"Santos Dumont II","official_code":"3127701061","match":"direct"},"geometry":{"type":"MultiPolygon","coordinates":[[[[-41.89252,-18.83789],[-41.8926,-18.83862],[-41.89256,-18.83862],[-41.89262,-18.83912],[-41.89304,-18.84209],[-41.89521,-18.84204],[-41.89679,-18.84224],[-41.89703,-18.84027],[-41.89732,-18.83848],[-41.89724,-18.83844],[-41.8973,-18.83798],[-41.89782,-18.83491],[-41.89222,-18.83564],[-41.89242,-18.83712],[-41.89252,-18.83789]]]]}},{"type":"Feature","properties":{"territory_id":"mg-3127701-sao-paulo","name":"Sao Paulo","municipality_id":"mg-3127701","polling_places":2,"approx":false,"official":true,"method":"official-ibge-cd2022","whole_municipality":false,"approx_coords_only":false,"official_name":"São Paulo","official_code":"3127701064","match":"direct"},"geometry":{"type":"MultiPolygon","coordinates":[[[[-41.95172,-18.87351],[-41.95191,-18.8749],[-41.95226,-18.87632],[-41.95222,-18.87653],[-41.95133,-18.87952],[-41.95231,-18.8834],[-41.95601,-18.8826],[-41.95678,-18.88237],[-41.95734,-18.88214],[-41.95791,-18.88189],[-41.95824,-18.88172],[-41.95858,-18.88151],[-41.95957,-18.88084],[-41.96058,-18.87985],[-41.96142,-18.87905],[-41.96201,-18.87844],[-41.9608,-18.87664],[-41.95832,-18.87302],[-41.95748,-18.87175],[-41.95501,-18.86813],[-41.95403,-18.8688],[-41.95267,-18.86957],[-41.95266,-18.86963],[-41.95249,-18.86974],[-41.95245,-18.8698],[-41.95204,-18.87017],[-41.95165,-18.87067],[-41.95161,-18.87077],[-41.95112,-18.87147],[-41.95126,-18.87185],[-41.95134,-18.87221],[-41.95169,-18.87327],[-41.95172,-18.87351]]]]}},{"type":"Feature","properties":{"territory_id":"mg-3127701-sao-pedro","name":"Sao Pedro","municipality_id":"mg-3127701","polling_places":2,"approx":false,"official":true,"method":"official-ibge-cd2022","whole_municipality":false,"approx_coords_only":false,"official_name":"São Pedro","official_code":"3127701065","match":"direct"},"geometry":{"type":"MultiPolygon","coordinates":[[[[-41.92739,-18.84236],[-41.92688,-18.84225],[-41.92502,-18.8419],[-41.92449,-18.84176],[-41.92387,-18.84153],[-41.9228,-18.84582],[-41.9253,-18.84668],[-41.92661,-18.84725],[-41.92926,-18.84843],[-41.93044,-18.84912],[-41.93053,-18.84895],[-41.93096,-18.84879],[-41.93148,-18.84863],[-41.9323,-18.84811],[-41.93256,-18.84793],[-41.93403,-18.84707],[-41.93556,-18.84622],[-41.93533,-18.84593],[-41.93545,-18.84563],[-41.93289,-18.84477],[-41.93244,-18.84458],[-41.93187,-18.8443],[-41.93039,-18.84347],[-41.92999,-18.84326],[-41.92954,-18.84306],[-41.92903,-18.84285],[-41.92842,-18.84264],[-41.92812,-18.84255],[-41.9275,-18.84239],[-41.92739,-18.84236]]]]}},{"type":"Feature","properties":{"territory_id":"mg-3127701-sao-raimundo","name":"Sao Raimundo","municipality_id":"mg-3127701","polling_places":1,"approx":false,"official":true,"method":"official-ibge-cd2022","whole_municipality":false,"approx_coords_only":false,"official_name":"São Raimundo","official_code":"3127701066","match":"direct"},"geometry":{"type":"MultiPolygon","coordinates":[[[[-41.95364,-18.90086],[-41.9536,-18.90059],[-41.95365,-18.9004],[-41.95405,-18.89989],[-41.95478,-18.89914],[-41.95533,-18.89862],[-41.95631,-18.89756],[-41.95694,-18.89717],[-41.95921,-18.89564],[-41.95809,-18.89456],[-41.95746,-18.89361],[-41.9563,-18.89193],[-41.95401,-18.89371],[-41.95367,-18.89427],[-41.95238,-18.89367],[-41.95124,-18.8953],[-41.953,-18.89624],[-41.95252,-18.89705],[-41.95182,-18.89666],[-41.95159,-18.89726],[-41.95121,-18.89796],[-41.95058,-18.89831],[-41.95006,-18.89854],[-41.94974,-18.89862],[-41.94973,-18.89884],[-41.9496,-18.89934],[-41.94959,-18.90039],[-41.94944,-18.90172],[-41.94982,-18.90182],[-41.94986,-18.90181],[-41.94937,-18.90262],[-41.94816,-18.90498],[-41.94876,-18.90522],[-41.94882,-18.90521],[-41.94925,-18.90505],[-41.95005,-18.90434],[-41.95074,-18.90381],[-41.95122,-18.90414],[-41.95224,-18.90317],[-41.95219,-18.90262],[-41.9523,-18.90234],[-41.95372,-18.90113],[-41.95367,-18.90108],[-41.95364,-18.90086]]]]}},{"type":"Feature","properties":{"territory_id":"mg-3127701-turmalina","name":"Turmalina","municipality_id":"mg-3127701","polling_places":1,"approx":false,"official":true,"method":"official-ibge-cd2022","whole_municipality":false,"approx_coords_only":false,"official_name":"Turmalina","official_code":"3127701070","match":"direct"},"geometry":{"type":"MultiPolygon","coordinates":[[[[-41.98254,-18.86239],[-41.9827,-18.86406],[-41.98783,-18.86328],[-41.98634,-18.86167],[-41.9861,-18.86133],[-41.98587,-18.86092],[-41.98563,-18.86043],[-41.9851,-18.85918],[-41.98403,-18.85639],[-41.98374,-18.85571],[-41.98362,-18.85534],[-41.98353,-18.85499],[-41.98349,-18.8547],[-41.98346,-18.85415],[-41.9835,-18.85302],[-41.98375,-18.85022],[-41.98381,-18.84942],[-41.98381,-18.84891],[-41.98379,-18.84864],[-41.98373,-18.84837],[-41.98364,-18.84812],[-41.98337,-18.84765],[-41.98318,-18.84742],[-41.98296,-18.84722],[-41.98276,-18.84707],[-41.98236,-18.84686],[-41.98078,-18.84614],[-41.97874,-18.85003],[-41.97832,-18.85068],[-41.97759,-18.85217],[-41.97731,-18.85267],[-41.9757,-18.85579],[-41.97537,-18.85659],[-41.9752,-18.85704],[-41.97509,-18.85746],[-41.97501,-18.85786],[-41.97483,-18.85935],[-41.9748,-18.85984],[-41.97456,-18.86133],[-41.97526,-18.86139],[-41.97528,-18.86214],[-41.97744,-18.86349],[-41.97855,-18.86402],[-41.97899,-18.86431],[-41.97911,-18.86447],[-41.97909,-18.86457],[-41.97934,-18.86457],[-41.97949,-18.86455],[-41.97954,-18.8645],[-41.97957,-18.86442],[-41.97956,-18.86432],[-41.97971,-18.86388],[-41.98001,-18.86356],[-41.98094,-18.8631],[-41.98114,-18.86304],[-41.98134,-18.86294],[-41.9815,-18.8628],[-41.98161,-18.86255],[-41.98167,-18.86238],[-41.98254,-18.86239]]]]}},{"type":"Feature","properties":{"territory_id":"mg-3127701-vera-cruz","name":"Vera Cruz","municipality_id":"mg-3127701","polling_places":2,"approx":true,"official":false,"method":"voronoi-polling-places","whole_municipality":false,"approx_coords_only":false},"geometry":{"type":"MultiPolygon","coordinates":[[[[-42.00831,-18.92891],[-41.963,-18.9351],[-41.8923,-18.9334],[-41.84453,-18.92488],[-41.90479,-18.88187],[-41.93452,-18.87695],[-41.94032,-18.88196],[-41.94488,-18.88488],[-41.94499,-18.8853],[-41.94502,-18.88552],[-41.94499,-18.88612],[-41.94496,-18.88626],[-41.94488,-18.88645],[-41.94474,-18.88667],[-41.94454,-18.88687],[-41.94432,-18.887],[-41.94406,-18.8871],[-41.94374,-18.88716],[-41.9435,-18.88717],[-41.94347,-18.88719],[-41.94345,-18.8871],[-41.94295,-18.88716],[-41.94224,-18.88721],[-41.94076,-18.8855],[-41.94004,-18.88465],[-41.93933,-18.88702],[-41.94015,-18.88808],[-41.94087,-18.88911],[-41.9416,-18.89162],[-41.94192,-18.89159],[-41.94194,-18.89153],[-41.94244,-18.89327],[-41.94341,-18.89681],[-41.94703,-18.89585],[-41.94788,-18.89561],[-41.94891,-18.89535],[-41.95166,-18.89469],[-41.95124,-18.8953],[-41.953,-18.89624],[-41.95252,-18.89705],[-41.95182,-18.89666],[-41.95159,-18.89726],[-41.95121,-18.89796],[-41.95058,-18.89831],[-41.95006,-18.89854],[-41.94974,-18.89862],[-41.94973,-18.89884],[-41.9496,-18.89934],[-41.94959,-18.90039],[-41.94944,-18.90172],[-41.94982,-18.90182],[-41.94986,-18.90181],[-41.94937,-18.90262],[-41.94816,-18.90498],[-41.94876,-18.90522],[-41.94882,-18.90521],[-41.94925,-18.90505],[-41.95005,-18.90434],[-41.95074,-18.90381],[-41.95122,-18.90414],[-41.95224,-18.90317],[-41.95219,-18.90262],[-41.9523,-18.90234],[-41.95372,-18.90113],[-41.95367,-18.90108],[-41.95364,-18.90086],[-41.9536,-18.90059],[-41.95365,-18.9004],[-41.95405,-18.89989],[-41.95478,-18.89914],[-41.95533,-18.89862],[-41.95631,-18.89756],[-41.95694,-18.89717],[-41.95921,-18.89564],[-41.95809,-18.89456],[-41.95746,-18.89361],[-41.95663,-18.89241],[-41.96445,-18.89742],[-41.96421,-18.8978],[-41.96165,-18.89741],[-41.96131,-18.89727],[-41.96013,-18.89872],[-41.95997,-18.89879],[-41.95995,-18.89892],[-41.96,-18.89902],[-41.95995,-18.89908],[-41.95984,-18.89908],[-41.9598,-18.89913],[-41.95979,-18.89922],[-41.95967,-18.89929],[-41.95955,-18.89931],[-41.95951,-18.8994],[-41.95956,-18.89956],[-41.95966,-18.89969],[-41.95988,-18.90014],[-41.96001,-18.90027],[-41.96017,-18.90053],[-41.96013,-18.90065],[-41.96019,-18.90071],[-41.96036,-18.90097],[-41.96046,-18.90105],[-41.96052,-18.90122],[-41.96041,-18.90137],[-41.96045,-18.90146],[-41.9604,-18.90165],[-41.96052,-18.9017],[-41.96051,-18.90181],[-41.96061,-18.90192],[-41.96095,-18.90199],[-41.9611,-18.90198],[-41.96119,-18.90204],[-41.96139,-18.90208],[-41.96149,-18.90207],[-41.96156,-18.90213],[-41.96169,-18.90212],[-41.96176,-18.90223],[-41.9617,-18.90232],[-41.96173,-18.90239],[-41.96181,-18.90242],[-41.96184,-18.90257],[-41.96256,-18.90267],[-41.9622,-18.90321],[-41.96507,-18.90498],[-41.96625,-18.90568],[-41.96632,-18.90573],[-41.96615,-18.90605],[-41.96583,-18.90635],[-41.96531,-18.90671],[-41.96213,-18.90877],[-41.96258,-18.90999],[-41.96271,-18.9102],[-41.96327,-18.90984],[-41.96314,-18.90967],[-41.96776,-18.90664],[-41.96784,-18.9067],[-41.96909,-18.9079],[-41.96933,-18.9081],[-41.97017,-18.90843],[-41.9709,-18.90892],[-41.97126,-18.9094],[-41.97153,-18.9095],[-41.97198,-18.90955],[-41.97273,-18.91004],[-41.97322,-18.91],[-41.97381,-18.90987],[-41.97407,-18.90978],[-41.97442,-18.90971],[-41.97556,-18.90974],[-41.97619,-18.91004],[-41.97657,-18.91008],[-41.9772,-18.9099],[-41.97774,-18.91001],[-41.9787,-18.91058],[-41.98083,-18.9079],[-41.98681,-18.91173],[-41.98855,-18.91352],[-41.9894,-18.91428],[-41.9943,-18.92096],[-41.99518,-18.91709],[-41.99678,-18.91811],[-42.00831,-18.92891]],[[-41.96007,-18.90716],[-41.96006,-18.90626],[-41.96001,-18.9062],[-41.95951,-18.90595],[-41.95839,-18.90495],[-41.95744,-18.90557],[-41.95661,-18.90526],[-41.95448,-18.90439],[-41.95347,-18.9047],[-41.95332,-18.90511],[-41.95311,-18.9054],[-41.95273,-18.90551],[-41.95222,-18.90582],[-41.95203,-18.90604],[-41.95162,-18.90632],[-41.95141,-18.90663],[-41.95115,-18.90677],[-41.9511,-18.90682],[-41.95064,-18.90767],[-41.94808,-18.90702],[-41.94822,-18.90875],[-41.94743,-18.90881],[-41.94686,-18.90904],[-41.94719,-18.90963],[-41.94138,-18.9123],[-41.94101,-18.9151],[-41.94058,-18.91819],[-41.9405,-18.9189],[-41.94231,-18.91909],[-41.9438,-18.91865],[-41.94409,-18.91815],[-41.94472,-18.91824],[-41.94489,-18.91829],[-41.94519,-18.91819],[-41.94562,-18.91797],[-41.94646,-18.9168],[-41.94784,-18.91579],[-41.94899,-18.91476],[-41.94998,-18.91448],[-41.95172,-18.91607],[-41.95203,-18.91573],[-41.95365,-18.91575],[-41.95482,-18.91639],[-41.95527,-18.91577],[-41.95582,-18.9153],[-41.95651,-18.9145],[-41.95659,-18.91436],[-41.95623,-18.9144],[-41.9564,-18.91393],[-41.95516,-18.91412],[-41.95497,-18.91413],[-41.95478,-18.9141],[-41.95424,-18.91391],[-41.9536,-18.91364],[-41.9531,-18.91354],[-41.95121,-18.91368],[-41.95105,-18.91363],[-41.95057,-18.91329],[-41.95087,-18.91288],[-41.95097,-18.91258],[-41.95119,-18.91217],[-41.95141,-18.91143],[-41.95195,-18.91118],[-41.95278,-18.9106],[-41.9535,-18.91008],[-41.9541,-18.90959],[-41.95397,-18.90941],[-41.95389,-18.90926],[-41.95383,-18.909],[-41.95388,-18.90881],[-41.95395,-18.9087],[-41.95404,-18.90861],[-41.95418,-18.90855],[-41.95534,-18.90843],[-41.95573,-18.90834],[-41.95645,-18.90787],[-41.95662,-18.9078],[-41.95678,-18.90776],[-41.95897,-18.90751],[-41.95984,-18.90733],[-41.95999,-18.90725],[-41.96007,-18.90716]]]]}},{"type":"Feature","properties":{"territory_id":"mg-3127701-vila-bretas","name":"Vila Bretas","municipality_id":"mg-3127701","polling_places":3,"approx":false,"official":true,"method":"official-ibge-cd2022","whole_municipality":false,"approx_coords_only":false,"official_name":"Vila Bretas","official_code":"3127701075","match":"direct"},"geometry":{"type":"MultiPolygon","coordinates":[[[[-41.96367,-18.87679],[-41.96632,-18.87414],[-41.96606,-18.87288],[-41.96582,-18.87158],[-41.96525,-18.86871],[-41.96403,-18.869],[-41.96354,-18.86909],[-41.96324,-18.86917],[-41.96212,-18.86938],[-41.96147,-18.86952],[-41.96138,-18.86947],[-41.9613,-18.86928],[-41.96093,-18.86868],[-41.96068,-18.86797],[-41.95754,-18.86597],[-41.95689,-18.86694],[-41.95629,-18.86732],[-41.95604,-18.86696],[-41.95555,-18.86664],[-41.95444,-18.8673],[-41.95748,-18.87175],[-41.95832,-18.87302],[-41.9608,-18.87664],[-41.96201,-18.87844],[-41.96245,-18.87802],[-41.9628,-18.87765],[-41.96367,-18.87679]]]]}},{"type":"Feature","properties":{"territory_id":"mg-3127701-vila-dos-montes","name":"Vila dos Montes","municipality_id":"mg-3127701","polling_places":2,"approx":false,"official":true,"method":"official-ibge-cd2022","whole_municipality":false,"approx_coords_only":false,"official_name":"Vila dos Montes","official_code":"3127701077","match":"direct"},"geometry":{"type":"MultiPolygon","coordinates":[[[[-41.96632,-18.90573],[-41.96615,-18.90605],[-41.96583,-18.90635],[-41.96531,-18.90671],[-41.96213,-18.90877],[-41.96258,-18.90999],[-41.96271,-18.9102],[-41.96327,-18.90984],[-41.96314,-18.90967],[-41.96776,-18.90664],[-41.96784,-18.9067],[-41.96909,-18.9079],[-41.96933,-18.9081],[-41.97017,-18.90843],[-41.9709,-18.90892],[-41.97126,-18.9094],[-41.97153,-18.9095],[-41.97198,-18.90955],[-41.97273,-18.91004],[-41.97322,-18.91],[-41.97381,-18.90987],[-41.97407,-18.90978],[-41.97442,-18.90971],[-41.97556,-18.90974],[-41.97619,-18.91004],[-41.97657,-18.91008],[-41.9772,-18.9099],[-41.97774,-18.91001],[-41.9787,-18.91058],[-41.98156,-18.90698],[-41.98134,-18.90686],[-41.97481,-18.90266],[-41.97269,-18.90138],[-41.96661,-18.89824],[-41.9663,-18.89813],[-41.96165,-18.89741],[-41.96131,-18.89727],[-41.96013,-18.89872],[-41.95997,-18.89879],[-41.95995,-18.89892],[-41.96,-18.89902],[-41.95995,-18.89908],[-41.95984,-18.89908],[-41.9598,-18.89913],[-41.95979,-18.89922],[-41.95967,-18.89929],[-41.95955,-18.89931],[-41.95951,-18.8994],[-41.95956,-18.89956],[-41.95966,-18.89969],[-41.95988,-18.90014],[-41.96001,-18.90027],[-41.96017,-18.90053],[-41.96013,-18.90065],[-41.96019,-18.90071],[-41.96036,-18.90097],[-41.96046,-18.90105],[-41.96052,-18.90122],[-41.96041,-18.90137],[-41.96045,-18.90146],[-41.9604,-18.90165],[-41.96052,-18.9017],[-41.96051,-18.90181],[-41.96061,-18.90192],[-41.96095,-18.90199],[-41.9611,-18.90198],[-41.96119,-18.90204],[-41.96139,-18.90208],[-41.96149,-18.90207],[-41.96156,-18.90213],[-41.96169,-18.90212],[-41.96176,-18.90223],[-41.9617,-18.90232],[-41.96173,-18.90239],[-41.96181,-18.90242],[-41.96184,-18.90257],[-41.96256,-18.90267],[-41.9622,-18.90321],[-41.96507,-18.90498],[-41.96625,-18.90568],[-41.96632,-18.90573]]]]}},{"type":"Feature","properties":{"territory_id":"mg-3127701-vila-isa","name":"Vila Isa","municipality_id":"mg-3127701","polling_places":3,"approx":false,"official":true,"method":"official-ibge-cd2022","whole_municipality":false,"approx_coords_only":false,"official_name":"Vila Isa","official_code":"3127701078","match":"direct"},"geometry":{"type":"MultiPolygon","coordinates":[[[[-41.94788,-18.89561],[-41.94891,-18.89535],[-41.95166,-18.89469],[-41.95238,-18.89367],[-41.95367,-18.89427],[-41.95401,-18.89371],[-41.9563,-18.89193],[-41.95592,-18.89134],[-41.95377,-18.88841],[-41.95232,-18.88346],[-41.95133,-18.87952],[-41.94592,-18.87505],[-41.94566,-18.87492],[-41.94461,-18.87453],[-41.94374,-18.87582],[-41.94379,-18.87597],[-41.94431,-18.87622],[-41.9444,-18.87641],[-41.94433,-18.87679],[-41.94428,-18.8769],[-41.94427,-18.87726],[-41.94418,-18.87739],[-41.94411,-18.87764],[-41.94388,-18.87783],[-41.94386,-18.87799],[-41.94386,-18.87818],[-41.94395,-18.87842],[-41.94419,-18.8786],[-41.9444,-18.87867],[-41.94451,-18.87887],[-41.94455,-18.87904],[-41.94452,-18.87924],[-41.94453,-18.8795],[-41.94465,-18.87965],[-41.94473,-18.87985],[-41.94484,-18.87999],[-41.94486,-18.88029],[-41.94499,-18.88054],[-41.94496,-18.88081],[-41.94461,-18.88106],[-41.94454,-18.88145],[-41.9446,-18.88168],[-41.94466,-18.88183],[-41.94463,-18.88202],[-41.94465,-18.8823],[-41.94481,-18.88276],[-41.94471,-18.88342],[-41.94464,-18.88414],[-41.94476,-18.88432],[-41.94482,-18.88448],[-41.94481,-18.88461],[-41.94499,-18.8853],[-41.94502,-18.88552],[-41.94499,-18.88612],[-41.94496,-18.88626],[-41.94488,-18.88645],[-41.94474,-18.88667],[-41.94454,-18.88687],[-41.94432,-18.887],[-41.94406,-18.8871],[-41.94374,-18.88716],[-41.9435,-18.88717],[-41.94347,-18.88719],[-41.94345,-18.8871],[-41.94295,-18.88716],[-41.94224,-18.88721],[-41.94076,-18.8855],[-41.94004,-18.88465],[-41.93933,-18.88702],[-41.94015,-18.88808],[-41.94087,-18.88911],[-41.9416,-18.89162],[-41.94192,-18.89159],[-41.94194,-18.89153],[-41.94244,-18.89327],[-41.94341,-18.89681],[-41.94703,-18.89585],[-41.94788,-18.89561]]]]}},{"type":"Feature","properties":{"territory_id":"mg-3127701-vila-mariana","name":"Vila Mariana","municipality_id":"mg-3127701","polling_places":1,"approx":false,"official":true,"method":"official-ibge-cd2022","whole_municipality":false,"approx_coords_only":false,"official_name":"Vila Mariana","official_code":"3127701079","match":"direct"},"geometry":{"type":"MultiPolygon","coordinates":[[[[-41.95464,-18.85827],[-41.95444,-18.85856],[-41.95605,-18.85928],[-41.9577,-18.85993],[-41.95768,-18.85975],[-41.95847,-18.85963],[-41.95886,-18.85972],[-41.95844,-18.86086],[-41.9593,-18.86121],[-41.95947,-18.8614],[-41.95967,-18.8613],[-41.95983,-18.86125],[-41.96063,-18.86089],[-41.96071,-18.86092],[-41.96116,-18.86068],[-41.96102,-18.86041],[-41.96091,-18.86013],[-41.96082,-18.85981],[-41.96078,-18.85946],[-41.96081,-18.85907],[-41.96092,-18.85823],[-41.96092,-18.858],[-41.96091,-18.85774],[-41.96087,-18.85749],[-41.96047,-18.85644],[-41.96028,-18.85586],[-41.96017,-18.85561],[-41.96004,-18.85537],[-41.95989,-18.85516],[-41.95973,-18.85496],[-41.9595,-18.85479],[-41.95896,-18.8548],[-41.95794,-18.85478],[-41.95771,-18.85479],[-41.95735,-18.85487],[-41.95722,-18.85485],[-41.95605,-18.85452],[-41.95542,-18.8545],[-41.95504,-18.85453],[-41.95512,-18.85552],[-41.95485,-18.85606],[-41.95459,-18.85716],[-41.95438,-18.85736],[-41.95442,-18.85784],[-41.95464,-18.85827]]]]}}]}