{"type":"FeatureCollection","features":[{"type":"Feature","properties":{"territory_id":"mg-3127909-bairro-aristeu-garcia","name":"Bairro Aristeu Garcia","municipality_id":"mg-3127909","polling_places":1,"approx":true,"official":false,"method":"voronoi-polling-places","whole_municipality":false,"approx_coords_only":false},"geometry":{"type":"MultiPolygon","coordinates":[[[[-47.8233,-18.48744],[-47.8171,-18.5094],[-47.7887,-18.5142],[-47.7595,-18.5764],[-47.7202,-18.5542],[-47.6878,-18.5567],[-47.6643,-18.5368],[-47.6661,-18.5166],[-47.70399,-18.49658],[-47.8233,-18.48744]]]]}},{"type":"Feature","properties":{"territory_id":"mg-3127909-centro","name":"Centro","municipality_id":"mg-3127909","polling_places":1,"approx":true,"official":false,"method":"voronoi-polling-places","whole_municipality":false,"approx_coords_only":false},"geometry":{"type":"MultiPolygon","coordinates":[[[[-47.8646,-18.4491],[-47.8274,-18.4729],[-47.8233,-18.48744],[-47.70399,-18.49658],[-47.7138,-18.4914],[-47.7116,-18.457],[-47.7472,-18.4231],[-47.7695,-18.4183],[-47.8297,-18.4113],[-47.8605,-18.4402],[-47.8646,-18.4491]]]]}}]}