{"type":"FeatureCollection","features":[{"type":"Feature","properties":{"territory_id":"mg-3127800-bamburral","name":"Bamburral","municipality_id":"mg-3127800","polling_places":1,"approx":true,"official":false,"method":"voronoi-polling-places","whole_municipality":false,"approx_coords_only":false},"geometry":{"type":"MultiPolygon","coordinates":[[[[-42.95615,-16.16469],[-42.93482,-16.22992],[-42.85242,-16.17367],[-42.85686,-16.15518],[-42.9178,-16.1512],[-42.95615,-16.16469]]]]}},{"type":"Feature","properties":{"territory_id":"mg-3127800-barrocao","name":"Barrocao","municipality_id":"mg-3127800","polling_places":1,"approx":true,"official":false,"method":"voronoi-polling-places","whole_municipality":false,"approx_coords_only":false},"geometry":{"type":"MultiPolygon","coordinates":[[[[-43.29946,-16.42173],[-43.26377,-16.47897],[-43.15084,-16.50247],[-43.12853,-16.49058],[-43.12024,-16.46651],[-43.18167,-16.37776],[-43.1927,-16.3894],[-43.2131,-16.3839],[-43.2851,-16.4204],[-43.29946,-16.42173]]]]}},{"type":"Feature","properties":{"territory_id":"mg-3127800-bocaina","name":"Bocaina","municipality_id":"mg-3127800","polling_places":1,"approx":true,"official":false,"method":"voronoi-polling-places","whole_municipality":false,"approx_coords_only":false},"geometry":{"type":"MultiPolygon","coordinates":[[[[-42.94343,-16.28287],[-42.82354,-16.33213],[-42.76961,-16.22943],[-42.85242,-16.17367],[-42.93482,-16.22992],[-42.94343,-16.28287]]]]}},{"type":"Feature","properties":{"territory_id":"mg-3127800-cabecada","name":"Cabeçada","municipality_id":"mg-3127800","polling_places":1,"approx":true,"official":false,"method":"voronoi-polling-places","whole_municipality":false,"approx_coords_only":false},"geometry":{"type":"MultiPolygon","coordinates":[[[[-43.12853,-16.49058],[-43.02279,-16.58139],[-42.99253,-16.58093],[-42.971,-16.55687],[-42.90432,-16.47322],[-43.03849,-16.38485],[-43.12024,-16.46651],[-43.12853,-16.49058]]]]}},{"type":"Feature","properties":{"territory_id":"mg-3127800-capim-pubo","name":"Capim Pubo","municipality_id":"mg-3127800","polling_places":1,"approx":true,"official":false,"method":"voronoi-polling-places","whole_municipality":false,"approx_coords_only":false},"geometry":{"type":"MultiPolygon","coordinates":[[[[-43.07953,-16.70298],[-43.0243,-16.6956],[-42.9908,-16.6814],[-42.9548,-16.6624],[-42.94076,-16.63074],[-42.99253,-16.58093],[-43.02279,-16.58139],[-43.07953,-16.70298]]]]}},{"type":"Feature","properties":{"territory_id":"mg-3127800-centro","name":"Centro","municipality_id":"mg-3127800","polling_places":2,"approx":true,"official":false,"method":"voronoi-polling-places","whole_municipality":false,"approx_coords_only":false},"geometry":{"type":"MultiPolygon","coordinates":[[[[-42.99253,-16.58093],[-42.94076,-16.63074],[-42.9234,-16.5916],[-42.8741,-16.5807],[-42.8244,-16.5994],[-42.8032,-16.57072],[-42.80276,-16.56402],[-42.88179,-16.46898],[-42.90432,-16.47322],[-42.971,-16.55687],[-42.99253,-16.58093]]]]}},{"type":"Feature","properties":{"territory_id":"mg-3127800-dois-riachos","name":"Dois Riachos","municipality_id":"mg-3127800","polling_places":1,"approx":true,"official":false,"method":"voronoi-polling-places","whole_municipality":false,"approx_coords_only":false},"geometry":{"type":"MultiPolygon","coordinates":[[[[-43.4367,-16.5536],[-43.432,-16.5805],[-43.43248,-16.58272],[-43.34045,-16.5579],[-43.26377,-16.47897],[-43.29946,-16.42173],[-43.3563,-16.427],[-43.3757,-16.4112],[-43.405,-16.4497],[-43.4171,-16.492],[-43.4088,-16.5172],[-43.4367,-16.5536]]]]}},{"type":"Feature","properties":{"territory_id":"mg-3127800-morro-grande","name":"Morro Grande","municipality_id":"mg-3127800","polling_places":1,"approx":true,"official":false,"method":"voronoi-polling-places","whole_municipality":false,"approx_coords_only":false},"geometry":{"type":"MultiPolygon","coordinates":[[[[-42.85686,-16.15518],[-42.85242,-16.17367],[-42.76961,-16.22943],[-42.70899,-16.18954],[-42.6997,-16.1724],[-42.7061,-16.1583],[-42.7687,-16.1345],[-42.8268,-16.14],[-42.8535,-16.1554],[-42.85686,-16.15518]]]]}},{"type":"Feature","properties":{"territory_id":"mg-3127800-palmital","name":"Palmital","municipality_id":"mg-3127800","polling_places":1,"approx":true,"official":false,"method":"voronoi-polling-places","whole_municipality":false,"approx_coords_only":false},"geometry":{"type":"MultiPolygon","coordinates":[[[[-43.03849,-16.38485],[-42.90432,-16.47322],[-42.88179,-16.46898],[-42.81377,-16.35878],[-42.82354,-16.33213],[-42.94343,-16.28287],[-43.02516,-16.31386],[-43.03849,-16.38485]]]]}},{"type":"Feature","properties":{"territory_id":"mg-3127800-povoado-do-alegre","name":"Povoado do Alegre","municipality_id":"mg-3127800","polling_places":1,"approx":true,"official":false,"method":"voronoi-polling-places","whole_municipality":false,"approx_coords_only":false},"geometry":{"type":"MultiPolygon","coordinates":[[[[-42.8032,-16.57072],[-42.79361,-16.55776],[-42.80276,-16.56402],[-42.8032,-16.57072]]],[[[-42.77646,-16.54603],[-42.7642,-16.5445],[-42.7308,-16.5734],[-42.7419,-16.6015],[-42.7369,-16.6551],[-42.6948,-16.6762],[-42.6772,-16.7209],[-42.65185,-16.71751],[-42.60646,-16.63082],[-42.6628,-16.6079],[-42.6606,-16.5426],[-42.6774,-16.5255],[-42.6441,-16.4759],[-42.63887,-16.4519],[-42.77646,-16.54603]]]]}},{"type":"Feature","properties":{"territory_id":"mg-3127800-povoado-do-retiro","name":"Povoado do Retiro","municipality_id":"mg-3127800","polling_places":1,"approx":true,"official":false,"method":"voronoi-polling-places","whole_municipality":false,"approx_coords_only":false},"geometry":{"type":"MultiPolygon","coordinates":[[[[-42.65185,-16.71751],[-42.6248,-16.7139],[-42.6005,-16.7321],[-42.5581,-16.7341],[-42.5425,-16.7086],[-42.4687,-16.6727],[-42.454,-16.6602],[-42.578,-16.6424],[-42.60646,-16.63082],[-42.65185,-16.71751]]]]}},{"type":"Feature","properties":{"territory_id":"mg-3127800-santa-marta","name":"Santa Marta","municipality_id":"mg-3127800","polling_places":1,"approx":true,"official":false,"method":"voronoi-polling-places","whole_municipality":false,"approx_coords_only":false},"geometry":{"type":"MultiPolygon","coordinates":[[[[-43.4934,-16.7305],[-43.4753,-16.7821],[-43.4872,-16.8147],[-43.4477,-16.7994],[-43.3938,-16.7316],[-43.3604,-16.7335],[-43.3415,-16.6971],[-43.2745,-16.6591],[-43.2305,-16.6623],[-43.2155,-16.6441],[-43.20825,-16.64605],[-43.20844,-16.64149],[-43.34045,-16.5579],[-43.43248,-16.58272],[-43.4453,-16.6415],[-43.4698,-16.6737],[-43.4727,-16.7075],[-43.4934,-16.7305]]]]}},{"type":"Feature","properties":{"territory_id":"mg-3127800-sao-joao","name":"Sao Joao","municipality_id":"mg-3127800","polling_places":1,"approx":true,"official":false,"method":"voronoi-polling-places","whole_municipality":false,"approx_coords_only":false},"geometry":{"type":"MultiPolygon","coordinates":[[[[-43.20844,-16.64149],[-43.20825,-16.64605],[-43.159,-16.6593],[-43.1295,-16.694],[-43.1193,-16.7083],[-43.07953,-16.70298],[-43.02279,-16.58139],[-43.12853,-16.49058],[-43.15084,-16.50247],[-43.20844,-16.64149]]]]}},{"type":"Feature","properties":{"territory_id":"mg-3127800-sape","name":"Sapé","municipality_id":"mg-3127800","polling_places":1,"approx":true,"official":false,"method":"voronoi-polling-places","whole_municipality":false,"approx_coords_only":false},"geometry":{"type":"MultiPolygon","coordinates":[[[[-43.11105,-16.23116],[-43.02516,-16.31386],[-42.94343,-16.28287],[-42.93482,-16.22992],[-42.95615,-16.16469],[-43.0383,-16.1936],[-43.11105,-16.23116]]]]}},{"type":"Feature","properties":{"territory_id":"mg-3127800-sitio","name":"Sitio","municipality_id":"mg-3127800","polling_places":1,"approx":true,"official":false,"method":"voronoi-polling-places","whole_municipality":false,"approx_coords_only":false},"geometry":{"type":"MultiPolygon","coordinates":[[[[-43.34045,-16.5579],[-43.20844,-16.64149],[-43.15084,-16.50247],[-43.26377,-16.47897],[-43.34045,-16.5579]]]]}},{"type":"Feature","properties":{"territory_id":"mg-3127800-tingui","name":"Tingui","municipality_id":"mg-3127800","polling_places":1,"approx":true,"official":false,"method":"voronoi-polling-places","whole_municipality":false,"approx_coords_only":false},"geometry":{"type":"MultiPolygon","coordinates":[[[[-42.88179,-16.46898],[-42.80276,-16.56402],[-42.79361,-16.55776],[-42.7858,-16.5472],[-42.77646,-16.54603],[-42.63887,-16.4519],[-42.63531,-16.43555],[-42.81377,-16.35878],[-42.88179,-16.46898]]]]}},{"type":"Feature","properties":{"territory_id":"mg-3127800-vale-das-cancelas","name":"Vale das Cancelas","municipality_id":"mg-3127800","polling_places":1,"approx":true,"official":false,"method":"voronoi-polling-places","whole_municipality":false,"approx_coords_only":false},"geometry":{"type":"MultiPolygon","coordinates":[[[[-42.82354,-16.33213],[-42.81377,-16.35878],[-42.63531,-16.43555],[-42.6312,-16.4167],[-42.6555,-16.4021],[-42.6148,-16.2922],[-42.6407,-16.2638],[-42.6952,-16.2843],[-42.723,-16.2587],[-42.7235,-16.2163],[-42.70899,-16.18954],[-42.76961,-16.22943],[-42.82354,-16.33213]]]]}},{"type":"Feature","properties":{"territory_id":"mg-3127800-vista-alegre","name":"Vista Alegre","municipality_id":"mg-3127800","polling_places":1,"approx":true,"official":false,"method":"voronoi-polling-places","whole_municipality":false,"approx_coords_only":false},"geometry":{"type":"MultiPolygon","coordinates":[[[[-43.18167,-16.37776],[-43.12024,-16.46651],[-43.03849,-16.38485],[-43.02516,-16.31386],[-43.11105,-16.23116],[-43.1121,-16.2317],[-43.1318,-16.2716],[-43.1573,-16.2891],[-43.1656,-16.3608],[-43.18167,-16.37776]]]]}}]}