{"type":"FeatureCollection","features":[{"type":"Feature","properties":{"territory_id":"mg-3127602-centro","name":"Centro","municipality_id":"mg-3127602","polling_places":3,"approx":true,"official":false,"method":"voronoi-polling-places","whole_municipality":false,"approx_coords_only":false},"geometry":{"type":"MultiPolygon","coordinates":[[[[-43.8656,-18.46748],[-43.82193,-18.50174],[-43.78461,-18.50456],[-43.73725,-18.45556],[-43.73281,-18.45366],[-43.68627,-18.44241],[-43.6908,-18.3911],[-43.6822,-18.3753],[-43.7642,-18.3363],[-43.8312,-18.3332],[-43.8586,-18.3686],[-43.8254,-18.399],[-43.8607,-18.4439],[-43.8656,-18.46748]]]]}},{"type":"Feature","properties":{"territory_id":"mg-3127602-serrinha","name":"Serrinha","municipality_id":"mg-3127602","polling_places":1,"approx":true,"official":false,"method":"voronoi-polling-places","whole_municipality":false,"approx_coords_only":false},"geometry":{"type":"MultiPolygon","coordinates":[[[[-43.78461,-18.50456],[-43.73098,-18.5108],[-43.68369,-18.48879],[-43.6838,-18.4703],[-43.68627,-18.44241],[-43.73281,-18.45366],[-43.73725,-18.45556],[-43.78461,-18.50456]]]]}},{"type":"Feature","properties":{"territory_id":"mg-3127602-vila-alexandre-mascarenhas","name":"Vila Alexandre Mascarenhas","municipality_id":"mg-3127602","polling_places":1,"approx":true,"official":false,"method":"voronoi-polling-places","whole_municipality":false,"approx_coords_only":false},"geometry":{"type":"MultiPolygon","coordinates":[[[[-44.0685,-18.5675],[-44.0483,-18.6468],[-43.9987,-18.6678],[-43.9796,-18.6399],[-43.9391,-18.63497],[-43.96285,-18.5334],[-43.987,-18.5466],[-44.0131,-18.541],[-44.0685,-18.5675]]]]}},{"type":"Feature","properties":{"territory_id":"mg-3127602-zona-rural","name":"Zona Rural","municipality_id":"mg-3127602","polling_places":3,"approx":true,"official":false,"method":"voronoi-polling-places","whole_municipality":false,"approx_coords_only":false},"geometry":{"type":"MultiPolygon","coordinates":[[[[-43.96285,-18.5334],[-43.9391,-18.63497],[-43.9196,-18.6326],[-43.8935,-18.6641],[-43.8689,-18.6715],[-43.8197,-18.6534],[-43.8017,-18.6194],[-43.7657,-18.6387],[-43.736,-18.6242],[-43.6909,-18.6066],[-43.6716,-18.58],[-43.6833,-18.5539],[-43.68369,-18.48879],[-43.73098,-18.5108],[-43.78461,-18.50456],[-43.82193,-18.50174],[-43.8656,-18.46748],[-43.8686,-18.4819],[-43.96285,-18.5334]]]]}}]}