{"type":"FeatureCollection","features":[{"type":"Feature","properties":{"territory_id":"mg-3127404-centro","name":"Centro","municipality_id":"mg-3127404","polling_places":3,"approx":true,"official":false,"method":"voronoi-polling-places","whole_municipality":true,"approx_coords_only":false},"geometry":{"type":"MultiPolygon","coordinates":[[[[-45.8051,-22.7373],[-45.8116,-22.6987],[-45.7879,-22.6934],[-45.7428,-22.6592],[-45.698,-22.6498],[-45.73,-22.6187],[-45.747,-22.6249],[-45.8095,-22.6113],[-45.8392,-22.6286],[-45.8789,-22.6153],[-45.8857,-22.676],[-45.9491,-22.6943],[-45.9213,-22.7205],[-45.8732,-22.7254],[-45.8433,-22.7569],[-45.8051,-22.7373]]]]}}]}