{"type":"FeatureCollection","features":[{"type":"Feature","properties":{"territory_id":"mg-3127206-centro","name":"Centro","municipality_id":"mg-3127206","polling_places":1,"approx":true,"official":false,"method":"voronoi-polling-places","whole_municipality":false,"approx_coords_only":true},"geometry":{"type":"MultiPolygon","coordinates":[[[[-44.09763,-19.33912],[-44.09743,-19.38154],[-44.00167,-19.3559],[-44.0011,-19.35549],[-44.0063,-19.3334],[-44.0583,-19.3305],[-44.06491,-19.31604],[-44.09763,-19.33912]]]]}},{"type":"Feature","properties":{"territory_id":"mg-3127206-lagoinha","name":"Lagoinha","municipality_id":"mg-3127206","polling_places":1,"approx":true,"official":false,"method":"voronoi-polling-places","whole_municipality":false,"approx_coords_only":false},"geometry":{"type":"MultiPolygon","coordinates":[[[[-44.10666,-19.41003],[-44.04442,-19.40249],[-44.00167,-19.3559],[-44.09743,-19.38154],[-44.10666,-19.41003]]]]}},{"type":"Feature","properties":{"territory_id":"mg-3127206-nucleo-joao-pinheiro","name":"Núcleo João Pinheiro","municipality_id":"mg-3127206","polling_places":1,"approx":true,"official":false,"method":"voronoi-polling-places","whole_municipality":false,"approx_coords_only":false},"geometry":{"type":"MultiPolygon","coordinates":[[[[-44.14877,-19.3174],[-44.09763,-19.33912],[-44.06491,-19.31604],[-44.0728,-19.2988],[-44.105,-19.2898],[-44.1475,-19.303],[-44.14877,-19.3174]]]]}},{"type":"Feature","properties":{"territory_id":"mg-3127206-saco-da-vida","name":"Saco da Vida","municipality_id":"mg-3127206","polling_places":1,"approx":true,"official":false,"method":"voronoi-polling-places","whole_municipality":false,"approx_coords_only":false},"geometry":{"type":"MultiPolygon","coordinates":[[[[-44.1535,-19.3709],[-44.1281,-19.4325],[-44.1221,-19.4119],[-44.10666,-19.41003],[-44.09743,-19.38154],[-44.09763,-19.33912],[-44.14877,-19.3174],[-44.1535,-19.3709]]]]}},{"type":"Feature","properties":{"territory_id":"mg-3127206-sao-bento","name":"São Bento","municipality_id":"mg-3127206","polling_places":1,"approx":true,"official":false,"method":"voronoi-polling-places","whole_municipality":false,"approx_coords_only":false},"geometry":{"type":"MultiPolygon","coordinates":[[[[-44.04442,-19.40249],[-44.0437,-19.4024],[-44.0391,-19.4244],[-44.0036,-19.4441],[-43.9896,-19.4043],[-44.0011,-19.35549],[-44.00167,-19.3559],[-44.04442,-19.40249]]]]}}]}