{"type":"FeatureCollection","features":[{"type":"Feature","properties":{"territory_id":"mg-3127339-boa-vista","name":"Boa Vista","municipality_id":"mg-3127339","polling_places":1,"approx":true,"official":false,"method":"voronoi-polling-places","whole_municipality":false,"approx_coords_only":false},"geometry":{"type":"MultiPolygon","coordinates":[[[[-43.15975,-15.12839],[-43.04064,-15.15482],[-43.0396,-15.1181],[-43.014,-15.0717],[-43.02468,-15.05518],[-43.11998,-15.09856],[-43.15975,-15.12839]]]]}},{"type":"Feature","properties":{"territory_id":"mg-3127339-brejo-dos-martires","name":"Brejo dos Martires","municipality_id":"mg-3127339","polling_places":2,"approx":true,"official":false,"method":"voronoi-polling-places","whole_municipality":false,"approx_coords_only":false},"geometry":{"type":"MultiPolygon","coordinates":[[[[-43.5383,-14.9568],[-43.5252,-14.9773],[-43.5037,-14.9866],[-43.507,-15.0295],[-43.487,-15.04],[-43.4689,-15.0781],[-43.3689,-15.0605],[-43.325,-15.0662],[-43.3119,-15.0837],[-43.2727,-15.125],[-43.27072,-15.14064],[-43.22942,-15.13008],[-43.2291,-15.13001],[-43.12205,-15.05594],[-43.11022,-15.04632],[-43.05043,-14.99422],[-43.09488,-14.98275],[-43.22728,-14.94121],[-43.49673,-14.91656],[-43.4975,-14.9338],[-43.5383,-14.9568]]]]}},{"type":"Feature","properties":{"territory_id":"mg-3127339-centro","name":"Centro","municipality_id":"mg-3127339","polling_places":1,"approx":true,"official":false,"method":"voronoi-polling-places","whole_municipality":false,"approx_coords_only":false},"geometry":{"type":"MultiPolygon","coordinates":[[[[-43.2291,-15.13001],[-43.15975,-15.12839],[-43.11998,-15.09856],[-43.11991,-15.09692],[-43.12205,-15.05594],[-43.2291,-15.13001]]]]}},{"type":"Feature","properties":{"territory_id":"mg-3127339-engenho","name":"Engenho","municipality_id":"mg-3127339","polling_places":1,"approx":true,"official":false,"method":"voronoi-polling-places","whole_municipality":false,"approx_coords_only":false},"geometry":{"type":"MultiPolygon","coordinates":[[[[-43.27072,-15.14064],[-43.2695,-15.1503],[-43.2226,-15.1594],[-43.1658,-15.146],[-43.1415,-15.1706],[-43.1018,-15.1856],[-43.041,-15.1673],[-43.04064,-15.15482],[-43.15975,-15.12839],[-43.2291,-15.13001],[-43.22942,-15.13008],[-43.27072,-15.14064]]]]}},{"type":"Feature","properties":{"territory_id":"mg-3127339-jacu-das-piranhas","name":"Jacu das Piranhas","municipality_id":"mg-3127339","polling_places":1,"approx":true,"official":false,"method":"voronoi-polling-places","whole_municipality":false,"approx_coords_only":false},"geometry":{"type":"MultiPolygon","coordinates":[[[[-43.22728,-14.94121],[-43.09488,-14.98275],[-43.05043,-14.99422],[-43.01678,-14.99532],[-43.0146,-14.989],[-42.984,-14.94],[-43.003,-14.9102],[-43.0785,-14.8742],[-43.0915,-14.85914],[-43.22728,-14.94121]]]]}},{"type":"Feature","properties":{"territory_id":"mg-3127339-nova-gameleiras","name":"Nova Gameleiras","municipality_id":"mg-3127339","polling_places":1,"approx":true,"official":false,"method":"voronoi-polling-places","whole_municipality":false,"approx_coords_only":false},"geometry":{"type":"MultiPolygon","coordinates":[[[[-43.11998,-15.09856],[-43.02468,-15.05518],[-43.033,-15.0423],[-43.01678,-14.99532],[-43.05043,-14.99422],[-43.11022,-15.04632],[-43.11991,-15.09692],[-43.11998,-15.09856]]]]}},{"type":"Feature","properties":{"territory_id":"mg-3127339-povoado","name":"Povoado","municipality_id":"mg-3127339","polling_places":1,"approx":true,"official":false,"method":"voronoi-polling-places","whole_municipality":false,"approx_coords_only":false},"geometry":{"type":"MultiPolygon","coordinates":[[[[-43.531,-14.8154],[-43.4952,-14.8825],[-43.49673,-14.91656],[-43.22728,-14.94121],[-43.0915,-14.85914],[-43.0968,-14.853],[-43.1963,-14.8519],[-43.248,-14.8059],[-43.2852,-14.7938],[-43.3482,-14.7988],[-43.3816,-14.7804],[-43.4818,-14.8014],[-43.487,-14.7903],[-43.5308,-14.8155],[-43.531,-14.8154]]]]}},{"type":"Feature","properties":{"territory_id":"mg-3127339-zona-rural","name":"Zona Rural","municipality_id":"mg-3127339","polling_places":1,"approx":true,"official":false,"method":"voronoi-polling-places","whole_municipality":false,"approx_coords_only":false},"geometry":{"type":"MultiPolygon","coordinates":[[[[-43.12205,-15.05594],[-43.11991,-15.09692],[-43.11022,-15.04632],[-43.12205,-15.05594]]]]}}]}