{"type":"FeatureCollection","features":[{"type":"Feature","properties":{"territory_id":"mg-3127057-andarai","name":"Andarai","municipality_id":"mg-3127057","polling_places":1,"approx":true,"official":false,"method":"voronoi-polling-places","whole_municipality":false,"approx_coords_only":false},"geometry":{"type":"MultiPolygon","coordinates":[[[[-40.87759,-16.96452],[-40.8049,-16.9746],[-40.7338,-16.96125],[-40.82041,-16.85667],[-40.8267,-16.8638],[-40.8478,-16.8658],[-40.85249,-16.85958],[-40.85886,-16.88452],[-40.87759,-16.96452]]]]}},{"type":"Feature","properties":{"territory_id":"mg-3127057-centro","name":"Centro","municipality_id":"mg-3127057","polling_places":2,"approx":true,"official":false,"method":"voronoi-polling-places","whole_municipality":false,"approx_coords_only":false},"geometry":{"type":"MultiPolygon","coordinates":[[[[-40.9657,-16.8987],[-40.9147,-16.9175],[-40.8799,-16.9642],[-40.87759,-16.96452],[-40.85886,-16.88452],[-40.85249,-16.85958],[-40.8939,-16.8046],[-40.9211,-16.8158],[-40.9648,-16.8686],[-40.9657,-16.8987]]]]}},{"type":"Feature","properties":{"territory_id":"mg-3127057-monte-castelo","name":"Monte Castelo","municipality_id":"mg-3127057","polling_places":1,"approx":true,"official":false,"method":"voronoi-polling-places","whole_municipality":false,"approx_coords_only":false},"geometry":{"type":"MultiPolygon","coordinates":[[[[-40.82041,-16.85667],[-40.7338,-16.96125],[-40.7197,-16.9586],[-40.745,-16.896],[-40.7091,-16.8404],[-40.7111,-16.8321],[-40.7567,-16.8195],[-40.7992,-16.8326],[-40.82041,-16.85667]]]]}}]}