{"type":"FeatureCollection","features":[{"type":"Feature","properties":{"territory_id":"mg-3127354-centro","name":"Centro","municipality_id":"mg-3127354","polling_places":1,"approx":true,"official":false,"method":"voronoi-polling-places","whole_municipality":false,"approx_coords_only":false},"geometry":{"type":"MultiPolygon","coordinates":[[[[-43.7014,-16.851],[-43.69889,-16.85515],[-43.67328,-16.80936],[-43.6744,-16.8088],[-43.7014,-16.851]]]]}},{"type":"Feature","properties":{"territory_id":"mg-3127354-progresso","name":"Progresso","municipality_id":"mg-3127354","polling_places":1,"approx":true,"official":false,"method":"voronoi-polling-places","whole_municipality":false,"approx_coords_only":false},"geometry":{"type":"MultiPolygon","coordinates":[[[[-43.69889,-16.85515],[-43.6822,-16.8828],[-43.68269,-16.88865],[-43.63175,-16.83557],[-43.6328,-16.8298],[-43.67328,-16.80936],[-43.69889,-16.85515]]]]}},{"type":"Feature","properties":{"territory_id":"mg-3127354-zona-rural","name":"Zona Rural","municipality_id":"mg-3127354","polling_places":4,"approx":true,"official":false,"method":"voronoi-polling-places","whole_municipality":false,"approx_coords_only":false},"geometry":{"type":"MultiPolygon","coordinates":[[[[-43.6859,-16.9273],[-43.6204,-16.9894],[-43.5676,-16.9447],[-43.6055,-16.8933],[-43.6225,-16.8865],[-43.63175,-16.83557],[-43.68269,-16.88865],[-43.6859,-16.9273]]]]}}]}