{"type":"FeatureCollection","features":[{"type":"Feature","properties":{"territory_id":"mg-3127107-alto-boa-vista","name":"Alto Boa Vista","municipality_id":"mg-3127107","polling_places":1,"approx":true,"official":false,"method":"voronoi-polling-places","whole_municipality":false,"approx_coords_only":false},"geometry":{"type":"MultiPolygon","coordinates":[[[[-49.15149,-19.8388],[-48.93983,-20.01583],[-48.93317,-20.02055],[-48.92717,-20.02001],[-48.87768,-19.78136],[-48.8791,-19.7805],[-48.9217,-19.8022],[-49.0079,-19.7991],[-49.0255,-19.7836],[-49.0807,-19.7761],[-49.1395,-19.7869],[-49.15149,-19.8388]]]]}},{"type":"Feature","properties":{"territory_id":"mg-3127107-aparecida-de-minas","name":"Aparecida de Minas","municipality_id":"mg-3127107","polling_places":1,"approx":true,"official":false,"method":"voronoi-polling-places","whole_municipality":false,"approx_coords_only":false},"geometry":{"type":"MultiPolygon","coordinates":[[[[-49.3073,-20.0603],[-49.3059,-20.1169],[-49.2992,-20.1671],[-49.2652,-20.2297],[-49.2176,-20.2336],[-49.1691,-20.2164],[-49.1395,-20.1487],[-49.1025,-20.1237],[-49.0659,-20.1535],[-49.06465,-20.15337],[-49.09939,-20.02035],[-49.10416,-20.00298],[-49.15176,-19.83997],[-49.1565,-19.8605],[-49.2038,-19.9284],[-49.2222,-19.9312],[-49.2501,-19.9693],[-49.2483,-19.9996],[-49.2973,-20.0175],[-49.3073,-20.0603]]]]}},{"type":"Feature","properties":{"territory_id":"mg-3127107-centro","name":"Centro","municipality_id":"mg-3127107","polling_places":3,"approx":true,"official":false,"method":"voronoi-polling-places","whole_municipality":false,"approx_coords_only":false},"geometry":{"type":"MultiPolygon","coordinates":[[[[-49.15176,-19.83997],[-49.10416,-20.00298],[-48.94099,-20.0258],[-48.93719,-20.02722],[-48.93641,-20.02657],[-48.93027,-20.03108],[-48.92887,-20.0304],[-48.9253,-20.02395],[-48.92677,-20.02043],[-48.92717,-20.02001],[-48.93317,-20.02055],[-48.93983,-20.01583],[-49.15149,-19.8388],[-49.15176,-19.83997]]]]}},{"type":"Feature","properties":{"territory_id":"mg-3127107-estudantil","name":"Estudantil","municipality_id":"mg-3127107","polling_places":1,"approx":true,"official":false,"method":"voronoi-polling-places","whole_municipality":false,"approx_coords_only":false},"geometry":{"type":"MultiPolygon","coordinates":[[[[-48.96685,-20.26725],[-48.9658,-20.2793],[-48.96542,-20.29609],[-48.90257,-20.1833],[-48.92031,-20.04052],[-48.92887,-20.0304],[-48.93027,-20.03108],[-48.93639,-20.04059],[-48.96685,-20.26725]]]]}},{"type":"Feature","properties":{"territory_id":"mg-3127107-garimpo-do-bandeira","name":"Garimpo do Bandeira","municipality_id":"mg-3127107","polling_places":1,"approx":true,"official":false,"method":"voronoi-polling-places","whole_municipality":false,"approx_coords_only":false},"geometry":{"type":"MultiPolygon","coordinates":[[[[-48.96542,-20.29609],[-48.963,-20.4031],[-48.9042,-20.4387],[-48.8865,-20.4369],[-48.8671,-20.3989],[-48.8784,-20.3561],[-48.8755,-20.3184],[-48.8871,-20.2753],[-48.8534,-20.215],[-48.8554,-20.1801],[-48.8221,-20.1615],[-48.7811,-20.1639],[-48.7296,-20.1503],[-48.7429,-20.1181],[-48.7296,-20.0309],[-48.7353,-20.0123],[-48.7575,-19.994],[-48.7632,-19.96181],[-48.77493,-19.97842],[-48.90257,-20.1833],[-48.96542,-20.29609]]]]}},{"type":"Feature","properties":{"territory_id":"mg-3127107-ipe-amarelo","name":"Ipe Amarelo","municipality_id":"mg-3127107","polling_places":1,"approx":true,"official":false,"method":"voronoi-polling-places","whole_municipality":false,"approx_coords_only":false},"geometry":{"type":"MultiPolygon","coordinates":[[[[-48.92031,-20.04052],[-48.90257,-20.1833],[-48.77493,-19.97842],[-48.88141,-20.01282],[-48.91927,-20.02861],[-48.92031,-20.04052]]]]}},{"type":"Feature","properties":{"territory_id":"mg-3127107-nossa-senhora-aparecida","name":"Nossa Senhora Aparecida","municipality_id":"mg-3127107","polling_places":1,"approx":true,"official":false,"method":"voronoi-polling-places","whole_municipality":false,"approx_coords_only":false},"geometry":{"type":"MultiPolygon","coordinates":[[[[-48.92887,-20.0304],[-48.92031,-20.04052],[-48.91927,-20.02861],[-48.9253,-20.02395],[-48.92887,-20.0304]]]]}},{"type":"Feature","properties":{"territory_id":"mg-3127107-novo-horizonte","name":"Novo Horizonte","municipality_id":"mg-3127107","polling_places":2,"approx":true,"official":false,"method":"voronoi-polling-places","whole_municipality":false,"approx_coords_only":false},"geometry":{"type":"MultiPolygon","coordinates":[[[[-48.92717,-20.02001],[-48.92677,-20.02043],[-48.88141,-20.01282],[-48.77493,-19.97842],[-48.7632,-19.96181],[-48.7769,-19.8844],[-48.7719,-19.8462],[-48.7811,-19.8247],[-48.834,-19.8077],[-48.87768,-19.78136],[-48.92717,-20.02001]]]]}},{"type":"Feature","properties":{"territory_id":"mg-3127107-princesa-isabel","name":"Princesa Isabel","municipality_id":"mg-3127107","polling_places":2,"approx":true,"official":false,"method":"voronoi-polling-places","whole_municipality":false,"approx_coords_only":false},"geometry":{"type":"MultiPolygon","coordinates":[[[[-49.10416,-20.00298],[-49.09939,-20.02035],[-49.06465,-20.15337],[-49.0329,-20.1501],[-48.986,-20.1708],[-48.972,-20.2078],[-48.96685,-20.26725],[-48.93639,-20.04059],[-48.93819,-20.03056],[-48.93719,-20.02722],[-48.94099,-20.0258],[-49.10416,-20.00298]]]]}},{"type":"Feature","properties":{"territory_id":"mg-3127107-vila-esperanca","name":"Vila Esperanca","municipality_id":"mg-3127107","polling_places":1,"approx":true,"official":false,"method":"voronoi-polling-places","whole_municipality":false,"approx_coords_only":false},"geometry":{"type":"MultiPolygon","coordinates":[[[[-48.92677,-20.02043],[-48.9253,-20.02395],[-48.91927,-20.02861],[-48.88141,-20.01282],[-48.92677,-20.02043]]]]}},{"type":"Feature","properties":{"territory_id":"mg-3127107-xv-de-novembro","name":"Xv de Novembro","municipality_id":"mg-3127107","polling_places":1,"approx":true,"official":false,"method":"voronoi-polling-places","whole_municipality":false,"approx_coords_only":false},"geometry":{"type":"MultiPolygon","coordinates":[[[[-48.93819,-20.03056],[-48.93639,-20.04059],[-48.93027,-20.03108],[-48.93641,-20.02657],[-48.93719,-20.02722],[-48.93819,-20.03056]]]]}}]}