{"type":"FeatureCollection","features":[{"type":"Feature","properties":{"territory_id":"mg-3127370-centro","name":"Centro","municipality_id":"mg-3127370","polling_places":1,"approx":true,"official":false,"method":"voronoi-polling-places","whole_municipality":true,"approx_coords_only":false},"geometry":{"type":"MultiPolygon","coordinates":[[[[-41.2144,-18.9653],[-41.2877,-18.9822],[-41.2729,-19.0163],[-41.2808,-19.0804],[-41.277,-19.1226],[-41.234,-19.0861],[-41.2343,-19.062],[-41.1602,-18.9881],[-41.2144,-18.9653]]]]}}]}