{"type":"FeatureCollection","features":[{"type":"Feature","properties":{"territory_id":"mg-3127503-centro","name":"Centro","municipality_id":"mg-3127503","polling_places":2,"approx":true,"official":false,"method":"voronoi-polling-places","whole_municipality":true,"approx_coords_only":false},"geometry":{"type":"MultiPolygon","coordinates":[[[[-42.556,-18.9396],[-42.4847,-18.9627],[-42.4449,-18.9386],[-42.3905,-18.9276],[-42.4628,-18.8896],[-42.456,-18.8145],[-42.5045,-18.7873],[-42.5231,-18.78],[-42.5791,-18.7988],[-42.5754,-18.8365],[-42.5443,-18.8702],[-42.5679,-18.9136],[-42.5559,-18.9368],[-42.556,-18.9396]]]]}}]}