{"type":"FeatureCollection","features":[{"type":"Feature","properties":{"territory_id":"mg-3128709-catetos","name":"Catetos","municipality_id":"mg-3128709","polling_places":1,"approx":true,"official":false,"method":"voronoi-polling-places","whole_municipality":false,"approx_coords_only":false},"geometry":{"type":"MultiPolygon","coordinates":[[[[-46.74302,-21.28365],[-46.72788,-21.30974],[-46.72,-21.31277],[-46.7172,-21.30774],[-46.71705,-21.30718],[-46.71711,-21.30441],[-46.72938,-21.27196],[-46.74302,-21.28365]]]]}},{"type":"Feature","properties":{"territory_id":"mg-3128709-centro","name":"Centro","municipality_id":"mg-3128709","polling_places":6,"approx":true,"official":false,"method":"voronoi-polling-places","whole_municipality":false,"approx_coords_only":false},"geometry":{"type":"MultiPolygon","coordinates":[[[[-46.72938,-21.27196],[-46.71711,-21.30441],[-46.71705,-21.30718],[-46.7172,-21.30774],[-46.72,-21.31277],[-46.70154,-21.35332],[-46.70717,-21.3278],[-46.71008,-21.30912],[-46.70996,-21.30877],[-46.70553,-21.30484],[-46.70758,-21.30227],[-46.72365,-21.26704],[-46.72938,-21.27196]]]]}},{"type":"Feature","properties":{"territory_id":"mg-3128709-jardim-vera-cruz","name":"Jardim Vera Cruz","municipality_id":"mg-3128709","polling_places":1,"approx":true,"official":false,"method":"voronoi-polling-places","whole_municipality":false,"approx_coords_only":false},"geometry":{"type":"MultiPolygon","coordinates":[[[[-46.73968,-21.39174],[-46.739,-21.3926],[-46.69234,-21.37974],[-46.70154,-21.35332],[-46.72,-21.31277],[-46.72788,-21.30974],[-46.73968,-21.39174]]]]}},{"type":"Feature","properties":{"territory_id":"mg-3128709-parque-dos-municipios-ii","name":"Parque dos Municípios Ii","municipality_id":"mg-3128709","polling_places":1,"approx":true,"official":false,"method":"voronoi-polling-places","whole_municipality":false,"approx_coords_only":false},"geometry":{"type":"MultiPolygon","coordinates":[[[[-46.7647,-21.3601],[-46.73968,-21.39174],[-46.72788,-21.30974],[-46.74302,-21.28365],[-46.7579,-21.2964],[-46.7647,-21.3601]]]]}},{"type":"Feature","properties":{"territory_id":"mg-3128709-vila-meziara","name":"Vila Meziara","municipality_id":"mg-3128709","polling_places":1,"approx":true,"official":false,"method":"voronoi-polling-places","whole_municipality":false,"approx_coords_only":false},"geometry":{"type":"MultiPolygon","coordinates":[[[[-46.7303,-21.1873],[-46.717,-21.2273],[-46.7215,-21.2652],[-46.72365,-21.26704],[-46.70758,-21.30227],[-46.70553,-21.30484],[-46.61288,-21.3403],[-46.6006,-21.3264],[-46.6121,-21.2919],[-46.6218,-21.2475],[-46.618,-21.1931],[-46.644,-21.1767],[-46.6668,-21.1931],[-46.7303,-21.1873]]]]}},{"type":"Feature","properties":{"territory_id":"mg-3128709-vila-rica","name":"Vila Rica","municipality_id":"mg-3128709","polling_places":1,"approx":true,"official":false,"method":"voronoi-polling-places","whole_municipality":false,"approx_coords_only":false},"geometry":{"type":"MultiPolygon","coordinates":[[[[-46.71008,-21.30912],[-46.70717,-21.3278],[-46.70154,-21.35332],[-46.69234,-21.37974],[-46.6755,-21.3751],[-46.6476,-21.3796],[-46.61288,-21.3403],[-46.70553,-21.30484],[-46.70996,-21.30877],[-46.71008,-21.30912]]]]}}]}