{"type":"FeatureCollection","features":[{"type":"Feature","properties":{"territory_id":"mg-3128402-centro","name":"Centro","municipality_id":"mg-3128402","polling_places":6,"approx":true,"official":false,"method":"voronoi-polling-places","whole_municipality":true,"approx_coords_only":false},"geometry":{"type":"MultiPolygon","coordinates":[[[[-42.938,-21.3679],[-42.9264,-21.3028],[-42.9623,-21.3144],[-43.0067,-21.307],[-43.046,-21.3156],[-43.073,-21.2907],[-43.1571,-21.3108],[-43.1833,-21.3515],[-43.1586,-21.3912],[-43.0864,-21.4393],[-43.0603,-21.4304],[-43.0459,-21.4005],[-42.979,-21.39],[-42.938,-21.3679]]]]}}]}