{"type":"FeatureCollection","features":[{"type":"Feature","properties":{"territory_id":"mg-3128907-centro","name":"Centro","municipality_id":"mg-3128907","polling_places":3,"approx":true,"official":false,"method":"voronoi-polling-places","whole_municipality":false,"approx_coords_only":false},"geometry":{"type":"MultiPolygon","coordinates":[[[[-46.8161,-18.8642],[-46.7919,-18.8964],[-46.7948,-18.9177],[-46.7502,-18.9401],[-46.7039,-18.9365],[-46.659,-18.912],[-46.6444,-18.8739],[-46.6243,-18.8554],[-46.6674,-18.8111],[-46.7106,-18.8034],[-46.71809,-18.7964],[-46.77365,-18.80264],[-46.80283,-18.80404],[-46.7885,-18.8221],[-46.8161,-18.8642]]]]}},{"type":"Feature","properties":{"territory_id":"mg-3128907-povoado-de-borges","name":"Povoado de Borges","municipality_id":"mg-3128907","polling_places":1,"approx":true,"official":false,"method":"voronoi-polling-places","whole_municipality":false,"approx_coords_only":false},"geometry":{"type":"MultiPolygon","coordinates":[[[[-46.8644,-18.7286],[-46.8278,-18.7267],[-46.8081,-18.7974],[-46.80283,-18.80404],[-46.77365,-18.80264],[-46.71809,-18.7964],[-46.7396,-18.7763],[-46.74747,-18.76026],[-46.85952,-18.70917],[-46.8644,-18.7286]]]]}},{"type":"Feature","properties":{"territory_id":"mg-3128907-povoado-de-caixetas","name":"Povoado de Caixetas","municipality_id":"mg-3128907","polling_places":1,"approx":true,"official":false,"method":"voronoi-polling-places","whole_municipality":false,"approx_coords_only":false},"geometry":{"type":"MultiPolygon","coordinates":[[[[-46.85952,-18.70917],[-46.74747,-18.76026],[-46.7803,-18.6934],[-46.7772,-18.6714],[-46.8103,-18.6507],[-46.8495,-18.6693],[-46.85952,-18.70917]]]]}}]}