{"type":"FeatureCollection","features":[{"type":"Feature","properties":{"territory_id":"mg-3128808-centro","name":"Centro","municipality_id":"mg-3128808","polling_places":3,"approx":true,"official":false,"method":"voronoi-polling-places","whole_municipality":false,"approx_coords_only":false},"geometry":{"type":"MultiPolygon","coordinates":[[[[-42.8619,-21.1569],[-42.82041,-21.17207],[-42.80279,-21.16453],[-42.76649,-21.15306],[-42.77198,-21.14325],[-42.77859,-21.12374],[-42.84968,-21.11925],[-42.8619,-21.1569]]]]}},{"type":"Feature","properties":{"territory_id":"mg-3128808-zona-rural","name":"Zona Rural","municipality_id":"mg-3128808","polling_places":4,"approx":true,"official":false,"method":"voronoi-polling-places","whole_municipality":false,"approx_coords_only":false},"geometry":{"type":"MultiPolygon","coordinates":[[[[-42.84968,-21.11925],[-42.77859,-21.12374],[-42.77198,-21.14325],[-42.76649,-21.15306],[-42.80279,-21.16453],[-42.82041,-21.17207],[-42.805,-21.1777],[-42.7994,-21.2287],[-42.8138,-21.2607],[-42.795,-21.2714],[-42.7697,-21.2674],[-42.7529,-21.2033],[-42.7067,-21.1419],[-42.7482,-21.109],[-42.7901,-21.0959],[-42.8457,-21.107],[-42.84968,-21.11925]]]]}}]}