{"type":"FeatureCollection","features":[{"type":"Feature","properties":{"territory_id":"mg-3128253-centro","name":"Centro","municipality_id":"mg-3128253","polling_places":2,"approx":true,"official":false,"method":"voronoi-polling-places","whole_municipality":false,"approx_coords_only":false},"geometry":{"type":"MultiPolygon","coordinates":[[[[-43.7134,-17.0169],[-43.7066,-17.0678],[-43.6847,-17.1052],[-43.6682,-17.1705],[-43.6235,-17.1733],[-43.6015,-17.1963],[-43.564,-17.18],[-43.5153,-17.1919],[-43.4887,-17.1777],[-43.5165,-17.1511],[-43.5675,-17.0711],[-43.554,-17.0071],[-43.5661,-16.9638],[-43.6204,-16.9894],[-43.64912,-16.96217],[-43.67116,-17.02597],[-43.67037,-17.01845],[-43.6945,-16.93968],[-43.6982,-16.945],[-43.7017,-16.999],[-43.7134,-17.0169]]]]}},{"type":"Feature","properties":{"territory_id":"mg-3128253-pedro-teixeira-de-souza","name":"Pedro Teixeira de Souza","municipality_id":"mg-3128253","polling_places":1,"approx":true,"official":false,"method":"voronoi-polling-places","whole_municipality":false,"approx_coords_only":false},"geometry":{"type":"MultiPolygon","coordinates":[[[[-43.67116,-17.02597],[-43.64912,-16.96217],[-43.65731,-16.95441],[-43.67037,-17.01845],[-43.67116,-17.02597]]]]}},{"type":"Feature","properties":{"territory_id":"mg-3128253-zona-rural","name":"Zona Rural","municipality_id":"mg-3128253","polling_places":1,"approx":true,"official":false,"method":"voronoi-polling-places","whole_municipality":false,"approx_coords_only":false},"geometry":{"type":"MultiPolygon","coordinates":[[[[-43.6945,-16.93968],[-43.67037,-17.01845],[-43.65731,-16.95441],[-43.6859,-16.9273],[-43.6945,-16.93968]]]]}}]}