{"type":"FeatureCollection","features":[{"type":"Feature","properties":{"territory_id":"mg-3128600-atalaia","name":"Atalaia","municipality_id":"mg-3128600","polling_places":1,"approx":true,"official":false,"method":"voronoi-polling-places","whole_municipality":false,"approx_coords_only":false},"geometry":{"type":"MultiPolygon","coordinates":[[[[-47.20195,-17.49262],[-47.0996,-17.76412],[-47.09833,-17.76605],[-46.9911,-17.89871],[-46.9697,-17.8959],[-46.9401,-17.8428],[-46.9454,-17.7909],[-46.9226,-17.7671],[-46.92,-17.7157],[-46.9001,-17.7035],[-46.8806,-17.6486],[-46.8581,-17.6136],[-46.8791,-17.5968],[-46.9015,-17.5379],[-46.8676,-17.5017],[-46.9042,-17.464],[-46.9446,-17.4738],[-47.0018,-17.5403],[-47.005,-17.5675],[-47.056,-17.5817],[-47.1063,-17.5428],[-47.13,-17.5493],[-47.151,-17.4977],[-47.20195,-17.49262]]]]}},{"type":"Feature","properties":{"territory_id":"mg-3128600-buriti","name":"Buriti","municipality_id":"mg-3128600","polling_places":1,"approx":true,"official":false,"method":"voronoi-polling-places","whole_municipality":false,"approx_coords_only":false},"geometry":{"type":"MultiPolygon","coordinates":[[[[-47.28271,-17.48555],[-47.13865,-17.95025],[-47.12288,-17.94088],[-47.0996,-17.76412],[-47.20195,-17.49262],[-47.2102,-17.4918],[-47.2382,-17.5112],[-47.2631,-17.4783],[-47.28271,-17.48555]]]]}},{"type":"Feature","properties":{"territory_id":"mg-3128600-centro","name":"Centro","municipality_id":"mg-3128600","polling_places":2,"approx":true,"official":false,"method":"voronoi-polling-places","whole_municipality":false,"approx_coords_only":false},"geometry":{"type":"MultiPolygon","coordinates":[[[[-47.12288,-17.94088],[-47.0898,-17.9212],[-47.0309,-17.9343],[-46.9956,-17.8993],[-46.9911,-17.89871],[-47.09833,-17.76605],[-47.0996,-17.76412],[-47.12288,-17.94088]]]]}},{"type":"Feature","properties":{"territory_id":"mg-3128600-zona-rural","name":"Zona Rural","municipality_id":"mg-3128600","polling_places":1,"approx":true,"official":false,"method":"voronoi-polling-places","whole_municipality":false,"approx_coords_only":false},"geometry":{"type":"MultiPolygon","coordinates":[[[[-47.3567,-17.8941],[-47.3418,-17.9002],[-47.323,-17.9835],[-47.2834,-18.0408],[-47.2842,-18.0256],[-47.2235,-17.9931],[-47.187,-17.9554],[-47.1626,-17.9645],[-47.13865,-17.95025],[-47.28271,-17.48555],[-47.2861,-17.4868],[-47.3131,-17.5434],[-47.2648,-17.6114],[-47.279,-17.6427],[-47.2725,-17.674],[-47.314,-17.6998],[-47.317,-17.7252],[-47.3547,-17.8151],[-47.3567,-17.8941]]]]}}]}