{"type":"FeatureCollection","features":[{"type":"Feature","properties":{"territory_id":"mg-3128501-centro","name":"Centro","municipality_id":"mg-3128501","polling_places":2,"approx":true,"official":false,"method":"voronoi-polling-places","whole_municipality":false,"approx_coords_only":false},"geometry":{"type":"MultiPolygon","coordinates":[[[[-43.0762,-21.7985],[-43.0612,-21.8232],[-43.0428,-21.8271],[-43.0206,-21.7825],[-43.0041,-21.7796],[-42.9608,-21.7332],[-42.963,-21.7088],[-43.0131,-21.7154],[-43.0201,-21.6986],[-43.03951,-21.70814],[-43.04973,-21.7351],[-43.05225,-21.74102],[-43.0522,-21.7417],[-43.0762,-21.7985]]]]}},{"type":"Feature","properties":{"territory_id":"mg-3128501-sao-paulo","name":"São Paulo","municipality_id":"mg-3128501","polling_places":1,"approx":true,"official":false,"method":"voronoi-polling-places","whole_municipality":false,"approx_coords_only":false},"geometry":{"type":"MultiPolygon","coordinates":[[[[-43.0543,-21.7154],[-43.05225,-21.74102],[-43.04973,-21.7351],[-43.03951,-21.70814],[-43.0543,-21.7154]]]]}}]}