{"type":"FeatureCollection","features":[{"type":"Feature","properties":{"territory_id":"mg-3128105-aparecida-do-sul","name":"Aparecida do Sul","municipality_id":"mg-3128105","polling_places":1,"approx":true,"official":false,"method":"voronoi-polling-places","whole_municipality":false,"approx_coords_only":false},"geometry":{"type":"MultiPolygon","coordinates":[[[[-46.04416,-20.86347],[-45.9747,-20.871],[-45.9412,-20.8906],[-45.91003,-20.8708],[-45.9839,-20.73322],[-46.04416,-20.86347]]]]}},{"type":"Feature","properties":{"territory_id":"mg-3128105-capoeirinha","name":"Capoeirinha","municipality_id":"mg-3128105","polling_places":1,"approx":true,"official":false,"method":"voronoi-polling-places","whole_municipality":false,"approx_coords_only":false},"geometry":{"type":"MultiPolygon","coordinates":[[[[-45.87413,-20.74394],[-45.87318,-20.83052],[-45.87209,-20.85719],[-45.8397,-20.8654],[-45.79393,-20.83939],[-45.73363,-20.73487],[-45.7337,-20.7347],[-45.7589,-20.7118],[-45.7885,-20.7172],[-45.82831,-20.67076],[-45.87358,-20.72766],[-45.87413,-20.74394]]]]}},{"type":"Feature","properties":{"territory_id":"mg-3128105-centro","name":"Centro","municipality_id":"mg-3128105","polling_places":2,"approx":true,"official":false,"method":"voronoi-polling-places","whole_municipality":false,"approx_coords_only":false},"geometry":{"type":"MultiPolygon","coordinates":[[[[-45.92105,-20.76036],[-45.91356,-20.77012],[-45.87318,-20.83052],[-45.87413,-20.74394],[-45.9174,-20.75783],[-45.91815,-20.75993],[-45.92105,-20.76036]]]]}},{"type":"Feature","properties":{"territory_id":"mg-3128105-cidade-nova","name":"Cidade Nova","municipality_id":"mg-3128105","polling_places":2,"approx":true,"official":false,"method":"voronoi-polling-places","whole_municipality":false,"approx_coords_only":false},"geometry":{"type":"MultiPolygon","coordinates":[[[[-45.9865,-20.72299],[-45.98415,-20.732],[-45.92463,-20.75744],[-45.92105,-20.76036],[-45.91815,-20.75993],[-45.9174,-20.75783],[-45.87413,-20.74394],[-45.87358,-20.72766],[-45.98596,-20.71912],[-45.9865,-20.72299]]]]}},{"type":"Feature","properties":{"territory_id":"mg-3128105-cidade-velha","name":"Cidade Velha","municipality_id":"mg-3128105","polling_places":1,"approx":true,"official":false,"method":"voronoi-polling-places","whole_municipality":false,"approx_coords_only":false},"geometry":{"type":"MultiPolygon","coordinates":[[[[-45.98415,-20.732],[-45.9839,-20.73322],[-45.91003,-20.8708],[-45.8839,-20.8542],[-45.87209,-20.85719],[-45.87318,-20.83052],[-45.91356,-20.77012],[-45.92105,-20.76036],[-45.92463,-20.75744],[-45.98415,-20.732]]]]}},{"type":"Feature","properties":{"territory_id":"mg-3128105-distrito-de-arauna","name":"Distrito de Arauna","municipality_id":"mg-3128105","polling_places":1,"approx":true,"official":false,"method":"voronoi-polling-places","whole_municipality":false,"approx_coords_only":false},"geometry":{"type":"MultiPolygon","coordinates":[[[[-46.00464,-20.65603],[-45.98596,-20.71912],[-45.87358,-20.72766],[-45.82831,-20.67076],[-45.8318,-20.6667],[-45.8766,-20.6499],[-45.9284,-20.6042],[-45.9676,-20.5881],[-46.00464,-20.65603]]]]}},{"type":"Feature","properties":{"territory_id":"mg-3128105-penas","name":"Penas","municipality_id":"mg-3128105","polling_places":1,"approx":true,"official":false,"method":"voronoi-polling-places","whole_municipality":false,"approx_coords_only":false},"geometry":{"type":"MultiPolygon","coordinates":[[[[-46.1668,-20.8009],[-46.1301,-20.818],[-46.06896,-20.82274],[-46.07275,-20.77832],[-46.13025,-20.72345],[-46.1413,-20.774],[-46.1668,-20.8009]]]]}},{"type":"Feature","properties":{"territory_id":"mg-3128105-pontal","name":"Pontal","municipality_id":"mg-3128105","polling_places":1,"approx":true,"official":false,"method":"voronoi-polling-places","whole_municipality":false,"approx_coords_only":false},"geometry":{"type":"MultiPolygon","coordinates":[[[[-46.13025,-20.72345],[-46.07275,-20.77832],[-45.9865,-20.72299],[-45.98596,-20.71912],[-46.00464,-20.65603],[-46.0255,-20.6943],[-46.0845,-20.6911],[-46.1289,-20.7173],[-46.13025,-20.72345]]]]}},{"type":"Feature","properties":{"territory_id":"mg-3128105-santo-antonio","name":"Santo Antonio","municipality_id":"mg-3128105","polling_places":1,"approx":true,"official":false,"method":"voronoi-polling-places","whole_municipality":false,"approx_coords_only":false},"geometry":{"type":"MultiPolygon","coordinates":[[[[-46.07275,-20.77832],[-46.06896,-20.82274],[-46.063,-20.8232],[-46.0513,-20.8627],[-46.04416,-20.86347],[-45.9839,-20.73322],[-45.98415,-20.732],[-45.9865,-20.72299],[-46.07275,-20.77832]]]]}},{"type":"Feature","properties":{"territory_id":"mg-3128105-volta-grande","name":"Volta Grande","municipality_id":"mg-3128105","polling_places":1,"approx":true,"official":false,"method":"voronoi-polling-places","whole_municipality":false,"approx_coords_only":false},"geometry":{"type":"MultiPolygon","coordinates":[[[[-45.79393,-20.83939],[-45.7878,-20.8359],[-45.6918,-20.8972],[-45.6794,-20.8615],[-45.6755,-20.8043],[-45.7137,-20.784],[-45.73363,-20.73487],[-45.79393,-20.83939]]]]}}]}