{"type":"FeatureCollection","features":[{"type":"Feature","properties":{"territory_id":"mg-3128006-centro","name":"Centro","municipality_id":"mg-3128006","polling_places":8,"approx":true,"official":false,"method":"voronoi-polling-places","whole_municipality":false,"approx_coords_only":false},"geometry":{"type":"MultiPolygon","coordinates":[[[[-42.95787,-18.77549],[-42.94861,-18.78527],[-42.94387,-18.7911],[-42.93422,-18.78069],[-42.93265,-18.77981],[-42.91266,-18.77407],[-42.88694,-18.77096],[-42.84663,-18.73883],[-42.87708,-18.68532],[-42.94433,-18.76831],[-42.95787,-18.77549]],[[-42.94207,-18.76967],[-42.92899,-18.7734],[-42.93155,-18.77429],[-42.9365,-18.77545],[-42.94207,-18.76967]]]]}},{"type":"Feature","properties":{"territory_id":"mg-3128006-distrito-de-correntinho","name":"Distrito de Correntinho","municipality_id":"mg-3128006","polling_places":1,"approx":true,"official":false,"method":"voronoi-polling-places","whole_municipality":false,"approx_coords_only":false},"geometry":{"type":"MultiPolygon","coordinates":[[[[-42.88437,-18.66928],[-42.87708,-18.68532],[-42.84663,-18.73883],[-42.79902,-18.78079],[-42.76318,-18.7842],[-42.7771,-18.7076],[-42.7201,-18.688],[-42.718,-18.6549],[-42.7204,-18.6473],[-42.7341,-18.6232],[-42.8025,-18.6155],[-42.8226,-18.6717],[-42.8513,-18.675],[-42.88437,-18.66928]]]]}},{"type":"Feature","properties":{"territory_id":"mg-3128006-distrito-de-farias","name":"Distrito de Farias","municipality_id":"mg-3128006","polling_places":1,"approx":true,"official":false,"method":"voronoi-polling-places","whole_municipality":false,"approx_coords_only":false},"geometry":{"type":"MultiPolygon","coordinates":[[[[-42.88953,-19.00167],[-42.8817,-19.0101],[-42.8644,-19.0675],[-42.8004,-19.0961],[-42.8068,-19.0685],[-42.7883,-19.0387],[-42.8084,-19.0011],[-42.777,-18.9779],[-42.78272,-18.95307],[-42.85035,-18.93847],[-42.88953,-19.00167]]]]}},{"type":"Feature","properties":{"territory_id":"mg-3128006-distrito-de-sapucaia","name":"Distrito de Sapucaia","municipality_id":"mg-3128006","polling_places":1,"approx":true,"official":false,"method":"voronoi-polling-places","whole_municipality":false,"approx_coords_only":false},"geometry":{"type":"MultiPolygon","coordinates":[[[[-42.71036,-18.91923],[-42.7043,-18.9181],[-42.6559,-18.9748],[-42.6164,-18.9906],[-42.5954,-18.9622],[-42.556,-18.9396],[-42.5559,-18.9368],[-42.6004,-18.9263],[-42.6298,-18.9057],[-42.7005,-18.8882],[-42.70408,-18.88872],[-42.71036,-18.91923]]]]}},{"type":"Feature","properties":{"territory_id":"mg-3128006-nossa-senhora-aparecida","name":"Nossa Senhora Aparecida","municipality_id":"mg-3128006","polling_places":1,"approx":true,"official":false,"method":"voronoi-polling-places","whole_municipality":false,"approx_coords_only":false},"geometry":{"type":"MultiPolygon","coordinates":[[[[-42.94207,-18.76967],[-42.9365,-18.77545],[-42.93155,-18.77429],[-42.92899,-18.7734],[-42.94207,-18.76967]]]]}},{"type":"Feature","properties":{"territory_id":"mg-3128006-nova-uniao","name":"Nova Uniao","municipality_id":"mg-3128006","polling_places":1,"approx":true,"official":false,"method":"voronoi-polling-places","whole_municipality":false,"approx_coords_only":false},"geometry":{"type":"MultiPolygon","coordinates":[[[[-43.03087,-18.75702],[-42.95787,-18.77549],[-42.94433,-18.76831],[-42.87708,-18.68532],[-42.88437,-18.66928],[-42.9716,-18.6542],[-43.0085,-18.6936],[-42.9799,-18.7364],[-43.03087,-18.75702]]]]}},{"type":"Feature","properties":{"territory_id":"mg-3128006-pito","name":"Pito","municipality_id":"mg-3128006","polling_places":1,"approx":true,"official":false,"method":"voronoi-polling-places","whole_municipality":false,"approx_coords_only":false},"geometry":{"type":"MultiPolygon","coordinates":[[[[-42.94387,-18.7911],[-42.93098,-18.81797],[-42.88694,-18.77096],[-42.91266,-18.77407],[-42.93265,-18.77981],[-42.93422,-18.78069],[-42.94387,-18.7911]]]]}},{"type":"Feature","properties":{"territory_id":"mg-3128006-povoado-da-barreira","name":"Povoado da Barreira","municipality_id":"mg-3128006","polling_places":1,"approx":true,"official":false,"method":"voronoi-polling-places","whole_municipality":false,"approx_coords_only":false},"geometry":{"type":"MultiPolygon","coordinates":[[[[-43.0069,-18.902],[-42.9846,-18.9301],[-42.9444,-18.929],[-42.928,-18.9603],[-42.88953,-19.00167],[-42.85035,-18.93847],[-42.8724,-18.89064],[-42.9498,-18.87187],[-43.0006,-18.88203],[-43.0069,-18.902]]]]}},{"type":"Feature","properties":{"territory_id":"mg-3128006-povoado-do-cruzeiro-do-aricanga","name":"Povoado do Cruzeiro do Aricanga","municipality_id":"mg-3128006","polling_places":1,"approx":true,"official":false,"method":"voronoi-polling-places","whole_municipality":false,"approx_coords_only":false},"geometry":{"type":"MultiPolygon","coordinates":[[[[-42.9498,-18.87187],[-42.8724,-18.89064],[-42.79902,-18.78079],[-42.84663,-18.73883],[-42.88694,-18.77096],[-42.93098,-18.81797],[-42.9498,-18.87187]]]]}},{"type":"Feature","properties":{"territory_id":"mg-3128006-povoado-do-taquaral","name":"Povoado do Taquaral","municipality_id":"mg-3128006","polling_places":1,"approx":true,"official":false,"method":"voronoi-polling-places","whole_municipality":false,"approx_coords_only":false},"geometry":{"type":"MultiPolygon","coordinates":[[[[-42.8724,-18.89064],[-42.85035,-18.93847],[-42.78272,-18.95307],[-42.7939,-18.9046],[-42.7579,-18.9003],[-42.7414,-18.925],[-42.71036,-18.91923],[-42.70408,-18.88872],[-42.735,-18.8932],[-42.7632,-18.8436],[-42.7598,-18.8028],[-42.76318,-18.7842],[-42.79902,-18.78079],[-42.8724,-18.89064]]]]}},{"type":"Feature","properties":{"territory_id":"mg-3128006-vermelho","name":"Vermelho","municipality_id":"mg-3128006","polling_places":1,"approx":true,"official":false,"method":"voronoi-polling-places","whole_municipality":false,"approx_coords_only":false},"geometry":{"type":"MultiPolygon","coordinates":[[[[-43.0626,-18.7897],[-43.0102,-18.8245],[-42.9908,-18.851],[-43.0006,-18.88203],[-42.9498,-18.87187],[-42.93098,-18.81797],[-42.94387,-18.7911],[-42.94861,-18.78527],[-42.95787,-18.77549],[-43.03087,-18.75702],[-43.0412,-18.7612],[-43.0626,-18.7897]]]]}}]}