{"type":"FeatureCollection","features":[{"type":"Feature","properties":{"territory_id":"mg-3128303-bom-jesus","name":"Bom Jesus","municipality_id":"mg-3128303","polling_places":1,"approx":true,"official":false,"method":"voronoi-polling-places","whole_municipality":false,"approx_coords_only":false},"geometry":{"type":"MultiPolygon","coordinates":[[[[-46.8933,-21.3821],[-46.8846,-21.4072],[-46.8421,-21.3891],[-46.8361,-21.3707],[-46.7815,-21.3707],[-46.7647,-21.3601],[-46.7579,-21.2964],[-46.7354,-21.27711],[-46.78605,-21.30442],[-46.89285,-21.37931],[-46.8933,-21.3821]]]]}},{"type":"Feature","properties":{"territory_id":"mg-3128303-centro","name":"Centro","municipality_id":"mg-3128303","polling_places":2,"approx":true,"official":false,"method":"voronoi-polling-places","whole_municipality":false,"approx_coords_only":false},"geometry":{"type":"MultiPolygon","coordinates":[[[[-46.89285,-21.37931],[-46.78605,-21.30442],[-46.7354,-21.27711],[-46.73267,-21.27478],[-46.84007,-21.21973],[-46.8648,-21.2584],[-46.8785,-21.2909],[-46.89285,-21.37931]]]]}},{"type":"Feature","properties":{"territory_id":"mg-3128303-santa-cruz-da-prata","name":"Santa Cruz da Prata","municipality_id":"mg-3128303","polling_places":1,"approx":true,"official":false,"method":"voronoi-polling-places","whole_municipality":false,"approx_coords_only":false},"geometry":{"type":"MultiPolygon","coordinates":[[[[-46.84007,-21.21973],[-46.73267,-21.27478],[-46.7215,-21.2652],[-46.717,-21.2273],[-46.7303,-21.1873],[-46.7821,-21.1577],[-46.7854,-21.1519],[-46.8121,-21.176],[-46.84007,-21.21973]]]]}}]}