{"type":"FeatureCollection","features":[{"type":"Feature","properties":{"territory_id":"mg-3128204-centro","name":"Centro","municipality_id":"mg-3128204","polling_places":2,"approx":true,"official":false,"method":"voronoi-polling-places","whole_municipality":false,"approx_coords_only":false},"geometry":{"type":"MultiPolygon","coordinates":[[[[-43.06548,-20.59353],[-43.0605,-20.5978],[-43.0197,-20.6003],[-43.01985,-20.61453],[-42.99667,-20.60128],[-43.0091,-20.57422],[-43.00197,-20.54764],[-43.02277,-20.53815],[-43.03298,-20.54873],[-43.00967,-20.57362],[-43.06303,-20.57807],[-43.06548,-20.59353]]]]}},{"type":"Feature","properties":{"territory_id":"mg-3128204-zona-rural","name":"Zona Rural","municipality_id":"mg-3128204","polling_places":7,"approx":true,"official":false,"method":"voronoi-polling-places","whole_municipality":false,"approx_coords_only":false},"geometry":{"type":"MultiPolygon","coordinates":[[[[-43.1573,-20.5116],[-43.138,-20.5618],[-43.1167,-20.601],[-43.0795,-20.5815],[-43.06548,-20.59353],[-43.06303,-20.57807],[-43.00967,-20.57362],[-43.03298,-20.54873],[-43.02277,-20.53815],[-43.00197,-20.54764],[-43.0091,-20.57422],[-42.99667,-20.60128],[-43.01985,-20.61453],[-43.0203,-20.6555],[-42.9732,-20.6581],[-42.9672,-20.6781],[-42.9296,-20.6614],[-42.9473,-20.6186],[-42.882,-20.5686],[-42.9279,-20.5275],[-42.9736,-20.5085],[-42.9936,-20.4669],[-43.0362,-20.4489],[-43.0525,-20.4558],[-43.1234,-20.5054],[-43.1573,-20.5116]]]]}}]}