{"type":"FeatureCollection","features":[{"type":"Feature","properties":{"territory_id":"mg-3129509-argenita","name":"Argenita","municipality_id":"mg-3129509","polling_places":1,"approx":true,"official":false,"method":"voronoi-polling-places","whole_municipality":false,"approx_coords_only":false},"geometry":{"type":"MultiPolygon","coordinates":[[[[-46.86048,-19.52425],[-46.8588,-19.5413],[-46.8174,-19.5756],[-46.7415,-19.6188],[-46.7618,-19.6754],[-46.836,-19.7454],[-46.826,-19.7746],[-46.7143,-19.8458],[-46.6796,-19.8974],[-46.6671,-19.872],[-46.6125,-19.9054],[-46.6006,-19.9268],[-46.5861,-19.8983],[-46.5158,-19.8588],[-46.4946,-19.825],[-46.5104,-19.7964],[-46.5468,-19.7724],[-46.5445,-19.7327],[-46.5709,-19.6815],[-46.5455,-19.6654],[-46.52829,-19.66803],[-46.56863,-19.51013],[-46.86048,-19.52425]]]]}},{"type":"Feature","properties":{"territory_id":"mg-3129509-centro","name":"Centro","municipality_id":"mg-3129509","polling_places":2,"approx":false,"official":true,"method":"official-ibge-cd2022","whole_municipality":false,"approx_coords_only":false,"official_name":"Centro","official_code":"3129509002","match":"direct"},"geometry":{"type":"MultiPolygon","coordinates":[[[[-46.5398,-19.47726],[-46.5372,-19.47415],[-46.53614,-19.47278],[-46.53558,-19.47213],[-46.53539,-19.47233],[-46.53503,-19.47257],[-46.53471,-19.47273],[-46.53436,-19.47275],[-46.53396,-19.47286],[-46.53375,-19.47286],[-46.53334,-19.47297],[-46.53301,-19.47309],[-46.53282,-19.47318],[-46.53271,-19.4733],[-46.53262,-19.47391],[-46.53265,-19.47417],[-46.53277,-19.47438],[-46.53297,-19.47469],[-46.53315,-19.4748],[-46.53335,-19.47497],[-46.53375,-19.47513],[-46.5342,-19.47537],[-46.53439,-19.47545],[-46.53455,-19.4755],[-46.53471,-19.47553],[-46.53489,-19.47546],[-46.53509,-19.47536],[-46.53539,-19.47512],[-46.53558,-19.47505],[-46.53574,-19.47504],[-46.53589,-19.47505],[-46.53604,-19.47516],[-46.53611,-19.4753],[-46.53615,-19.47551],[-46.53609,-19.47606],[-46.53595,-19.47648],[-46.53587,-19.47664],[-46.53572,-19.4768],[-46.53562,-19.47702],[-46.53556,-19.47726],[-46.53554,-19.47747],[-46.53542,-19.47774],[-46.53532,-19.47821],[-46.53533,-19.47843],[-46.53538,-19.47861],[-46.53548,-19.47882],[-46.53566,-19.47908],[-46.53566,-19.47929],[-46.53584,-19.47931],[-46.536,-19.47941],[-46.53633,-19.47946],[-46.53655,-19.47945],[-46.53672,-19.47948],[-46.53705,-19.47943],[-46.53739,-19.47922],[-46.5376,-19.47946],[-46.53771,-19.47964],[-46.53791,-19.47979],[-46.53812,-19.47983],[-46.53838,-19.47994],[-46.53841,-19.48027],[-46.53834,-19.4805],[-46.53836,-19.48077],[-46.53845,-19.48132],[-46.53844,-19.48156],[-46.53848,-19.48221],[-46.53845,-19.48311],[-46.53839,-19.48365],[-46.53841,-19.48443],[-46.53834,-19.48523],[-46.53844,-19.48579],[-46.53849,-19.48582],[-46.53864,-19.48611],[-46.53937,-19.48694],[-46.53939,-19.48696],[-46.53946,-19.48689],[-46.54025,-19.48771],[-46.54049,-19.48796],[-46.54069,-19.48823],[-46.54083,-19.48846],[-46.54105,-19.48842],[-46.54126,-19.4887],[-46.54148,-19.48894],[-46.54172,-19.48913],[-46.54193,-19.48934],[-46.54213,-19.48963],[-46.5423,-19.48956],[-46.54304,-19.48908],[-46.5436,-19.48867],[-46.54404,-19.48838],[-46.54495,-19.48785],[-46.54461,-19.4873],[-46.54385,-19.48616],[-46.54362,-19.48592],[-46.54257,-19.48429],[-46.54234,-19.48372],[-46.54219,-19.48321],[-46.54221,-19.48313],[-46.54326,-19.48248],[-46.5448,-19.48145],[-46.54608,-19.48076],[-46.54605,-19.48057],[-46.54611,-19.48036],[-46.54613,-19.48014],[-46.54608,-19.47992],[-46.5459,-19.4796],[-46.54591,-19.47939],[-46.54598,-19.47909],[-46.54595,-19.47893],[-46.54584,-19.4787],[-46.54578,-19.47844],[-46.54571,-19.47825],[-46.54552,-19.47814],[-46.54533,-19.47791],[-46.54519,-19.47781],[-46.54509,-19.47766],[-46.54494,-19.47753],[-46.54485,-19.47742],[-46.54475,-19.4771],[-46.54458,-19.47689],[-46.54442,-19.47637],[-46.54443,-19.47624],[-46.54431,-19.47617],[-46.54423,-19.47604],[-46.54417,-19.47591],[-46.54398,-19.47566],[-46.54379,-19.47548],[-46.54336,-19.47529],[-46.54322,-19.47519],[-46.54309,-19.47525],[-46.54274,-19.47547],[-46.54231,-19.47589],[-46.54218,-19.47604],[-46.54202,-19.47609],[-46.54186,-19.47606],[-46.54179,-19.47596],[-46.54154,-19.47615],[-46.54124,-19.47634],[-46.5398,-19.47726]]]]}},{"type":"Feature","properties":{"territory_id":"mg-3129509-deolinda-mendes","name":"Deolinda Mendes","municipality_id":"mg-3129509","polling_places":1,"approx":false,"official":true,"method":"official-ibge-cd2022","whole_municipality":false,"approx_coords_only":false,"official_name":"Deolinda  Mendes","official_code":"3129509003","match":"direct"},"geometry":{"type":"MultiPolygon","coordinates":[[[[-46.54704,-19.49317],[-46.54704,-19.49325],[-46.54766,-19.49552],[-46.54791,-19.4965],[-46.54812,-19.49743],[-46.54824,-19.49774],[-46.54833,-19.4982],[-46.54862,-19.49932],[-46.54896,-19.50053],[-46.54908,-19.50088],[-46.54931,-19.50131],[-46.54961,-19.50166],[-46.54998,-19.502],[-46.55046,-19.50227],[-46.55109,-19.50253],[-46.55188,-19.5028],[-46.55266,-19.50312],[-46.55302,-19.5033],[-46.55614,-19.501],[-46.5566,-19.5007],[-46.55943,-19.49862],[-46.55426,-19.49453],[-46.55244,-19.49404],[-46.55131,-19.49371],[-46.55132,-19.49357],[-46.5514,-19.49331],[-46.55145,-19.49308],[-46.55146,-19.49293],[-46.55147,-19.49272],[-46.55145,-19.4922],[-46.55137,-19.49174],[-46.55124,-19.49143],[-46.55104,-19.49086],[-46.55166,-19.4907],[-46.55148,-19.4901],[-46.54856,-19.4902],[-46.54825,-19.49025],[-46.54821,-19.49024],[-46.54804,-19.49001],[-46.54696,-19.49069],[-46.5467,-19.49033],[-46.54638,-19.48983],[-46.54623,-19.48966],[-46.5453,-19.48831],[-46.54501,-19.48793],[-46.54539,-19.48896],[-46.5463,-19.49108],[-46.54669,-19.49218],[-46.54689,-19.49247],[-46.54704,-19.49317]]]]}},{"type":"Feature","properties":{"territory_id":"mg-3129509-dona-maroca","name":"Dona Maroca","municipality_id":"mg-3129509","polling_places":1,"approx":false,"official":true,"method":"official-ibge-cd2022","whole_municipality":false,"approx_coords_only":false,"official_name":"Dona Maroca","official_code":"3129509005","match":"direct"},"geometry":{"type":"MultiPolygon","coordinates":[[[[-46.55116,-19.48157],[-46.55101,-19.4828],[-46.55089,-19.4842],[-46.55076,-19.48531],[-46.55067,-19.48625],[-46.55065,-19.48705],[-46.55057,-19.48781],[-46.55137,-19.48784],[-46.55231,-19.48795],[-46.55271,-19.48798],[-46.55326,-19.48799],[-46.55337,-19.48797],[-46.55364,-19.48783],[-46.55413,-19.48776],[-46.55418,-19.48817],[-46.55452,-19.48952],[-46.55478,-19.49031],[-46.55494,-19.49069],[-46.55538,-19.49081],[-46.55562,-19.49051],[-46.55518,-19.48998],[-46.55501,-19.48941],[-46.55536,-19.48936],[-46.555,-19.48699],[-46.55487,-19.48585],[-46.55488,-19.4854],[-46.55495,-19.48476],[-46.555,-19.48407],[-46.5553,-19.48069],[-46.55535,-19.47948],[-46.55532,-19.47926],[-46.55531,-19.4791],[-46.55521,-19.47824],[-46.55403,-19.4782],[-46.55143,-19.47803],[-46.55121,-19.4804],[-46.55115,-19.48123],[-46.55117,-19.48136],[-46.55116,-19.48157]]]]}},{"type":"Feature","properties":{"territory_id":"mg-3129509-quilombo","name":"Quilombo","municipality_id":"mg-3129509","polling_places":1,"approx":true,"official":false,"method":"voronoi-polling-places","whole_municipality":false,"approx_coords_only":false},"geometry":{"type":"MultiPolygon","coordinates":[[[[-46.51716,-19.44479],[-46.27078,-19.57158],[-46.2679,-19.5643],[-46.3259,-19.4923],[-46.2796,-19.46],[-46.2662,-19.4317],[-46.307,-19.4109],[-46.3174,-19.3828],[-46.3905,-19.4017],[-46.4221,-19.3306],[-46.4503,-19.3114],[-46.48291,-19.31303],[-46.51716,-19.44479]]]]}},{"type":"Feature","properties":{"territory_id":"mg-3129509-risoleta-neves","name":"Risoleta Neves","municipality_id":"mg-3129509","polling_places":1,"approx":false,"official":true,"method":"official-ibge-cd2022","whole_municipality":false,"approx_coords_only":false,"official_name":"Risoleta Neves","official_code":"3129509012","match":"direct"},"geometry":{"type":"MultiPolygon","coordinates":[[[[-46.53721,-19.48751],[-46.5367,-19.48814],[-46.53665,-19.48813],[-46.53671,-19.48788],[-46.53609,-19.48771],[-46.53576,-19.48863],[-46.53435,-19.4882],[-46.53156,-19.48738],[-46.53138,-19.48782],[-46.53133,-19.4883],[-46.5361,-19.48979],[-46.53793,-19.49031],[-46.54192,-19.49145],[-46.54254,-19.49152],[-46.54344,-19.49187],[-46.54348,-19.49128],[-46.54326,-19.49093],[-46.54274,-19.49073],[-46.54253,-19.49035],[-46.54237,-19.49023],[-46.54223,-19.49017],[-46.54222,-19.48997],[-46.54213,-19.48963],[-46.54193,-19.48934],[-46.54172,-19.48913],[-46.54148,-19.48894],[-46.54126,-19.4887],[-46.54105,-19.48842],[-46.54083,-19.48846],[-46.54069,-19.48823],[-46.54049,-19.48796],[-46.53946,-19.48689],[-46.53939,-19.48696],[-46.53937,-19.48694],[-46.53864,-19.48611],[-46.53786,-19.48696],[-46.53721,-19.48751]]]]}},{"type":"Feature","properties":{"territory_id":"mg-3129509-santa-cruz","name":"Santa Cruz","municipality_id":"mg-3129509","polling_places":1,"approx":false,"official":true,"method":"official-ibge-cd2022","whole_municipality":false,"approx_coords_only":false,"official_name":"Santa Cruz","official_code":"3129509014","match":"direct"},"geometry":{"type":"MultiPolygon","coordinates":[[[[-46.54691,-19.48659],[-46.54632,-19.48571],[-46.54576,-19.48491],[-46.54626,-19.48261],[-46.54608,-19.48076],[-46.5448,-19.48145],[-46.54326,-19.48248],[-46.54221,-19.48313],[-46.54219,-19.48321],[-46.54234,-19.48372],[-46.54257,-19.48429],[-46.54362,-19.48592],[-46.54385,-19.48616],[-46.54461,-19.4873],[-46.54495,-19.48785],[-46.5453,-19.48831],[-46.54623,-19.48966],[-46.54638,-19.48983],[-46.5467,-19.49033],[-46.54696,-19.49069],[-46.54804,-19.49001],[-46.54821,-19.49024],[-46.54825,-19.49025],[-46.54856,-19.4902],[-46.55148,-19.4901],[-46.5541,-19.48974],[-46.55424,-19.48964],[-46.55452,-19.48953],[-46.55418,-19.48817],[-46.55413,-19.48776],[-46.55364,-19.48783],[-46.55337,-19.48797],[-46.55326,-19.48799],[-46.55271,-19.48798],[-46.55231,-19.48795],[-46.55137,-19.48784],[-46.55057,-19.48781],[-46.55027,-19.48777],[-46.54987,-19.48776],[-46.54898,-19.48767],[-46.549,-19.48732],[-46.54878,-19.48727],[-46.54864,-19.48719],[-46.54848,-19.48713],[-46.54817,-19.48704],[-46.54769,-19.48676],[-46.54725,-19.48657],[-46.54706,-19.48669],[-46.54691,-19.48659]]]]}},{"type":"Feature","properties":{"territory_id":"mg-3129509-sao-benedito","name":"Sao Benedito","municipality_id":"mg-3129509","polling_places":1,"approx":false,"official":true,"method":"official-ibge-cd2022","whole_municipality":false,"approx_coords_only":false,"official_name":"São Benedito","official_code":"3129509015","match":"direct"},"geometry":{"type":"MultiPolygon","coordinates":[[[[-46.54741,-19.4946],[-46.54704,-19.49325],[-46.54704,-19.49317],[-46.54689,-19.49247],[-46.54669,-19.49218],[-46.5463,-19.49108],[-46.54539,-19.48896],[-46.54501,-19.48793],[-46.54495,-19.48785],[-46.54404,-19.48838],[-46.5436,-19.48867],[-46.54304,-19.48908],[-46.5423,-19.48956],[-46.54213,-19.48963],[-46.54222,-19.48997],[-46.54223,-19.49017],[-46.54237,-19.49023],[-46.54253,-19.49035],[-46.54274,-19.49073],[-46.54326,-19.49093],[-46.54348,-19.49128],[-46.54339,-19.49244],[-46.54328,-19.49324],[-46.54325,-19.49525],[-46.5432,-19.49563],[-46.54313,-19.49646],[-46.54306,-19.49665],[-46.54309,-19.49689],[-46.543,-19.49709],[-46.54295,-19.49729],[-46.54303,-19.49755],[-46.54313,-19.4977],[-46.54315,-19.49789],[-46.54322,-19.49806],[-46.54321,-19.49822],[-46.54325,-19.49838],[-46.54319,-19.49893],[-46.54319,-19.49932],[-46.54333,-19.49955],[-46.5435,-19.49972],[-46.54377,-19.5003],[-46.5438,-19.5006],[-46.54381,-19.50102],[-46.54379,-19.5011],[-46.54473,-19.50114],[-46.54604,-19.5013],[-46.54667,-19.50123],[-46.54701,-19.50108],[-46.54772,-19.50074],[-46.5483,-19.50047],[-46.54851,-19.5004],[-46.5489,-19.50029],[-46.54862,-19.49932],[-46.54833,-19.4982],[-46.54824,-19.49774],[-46.54812,-19.49743],[-46.54791,-19.4965],[-46.54766,-19.49552],[-46.54741,-19.4946]]]]}},{"type":"Feature","properties":{"territory_id":"mg-3129509-sao-dimas","name":"Sao Dimas","municipality_id":"mg-3129509","polling_places":1,"approx":false,"official":true,"method":"official-ibge-cd2022","whole_municipality":false,"approx_coords_only":false,"official_name":"São Dimas","official_code":"3129509016","match":"direct"},"geometry":{"type":"MultiPolygon","coordinates":[[[[-46.53191,-19.47813],[-46.53283,-19.47729],[-46.53304,-19.47714],[-46.53317,-19.47713],[-46.53338,-19.47725],[-46.53352,-19.4774],[-46.53364,-19.47757],[-46.5337,-19.47791],[-46.53378,-19.47843],[-46.53385,-19.47907],[-46.53387,-19.47937],[-46.53385,-19.47967],[-46.53387,-19.48018],[-46.53391,-19.48031],[-46.53405,-19.48043],[-46.53423,-19.48062],[-46.53446,-19.48077],[-46.53466,-19.48084],[-46.53495,-19.48083],[-46.53513,-19.48068],[-46.53519,-19.48042],[-46.53535,-19.48027],[-46.53546,-19.48013],[-46.53549,-19.47979],[-46.53565,-19.47964],[-46.53566,-19.47908],[-46.53548,-19.47882],[-46.53538,-19.47861],[-46.53533,-19.47843],[-46.53532,-19.47821],[-46.53542,-19.47774],[-46.53554,-19.47747],[-46.53556,-19.47726],[-46.53562,-19.47702],[-46.53572,-19.4768],[-46.53587,-19.47664],[-46.53595,-19.47648],[-46.53609,-19.47606],[-46.53615,-19.47551],[-46.53611,-19.4753],[-46.53604,-19.47516],[-46.53589,-19.47505],[-46.53574,-19.47504],[-46.53558,-19.47505],[-46.53539,-19.47512],[-46.53509,-19.47536],[-46.53489,-19.47546],[-46.53471,-19.47553],[-46.53455,-19.4755],[-46.53439,-19.47545],[-46.5342,-19.47537],[-46.53375,-19.47513],[-46.53335,-19.47497],[-46.53315,-19.4748],[-46.53297,-19.47469],[-46.53277,-19.47438],[-46.53265,-19.47417],[-46.53262,-19.47391],[-46.53264,-19.47369],[-46.53271,-19.4733],[-46.53282,-19.47318],[-46.53301,-19.47309],[-46.53334,-19.47297],[-46.53375,-19.47286],[-46.53396,-19.47286],[-46.53436,-19.47275],[-46.53471,-19.47273],[-46.53503,-19.47257],[-46.53539,-19.47233],[-46.53558,-19.47213],[-46.53568,-19.4719],[-46.53572,-19.47169],[-46.53581,-19.47149],[-46.53597,-19.47121],[-46.53612,-19.47102],[-46.53633,-19.47089],[-46.53665,-19.47088],[-46.53683,-19.47095],[-46.53697,-19.47108],[-46.53728,-19.47142],[-46.53742,-19.47161],[-46.53754,-19.47184],[-46.53778,-19.47222],[-46.53794,-19.47237],[-46.53812,-19.47266],[-46.53821,-19.47328],[-46.53861,-19.4735],[-46.53909,-19.4737],[-46.53928,-19.47372],[-46.53961,-19.47379],[-46.54023,-19.47374],[-46.54072,-19.4738],[-46.54096,-19.47379],[-46.54114,-19.47382],[-46.54132,-19.47414],[-46.5414,-19.47433],[-46.54144,-19.4745],[-46.54152,-19.47546],[-46.54162,-19.47566],[-46.54179,-19.47596],[-46.54186,-19.47606],[-46.54202,-19.47609],[-46.54218,-19.47604],[-46.54231,-19.47589],[-46.54274,-19.47547],[-46.54309,-19.47525],[-46.54322,-19.47519],[-46.54362,-19.47489],[-46.54379,-19.47469],[-46.54401,-19.47411],[-46.54403,-19.4738],[-46.54391,-19.47324],[-46.54396,-19.47304],[-46.54381,-19.47297],[-46.54355,-19.47299],[-46.54297,-19.473],[-46.54244,-19.47308],[-46.54214,-19.47307],[-46.54191,-19.47305],[-46.54161,-19.47298],[-46.54081,-19.47286],[-46.54041,-19.47276],[-46.54023,-19.47276],[-46.54006,-19.47272],[-46.53976,-19.47253],[-46.53903,-19.47212],[-46.53832,-19.47162],[-46.53807,-19.47147],[-46.53783,-19.47125],[-46.53747,-19.47076],[-46.53723,-19.47048],[-46.53702,-19.4703],[-46.53677,-19.47018],[-46.53652,-19.47013],[-46.53627,-19.47012],[-46.53602,-19.47017],[-46.53583,-19.47019],[-46.53557,-19.47016],[-46.53476,-19.46988],[-46.53454,-19.46986],[-46.53433,-19.46963],[-46.53407,-19.46922],[-46.53377,-19.46891],[-46.53348,-19.46852],[-46.53322,-19.46811],[-46.53309,-19.4678],[-46.53291,-19.46758],[-46.5325,-19.46747],[-46.53224,-19.46736],[-46.53193,-19.46719],[-46.53184,-19.46686],[-46.53147,-19.46647],[-46.5311,-19.46623],[-46.53077,-19.4664],[-46.53075,-19.46677],[-46.53077,-19.46708],[-46.53069,-19.46741],[-46.53018,-19.46769],[-46.52979,-19.46797],[-46.52914,-19.46815],[-46.52839,-19.46841],[-46.52745,-19.46878],[-46.5266,-19.46896],[-46.52569,-19.46909],[-46.52536,-19.46939],[-46.52512,-19.46978],[-46.52496,-19.46997],[-46.52477,-19.47015],[-46.52458,-19.47023],[-46.52428,-19.4702],[-46.52397,-19.47032],[-46.52358,-19.47077],[-46.52393,-19.47089],[-46.52437,-19.47101],[-46.52601,-19.47252],[-46.52653,-19.47292],[-46.5271,-19.47344],[-46.52752,-19.47386],[-46.52801,-19.47443],[-46.52839,-19.47482],[-46.53006,-19.4764],[-46.5287,-19.47783],[-46.52906,-19.47815],[-46.52846,-19.47877],[-46.52835,-19.47882],[-46.52761,-19.47906],[-46.52728,-19.47911],[-46.52688,-19.47925],[-46.52619,-19.4797],[-46.52648,-19.48036],[-46.52655,-19.48013],[-46.52672,-19.48],[-46.52695,-19.47995],[-46.52719,-19.4802],[-46.52733,-19.48037],[-46.52733,-19.48073],[-46.52734,-19.48101],[-46.52749,-19.48128],[-46.52813,-19.48142],[-46.52874,-19.48121],[-46.5292,-19.48082],[-46.52939,-19.48074],[-46.52944,-19.4805],[-46.52953,-19.48041],[-46.52987,-19.47986],[-46.53002,-19.47974],[-46.53009,-19.47963],[-46.53013,-19.47949],[-46.53023,-19.4794],[-46.53043,-19.47938],[-46.53054,-19.47924],[-46.53081,-19.47911],[-46.53093,-19.47894],[-46.53111,-19.47887],[-46.53119,-19.47872],[-46.53191,-19.47813]]]]}},{"type":"Feature","properties":{"territory_id":"mg-3129509-sao-joao","name":"Sao Joao","municipality_id":"mg-3129509","polling_places":1,"approx":false,"official":true,"method":"official-ibge-cd2022","whole_municipality":false,"approx_coords_only":false,"official_name":"São João","official_code":"3129509017","match":"direct"},"geometry":{"type":"MultiPolygon","coordinates":[[[[-46.516,-19.47444],[-46.51615,-19.47492],[-46.51649,-19.47516],[-46.51691,-19.47589],[-46.51728,-19.47625],[-46.51743,-19.47652],[-46.51774,-19.47696],[-46.51796,-19.47755],[-46.5181,-19.47816],[-46.51844,-19.47908],[-46.51882,-19.4798],[-46.51896,-19.4803],[-46.51928,-19.48097],[-46.51947,-19.48127],[-46.52031,-19.48169],[-46.52067,-19.48181],[-46.52083,-19.48183],[-46.52109,-19.48182],[-46.52126,-19.48186],[-46.52127,-19.48193],[-46.52133,-19.48206],[-46.52147,-19.48215],[-46.52163,-19.4821],[-46.52169,-19.48205],[-46.52197,-19.48205],[-46.52232,-19.48229],[-46.52254,-19.48257],[-46.52264,-19.48259],[-46.52277,-19.48264],[-46.52303,-19.4828],[-46.52313,-19.48282],[-46.52388,-19.48314],[-46.52503,-19.4835],[-46.52515,-19.48335],[-46.52537,-19.48325],[-46.52643,-19.48262],[-46.52657,-19.48251],[-46.52658,-19.48212],[-46.52649,-19.48174],[-46.52628,-19.48126],[-46.52618,-19.48109],[-46.52618,-19.48092],[-46.52648,-19.48036],[-46.52607,-19.47941],[-46.52628,-19.47839],[-46.52617,-19.47785],[-46.52597,-19.47739],[-46.52588,-19.47676],[-46.52562,-19.47601],[-46.52561,-19.47584],[-46.5255,-19.4757],[-46.52531,-19.47561],[-46.525,-19.47558],[-46.52471,-19.47535],[-46.52242,-19.47287],[-46.52184,-19.47166],[-46.5198,-19.47271],[-46.51788,-19.47344],[-46.51663,-19.47413],[-46.516,-19.47444]]]]}},{"type":"Feature","properties":{"territory_id":"mg-3129509-tobati","name":"Tobati","municipality_id":"mg-3129509","polling_places":1,"approx":true,"official":false,"method":"voronoi-polling-places","whole_municipality":false,"approx_coords_only":false},"geometry":{"type":"MultiPolygon","coordinates":[[[[-46.56863,-19.51013],[-46.52829,-19.66803],[-46.5108,-19.6707],[-46.4802,-19.6555],[-46.449,-19.6682],[-46.4242,-19.6976],[-46.3993,-19.6678],[-46.3643,-19.6744],[-46.3538,-19.6439],[-46.3278,-19.6415],[-46.2841,-19.6053],[-46.27078,-19.57158],[-46.51716,-19.44479],[-46.53828,-19.4716],[-46.53807,-19.47147],[-46.53783,-19.47125],[-46.53747,-19.47076],[-46.53723,-19.47048],[-46.53702,-19.4703],[-46.53677,-19.47018],[-46.53652,-19.47013],[-46.53627,-19.47012],[-46.53602,-19.47017],[-46.53583,-19.47019],[-46.53557,-19.47016],[-46.53476,-19.46988],[-46.53454,-19.46986],[-46.53433,-19.46963],[-46.53407,-19.46922],[-46.53377,-19.46891],[-46.53348,-19.46852],[-46.53322,-19.46811],[-46.53309,-19.4678],[-46.53291,-19.46758],[-46.5325,-19.46747],[-46.53224,-19.46736],[-46.53193,-19.46719],[-46.53184,-19.46686],[-46.53147,-19.46647],[-46.5311,-19.46623],[-46.53077,-19.4664],[-46.53075,-19.46677],[-46.53077,-19.46708],[-46.53069,-19.46741],[-46.53018,-19.46769],[-46.52979,-19.46797],[-46.52914,-19.46815],[-46.52839,-19.46841],[-46.52745,-19.46878],[-46.5266,-19.46896],[-46.52569,-19.46909],[-46.52536,-19.46939],[-46.52512,-19.46978],[-46.52496,-19.46997],[-46.52477,-19.47015],[-46.52458,-19.47023],[-46.52428,-19.4702],[-46.52397,-19.47032],[-46.52358,-19.47077],[-46.52393,-19.47089],[-46.52437,-19.47101],[-46.52601,-19.47252],[-46.52653,-19.47292],[-46.5271,-19.47344],[-46.52752,-19.47386],[-46.52801,-19.47443],[-46.52839,-19.47482],[-46.53006,-19.4764],[-46.5287,-19.47783],[-46.52906,-19.47815],[-46.52846,-19.47877],[-46.52835,-19.47882],[-46.52761,-19.47906],[-46.52728,-19.47911],[-46.52688,-19.47925],[-46.52619,-19.4797],[-46.52648,-19.48036],[-46.52655,-19.48013],[-46.52672,-19.48],[-46.52695,-19.47995],[-46.52719,-19.4802],[-46.52733,-19.48037],[-46.52733,-19.48073],[-46.52734,-19.48101],[-46.52749,-19.48128],[-46.52813,-19.48142],[-46.52874,-19.48121],[-46.5292,-19.48082],[-46.52939,-19.48074],[-46.52944,-19.4805],[-46.52953,-19.48041],[-46.52987,-19.47986],[-46.53002,-19.47974],[-46.53009,-19.47963],[-46.53013,-19.47949],[-46.53023,-19.4794],[-46.53043,-19.47938],[-46.53054,-19.47924],[-46.53081,-19.47911],[-46.53093,-19.47894],[-46.53111,-19.47887],[-46.53119,-19.47872],[-46.53191,-19.47813],[-46.53283,-19.47729],[-46.53304,-19.47714],[-46.53317,-19.47713],[-46.53338,-19.47725],[-46.53352,-19.4774],[-46.53364,-19.47757],[-46.5337,-19.47791],[-46.53378,-19.47843],[-46.53385,-19.47907],[-46.53387,-19.47937],[-46.53385,-19.47967],[-46.53387,-19.48018],[-46.53391,-19.48031],[-46.53405,-19.48043],[-46.53423,-19.48062],[-46.53446,-19.48077],[-46.53466,-19.48084],[-46.53495,-19.48083],[-46.53513,-19.48068],[-46.53519,-19.48042],[-46.53535,-19.48027],[-46.53546,-19.48013],[-46.53549,-19.47979],[-46.53565,-19.47964],[-46.53566,-19.47908],[-46.53566,-19.47929],[-46.53584,-19.47931],[-46.536,-19.47941],[-46.53633,-19.47946],[-46.53655,-19.47945],[-46.53672,-19.47948],[-46.53705,-19.47943],[-46.53739,-19.47922],[-46.5376,-19.47946],[-46.53771,-19.47964],[-46.53791,-19.47979],[-46.53812,-19.47983],[-46.53838,-19.47994],[-46.53841,-19.48027],[-46.53834,-19.4805],[-46.53836,-19.48077],[-46.53845,-19.48132],[-46.53844,-19.48156],[-46.53848,-19.48221],[-46.53845,-19.48311],[-46.53839,-19.48365],[-46.53841,-19.48443],[-46.53834,-19.48523],[-46.53844,-19.48579],[-46.53849,-19.48582],[-46.53864,-19.48611],[-46.53786,-19.48696],[-46.53721,-19.48751],[-46.5367,-19.48814],[-46.53665,-19.48813],[-46.53671,-19.48788],[-46.53609,-19.48771],[-46.53576,-19.48863],[-46.53435,-19.4882],[-46.53156,-19.48738],[-46.53138,-19.48782],[-46.53133,-19.4883],[-46.5361,-19.48979],[-46.53793,-19.49031],[-46.54192,-19.49145],[-46.54254,-19.49152],[-46.54344,-19.49186],[-46.54339,-19.49244],[-46.54328,-19.49324],[-46.54325,-19.49525],[-46.5432,-19.49563],[-46.54313,-19.49646],[-46.54306,-19.49665],[-46.54309,-19.49689],[-46.543,-19.49709],[-46.54295,-19.49729],[-46.54303,-19.49755],[-46.54313,-19.4977],[-46.54315,-19.49789],[-46.54322,-19.49806],[-46.54321,-19.49822],[-46.54325,-19.49838],[-46.54319,-19.49893],[-46.54319,-19.49932],[-46.54333,-19.49955],[-46.5435,-19.49972],[-46.54377,-19.5003],[-46.5438,-19.5006],[-46.54381,-19.50102],[-46.54379,-19.5011],[-46.54473,-19.50114],[-46.54604,-19.5013],[-46.54667,-19.50123],[-46.54701,-19.50108],[-46.54772,-19.50074],[-46.5483,-19.50047],[-46.54851,-19.5004],[-46.54889,-19.50029],[-46.54896,-19.50053],[-46.54908,-19.50088],[-46.54931,-19.50131],[-46.54961,-19.50166],[-46.54998,-19.502],[-46.55046,-19.50227],[-46.55109,-19.50253],[-46.55188,-19.5028],[-46.55266,-19.50312],[-46.55302,-19.5033],[-46.55614,-19.501],[-46.5566,-19.5007],[-46.55943,-19.49862],[-46.55426,-19.49453],[-46.55244,-19.49404],[-46.55131,-19.49371],[-46.55132,-19.49357],[-46.5514,-19.49331],[-46.55145,-19.49308],[-46.55146,-19.49293],[-46.55147,-19.49272],[-46.55145,-19.4922],[-46.55137,-19.49174],[-46.55124,-19.49143],[-46.55104,-19.49086],[-46.55166,-19.4907],[-46.55148,-19.4901],[-46.55272,-19.48993],[-46.56863,-19.51013]],[[-46.52648,-19.48036],[-46.52607,-19.47941],[-46.52628,-19.47839],[-46.52617,-19.47785],[-46.52597,-19.47739],[-46.52588,-19.47676],[-46.52562,-19.47601],[-46.52561,-19.47584],[-46.5255,-19.4757],[-46.52531,-19.47561],[-46.525,-19.47558],[-46.52471,-19.47535],[-46.52242,-19.47287],[-46.52184,-19.47166],[-46.5198,-19.47271],[-46.51788,-19.47344],[-46.51663,-19.47413],[-46.516,-19.47444],[-46.51615,-19.47492],[-46.51649,-19.47516],[-46.51691,-19.47589],[-46.51728,-19.47625],[-46.51743,-19.47652],[-46.51774,-19.47696],[-46.51796,-19.47755],[-46.5181,-19.47816],[-46.51844,-19.47908],[-46.51882,-19.4798],[-46.51896,-19.4803],[-46.51928,-19.48097],[-46.51947,-19.48127],[-46.52031,-19.48169],[-46.52067,-19.48181],[-46.52083,-19.48183],[-46.52109,-19.48182],[-46.52126,-19.48186],[-46.52127,-19.48193],[-46.52133,-19.48206],[-46.52147,-19.48215],[-46.52163,-19.4821],[-46.52169,-19.48205],[-46.52197,-19.48205],[-46.52232,-19.48229],[-46.52254,-19.48257],[-46.52264,-19.48259],[-46.52277,-19.48264],[-46.52303,-19.4828],[-46.52313,-19.48282],[-46.52388,-19.48314],[-46.52503,-19.4835],[-46.52515,-19.48335],[-46.52537,-19.48325],[-46.52643,-19.48262],[-46.52657,-19.48251],[-46.52658,-19.48212],[-46.52649,-19.48174],[-46.52628,-19.48126],[-46.52618,-19.48109],[-46.52618,-19.48092],[-46.52648,-19.48036]]],[[[-46.55062,-19.48727],[-46.55057,-19.48781],[-46.55027,-19.48777],[-46.54987,-19.48776],[-46.54898,-19.48767],[-46.549,-19.48732],[-46.54878,-19.48727],[-46.54864,-19.48719],[-46.54848,-19.48713],[-46.54817,-19.48704],[-46.54769,-19.48676],[-46.54725,-19.48657],[-46.54706,-19.48669],[-46.54691,-19.48659],[-46.54632,-19.48571],[-46.54576,-19.48491],[-46.54626,-19.48261],[-46.54617,-19.48161],[-46.55062,-19.48727]]],[[[-46.54174,-19.47599],[-46.54154,-19.47615],[-46.54124,-19.47634],[-46.5398,-19.47726],[-46.5372,-19.47415],[-46.53614,-19.47278],[-46.53558,-19.47213],[-46.53568,-19.4719],[-46.53572,-19.47169],[-46.53581,-19.47149],[-46.53597,-19.47121],[-46.53612,-19.47102],[-46.53633,-19.47089],[-46.53665,-19.47088],[-46.53683,-19.47095],[-46.53697,-19.47108],[-46.53728,-19.47142],[-46.53742,-19.47161],[-46.53754,-19.47184],[-46.53778,-19.47222],[-46.53794,-19.47237],[-46.53812,-19.47266],[-46.53821,-19.47328],[-46.53861,-19.4735],[-46.53909,-19.4737],[-46.53928,-19.47372],[-46.53961,-19.47379],[-46.53998,-19.47376],[-46.54174,-19.47599]]],[[[-46.54049,-19.48796],[-46.53946,-19.48689],[-46.54025,-19.48771],[-46.54049,-19.48796]]],[[[-46.53271,-19.4733],[-46.53262,-19.47391],[-46.53264,-19.47369],[-46.53271,-19.4733]]]]}},{"type":"Feature","properties":{"territory_id":"mg-3129509-zona-rural","name":"Zona Rural","municipality_id":"mg-3129509","polling_places":1,"approx":true,"official":false,"method":"voronoi-polling-places","whole_municipality":false,"approx_coords_only":false},"geometry":{"type":"MultiPolygon","coordinates":[[[[-46.9063,-19.482],[-46.8623,-19.5057],[-46.86048,-19.52425],[-46.56863,-19.51013],[-46.55272,-19.48993],[-46.5541,-19.48974],[-46.55424,-19.48964],[-46.55452,-19.48953],[-46.55452,-19.48952],[-46.55478,-19.49031],[-46.55494,-19.49069],[-46.55538,-19.49081],[-46.55562,-19.49051],[-46.55518,-19.48998],[-46.55501,-19.48941],[-46.55536,-19.48936],[-46.555,-19.48699],[-46.55487,-19.48585],[-46.55488,-19.4854],[-46.55495,-19.48476],[-46.555,-19.48407],[-46.5553,-19.48069],[-46.55535,-19.47948],[-46.55532,-19.47926],[-46.55531,-19.4791],[-46.55521,-19.47824],[-46.55403,-19.4782],[-46.55143,-19.47803],[-46.55121,-19.4804],[-46.55115,-19.48123],[-46.55117,-19.48136],[-46.55116,-19.48157],[-46.55101,-19.4828],[-46.55089,-19.4842],[-46.55076,-19.48531],[-46.55067,-19.48625],[-46.55065,-19.48705],[-46.55062,-19.48727],[-46.54617,-19.48161],[-46.54608,-19.48076],[-46.54605,-19.48057],[-46.54611,-19.48036],[-46.54613,-19.48014],[-46.54608,-19.47992],[-46.5459,-19.4796],[-46.54591,-19.47939],[-46.54598,-19.47909],[-46.54595,-19.47893],[-46.54584,-19.4787],[-46.54578,-19.47844],[-46.54571,-19.47825],[-46.54552,-19.47814],[-46.54533,-19.47791],[-46.54519,-19.47781],[-46.54509,-19.47766],[-46.54494,-19.47753],[-46.54485,-19.47742],[-46.54475,-19.4771],[-46.54458,-19.47689],[-46.54442,-19.47637],[-46.54443,-19.47624],[-46.54431,-19.47617],[-46.54423,-19.47604],[-46.54417,-19.47591],[-46.54398,-19.47566],[-46.54379,-19.47548],[-46.54336,-19.47529],[-46.54322,-19.47519],[-46.54362,-19.47489],[-46.54379,-19.47469],[-46.54401,-19.47411],[-46.54403,-19.4738],[-46.54391,-19.47324],[-46.54396,-19.47304],[-46.54381,-19.47297],[-46.54355,-19.47299],[-46.54297,-19.473],[-46.54244,-19.47308],[-46.54214,-19.47307],[-46.54191,-19.47305],[-46.54161,-19.47298],[-46.54081,-19.47286],[-46.54041,-19.47276],[-46.54023,-19.47276],[-46.54006,-19.47272],[-46.53976,-19.47253],[-46.53903,-19.47212],[-46.53832,-19.47162],[-46.53828,-19.4716],[-46.51716,-19.44479],[-46.48291,-19.31303],[-46.4962,-19.3137],[-46.5462,-19.3374],[-46.5937,-19.3182],[-46.6904,-19.3184],[-46.7198,-19.2959],[-46.7981,-19.3057],[-46.8373,-19.3034],[-46.8578,-19.4687],[-46.9063,-19.482]]],[[[-46.54179,-19.47596],[-46.54174,-19.47599],[-46.53998,-19.47376],[-46.54023,-19.47374],[-46.54072,-19.4738],[-46.54096,-19.47379],[-46.54114,-19.47382],[-46.54132,-19.47414],[-46.5414,-19.47433],[-46.54144,-19.4745],[-46.54152,-19.47546],[-46.54162,-19.47566],[-46.54179,-19.47596]]]]}}]}