{"type":"FeatureCollection","features":[{"type":"Feature","properties":{"territory_id":"mg-3129707-alto-da-boa-vista","name":"Alto da Boa Vista","municipality_id":"mg-3129707","polling_places":2,"approx":true,"official":false,"method":"voronoi-polling-places","whole_municipality":false,"approx_coords_only":false},"geometry":{"type":"MultiPolygon","coordinates":[[[[-47.2235,-20.4911],[-47.1545,-20.5196],[-47.1442,-20.5408],[-47.1377,-20.5611],[-47.113,-20.538],[-47.0676,-20.528],[-47.05246,-20.52004],[-47.12115,-20.47492],[-47.12623,-20.46492],[-47.13353,-20.46976],[-47.20149,-20.46942],[-47.2235,-20.4911]]]]}},{"type":"Feature","properties":{"territory_id":"mg-3129707-centro","name":"Centro","municipality_id":"mg-3129707","polling_places":2,"approx":true,"official":false,"method":"voronoi-polling-places","whole_municipality":false,"approx_coords_only":false},"geometry":{"type":"MultiPolygon","coordinates":[[[[-47.14471,-20.38421],[-47.12594,-20.4644],[-47.12623,-20.46492],[-47.12115,-20.47492],[-47.05246,-20.52004],[-47.0482,-20.5178],[-47.0339,-20.475],[-47.0072,-20.4464],[-47.02648,-20.3964],[-47.14471,-20.38421]]]]}},{"type":"Feature","properties":{"territory_id":"mg-3129707-lage","name":"Lage","municipality_id":"mg-3129707","polling_places":1,"approx":true,"official":false,"method":"voronoi-polling-places","whole_municipality":false,"approx_coords_only":false},"geometry":{"type":"MultiPolygon","coordinates":[[[[-47.2326,-20.2275],[-47.184,-20.2908],[-47.211,-20.3296],[-47.2153,-20.367],[-47.20252,-20.37595],[-47.14471,-20.38421],[-47.02648,-20.3964],[-47.0281,-20.3922],[-46.9788,-20.3731],[-47.001,-20.315],[-47.0512,-20.3078],[-47.0771,-20.2765],[-47.1303,-20.2839],[-47.1518,-20.2329],[-47.1804,-20.239],[-47.2311,-20.2192],[-47.2326,-20.2275]]]]}},{"type":"Feature","properties":{"territory_id":"mg-3129707-santa-helena","name":"Santa Helena","municipality_id":"mg-3129707","polling_places":1,"approx":true,"official":false,"method":"voronoi-polling-places","whole_municipality":false,"approx_coords_only":false},"geometry":{"type":"MultiPolygon","coordinates":[[[[-47.20252,-20.37595],[-47.1929,-20.3827],[-47.1968,-20.4648],[-47.20149,-20.46942],[-47.13353,-20.46976],[-47.12623,-20.46492],[-47.12594,-20.4644],[-47.14471,-20.38421],[-47.20252,-20.37595]]]]}}]}