{"type":"FeatureCollection","features":[{"type":"Feature","properties":{"territory_id":"mg-3129004-alto-da-colina","name":"Alto da Colina","municipality_id":"mg-3129004","polling_places":1,"approx":true,"official":false,"method":"voronoi-polling-places","whole_municipality":false,"approx_coords_only":false},"geometry":{"type":"MultiPolygon","coordinates":[[[[-42.75977,-20.99507],[-42.74215,-21.00151],[-42.72088,-21.00688],[-42.67443,-21.00963],[-42.72937,-20.93365],[-42.7304,-20.9382],[-42.7581,-20.9662],[-42.75977,-20.99507]]]]}},{"type":"Feature","properties":{"territory_id":"mg-3129004-bengo","name":"Bengo","municipality_id":"mg-3129004","polling_places":2,"approx":true,"official":false,"method":"voronoi-polling-places","whole_municipality":false,"approx_coords_only":false},"geometry":{"type":"MultiPolygon","coordinates":[[[[-42.76337,-21.05713],[-42.65371,-21.04541],[-42.64746,-21.04492],[-42.65097,-21.04042],[-42.71806,-21.00935],[-42.72628,-21.00846],[-42.74215,-21.00151],[-42.75977,-20.99507],[-42.76337,-21.05713]]]]}},{"type":"Feature","properties":{"territory_id":"mg-3129004-centro","name":"Centro","municipality_id":"mg-3129004","polling_places":2,"approx":true,"official":false,"method":"voronoi-polling-places","whole_municipality":false,"approx_coords_only":false},"geometry":{"type":"MultiPolygon","coordinates":[[[[-42.74215,-21.00151],[-42.72628,-21.00846],[-42.71806,-21.00935],[-42.65097,-21.04042],[-42.67443,-21.00963],[-42.72088,-21.00688],[-42.74215,-21.00151]]]]}},{"type":"Feature","properties":{"territory_id":"mg-3129004-tuiutinga","name":"Tuiutinga","municipality_id":"mg-3129004","polling_places":1,"approx":true,"official":false,"method":"voronoi-polling-places","whole_municipality":false,"approx_coords_only":false},"geometry":{"type":"MultiPolygon","coordinates":[[[[-42.7901,-21.0959],[-42.7482,-21.109],[-42.7067,-21.1419],[-42.6553,-21.0777],[-42.64398,-21.04628],[-42.64746,-21.04492],[-42.65371,-21.04541],[-42.76337,-21.05713],[-42.7637,-21.0629],[-42.7901,-21.0959]]]]}},{"type":"Feature","properties":{"territory_id":"mg-3129004-vilas-boas","name":"Vilas Boas","municipality_id":"mg-3129004","polling_places":1,"approx":true,"official":false,"method":"voronoi-polling-places","whole_municipality":false,"approx_coords_only":false},"geometry":{"type":"MultiPolygon","coordinates":[[[[-42.72937,-20.93365],[-42.67443,-21.00963],[-42.65097,-21.04042],[-42.64746,-21.04492],[-42.64398,-21.04628],[-42.6318,-21.0125],[-42.6119,-20.9863],[-42.6511,-20.9108],[-42.7207,-20.8955],[-42.72937,-20.93365]]]]}}]}