{"type":"FeatureCollection","features":[{"type":"Feature","properties":{"territory_id":"mg-3129657-centro","name":"Centro","municipality_id":"mg-3129657","polling_places":5,"approx":true,"official":false,"method":"voronoi-polling-places","whole_municipality":false,"approx_coords_only":false},"geometry":{"type":"MultiPolygon","coordinates":[[[[-44.2779,-15.7438],[-44.2375,-15.7711],[-44.2029,-15.8286],[-44.124,-15.7813],[-44.11976,-15.78061],[-44.24117,-15.70239],[-44.2483,-15.7272],[-44.2779,-15.7438]]],[[[-44.18748,-15.6752],[-44.1697,-15.69884],[-44.11688,-15.78014],[-44.06413,-15.77155],[-44.14115,-15.65768],[-44.1668,-15.6476],[-44.18748,-15.6752]]],[[[-44.11512,-15.61134],[-44.10185,-15.61951],[-44.07248,-15.63932],[-44.0552,-15.6077],[-44.0659,-15.5823],[-44.06473,-15.57285],[-44.085,-15.57642],[-44.09548,-15.57743],[-44.0958,-15.5812],[-44.11512,-15.61134]]]]}},{"type":"Feature","properties":{"territory_id":"mg-3129657-santo-andre","name":"Santo Andre","municipality_id":"mg-3129657","polling_places":1,"approx":true,"official":false,"method":"voronoi-polling-places","whole_municipality":false,"approx_coords_only":false},"geometry":{"type":"MultiPolygon","coordinates":[[[[-44.14115,-15.65768],[-44.06413,-15.77155],[-44.0626,-15.7713],[-44.0735,-15.729],[-44.0799,-15.6529],[-44.07248,-15.63932],[-44.10185,-15.61951],[-44.11512,-15.61134],[-44.1176,-15.6152],[-44.1197,-15.6661],[-44.14115,-15.65768]]]]}},{"type":"Feature","properties":{"territory_id":"mg-3129657-vila-mariana","name":"Vila Mariana","municipality_id":"mg-3129657","polling_places":3,"approx":true,"official":false,"method":"voronoi-polling-places","whole_municipality":false,"approx_coords_only":false},"geometry":{"type":"MultiPolygon","coordinates":[[[[-44.24117,-15.70239],[-44.11976,-15.78061],[-44.11688,-15.78014],[-44.1697,-15.69884],[-44.18748,-15.6752],[-44.1913,-15.6803],[-44.2335,-15.6757],[-44.24117,-15.70239]]],[[[-44.09548,-15.57743],[-44.085,-15.57642],[-44.06473,-15.57285],[-44.058,-15.5186],[-44.0298,-15.4873],[-44.0547,-15.4735],[-44.0929,-15.547],[-44.09548,-15.57743]]]]}}]}