{"type":"FeatureCollection","features":[{"type":"Feature","properties":{"territory_id":"mg-3129400-centro","name":"Centro","municipality_id":"mg-3129400","polling_places":4,"approx":true,"official":false,"method":"voronoi-polling-places","whole_municipality":false,"approx_coords_only":false},"geometry":{"type":"MultiPolygon","coordinates":[[[[-44.05844,-21.40896],[-43.96466,-21.43279],[-43.96444,-21.4327],[-43.96258,-21.4325],[-43.9598,-21.43321],[-43.93632,-21.37232],[-44.0054,-21.3632],[-44.05844,-21.40896]]]]}},{"type":"Feature","properties":{"territory_id":"mg-3129400-santana","name":"Santana","municipality_id":"mg-3129400","polling_places":2,"approx":true,"official":false,"method":"voronoi-polling-places","whole_municipality":false,"approx_coords_only":false},"geometry":{"type":"MultiPolygon","coordinates":[[[[-44.0891,-21.4354],[-44.0511,-21.4507],[-44.0547,-21.5175],[-44.0149,-21.5381],[-43.96561,-21.52211],[-43.96362,-21.48885],[-43.96466,-21.43279],[-44.05844,-21.40896],[-44.0891,-21.4354]]]]}},{"type":"Feature","properties":{"territory_id":"mg-3129400-zona-rural","name":"Zona Rural","municipality_id":"mg-3129400","polling_places":3,"approx":true,"official":false,"method":"voronoi-polling-places","whole_municipality":false,"approx_coords_only":false},"geometry":{"type":"MultiPolygon","coordinates":[[[[-43.96561,-21.52211],[-43.911,-21.5044],[-43.8686,-21.497],[-43.8234,-21.5092],[-43.8572,-21.4135],[-43.8911,-21.3834],[-43.8802,-21.3531],[-43.9206,-21.3744],[-43.93632,-21.37232],[-43.9598,-21.43321],[-43.96258,-21.4325],[-43.96444,-21.4327],[-43.96466,-21.43279],[-43.96362,-21.48885],[-43.96561,-21.52211]]]]}}]}