{"type":"FeatureCollection","features":[{"type":"Feature","properties":{"territory_id":"mg-3129806-aguia-dourada","name":"Águia Dourada","municipality_id":"mg-3129806","polling_places":1,"approx":true,"official":false,"method":"voronoi-polling-places","whole_municipality":false,"approx_coords_only":false},"geometry":{"type":"MultiPolygon","coordinates":[[[[-44.0371,-20.02478],[-44.03475,-20.03045],[-44.03294,-20.03116],[-44.03294,-20.02921],[-44.03678,-20.02249],[-44.0371,-20.02478]]]]}},{"type":"Feature","properties":{"territory_id":"mg-3129806-alvorada","name":"Alvorada","municipality_id":"mg-3129806","polling_places":1,"approx":true,"official":false,"method":"voronoi-polling-places","whole_municipality":false,"approx_coords_only":false},"geometry":{"type":"MultiPolygon","coordinates":[[[[-44.06641,-20.02631],[-44.06553,-20.0313],[-44.05724,-20.03273],[-44.06146,-20.02335],[-44.06641,-20.02631]]]]}},{"type":"Feature","properties":{"territory_id":"mg-3129806-bela-vista","name":"Bela Vista","municipality_id":"mg-3129806","polling_places":2,"approx":true,"official":false,"method":"voronoi-polling-places","whole_municipality":false,"approx_coords_only":false},"geometry":{"type":"MultiPolygon","coordinates":[[[[-44.08015,-19.97407],[-44.0709,-19.98233],[-44.07,-19.98329],[-44.06446,-19.98051],[-44.06435,-19.97945],[-44.06549,-19.97794],[-44.06582,-19.9779],[-44.08015,-19.97407]]]]}},{"type":"Feature","properties":{"territory_id":"mg-3129806-bosque-de-ibirite","name":"Bosque de Ibirité","municipality_id":"mg-3129806","polling_places":1,"approx":true,"official":false,"method":"voronoi-polling-places","whole_municipality":false,"approx_coords_only":false},"geometry":{"type":"MultiPolygon","coordinates":[[[[-44.03294,-20.03116],[-44.03151,-20.03172],[-44.03294,-20.02921],[-44.03294,-20.03116]]]]}},{"type":"Feature","properties":{"territory_id":"mg-3129806-canaa","name":"Canaã","municipality_id":"mg-3129806","polling_places":1,"approx":true,"official":false,"method":"voronoi-polling-places","whole_municipality":false,"approx_coords_only":false},"geometry":{"type":"MultiPolygon","coordinates":[[[[-44.11281,-20.02442],[-44.09723,-20.02832],[-44.0932,-20.01382],[-44.0967,-20.00808],[-44.10398,-20.0041],[-44.10842,-20.00624],[-44.10962,-20.01092],[-44.11281,-20.02442]]]]}},{"type":"Feature","properties":{"territory_id":"mg-3129806-canal","name":"Canal","municipality_id":"mg-3129806","polling_places":1,"approx":true,"official":false,"method":"voronoi-polling-places","whole_municipality":false,"approx_coords_only":false},"geometry":{"type":"MultiPolygon","coordinates":[[[[-44.0967,-20.00808],[-44.0932,-20.01382],[-44.08902,-20.01616],[-44.08104,-20.0086],[-44.08768,-20.00779],[-44.0967,-20.00808]]]]}},{"type":"Feature","properties":{"territory_id":"mg-3129806-cascata","name":"Cascata","municipality_id":"mg-3129806","polling_places":2,"approx":true,"official":false,"method":"voronoi-polling-places","whole_municipality":false,"approx_coords_only":false},"geometry":{"type":"MultiPolygon","coordinates":[[[[-44.09705,-19.98742],[-44.09159,-19.99022],[-44.08205,-19.99569],[-44.08152,-19.99572],[-44.07964,-19.98889],[-44.08044,-19.98385],[-44.08174,-19.97302],[-44.08175,-19.973],[-44.09705,-19.98742]]]]}},{"type":"Feature","properties":{"territory_id":"mg-3129806-central-park","name":"Central Park","municipality_id":"mg-3129806","polling_places":2,"approx":true,"official":false,"method":"voronoi-polling-places","whole_municipality":false,"approx_coords_only":false},"geometry":{"type":"MultiPolygon","coordinates":[[[[-44.05828,-20.01408],[-44.05663,-20.02575],[-44.05664,-20.03297],[-44.05208,-20.03648],[-44.0497,-20.03608],[-44.04928,-20.03546],[-44.04746,-20.02766],[-44.04792,-20.01938],[-44.04792,-20.0191],[-44.04919,-20.01797],[-44.05569,-20.01306],[-44.05823,-20.01393],[-44.05828,-20.01408]]]]}},{"type":"Feature","properties":{"territory_id":"mg-3129806-centro","name":"Centro","municipality_id":"mg-3129806","polling_places":2,"approx":true,"official":false,"method":"voronoi-polling-places","whole_municipality":false,"approx_coords_only":false},"geometry":{"type":"MultiPolygon","coordinates":[[[[-44.07594,-20.01918],[-44.0677,-20.02446],[-44.0588,-20.01509],[-44.06146,-20.02335],[-44.05724,-20.03273],[-44.05664,-20.03297],[-44.05663,-20.02575],[-44.05828,-20.01408],[-44.05823,-20.01393],[-44.0654,-20.01189],[-44.07478,-20.01451],[-44.07594,-20.01918]]]]}},{"type":"Feature","properties":{"territory_id":"mg-3129806-dea-marly","name":"Déa Marly","municipality_id":"mg-3129806","polling_places":1,"approx":true,"official":false,"method":"voronoi-polling-places","whole_municipality":false,"approx_coords_only":false},"geometry":{"type":"MultiPolygon","coordinates":[[[[-44.08796,-20.03911],[-44.08543,-20.04348],[-44.06553,-20.0313],[-44.06641,-20.02631],[-44.0677,-20.02446],[-44.07594,-20.01918],[-44.08416,-20.02988],[-44.08796,-20.03911]]]]}},{"type":"Feature","properties":{"territory_id":"mg-3129806-durval-de-barros","name":"Durval de Barros","municipality_id":"mg-3129806","polling_places":4,"approx":true,"official":false,"method":"voronoi-polling-places","whole_municipality":false,"approx_coords_only":false},"geometry":{"type":"MultiPolygon","coordinates":[[[[-44.08175,-19.973],[-44.08174,-19.97302],[-44.08015,-19.97407],[-44.06582,-19.9779],[-44.06549,-19.97794],[-44.06435,-19.97945],[-44.06446,-19.98051],[-44.07,-19.98329],[-44.06866,-19.98803],[-44.06709,-19.98949],[-44.06611,-19.98965],[-44.06396,-19.98921],[-44.06104,-19.98586],[-44.05828,-19.98488],[-44.0629,-19.9768],[-44.0756,-19.9672],[-44.08175,-19.973]]]]}},{"type":"Feature","properties":{"territory_id":"mg-3129806-jardim-das-rosas","name":"Jardim das Rosas","municipality_id":"mg-3129806","polling_places":2,"approx":true,"official":false,"method":"voronoi-polling-places","whole_municipality":false,"approx_coords_only":false},"geometry":{"type":"MultiPolygon","coordinates":[[[[-44.10398,-20.0041],[-44.0967,-20.00808],[-44.08768,-20.00779],[-44.08874,-19.9992],[-44.08205,-19.99569],[-44.09159,-19.99022],[-44.09705,-19.98742],[-44.09929,-19.98953],[-44.10392,-20.00399],[-44.10398,-20.0041]]]]}},{"type":"Feature","properties":{"territory_id":"mg-3129806-jardim-das-rosas-2-secao","name":"Jardim das Rosas - 2ª Seção","municipality_id":"mg-3129806","polling_places":1,"approx":true,"official":false,"method":"voronoi-polling-places","whole_municipality":false,"approx_coords_only":false},"geometry":{"type":"MultiPolygon","coordinates":[[[[-44.08874,-19.9992],[-44.08768,-20.00779],[-44.08104,-20.0086],[-44.07956,-20.00834],[-44.07865,-19.99921],[-44.08152,-19.99572],[-44.08205,-19.99569],[-44.08874,-19.9992]]]]}},{"type":"Feature","properties":{"territory_id":"mg-3129806-jardim-montanhes","name":"Jardim Montanhês","municipality_id":"mg-3129806","polling_places":1,"approx":true,"official":false,"method":"voronoi-polling-places","whole_municipality":false,"approx_coords_only":false},"geometry":{"type":"MultiPolygon","coordinates":[[[[-44.07355,-20.06401],[-44.0643,-20.08],[-44.02699,-20.05902],[-44.0497,-20.03608],[-44.05208,-20.03648],[-44.07355,-20.06401]]]]}},{"type":"Feature","properties":{"territory_id":"mg-3129806-jardim-montreal","name":"Jardim Montreal","municipality_id":"mg-3129806","polling_places":1,"approx":true,"official":false,"method":"voronoi-polling-places","whole_municipality":false,"approx_coords_only":false},"geometry":{"type":"MultiPolygon","coordinates":[[[[-44.11382,-20.01078],[-44.10962,-20.01092],[-44.10842,-20.00624],[-44.11248,-20.0033],[-44.11382,-20.01078]]]]}},{"type":"Feature","properties":{"territory_id":"mg-3129806-lago-azul-fazenda-d","name":"Lago Azul Fazenda d","municipality_id":"mg-3129806","polling_places":1,"approx":true,"official":false,"method":"voronoi-polling-places","whole_municipality":false,"approx_coords_only":false},"geometry":{"type":"MultiPolygon","coordinates":[[[[-44.09723,-20.02832],[-44.0937,-20.0292],[-44.08796,-20.03911],[-44.08416,-20.02988],[-44.08902,-20.01616],[-44.0932,-20.01382],[-44.09723,-20.02832]]]]}},{"type":"Feature","properties":{"territory_id":"mg-3129806-marilandia","name":"Marilândia","municipality_id":"mg-3129806","polling_places":1,"approx":true,"official":false,"method":"voronoi-polling-places","whole_municipality":false,"approx_coords_only":false},"geometry":{"type":"MultiPolygon","coordinates":[[[[-44.05533,-20.00244],[-44.054,-20.00921],[-44.04623,-20.00596],[-44.05103,-19.99757],[-44.05533,-20.00244]]]]}},{"type":"Feature","properties":{"territory_id":"mg-3129806-montreal","name":"Montreal","municipality_id":"mg-3129806","polling_places":1,"approx":true,"official":false,"method":"voronoi-polling-places","whole_municipality":false,"approx_coords_only":false},"geometry":{"type":"MultiPolygon","coordinates":[[[[-44.1161,-20.0236],[-44.11281,-20.02442],[-44.10962,-20.01092],[-44.11382,-20.01078],[-44.1161,-20.0236]]]]}},{"type":"Feature","properties":{"territory_id":"mg-3129806-nossa-senhora-de-lourdes","name":"Nossa Senhora de Lourdes","municipality_id":"mg-3129806","polling_places":1,"approx":true,"official":false,"method":"voronoi-polling-places","whole_municipality":false,"approx_coords_only":false},"geometry":{"type":"MultiPolygon","coordinates":[[[[-44.04792,-20.0191],[-44.04792,-20.01938],[-44.04746,-20.02766],[-44.0371,-20.02478],[-44.03678,-20.02249],[-44.03985,-20.01713],[-44.04792,-20.0191]]]]}},{"type":"Feature","properties":{"territory_id":"mg-3129806-novo-horizonte","name":"Novo Horizonte","municipality_id":"mg-3129806","polling_places":1,"approx":true,"official":false,"method":"voronoi-polling-places","whole_municipality":false,"approx_coords_only":false},"geometry":{"type":"MultiPolygon","coordinates":[[[[-44.08543,-20.04348],[-44.07355,-20.06401],[-44.05208,-20.03648],[-44.05664,-20.03297],[-44.05724,-20.03273],[-44.06553,-20.0313],[-44.08543,-20.04348]]]]}},{"type":"Feature","properties":{"territory_id":"mg-3129806-palmares","name":"Palmares","municipality_id":"mg-3129806","polling_places":1,"approx":true,"official":false,"method":"voronoi-polling-places","whole_municipality":false,"approx_coords_only":false},"geometry":{"type":"MultiPolygon","coordinates":[[[[-44.07475,-19.99852],[-44.06868,-20.00044],[-44.06575,-19.99364],[-44.06611,-19.98965],[-44.06709,-19.98949],[-44.07475,-19.99852]]]]}},{"type":"Feature","properties":{"territory_id":"mg-3129806-palmares-2-secao","name":"Palmares 2ª Seção","municipality_id":"mg-3129806","polling_places":1,"approx":true,"official":false,"method":"voronoi-polling-places","whole_municipality":false,"approx_coords_only":false},"geometry":{"type":"MultiPolygon","coordinates":[[[[-44.08152,-19.99572],[-44.07865,-19.99921],[-44.07475,-19.99852],[-44.06709,-19.98949],[-44.06866,-19.98803],[-44.07964,-19.98889],[-44.08152,-19.99572]]]]}},{"type":"Feature","properties":{"territory_id":"mg-3129806-palmeiras","name":"Palmeiras","municipality_id":"mg-3129806","polling_places":1,"approx":true,"official":false,"method":"voronoi-polling-places","whole_municipality":false,"approx_coords_only":false},"geometry":{"type":"MultiPolygon","coordinates":[[[[-44.08174,-19.97302],[-44.08044,-19.98385],[-44.07964,-19.98889],[-44.06866,-19.98803],[-44.07,-19.98329],[-44.0709,-19.98233],[-44.08015,-19.97407],[-44.08174,-19.97302]]]]}},{"type":"Feature","properties":{"territory_id":"mg-3129806-parque-elizabeth","name":"Parque Elizabeth","municipality_id":"mg-3129806","polling_places":2,"approx":true,"official":false,"method":"voronoi-polling-places","whole_municipality":false,"approx_coords_only":false},"geometry":{"type":"MultiPolygon","coordinates":[[[[-44.05569,-20.01306],[-44.04919,-20.01797],[-44.04792,-20.0191],[-44.03985,-20.01713],[-44.04623,-20.00596],[-44.054,-20.00921],[-44.05569,-20.01306]]]]}},{"type":"Feature","properties":{"territory_id":"mg-3129806-parque-estrela-do-sul","name":"Parque Estrela do Sul","municipality_id":"mg-3129806","polling_places":1,"approx":true,"official":false,"method":"voronoi-polling-places","whole_municipality":false,"approx_coords_only":false},"geometry":{"type":"MultiPolygon","coordinates":[[[[-44.0677,-20.02446],[-44.06641,-20.02631],[-44.06146,-20.02335],[-44.0588,-20.01509],[-44.0677,-20.02446]]]]}},{"type":"Feature","properties":{"territory_id":"mg-3129806-petrovale","name":"Petrovale","municipality_id":"mg-3129806","polling_places":1,"approx":true,"official":false,"method":"voronoi-polling-places","whole_municipality":false,"approx_coords_only":false},"geometry":{"type":"MultiPolygon","coordinates":[[[[-44.11248,-20.0033],[-44.10842,-20.00624],[-44.10398,-20.0041],[-44.10392,-20.00399],[-44.09929,-19.98953],[-44.1122,-20.0017],[-44.11248,-20.0033]]]]}},{"type":"Feature","properties":{"territory_id":"mg-3129806-piratininga","name":"Piratininga","municipality_id":"mg-3129806","polling_places":1,"approx":true,"official":false,"method":"voronoi-polling-places","whole_municipality":false,"approx_coords_only":false},"geometry":{"type":"MultiPolygon","coordinates":[[[[-44.05955,-19.99901],[-44.05533,-20.00244],[-44.05103,-19.99757],[-44.05383,-19.99268],[-44.05685,-19.99331],[-44.0591,-19.99436],[-44.05955,-19.99901]]]]}},{"type":"Feature","properties":{"territory_id":"mg-3129806-primavera","name":"Primavera","municipality_id":"mg-3129806","polling_places":1,"approx":true,"official":false,"method":"voronoi-polling-places","whole_municipality":false,"approx_coords_only":false},"geometry":{"type":"MultiPolygon","coordinates":[[[[-44.04928,-20.03546],[-44.03475,-20.03045],[-44.0371,-20.02478],[-44.04746,-20.02766],[-44.04928,-20.03546]]]]}},{"type":"Feature","properties":{"territory_id":"mg-3129806-serra-dourada","name":"Serra Dourada","municipality_id":"mg-3129806","polling_places":1,"approx":true,"official":false,"method":"voronoi-polling-places","whole_municipality":false,"approx_coords_only":false},"geometry":{"type":"MultiPolygon","coordinates":[[[[-44.07956,-20.00834],[-44.07478,-20.01451],[-44.0654,-20.01189],[-44.06632,-20.00185],[-44.06868,-20.00044],[-44.07475,-19.99852],[-44.07865,-19.99921],[-44.07956,-20.00834]]]]}},{"type":"Feature","properties":{"territory_id":"mg-3129806-sol-nascente","name":"Sol Nascente","municipality_id":"mg-3129806","polling_places":3,"approx":true,"official":false,"method":"voronoi-polling-places","whole_municipality":false,"approx_coords_only":false},"geometry":{"type":"MultiPolygon","coordinates":[[[[-44.06868,-20.00044],[-44.06632,-20.00185],[-44.06269,-19.99969],[-44.05955,-19.99901],[-44.0591,-19.99436],[-44.06396,-19.98921],[-44.06611,-19.98965],[-44.06575,-19.99364],[-44.06868,-20.00044]]],[[[-44.05755,-19.98616],[-44.05685,-19.99331],[-44.05383,-19.99268],[-44.05755,-19.98616]]]]}},{"type":"Feature","properties":{"territory_id":"mg-3129806-vila-ideal","name":"Vila Ideal","municipality_id":"mg-3129806","polling_places":1,"approx":true,"official":false,"method":"voronoi-polling-places","whole_municipality":false,"approx_coords_only":false},"geometry":{"type":"MultiPolygon","coordinates":[[[[-44.06632,-20.00185],[-44.0654,-20.01189],[-44.05823,-20.01393],[-44.05569,-20.01306],[-44.054,-20.00921],[-44.05533,-20.00244],[-44.05955,-19.99901],[-44.06269,-19.99969],[-44.06632,-20.00185]]]]}},{"type":"Feature","properties":{"territory_id":"mg-3129806-vila-rosario","name":"Vila Rosário","municipality_id":"mg-3129806","polling_places":2,"approx":true,"official":false,"method":"voronoi-polling-places","whole_municipality":false,"approx_coords_only":false},"geometry":{"type":"MultiPolygon","coordinates":[[[[-44.08902,-20.01616],[-44.08416,-20.02988],[-44.07594,-20.01918],[-44.07478,-20.01451],[-44.07956,-20.00834],[-44.08104,-20.0086],[-44.08902,-20.01616]]]]}},{"type":"Feature","properties":{"territory_id":"mg-3129806-vista-alegre","name":"Vista Alegre","municipality_id":"mg-3129806","polling_places":1,"approx":true,"official":false,"method":"voronoi-polling-places","whole_municipality":false,"approx_coords_only":false},"geometry":{"type":"MultiPolygon","coordinates":[[[[-44.0497,-20.03608],[-44.02699,-20.05902],[-44.0186,-20.0543],[-44.03151,-20.03172],[-44.03294,-20.03116],[-44.03475,-20.03045],[-44.04928,-20.03546],[-44.0497,-20.03608]]]]}},{"type":"Feature","properties":{"territory_id":"mg-3129806-washington-pires","name":"Washington Pires","municipality_id":"mg-3129806","polling_places":1,"approx":true,"official":false,"method":"voronoi-polling-places","whole_municipality":false,"approx_coords_only":false},"geometry":{"type":"MultiPolygon","coordinates":[[[[-44.06396,-19.98921],[-44.0591,-19.99436],[-44.05685,-19.99331],[-44.05755,-19.98616],[-44.05828,-19.98488],[-44.06104,-19.98586],[-44.06396,-19.98921]]]]}}]}