{"type":"FeatureCollection","features":[{"type":"Feature","properties":{"territory_id":"mg-3129608-centro","name":"Centro","municipality_id":"mg-3129608","polling_places":2,"approx":true,"official":false,"method":"voronoi-polling-places","whole_municipality":false,"approx_coords_only":false},"geometry":{"type":"MultiPolygon","coordinates":[[[[-44.94618,-16.79888],[-44.9339,-16.8063],[-44.919,-16.849],[-44.913,-16.9139],[-44.8744,-16.9298],[-44.871,-16.9738],[-44.8409,-16.9918],[-44.82381,-16.98898],[-44.81226,-16.92474],[-44.80259,-16.87694],[-44.87411,-16.72852],[-44.94618,-16.79888]]]]}},{"type":"Feature","properties":{"territory_id":"mg-3129608-zona-rural","name":"Zona Rural","municipality_id":"mg-3129608","polling_places":3,"approx":true,"official":false,"method":"voronoi-polling-places","whole_municipality":false,"approx_coords_only":false},"geometry":{"type":"MultiPolygon","coordinates":[[[[-45.0203,-16.7541],[-44.94618,-16.79888],[-44.87411,-16.72852],[-44.80259,-16.87694],[-44.81226,-16.92474],[-44.82381,-16.98898],[-44.7749,-16.9809],[-44.6918,-16.93],[-44.6625,-16.9283],[-44.6083,-16.8806],[-44.6285,-16.835],[-44.6134,-16.814],[-44.6347,-16.7762],[-44.6851,-16.7964],[-44.6735,-16.74],[-44.6743,-16.6804],[-44.7158,-16.6779],[-44.7848,-16.7327],[-44.8032,-16.6861],[-44.8538,-16.6984],[-44.8861,-16.7214],[-44.9385,-16.7258],[-44.9807,-16.7526],[-45.0203,-16.7541]]]]}}]}