{"type":"FeatureCollection","features":[{"type":"Feature","properties":{"territory_id":"mg-3129103-centro","name":"Centro","municipality_id":"mg-3129103","polling_places":3,"approx":true,"official":false,"method":"voronoi-polling-places","whole_municipality":true,"approx_coords_only":false},"geometry":{"type":"MultiPolygon","coordinates":[[[[-50.1216,-19.1982],[-50.0863,-19.2457],[-50.0424,-19.275],[-50.0007,-19.2731],[-49.9663,-19.3],[-49.8896,-19.2745],[-49.8213,-19.2953],[-49.7869,-19.3303],[-49.7601,-19.3155],[-49.7501,-19.287],[-49.6789,-19.2774],[-49.6436,-19.2224],[-49.6345,-19.1881],[-49.6005,-19.1417],[-49.5994,-19.1167],[-49.696,-19.0372],[-49.7312,-18.99],[-49.8018,-18.9324],[-49.8624,-18.8468],[-49.8722,-18.8018],[-49.9088,-18.7984],[-49.9455,-18.8134],[-49.9678,-18.7862],[-50.0024,-18.834],[-50.0123,-18.8638],[-49.9842,-18.9458],[-49.9666,-18.9595],[-50.0234,-19.0443],[-50.0769,-19.077],[-50.129,-19.1614],[-50.1216,-19.1982]]]]}}]}