{"type":"FeatureCollection","features":[{"type":"Feature","properties":{"territory_id":"mg-3129905-centro","name":"Centro","municipality_id":"mg-3129905","polling_places":1,"approx":true,"official":false,"method":"voronoi-polling-places","whole_municipality":true,"approx_coords_only":false},"geometry":{"type":"MultiPolygon","coordinates":[[[[-46.4319,-22.1208],[-46.402,-22.1061],[-46.3473,-22.0536],[-46.397,-22.0433],[-46.3947,-22.0136],[-46.4363,-22.0374],[-46.4526,-22.0945],[-46.4319,-22.1208]]]]}}]}