{"type":"FeatureCollection","features":[{"type":"Feature","properties":{"territory_id":"mg-3129301-centro","name":"Centro","municipality_id":"mg-3129301","polling_places":3,"approx":true,"official":false,"method":"voronoi-polling-places","whole_municipality":false,"approx_coords_only":false},"geometry":{"type":"MultiPolygon","coordinates":[[[[-42.27195,-19.44688],[-42.22936,-19.45999],[-42.20191,-19.47169],[-42.19867,-19.47329],[-42.1967,-19.4701],[-42.1528,-19.438],[-42.1914,-19.4206],[-42.2034,-19.3756],[-42.2281,-19.3746],[-42.21406,-19.34028],[-42.26194,-19.33852],[-42.2535,-19.3562],[-42.2454,-19.4406],[-42.27195,-19.44688]]]]}},{"type":"Feature","properties":{"territory_id":"mg-3129301-zona-rural","name":"Zona Rural","municipality_id":"mg-3129301","polling_places":3,"approx":true,"official":false,"method":"voronoi-polling-places","whole_municipality":false,"approx_coords_only":false},"geometry":{"type":"MultiPolygon","coordinates":[[[[-42.3357,-19.2683],[-42.3247,-19.2892],[-42.2847,-19.2908],[-42.26194,-19.33852],[-42.21406,-19.34028],[-42.2065,-19.3218],[-42.2019,-19.2789],[-42.1801,-19.2635],[-42.2105,-19.1702],[-42.2324,-19.156],[-42.2535,-19.1873],[-42.3163,-19.2381],[-42.3357,-19.2683]]],[[[-42.2998,-19.5205],[-42.2442,-19.5471],[-42.19867,-19.47329],[-42.20191,-19.47169],[-42.22936,-19.45999],[-42.27195,-19.44688],[-42.275,-19.4476],[-42.2924,-19.4718],[-42.2998,-19.5205]]]]}}]}