{"type":"FeatureCollection","features":[{"type":"Feature","properties":{"territory_id":"mg-3129202-centro","name":"Centro","municipality_id":"mg-3129202","polling_places":3,"approx":true,"official":false,"method":"voronoi-polling-places","whole_municipality":false,"approx_coords_only":false},"geometry":{"type":"MultiPolygon","coordinates":[[[[-45.61599,-22.05972],[-45.6045,-22.073],[-45.5976,-22.103],[-45.5293,-22.0883],[-45.50803,-22.08637],[-45.5117,-22.04313],[-45.52798,-22.02998],[-45.54002,-22.06558],[-45.54145,-22.06727],[-45.61599,-22.05972]]]]}},{"type":"Feature","properties":{"territory_id":"mg-3129202-floresta","name":"Floresta","municipality_id":"mg-3129202","polling_places":1,"approx":true,"official":false,"method":"voronoi-polling-places","whole_municipality":false,"approx_coords_only":false},"geometry":{"type":"MultiPolygon","coordinates":[[[[-45.5117,-22.04313],[-45.50803,-22.08637],[-45.4586,-22.0819],[-45.4514,-22.0621],[-45.46237,-22.03099],[-45.5117,-22.04313]]]]}},{"type":"Feature","properties":{"territory_id":"mg-3129202-sobralada","name":"Sobralada","municipality_id":"mg-3129202","polling_places":1,"approx":true,"official":false,"method":"voronoi-polling-places","whole_municipality":false,"approx_coords_only":false},"geometry":{"type":"MultiPolygon","coordinates":[[[[-45.55176,-22.00893],[-45.52798,-22.02998],[-45.5117,-22.04313],[-45.46237,-22.03099],[-45.4769,-21.9898],[-45.5319,-22.006],[-45.55176,-22.00893]]]]}},{"type":"Feature","properties":{"territory_id":"mg-3129202-vista-verde","name":"Vista Verde","municipality_id":"mg-3129202","polling_places":1,"approx":true,"official":false,"method":"voronoi-polling-places","whole_municipality":false,"approx_coords_only":false},"geometry":{"type":"MultiPolygon","coordinates":[[[[-45.6398,-22.0322],[-45.61599,-22.05972],[-45.54145,-22.06727],[-45.54002,-22.06558],[-45.52798,-22.02998],[-45.55176,-22.00893],[-45.6186,-22.0188],[-45.6398,-22.0322]]]]}}]}