{"type":"FeatureCollection","features":[{"type":"Feature","properties":{"territory_id":"mg-3130556-centro","name":"Centro","municipality_id":"mg-3130556","polling_places":2,"approx":true,"official":false,"method":"voronoi-polling-places","whole_municipality":false,"approx_coords_only":false},"geometry":{"type":"MultiPolygon","coordinates":[[[[-42.00341,-19.60737],[-41.99623,-19.63093],[-41.99241,-19.63512],[-41.95479,-19.61373],[-41.90231,-19.58956],[-41.9017,-19.5651],[-41.9185,-19.5516],[-41.96715,-19.543],[-41.98506,-19.5777],[-42.00341,-19.60737]]]]}},{"type":"Feature","properties":{"territory_id":"mg-3130556-comunidade-do-corrego-do-ouro","name":"Comunidade do Córrego do Ouro","municipality_id":"mg-3130556","polling_places":1,"approx":true,"official":false,"method":"voronoi-polling-places","whole_municipality":false,"approx_coords_only":true},"geometry":{"type":"MultiPolygon","coordinates":[[[[-42.01245,-19.72305],[-42.0084,-19.7327],[-41.9616,-19.7275],[-41.9169,-19.6687],[-41.9031,-19.6212],[-41.90231,-19.58956],[-41.95479,-19.61373],[-41.99241,-19.63512],[-41.9671,-19.6629],[-42.00753,-19.69915],[-42.01245,-19.72305]]]]}},{"type":"Feature","properties":{"territory_id":"mg-3130556-zona-rural","name":"Zona Rural","municipality_id":"mg-3130556","polling_places":3,"approx":true,"official":false,"method":"voronoi-polling-places","whole_municipality":false,"approx_coords_only":false},"geometry":{"type":"MultiPolygon","coordinates":[[[[-42.0486,-19.5717],[-42.0458,-19.5998],[-42.0384,-19.6337],[-42.004,-19.6224],[-41.99623,-19.63093],[-42.00341,-19.60737],[-41.98506,-19.5777],[-41.96715,-19.543],[-41.9915,-19.5387],[-42.0486,-19.5717]]],[[[-42.0184,-19.7089],[-42.01245,-19.72305],[-42.00753,-19.69915],[-42.0184,-19.7089]]]]}}]}