{"type":"FeatureCollection","features":[{"type":"Feature","properties":{"territory_id":"mg-3130705-centro","name":"Centro","municipality_id":"mg-3130705","polling_places":2,"approx":true,"official":false,"method":"voronoi-polling-places","whole_municipality":true,"approx_coords_only":false},"geometry":{"type":"MultiPolygon","coordinates":[[[[-48.0614,-18.8858],[-48.0195,-18.9162],[-48.0069,-18.9716],[-47.9792,-19.0013],[-47.956,-19.0699],[-47.9319,-19.0681],[-47.9135,-19.0966],[-47.8905,-19.1071],[-47.8526,-19.0939],[-47.8194,-19.0892],[-47.8006,-19.0385],[-47.7655,-19.0298],[-47.7347,-19.0514],[-47.6938,-19.0542],[-47.6704,-19.0353],[-47.6662,-18.999],[-47.7088,-18.9228],[-47.6915,-18.8851],[-47.7221,-18.8303],[-47.7821,-18.8408],[-47.8737,-18.8292],[-47.9553,-18.8467],[-47.985,-18.877],[-48.0191,-18.8666],[-48.0614,-18.8858]]]]}}]}