{"type":"FeatureCollection","features":[{"type":"Feature","properties":{"territory_id":"mg-3130507-centro","name":"Centro","municipality_id":"mg-3130507","polling_places":4,"approx":true,"official":false,"method":"voronoi-polling-places","whole_municipality":false,"approx_coords_only":false},"geometry":{"type":"MultiPolygon","coordinates":[[[[-45.9412,-20.8906],[-45.9383,-20.9299],[-45.8952,-20.9251],[-45.9081,-20.9707],[-45.87761,-20.98941],[-45.82618,-20.94408],[-45.82293,-20.94243],[-45.69784,-20.89334],[-45.7878,-20.8359],[-45.8397,-20.8654],[-45.8839,-20.8542],[-45.9412,-20.8906]]]]}},{"type":"Feature","properties":{"territory_id":"mg-3130507-gloria","name":"Glória","municipality_id":"mg-3130507","polling_places":1,"approx":true,"official":false,"method":"voronoi-polling-places","whole_municipality":false,"approx_coords_only":false},"geometry":{"type":"MultiPolygon","coordinates":[[[[-45.87761,-20.98941],[-45.8685,-20.995],[-45.763,-21.0285],[-45.7331,-21.0174],[-45.683,-20.9621],[-45.6918,-20.8972],[-45.69784,-20.89334],[-45.82293,-20.94243],[-45.82618,-20.94408],[-45.87761,-20.98941]]]]}}]}