{"type":"FeatureCollection","features":[{"type":"Feature","properties":{"territory_id":"mg-3130655-centro","name":"Centro","municipality_id":"mg-3130655","polling_places":3,"approx":true,"official":false,"method":"voronoi-polling-places","whole_municipality":false,"approx_coords_only":false},"geometry":{"type":"MultiPolygon","coordinates":[[[[-42.23301,-15.5689],[-42.2268,-15.58557],[-42.19112,-15.58465],[-42.13332,-15.58464],[-42.10556,-15.60681],[-41.97706,-15.54508],[-41.976,-15.5209],[-42.0135,-15.4687],[-42.055,-15.4364],[-42.0767,-15.3947],[-42.1116,-15.4243],[-42.12383,-15.42243],[-42.12627,-15.45634],[-42.20049,-15.49336],[-42.2025,-15.49102],[-42.23301,-15.5689]]]]}},{"type":"Feature","properties":{"territory_id":"mg-3130655-zona-rural","name":"Zona Rural","municipality_id":"mg-3130655","polling_places":6,"approx":true,"official":false,"method":"voronoi-polling-places","whole_municipality":false,"approx_coords_only":false},"geometry":{"type":"MultiPolygon","coordinates":[[[[-42.3226,-15.566],[-42.2849,-15.6553],[-42.2575,-15.6856],[-42.2026,-15.7037],[-42.1932,-15.7463],[-42.157,-15.7186],[-42.1227,-15.7276],[-42.1084,-15.6808],[-42.0598,-15.6758],[-41.9891,-15.6557],[-41.9351,-15.6248],[-41.9779,-15.5641],[-41.97706,-15.54508],[-42.10556,-15.60681],[-42.13332,-15.58464],[-42.19112,-15.58465],[-42.2268,-15.58557],[-42.23301,-15.5689],[-42.2025,-15.49102],[-42.20049,-15.49336],[-42.12627,-15.45634],[-42.12383,-15.42243],[-42.1764,-15.4144],[-42.2298,-15.4181],[-42.2453,-15.4595],[-42.3179,-15.4702],[-42.3058,-15.5214],[-42.3226,-15.566]]]]}}]}