{"type":"FeatureCollection","features":[{"type":"Feature","properties":{"territory_id":"mg-3130309-bela-vista","name":"Bela Vista","municipality_id":"mg-3130309","polling_places":1,"approx":true,"official":false,"method":"voronoi-polling-places","whole_municipality":false,"approx_coords_only":false},"geometry":{"type":"MultiPolygon","coordinates":[[[[-45.72309,-20.23621],[-45.67349,-20.29334],[-45.6606,-20.2966],[-45.6655,-20.2489],[-45.6522,-20.1937],[-45.65234,-20.17373],[-45.70395,-20.18159],[-45.70833,-20.18978],[-45.72309,-20.23621]]]]}},{"type":"Feature","properties":{"territory_id":"mg-3130309-centro","name":"Centro","municipality_id":"mg-3130309","polling_places":3,"approx":true,"official":false,"method":"voronoi-polling-places","whole_municipality":false,"approx_coords_only":false},"geometry":{"type":"MultiPolygon","coordinates":[[[[-45.8902,-20.2172],[-45.88623,-20.21959],[-45.75699,-20.20564],[-45.72309,-20.23621],[-45.70833,-20.18978],[-45.70395,-20.18159],[-45.70323,-20.17924],[-45.71021,-20.17258],[-45.73794,-20.0942],[-45.72426,-19.99022],[-45.7595,-19.9726],[-45.7956,-20.0009],[-45.7762,-20.0538],[-45.8089,-20.0558],[-45.8429,-20.0871],[-45.8543,-20.1455],[-45.8862,-20.1898],[-45.8902,-20.2172]]]]}},{"type":"Feature","properties":{"territory_id":"mg-3130309-corguinhos","name":"Corguinhos","municipality_id":"mg-3130309","polling_places":1,"approx":true,"official":false,"method":"voronoi-polling-places","whole_municipality":false,"approx_coords_only":false},"geometry":{"type":"MultiPolygon","coordinates":[[[[-45.73794,-20.0942],[-45.71021,-20.17258],[-45.70323,-20.17924],[-45.63643,-20.07],[-45.7062,-20.0175],[-45.7231,-19.9908],[-45.72426,-19.99022],[-45.73794,-20.0942]]]]}},{"type":"Feature","properties":{"territory_id":"mg-3130309-cunhas","name":"Cunhas","municipality_id":"mg-3130309","polling_places":1,"approx":true,"official":false,"method":"voronoi-polling-places","whole_municipality":false,"approx_coords_only":false},"geometry":{"type":"MultiPolygon","coordinates":[[[[-45.88623,-20.21959],[-45.8665,-20.2315],[-45.8203,-20.2888],[-45.759,-20.3031],[-45.6938,-20.2882],[-45.67349,-20.29334],[-45.72309,-20.23621],[-45.75699,-20.20564],[-45.88623,-20.21959]]]]}},{"type":"Feature","properties":{"territory_id":"mg-3130309-garcas-de-minas","name":"Garças de Minas","municipality_id":"mg-3130309","polling_places":1,"approx":true,"official":false,"method":"voronoi-polling-places","whole_municipality":false,"approx_coords_only":false},"geometry":{"type":"MultiPolygon","coordinates":[[[[-45.70395,-20.18159],[-45.65234,-20.17373],[-45.6527,-20.12],[-45.6323,-20.0731],[-45.63643,-20.07],[-45.70323,-20.17924],[-45.70395,-20.18159]]]]}}]}