{"type":"FeatureCollection","features":[{"type":"Feature","properties":{"territory_id":"mg-3130051-centro","name":"Centro","municipality_id":"mg-3130051","polling_places":3,"approx":true,"official":false,"method":"voronoi-polling-places","whole_municipality":false,"approx_coords_only":false},"geometry":{"type":"MultiPolygon","coordinates":[[[[-44.94266,-16.20439],[-44.93295,-16.26838],[-44.90729,-16.27224],[-44.8625,-16.28075],[-44.86196,-16.28033],[-44.86135,-16.23408],[-44.8613,-16.23166],[-44.90535,-16.181],[-44.91337,-16.17058],[-44.94266,-16.20439]]]]}},{"type":"Feature","properties":{"territory_id":"mg-3130051-comunidade-brejinho","name":"Comunidade Brejinho","municipality_id":"mg-3130051","polling_places":1,"approx":true,"official":false,"method":"voronoi-polling-places","whole_municipality":false,"approx_coords_only":false},"geometry":{"type":"MultiPolygon","coordinates":[[[[-44.97374,-16.29101],[-44.95445,-16.34494],[-44.9459,-16.3328],[-44.8719,-16.2881],[-44.8625,-16.28075],[-44.90729,-16.27224],[-44.93295,-16.26838],[-44.97374,-16.29101]]]]}},{"type":"Feature","properties":{"territory_id":"mg-3130051-comunidade-brejo-grande","name":"Comunidade Brejo Grande","municipality_id":"mg-3130051","polling_places":1,"approx":true,"official":false,"method":"voronoi-polling-places","whole_municipality":false,"approx_coords_only":false},"geometry":{"type":"MultiPolygon","coordinates":[[[[-44.8026,-16.15676],[-44.79912,-16.20649],[-44.78732,-16.22198],[-44.75742,-16.19861],[-44.77575,-16.15993],[-44.8026,-16.15676]]]]}},{"type":"Feature","properties":{"territory_id":"mg-3130051-comunidade-cabeceira-da-vargem","name":"Comunidade Cabeceira da Vargem","municipality_id":"mg-3130051","polling_places":1,"approx":true,"official":false,"method":"voronoi-polling-places","whole_municipality":false,"approx_coords_only":false},"geometry":{"type":"MultiPolygon","coordinates":[[[[-44.91337,-16.17058],[-44.90535,-16.181],[-44.8613,-16.23166],[-44.84488,-16.20443],[-44.84378,-16.1364],[-44.8564,-16.129],[-44.90711,-16.14339],[-44.91337,-16.17058]]]]}},{"type":"Feature","properties":{"territory_id":"mg-3130051-comunidade-lagoa-dos-cavalos","name":"Comunidade Lagoa dos Cavalos","municipality_id":"mg-3130051","polling_places":1,"approx":true,"official":false,"method":"voronoi-polling-places","whole_municipality":false,"approx_coords_only":false},"geometry":{"type":"MultiPolygon","coordinates":[[[[-44.84488,-16.20443],[-44.79912,-16.20649],[-44.8026,-16.15676],[-44.8107,-16.1558],[-44.84378,-16.1364],[-44.84488,-16.20443]]]]}},{"type":"Feature","properties":{"territory_id":"mg-3130051-comunidade-pindaiba","name":"Comunidade Pindaíba","municipality_id":"mg-3130051","polling_places":1,"approx":true,"official":false,"method":"voronoi-polling-places","whole_municipality":false,"approx_coords_only":false},"geometry":{"type":"MultiPolygon","coordinates":[[[[-44.73978,-16.13689],[-44.70304,-16.16642],[-44.6596,-16.1339],[-44.6739,-16.0926],[-44.73978,-16.13689]]]]}},{"type":"Feature","properties":{"territory_id":"mg-3130051-comunidade-prata","name":"Comunidade Prata","municipality_id":"mg-3130051","polling_places":1,"approx":true,"official":false,"method":"voronoi-polling-places","whole_municipality":false,"approx_coords_only":false},"geometry":{"type":"MultiPolygon","coordinates":[[[[-44.86196,-16.28033],[-44.78732,-16.22198],[-44.79912,-16.20649],[-44.84488,-16.20443],[-44.8613,-16.23166],[-44.86135,-16.23408],[-44.86196,-16.28033]]]]}},{"type":"Feature","properties":{"territory_id":"mg-3130051-povoado-de-morrinhos","name":"Povoado de Morrinhos","municipality_id":"mg-3130051","polling_places":1,"approx":true,"official":false,"method":"voronoi-polling-places","whole_municipality":false,"approx_coords_only":false},"geometry":{"type":"MultiPolygon","coordinates":[[[[-45.06008,-16.30339],[-45.0566,-16.3646],[-45.0444,-16.3816],[-44.9607,-16.3538],[-44.95445,-16.34494],[-44.97374,-16.29101],[-44.99741,-16.28732],[-45.06008,-16.30339]]]]}},{"type":"Feature","properties":{"territory_id":"mg-3130051-povoado-de-nova-aparecida","name":"Povoado de Nova Aparecida","municipality_id":"mg-3130051","polling_places":1,"approx":true,"official":false,"method":"voronoi-polling-places","whole_municipality":false,"approx_coords_only":false},"geometry":{"type":"MultiPolygon","coordinates":[[[[-45.0802,-16.146],[-45.0548,-16.1997],[-45.0466,-16.2428],[-45.0607,-16.2925],[-45.06008,-16.30339],[-44.99741,-16.28732],[-45.0002,-16.19221],[-45.04658,-16.14478],[-45.0496,-16.144],[-45.0796,-16.1217],[-45.0802,-16.146]]]]}},{"type":"Feature","properties":{"territory_id":"mg-3130051-vila-de-logradouro","name":"Vila de Logradouro","municipality_id":"mg-3130051","polling_places":1,"approx":true,"official":false,"method":"voronoi-polling-places","whole_municipality":false,"approx_coords_only":false},"geometry":{"type":"MultiPolygon","coordinates":[[[[-44.77575,-16.15993],[-44.75742,-16.19861],[-44.7523,-16.1946],[-44.7197,-16.1789],[-44.70304,-16.16642],[-44.73978,-16.13689],[-44.7743,-16.1601],[-44.77575,-16.15993]]]]}},{"type":"Feature","properties":{"territory_id":"mg-3130051-vila-rica","name":"Vila Rica","municipality_id":"mg-3130051","polling_places":1,"approx":true,"official":false,"method":"voronoi-polling-places","whole_municipality":false,"approx_coords_only":false},"geometry":{"type":"MultiPolygon","coordinates":[[[[-45.0002,-16.19221],[-44.99741,-16.28732],[-44.97374,-16.29101],[-44.93295,-16.26838],[-44.94266,-16.20439],[-45.0002,-16.19221]]]]}},{"type":"Feature","properties":{"territory_id":"mg-3130051-vila-santos-reis","name":"Vila Santos Reis","municipality_id":"mg-3130051","polling_places":1,"approx":true,"official":false,"method":"voronoi-polling-places","whole_municipality":false,"approx_coords_only":false},"geometry":{"type":"MultiPolygon","coordinates":[[[[-45.04658,-16.14478],[-45.0002,-16.19221],[-44.94266,-16.20439],[-44.91337,-16.17058],[-44.90711,-16.14339],[-44.9762,-16.163],[-45.04658,-16.14478]]]]}}]}