{"type":"FeatureCollection","features":[{"type":"Feature","properties":{"territory_id":"mg-3130606-centro","name":"Centro","municipality_id":"mg-3130606","polling_places":1,"approx":true,"official":false,"method":"voronoi-polling-places","whole_municipality":true,"approx_coords_only":false},"geometry":{"type":"MultiPolygon","coordinates":[[[[-46.2353,-22.2673],[-46.2998,-22.2831],[-46.3389,-22.308],[-46.3343,-22.3876],[-46.3093,-22.4095],[-46.2781,-22.3859],[-46.2608,-22.4195],[-46.2443,-22.3636],[-46.2207,-22.3064],[-46.2353,-22.2673]]]]}}]}