{"type":"FeatureCollection","features":[{"type":"Feature","properties":{"territory_id":"mg-3130408-centro","name":"Centro","municipality_id":"mg-3130408","polling_places":2,"approx":true,"official":false,"method":"voronoi-polling-places","whole_municipality":false,"approx_coords_only":false},"geometry":{"type":"MultiPolygon","coordinates":[[[[-44.993,-21.1343],[-44.9745,-21.1931],[-44.96464,-21.20888],[-44.90082,-21.16714],[-44.9094,-21.1715],[-44.926,-21.1241],[-44.9497,-21.109],[-44.993,-21.1343]]]]}},{"type":"Feature","properties":{"territory_id":"mg-3130408-serra","name":"Serra","municipality_id":"mg-3130408","polling_places":1,"approx":true,"official":false,"method":"voronoi-polling-places","whole_municipality":false,"approx_coords_only":false},"geometry":{"type":"MultiPolygon","coordinates":[[[[-44.96464,-21.20888],[-44.9457,-21.2392],[-44.9072,-21.2124],[-44.8693,-21.2122],[-44.8634,-21.1667],[-44.8779,-21.1555],[-44.90082,-21.16714],[-44.96464,-21.20888]]]]}}]}