{"type":"FeatureCollection","features":[{"type":"Feature","properties":{"territory_id":"mg-3130903-centro","name":"Centro","municipality_id":"mg-3130903","polling_places":4,"approx":true,"official":false,"method":"voronoi-polling-places","whole_municipality":false,"approx_coords_only":false},"geometry":{"type":"MultiPolygon","coordinates":[[[[-42.16745,-19.54092],[-42.16731,-19.54111],[-42.12651,-19.60861],[-42.12626,-19.60824],[-42.12474,-19.54997],[-42.12321,-19.55078],[-42.12218,-19.55186],[-42.11218,-19.54318],[-42.11315,-19.54196],[-42.12811,-19.50983],[-42.15587,-19.51395],[-42.16745,-19.54092]]]]}},{"type":"Feature","properties":{"territory_id":"mg-3130903-santa-cruz","name":"Santa Cruz","municipality_id":"mg-3130903","polling_places":1,"approx":true,"official":false,"method":"voronoi-polling-places","whole_municipality":false,"approx_coords_only":false},"geometry":{"type":"MultiPolygon","coordinates":[[[[-42.12218,-19.55186],[-42.11117,-19.58621],[-42.10102,-19.57326],[-42.09757,-19.55854],[-42.10008,-19.55587],[-42.11218,-19.54318],[-42.12218,-19.55186]]]]}},{"type":"Feature","properties":{"territory_id":"mg-3130903-santo-antonio","name":"Santo Antonio","municipality_id":"mg-3130903","polling_places":1,"approx":true,"official":false,"method":"voronoi-polling-places","whole_municipality":false,"approx_coords_only":false},"geometry":{"type":"MultiPolygon","coordinates":[[[[-42.1098,-19.50066],[-42.10008,-19.55587],[-42.09757,-19.55854],[-42.06533,-19.52262],[-42.059,-19.4993],[-42.05121,-19.49655],[-42.08498,-19.4881],[-42.1098,-19.50066]]]]}},{"type":"Feature","properties":{"territory_id":"mg-3130903-zona-rural","name":"Zona Rural","municipality_id":"mg-3130903","polling_places":14,"approx":true,"official":false,"method":"voronoi-polling-places","whole_municipality":false,"approx_coords_only":false},"geometry":{"type":"MultiPolygon","coordinates":[[[[-42.2442,-19.5471],[-42.2143,-19.559],[-42.2068,-19.6082],[-42.1618,-19.6154],[-42.1265,-19.6205],[-42.0688,-19.5956],[-42.0458,-19.5998],[-42.0486,-19.5717],[-42.0701,-19.5402],[-42.06533,-19.52262],[-42.09757,-19.55854],[-42.10102,-19.57326],[-42.11117,-19.58621],[-42.12218,-19.55186],[-42.12321,-19.55078],[-42.12474,-19.54997],[-42.12626,-19.60824],[-42.12651,-19.60861],[-42.16731,-19.54111],[-42.16745,-19.54092],[-42.15587,-19.51395],[-42.12811,-19.50983],[-42.11315,-19.54196],[-42.11218,-19.54318],[-42.10008,-19.55587],[-42.1098,-19.50066],[-42.08498,-19.4881],[-42.05121,-19.49655],[-42.019,-19.4852],[-41.9998,-19.4588],[-41.9572,-19.455],[-41.9377,-19.4981],[-41.8942,-19.5377],[-41.9017,-19.5651],[-41.9031,-19.6212],[-41.8543,-19.5834],[-41.8145,-19.5944],[-41.8045,-19.5777],[-41.7515,-19.5946],[-41.7213,-19.5819],[-41.6532,-19.5326],[-41.6636,-19.4547],[-41.7001,-19.4989],[-41.7582,-19.508],[-41.8078,-19.4561],[-41.8228,-19.4273],[-41.8467,-19.4217],[-41.8876,-19.3865],[-41.9596,-19.3475],[-41.9913,-19.3804],[-42.0284,-19.3767],[-42.104,-19.4292],[-42.1362,-19.4149],[-42.1528,-19.438],[-42.1967,-19.4701],[-42.2442,-19.5471]]]]}}]}