{"type":"FeatureCollection","features":[{"type":"Feature","properties":{"territory_id":"mg-3130200-antunes","name":"Antunes","municipality_id":"mg-3130200","polling_places":1,"approx":true,"official":false,"method":"voronoi-polling-places","whole_municipality":false,"approx_coords_only":false},"geometry":{"type":"MultiPolygon","coordinates":[[[[-44.7494,-19.91642],[-44.61291,-19.95483],[-44.612,-19.9542],[-44.6204,-19.9361],[-44.6859,-19.8771],[-44.7416,-19.8978],[-44.74587,-19.89446],[-44.7494,-19.91642]]]]}},{"type":"Feature","properties":{"territory_id":"mg-3130200-limas","name":"Limas","municipality_id":"mg-3130200","polling_places":1,"approx":true,"official":false,"method":"voronoi-polling-places","whole_municipality":false,"approx_coords_only":false},"geometry":{"type":"MultiPolygon","coordinates":[[[[-44.8167,-19.9186],[-44.7886,-19.9539],[-44.77654,-19.95616],[-44.7494,-19.91642],[-44.74587,-19.89446],[-44.7807,-19.8672],[-44.816,-19.8927],[-44.8167,-19.9186]]]]}},{"type":"Feature","properties":{"territory_id":"mg-3130200-nova-brasilia","name":"Nova Brasília","municipality_id":"mg-3130200","polling_places":2,"approx":true,"official":false,"method":"voronoi-polling-places","whole_municipality":false,"approx_coords_only":false},"geometry":{"type":"MultiPolygon","coordinates":[[[[-44.77654,-19.95616],[-44.7442,-19.9622],[-44.74838,-20.00227],[-44.70176,-20.01091],[-44.6964,-20.0002],[-44.6596,-19.9871],[-44.61291,-19.95483],[-44.7494,-19.91642],[-44.77654,-19.95616]]]]}},{"type":"Feature","properties":{"territory_id":"mg-3130200-pedra-negra-de-cima","name":"Pedra Negra de Cima","municipality_id":"mg-3130200","polling_places":1,"approx":true,"official":false,"method":"voronoi-polling-places","whole_municipality":false,"approx_coords_only":false},"geometry":{"type":"MultiPolygon","coordinates":[[[[-44.7538,-20.0543],[-44.718,-20.0847],[-44.712,-20.0314],[-44.70176,-20.01091],[-44.74838,-20.00227],[-44.7538,-20.0543]]]]}}]}