{"type":"FeatureCollection","features":[{"type":"Feature","properties":{"territory_id":"mg-3130804-centro","name":"Centro","municipality_id":"mg-3130804","polling_places":2,"approx":true,"official":false,"method":"voronoi-polling-places","whole_municipality":true,"approx_coords_only":false},"geometry":{"type":"MultiPolygon","coordinates":[[[[-45.0609,-21.4087],[-45.0108,-21.4346],[-44.9869,-21.4627],[-44.8887,-21.469],[-44.8705,-21.4981],[-44.8206,-21.5217],[-44.8133,-21.4691],[-44.8179,-21.3933],[-44.8363,-21.3675],[-44.8785,-21.3634],[-44.9042,-21.3428],[-44.9463,-21.3486],[-45.002,-21.3336],[-45.0376,-21.3729],[-45.0851,-21.3989],[-45.0609,-21.4087]]]]}}]}