{"type":"FeatureCollection","features":[{"type":"Feature","properties":{"territory_id":"mg-3130101-bom-jardim","name":"Bom Jardim","municipality_id":"mg-3130101","polling_places":1,"approx":true,"official":false,"method":"voronoi-polling-places","whole_municipality":false,"approx_coords_only":false},"geometry":{"type":"MultiPolygon","coordinates":[[[[-44.35115,-20.12097],[-44.3378,-20.1196],[-44.32077,-20.11742],[-44.3229,-20.09341],[-44.32471,-20.0834],[-44.33424,-20.06403],[-44.34889,-20.06672],[-44.35115,-20.12097]]]]}},{"type":"Feature","properties":{"territory_id":"mg-3130101-brejo-vila-do-galo","name":"Brejo ( Vila do Galo )","municipality_id":"mg-3130101","polling_places":1,"approx":true,"official":false,"method":"voronoi-polling-places","whole_municipality":false,"approx_coords_only":false},"geometry":{"type":"MultiPolygon","coordinates":[[[[-44.32812,-19.99838],[-44.31885,-20.00815],[-44.31146,-20.01401],[-44.28029,-20.03211],[-44.2722,-20.0049],[-44.3217,-19.9958],[-44.32812,-19.99838]]]]}},{"type":"Feature","properties":{"territory_id":"mg-3130101-cidade-jardim","name":"Cidade Jardim","municipality_id":"mg-3130101","polling_places":1,"approx":true,"official":false,"method":"voronoi-polling-places","whole_municipality":false,"approx_coords_only":false},"geometry":{"type":"MultiPolygon","coordinates":[[[[-44.30948,-20.05771],[-44.3052,-20.07213],[-44.30449,-20.07262],[-44.30314,-20.07298],[-44.30125,-20.06046],[-44.30362,-20.05688],[-44.30805,-20.05696],[-44.30948,-20.05771]]]]}},{"type":"Feature","properties":{"territory_id":"mg-3130101-cidade-nova","name":"Cidade Nova","municipality_id":"mg-3130101","polling_places":1,"approx":true,"official":false,"method":"voronoi-polling-places","whole_municipality":false,"approx_coords_only":false},"geometry":{"type":"MultiPolygon","coordinates":[[[[-44.31387,-20.11654],[-44.276,-20.1117],[-44.27824,-20.10139],[-44.29027,-20.07659],[-44.29581,-20.07338],[-44.30011,-20.07459],[-44.31387,-20.11654]]]]}},{"type":"Feature","properties":{"territory_id":"mg-3130101-fazenda-solar","name":"Fazenda Solar","municipality_id":"mg-3130101","polling_places":1,"approx":true,"official":false,"method":"voronoi-polling-places","whole_municipality":false,"approx_coords_only":false},"geometry":{"type":"MultiPolygon","coordinates":[[[[-44.36969,-20.05971],[-44.34889,-20.06672],[-44.33424,-20.06403],[-44.33409,-20.06376],[-44.34218,-20.00403],[-44.3436,-20.0046],[-44.36969,-20.05971]]]]}},{"type":"Feature","properties":{"territory_id":"mg-3130101-fernao-dias","name":"Fernão Dias","municipality_id":"mg-3130101","polling_places":1,"approx":true,"official":false,"method":"voronoi-polling-places","whole_municipality":false,"approx_coords_only":false},"geometry":{"type":"MultiPolygon","coordinates":[[[[-44.31939,-20.05765],[-44.31293,-20.05842],[-44.30948,-20.05771],[-44.30805,-20.05696],[-44.31146,-20.01401],[-44.31885,-20.00815],[-44.31939,-20.05765]]]]}},{"type":"Feature","properties":{"territory_id":"mg-3130101-jardim-das-roseiras","name":"Jardim das Roseiras","municipality_id":"mg-3130101","polling_places":1,"approx":true,"official":false,"method":"voronoi-polling-places","whole_municipality":false,"approx_coords_only":false},"geometry":{"type":"MultiPolygon","coordinates":[[[[-44.29581,-20.07338],[-44.29027,-20.07659],[-44.28503,-20.07014],[-44.28693,-20.0614],[-44.29507,-20.06655],[-44.29581,-20.07338]]]]}},{"type":"Feature","properties":{"territory_id":"mg-3130101-madre-liliane","name":"Madre Liliane","municipality_id":"mg-3130101","polling_places":1,"approx":true,"official":false,"method":"voronoi-polling-places","whole_municipality":false,"approx_coords_only":false},"geometry":{"type":"MultiPolygon","coordinates":[[[[-44.3229,-20.09341],[-44.32077,-20.11742],[-44.31387,-20.11654],[-44.30011,-20.07459],[-44.30314,-20.07298],[-44.30449,-20.07262],[-44.3229,-20.09341]]]]}},{"type":"Feature","properties":{"territory_id":"mg-3130101-novo-horizonte","name":"Novo Horizonte","municipality_id":"mg-3130101","polling_places":1,"approx":true,"official":false,"method":"voronoi-polling-places","whole_municipality":false,"approx_coords_only":false},"geometry":{"type":"MultiPolygon","coordinates":[[[[-44.30362,-20.05688],[-44.30125,-20.06046],[-44.29507,-20.06655],[-44.28693,-20.0614],[-44.2878,-20.0574],[-44.28353,-20.04303],[-44.30362,-20.05688]]]]}},{"type":"Feature","properties":{"territory_id":"mg-3130101-novo-igarape","name":"Novo Igarapé","municipality_id":"mg-3130101","polling_places":1,"approx":true,"official":false,"method":"voronoi-polling-places","whole_municipality":false,"approx_coords_only":false},"geometry":{"type":"MultiPolygon","coordinates":[[[[-44.31146,-20.01401],[-44.30805,-20.05696],[-44.30362,-20.05688],[-44.28353,-20.04303],[-44.28029,-20.03211],[-44.31146,-20.01401]]]]}},{"type":"Feature","properties":{"territory_id":"mg-3130101-pousada-del-rey","name":"Pousada Del Rey","municipality_id":"mg-3130101","polling_places":1,"approx":true,"official":false,"method":"voronoi-polling-places","whole_municipality":false,"approx_coords_only":false},"geometry":{"type":"MultiPolygon","coordinates":[[[[-44.34218,-20.00403],[-44.33409,-20.06376],[-44.31939,-20.05765],[-44.31885,-20.00815],[-44.32812,-19.99838],[-44.34218,-20.00403]]]]}},{"type":"Feature","properties":{"territory_id":"mg-3130101-resplendor","name":"Resplendor","municipality_id":"mg-3130101","polling_places":1,"approx":true,"official":false,"method":"voronoi-polling-places","whole_municipality":false,"approx_coords_only":false},"geometry":{"type":"MultiPolygon","coordinates":[[[[-44.29027,-20.07659],[-44.27824,-20.10139],[-44.28503,-20.07014],[-44.29027,-20.07659]]]]}},{"type":"Feature","properties":{"territory_id":"mg-3130101-santa-monica","name":"Santa Mônica","municipality_id":"mg-3130101","polling_places":1,"approx":true,"official":false,"method":"voronoi-polling-places","whole_municipality":false,"approx_coords_only":false},"geometry":{"type":"MultiPolygon","coordinates":[[[[-44.31293,-20.05842],[-44.31273,-20.07186],[-44.3052,-20.07213],[-44.30948,-20.05771],[-44.31293,-20.05842]]]]}},{"type":"Feature","properties":{"territory_id":"mg-3130101-sao-francisco","name":"São Francisco","municipality_id":"mg-3130101","polling_places":1,"approx":true,"official":false,"method":"voronoi-polling-places","whole_municipality":false,"approx_coords_only":false},"geometry":{"type":"MultiPolygon","coordinates":[[[[-44.3756,-20.0722],[-44.3544,-20.1213],[-44.35115,-20.12097],[-44.34889,-20.06672],[-44.36969,-20.05971],[-44.3756,-20.0722]]]]}},{"type":"Feature","properties":{"territory_id":"mg-3130101-sao-sebastiao","name":"São Sebastião","municipality_id":"mg-3130101","polling_places":1,"approx":true,"official":false,"method":"voronoi-polling-places","whole_municipality":false,"approx_coords_only":false},"geometry":{"type":"MultiPolygon","coordinates":[[[[-44.30314,-20.07298],[-44.30011,-20.07459],[-44.29581,-20.07338],[-44.29507,-20.06655],[-44.30125,-20.06046],[-44.30314,-20.07298]]]]}},{"type":"Feature","properties":{"territory_id":"mg-3130101-tres-poderes","name":"Três Poderes","municipality_id":"mg-3130101","polling_places":1,"approx":true,"official":false,"method":"voronoi-polling-places","whole_municipality":false,"approx_coords_only":false},"geometry":{"type":"MultiPolygon","coordinates":[[[[-44.32471,-20.0834],[-44.3229,-20.09341],[-44.30449,-20.07262],[-44.3052,-20.07213],[-44.31273,-20.07186],[-44.32471,-20.0834]]]]}},{"type":"Feature","properties":{"territory_id":"mg-3130101-vale-do-amanhecer","name":"Vale do Amanhecer","municipality_id":"mg-3130101","polling_places":1,"approx":true,"official":false,"method":"voronoi-polling-places","whole_municipality":false,"approx_coords_only":false},"geometry":{"type":"MultiPolygon","coordinates":[[[[-44.33424,-20.06403],[-44.32471,-20.0834],[-44.31273,-20.07186],[-44.31293,-20.05842],[-44.31939,-20.05765],[-44.33409,-20.06376],[-44.33424,-20.06403]]]]}}]}