{"type":"FeatureCollection","features":[{"type":"Feature","properties":{"territory_id":"mg-3130002-centro","name":"Centro","municipality_id":"mg-3130002","polling_places":2,"approx":true,"official":false,"method":"voronoi-polling-places","whole_municipality":true,"approx_coords_only":false},"geometry":{"type":"MultiPolygon","coordinates":[[[[-44.8634,-21.1667],[-44.8478,-21.194],[-44.8096,-21.2211],[-44.7767,-21.2088],[-44.7596,-21.2348],[-44.7329,-21.2116],[-44.7073,-21.1956],[-44.7108,-21.1369],[-44.7364,-21.142],[-44.7654,-21.1132],[-44.8717,-21.1349],[-44.8779,-21.1555],[-44.8634,-21.1667]]]]}}]}