{"type":"FeatureCollection","features":[{"type":"Feature","properties":{"territory_id":"mg-3131000-centro","name":"Centro","municipality_id":"mg-3131000","polling_places":2,"approx":true,"official":false,"method":"voronoi-polling-places","whole_municipality":false,"approx_coords_only":false},"geometry":{"type":"MultiPolygon","coordinates":[[[[-44.5418,-19.428],[-44.5142,-19.4839],[-44.4318,-19.4967],[-44.4252,-19.5236],[-44.4466,-19.5442],[-44.43778,-19.55278],[-44.38245,-19.49495],[-44.35709,-19.46845],[-44.4599,-19.4087],[-44.5017,-19.4291],[-44.5418,-19.428]]]]}},{"type":"Feature","properties":{"territory_id":"mg-3131000-zona-rural","name":"Zona Rural","municipality_id":"mg-3131000","polling_places":1,"approx":true,"official":false,"method":"voronoi-polling-places","whole_municipality":false,"approx_coords_only":true},"geometry":{"type":"MultiPolygon","coordinates":[[[[-44.43778,-19.55278],[-44.4004,-19.5891],[-44.3908,-19.5791],[-44.315,-19.592],[-44.3066,-19.5673],[-44.3134,-19.5114],[-44.3551,-19.4696],[-44.35709,-19.46845],[-44.38245,-19.49495],[-44.43778,-19.55278]]]]}}]}