{"type":"FeatureCollection","features":[{"type":"Feature","properties":{"territory_id":"mg-3131208-centro","name":"Centro","municipality_id":"mg-3131208","polling_places":8,"approx":true,"official":false,"method":"voronoi-polling-places","whole_municipality":false,"approx_coords_only":false},"geometry":{"type":"MultiPolygon","coordinates":[[[[-41.7962,-19.7751],[-41.7853,-19.8126],[-41.78553,-19.81287],[-41.77547,-19.82075],[-41.71067,-19.87206],[-41.6696,-19.8591],[-41.655,-19.8321],[-41.6736,-19.7987],[-41.6652,-19.7686],[-41.67886,-19.69479],[-41.75529,-19.72907],[-41.76173,-19.73152],[-41.78577,-19.74006],[-41.7962,-19.7751]],[[-41.7153,-19.80165],[-41.7142,-19.80052],[-41.71406,-19.80052],[-41.71333,-19.79926],[-41.71143,-19.80189],[-41.71337,-19.80171],[-41.7153,-19.80165]]]]}},{"type":"Feature","properties":{"territory_id":"mg-3131208-povoado-de-sao-joao","name":"Povoado de São João","municipality_id":"mg-3131208","polling_places":1,"approx":true,"official":false,"method":"voronoi-polling-places","whole_municipality":false,"approx_coords_only":false},"geometry":{"type":"MultiPolygon","coordinates":[[[[-41.7153,-19.80165],[-41.71337,-19.80171],[-41.71406,-19.80052],[-41.7142,-19.80052],[-41.7153,-19.80165]]]]}},{"type":"Feature","properties":{"territory_id":"mg-3131208-santa-constancia","name":"Santa Constância","municipality_id":"mg-3131208","polling_places":1,"approx":true,"official":false,"method":"voronoi-polling-places","whole_municipality":false,"approx_coords_only":false},"geometry":{"type":"MultiPolygon","coordinates":[[[[-41.8184,-19.708],[-41.7856,-19.7395],[-41.78577,-19.74006],[-41.76173,-19.73152],[-41.75529,-19.72907],[-41.67886,-19.69479],[-41.6798,-19.6897],[-41.6949,-19.6441],[-41.7515,-19.5946],[-41.8045,-19.5777],[-41.8145,-19.5944],[-41.8044,-19.6229],[-41.8184,-19.708]]]]}},{"type":"Feature","properties":{"territory_id":"mg-3131208-sede","name":"Sede","municipality_id":"mg-3131208","polling_places":2,"approx":true,"official":false,"method":"voronoi-polling-places","whole_municipality":false,"approx_coords_only":false},"geometry":{"type":"MultiPolygon","coordinates":[[[[-41.8439,-19.9251],[-41.8414,-19.9253],[-41.7771,-19.9272],[-41.7373,-19.9143],[-41.7146,-19.8733],[-41.71067,-19.87206],[-41.77547,-19.82075],[-41.78553,-19.81287],[-41.802,-19.8322],[-41.8439,-19.9251]]],[[[-41.71406,-19.80052],[-41.71337,-19.80171],[-41.71143,-19.80189],[-41.71333,-19.79926],[-41.71406,-19.80052]]]]}}]}