{"type":"FeatureCollection","features":[{"type":"Feature","properties":{"territory_id":"mg-3131406-centro","name":"Centro","municipality_id":"mg-3131406","polling_places":3,"approx":true,"official":false,"method":"voronoi-polling-places","whole_municipality":true,"approx_coords_only":false},"geometry":{"type":"MultiPolygon","coordinates":[[[[-49.8722,-18.8018],[-49.803,-18.7383],[-49.8185,-18.6975],[-49.7946,-18.6438],[-49.8893,-18.6099],[-49.9317,-18.624],[-49.9815,-18.6046],[-50.0288,-18.6015],[-50.0502,-18.6435],[-50.0798,-18.6719],[-50.0579,-18.6838],[-50.0507,-18.7317],[-49.9678,-18.7862],[-49.9455,-18.8134],[-49.9088,-18.7984],[-49.8722,-18.8018]]]]}}]}