{"type":"FeatureCollection","features":[{"type":"Feature","properties":{"territory_id":"mg-3131307-areal","name":"Areal","municipality_id":"mg-3131307","polling_places":1,"approx":true,"official":false,"method":"voronoi-polling-places","whole_municipality":false,"approx_coords_only":false},"geometry":{"type":"MultiPolygon","coordinates":[[[[-42.6045,-19.4916],[-42.58189,-19.50894],[-42.58172,-19.50841],[-42.58108,-19.50827],[-42.58057,-19.50822],[-42.58036,-19.5079],[-42.58026,-19.50785],[-42.5802,-19.50777],[-42.58054,-19.50631],[-42.57993,-19.50469],[-42.5789,-19.50371],[-42.57968,-19.5012],[-42.58085,-19.49787],[-42.58141,-19.49818],[-42.58213,-19.49815],[-42.58358,-19.49745],[-42.58507,-19.49727],[-42.58726,-19.49515],[-42.58823,-19.4945],[-42.58906,-19.49349],[-42.58935,-19.49256],[-42.58944,-19.49208],[-42.58941,-19.49152],[-42.58945,-19.49099],[-42.5896,-19.49075],[-42.59013,-19.49042],[-42.59031,-19.49001],[-42.59044,-19.48962],[-42.59054,-19.48944],[-42.59078,-19.48942],[-42.59096,-19.48945],[-42.59159,-19.48957],[-42.59239,-19.48971],[-42.59268,-19.48958],[-42.59333,-19.48916],[-42.60446,-19.49145],[-42.6045,-19.4916]]],[[[-42.57549,-19.51385],[-42.5736,-19.5153],[-42.56849,-19.51332],[-42.56795,-19.51187],[-42.56622,-19.50798],[-42.56526,-19.50839],[-42.5646,-19.50865],[-42.56451,-19.5087],[-42.56362,-19.50903],[-42.56335,-19.50915],[-42.56322,-19.5092],[-42.56316,-19.5088],[-42.56212,-19.50668],[-42.56131,-19.50485],[-42.55936,-19.5006],[-42.55852,-19.49875],[-42.55817,-19.49894],[-42.55825,-19.49914],[-42.55702,-19.49962],[-42.55683,-19.49972],[-42.55654,-19.49994],[-42.5556,-19.50103],[-42.5543,-19.50162],[-42.55375,-19.5019],[-42.55358,-19.50201],[-42.55338,-19.50222],[-42.55335,-19.50236],[-42.55339,-19.50258],[-42.55349,-19.50277],[-42.55346,-19.50293],[-42.5533,-19.503],[-42.55311,-19.50295],[-42.55299,-19.50285],[-42.55285,-19.50281],[-42.55266,-19.50283],[-42.55043,-19.50354],[-42.55013,-19.5036],[-42.55095,-19.50377],[-42.54994,-19.50357],[-42.54972,-19.50345],[-42.54956,-19.50328],[-42.54946,-19.50314],[-42.54926,-19.50296],[-42.54903,-19.50232],[-42.54895,-19.50217],[-42.54884,-19.50228],[-42.54877,-19.50242],[-42.54861,-19.50263],[-42.5485,-19.50274],[-42.54831,-19.50278],[-42.54803,-19.50287],[-42.54782,-19.50288],[-42.54767,-19.50293],[-42.54615,-19.50278],[-42.54561,-19.50277],[-42.54515,-19.50289],[-42.54488,-19.50299],[-42.54427,-19.50347],[-42.54409,-19.50364],[-42.5439,-19.50378],[-42.53402,-19.49995],[-42.53412,-19.49986],[-42.53416,-19.49987],[-42.53484,-19.49983],[-42.53566,-19.49952],[-42.53599,-19.49942],[-42.53545,-19.49864],[-42.53649,-19.49769],[-42.54485,-19.49143],[-42.5699,-19.48433],[-42.57327,-19.48503],[-42.57328,-19.48523],[-42.5732,-19.48567],[-42.57304,-19.486],[-42.57294,-19.48631],[-42.57301,-19.48658],[-42.5732,-19.48675],[-42.5734,-19.48698],[-42.5725,-19.48752],[-42.57171,-19.48773],[-42.57115,-19.48785],[-42.56971,-19.48791],[-42.56875,-19.4881],[-42.56697,-19.48873],[-42.56513,-19.48968],[-42.56432,-19.49004],[-42.56206,-19.49009],[-42.56167,-19.49012],[-42.56178,-19.49024],[-42.56196,-19.49039],[-42.56217,-19.49054],[-42.56245,-19.49071],[-42.56297,-19.49099],[-42.56341,-19.49126],[-42.56376,-19.49156],[-42.56393,-19.49181],[-42.56416,-19.49224],[-42.56436,-19.49285],[-42.56473,-19.49357],[-42.56507,-19.49411],[-42.56551,-19.49464],[-42.56679,-19.4957],[-42.56719,-19.49629],[-42.56726,-19.49649],[-42.56734,-19.49683],[-42.56736,-19.49724],[-42.56729,-19.49762],[-42.56721,-19.49801],[-42.56698,-19.49845],[-42.56682,-19.49881],[-42.56666,-19.49929],[-42.56664,-19.49963],[-42.56664,-19.49999],[-42.56676,-19.50049],[-42.56698,-19.50108],[-42.56716,-19.50147],[-42.56708,-19.50169],[-42.56735,-19.50227],[-42.56755,-19.50272],[-42.56832,-19.50413],[-42.569,-19.50515],[-42.56952,-19.50585],[-42.57029,-19.5068],[-42.57099,-19.50761],[-42.5716,-19.50827],[-42.57211,-19.50886],[-42.57379,-19.51067],[-42.57411,-19.51099],[-42.57434,-19.51127],[-42.57468,-19.51176],[-42.57523,-19.5128],[-42.57549,-19.51385]]]]}},{"type":"Feature","properties":{"territory_id":"mg-3131307-barra-alegre","name":"Barra Alegre","municipality_id":"mg-3131307","polling_places":1,"approx":false,"official":true,"method":"official-ibge-cd2022","whole_municipality":false,"approx_coords_only":false,"official_name":"Barra Alegre","official_code":"3131307012","match":"direct"},"geometry":{"type":"MultiPolygon","coordinates":[[[[-42.59797,-19.44282],[-42.59831,-19.44291],[-42.59869,-19.44297],[-42.59928,-19.44339],[-42.59944,-19.44363],[-42.59965,-19.44403],[-42.59978,-19.44414],[-42.60022,-19.44423],[-42.60017,-19.44403],[-42.59986,-19.44102],[-42.60013,-19.44019],[-42.60054,-19.43933],[-42.60138,-19.4385],[-42.60321,-19.43758],[-42.60678,-19.43514],[-42.60676,-19.43252],[-42.6067,-19.43077],[-42.60734,-19.42861],[-42.60449,-19.42817],[-42.59906,-19.42767],[-42.59504,-19.42688],[-42.5948,-19.4269],[-42.59431,-19.42705],[-42.59309,-19.42759],[-42.58862,-19.42949],[-42.58765,-19.42944],[-42.58699,-19.42918],[-42.58608,-19.42928],[-42.58577,-19.43036],[-42.58485,-19.43185],[-42.58372,-19.43275],[-42.58302,-19.43338],[-42.58209,-19.43302],[-42.58133,-19.43308],[-42.5804,-19.43427],[-42.58054,-19.43477],[-42.58069,-19.4351],[-42.58068,-19.43533],[-42.58113,-19.43584],[-42.58149,-19.43657],[-42.58274,-19.43739],[-42.5835,-19.43761],[-42.58389,-19.43767],[-42.58416,-19.4378],[-42.58495,-19.438],[-42.58575,-19.43837],[-42.58622,-19.43959],[-42.5864,-19.44024],[-42.5861,-19.44055],[-42.58571,-19.4406],[-42.58538,-19.44049],[-42.58505,-19.44069],[-42.58462,-19.44115],[-42.58428,-19.44156],[-42.58394,-19.4426],[-42.58393,-19.44343],[-42.58424,-19.44448],[-42.58483,-19.44542],[-42.58531,-19.44616],[-42.58563,-19.44679],[-42.58551,-19.44762],[-42.58551,-19.44799],[-42.58534,-19.44829],[-42.58528,-19.44855],[-42.58529,-19.44865],[-42.5854,-19.4488],[-42.58548,-19.44899],[-42.58543,-19.44941],[-42.58542,-19.4498],[-42.58544,-19.45018],[-42.58549,-19.45038],[-42.58553,-19.45046],[-42.58582,-19.45047],[-42.586,-19.45046],[-42.58777,-19.45065],[-42.58797,-19.45066],[-42.58815,-19.45065],[-42.58835,-19.45059],[-42.58856,-19.45046],[-42.58877,-19.45028],[-42.58887,-19.45013],[-42.58888,-19.44999],[-42.58879,-19.44942],[-42.58881,-19.44853],[-42.5888,-19.44812],[-42.58886,-19.44786],[-42.58899,-19.44757],[-42.58919,-19.44721],[-42.58925,-19.44701],[-42.58944,-19.44656],[-42.58959,-19.44638],[-42.58969,-19.44617],[-42.58974,-19.44514],[-42.58979,-19.44501],[-42.5899,-19.44496],[-42.58995,-19.44481],[-42.59008,-19.44477],[-42.59027,-19.44476],[-42.59048,-19.44467],[-42.59071,-19.44463],[-42.59161,-19.44427],[-42.59186,-19.44409],[-42.59245,-19.44358],[-42.59259,-19.44338],[-42.59289,-19.44291],[-42.59311,-19.44279],[-42.59325,-19.44275],[-42.5938,-19.44236],[-42.5939,-19.44233],[-42.594,-19.44235],[-42.59447,-19.44251],[-42.59462,-19.4425],[-42.59493,-19.44245],[-42.59518,-19.44233],[-42.5953,-19.44217],[-42.59538,-19.44212],[-42.59548,-19.44208],[-42.59567,-19.44206],[-42.59601,-19.44189],[-42.59628,-19.44186],[-42.59675,-19.44195],[-42.59684,-19.442],[-42.59693,-19.44215],[-42.59731,-19.44246],[-42.59761,-19.44259],[-42.59771,-19.44269],[-42.59777,-19.44272],[-42.59797,-19.44282]]]]}},{"type":"Feature","properties":{"territory_id":"mg-3131307-bela-vista","name":"Bela Vista","municipality_id":"mg-3131307","polling_places":1,"approx":false,"official":true,"method":"official-ibge-cd2022","whole_municipality":false,"approx_coords_only":false,"official_name":"Bela Vista","official_code":"3131307026","match":"direct"},"geometry":{"type":"MultiPolygon","coordinates":[[[[-42.54284,-19.51281],[-42.54488,-19.51235],[-42.54577,-19.51241],[-42.54718,-19.51248],[-42.54838,-19.51274],[-42.54895,-19.5127],[-42.54995,-19.51231],[-42.5517,-19.5107],[-42.55244,-19.51027],[-42.55153,-19.50864],[-42.55194,-19.50815],[-42.5511,-19.50754],[-42.55089,-19.50652],[-42.551,-19.5064],[-42.55172,-19.50539],[-42.55183,-19.50528],[-42.55167,-19.50498],[-42.55163,-19.5048],[-42.55157,-19.5043],[-42.55126,-19.50393],[-42.55111,-19.50387],[-42.55095,-19.50377],[-42.54994,-19.50357],[-42.54972,-19.50345],[-42.54956,-19.50328],[-42.54946,-19.50314],[-42.54926,-19.50296],[-42.54903,-19.50232],[-42.54895,-19.50217],[-42.54884,-19.50228],[-42.54877,-19.50242],[-42.54861,-19.50263],[-42.5485,-19.50274],[-42.54831,-19.50278],[-42.54803,-19.50287],[-42.54782,-19.50288],[-42.54767,-19.50293],[-42.54615,-19.50278],[-42.54561,-19.50277],[-42.54515,-19.50289],[-42.54488,-19.50299],[-42.54427,-19.50347],[-42.54409,-19.50364],[-42.54389,-19.50379],[-42.54363,-19.50404],[-42.54344,-19.50429],[-42.54278,-19.50416],[-42.54162,-19.5041],[-42.54111,-19.504],[-42.54081,-19.50515],[-42.54053,-19.50746],[-42.53964,-19.5092],[-42.53884,-19.51013],[-42.53821,-19.51077],[-42.5381,-19.51116],[-42.53814,-19.51176],[-42.53881,-19.51236],[-42.53974,-19.51282],[-42.54026,-19.51303],[-42.54126,-19.51304],[-42.54215,-19.51295],[-42.54284,-19.51281]]]]}},{"type":"Feature","properties":{"territory_id":"mg-3131307-bethania","name":"Bethania","municipality_id":"mg-3131307","polling_places":7,"approx":false,"official":true,"method":"official-ibge-cd2022","whole_municipality":false,"approx_coords_only":false,"official_name":"Bethânia","official_code":"3131307025","match":"direct"},"geometry":{"type":"MultiPolygon","coordinates":[[[[-42.55182,-19.44279],[-42.553,-19.44213],[-42.55333,-19.44188],[-42.55386,-19.44158],[-42.55424,-19.44133],[-42.5543,-19.44124],[-42.55478,-19.44096],[-42.55521,-19.44068],[-42.55536,-19.44061],[-42.55544,-19.44052],[-42.55558,-19.44051],[-42.5557,-19.44045],[-42.55616,-19.44003],[-42.55846,-19.44018],[-42.55864,-19.43967],[-42.55919,-19.43826],[-42.5593,-19.43803],[-42.55916,-19.43783],[-42.55905,-19.43771],[-42.55925,-19.4375],[-42.5594,-19.43758],[-42.56078,-19.4377],[-42.56151,-19.4378],[-42.5622,-19.438],[-42.56289,-19.43823],[-42.56302,-19.43823],[-42.56305,-19.43819],[-42.56307,-19.4381],[-42.56339,-19.43811],[-42.56368,-19.43823],[-42.56361,-19.43697],[-42.56362,-19.43607],[-42.56411,-19.43451],[-42.56442,-19.43361],[-42.56455,-19.43205],[-42.56483,-19.43134],[-42.56486,-19.4309],[-42.56443,-19.43084],[-42.56429,-19.42944],[-42.56403,-19.42956],[-42.56352,-19.42955],[-42.563,-19.42938],[-42.56233,-19.42932],[-42.5614,-19.42954],[-42.56001,-19.42984],[-42.55997,-19.42973],[-42.55989,-19.42971],[-42.55966,-19.42959],[-42.55945,-19.42961],[-42.55949,-19.42986],[-42.55792,-19.42946],[-42.55759,-19.42931],[-42.55732,-19.42915],[-42.55688,-19.42863],[-42.55675,-19.42824],[-42.55658,-19.42684],[-42.55504,-19.427],[-42.55458,-19.4271],[-42.55344,-19.42744],[-42.55263,-19.42752],[-42.55239,-19.42756],[-42.55228,-19.4272],[-42.55056,-19.42768],[-42.54915,-19.42801],[-42.54871,-19.42752],[-42.54795,-19.42744],[-42.54791,-19.42743],[-42.54752,-19.4278],[-42.54731,-19.42851],[-42.54738,-19.42925],[-42.5476,-19.42983],[-42.5478,-19.43092],[-42.54808,-19.43134],[-42.54822,-19.4316],[-42.54822,-19.43199],[-42.54798,-19.43277],[-42.54765,-19.43309],[-42.54758,-19.4332],[-42.54748,-19.43341],[-42.54731,-19.43368],[-42.5471,-19.43405],[-42.54699,-19.43426],[-42.54648,-19.43568],[-42.54616,-19.43634],[-42.54516,-19.4378],[-42.54504,-19.43812],[-42.54436,-19.43854],[-42.5436,-19.43841],[-42.54289,-19.43815],[-42.54248,-19.43806],[-42.54214,-19.43794],[-42.5414,-19.43783],[-42.53995,-19.43816],[-42.53931,-19.43856],[-42.53828,-19.4395],[-42.538,-19.44027],[-42.53759,-19.44159],[-42.53783,-19.44239],[-42.53798,-19.4426],[-42.53828,-19.44307],[-42.53864,-19.44349],[-42.5387,-19.4436],[-42.53913,-19.44405],[-42.53931,-19.44439],[-42.53937,-19.44473],[-42.54004,-19.4449],[-42.54082,-19.44483],[-42.54141,-19.44475],[-42.54158,-19.44482],[-42.54189,-19.4451],[-42.5422,-19.44535],[-42.54266,-19.4458],[-42.54322,-19.44623],[-42.54356,-19.44669],[-42.54393,-19.44687],[-42.54408,-19.44696],[-42.54412,-19.44713],[-42.54416,-19.44747],[-42.54434,-19.44734],[-42.54497,-19.44696],[-42.54501,-19.44689],[-42.54503,-19.44675],[-42.54677,-19.44577],[-42.54766,-19.44519],[-42.54833,-19.44479],[-42.54959,-19.44405],[-42.5518,-19.44279],[-42.55182,-19.44279]]]]}},{"type":"Feature","properties":{"territory_id":"mg-3131307-bom-jardim","name":"Bom Jardim","municipality_id":"mg-3131307","polling_places":4,"approx":false,"official":true,"method":"official-ibge-cd2022","whole_municipality":false,"approx_coords_only":false,"official_name":"Bom Jardim","official_code":"3131307013","match":"direct"},"geometry":{"type":"MultiPolygon","coordinates":[[[[-42.59159,-19.48957],[-42.59239,-19.48971],[-42.59268,-19.48958],[-42.5972,-19.48668],[-42.59761,-19.48612],[-42.59821,-19.48578],[-42.5987,-19.48567],[-42.59868,-19.48501],[-42.5987,-19.4841],[-42.59902,-19.4828],[-42.5989,-19.48233],[-42.59861,-19.48199],[-42.59816,-19.48184],[-42.59756,-19.48183],[-42.59697,-19.48175],[-42.59653,-19.48161],[-42.59621,-19.48133],[-42.59599,-19.48095],[-42.59596,-19.48033],[-42.5961,-19.47961],[-42.59611,-19.47931],[-42.59584,-19.47891],[-42.59553,-19.47859],[-42.59539,-19.4783],[-42.59522,-19.47786],[-42.59212,-19.48074],[-42.59058,-19.48208],[-42.59017,-19.48256],[-42.58934,-19.48389],[-42.58858,-19.48331],[-42.58471,-19.48047],[-42.58511,-19.47998],[-42.58657,-19.48104],[-42.58796,-19.4793],[-42.59227,-19.4741],[-42.59188,-19.47382],[-42.59069,-19.47329],[-42.58885,-19.47204],[-42.58806,-19.47166],[-42.58689,-19.47093],[-42.58699,-19.47027],[-42.58716,-19.46982],[-42.58676,-19.46938],[-42.58662,-19.4692],[-42.58635,-19.46913],[-42.58528,-19.46902],[-42.5844,-19.46901],[-42.58404,-19.46895],[-42.58359,-19.46868],[-42.5835,-19.46878],[-42.5834,-19.46883],[-42.58327,-19.46896],[-42.58252,-19.46957],[-42.58151,-19.47034],[-42.581,-19.47082],[-42.58068,-19.47123],[-42.58027,-19.47168],[-42.58009,-19.47193],[-42.57989,-19.47212],[-42.5797,-19.47237],[-42.57956,-19.47264],[-42.57931,-19.47304],[-42.57882,-19.47356],[-42.57817,-19.47287],[-42.57717,-19.47368],[-42.57682,-19.4737],[-42.57697,-19.47399],[-42.57704,-19.47418],[-42.57705,-19.47447],[-42.57672,-19.47494],[-42.57585,-19.47531],[-42.57581,-19.47538],[-42.5752,-19.47598],[-42.57492,-19.47629],[-42.57451,-19.47696],[-42.57408,-19.47703],[-42.57388,-19.47711],[-42.57374,-19.47719],[-42.57321,-19.47755],[-42.57296,-19.47778],[-42.57202,-19.47885],[-42.57161,-19.47912],[-42.57138,-19.47925],[-42.57119,-19.4797],[-42.57119,-19.48021],[-42.57159,-19.48066],[-42.57078,-19.48135],[-42.56957,-19.48255],[-42.57006,-19.4831],[-42.57035,-19.48337],[-42.57084,-19.48368],[-42.5716,-19.48365],[-42.57196,-19.48366],[-42.57248,-19.4838],[-42.57273,-19.48395],[-42.57297,-19.48408],[-42.57318,-19.48442],[-42.57325,-19.48467],[-42.57328,-19.48523],[-42.5732,-19.48567],[-42.57304,-19.486],[-42.57294,-19.48631],[-42.57301,-19.48658],[-42.5732,-19.48675],[-42.5734,-19.48698],[-42.5725,-19.48752],[-42.57171,-19.48773],[-42.57115,-19.48785],[-42.56971,-19.48791],[-42.56875,-19.4881],[-42.56697,-19.48873],[-42.56513,-19.48968],[-42.56432,-19.49004],[-42.56206,-19.49009],[-42.56167,-19.49012],[-42.56178,-19.49024],[-42.56196,-19.49039],[-42.56217,-19.49054],[-42.56245,-19.49071],[-42.56297,-19.49099],[-42.56341,-19.49126],[-42.56376,-19.49156],[-42.56393,-19.49181],[-42.56416,-19.49224],[-42.56436,-19.49285],[-42.56473,-19.49357],[-42.56507,-19.49411],[-42.56551,-19.49464],[-42.56679,-19.4957],[-42.56719,-19.49629],[-42.56726,-19.49649],[-42.56734,-19.49683],[-42.56736,-19.49724],[-42.56729,-19.49762],[-42.56721,-19.49801],[-42.56698,-19.49845],[-42.56682,-19.49881],[-42.56666,-19.49929],[-42.56664,-19.49963],[-42.56664,-19.49999],[-42.56676,-19.50049],[-42.56698,-19.50108],[-42.56717,-19.50148],[-42.56726,-19.50121],[-42.56728,-19.50081],[-42.56738,-19.50072],[-42.56773,-19.50066],[-42.56781,-19.50052],[-42.56875,-19.50047],[-42.56895,-19.50007],[-42.56981,-19.50042],[-42.57066,-19.5001],[-42.5739,-19.49978],[-42.57546,-19.49905],[-42.57684,-19.49851],[-42.57764,-19.4983],[-42.57965,-19.49646],[-42.58085,-19.49787],[-42.58141,-19.49818],[-42.58213,-19.49815],[-42.58358,-19.49745],[-42.58507,-19.49727],[-42.58726,-19.49515],[-42.58823,-19.4945],[-42.58906,-19.49349],[-42.58935,-19.49256],[-42.58944,-19.49208],[-42.58941,-19.49152],[-42.58945,-19.49099],[-42.5896,-19.49075],[-42.59013,-19.49042],[-42.59031,-19.49001],[-42.59044,-19.48962],[-42.59054,-19.48944],[-42.59078,-19.48942],[-42.59096,-19.48945],[-42.59159,-19.48957]]]]}},{"type":"Feature","properties":{"territory_id":"mg-3131307-bom-retiro","name":"Bom Retiro","municipality_id":"mg-3131307","polling_places":1,"approx":false,"official":true,"method":"official-ibge-cd2022","whole_municipality":false,"approx_coords_only":false,"official_name":"Bom Retiro","official_code":"3131307018","match":"direct"},"geometry":{"type":"MultiPolygon","coordinates":[[[[-42.55966,-19.51065],[-42.56322,-19.5092],[-42.56316,-19.5088],[-42.56212,-19.50668],[-42.56131,-19.50485],[-42.55936,-19.5006],[-42.55852,-19.49875],[-42.55817,-19.49894],[-42.55825,-19.49914],[-42.55702,-19.49962],[-42.55683,-19.49972],[-42.55654,-19.49994],[-42.5556,-19.50103],[-42.5543,-19.50162],[-42.55375,-19.5019],[-42.55358,-19.50201],[-42.55338,-19.50222],[-42.55335,-19.50236],[-42.55339,-19.50258],[-42.55349,-19.50277],[-42.55346,-19.50293],[-42.5533,-19.503],[-42.55311,-19.50295],[-42.55299,-19.50285],[-42.55285,-19.50281],[-42.55266,-19.50283],[-42.55043,-19.50354],[-42.55013,-19.5036],[-42.55095,-19.50377],[-42.55111,-19.50387],[-42.55126,-19.50393],[-42.55157,-19.5043],[-42.55163,-19.5048],[-42.55167,-19.50498],[-42.55183,-19.50528],[-42.55172,-19.50539],[-42.551,-19.5064],[-42.55089,-19.50652],[-42.5511,-19.50754],[-42.55194,-19.50815],[-42.55153,-19.50864],[-42.55244,-19.51027],[-42.55354,-19.51003],[-42.55417,-19.51019],[-42.55484,-19.5106],[-42.55541,-19.5114],[-42.55549,-19.5116],[-42.55614,-19.51156],[-42.55788,-19.51156],[-42.5585,-19.51129],[-42.55859,-19.5113],[-42.55869,-19.51128],[-42.55874,-19.51122],[-42.55879,-19.51113],[-42.55876,-19.51102],[-42.55912,-19.51087],[-42.55966,-19.51065]]]]}},{"type":"Feature","properties":{"territory_id":"mg-3131307-cacula","name":"Caçula","municipality_id":"mg-3131307","polling_places":1,"approx":true,"official":false,"method":"voronoi-polling-places","whole_municipality":false,"approx_coords_only":false},"geometry":{"type":"MultiPolygon","coordinates":[[[[-42.5699,-19.48433],[-42.54485,-19.49143],[-42.54363,-19.47789],[-42.5441,-19.47872],[-42.54468,-19.47986],[-42.54485,-19.48012],[-42.545,-19.48046],[-42.54515,-19.48072],[-42.54538,-19.48105],[-42.54573,-19.48141],[-42.5462,-19.48176],[-42.54698,-19.48215],[-42.5474,-19.48233],[-42.54786,-19.48257],[-42.5485,-19.48238],[-42.54881,-19.48234],[-42.54902,-19.48226],[-42.54916,-19.48214],[-42.54955,-19.48171],[-42.54977,-19.48157],[-42.55011,-19.48141],[-42.55056,-19.4813],[-42.55108,-19.48152],[-42.55152,-19.48162],[-42.55184,-19.48177],[-42.55227,-19.48172],[-42.55277,-19.48159],[-42.55314,-19.48142],[-42.55334,-19.48119],[-42.5535,-19.48087],[-42.5536,-19.48062],[-42.5537,-19.48061],[-42.55417,-19.48037],[-42.55442,-19.48034],[-42.55474,-19.48034],[-42.55514,-19.48036],[-42.55561,-19.48044],[-42.55599,-19.48047],[-42.55645,-19.48048],[-42.55674,-19.48042],[-42.55733,-19.48024],[-42.55742,-19.48032],[-42.55791,-19.48031],[-42.5582,-19.48017],[-42.55841,-19.47996],[-42.55861,-19.47976],[-42.55917,-19.47933],[-42.55977,-19.47917],[-42.56016,-19.47875],[-42.56073,-19.47845],[-42.56137,-19.47825],[-42.56158,-19.47814],[-42.56272,-19.47923],[-42.56286,-19.47908],[-42.56233,-19.47971],[-42.56216,-19.47988],[-42.56146,-19.48069],[-42.56081,-19.48138],[-42.56087,-19.48143],[-42.56106,-19.4815],[-42.56173,-19.48198],[-42.56205,-19.48168],[-42.56231,-19.48129],[-42.56307,-19.48045],[-42.56382,-19.48063],[-42.56432,-19.4808],[-42.56512,-19.48023],[-42.56536,-19.47995],[-42.56553,-19.47947],[-42.56566,-19.47921],[-42.56623,-19.47942],[-42.5668,-19.47961],[-42.56714,-19.47987],[-42.56758,-19.47986],[-42.56855,-19.47973],[-42.56883,-19.47961],[-42.5699,-19.48433]]],[[[-42.56872,-19.47914],[-42.56848,-19.47871],[-42.56841,-19.47856],[-42.56856,-19.47845],[-42.56872,-19.47914]]],[[[-42.56367,-19.46954],[-42.56364,-19.4699],[-42.56362,-19.47004],[-42.56367,-19.46954]]],[[[-42.55689,-19.45709],[-42.55615,-19.45737],[-42.55658,-19.4572],[-42.55689,-19.45709]]],[[[-42.55577,-19.46871],[-42.55572,-19.46854],[-42.55563,-19.4682],[-42.55577,-19.46871]]],[[[-42.54996,-19.46971],[-42.54945,-19.47001],[-42.54893,-19.4705],[-42.54785,-19.47116],[-42.54739,-19.47134],[-42.54695,-19.47128],[-42.54668,-19.47147],[-42.54656,-19.47151],[-42.54624,-19.47148],[-42.54646,-19.47178],[-42.54536,-19.47252],[-42.54482,-19.47182],[-42.5444,-19.47206],[-42.54423,-19.47219],[-42.54317,-19.4728],[-42.54264,-19.46687],[-42.54318,-19.46689],[-42.54346,-19.46692],[-42.54363,-19.46692],[-42.54401,-19.46705],[-42.54487,-19.46754],[-42.54555,-19.46835],[-42.54538,-19.46845],[-42.5458,-19.46906],[-42.54661,-19.47009],[-42.54883,-19.4687],[-42.54911,-19.46856],[-42.5494,-19.46892],[-42.5495,-19.46908],[-42.54971,-19.46932],[-42.54996,-19.46971]]]]}},{"type":"Feature","properties":{"territory_id":"mg-3131307-canaa","name":"Canaã","municipality_id":"mg-3131307","polling_places":4,"approx":false,"official":true,"method":"official-ibge-cd2022","whole_municipality":false,"approx_coords_only":false,"official_name":"Canaã","official_code":"3131307007","match":"direct"},"geometry":{"type":"MultiPolygon","coordinates":[[[[-42.55182,-19.44279],[-42.54959,-19.44405],[-42.54833,-19.44479],[-42.54766,-19.44519],[-42.54677,-19.44577],[-42.54503,-19.44675],[-42.54501,-19.44689],[-42.54497,-19.44696],[-42.54434,-19.44734],[-42.54416,-19.44747],[-42.54353,-19.44813],[-42.54332,-19.44825],[-42.54295,-19.44831],[-42.54174,-19.44932],[-42.54166,-19.44979],[-42.54172,-19.45084],[-42.54161,-19.45111],[-42.54125,-19.45162],[-42.54128,-19.45193],[-42.54133,-19.45216],[-42.54141,-19.45238],[-42.54143,-19.4526],[-42.54156,-19.45294],[-42.54146,-19.45353],[-42.54125,-19.45454],[-42.54178,-19.45522],[-42.5425,-19.45593],[-42.54269,-19.45621],[-42.54297,-19.45655],[-42.54325,-19.45675],[-42.5436,-19.45696],[-42.54408,-19.45743],[-42.54425,-19.45757],[-42.54453,-19.4577],[-42.54465,-19.4578],[-42.54507,-19.45776],[-42.54583,-19.45802],[-42.54651,-19.45819],[-42.54762,-19.45822],[-42.54779,-19.45894],[-42.54778,-19.45935],[-42.54785,-19.45949],[-42.54792,-19.45985],[-42.54792,-19.46007],[-42.54806,-19.46111],[-42.54841,-19.46204],[-42.55008,-19.46248],[-42.55014,-19.46253],[-42.55122,-19.46275],[-42.55204,-19.46296],[-42.55258,-19.46185],[-42.55263,-19.46189],[-42.55266,-19.46195],[-42.55333,-19.46217],[-42.55347,-19.46226],[-42.55372,-19.46252],[-42.55399,-19.46291],[-42.55425,-19.46325],[-42.55457,-19.46348],[-42.55474,-19.46354],[-42.55495,-19.46261],[-42.55502,-19.46221],[-42.55501,-19.46207],[-42.55504,-19.46162],[-42.55503,-19.46078],[-42.55504,-19.4605],[-42.55506,-19.46032],[-42.55526,-19.45976],[-42.55538,-19.45946],[-42.55553,-19.45925],[-42.5556,-19.45907],[-42.55568,-19.45877],[-42.55574,-19.45829],[-42.55575,-19.45807],[-42.55599,-19.45747],[-42.55615,-19.45737],[-42.55658,-19.4572],[-42.5561,-19.45711],[-42.55623,-19.4565],[-42.55591,-19.45646],[-42.55631,-19.45479],[-42.55657,-19.45394],[-42.55675,-19.45354],[-42.55702,-19.45307],[-42.55737,-19.45261],[-42.55791,-19.45184],[-42.55818,-19.45125],[-42.55851,-19.45061],[-42.55893,-19.45034],[-42.56003,-19.44994],[-42.56013,-19.44984],[-42.56022,-19.44915],[-42.56038,-19.44757],[-42.56032,-19.44729],[-42.56016,-19.44671],[-42.56009,-19.44622],[-42.56008,-19.44601],[-42.56009,-19.44475],[-42.56003,-19.44394],[-42.56002,-19.44355],[-42.56002,-19.44324],[-42.56005,-19.44302],[-42.5601,-19.44286],[-42.56011,-19.44252],[-42.56014,-19.44213],[-42.56019,-19.44193],[-42.56023,-19.44153],[-42.56024,-19.44117],[-42.56017,-19.44022],[-42.55995,-19.43984],[-42.55965,-19.4394],[-42.55937,-19.43889],[-42.55926,-19.43857],[-42.55919,-19.43826],[-42.55864,-19.43967],[-42.55846,-19.44018],[-42.55616,-19.44003],[-42.5557,-19.44045],[-42.55558,-19.44051],[-42.55544,-19.44052],[-42.55536,-19.44061],[-42.55521,-19.44068],[-42.55478,-19.44096],[-42.5543,-19.44124],[-42.55424,-19.44133],[-42.55386,-19.44158],[-42.55333,-19.44188],[-42.553,-19.44213],[-42.55186,-19.44276],[-42.55182,-19.44279]]]]}},{"type":"Feature","properties":{"territory_id":"mg-3131307-canaazinho","name":"Canaãzinho","municipality_id":"mg-3131307","polling_places":1,"approx":true,"official":false,"method":"voronoi-polling-places","whole_municipality":false,"approx_coords_only":false},"geometry":{"type":"MultiPolygon","coordinates":[[[[-42.55182,-19.44279],[-42.54959,-19.44405],[-42.5518,-19.44279],[-42.55182,-19.44279]]],[[[-42.54406,-19.44759],[-42.54353,-19.44813],[-42.54332,-19.44825],[-42.54295,-19.44831],[-42.54174,-19.44932],[-42.54166,-19.44979],[-42.54172,-19.45084],[-42.54161,-19.45111],[-42.54125,-19.45162],[-42.54099,-19.45182],[-42.54012,-19.45173],[-42.53957,-19.4516],[-42.53895,-19.45161],[-42.53866,-19.45176],[-42.53814,-19.45271],[-42.53776,-19.45318],[-42.5376,-19.45329],[-42.53618,-19.4544],[-42.53593,-19.45461],[-42.5357,-19.45466],[-42.53442,-19.45332],[-42.54406,-19.44759]]]]}},{"type":"Feature","properties":{"territory_id":"mg-3131307-caravelas","name":"Caravelas","municipality_id":"mg-3131307","polling_places":2,"approx":false,"official":true,"method":"official-ibge-cd2022","whole_municipality":false,"approx_coords_only":false,"official_name":"Caravelas","official_code":"3131307006","match":"direct"},"geometry":{"type":"MultiPolygon","coordinates":[[[[-42.53658,-19.46281],[-42.53667,-19.46305],[-42.53676,-19.46312],[-42.53709,-19.46315],[-42.53721,-19.46315],[-42.53762,-19.46246],[-42.53773,-19.46233],[-42.53909,-19.46258],[-42.53942,-19.46258],[-42.54035,-19.46238],[-42.54187,-19.46125],[-42.5423,-19.46127],[-42.54259,-19.4611],[-42.54282,-19.46092],[-42.54314,-19.46035],[-42.54353,-19.45998],[-42.54359,-19.45982],[-42.54361,-19.4596],[-42.54365,-19.45939],[-42.54373,-19.45925],[-42.54408,-19.45902],[-42.54422,-19.45889],[-42.5444,-19.45867],[-42.54448,-19.4585],[-42.54448,-19.45821],[-42.54455,-19.458],[-42.54465,-19.4578],[-42.54453,-19.4577],[-42.54425,-19.45757],[-42.54408,-19.45743],[-42.5436,-19.45696],[-42.54325,-19.45675],[-42.54297,-19.45655],[-42.54269,-19.45621],[-42.5425,-19.45593],[-42.54178,-19.45522],[-42.54125,-19.45454],[-42.54146,-19.45353],[-42.54156,-19.45294],[-42.54143,-19.4526],[-42.54141,-19.45238],[-42.54133,-19.45216],[-42.54128,-19.45193],[-42.54125,-19.45162],[-42.54099,-19.45182],[-42.54012,-19.45173],[-42.53957,-19.4516],[-42.53895,-19.45161],[-42.53866,-19.45176],[-42.53814,-19.45271],[-42.53776,-19.45318],[-42.5376,-19.45329],[-42.53618,-19.4544],[-42.53593,-19.45461],[-42.53547,-19.45471],[-42.53516,-19.45489],[-42.53459,-19.45528],[-42.53389,-19.45582],[-42.5331,-19.45658],[-42.53256,-19.45682],[-42.53241,-19.45691],[-42.53148,-19.45751],[-42.53009,-19.45837],[-42.52943,-19.45875],[-42.52927,-19.45893],[-42.5291,-19.4592],[-42.52875,-19.45962],[-42.52859,-19.45969],[-42.52806,-19.45981],[-42.52786,-19.45983],[-42.52757,-19.45989],[-42.52736,-19.45998],[-42.5272,-19.46017],[-42.52682,-19.46018],[-42.52661,-19.46016],[-42.52644,-19.46012],[-42.52628,-19.46],[-42.5262,-19.45991],[-42.52614,-19.4598],[-42.52588,-19.45955],[-42.52579,-19.45942],[-42.52558,-19.45929],[-42.52546,-19.459],[-42.52538,-19.45897],[-42.52539,-19.45933],[-42.5255,-19.45979],[-42.52574,-19.46023],[-42.52598,-19.4605],[-42.52632,-19.4608],[-42.52686,-19.4611],[-42.52719,-19.46119],[-42.53025,-19.46173],[-42.53089,-19.4619],[-42.53197,-19.4621],[-42.53247,-19.46224],[-42.53275,-19.46236],[-42.53308,-19.46255],[-42.5332,-19.46263],[-42.53341,-19.46283],[-42.53366,-19.46309],[-42.53384,-19.46332],[-42.53432,-19.46401],[-42.53451,-19.46395],[-42.53466,-19.46395],[-42.53482,-19.46398],[-42.53493,-19.46406],[-42.53511,-19.46377],[-42.53553,-19.4638],[-42.53639,-19.46383],[-42.53634,-19.46351],[-42.53633,-19.46325],[-42.53653,-19.4629],[-42.53658,-19.46281]]]]}},{"type":"Feature","properties":{"territory_id":"mg-3131307-cariru","name":"Cariru","municipality_id":"mg-3131307","polling_places":2,"approx":false,"official":true,"method":"official-ibge-cd2022","whole_municipality":false,"approx_coords_only":false,"official_name":"Cariru","official_code":"3131307020","match":"direct"},"geometry":{"type":"MultiPolygon","coordinates":[[[[-42.5281,-19.4893],[-42.52739,-19.48882],[-42.52703,-19.48867],[-42.52649,-19.4886],[-42.52612,-19.48859],[-42.52543,-19.48851],[-42.52519,-19.48852],[-42.52496,-19.48848],[-42.52475,-19.48848],[-42.52435,-19.48818],[-42.5242,-19.48804],[-42.52408,-19.48795],[-42.5238,-19.48826],[-42.52312,-19.48839],[-42.52202,-19.48852],[-42.52145,-19.48861],[-42.52133,-19.48875],[-42.51962,-19.49038],[-42.51922,-19.49078],[-42.51803,-19.49175],[-42.51766,-19.49218],[-42.51837,-19.49232],[-42.51994,-19.49273],[-42.52184,-19.493],[-42.52479,-19.49335],[-42.52759,-19.49512],[-42.52833,-19.49564],[-42.52935,-19.49643],[-42.53112,-19.49804],[-42.53255,-19.49921],[-42.53338,-19.49966],[-42.53416,-19.49987],[-42.53484,-19.49983],[-42.53566,-19.49952],[-42.53599,-19.49942],[-42.53515,-19.49821],[-42.53252,-19.49365],[-42.53241,-19.49348],[-42.535,-19.49211],[-42.53636,-19.49143],[-42.53503,-19.48905],[-42.53477,-19.48862],[-42.53457,-19.48852],[-42.53435,-19.48846],[-42.53292,-19.48822],[-42.5327,-19.48815],[-42.53227,-19.48805],[-42.53213,-19.488],[-42.53189,-19.48798],[-42.53158,-19.48799],[-42.53144,-19.48802],[-42.53128,-19.48809],[-42.53112,-19.48818],[-42.52974,-19.48976],[-42.52964,-19.48981],[-42.52905,-19.48984],[-42.52887,-19.48989],[-42.52864,-19.48974],[-42.52838,-19.48953],[-42.5281,-19.4893]]]]}},{"type":"Feature","properties":{"territory_id":"mg-3131307-centro","name":"Centro","municipality_id":"mg-3131307","polling_places":3,"approx":false,"official":true,"method":"official-ibge-cd2022","whole_municipality":false,"approx_coords_only":false,"official_name":"Centro","official_code":"3131307001","match":"direct"},"geometry":{"type":"MultiPolygon","coordinates":[[[[-42.52567,-19.4808],[-42.52805,-19.48014],[-42.52824,-19.48008],[-42.52843,-19.47999],[-42.52866,-19.47982],[-42.52886,-19.47954],[-42.52931,-19.47846],[-42.52949,-19.47813],[-42.52974,-19.4778],[-42.52997,-19.47757],[-42.5301,-19.47747],[-42.53037,-19.47729],[-42.53073,-19.47712],[-42.53095,-19.47706],[-42.5319,-19.47685],[-42.53238,-19.47677],[-42.53324,-19.47657],[-42.53333,-19.47643],[-42.53336,-19.47626],[-42.53319,-19.47561],[-42.53315,-19.47557],[-42.53276,-19.47395],[-42.53259,-19.47365],[-42.53248,-19.47357],[-42.53245,-19.47306],[-42.53191,-19.47314],[-42.53109,-19.47313],[-42.52923,-19.47315],[-42.52879,-19.4732],[-42.52819,-19.47339],[-42.528,-19.47354],[-42.52758,-19.47397],[-42.52745,-19.47408],[-42.52722,-19.47431],[-42.52699,-19.47459],[-42.52676,-19.4748],[-42.52633,-19.47528],[-42.52593,-19.47569],[-42.52567,-19.476],[-42.52512,-19.47653],[-42.52492,-19.47666],[-42.52422,-19.47699],[-42.52364,-19.47716],[-42.52317,-19.47714],[-42.52249,-19.47689],[-42.52219,-19.47686],[-42.52205,-19.47688],[-42.52161,-19.4771],[-42.52144,-19.47735],[-42.52135,-19.47758],[-42.52105,-19.4781],[-42.52082,-19.47846],[-42.52011,-19.47939],[-42.51993,-19.47973],[-42.51963,-19.4802],[-42.51943,-19.48038],[-42.51924,-19.48044],[-42.51904,-19.48044],[-42.51872,-19.48037],[-42.51818,-19.48034],[-42.51796,-19.48038],[-42.51778,-19.48045],[-42.5176,-19.48057],[-42.51746,-19.48073],[-42.51734,-19.48102],[-42.51648,-19.48178],[-42.51634,-19.48198],[-42.51598,-19.48213],[-42.51592,-19.48293],[-42.51583,-19.48313],[-42.51601,-19.48314],[-42.51614,-19.48322],[-42.51654,-19.48357],[-42.51664,-19.48355],[-42.51816,-19.48257],[-42.51882,-19.48245],[-42.51991,-19.48242],[-42.52213,-19.48179],[-42.52345,-19.48144],[-42.52457,-19.48112],[-42.52567,-19.4808]]]]}},{"type":"Feature","properties":{"territory_id":"mg-3131307-chacaras-madalena","name":"Chácaras Madalena","municipality_id":"mg-3131307","polling_places":1,"approx":false,"official":true,"method":"official-ibge-cd2022","whole_municipality":false,"approx_coords_only":false,"official_name":"Chácaras Madalena","official_code":"3131307028","match":"direct"},"geometry":{"type":"MultiPolygon","coordinates":[[[[-42.582,-19.45089],[-42.58228,-19.45076],[-42.58278,-19.45048],[-42.58296,-19.45044],[-42.58316,-19.45045],[-42.58335,-19.4505],[-42.58372,-19.45049],[-42.584,-19.45063],[-42.58412,-19.45066],[-42.58444,-19.45059],[-42.58469,-19.45051],[-42.58553,-19.45046],[-42.58549,-19.45038],[-42.58544,-19.45018],[-42.58542,-19.4498],[-42.58543,-19.44941],[-42.58548,-19.44899],[-42.5854,-19.4488],[-42.58529,-19.44865],[-42.58528,-19.44855],[-42.58534,-19.44829],[-42.58551,-19.44799],[-42.58551,-19.44762],[-42.58563,-19.44679],[-42.58531,-19.44616],[-42.58483,-19.44542],[-42.58424,-19.44448],[-42.58393,-19.44343],[-42.58394,-19.4426],[-42.58428,-19.44156],[-42.58462,-19.44115],[-42.58505,-19.44069],[-42.58538,-19.44049],[-42.58571,-19.4406],[-42.5861,-19.44055],[-42.5864,-19.44024],[-42.58622,-19.43959],[-42.58575,-19.43837],[-42.58495,-19.438],[-42.58416,-19.4378],[-42.58389,-19.43767],[-42.5835,-19.43761],[-42.58274,-19.43739],[-42.58149,-19.43657],[-42.58113,-19.43584],[-42.58068,-19.43533],[-42.58069,-19.4351],[-42.58054,-19.43477],[-42.5804,-19.43427],[-42.58011,-19.43447],[-42.57228,-19.43583],[-42.57245,-19.43621],[-42.57245,-19.43652],[-42.57234,-19.43681],[-42.5718,-19.43766],[-42.57164,-19.43809],[-42.57219,-19.44041],[-42.57361,-19.44319],[-42.57387,-19.44354],[-42.57404,-19.44404],[-42.57439,-19.44482],[-42.57459,-19.44521],[-42.5748,-19.4457],[-42.57487,-19.44603],[-42.57484,-19.44641],[-42.57477,-19.44677],[-42.57459,-19.44696],[-42.57423,-19.4476],[-42.57305,-19.44812],[-42.57284,-19.44828],[-42.57203,-19.44874],[-42.57172,-19.4492],[-42.57166,-19.44937],[-42.57165,-19.44951],[-42.57174,-19.45031],[-42.57196,-19.45147],[-42.57212,-19.45172],[-42.57224,-19.45178],[-42.57405,-19.45315],[-42.57497,-19.45389],[-42.57574,-19.45471],[-42.57586,-19.4547],[-42.57631,-19.45454],[-42.57685,-19.45455],[-42.57721,-19.45462],[-42.57757,-19.45462],[-42.57776,-19.45452],[-42.57797,-19.45431],[-42.57825,-19.45359],[-42.57844,-19.45291],[-42.57874,-19.45224],[-42.57902,-19.45193],[-42.5792,-19.45185],[-42.5796,-19.45187],[-42.58064,-19.45184],[-42.58088,-19.45176],[-42.58111,-19.45163],[-42.58168,-19.45104],[-42.58195,-19.45091],[-42.582,-19.45089]]]]}},{"type":"Feature","properties":{"territory_id":"mg-3131307-cidade-nobre","name":"Cidade Nobre","municipality_id":"mg-3131307","polling_places":3,"approx":false,"official":true,"method":"official-ibge-cd2022","whole_municipality":false,"approx_coords_only":false,"official_name":"Cidade Nobre","official_code":"3131307023","match":"direct"},"geometry":{"type":"MultiPolygon","coordinates":[[[[-42.56367,-19.46949],[-42.56364,-19.46887],[-42.56363,-19.4684],[-42.56396,-19.46771],[-42.56405,-19.46736],[-42.56411,-19.4672],[-42.56415,-19.46642],[-42.56423,-19.46624],[-42.5644,-19.46609],[-42.56462,-19.46598],[-42.56495,-19.46588],[-42.5656,-19.4658],[-42.56577,-19.46581],[-42.56633,-19.46611],[-42.56668,-19.46633],[-42.56711,-19.46507],[-42.56709,-19.46485],[-42.56701,-19.4644],[-42.56695,-19.46415],[-42.56681,-19.46366],[-42.56695,-19.46354],[-42.56723,-19.46339],[-42.56732,-19.46303],[-42.56739,-19.4626],[-42.56742,-19.46202],[-42.5675,-19.4616],[-42.56771,-19.46115],[-42.56797,-19.46093],[-42.56878,-19.4604],[-42.56927,-19.4602],[-42.56969,-19.46017],[-42.56996,-19.4603],[-42.57096,-19.46067],[-42.57156,-19.46028],[-42.57267,-19.45952],[-42.57449,-19.45931],[-42.57547,-19.45931],[-42.57596,-19.45928],[-42.57631,-19.45932],[-42.57631,-19.45942],[-42.5765,-19.45951],[-42.57662,-19.45967],[-42.57675,-19.45988],[-42.57685,-19.46025],[-42.57734,-19.46114],[-42.57778,-19.46197],[-42.57794,-19.46219],[-42.57823,-19.4625],[-42.57849,-19.46239],[-42.57872,-19.46233],[-42.57954,-19.46225],[-42.57993,-19.46224],[-42.58057,-19.46225],[-42.58012,-19.4612],[-42.57991,-19.45963],[-42.57978,-19.45907],[-42.57914,-19.45801],[-42.57805,-19.45684],[-42.57744,-19.45622],[-42.57724,-19.45595],[-42.57676,-19.45524],[-42.57628,-19.4551],[-42.57598,-19.45489],[-42.57574,-19.45471],[-42.57564,-19.45479],[-42.57548,-19.4551],[-42.57507,-19.45562],[-42.5742,-19.456],[-42.57407,-19.45596],[-42.574,-19.45589],[-42.57356,-19.45577],[-42.57343,-19.45565],[-42.57302,-19.45552],[-42.57276,-19.45548],[-42.57218,-19.45534],[-42.5719,-19.45533],[-42.57151,-19.45535],[-42.57133,-19.45531],[-42.5712,-19.45525],[-42.57108,-19.45517],[-42.57086,-19.45509],[-42.57017,-19.45503],[-42.56972,-19.45512],[-42.56949,-19.4552],[-42.56936,-19.45534],[-42.56894,-19.45549],[-42.5682,-19.4559],[-42.56789,-19.45613],[-42.56767,-19.45645],[-42.56759,-19.45664],[-42.56751,-19.45671],[-42.56723,-19.45679],[-42.56687,-19.45683],[-42.56631,-19.45679],[-42.56595,-19.4567],[-42.56575,-19.45669],[-42.56551,-19.4567],[-42.56496,-19.45683],[-42.56461,-19.45684],[-42.56394,-19.45675],[-42.56373,-19.45666],[-42.56354,-19.45665],[-42.56329,-19.45662],[-42.56304,-19.45665],[-42.5624,-19.4568],[-42.56116,-19.45666],[-42.56089,-19.45667],[-42.56061,-19.45674],[-42.56025,-19.45676],[-42.55993,-19.45674],[-42.55966,-19.45674],[-42.55909,-19.45679],[-42.55882,-19.45683],[-42.55822,-19.45681],[-42.55789,-19.4569],[-42.55689,-19.45709],[-42.55615,-19.45737],[-42.55599,-19.45747],[-42.55575,-19.45807],[-42.55574,-19.45829],[-42.55568,-19.45877],[-42.5556,-19.45907],[-42.55553,-19.45925],[-42.55538,-19.45946],[-42.55526,-19.45976],[-42.55506,-19.46032],[-42.55504,-19.4605],[-42.55503,-19.46078],[-42.55504,-19.46162],[-42.55501,-19.46207],[-42.55502,-19.46221],[-42.55495,-19.46261],[-42.55474,-19.46354],[-42.55473,-19.46391],[-42.55469,-19.46416],[-42.55469,-19.46442],[-42.55472,-19.4646],[-42.55499,-19.46557],[-42.55509,-19.46604],[-42.55528,-19.46684],[-42.55548,-19.46747],[-42.55563,-19.4682],[-42.55577,-19.46871],[-42.55589,-19.46888],[-42.55625,-19.46918],[-42.55644,-19.46939],[-42.55656,-19.4695],[-42.55666,-19.46967],[-42.55672,-19.46991],[-42.55673,-19.4701],[-42.5566,-19.47031],[-42.55647,-19.47042],[-42.55624,-19.47052],[-42.55643,-19.47074],[-42.5568,-19.47096],[-42.5573,-19.47133],[-42.5576,-19.47164],[-42.55772,-19.47174],[-42.55786,-19.47187],[-42.55807,-19.47192],[-42.55838,-19.47184],[-42.55971,-19.47095],[-42.55993,-19.47082],[-42.56032,-19.47065],[-42.56054,-19.47032],[-42.56091,-19.47006],[-42.56128,-19.46998],[-42.56161,-19.46999],[-42.56194,-19.46995],[-42.56243,-19.46995],[-42.56281,-19.47],[-42.56311,-19.4701],[-42.56331,-19.47019],[-42.56351,-19.4702],[-42.56362,-19.47004],[-42.56367,-19.46952],[-42.56367,-19.46949]]]]}},{"type":"Feature","properties":{"territory_id":"mg-3131307-esperanca","name":"Esperança","municipality_id":"mg-3131307","polling_places":3,"approx":false,"official":true,"method":"official-ibge-cd2022","whole_municipality":false,"approx_coords_only":false,"official_name":"Esperança","official_code":"3131307009","match":"direct"},"geometry":{"type":"MultiPolygon","coordinates":[[[[-42.57631,-19.45942],[-42.57631,-19.45932],[-42.57596,-19.45928],[-42.57547,-19.45931],[-42.57449,-19.45931],[-42.57267,-19.45952],[-42.57156,-19.46028],[-42.57096,-19.46067],[-42.56996,-19.4603],[-42.56969,-19.46017],[-42.56927,-19.4602],[-42.56878,-19.4604],[-42.56797,-19.46093],[-42.56771,-19.46115],[-42.5675,-19.4616],[-42.56742,-19.46202],[-42.56739,-19.4626],[-42.56732,-19.46303],[-42.56723,-19.46339],[-42.56695,-19.46354],[-42.56681,-19.46366],[-42.56695,-19.46415],[-42.56701,-19.4644],[-42.56709,-19.46485],[-42.56711,-19.46507],[-42.56668,-19.46633],[-42.56805,-19.46721],[-42.56833,-19.46818],[-42.56847,-19.46847],[-42.5686,-19.46864],[-42.56879,-19.4688],[-42.569,-19.46893],[-42.57051,-19.46958],[-42.57064,-19.46966],[-42.57102,-19.46976],[-42.57123,-19.46985],[-42.5717,-19.47014],[-42.57179,-19.47027],[-42.57188,-19.47056],[-42.57229,-19.47135],[-42.57271,-19.47155],[-42.57328,-19.47171],[-42.57349,-19.47174],[-42.5748,-19.47149],[-42.57507,-19.47141],[-42.57527,-19.47144],[-42.57553,-19.47151],[-42.57569,-19.47162],[-42.57699,-19.47369],[-42.57717,-19.47368],[-42.57817,-19.47287],[-42.57882,-19.47356],[-42.57931,-19.47304],[-42.57956,-19.47264],[-42.5797,-19.47237],[-42.57989,-19.47212],[-42.58009,-19.47193],[-42.58027,-19.47168],[-42.58068,-19.47123],[-42.581,-19.47082],[-42.58151,-19.47034],[-42.58252,-19.46957],[-42.58327,-19.46896],[-42.5834,-19.46883],[-42.58364,-19.46833],[-42.58358,-19.46754],[-42.58377,-19.46583],[-42.58366,-19.46555],[-42.58329,-19.46519],[-42.58297,-19.46483],[-42.58182,-19.46326],[-42.58109,-19.46251],[-42.58057,-19.46225],[-42.5803,-19.46224],[-42.57954,-19.46225],[-42.57872,-19.46233],[-42.57849,-19.46239],[-42.57823,-19.4625],[-42.57794,-19.46219],[-42.57778,-19.46197],[-42.57734,-19.46114],[-42.57685,-19.46025],[-42.57675,-19.45988],[-42.57662,-19.45967],[-42.5765,-19.45951],[-42.57631,-19.45942]]]]}},{"type":"Feature","properties":{"territory_id":"mg-3131307-forquilha","name":"Forquilha","municipality_id":"mg-3131307","polling_places":1,"approx":true,"official":false,"method":"voronoi-polling-places","whole_municipality":false,"approx_coords_only":false},"geometry":{"type":"MultiPolygon","coordinates":[[[[-42.706,-19.3905],[-42.69755,-19.41138],[-42.60473,-19.43654],[-42.60678,-19.43514],[-42.60676,-19.43252],[-42.6067,-19.43077],[-42.60734,-19.42861],[-42.60791,-19.4254],[-42.60812,-19.42101],[-42.60806,-19.41997],[-42.60732,-19.41818],[-42.60445,-19.41635],[-42.60223,-19.4146],[-42.60066,-19.41423],[-42.59856,-19.41395],[-42.59649,-19.41311],[-42.59479,-19.41031],[-42.59337,-19.40836],[-42.59195,-19.40722],[-42.59357,-19.40444],[-42.59487,-19.40162],[-42.59502,-19.39972],[-42.594,-19.39849],[-42.5911,-19.39689],[-42.59077,-19.39741],[-42.58964,-19.39779],[-42.58352,-19.39761],[-42.58215,-19.3974],[-42.58165,-19.39741],[-42.58114,-19.39745],[-42.58092,-19.39744],[-42.58075,-19.39746],[-42.57923,-19.3983],[-42.57814,-19.40092],[-42.5777,-19.40323],[-42.57607,-19.40457],[-42.57497,-19.40621],[-42.57459,-19.40816],[-42.57543,-19.41013],[-42.57581,-19.41203],[-42.57712,-19.41474],[-42.57853,-19.41919],[-42.57918,-19.41921],[-42.57924,-19.42265],[-42.58086,-19.42515],[-42.58608,-19.42928],[-42.58577,-19.43036],[-42.58485,-19.43185],[-42.58372,-19.43275],[-42.58302,-19.43338],[-42.58209,-19.43302],[-42.58133,-19.43308],[-42.5804,-19.43427],[-42.58011,-19.43447],[-42.57228,-19.43583],[-42.57197,-19.43573],[-42.57088,-19.43593],[-42.57044,-19.43611],[-42.5702,-19.43629],[-42.56983,-19.43687],[-42.56958,-19.43711],[-42.5692,-19.43716],[-42.56832,-19.43736],[-42.56808,-19.43735],[-42.56705,-19.43766],[-42.56665,-19.43786],[-42.56666,-19.43792],[-42.56663,-19.43812],[-42.56629,-19.43802],[-42.5658,-19.43793],[-42.5656,-19.43816],[-42.56518,-19.43821],[-42.56457,-19.43819],[-42.56409,-19.43826],[-42.56384,-19.43821],[-42.56368,-19.43823],[-42.56361,-19.43697],[-42.56362,-19.43607],[-42.56411,-19.43451],[-42.56442,-19.43361],[-42.56455,-19.43205],[-42.56483,-19.43134],[-42.56486,-19.4309],[-42.56443,-19.43084],[-42.56429,-19.42944],[-42.56403,-19.42956],[-42.56352,-19.42955],[-42.563,-19.42938],[-42.56233,-19.42932],[-42.5614,-19.42954],[-42.56001,-19.42984],[-42.55997,-19.42973],[-42.55989,-19.42971],[-42.55966,-19.42959],[-42.55945,-19.42961],[-42.55949,-19.42986],[-42.55792,-19.42946],[-42.55759,-19.42931],[-42.55732,-19.42915],[-42.55688,-19.42863],[-42.55675,-19.42824],[-42.55658,-19.42684],[-42.55504,-19.427],[-42.55458,-19.4271],[-42.55344,-19.42744],[-42.55263,-19.42752],[-42.55239,-19.42756],[-42.55228,-19.4272],[-42.55098,-19.42757],[-42.5596,-19.4022],[-42.5935,-19.379],[-42.6776,-19.3817],[-42.6852,-19.3682],[-42.706,-19.3905]]],[[[-42.56024,-19.44117],[-42.56017,-19.44022],[-42.5602,-19.44056],[-42.56024,-19.44117]]]]}},{"type":"Feature","properties":{"territory_id":"mg-3131307-horto","name":"Horto","municipality_id":"mg-3131307","polling_places":1,"approx":false,"official":true,"method":"official-ibge-cd2022","whole_municipality":false,"approx_coords_only":false,"official_name":"Horto","official_code":"3131307014","match":"direct"},"geometry":{"type":"MultiPolygon","coordinates":[[[[-42.56755,-19.50272],[-42.56832,-19.50413],[-42.569,-19.50515],[-42.56952,-19.50585],[-42.57029,-19.5068],[-42.57099,-19.50761],[-42.5716,-19.50827],[-42.57211,-19.50886],[-42.57379,-19.51067],[-42.57411,-19.51099],[-42.57434,-19.51127],[-42.57468,-19.51176],[-42.57523,-19.5128],[-42.57552,-19.51395],[-42.5756,-19.51445],[-42.57558,-19.5149],[-42.57608,-19.51524],[-42.5807,-19.51517],[-42.58044,-19.51453],[-42.58063,-19.51454],[-42.58172,-19.51377],[-42.58402,-19.51338],[-42.58473,-19.51194],[-42.58433,-19.51167],[-42.58281,-19.51029],[-42.58214,-19.50958],[-42.58204,-19.50942],[-42.58172,-19.50841],[-42.58108,-19.50827],[-42.58057,-19.50822],[-42.58036,-19.5079],[-42.58026,-19.50785],[-42.5802,-19.50777],[-42.58054,-19.50631],[-42.57993,-19.50469],[-42.5789,-19.50371],[-42.57968,-19.5012],[-42.58085,-19.49787],[-42.57965,-19.49646],[-42.57764,-19.4983],[-42.57684,-19.49851],[-42.57546,-19.49905],[-42.5739,-19.49978],[-42.57066,-19.5001],[-42.56981,-19.50042],[-42.56895,-19.50007],[-42.56875,-19.50047],[-42.56781,-19.50052],[-42.56773,-19.50066],[-42.56738,-19.50072],[-42.56728,-19.50081],[-42.56726,-19.50121],[-42.56708,-19.50169],[-42.56735,-19.50227],[-42.56755,-19.50272]]]]}},{"type":"Feature","properties":{"territory_id":"mg-3131307-ideal","name":"Ideal","municipality_id":"mg-3131307","polling_places":2,"approx":false,"official":true,"method":"official-ibge-cd2022","whole_municipality":false,"approx_coords_only":false,"official_name":"Ideal","official_code":"3131307016","match":"direct"},"geometry":{"type":"MultiPolygon","coordinates":[[[[-42.56951,-19.47868],[-42.57119,-19.48021],[-42.57119,-19.4797],[-42.57138,-19.47925],[-42.57161,-19.47912],[-42.57202,-19.47885],[-42.57296,-19.47778],[-42.57321,-19.47755],[-42.57374,-19.47719],[-42.57388,-19.47711],[-42.57408,-19.47703],[-42.57451,-19.47696],[-42.57492,-19.47629],[-42.5752,-19.47598],[-42.57581,-19.47538],[-42.57585,-19.47531],[-42.57672,-19.47494],[-42.57705,-19.47447],[-42.57704,-19.47418],[-42.57697,-19.47399],[-42.57682,-19.4737],[-42.57699,-19.47369],[-42.57569,-19.47162],[-42.57553,-19.47151],[-42.57527,-19.47144],[-42.57507,-19.47141],[-42.5748,-19.47149],[-42.57349,-19.47174],[-42.57328,-19.47171],[-42.57271,-19.47155],[-42.57229,-19.47135],[-42.57188,-19.47056],[-42.57179,-19.47027],[-42.5717,-19.47014],[-42.57123,-19.46985],[-42.57102,-19.46976],[-42.57064,-19.46966],[-42.57051,-19.46958],[-42.569,-19.46893],[-42.56879,-19.4688],[-42.5686,-19.46864],[-42.56847,-19.46847],[-42.56833,-19.46818],[-42.56805,-19.46721],[-42.56633,-19.46611],[-42.56577,-19.46581],[-42.5656,-19.4658],[-42.56529,-19.46583],[-42.56495,-19.46588],[-42.56462,-19.46598],[-42.5644,-19.46609],[-42.56423,-19.46624],[-42.56415,-19.46642],[-42.56411,-19.4672],[-42.56405,-19.46736],[-42.56396,-19.46771],[-42.56363,-19.4684],[-42.56364,-19.46887],[-42.56367,-19.46949],[-42.56364,-19.4699],[-42.56362,-19.47004],[-42.56351,-19.4702],[-42.5634,-19.47067],[-42.56331,-19.47134],[-42.5633,-19.47145],[-42.56331,-19.47168],[-42.56328,-19.47187],[-42.56303,-19.47195],[-42.56196,-19.47504],[-42.562,-19.47569],[-42.56215,-19.47607],[-42.56217,-19.47646],[-42.56325,-19.47767],[-42.56293,-19.47896],[-42.56286,-19.47908],[-42.56233,-19.47971],[-42.56216,-19.47988],[-42.56146,-19.48069],[-42.56081,-19.48138],[-42.56087,-19.48143],[-42.56106,-19.4815],[-42.56173,-19.48198],[-42.56205,-19.48168],[-42.56231,-19.48129],[-42.56307,-19.48045],[-42.56382,-19.48063],[-42.56432,-19.4808],[-42.56512,-19.48023],[-42.56536,-19.47995],[-42.56553,-19.47947],[-42.56566,-19.47921],[-42.56623,-19.47942],[-42.5668,-19.47961],[-42.56714,-19.47987],[-42.56758,-19.47986],[-42.56855,-19.47973],[-42.56895,-19.47955],[-42.56848,-19.47871],[-42.56841,-19.47856],[-42.56886,-19.47824],[-42.56942,-19.47873],[-42.56951,-19.47868]]]]}},{"type":"Feature","properties":{"territory_id":"mg-3131307-iguacu","name":"Iguaçu","municipality_id":"mg-3131307","polling_places":3,"approx":false,"official":true,"method":"official-ibge-cd2022","whole_municipality":false,"approx_coords_only":false,"official_name":"Iguaçu","official_code":"3131307003","match":"direct"},"geometry":{"type":"MultiPolygon","coordinates":[[[[-42.5536,-19.48062],[-42.5537,-19.48061],[-42.55417,-19.48037],[-42.55442,-19.48034],[-42.55474,-19.48034],[-42.55514,-19.48036],[-42.55561,-19.48044],[-42.55599,-19.48047],[-42.55645,-19.48048],[-42.55674,-19.48042],[-42.55733,-19.48024],[-42.55742,-19.48032],[-42.55791,-19.48031],[-42.5582,-19.48017],[-42.55841,-19.47996],[-42.55861,-19.47976],[-42.55917,-19.47933],[-42.55977,-19.47917],[-42.56016,-19.47875],[-42.56073,-19.47845],[-42.56137,-19.47825],[-42.56158,-19.47814],[-42.56272,-19.47923],[-42.56286,-19.47908],[-42.56293,-19.47896],[-42.56325,-19.47767],[-42.56217,-19.47646],[-42.56215,-19.47607],[-42.562,-19.47569],[-42.56196,-19.47504],[-42.56303,-19.47195],[-42.56328,-19.47187],[-42.56331,-19.47168],[-42.5633,-19.47145],[-42.56331,-19.47134],[-42.5634,-19.47067],[-42.56351,-19.4702],[-42.56331,-19.47019],[-42.56311,-19.4701],[-42.56281,-19.47],[-42.56243,-19.46995],[-42.56194,-19.46995],[-42.56161,-19.46999],[-42.56128,-19.46998],[-42.56091,-19.47006],[-42.56054,-19.47032],[-42.56032,-19.47065],[-42.55993,-19.47082],[-42.55971,-19.47095],[-42.55838,-19.47184],[-42.55807,-19.47192],[-42.55786,-19.47187],[-42.55772,-19.47174],[-42.5576,-19.47164],[-42.5573,-19.47133],[-42.5568,-19.47096],[-42.55643,-19.47074],[-42.55624,-19.47052],[-42.55603,-19.47055],[-42.55579,-19.47045],[-42.55488,-19.46996],[-42.55472,-19.46991],[-42.55388,-19.47002],[-42.55369,-19.47],[-42.5535,-19.46994],[-42.55335,-19.46981],[-42.55247,-19.46938],[-42.55176,-19.46939],[-42.55067,-19.46951],[-42.55023,-19.46958],[-42.54996,-19.46971],[-42.54945,-19.47001],[-42.54893,-19.4705],[-42.54785,-19.47116],[-42.54739,-19.47134],[-42.54695,-19.47128],[-42.54668,-19.47147],[-42.54656,-19.47151],[-42.54624,-19.47148],[-42.54646,-19.47178],[-42.54536,-19.47252],[-42.54482,-19.47182],[-42.5444,-19.47206],[-42.54423,-19.47219],[-42.54307,-19.47286],[-42.54294,-19.47267],[-42.54284,-19.47256],[-42.54278,-19.47281],[-42.54282,-19.47334],[-42.54285,-19.47342],[-42.54287,-19.47356],[-42.54285,-19.47382],[-42.54269,-19.4742],[-42.54254,-19.47464],[-42.54251,-19.47486],[-42.54255,-19.4753],[-42.54246,-19.47546],[-42.54239,-19.47561],[-42.54271,-19.47614],[-42.54303,-19.47673],[-42.54359,-19.47782],[-42.5441,-19.47872],[-42.54468,-19.47986],[-42.54485,-19.48012],[-42.545,-19.48046],[-42.54515,-19.48072],[-42.54538,-19.48105],[-42.54573,-19.48141],[-42.5462,-19.48176],[-42.54698,-19.48215],[-42.5474,-19.48233],[-42.54786,-19.48257],[-42.5485,-19.48238],[-42.54881,-19.48234],[-42.54902,-19.48226],[-42.54916,-19.48214],[-42.54955,-19.48171],[-42.54977,-19.48157],[-42.55011,-19.48141],[-42.55056,-19.4813],[-42.55108,-19.48152],[-42.55152,-19.48162],[-42.55184,-19.48177],[-42.55227,-19.48172],[-42.55277,-19.48159],[-42.55314,-19.48142],[-42.55334,-19.48119],[-42.5535,-19.48087],[-42.5536,-19.48062]]]]}},{"type":"Feature","properties":{"territory_id":"mg-3131307-imbaubas","name":"Imbaúbas","municipality_id":"mg-3131307","polling_places":1,"approx":false,"official":true,"method":"official-ibge-cd2022","whole_municipality":false,"approx_coords_only":false,"official_name":"Imbaúbas","official_code":"3131307017","match":"direct"},"geometry":{"type":"MultiPolygon","coordinates":[[[[-42.56451,-19.5087],[-42.56362,-19.50903],[-42.56335,-19.50915],[-42.56313,-19.50922],[-42.55876,-19.51102],[-42.55879,-19.51113],[-42.55874,-19.51122],[-42.55869,-19.51128],[-42.55859,-19.5113],[-42.5585,-19.51129],[-42.55788,-19.51156],[-42.55614,-19.51156],[-42.55549,-19.5116],[-42.55571,-19.51214],[-42.55601,-19.51318],[-42.55636,-19.51439],[-42.5565,-19.51513],[-42.55712,-19.51598],[-42.55791,-19.51701],[-42.55946,-19.51822],[-42.56066,-19.51878],[-42.56238,-19.5192],[-42.5642,-19.51982],[-42.56613,-19.52015],[-42.56691,-19.52036],[-42.56774,-19.52081],[-42.56868,-19.52137],[-42.56946,-19.52163],[-42.56982,-19.52178],[-42.57008,-19.52184],[-42.57035,-19.52164],[-42.5702,-19.52114],[-42.56963,-19.52034],[-42.56772,-19.51888],[-42.56762,-19.51823],[-42.5678,-19.51724],[-42.56828,-19.51636],[-42.56888,-19.51498],[-42.56908,-19.51435],[-42.56885,-19.514],[-42.56849,-19.51333],[-42.56795,-19.51187],[-42.56622,-19.50798],[-42.56526,-19.50839],[-42.5646,-19.50865],[-42.56451,-19.5087]]]]}},{"type":"Feature","properties":{"territory_id":"mg-3131307-jardim-panorama","name":"Jardim Panorama","municipality_id":"mg-3131307","polling_places":1,"approx":false,"official":true,"method":"official-ibge-cd2022","whole_municipality":false,"approx_coords_only":false,"official_name":"Jardim Panorama","official_code":"3131307005","match":"direct"},"geometry":{"type":"MultiPolygon","coordinates":[[[[-42.54122,-19.46683],[-42.54318,-19.46689],[-42.54346,-19.46692],[-42.54363,-19.46692],[-42.54401,-19.46705],[-42.54487,-19.46754],[-42.54555,-19.46835],[-42.54538,-19.46845],[-42.5458,-19.46906],[-42.54661,-19.47009],[-42.54883,-19.4687],[-42.54911,-19.46856],[-42.5494,-19.46892],[-42.5495,-19.46908],[-42.54971,-19.46932],[-42.54996,-19.46971],[-42.55023,-19.46958],[-42.55067,-19.46951],[-42.55176,-19.46939],[-42.55247,-19.46938],[-42.55335,-19.46981],[-42.5535,-19.46994],[-42.55369,-19.47],[-42.55388,-19.47002],[-42.55472,-19.46991],[-42.55488,-19.46996],[-42.55579,-19.47045],[-42.55603,-19.47055],[-42.55624,-19.47052],[-42.55647,-19.47042],[-42.5566,-19.47031],[-42.55673,-19.4701],[-42.55672,-19.46991],[-42.55666,-19.46967],[-42.55656,-19.4695],[-42.55644,-19.46939],[-42.55625,-19.46918],[-42.55589,-19.46888],[-42.55577,-19.46871],[-42.55572,-19.46854],[-42.55563,-19.4682],[-42.55548,-19.46747],[-42.55528,-19.46684],[-42.55509,-19.46604],[-42.55499,-19.46557],[-42.55472,-19.4646],[-42.55469,-19.46442],[-42.55469,-19.46416],[-42.55473,-19.46391],[-42.55474,-19.46354],[-42.55457,-19.46348],[-42.55425,-19.46325],[-42.55399,-19.46291],[-42.55372,-19.46252],[-42.55347,-19.46226],[-42.55333,-19.46217],[-42.55266,-19.46195],[-42.55263,-19.46189],[-42.55258,-19.46185],[-42.55204,-19.46296],[-42.55122,-19.46275],[-42.55014,-19.46253],[-42.55008,-19.46248],[-42.54841,-19.46204],[-42.54806,-19.46111],[-42.54792,-19.46007],[-42.54792,-19.45985],[-42.54785,-19.45949],[-42.54778,-19.45935],[-42.54779,-19.45894],[-42.54762,-19.45822],[-42.54651,-19.45819],[-42.54583,-19.45802],[-42.54507,-19.45776],[-42.54465,-19.4578],[-42.54455,-19.458],[-42.54448,-19.45821],[-42.54448,-19.4585],[-42.5444,-19.45867],[-42.54422,-19.45889],[-42.54408,-19.45902],[-42.54373,-19.45925],[-42.54365,-19.45939],[-42.54361,-19.4596],[-42.54359,-19.45982],[-42.54353,-19.45998],[-42.54314,-19.46035],[-42.54282,-19.46092],[-42.54259,-19.4611],[-42.5423,-19.46127],[-42.54187,-19.46125],[-42.54035,-19.46238],[-42.53942,-19.46258],[-42.53909,-19.46258],[-42.53773,-19.46233],[-42.53762,-19.46246],[-42.53721,-19.46315],[-42.53709,-19.46315],[-42.53676,-19.46312],[-42.53667,-19.46305],[-42.53658,-19.46281],[-42.53633,-19.46325],[-42.53634,-19.46351],[-42.53639,-19.46383],[-42.53553,-19.4638],[-42.53511,-19.46377],[-42.53493,-19.46406],[-42.53482,-19.46398],[-42.53466,-19.46395],[-42.53451,-19.46395],[-42.53432,-19.46401],[-42.53613,-19.46677],[-42.53627,-19.46679],[-42.53696,-19.46675],[-42.53811,-19.46679],[-42.53811,-19.46656],[-42.53842,-19.46655],[-42.53845,-19.46612],[-42.53986,-19.46617],[-42.53984,-19.46649],[-42.54068,-19.46651],[-42.54065,-19.46684],[-42.54122,-19.46683]]]]}},{"type":"Feature","properties":{"territory_id":"mg-3131307-limoeiro","name":"Limoeiro","municipality_id":"mg-3131307","polling_places":2,"approx":false,"official":true,"method":"official-ibge-cd2022","whole_municipality":false,"approx_coords_only":false,"official_name":"Limoeiro","official_code":"3131307011","match":"direct"},"geometry":{"type":"MultiPolygon","coordinates":[[[[-42.58009,-19.4532],[-42.57957,-19.45362],[-42.57937,-19.45424],[-42.57983,-19.4536],[-42.58021,-19.45393],[-42.58122,-19.45478],[-42.58171,-19.45534],[-42.58198,-19.4558],[-42.58311,-19.45639],[-42.58502,-19.45723],[-42.58615,-19.45789],[-42.58816,-19.45882],[-42.58932,-19.46031],[-42.59271,-19.46111],[-42.59483,-19.4615],[-42.60036,-19.46215],[-42.59994,-19.46139],[-42.60008,-19.45845],[-42.60011,-19.4568],[-42.59911,-19.45168],[-42.59831,-19.45103],[-42.59765,-19.45],[-42.59706,-19.44872],[-42.59684,-19.44806],[-42.59729,-19.44775],[-42.59823,-19.44785],[-42.59943,-19.44772],[-42.5999,-19.44765],[-42.60033,-19.44728],[-42.60038,-19.44704],[-42.60036,-19.44469],[-42.60022,-19.44423],[-42.59978,-19.44414],[-42.59965,-19.44403],[-42.59944,-19.44363],[-42.59928,-19.44339],[-42.59869,-19.44297],[-42.59831,-19.44291],[-42.59797,-19.44282],[-42.59771,-19.44269],[-42.59761,-19.44259],[-42.59731,-19.44246],[-42.59693,-19.44215],[-42.59684,-19.442],[-42.59675,-19.44195],[-42.59628,-19.44186],[-42.59601,-19.44189],[-42.59567,-19.44206],[-42.59548,-19.44208],[-42.59538,-19.44212],[-42.5953,-19.44217],[-42.59518,-19.44233],[-42.59493,-19.44245],[-42.59462,-19.4425],[-42.59447,-19.44251],[-42.5939,-19.44233],[-42.5938,-19.44236],[-42.59325,-19.44275],[-42.59311,-19.44279],[-42.59289,-19.44291],[-42.59259,-19.44338],[-42.59245,-19.44358],[-42.59186,-19.44409],[-42.59161,-19.44427],[-42.59071,-19.44463],[-42.59048,-19.44467],[-42.59027,-19.44476],[-42.59008,-19.44477],[-42.58995,-19.44481],[-42.5899,-19.44496],[-42.58979,-19.44501],[-42.58974,-19.44514],[-42.58969,-19.44617],[-42.58959,-19.44638],[-42.58944,-19.44656],[-42.58925,-19.44701],[-42.58919,-19.44721],[-42.58899,-19.44757],[-42.58886,-19.44786],[-42.5888,-19.44812],[-42.58881,-19.44853],[-42.58879,-19.44942],[-42.58888,-19.44999],[-42.58887,-19.45013],[-42.58877,-19.45028],[-42.58856,-19.45046],[-42.58835,-19.45059],[-42.58815,-19.45065],[-42.58797,-19.45066],[-42.58777,-19.45065],[-42.586,-19.45046],[-42.58582,-19.45047],[-42.58543,-19.45046],[-42.58469,-19.45051],[-42.58444,-19.45059],[-42.58412,-19.45066],[-42.584,-19.45063],[-42.58372,-19.45049],[-42.58335,-19.4505],[-42.58316,-19.45045],[-42.58296,-19.45044],[-42.58278,-19.45048],[-42.58228,-19.45076],[-42.58168,-19.45104],[-42.58111,-19.45163],[-42.58088,-19.45176],[-42.58064,-19.45184],[-42.5796,-19.45187],[-42.57967,-19.45211],[-42.58009,-19.4532]]]]}},{"type":"Feature","properties":{"territory_id":"mg-3131307-novo-cruzeiro","name":"Novo Cruzeiro","municipality_id":"mg-3131307","polling_places":1,"approx":false,"official":true,"method":"official-ibge-cd2022","whole_municipality":false,"approx_coords_only":false,"official_name":"Novo Cruzeiro","official_code":"3131307002","match":"direct"},"geometry":{"type":"MultiPolygon","coordinates":[[[[-42.54001,-19.47303],[-42.54007,-19.4728],[-42.54015,-19.47258],[-42.53894,-19.47133],[-42.53883,-19.47119],[-42.53798,-19.47037],[-42.537,-19.47122],[-42.53627,-19.4719],[-42.5357,-19.47323],[-42.53574,-19.47341],[-42.53608,-19.47374],[-42.53464,-19.47453],[-42.53453,-19.47451],[-42.5344,-19.47441],[-42.53432,-19.47439],[-42.53419,-19.47467],[-42.53403,-19.47472],[-42.53297,-19.4748],[-42.53315,-19.47557],[-42.53319,-19.47561],[-42.53336,-19.47626],[-42.53333,-19.47643],[-42.53324,-19.47657],[-42.53378,-19.47648],[-42.53409,-19.4764],[-42.53465,-19.47631],[-42.53509,-19.47635],[-42.5356,-19.47628],[-42.5367,-19.47607],[-42.5384,-19.47569],[-42.53965,-19.47501],[-42.53988,-19.47449],[-42.53993,-19.4742],[-42.53991,-19.47381],[-42.53993,-19.47364],[-42.54002,-19.47329],[-42.54008,-19.47315],[-42.54003,-19.47307],[-42.54001,-19.47303]]]]}},{"type":"Feature","properties":{"territory_id":"mg-3131307-parque-das-aguas","name":"Parque das Águas","municipality_id":"mg-3131307","polling_places":1,"approx":true,"official":false,"method":"voronoi-polling-places","whole_municipality":false,"approx_coords_only":false},"geometry":{"type":"MultiPolygon","coordinates":[[[[-42.52716,-19.45765],[-42.52713,-19.45784],[-42.52614,-19.4598],[-42.52588,-19.45955],[-42.52579,-19.45942],[-42.52558,-19.45929],[-42.52546,-19.459],[-42.52538,-19.45897],[-42.52539,-19.45933],[-42.5255,-19.45979],[-42.52574,-19.46023],[-42.52585,-19.46036],[-42.51473,-19.48218],[-42.51465,-19.48221],[-42.5143,-19.48245],[-42.51332,-19.4828],[-42.51263,-19.48316],[-42.51221,-19.48349],[-42.51156,-19.48405],[-42.51132,-19.48427],[-42.51065,-19.48482],[-42.50886,-19.48614],[-42.50861,-19.48628],[-42.5083,-19.48628],[-42.508,-19.48613],[-42.50777,-19.48581],[-42.50751,-19.48561],[-42.50716,-19.48558],[-42.50689,-19.48577],[-42.50655,-19.48615],[-42.50615,-19.4869],[-42.50604,-19.48714],[-42.506,-19.48807],[-42.50605,-19.48832],[-42.50591,-19.48879],[-42.50782,-19.48918],[-42.50839,-19.48922],[-42.50867,-19.48926],[-42.50899,-19.48928],[-42.51024,-19.48916],[-42.51098,-19.48896],[-42.51123,-19.48887],[-42.51136,-19.48881],[-42.50962,-19.49222],[-42.5023,-19.4921],[-42.5133,-19.4659],[-42.52716,-19.45765]]]]}},{"type":"Feature","properties":{"territory_id":"mg-3131307-pedra-branca","name":"Pedra Branca","municipality_id":"mg-3131307","polling_places":1,"approx":false,"official":true,"method":"official-ibge-cd2022","whole_municipality":false,"approx_coords_only":false,"official_name":"Pedra Branca","official_code":"3131307036","match":"direct"},"geometry":{"type":"MultiPolygon","coordinates":[[[[-42.57923,-19.3983],[-42.57814,-19.40092],[-42.5777,-19.40323],[-42.57607,-19.40457],[-42.57497,-19.40621],[-42.57459,-19.40816],[-42.57543,-19.41013],[-42.57581,-19.41203],[-42.57712,-19.41474],[-42.57853,-19.41919],[-42.57918,-19.41921],[-42.57924,-19.42265],[-42.58086,-19.42515],[-42.58608,-19.42928],[-42.58699,-19.42918],[-42.58765,-19.42944],[-42.58862,-19.42949],[-42.59309,-19.42759],[-42.59431,-19.42705],[-42.5948,-19.4269],[-42.59504,-19.42688],[-42.59906,-19.42767],[-42.60449,-19.42817],[-42.60734,-19.42861],[-42.60791,-19.4254],[-42.60812,-19.42101],[-42.60806,-19.41997],[-42.60732,-19.41818],[-42.60445,-19.41635],[-42.60223,-19.4146],[-42.60066,-19.41423],[-42.59856,-19.41395],[-42.59649,-19.41311],[-42.59479,-19.41031],[-42.59337,-19.40836],[-42.59195,-19.40722],[-42.59357,-19.40444],[-42.59487,-19.40162],[-42.59502,-19.39972],[-42.594,-19.39849],[-42.5911,-19.39689],[-42.59077,-19.39741],[-42.58964,-19.39779],[-42.58352,-19.39761],[-42.58215,-19.3974],[-42.58165,-19.39741],[-42.58114,-19.39745],[-42.58092,-19.39744],[-42.58075,-19.39746],[-42.57923,-19.3983]]]]}},{"type":"Feature","properties":{"territory_id":"mg-3131307-veneza-i","name":"Veneza I","municipality_id":"mg-3131307","polling_places":1,"approx":true,"official":false,"method":"voronoi-polling-places","whole_municipality":false,"approx_coords_only":false},"geometry":{"type":"MultiPolygon","coordinates":[[[[-42.54485,-19.49143],[-42.53649,-19.49769],[-42.53516,-19.49203],[-42.53636,-19.49143],[-42.53503,-19.48905],[-42.53477,-19.48862],[-42.53457,-19.48852],[-42.53435,-19.48846],[-42.53432,-19.48846],[-42.53161,-19.47692],[-42.5319,-19.47685],[-42.53238,-19.47677],[-42.53324,-19.47657],[-42.53378,-19.47648],[-42.53409,-19.4764],[-42.53465,-19.47631],[-42.53509,-19.47635],[-42.5356,-19.47628],[-42.5367,-19.47607],[-42.5384,-19.47569],[-42.53965,-19.47501],[-42.53988,-19.47449],[-42.53993,-19.4742],[-42.53991,-19.47381],[-42.53993,-19.47364],[-42.54002,-19.47329],[-42.54008,-19.47315],[-42.54003,-19.47307],[-42.54001,-19.47303],[-42.54007,-19.4728],[-42.54015,-19.47258],[-42.53894,-19.47133],[-42.53883,-19.47119],[-42.53798,-19.47037],[-42.537,-19.47122],[-42.53627,-19.4719],[-42.5357,-19.47323],[-42.53574,-19.47341],[-42.53608,-19.47374],[-42.53464,-19.47453],[-42.53453,-19.47451],[-42.5344,-19.47441],[-42.53432,-19.47439],[-42.53419,-19.47467],[-42.53403,-19.47472],[-42.53297,-19.4748],[-42.53315,-19.47557],[-42.53276,-19.47395],[-42.53259,-19.47365],[-42.53248,-19.47357],[-42.53245,-19.47306],[-42.53191,-19.47314],[-42.53109,-19.47313],[-42.53072,-19.47313],[-42.52795,-19.46133],[-42.53025,-19.46173],[-42.53089,-19.4619],[-42.53197,-19.4621],[-42.53247,-19.46224],[-42.53275,-19.46236],[-42.53308,-19.46255],[-42.5332,-19.46263],[-42.53341,-19.46283],[-42.53366,-19.46309],[-42.53384,-19.46332],[-42.53432,-19.46401],[-42.53613,-19.46677],[-42.53627,-19.46679],[-42.53696,-19.46675],[-42.53811,-19.46679],[-42.53811,-19.46656],[-42.53842,-19.46655],[-42.53845,-19.46612],[-42.53986,-19.46617],[-42.53984,-19.46649],[-42.54068,-19.46651],[-42.54065,-19.46684],[-42.54122,-19.46683],[-42.54264,-19.46687],[-42.54317,-19.4728],[-42.54307,-19.47286],[-42.54294,-19.47267],[-42.54284,-19.47256],[-42.54278,-19.47281],[-42.54282,-19.47334],[-42.54285,-19.47342],[-42.54287,-19.47356],[-42.54285,-19.47382],[-42.54269,-19.4742],[-42.54254,-19.47464],[-42.54251,-19.47486],[-42.54255,-19.4753],[-42.54246,-19.47546],[-42.54239,-19.47561],[-42.54271,-19.47614],[-42.54303,-19.47673],[-42.54359,-19.47782],[-42.54363,-19.47789],[-42.54485,-19.49143]]],[[[-42.53658,-19.46281],[-42.53633,-19.46325],[-42.53653,-19.4629],[-42.53658,-19.46281]]],[[[-42.5357,-19.45466],[-42.53547,-19.45471],[-42.53516,-19.45489],[-42.53459,-19.45528],[-42.53389,-19.45582],[-42.5331,-19.45658],[-42.53256,-19.45682],[-42.53241,-19.45691],[-42.53148,-19.45751],[-42.53009,-19.45837],[-42.52943,-19.45875],[-42.52927,-19.45893],[-42.5291,-19.4592],[-42.52875,-19.45962],[-42.52859,-19.45969],[-42.52806,-19.45981],[-42.52786,-19.45983],[-42.52761,-19.45988],[-42.52713,-19.45784],[-42.52716,-19.45765],[-42.53442,-19.45332],[-42.5357,-19.45466]]]]}},{"type":"Feature","properties":{"territory_id":"mg-3131307-veneza-ii","name":"Veneza Ii","municipality_id":"mg-3131307","polling_places":1,"approx":true,"official":false,"method":"voronoi-polling-places","whole_municipality":false,"approx_coords_only":false},"geometry":{"type":"MultiPolygon","coordinates":[[[[-42.53649,-19.49769],[-42.53545,-19.49864],[-42.53515,-19.49821],[-42.53252,-19.49365],[-42.53241,-19.49348],[-42.535,-19.49211],[-42.53516,-19.49203],[-42.53649,-19.49769]]],[[[-42.53432,-19.48846],[-42.53292,-19.48822],[-42.5327,-19.48815],[-42.53227,-19.48805],[-42.53213,-19.488],[-42.53189,-19.48798],[-42.53158,-19.48799],[-42.53144,-19.48802],[-42.53128,-19.48809],[-42.53112,-19.48818],[-42.52974,-19.48976],[-42.52964,-19.48981],[-42.52905,-19.48984],[-42.52887,-19.48989],[-42.52864,-19.48974],[-42.52838,-19.48953],[-42.5281,-19.4893],[-42.52739,-19.48882],[-42.52703,-19.48867],[-42.52649,-19.4886],[-42.52612,-19.48859],[-42.52543,-19.48851],[-42.52519,-19.48852],[-42.52496,-19.48848],[-42.52475,-19.48848],[-42.52435,-19.48818],[-42.5242,-19.48804],[-42.52408,-19.48795],[-42.5238,-19.48826],[-42.52312,-19.48839],[-42.52202,-19.48852],[-42.52145,-19.48861],[-42.52133,-19.48875],[-42.51962,-19.49038],[-42.51922,-19.49078],[-42.51803,-19.49175],[-42.51766,-19.49218],[-42.51837,-19.49232],[-42.51994,-19.49273],[-42.52184,-19.493],[-42.52479,-19.49335],[-42.52759,-19.49512],[-42.52833,-19.49564],[-42.52935,-19.49643],[-42.53112,-19.49804],[-42.53255,-19.49921],[-42.53338,-19.49966],[-42.53412,-19.49986],[-42.53402,-19.49995],[-42.5143,-19.4923],[-42.50962,-19.49222],[-42.51136,-19.48881],[-42.51194,-19.48854],[-42.5125,-19.48819],[-42.5136,-19.48746],[-42.51396,-19.48724],[-42.51433,-19.48704],[-42.51473,-19.48686],[-42.51527,-19.48664],[-42.51569,-19.48643],[-42.51592,-19.48634],[-42.51622,-19.48621],[-42.51634,-19.48612],[-42.51735,-19.48518],[-42.51745,-19.48489],[-42.51744,-19.48463],[-42.51733,-19.48436],[-42.5172,-19.48409],[-42.51711,-19.48396],[-42.51664,-19.48355],[-42.51816,-19.48257],[-42.51882,-19.48245],[-42.51991,-19.48242],[-42.52213,-19.48179],[-42.52345,-19.48144],[-42.52457,-19.48112],[-42.52567,-19.4808],[-42.52805,-19.48014],[-42.52824,-19.48008],[-42.52843,-19.47999],[-42.52866,-19.47982],[-42.52886,-19.47954],[-42.52931,-19.47846],[-42.52949,-19.47813],[-42.52974,-19.4778],[-42.52997,-19.47757],[-42.5301,-19.47747],[-42.53037,-19.47729],[-42.53073,-19.47712],[-42.53095,-19.47706],[-42.53161,-19.47692],[-42.53432,-19.48846]]],[[[-42.53072,-19.47313],[-42.52923,-19.47315],[-42.52879,-19.4732],[-42.52819,-19.47339],[-42.528,-19.47354],[-42.52758,-19.47397],[-42.52745,-19.47408],[-42.52722,-19.47431],[-42.52699,-19.47459],[-42.52676,-19.4748],[-42.52633,-19.47528],[-42.52593,-19.47569],[-42.52567,-19.476],[-42.52512,-19.47653],[-42.52492,-19.47666],[-42.52422,-19.47699],[-42.52364,-19.47716],[-42.52317,-19.47714],[-42.52249,-19.47689],[-42.52219,-19.47686],[-42.52205,-19.47688],[-42.52161,-19.4771],[-42.52144,-19.47735],[-42.52135,-19.47758],[-42.52105,-19.4781],[-42.52082,-19.47846],[-42.52011,-19.47939],[-42.51993,-19.47973],[-42.51963,-19.4802],[-42.51943,-19.48038],[-42.51924,-19.48044],[-42.51904,-19.48044],[-42.51872,-19.48037],[-42.51818,-19.48034],[-42.51796,-19.48038],[-42.51778,-19.48045],[-42.5176,-19.48057],[-42.51746,-19.48073],[-42.51734,-19.48102],[-42.51648,-19.48178],[-42.51634,-19.48198],[-42.51598,-19.48213],[-42.51576,-19.48217],[-42.51556,-19.48218],[-42.51529,-19.48217],[-42.51502,-19.48212],[-42.51479,-19.48216],[-42.51473,-19.48218],[-42.52585,-19.46036],[-42.52598,-19.4605],[-42.52632,-19.4608],[-42.52686,-19.4611],[-42.52719,-19.46119],[-42.52795,-19.46133],[-42.53072,-19.47313]]],[[[-42.52761,-19.45988],[-42.52757,-19.45989],[-42.52736,-19.45998],[-42.5272,-19.46017],[-42.52682,-19.46018],[-42.52661,-19.46016],[-42.52644,-19.46012],[-42.52628,-19.46],[-42.5262,-19.45991],[-42.52614,-19.4598],[-42.52713,-19.45784],[-42.52761,-19.45988]]]]}},{"type":"Feature","properties":{"territory_id":"mg-3131307-vila-celeste","name":"Vila Celeste","municipality_id":"mg-3131307","polling_places":2,"approx":false,"official":true,"method":"official-ibge-cd2022","whole_municipality":false,"approx_coords_only":false,"official_name":"Vila Celeste","official_code":"3131307008","match":"direct"},"geometry":{"type":"MultiPolygon","coordinates":[[[[-42.55993,-19.45674],[-42.56025,-19.45676],[-42.56061,-19.45674],[-42.56089,-19.45667],[-42.56116,-19.45666],[-42.5624,-19.4568],[-42.56304,-19.45665],[-42.56329,-19.45662],[-42.56354,-19.45665],[-42.56373,-19.45666],[-42.56394,-19.45675],[-42.56461,-19.45684],[-42.56496,-19.45683],[-42.56551,-19.4567],[-42.56575,-19.45669],[-42.56595,-19.4567],[-42.56631,-19.45679],[-42.56687,-19.45683],[-42.56723,-19.45679],[-42.56751,-19.45671],[-42.56759,-19.45664],[-42.56767,-19.45645],[-42.56789,-19.45613],[-42.5682,-19.4559],[-42.56894,-19.45549],[-42.56936,-19.45534],[-42.56949,-19.4552],[-42.56972,-19.45512],[-42.57017,-19.45503],[-42.57086,-19.45509],[-42.57108,-19.45517],[-42.5712,-19.45525],[-42.57133,-19.45531],[-42.57151,-19.45535],[-42.5719,-19.45533],[-42.57218,-19.45534],[-42.57276,-19.45548],[-42.57302,-19.45552],[-42.57343,-19.45565],[-42.57356,-19.45577],[-42.574,-19.45589],[-42.57407,-19.45596],[-42.5742,-19.456],[-42.57507,-19.45562],[-42.57548,-19.4551],[-42.57564,-19.45479],[-42.57574,-19.45471],[-42.57497,-19.45389],[-42.57405,-19.45315],[-42.57224,-19.45178],[-42.57212,-19.45172],[-42.57196,-19.45147],[-42.57174,-19.45031],[-42.57165,-19.44951],[-42.57166,-19.44937],[-42.57172,-19.4492],[-42.57203,-19.44874],[-42.57284,-19.44828],[-42.57305,-19.44812],[-42.57423,-19.4476],[-42.57459,-19.44696],[-42.57477,-19.44677],[-42.57484,-19.44641],[-42.57487,-19.44603],[-42.5748,-19.4457],[-42.57459,-19.44521],[-42.57439,-19.44482],[-42.57404,-19.44404],[-42.57387,-19.44354],[-42.57361,-19.44319],[-42.57219,-19.44041],[-42.57164,-19.43809],[-42.5718,-19.43766],[-42.57234,-19.43681],[-42.57245,-19.43652],[-42.57245,-19.43621],[-42.57228,-19.43583],[-42.57197,-19.43573],[-42.57088,-19.43593],[-42.57044,-19.43611],[-42.5702,-19.43629],[-42.56983,-19.43687],[-42.56958,-19.43711],[-42.5692,-19.43716],[-42.56832,-19.43736],[-42.56808,-19.43735],[-42.56705,-19.43766],[-42.56665,-19.43786],[-42.56666,-19.43792],[-42.56663,-19.43812],[-42.56629,-19.43802],[-42.5658,-19.43793],[-42.5656,-19.43816],[-42.56518,-19.43821],[-42.56457,-19.43819],[-42.56409,-19.43826],[-42.56384,-19.43821],[-42.56368,-19.43823],[-42.56339,-19.43811],[-42.56307,-19.4381],[-42.56305,-19.43819],[-42.56302,-19.43823],[-42.56289,-19.43823],[-42.5622,-19.438],[-42.5617,-19.43785],[-42.56151,-19.4378],[-42.56078,-19.4377],[-42.5594,-19.43758],[-42.55925,-19.4375],[-42.55905,-19.43771],[-42.55916,-19.43783],[-42.5593,-19.43803],[-42.55919,-19.43826],[-42.55926,-19.43857],[-42.55937,-19.43889],[-42.55965,-19.4394],[-42.55995,-19.43984],[-42.56017,-19.44022],[-42.5602,-19.44056],[-42.56024,-19.44117],[-42.56023,-19.44153],[-42.56019,-19.44193],[-42.56014,-19.44213],[-42.56011,-19.44252],[-42.5601,-19.44286],[-42.56005,-19.44302],[-42.56002,-19.44324],[-42.56002,-19.44355],[-42.56003,-19.44394],[-42.56009,-19.44475],[-42.56008,-19.44601],[-42.56009,-19.44622],[-42.56016,-19.44671],[-42.56032,-19.44729],[-42.56038,-19.44757],[-42.56022,-19.44915],[-42.56013,-19.44984],[-42.56003,-19.44994],[-42.55893,-19.45034],[-42.55851,-19.45061],[-42.55818,-19.45125],[-42.55791,-19.45184],[-42.55737,-19.45261],[-42.55702,-19.45307],[-42.55675,-19.45354],[-42.55657,-19.45394],[-42.55631,-19.45479],[-42.55591,-19.45646],[-42.55623,-19.4565],[-42.5561,-19.45711],[-42.55658,-19.4572],[-42.55689,-19.45709],[-42.55789,-19.4569],[-42.55822,-19.45681],[-42.55882,-19.45683],[-42.55909,-19.45679],[-42.55985,-19.45674],[-42.55993,-19.45674]]]]}},{"type":"Feature","properties":{"territory_id":"mg-3131307-vila-formosa","name":"Vila Formosa","municipality_id":"mg-3131307","polling_places":1,"approx":true,"official":false,"method":"voronoi-polling-places","whole_municipality":false,"approx_coords_only":false},"geometry":{"type":"MultiPolygon","coordinates":[[[[-42.69755,-19.41138],[-42.695,-19.4177],[-42.6578,-19.4441],[-42.5978,-19.4653],[-42.60446,-19.49145],[-42.59333,-19.48916],[-42.5972,-19.48668],[-42.59761,-19.48612],[-42.59821,-19.48578],[-42.5987,-19.48567],[-42.59868,-19.48501],[-42.5987,-19.4841],[-42.59902,-19.4828],[-42.5989,-19.48233],[-42.59861,-19.48199],[-42.59816,-19.48184],[-42.59756,-19.48183],[-42.59697,-19.48175],[-42.59653,-19.48161],[-42.59621,-19.48133],[-42.59599,-19.48095],[-42.59596,-19.48033],[-42.5961,-19.47961],[-42.59611,-19.47931],[-42.59584,-19.47891],[-42.59553,-19.47859],[-42.59539,-19.4783],[-42.59522,-19.47786],[-42.59212,-19.48074],[-42.59058,-19.48208],[-42.59017,-19.48256],[-42.58934,-19.48389],[-42.58858,-19.48331],[-42.58471,-19.48047],[-42.58511,-19.47998],[-42.58657,-19.48104],[-42.58796,-19.4793],[-42.59227,-19.4741],[-42.59188,-19.47382],[-42.59069,-19.47329],[-42.58885,-19.47204],[-42.58806,-19.47166],[-42.58689,-19.47093],[-42.58699,-19.47027],[-42.58716,-19.46982],[-42.58676,-19.46938],[-42.58662,-19.4692],[-42.58635,-19.46913],[-42.58528,-19.46902],[-42.5844,-19.46901],[-42.58404,-19.46895],[-42.58359,-19.46868],[-42.5835,-19.46878],[-42.5834,-19.46883],[-42.58364,-19.46833],[-42.58358,-19.46754],[-42.58377,-19.46583],[-42.58366,-19.46555],[-42.58329,-19.46519],[-42.58297,-19.46483],[-42.58182,-19.46326],[-42.58109,-19.46251],[-42.58057,-19.46225],[-42.58012,-19.4612],[-42.57991,-19.45963],[-42.57978,-19.45907],[-42.57914,-19.45801],[-42.57805,-19.45684],[-42.57744,-19.45622],[-42.57724,-19.45595],[-42.57676,-19.45524],[-42.57628,-19.4551],[-42.57598,-19.45489],[-42.57574,-19.45471],[-42.57586,-19.4547],[-42.57631,-19.45454],[-42.57685,-19.45455],[-42.57721,-19.45462],[-42.57757,-19.45462],[-42.57776,-19.45452],[-42.57797,-19.45431],[-42.57825,-19.45359],[-42.57844,-19.45291],[-42.57874,-19.45224],[-42.57902,-19.45193],[-42.5792,-19.45185],[-42.5796,-19.45187],[-42.57967,-19.45211],[-42.58009,-19.4532],[-42.57957,-19.45362],[-42.57937,-19.45424],[-42.57983,-19.4536],[-42.58021,-19.45393],[-42.58122,-19.45478],[-42.58171,-19.45534],[-42.58198,-19.4558],[-42.58311,-19.45639],[-42.58502,-19.45723],[-42.58615,-19.45789],[-42.58816,-19.45882],[-42.58932,-19.46031],[-42.59271,-19.46111],[-42.59483,-19.4615],[-42.60036,-19.46215],[-42.59994,-19.46139],[-42.60008,-19.45845],[-42.60011,-19.4568],[-42.59911,-19.45168],[-42.59831,-19.45103],[-42.59765,-19.45],[-42.59706,-19.44872],[-42.59684,-19.44806],[-42.59729,-19.44775],[-42.59823,-19.44785],[-42.59943,-19.44772],[-42.5999,-19.44765],[-42.60033,-19.44728],[-42.60038,-19.44704],[-42.60036,-19.44469],[-42.60022,-19.44423],[-42.60017,-19.44403],[-42.59986,-19.44102],[-42.60013,-19.44019],[-42.60054,-19.43933],[-42.60138,-19.4385],[-42.60321,-19.43758],[-42.60473,-19.43654],[-42.69755,-19.41138]]],[[[-42.59797,-19.44282],[-42.59771,-19.44269],[-42.59777,-19.44272],[-42.59797,-19.44282]]],[[[-42.59447,-19.44251],[-42.5939,-19.44233],[-42.594,-19.44235],[-42.59447,-19.44251]]],[[[-42.58228,-19.45076],[-42.58168,-19.45104],[-42.58195,-19.45091],[-42.582,-19.45089],[-42.58228,-19.45076]]],[[[-42.58012,-19.46224],[-42.57954,-19.46225],[-42.57993,-19.46224],[-42.58012,-19.46224]]],[[[-42.57327,-19.48503],[-42.5699,-19.48433],[-42.56883,-19.47961],[-42.56895,-19.47955],[-42.56872,-19.47914],[-42.56856,-19.47845],[-42.56886,-19.47824],[-42.56942,-19.47873],[-42.56951,-19.47868],[-42.57119,-19.48021],[-42.57159,-19.48066],[-42.57078,-19.48135],[-42.56957,-19.48255],[-42.57006,-19.4831],[-42.57035,-19.48337],[-42.57084,-19.48368],[-42.5716,-19.48365],[-42.57196,-19.48366],[-42.57248,-19.4838],[-42.57273,-19.48395],[-42.57297,-19.48408],[-42.57318,-19.48442],[-42.57325,-19.48467],[-42.57327,-19.48503]]],[[[-42.56805,-19.46721],[-42.56633,-19.46611],[-42.56668,-19.46633],[-42.56805,-19.46721]]]]}},{"type":"Feature","properties":{"territory_id":"mg-3131307-vila-ipanema","name":"Vila Ipanema","municipality_id":"mg-3131307","polling_places":1,"approx":false,"official":true,"method":"official-ibge-cd2022","whole_municipality":false,"approx_coords_only":false,"official_name":"Vila Ipanema","official_code":"3131307022","match":"direct"},"geometry":{"type":"MultiPolygon","coordinates":[[[[-42.51473,-19.48686],[-42.51527,-19.48664],[-42.51569,-19.48643],[-42.51592,-19.48634],[-42.51622,-19.48621],[-42.51634,-19.48612],[-42.51735,-19.48518],[-42.51745,-19.48489],[-42.51744,-19.48463],[-42.51733,-19.48436],[-42.5172,-19.48409],[-42.51711,-19.48396],[-42.51664,-19.48355],[-42.51654,-19.48357],[-42.51614,-19.48322],[-42.51601,-19.48314],[-42.51583,-19.48313],[-42.51592,-19.48293],[-42.51598,-19.48213],[-42.51576,-19.48217],[-42.51556,-19.48218],[-42.51529,-19.48217],[-42.51502,-19.48212],[-42.51479,-19.48216],[-42.51465,-19.48221],[-42.5143,-19.48245],[-42.51332,-19.4828],[-42.51263,-19.48316],[-42.51221,-19.48349],[-42.51156,-19.48405],[-42.51132,-19.48427],[-42.51065,-19.48482],[-42.50886,-19.48614],[-42.50861,-19.48628],[-42.5083,-19.48628],[-42.508,-19.48613],[-42.50777,-19.48581],[-42.50751,-19.48561],[-42.50716,-19.48558],[-42.50689,-19.48577],[-42.50655,-19.48615],[-42.50615,-19.4869],[-42.50604,-19.48714],[-42.506,-19.48807],[-42.50605,-19.48832],[-42.50591,-19.48879],[-42.50782,-19.48918],[-42.50839,-19.48922],[-42.50867,-19.48926],[-42.50899,-19.48928],[-42.51024,-19.48916],[-42.51098,-19.48896],[-42.51123,-19.48887],[-42.51194,-19.48854],[-42.5125,-19.48819],[-42.5136,-19.48746],[-42.51396,-19.48724],[-42.51433,-19.48704],[-42.51473,-19.48686]]]]}}]}