{"type":"FeatureCollection","features":[{"type":"Feature","properties":{"territory_id":"mg-3131802-boa-uniao","name":"Boa União","municipality_id":"mg-3131802","polling_places":1,"approx":true,"official":false,"method":"voronoi-polling-places","whole_municipality":false,"approx_coords_only":false},"geometry":{"type":"MultiPolygon","coordinates":[[[[-41.3206,-18.5051],[-41.2946,-18.5154],[-41.28992,-18.55219],[-41.27337,-18.53606],[-41.23732,-18.49277],[-41.24618,-18.49099],[-41.2823,-18.5015],[-41.31006,-18.47816],[-41.31213,-18.47775],[-41.3206,-18.5051]]]]}},{"type":"Feature","properties":{"territory_id":"mg-3131802-centro","name":"Centro","municipality_id":"mg-3131802","polling_places":2,"approx":true,"official":false,"method":"voronoi-polling-places","whole_municipality":false,"approx_coords_only":false},"geometry":{"type":"MultiPolygon","coordinates":[[[[-41.305,-18.5896],[-41.27886,-18.63566],[-41.23448,-18.56697],[-41.21177,-18.57861],[-41.2114,-18.5765],[-41.20931,-18.57326],[-41.23836,-18.55948],[-41.27337,-18.53606],[-41.28992,-18.55219],[-41.2887,-18.5618],[-41.305,-18.5896]]]]}},{"type":"Feature","properties":{"territory_id":"mg-3131802-jose-miguel-moreira","name":"José Miguel Moreira","municipality_id":"mg-3131802","polling_places":1,"approx":true,"official":false,"method":"voronoi-polling-places","whole_municipality":false,"approx_coords_only":false},"geometry":{"type":"MultiPolygon","coordinates":[[[[-41.27337,-18.53606],[-41.23836,-18.55948],[-41.20931,-18.57326],[-41.19,-18.5433],[-41.158,-18.528],[-41.1876,-18.5016],[-41.18412,-18.45584],[-41.23732,-18.49277],[-41.27337,-18.53606]]]]}},{"type":"Feature","properties":{"territory_id":"mg-3131802-nova-uniao","name":"Nova União","municipality_id":"mg-3131802","polling_places":1,"approx":true,"official":false,"method":"voronoi-polling-places","whole_municipality":false,"approx_coords_only":false},"geometry":{"type":"MultiPolygon","coordinates":[[[[-41.31213,-18.47775],[-41.31006,-18.47816],[-41.3118,-18.4767],[-41.31213,-18.47775]]],[[[-41.24618,-18.49099],[-41.23732,-18.49277],[-41.18412,-18.45584],[-41.1831,-18.4424],[-41.239,-18.4889],[-41.24618,-18.49099]]]]}},{"type":"Feature","properties":{"territory_id":"mg-3131802-sao-sebastiao-do-itabira","name":"São Sebastião do Itabira","municipality_id":"mg-3131802","polling_places":1,"approx":true,"official":false,"method":"voronoi-polling-places","whole_municipality":false,"approx_coords_only":false},"geometry":{"type":"MultiPolygon","coordinates":[[[[-41.27886,-18.63566],[-41.2647,-18.6606],[-41.2248,-18.6538],[-41.21177,-18.57861],[-41.23448,-18.56697],[-41.27886,-18.63566]]]]}}]}