{"type":"FeatureCollection","features":[{"type":"Feature","properties":{"territory_id":"mg-3131901-agua-limpa-80-km","name":"Água Limpa - 80 Km","municipality_id":"mg-3131901","polling_places":1,"approx":true,"official":false,"method":"voronoi-polling-places","whole_municipality":false,"approx_coords_only":false},"geometry":{"type":"MultiPolygon","coordinates":[[[[-43.9761,-20.2227],[-43.9646,-20.2594],[-43.9501,-20.2793],[-43.94695,-20.29562],[-43.93495,-20.29197],[-43.89543,-20.26277],[-43.87507,-20.22349],[-43.879,-20.20579],[-43.9076,-20.2152],[-43.9379,-20.2079],[-43.9761,-20.2227]]]]}},{"type":"Feature","properties":{"territory_id":"mg-3131901-bairro-boa-viagem","name":"Bairro Boa Viagem","municipality_id":"mg-3131901","polling_places":1,"approx":false,"official":true,"method":"official-ibge-cd2022","whole_municipality":false,"approx_coords_only":false,"official_name":"Boa Viagem","official_code":"3131901002","match":"prefix"},"geometry":{"type":"MultiPolygon","coordinates":[[[[-43.80404,-20.2519],[-43.80412,-20.25194],[-43.80434,-20.25201],[-43.80443,-20.25209],[-43.80454,-20.25223],[-43.8047,-20.25255],[-43.80475,-20.25269],[-43.80479,-20.25296],[-43.80479,-20.25322],[-43.80481,-20.25331],[-43.80485,-20.25336],[-43.80397,-20.25425],[-43.80387,-20.25441],[-43.804,-20.25445],[-43.80468,-20.25454],[-43.80499,-20.25452],[-43.80519,-20.25453],[-43.80573,-20.25475],[-43.80609,-20.25498],[-43.80648,-20.25528],[-43.80678,-20.25544],[-43.80726,-20.25566],[-43.80735,-20.2557],[-43.8075,-20.25565],[-43.80763,-20.25557],[-43.80767,-20.25544],[-43.8077,-20.25503],[-43.80783,-20.25433],[-43.80812,-20.25421],[-43.8083,-20.25417],[-43.8082,-20.25394],[-43.80804,-20.25373],[-43.80754,-20.25318],[-43.8077,-20.25306],[-43.80795,-20.25294],[-43.8082,-20.25288],[-43.80802,-20.2526],[-43.80793,-20.25241],[-43.8079,-20.25221],[-43.80788,-20.25199],[-43.80775,-20.25167],[-43.80758,-20.25141],[-43.80737,-20.25114],[-43.80708,-20.25081],[-43.80691,-20.25066],[-43.80678,-20.25071],[-43.80665,-20.25073],[-43.8065,-20.25082],[-43.80602,-20.25119],[-43.80564,-20.25138],[-43.80536,-20.25143],[-43.80449,-20.25171],[-43.80412,-20.25186],[-43.80406,-20.25187],[-43.80404,-20.2519]]]]}},{"type":"Feature","properties":{"territory_id":"mg-3131901-bela-vista","name":"Bela Vista","municipality_id":"mg-3131901","polling_places":2,"approx":false,"official":true,"method":"official-ibge-cd2022","whole_municipality":false,"approx_coords_only":false,"official_name":"Bela Vista","official_code":"3131901007","match":"direct"},"geometry":{"type":"MultiPolygon","coordinates":[[[[-43.7995,-20.24849],[-43.79968,-20.24757],[-43.7997,-20.24732],[-43.79887,-20.24719],[-43.79776,-20.24704],[-43.79771,-20.24754],[-43.79768,-20.24767],[-43.79758,-20.24789],[-43.79743,-20.24806],[-43.79721,-20.24823],[-43.79704,-20.24832],[-43.79679,-20.24882],[-43.79648,-20.24933],[-43.796,-20.25027],[-43.79581,-20.25071],[-43.79585,-20.2509],[-43.79615,-20.25203],[-43.79546,-20.25217],[-43.79571,-20.25273],[-43.79583,-20.25315],[-43.79589,-20.25362],[-43.79595,-20.25388],[-43.79605,-20.25423],[-43.79635,-20.25456],[-43.79631,-20.25468],[-43.79647,-20.25514],[-43.79659,-20.25535],[-43.79701,-20.25592],[-43.79712,-20.25613],[-43.79779,-20.25609],[-43.79825,-20.25595],[-43.79857,-20.25582],[-43.79896,-20.25552],[-43.79929,-20.25524],[-43.79957,-20.25492],[-43.80021,-20.25431],[-43.80041,-20.25401],[-43.80053,-20.25374],[-43.80056,-20.25341],[-43.80039,-20.25338],[-43.80023,-20.25376],[-43.80011,-20.25393],[-43.79971,-20.25399],[-43.79963,-20.25403],[-43.79959,-20.25422],[-43.79951,-20.25434],[-43.79899,-20.25441],[-43.79905,-20.25349],[-43.79915,-20.25258],[-43.79922,-20.2516],[-43.79929,-20.2514],[-43.79958,-20.25126],[-43.7996,-20.25119],[-43.8002,-20.25048],[-43.79981,-20.24946],[-43.79949,-20.24858],[-43.7995,-20.24849]]]]}},{"type":"Feature","properties":{"territory_id":"mg-3131901-bonsucesso","name":"Bonsucesso","municipality_id":"mg-3131901","polling_places":1,"approx":true,"official":false,"method":"voronoi-polling-places","whole_municipality":false,"approx_coords_only":false},"geometry":{"type":"MultiPolygon","coordinates":[[[[-43.75556,-20.24791],[-43.7551,-20.27067],[-43.75367,-20.27753],[-43.7517,-20.2685],[-43.6986,-20.2561],[-43.66414,-20.2352],[-43.74396,-20.22979],[-43.75556,-20.24791]]]]}},{"type":"Feature","properties":{"territory_id":"mg-3131901-cardoso","name":"Cardoso","municipality_id":"mg-3131901","polling_places":1,"approx":false,"official":true,"method":"official-ibge-cd2022","whole_municipality":false,"approx_coords_only":false,"official_name":"Cardoso","official_code":"3131901011","match":"direct"},"geometry":{"type":"MultiPolygon","coordinates":[[[[-43.80197,-20.27294],[-43.80156,-20.27217],[-43.80148,-20.27179],[-43.80152,-20.2715],[-43.80167,-20.27107],[-43.80172,-20.27108],[-43.80179,-20.27107],[-43.80182,-20.27111],[-43.80188,-20.27109],[-43.80203,-20.27113],[-43.80218,-20.27098],[-43.80265,-20.27088],[-43.80298,-20.27107],[-43.80333,-20.27116],[-43.80372,-20.27118],[-43.80401,-20.27096],[-43.80422,-20.2706],[-43.8044,-20.27018],[-43.80461,-20.26954],[-43.80471,-20.26902],[-43.80466,-20.2687],[-43.80444,-20.26844],[-43.8042,-20.26812],[-43.80405,-20.2678],[-43.80401,-20.26749],[-43.80414,-20.26715],[-43.80479,-20.26596],[-43.80529,-20.26524],[-43.80541,-20.26474],[-43.80529,-20.26443],[-43.80511,-20.26417],[-43.8051,-20.26413],[-43.80488,-20.26416],[-43.8043,-20.26438],[-43.80393,-20.26455],[-43.80304,-20.26505],[-43.80267,-20.26533],[-43.80217,-20.26544],[-43.80186,-20.26522],[-43.80169,-20.26483],[-43.80154,-20.2643],[-43.80135,-20.26404],[-43.801,-20.26397],[-43.8008,-20.26385],[-43.80048,-20.26374],[-43.8003,-20.26341],[-43.80025,-20.26314],[-43.80022,-20.26278],[-43.8001,-20.26265],[-43.79982,-20.26255],[-43.79975,-20.26282],[-43.79963,-20.26299],[-43.79948,-20.26308],[-43.79928,-20.26315],[-43.799,-20.2632],[-43.79888,-20.26326],[-43.7988,-20.26336],[-43.79869,-20.26369],[-43.79865,-20.26376],[-43.79862,-20.26373],[-43.79787,-20.26362],[-43.79713,-20.26336],[-43.79635,-20.26313],[-43.79572,-20.26293],[-43.79495,-20.2625],[-43.79462,-20.26226],[-43.79449,-20.26213],[-43.79447,-20.26206],[-43.79417,-20.26178],[-43.79395,-20.26151],[-43.79366,-20.26099],[-43.79354,-20.26057],[-43.79338,-20.25986],[-43.79336,-20.25955],[-43.79328,-20.25906],[-43.79334,-20.25876],[-43.79346,-20.25843],[-43.79362,-20.25806],[-43.7937,-20.25796],[-43.79362,-20.25788],[-43.79352,-20.25788],[-43.79331,-20.25794],[-43.79314,-20.25806],[-43.79312,-20.2583],[-43.79304,-20.25867],[-43.79295,-20.25879],[-43.79285,-20.25889],[-43.79281,-20.25892],[-43.79266,-20.25895],[-43.79238,-20.25894],[-43.79219,-20.25891],[-43.79218,-20.25892],[-43.79232,-20.2594],[-43.79237,-20.25945],[-43.79241,-20.25951],[-43.7924,-20.25956],[-43.79252,-20.25965],[-43.79255,-20.25971],[-43.79246,-20.25998],[-43.79236,-20.26012],[-43.79229,-20.2603],[-43.79229,-20.26036],[-43.79232,-20.26044],[-43.79231,-20.26061],[-43.79237,-20.26073],[-43.79237,-20.26091],[-43.79233,-20.26099],[-43.79237,-20.26137],[-43.79232,-20.26163],[-43.79232,-20.26169],[-43.79236,-20.26177],[-43.79235,-20.26191],[-43.7925,-20.26213],[-43.79244,-20.26235],[-43.79242,-20.26257],[-43.79239,-20.26261],[-43.79239,-20.26269],[-43.79239,-20.26273],[-43.79244,-20.26281],[-43.79244,-20.26286],[-43.79241,-20.26287],[-43.79241,-20.2629],[-43.79243,-20.26296],[-43.79227,-20.26308],[-43.79228,-20.26319],[-43.79226,-20.26321],[-43.79205,-20.26336],[-43.79201,-20.26347],[-43.79203,-20.26355],[-43.79195,-20.26384],[-43.79195,-20.26397],[-43.79185,-20.26413],[-43.79184,-20.26424],[-43.79181,-20.26428],[-43.79182,-20.26437],[-43.79181,-20.26441],[-43.79175,-20.26446],[-43.79172,-20.26452],[-43.79165,-20.26469],[-43.79164,-20.26474],[-43.79146,-20.26494],[-43.79142,-20.26506],[-43.79144,-20.26512],[-43.79144,-20.26516],[-43.79137,-20.26525],[-43.79129,-20.2653],[-43.79129,-20.26538],[-43.79126,-20.26545],[-43.79087,-20.26567],[-43.79081,-20.26577],[-43.79071,-20.26584],[-43.79067,-20.26598],[-43.79061,-20.26602],[-43.79053,-20.26611],[-43.79051,-20.26616],[-43.79043,-20.26622],[-43.79036,-20.26638],[-43.79038,-20.2666],[-43.79033,-20.26677],[-43.79027,-20.26684],[-43.79016,-20.2669],[-43.79013,-20.26699],[-43.79001,-20.26708],[-43.78999,-20.26714],[-43.78999,-20.26718],[-43.79004,-20.2672],[-43.79033,-20.26721],[-43.79052,-20.26724],[-43.79054,-20.26751],[-43.79064,-20.26757],[-43.79064,-20.26761],[-43.79051,-20.26763],[-43.79047,-20.26758],[-43.79037,-20.2677],[-43.79033,-20.26773],[-43.79031,-20.26778],[-43.79022,-20.26783],[-43.79021,-20.26788],[-43.7901,-20.26799],[-43.79003,-20.26816],[-43.78983,-20.26842],[-43.78982,-20.26849],[-43.78973,-20.26859],[-43.78966,-20.26871],[-43.78964,-20.2689],[-43.78962,-20.26897],[-43.7896,-20.26909],[-43.78963,-20.26915],[-43.7897,-20.26925],[-43.78979,-20.26946],[-43.78983,-20.26949],[-43.78984,-20.26992],[-43.78987,-20.26993],[-43.78997,-20.27003],[-43.79003,-20.27003],[-43.79009,-20.2701],[-43.79014,-20.2701],[-43.79024,-20.2702],[-43.79035,-20.27022],[-43.7904,-20.27031],[-43.79046,-20.27032],[-43.79049,-20.27038],[-43.79048,-20.27047],[-43.79021,-20.27047],[-43.79009,-20.27051],[-43.79006,-20.27079],[-43.78984,-20.27129],[-43.78964,-20.27157],[-43.78956,-20.27174],[-43.78952,-20.27223],[-43.78956,-20.27233],[-43.78965,-20.27247],[-43.78968,-20.27263],[-43.78969,-20.27277],[-43.79088,-20.2736],[-43.79173,-20.27448],[-43.79223,-20.27544],[-43.79275,-20.27638],[-43.79329,-20.27684],[-43.7941,-20.2768],[-43.79472,-20.27681],[-43.79567,-20.27697],[-43.796,-20.27731],[-43.79648,-20.27773],[-43.79653,-20.27772],[-43.79661,-20.27777],[-43.7966,-20.27782],[-43.79665,-20.27783],[-43.79667,-20.27787],[-43.79692,-20.27796],[-43.79992,-20.27797],[-43.79992,-20.27703],[-43.79994,-20.2767],[-43.80005,-20.27615],[-43.80037,-20.27562],[-43.80096,-20.27511],[-43.80147,-20.2746],[-43.80188,-20.27413],[-43.80204,-20.27373],[-43.80204,-20.27329],[-43.80197,-20.27294]]]]}},{"type":"Feature","properties":{"territory_id":"mg-3131901-centro","name":"Centro","municipality_id":"mg-3131901","polling_places":4,"approx":false,"official":true,"method":"official-ibge-cd2022","whole_municipality":false,"approx_coords_only":false,"official_name":"Centro","official_code":"3131901001","match":"direct"},"geometry":{"type":"MultiPolygon","coordinates":[[[[-43.80316,-20.25549],[-43.80369,-20.25466],[-43.80397,-20.25425],[-43.80485,-20.25336],[-43.80481,-20.25331],[-43.80479,-20.25322],[-43.80479,-20.25296],[-43.80475,-20.25269],[-43.8047,-20.25255],[-43.80454,-20.25223],[-43.80443,-20.25209],[-43.80434,-20.25201],[-43.80412,-20.25194],[-43.80404,-20.2519],[-43.80391,-20.25189],[-43.80361,-20.25183],[-43.80327,-20.25174],[-43.80312,-20.25166],[-43.8029,-20.25149],[-43.80283,-20.2514],[-43.80282,-20.25116],[-43.80274,-20.25105],[-43.80248,-20.25095],[-43.80175,-20.2504],[-43.80139,-20.25012],[-43.80136,-20.2502],[-43.80109,-20.25057],[-43.80098,-20.25077],[-43.80089,-20.25114],[-43.80082,-20.25155],[-43.80048,-20.25157],[-43.8005,-20.2514],[-43.80013,-20.25133],[-43.79964,-20.25128],[-43.79958,-20.25126],[-43.79929,-20.2514],[-43.79922,-20.2516],[-43.79915,-20.25258],[-43.79905,-20.25349],[-43.79899,-20.25441],[-43.79951,-20.25434],[-43.79959,-20.25422],[-43.79963,-20.25403],[-43.79971,-20.25399],[-43.80011,-20.25393],[-43.80023,-20.25376],[-43.80039,-20.25338],[-43.80056,-20.25341],[-43.80053,-20.25374],[-43.80041,-20.25401],[-43.80021,-20.25431],[-43.79957,-20.25492],[-43.79929,-20.25524],[-43.79896,-20.25552],[-43.79857,-20.25582],[-43.79825,-20.25595],[-43.79779,-20.25609],[-43.79629,-20.25616],[-43.79566,-20.25633],[-43.79521,-20.25654],[-43.79475,-20.25679],[-43.79444,-20.25704],[-43.79423,-20.25725],[-43.79408,-20.25742],[-43.7937,-20.25796],[-43.79378,-20.258],[-43.7939,-20.25803],[-43.79418,-20.25801],[-43.79423,-20.2578],[-43.79442,-20.25749],[-43.79481,-20.25735],[-43.79517,-20.2573],[-43.79609,-20.25692],[-43.79634,-20.25677],[-43.79647,-20.25718],[-43.79665,-20.25714],[-43.79682,-20.25717],[-43.79694,-20.25721],[-43.79728,-20.25741],[-43.79759,-20.25754],[-43.79777,-20.25755],[-43.79866,-20.25721],[-43.79891,-20.25714],[-43.7995,-20.25694],[-43.7996,-20.25734],[-43.79943,-20.25741],[-43.79869,-20.25767],[-43.79847,-20.25794],[-43.79915,-20.25812],[-43.79939,-20.25823],[-43.79968,-20.2583],[-43.8002,-20.25829],[-43.80089,-20.25819],[-43.80097,-20.25819],[-43.80135,-20.25831],[-43.80161,-20.25826],[-43.80174,-20.25812],[-43.80193,-20.25803],[-43.80248,-20.25723],[-43.80269,-20.25697],[-43.80366,-20.25674],[-43.80367,-20.25668],[-43.80348,-20.25649],[-43.80332,-20.25611],[-43.80316,-20.25556],[-43.80316,-20.25549]]]]}},{"type":"Feature","properties":{"territory_id":"mg-3131901-corrego-do-bacao","name":"Córrego do Bação","municipality_id":"mg-3131901","polling_places":1,"approx":true,"official":false,"method":"voronoi-polling-places","whole_municipality":false,"approx_coords_only":false},"geometry":{"type":"MultiPolygon","coordinates":[[[[-43.89543,-20.26277],[-43.84312,-20.31401],[-43.80051,-20.30828],[-43.81536,-20.27352],[-43.81639,-20.27444],[-43.81671,-20.27459],[-43.8179,-20.27419],[-43.81926,-20.27268],[-43.82025,-20.27098],[-43.82079,-20.27147],[-43.82201,-20.27203],[-43.82336,-20.27232],[-43.82484,-20.27149],[-43.82551,-20.27089],[-43.82564,-20.27099],[-43.826,-20.27111],[-43.82644,-20.2711],[-43.8266,-20.27116],[-43.82689,-20.27113],[-43.82715,-20.27125],[-43.82754,-20.27131],[-43.82782,-20.27135],[-43.82831,-20.27136],[-43.82854,-20.27132],[-43.82868,-20.27124],[-43.82888,-20.2712],[-43.82904,-20.27106],[-43.82927,-20.27098],[-43.83009,-20.2703],[-43.83015,-20.26991],[-43.83003,-20.2696],[-43.82965,-20.2696],[-43.82885,-20.26947],[-43.82845,-20.26943],[-43.82795,-20.26963],[-43.82836,-20.26931],[-43.8286,-20.26901],[-43.82891,-20.2688],[-43.82898,-20.26824],[-43.82893,-20.26803],[-43.82891,-20.26775],[-43.82902,-20.26729],[-43.82898,-20.26718],[-43.82907,-20.26707],[-43.829,-20.26695],[-43.82885,-20.26692],[-43.82877,-20.26692],[-43.82868,-20.26696],[-43.82856,-20.26706],[-43.82849,-20.26718],[-43.82844,-20.2673],[-43.82827,-20.26739],[-43.82787,-20.26745],[-43.82769,-20.2674],[-43.8275,-20.26724],[-43.8273,-20.26717],[-43.82708,-20.26714],[-43.82649,-20.26714],[-43.82636,-20.26706],[-43.82622,-20.26685],[-43.82696,-20.26651],[-43.82802,-20.26581],[-43.82704,-20.26358],[-43.8267,-20.2631],[-43.82594,-20.26334],[-43.82501,-20.26388],[-43.82504,-20.26361],[-43.82516,-20.26322],[-43.82521,-20.26289],[-43.82527,-20.26264],[-43.82536,-20.26235],[-43.82549,-20.26207],[-43.82549,-20.26169],[-43.82547,-20.2614],[-43.82553,-20.26101],[-43.82554,-20.26056],[-43.82557,-20.26035],[-43.82505,-20.25998],[-43.82469,-20.25979],[-43.82446,-20.25974],[-43.82425,-20.25966],[-43.82383,-20.25946],[-43.82352,-20.25928],[-43.82305,-20.25913],[-43.82282,-20.25911],[-43.82236,-20.25894],[-43.82169,-20.25974],[-43.82295,-20.25822],[-43.8237,-20.25698],[-43.82372,-20.25694],[-43.82394,-20.25646],[-43.8238,-20.25616],[-43.82367,-20.25597],[-43.82348,-20.25575],[-43.82346,-20.25574],[-43.82339,-20.25574],[-43.82327,-20.25589],[-43.82324,-20.25598],[-43.82309,-20.25602],[-43.8229,-20.25604],[-43.82284,-20.25611],[-43.82279,-20.25624],[-43.82273,-20.25628],[-43.82394,-20.25345],[-43.82661,-20.24994],[-43.84965,-20.23014],[-43.87507,-20.22349],[-43.89543,-20.26277]]],[[[-43.82112,-20.26047],[-43.82096,-20.26072],[-43.8208,-20.26095],[-43.82063,-20.2612],[-43.82063,-20.26119],[-43.82112,-20.26047]]],[[[-43.81949,-20.26611],[-43.81944,-20.26558],[-43.81942,-20.26517],[-43.81949,-20.26611]]]]}},{"type":"Feature","properties":{"territory_id":"mg-3131901-distrito-acurui","name":"Distrito Acuruí","municipality_id":"mg-3131901","polling_places":1,"approx":true,"official":false,"method":"voronoi-polling-places","whole_municipality":false,"approx_coords_only":false},"geometry":{"type":"MultiPolygon","coordinates":[[[[-43.74971,-20.15192],[-43.74396,-20.22979],[-43.66414,-20.2352],[-43.6183,-20.2074],[-43.6183,-20.1937],[-43.6605,-20.1185],[-43.6955,-20.1491],[-43.74971,-20.15192]]]]}},{"type":"Feature","properties":{"territory_id":"mg-3131901-distrito-de-sao-goncalo-do-bacao","name":"Distrito de São Gonçalo do Bação","municipality_id":"mg-3131901","polling_places":1,"approx":true,"official":false,"method":"voronoi-polling-places","whole_municipality":false,"approx_coords_only":false},"geometry":{"type":"MultiPolygon","coordinates":[[[[-43.86154,-20.37351],[-43.85926,-20.38517],[-43.8381,-20.386],[-43.8029,-20.3518],[-43.7977,-20.3219],[-43.78224,-20.31544],[-43.80051,-20.30828],[-43.84312,-20.31401],[-43.86154,-20.37351]]]]}},{"type":"Feature","properties":{"territory_id":"mg-3131901-esperanca","name":"Esperança","municipality_id":"mg-3131901","polling_places":1,"approx":false,"official":true,"method":"official-ibge-cd2022","whole_municipality":false,"approx_coords_only":false,"official_name":"Esperança","official_code":"3131901024","match":"direct"},"geometry":{"type":"MultiPolygon","coordinates":[[[[-43.80086,-20.23367],[-43.80114,-20.23371],[-43.80119,-20.23376],[-43.80097,-20.23544],[-43.80235,-20.23559],[-43.80245,-20.23488],[-43.80262,-20.23474],[-43.80277,-20.23465],[-43.8029,-20.23453],[-43.80293,-20.23445],[-43.80296,-20.23422],[-43.80293,-20.23394],[-43.80296,-20.23378],[-43.80311,-20.23354],[-43.80324,-20.23344],[-43.80323,-20.23401],[-43.80331,-20.23402],[-43.80345,-20.23397],[-43.80356,-20.23382],[-43.80365,-20.23375],[-43.80373,-20.23372],[-43.80381,-20.23373],[-43.80396,-20.23378],[-43.80406,-20.23379],[-43.80418,-20.23382],[-43.8043,-20.2338],[-43.80448,-20.23383],[-43.80458,-20.23383],[-43.80468,-20.23378],[-43.80471,-20.23374],[-43.80482,-20.23373],[-43.80491,-20.23365],[-43.80496,-20.23364],[-43.80512,-20.23374],[-43.80602,-20.22992],[-43.80605,-20.22818],[-43.80862,-20.22658],[-43.80932,-20.22474],[-43.80875,-20.22366],[-43.80845,-20.22379],[-43.80837,-20.22385],[-43.80821,-20.22381],[-43.80816,-20.22372],[-43.80815,-20.22357],[-43.8081,-20.22337],[-43.808,-20.22328],[-43.80774,-20.22324],[-43.80727,-20.22324],[-43.80686,-20.22333],[-43.80672,-20.22341],[-43.80601,-20.2225],[-43.80524,-20.22206],[-43.8044,-20.22178],[-43.8035,-20.22177],[-43.80253,-20.2217],[-43.80242,-20.2216],[-43.80234,-20.22165],[-43.80231,-20.22161],[-43.80218,-20.22151],[-43.80198,-20.22105],[-43.80193,-20.2207],[-43.80173,-20.22019],[-43.80172,-20.21973],[-43.80169,-20.21968],[-43.80161,-20.21999],[-43.80161,-20.22092],[-43.80201,-20.22645],[-43.80201,-20.2269],[-43.80198,-20.22723],[-43.80188,-20.22764],[-43.8017,-20.22814],[-43.80132,-20.22877],[-43.80094,-20.22912],[-43.80014,-20.22975],[-43.79954,-20.2302],[-43.79934,-20.23039],[-43.7991,-20.23071],[-43.799,-20.23104],[-43.79895,-20.23149],[-43.79894,-20.2326],[-43.79889,-20.23291],[-43.79878,-20.23329],[-43.79838,-20.23385],[-43.79745,-20.23437],[-43.79721,-20.23453],[-43.79686,-20.23483],[-43.79668,-20.23516],[-43.79663,-20.23538],[-43.79762,-20.23523],[-43.7978,-20.23519],[-43.79781,-20.23499],[-43.7979,-20.23485],[-43.79803,-20.23476],[-43.79815,-20.23461],[-43.79851,-20.2344],[-43.79894,-20.2342],[-43.80032,-20.23381],[-43.80063,-20.23367],[-43.80086,-20.23367]]]]}},{"type":"Feature","properties":{"territory_id":"mg-3131901-inconfidentes","name":"Inconfidentes","municipality_id":"mg-3131901","polling_places":1,"approx":true,"official":false,"method":"voronoi-polling-places","whole_municipality":false,"approx_coords_only":false},"geometry":{"type":"MultiPolygon","coordinates":[[[[-43.82661,-20.24994],[-43.82394,-20.25345],[-43.81955,-20.25454],[-43.81947,-20.25443],[-43.81833,-20.25385],[-43.81748,-20.25236],[-43.81528,-20.25011],[-43.81579,-20.24982],[-43.81586,-20.2498],[-43.81594,-20.24981],[-43.81604,-20.24988],[-43.81611,-20.24997],[-43.8162,-20.25013],[-43.81681,-20.24887],[-43.82661,-20.24994]]],[[[-43.81478,-20.25038],[-43.81398,-20.25094],[-43.81458,-20.25052],[-43.81478,-20.25038]]],[[[-43.81398,-20.25094],[-43.81387,-20.25112],[-43.8136,-20.25181],[-43.81358,-20.2519],[-43.81348,-20.252],[-43.81328,-20.25212],[-43.81296,-20.25227],[-43.81267,-20.25234],[-43.81253,-20.25231],[-43.81247,-20.2524],[-43.81225,-20.25243],[-43.8118,-20.25243],[-43.81141,-20.2524],[-43.81128,-20.25239],[-43.81107,-20.25233],[-43.81041,-20.2525],[-43.81006,-20.25255],[-43.80972,-20.25264],[-43.80946,-20.25275],[-43.80898,-20.25309],[-43.80877,-20.25311],[-43.80848,-20.25302],[-43.8082,-20.25288],[-43.80802,-20.2526],[-43.80793,-20.25241],[-43.8079,-20.25221],[-43.80788,-20.25199],[-43.80775,-20.25167],[-43.80758,-20.25141],[-43.80737,-20.25114],[-43.80708,-20.25081],[-43.80691,-20.25066],[-43.80688,-20.25038],[-43.80689,-20.25023],[-43.80704,-20.24971],[-43.80717,-20.24936],[-43.80792,-20.24838],[-43.80743,-20.24902],[-43.80766,-20.24921],[-43.8086,-20.24984],[-43.80897,-20.24991],[-43.81026,-20.25003],[-43.81103,-20.25013],[-43.81116,-20.24986],[-43.81176,-20.25075],[-43.81191,-20.25065],[-43.81224,-20.2501],[-43.81243,-20.24983],[-43.81336,-20.25046],[-43.81398,-20.25094]]],[[[-43.81367,-20.25602],[-43.79368,-20.26102],[-43.79366,-20.26099],[-43.79354,-20.26057],[-43.79338,-20.25986],[-43.79336,-20.25955],[-43.79328,-20.25906],[-43.79334,-20.25876],[-43.79346,-20.25843],[-43.79362,-20.25806],[-43.7937,-20.25796],[-43.79378,-20.258],[-43.7939,-20.25803],[-43.79418,-20.25801],[-43.79423,-20.2578],[-43.79442,-20.25749],[-43.79481,-20.25735],[-43.79517,-20.2573],[-43.79609,-20.25692],[-43.79634,-20.25677],[-43.79647,-20.25718],[-43.79665,-20.25714],[-43.79682,-20.25717],[-43.79694,-20.25721],[-43.79728,-20.25741],[-43.79759,-20.25754],[-43.79777,-20.25755],[-43.79866,-20.25721],[-43.79891,-20.25714],[-43.7995,-20.25694],[-43.7996,-20.25734],[-43.79943,-20.25741],[-43.79869,-20.25767],[-43.79847,-20.25794],[-43.79915,-20.25812],[-43.79939,-20.25823],[-43.79968,-20.2583],[-43.8002,-20.25829],[-43.80089,-20.25819],[-43.80097,-20.25819],[-43.80135,-20.25831],[-43.80161,-20.25826],[-43.80174,-20.25812],[-43.80193,-20.25803],[-43.80248,-20.25723],[-43.80269,-20.25697],[-43.80366,-20.25674],[-43.80367,-20.25668],[-43.80348,-20.25649],[-43.80332,-20.25611],[-43.80316,-20.25556],[-43.80316,-20.25549],[-43.80369,-20.25466],[-43.80397,-20.25425],[-43.80387,-20.25441],[-43.804,-20.25445],[-43.80468,-20.25454],[-43.80499,-20.25452],[-43.80519,-20.25453],[-43.80573,-20.25475],[-43.80609,-20.25498],[-43.80648,-20.25528],[-43.80678,-20.25544],[-43.80726,-20.25566],[-43.80735,-20.2557],[-43.8075,-20.25565],[-43.80763,-20.25557],[-43.80767,-20.25544],[-43.8077,-20.25503],[-43.80783,-20.25433],[-43.80812,-20.25421],[-43.8083,-20.25417],[-43.80822,-20.25399],[-43.80822,-20.254],[-43.8086,-20.25384],[-43.80864,-20.25383],[-43.80974,-20.25409],[-43.81031,-20.25411],[-43.81055,-20.25415],[-43.81097,-20.25426],[-43.81108,-20.25438],[-43.81127,-20.25441],[-43.81142,-20.25449],[-43.81158,-20.25461],[-43.81177,-20.25482],[-43.81192,-20.25492],[-43.81211,-20.25498],[-43.8126,-20.25529],[-43.81269,-20.25532],[-43.81286,-20.25533],[-43.81306,-20.25553],[-43.81316,-20.25555],[-43.81334,-20.25564],[-43.81366,-20.25601],[-43.81367,-20.25602]]],[[[-43.80536,-20.25143],[-43.80476,-20.25163],[-43.80483,-20.2516],[-43.80536,-20.25143]]],[[[-43.80327,-20.25174],[-43.80312,-20.25166],[-43.80301,-20.25158],[-43.80327,-20.25174]]],[[[-43.8015,-20.24979],[-43.80139,-20.25012],[-43.80136,-20.2502],[-43.8015,-20.24979]]],[[[-43.79736,-20.24674],[-43.79703,-20.24777],[-43.797,-20.24778],[-43.79654,-20.24707],[-43.79666,-20.2468],[-43.7967,-20.24667],[-43.79736,-20.24674]]],[[[-43.79629,-20.25616],[-43.79566,-20.25633],[-43.79589,-20.25626],[-43.79629,-20.25616]]],[[[-43.79247,-20.25894],[-43.79238,-20.25894],[-43.79219,-20.25891],[-43.79247,-20.25894]]],[[[-43.78422,-20.26041],[-43.78417,-20.26042],[-43.78412,-20.26042],[-43.78422,-20.26041]]],[[[-43.77681,-20.25829],[-43.7767,-20.25842],[-43.77663,-20.25844],[-43.7765,-20.25844],[-43.77639,-20.2586],[-43.77633,-20.25865],[-43.77627,-20.25868],[-43.77613,-20.25866],[-43.77609,-20.25871],[-43.77598,-20.25871],[-43.77581,-20.25879],[-43.77576,-20.25886],[-43.77565,-20.25894],[-43.77558,-20.25897],[-43.77537,-20.25901],[-43.77512,-20.25925],[-43.77495,-20.25934],[-43.77476,-20.25939],[-43.77442,-20.2594],[-43.77427,-20.25944],[-43.77414,-20.25953],[-43.77396,-20.25963],[-43.77369,-20.25972],[-43.7734,-20.25985],[-43.77329,-20.26011],[-43.77324,-20.2602],[-43.77318,-20.26025],[-43.77309,-20.26021],[-43.77301,-20.26027],[-43.77291,-20.26036],[-43.77283,-20.2604],[-43.7727,-20.26054],[-43.77254,-20.26063],[-43.77228,-20.2606],[-43.77221,-20.26069],[-43.77223,-20.2608],[-43.77222,-20.26087],[-43.77208,-20.26097],[-43.77185,-20.26094],[-43.77171,-20.26094],[-43.77153,-20.26087],[-43.77143,-20.26087],[-43.77132,-20.26087],[-43.77087,-20.26096],[-43.77074,-20.26096],[-43.77049,-20.26088],[-43.77011,-20.26092],[-43.77003,-20.2609],[-43.76992,-20.2609],[-43.76964,-20.26081],[-43.76949,-20.26064],[-43.76949,-20.26056],[-43.76956,-20.26045],[-43.76942,-20.26034],[-43.76925,-20.26029],[-43.76908,-20.26032],[-43.7689,-20.26038],[-43.76886,-20.26046],[-43.76866,-20.26055],[-43.76852,-20.26059],[-43.76841,-20.26066],[-43.76839,-20.26072],[-43.76828,-20.26078],[-43.76806,-20.26086],[-43.76799,-20.26082],[-43.76783,-20.26081],[-43.7677,-20.26077],[-43.76736,-20.26086],[-43.7672,-20.26097],[-43.76708,-20.26098],[-43.76605,-20.26146],[-43.76625,-20.26202],[-43.76625,-20.26208],[-43.76678,-20.26254],[-43.76737,-20.2631],[-43.76742,-20.26317],[-43.76752,-20.26326],[-43.77224,-20.26575],[-43.77257,-20.26597],[-43.77276,-20.26624],[-43.77277,-20.26625],[-43.7551,-20.27067],[-43.75556,-20.24791],[-43.76099,-20.24533],[-43.761,-20.24711],[-43.76094,-20.24724],[-43.76172,-20.24807],[-43.76233,-20.24859],[-43.76354,-20.2491],[-43.76382,-20.24918],[-43.76432,-20.24911],[-43.76475,-20.24923],[-43.76493,-20.24904],[-43.76516,-20.24894],[-43.7653,-20.24896],[-43.76554,-20.24933],[-43.76588,-20.24962],[-43.76741,-20.25053],[-43.76776,-20.25061],[-43.76804,-20.25069],[-43.76842,-20.25089],[-43.76866,-20.25111],[-43.76882,-20.25124],[-43.76906,-20.25133],[-43.76979,-20.25196],[-43.77006,-20.25244],[-43.7705,-20.2537],[-43.77084,-20.2545],[-43.77073,-20.25514],[-43.77098,-20.25522],[-43.77177,-20.25517],[-43.77235,-20.25461],[-43.77301,-20.25516],[-43.77364,-20.25586],[-43.77535,-20.2566],[-43.77578,-20.25654],[-43.77585,-20.2565],[-43.77587,-20.25663],[-43.77681,-20.25829]]],[[[-43.77118,-20.24625],[-43.7709,-20.24633],[-43.77031,-20.24619],[-43.7701,-20.24607],[-43.76982,-20.24597],[-43.76946,-20.24589],[-43.76913,-20.24575],[-43.76887,-20.2455],[-43.76858,-20.24514],[-43.76873,-20.24477],[-43.76879,-20.24474],[-43.76895,-20.24492],[-43.76907,-20.24503],[-43.76918,-20.24507],[-43.76932,-20.24508],[-43.7694,-20.24501],[-43.7696,-20.24453],[-43.76977,-20.24398],[-43.76973,-20.24388],[-43.76938,-20.24368],[-43.77062,-20.24382],[-43.77055,-20.24387],[-43.77055,-20.24405],[-43.77095,-20.24568],[-43.77115,-20.24621],[-43.77118,-20.24625]]],[[[-43.76796,-20.24353],[-43.76793,-20.24353],[-43.76752,-20.24358],[-43.7672,-20.24353],[-43.76688,-20.2435],[-43.7667,-20.24339],[-43.76796,-20.24353]]]]}},{"type":"Feature","properties":{"territory_id":"mg-3131901-lourdes","name":"Lourdes","municipality_id":"mg-3131901","polling_places":1,"approx":false,"official":true,"method":"official-ibge-cd2022","whole_municipality":false,"approx_coords_only":false,"official_name":"Lourdes","official_code":"3131901006","match":"direct"},"geometry":{"type":"MultiPolygon","coordinates":[[[[-43.80323,-20.24771],[-43.80346,-20.24741],[-43.80379,-20.24678],[-43.804,-20.24643],[-43.80443,-20.24536],[-43.80451,-20.24504],[-43.8045,-20.24482],[-43.80444,-20.24462],[-43.80435,-20.24446],[-43.80411,-20.2442],[-43.80377,-20.24379],[-43.80309,-20.24304],[-43.80283,-20.24264],[-43.80251,-20.24223],[-43.80212,-20.24179],[-43.80197,-20.24154],[-43.80142,-20.24046],[-43.8012,-20.24018],[-43.80096,-20.24011],[-43.80078,-20.24],[-43.8006,-20.24042],[-43.80056,-20.24065],[-43.80095,-20.24187],[-43.80133,-20.24337],[-43.80152,-20.24427],[-43.80152,-20.24446],[-43.80148,-20.24486],[-43.8013,-20.24528],[-43.80119,-20.24542],[-43.80084,-20.24565],[-43.80062,-20.24574],[-43.80072,-20.24605],[-43.80057,-20.24616],[-43.80031,-20.24622],[-43.79999,-20.2462],[-43.7996,-20.24612],[-43.79898,-20.24594],[-43.79838,-20.24597],[-43.79799,-20.24581],[-43.79795,-20.24584],[-43.79778,-20.24609],[-43.79773,-20.24621],[-43.79776,-20.24704],[-43.79887,-20.24719],[-43.7997,-20.24732],[-43.79968,-20.24757],[-43.7995,-20.24849],[-43.79949,-20.24858],[-43.79981,-20.24946],[-43.8002,-20.25048],[-43.7996,-20.25119],[-43.79958,-20.25126],[-43.79964,-20.25128],[-43.80013,-20.25133],[-43.8005,-20.2514],[-43.80048,-20.25157],[-43.80082,-20.25155],[-43.80089,-20.25114],[-43.80098,-20.25077],[-43.80109,-20.25057],[-43.80136,-20.2502],[-43.8015,-20.24979],[-43.80188,-20.24933],[-43.80227,-20.24891],[-43.80256,-20.24854],[-43.80285,-20.2482],[-43.8032,-20.24775],[-43.80323,-20.24771]]]]}},{"type":"Feature","properties":{"territory_id":"mg-3131901-marzagao-22-km","name":"Marzagao - 22 Km","municipality_id":"mg-3131901","polling_places":1,"approx":true,"official":false,"method":"voronoi-polling-places","whole_municipality":false,"approx_coords_only":false},"geometry":{"type":"MultiPolygon","coordinates":[[[[-43.879,-20.20579],[-43.87507,-20.22349],[-43.84965,-20.23014],[-43.7995,-20.21511],[-43.75511,-20.1522],[-43.7898,-20.154],[-43.7941,-20.1799],[-43.8541,-20.1976],[-43.879,-20.20579]]]]}},{"type":"Feature","properties":{"territory_id":"mg-3131901-munu","name":"Munu","municipality_id":"mg-3131901","polling_places":1,"approx":false,"official":true,"method":"official-ibge-cd2022","whole_municipality":false,"approx_coords_only":false,"official_name":"Munu","official_code":"3131901016","match":"direct"},"geometry":{"type":"MultiPolygon","coordinates":[[[[-43.8208,-20.26095],[-43.8205,-20.26139],[-43.82018,-20.26192],[-43.81985,-20.26273],[-43.81964,-20.26344],[-43.81956,-20.26377],[-43.81947,-20.26437],[-43.81942,-20.26517],[-43.81952,-20.26655],[-43.81961,-20.26738],[-43.81966,-20.26831],[-43.81975,-20.26895],[-43.81986,-20.26971],[-43.81999,-20.27025],[-43.82025,-20.27098],[-43.82079,-20.27147],[-43.82201,-20.27203],[-43.82336,-20.27232],[-43.82484,-20.27149],[-43.82551,-20.27089],[-43.82564,-20.27099],[-43.826,-20.27111],[-43.82644,-20.2711],[-43.8266,-20.27116],[-43.82689,-20.27113],[-43.82715,-20.27125],[-43.82754,-20.27131],[-43.82782,-20.27135],[-43.82831,-20.27136],[-43.82854,-20.27132],[-43.82868,-20.27124],[-43.82888,-20.2712],[-43.82904,-20.27106],[-43.82927,-20.27098],[-43.83009,-20.2703],[-43.83015,-20.26991],[-43.83003,-20.2696],[-43.82965,-20.2696],[-43.82885,-20.26947],[-43.82845,-20.26943],[-43.82795,-20.26963],[-43.82836,-20.26931],[-43.8286,-20.26901],[-43.82891,-20.2688],[-43.82898,-20.26824],[-43.82893,-20.26803],[-43.82891,-20.26775],[-43.82902,-20.26729],[-43.82898,-20.26718],[-43.82907,-20.26707],[-43.829,-20.26695],[-43.82885,-20.26692],[-43.82877,-20.26692],[-43.82868,-20.26696],[-43.82856,-20.26706],[-43.82849,-20.26718],[-43.82844,-20.2673],[-43.82827,-20.26739],[-43.82787,-20.26745],[-43.82769,-20.2674],[-43.8275,-20.26724],[-43.8273,-20.26717],[-43.82708,-20.26714],[-43.82649,-20.26714],[-43.82636,-20.26706],[-43.82622,-20.26685],[-43.82696,-20.26651],[-43.82802,-20.26581],[-43.82704,-20.26358],[-43.8267,-20.2631],[-43.82594,-20.26334],[-43.82501,-20.26388],[-43.82504,-20.26361],[-43.82516,-20.26322],[-43.82521,-20.26289],[-43.82527,-20.26264],[-43.82536,-20.26235],[-43.82549,-20.26207],[-43.82549,-20.26169],[-43.82547,-20.2614],[-43.82553,-20.26101],[-43.82554,-20.26056],[-43.82557,-20.26035],[-43.82505,-20.25998],[-43.82469,-20.25979],[-43.82446,-20.25974],[-43.82425,-20.25966],[-43.82383,-20.25946],[-43.82352,-20.25928],[-43.82305,-20.25913],[-43.82282,-20.25911],[-43.82236,-20.25894],[-43.82169,-20.25974],[-43.82112,-20.26047],[-43.82096,-20.26072],[-43.8208,-20.26095]]]]}},{"type":"Feature","properties":{"territory_id":"mg-3131901-novo-itabirito","name":"Novo Itabirito","municipality_id":"mg-3131901","polling_places":1,"approx":false,"official":true,"method":"official-ibge-cd2022","whole_municipality":false,"approx_coords_only":false,"official_name":"Novo Itabirito","official_code":"3131901010","match":"direct"},"geometry":{"type":"MultiPolygon","coordinates":[[[[-43.7752,-20.26556],[-43.77567,-20.26559],[-43.77635,-20.2657],[-43.77695,-20.26572],[-43.77748,-20.26568],[-43.7781,-20.26553],[-43.77858,-20.26535],[-43.78157,-20.26343],[-43.78173,-20.26334],[-43.78255,-20.26282],[-43.78457,-20.26138],[-43.78515,-20.26084],[-43.78528,-20.26062],[-43.78561,-20.26023],[-43.78573,-20.26012],[-43.78642,-20.25925],[-43.78612,-20.25911],[-43.78606,-20.25911],[-43.78598,-20.25916],[-43.78585,-20.25927],[-43.78578,-20.25937],[-43.78572,-20.2594],[-43.78554,-20.25938],[-43.78547,-20.2594],[-43.78535,-20.2595],[-43.78531,-20.25949],[-43.78528,-20.25945],[-43.78525,-20.25944],[-43.78518,-20.25946],[-43.78515,-20.25951],[-43.7852,-20.25963],[-43.7852,-20.25978],[-43.78517,-20.2598],[-43.78514,-20.25979],[-43.7851,-20.25974],[-43.785,-20.25979],[-43.78497,-20.25984],[-43.78499,-20.25993],[-43.78495,-20.26023],[-43.78492,-20.2603],[-43.78479,-20.26035],[-43.78473,-20.2603],[-43.78468,-20.26023],[-43.78463,-20.26021],[-43.78459,-20.26021],[-43.78454,-20.26024],[-43.7845,-20.26028],[-43.78422,-20.26041],[-43.78417,-20.26042],[-43.78404,-20.26041],[-43.78395,-20.26035],[-43.78386,-20.26022],[-43.78374,-20.26011],[-43.78369,-20.2601],[-43.78353,-20.26009],[-43.78348,-20.26006],[-43.78345,-20.26004],[-43.78343,-20.25997],[-43.7834,-20.25995],[-43.78321,-20.25995],[-43.78299,-20.25992],[-43.78261,-20.25976],[-43.78244,-20.25951],[-43.78233,-20.25942],[-43.78229,-20.2594],[-43.78217,-20.25925],[-43.7821,-20.25919],[-43.78198,-20.25913],[-43.78191,-20.25904],[-43.78177,-20.25897],[-43.7816,-20.25894],[-43.78146,-20.25886],[-43.78143,-20.25884],[-43.78142,-20.25877],[-43.7814,-20.25835],[-43.78137,-20.2582],[-43.78131,-20.25806],[-43.78127,-20.258],[-43.78113,-20.25828],[-43.78104,-20.25837],[-43.78071,-20.25845],[-43.78051,-20.25865],[-43.78033,-20.25878],[-43.78002,-20.25882],[-43.77991,-20.2585],[-43.77985,-20.25792],[-43.77935,-20.25752],[-43.77891,-20.25736],[-43.77884,-20.25737],[-43.77861,-20.25726],[-43.77853,-20.25729],[-43.77848,-20.25735],[-43.77839,-20.2574],[-43.77829,-20.2574],[-43.77817,-20.25732],[-43.77805,-20.2573],[-43.77792,-20.25757],[-43.77782,-20.25766],[-43.77775,-20.25771],[-43.77757,-20.25775],[-43.77745,-20.25774],[-43.77735,-20.25777],[-43.77729,-20.25785],[-43.77729,-20.25788],[-43.77726,-20.25795],[-43.77716,-20.25805],[-43.777,-20.25815],[-43.77691,-20.25819],[-43.7767,-20.25842],[-43.77663,-20.25844],[-43.7765,-20.25844],[-43.77639,-20.2586],[-43.77633,-20.25865],[-43.77627,-20.25868],[-43.77613,-20.25866],[-43.77609,-20.25871],[-43.77598,-20.25871],[-43.77581,-20.25879],[-43.77576,-20.25886],[-43.77565,-20.25894],[-43.77558,-20.25897],[-43.77537,-20.25901],[-43.77512,-20.25925],[-43.77495,-20.25934],[-43.77476,-20.25939],[-43.77442,-20.2594],[-43.77427,-20.25944],[-43.77414,-20.25953],[-43.77396,-20.25963],[-43.77369,-20.25972],[-43.7734,-20.25985],[-43.77329,-20.26011],[-43.77324,-20.2602],[-43.77318,-20.26025],[-43.77309,-20.26021],[-43.77301,-20.26027],[-43.77291,-20.26036],[-43.77283,-20.2604],[-43.7727,-20.26054],[-43.77254,-20.26063],[-43.77228,-20.2606],[-43.77221,-20.26069],[-43.77223,-20.2608],[-43.77222,-20.26087],[-43.77208,-20.26097],[-43.77185,-20.26094],[-43.77171,-20.26094],[-43.77153,-20.26087],[-43.77143,-20.26087],[-43.77132,-20.26087],[-43.77087,-20.26096],[-43.77074,-20.26096],[-43.77049,-20.26088],[-43.77011,-20.26092],[-43.77003,-20.2609],[-43.76992,-20.2609],[-43.76964,-20.26081],[-43.76949,-20.26064],[-43.76949,-20.26056],[-43.76956,-20.26045],[-43.76942,-20.26034],[-43.76925,-20.26029],[-43.76908,-20.26032],[-43.7689,-20.26038],[-43.76886,-20.26046],[-43.76866,-20.26055],[-43.76852,-20.26059],[-43.76841,-20.26066],[-43.76839,-20.26072],[-43.76828,-20.26078],[-43.76806,-20.26086],[-43.76799,-20.26082],[-43.76783,-20.26081],[-43.7677,-20.26077],[-43.76736,-20.26086],[-43.7672,-20.26097],[-43.76708,-20.26098],[-43.76605,-20.26146],[-43.76625,-20.26202],[-43.76625,-20.26208],[-43.76678,-20.26254],[-43.76737,-20.2631],[-43.76742,-20.26317],[-43.76752,-20.26326],[-43.77224,-20.26575],[-43.77257,-20.26597],[-43.77367,-20.26558],[-43.77419,-20.26547],[-43.7752,-20.26556]]]]}},{"type":"Feature","properties":{"territory_id":"mg-3131901-padre-adelmo-ferreira-da-silva","name":"Padre Adelmo Ferreira da Silva","municipality_id":"mg-3131901","polling_places":1,"approx":true,"official":false,"method":"voronoi-polling-places","whole_municipality":false,"approx_coords_only":false},"geometry":{"type":"MultiPolygon","coordinates":[[[[-43.82394,-20.25345],[-43.82273,-20.25628],[-43.82272,-20.25629],[-43.82263,-20.25631],[-43.82253,-20.25636],[-43.82248,-20.25642],[-43.82245,-20.2565],[-43.82223,-20.25665],[-43.82178,-20.2562],[-43.82068,-20.25542],[-43.82052,-20.25567],[-43.82036,-20.25578],[-43.82023,-20.25584],[-43.82005,-20.25522],[-43.81955,-20.25454],[-43.82394,-20.25345]]],[[[-43.82063,-20.26119],[-43.82063,-20.2612],[-43.8205,-20.26139],[-43.82063,-20.26119]]],[[[-43.81634,-20.25814],[-43.81622,-20.25799],[-43.81617,-20.25792],[-43.81634,-20.25814]]],[[[-43.81613,-20.25736],[-43.81601,-20.25764],[-43.8159,-20.25921],[-43.81571,-20.25956],[-43.81518,-20.25978],[-43.81474,-20.25987],[-43.81451,-20.26022],[-43.81412,-20.26044],[-43.81398,-20.26046],[-43.8139,-20.2604],[-43.81388,-20.26037],[-43.81381,-20.26015],[-43.81374,-20.26002],[-43.81358,-20.25986],[-43.81319,-20.2597],[-43.81301,-20.25958],[-43.81283,-20.25941],[-43.81265,-20.25929],[-43.812,-20.25927],[-43.81159,-20.25919],[-43.81112,-20.25912],[-43.8109,-20.25903],[-43.8109,-20.25931],[-43.81066,-20.25979],[-43.80922,-20.2611],[-43.80915,-20.26114],[-43.80891,-20.26123],[-43.80882,-20.2613],[-43.8087,-20.26142],[-43.80865,-20.26144],[-43.80852,-20.26139],[-43.80825,-20.26135],[-43.80808,-20.26138],[-43.8079,-20.26146],[-43.80786,-20.2615],[-43.80753,-20.26149],[-43.8075,-20.26152],[-43.80736,-20.26158],[-43.80737,-20.26166],[-43.80721,-20.26181],[-43.80717,-20.26191],[-43.80704,-20.2621],[-43.80671,-20.26222],[-43.80661,-20.26229],[-43.8063,-20.26253],[-43.80624,-20.26262],[-43.80607,-20.26273],[-43.80604,-20.26279],[-43.80592,-20.2629],[-43.80577,-20.26297],[-43.80572,-20.26308],[-43.80553,-20.26329],[-43.80542,-20.26332],[-43.80516,-20.26364],[-43.80509,-20.26381],[-43.80508,-20.26389],[-43.80514,-20.26399],[-43.80506,-20.26403],[-43.8051,-20.26413],[-43.80488,-20.26416],[-43.8043,-20.26438],[-43.80393,-20.26455],[-43.80304,-20.26505],[-43.80267,-20.26533],[-43.80217,-20.26544],[-43.80186,-20.26522],[-43.80169,-20.26483],[-43.80154,-20.2643],[-43.80135,-20.26404],[-43.801,-20.26397],[-43.8008,-20.26385],[-43.80048,-20.26374],[-43.8003,-20.26341],[-43.80025,-20.26314],[-43.80022,-20.26278],[-43.8001,-20.26265],[-43.79982,-20.26255],[-43.79975,-20.26282],[-43.79963,-20.26299],[-43.79948,-20.26308],[-43.79928,-20.26315],[-43.799,-20.2632],[-43.79888,-20.26326],[-43.7988,-20.26336],[-43.79869,-20.26369],[-43.79865,-20.26376],[-43.79862,-20.26373],[-43.79787,-20.26362],[-43.79713,-20.26336],[-43.79635,-20.26313],[-43.79572,-20.26293],[-43.79495,-20.2625],[-43.79462,-20.26226],[-43.79449,-20.26213],[-43.79447,-20.26206],[-43.79417,-20.26178],[-43.79395,-20.26151],[-43.79368,-20.26102],[-43.81367,-20.25602],[-43.81377,-20.25611],[-43.81393,-20.25621],[-43.81422,-20.25624],[-43.81446,-20.25629],[-43.81459,-20.25631],[-43.81476,-20.2563],[-43.81512,-20.25635],[-43.81522,-20.25637],[-43.81546,-20.25657],[-43.81563,-20.25674],[-43.81572,-20.25686],[-43.81588,-20.25719],[-43.81613,-20.25736]]],[[[-43.81536,-20.27352],[-43.80051,-20.30828],[-43.78224,-20.31544],[-43.7599,-20.3061],[-43.75367,-20.27753],[-43.7551,-20.27067],[-43.77277,-20.26625],[-43.77352,-20.26676],[-43.77413,-20.26743],[-43.77471,-20.2683],[-43.77641,-20.26923],[-43.77661,-20.26926],[-43.7768,-20.2694],[-43.77692,-20.26968],[-43.77707,-20.2699],[-43.77723,-20.27019],[-43.77727,-20.27036],[-43.77737,-20.27049],[-43.77739,-20.27081],[-43.77769,-20.27139],[-43.77885,-20.2729],[-43.77981,-20.27344],[-43.78104,-20.27358],[-43.78213,-20.27337],[-43.78281,-20.27297],[-43.78365,-20.2723],[-43.78539,-20.27245],[-43.78558,-20.27272],[-43.78599,-20.27258],[-43.78704,-20.27211],[-43.78773,-20.27207],[-43.78875,-20.27198],[-43.78987,-20.27059],[-43.79009,-20.27051],[-43.79006,-20.27079],[-43.78984,-20.27129],[-43.78964,-20.27157],[-43.78956,-20.27174],[-43.78952,-20.27223],[-43.78956,-20.27233],[-43.78965,-20.27247],[-43.78968,-20.27263],[-43.78969,-20.27277],[-43.79088,-20.2736],[-43.79173,-20.27448],[-43.79223,-20.27544],[-43.79275,-20.27638],[-43.79329,-20.27684],[-43.7941,-20.2768],[-43.79472,-20.27681],[-43.79567,-20.27697],[-43.796,-20.27731],[-43.79648,-20.27773],[-43.79653,-20.27772],[-43.79661,-20.27777],[-43.7966,-20.27782],[-43.79665,-20.27783],[-43.79667,-20.27787],[-43.79692,-20.27796],[-43.79992,-20.27797],[-43.79992,-20.27703],[-43.79994,-20.2767],[-43.80005,-20.27615],[-43.80037,-20.27562],[-43.80096,-20.27511],[-43.80147,-20.2746],[-43.80188,-20.27413],[-43.80204,-20.27373],[-43.80204,-20.27329],[-43.80197,-20.27294],[-43.80156,-20.27217],[-43.80148,-20.27179],[-43.80152,-20.2715],[-43.80167,-20.27107],[-43.80172,-20.27108],[-43.80179,-20.27107],[-43.80182,-20.27111],[-43.80188,-20.27109],[-43.80203,-20.27113],[-43.80187,-20.27128],[-43.80183,-20.27162],[-43.80218,-20.27199],[-43.80263,-20.27238],[-43.80281,-20.27267],[-43.80398,-20.27265],[-43.80605,-20.27264],[-43.80796,-20.27235],[-43.81005,-20.27254],[-43.81169,-20.27273],[-43.81298,-20.27291],[-43.81318,-20.27312],[-43.81447,-20.2735],[-43.8153,-20.27347],[-43.81536,-20.27352]]],[[[-43.7901,-20.26799],[-43.79003,-20.26816],[-43.79007,-20.26805],[-43.7901,-20.26799]]]]}},{"type":"Feature","properties":{"territory_id":"mg-3131901-portoes-18-km","name":"Portões - 18 Km","municipality_id":"mg-3131901","polling_places":1,"approx":true,"official":false,"method":"voronoi-polling-places","whole_municipality":false,"approx_coords_only":false},"geometry":{"type":"MultiPolygon","coordinates":[[[[-43.7995,-20.21511],[-43.76573,-20.24297],[-43.76571,-20.24296],[-43.76498,-20.24285],[-43.76462,-20.24287],[-43.76448,-20.24289],[-43.7639,-20.24302],[-43.76368,-20.24313],[-43.7629,-20.2436],[-43.76244,-20.24383],[-43.76233,-20.24386],[-43.7621,-20.24385],[-43.76188,-20.24386],[-43.76164,-20.24392],[-43.76152,-20.244],[-43.76144,-20.24401],[-43.76126,-20.24397],[-43.76096,-20.24393],[-43.76069,-20.24381],[-43.76034,-20.24379],[-43.76098,-20.24486],[-43.76099,-20.24533],[-43.75556,-20.24791],[-43.74396,-20.22979],[-43.74971,-20.15192],[-43.75511,-20.1522],[-43.7995,-20.21511]]]]}},{"type":"Feature","properties":{"territory_id":"mg-3131901-praia","name":"Praia","municipality_id":"mg-3131901","polling_places":1,"approx":false,"official":true,"method":"official-ibge-cd2022","whole_municipality":false,"approx_coords_only":false,"official_name":"Praia","official_code":"3131901005","match":"direct"},"geometry":{"type":"MultiPolygon","coordinates":[[[[-43.80737,-20.24671],[-43.80766,-20.24612],[-43.80772,-20.24603],[-43.80702,-20.24601],[-43.80676,-20.24602],[-43.80567,-20.2456],[-43.80557,-20.24492],[-43.80594,-20.244],[-43.80501,-20.24425],[-43.8047,-20.24455],[-43.80444,-20.24462],[-43.8045,-20.24482],[-43.80451,-20.24504],[-43.80443,-20.24536],[-43.804,-20.24643],[-43.80379,-20.24678],[-43.80346,-20.24741],[-43.80285,-20.2482],[-43.80256,-20.24854],[-43.80227,-20.24891],[-43.80188,-20.24933],[-43.8015,-20.24979],[-43.80139,-20.25012],[-43.80175,-20.2504],[-43.80248,-20.25095],[-43.80274,-20.25105],[-43.80282,-20.25116],[-43.80283,-20.2514],[-43.8029,-20.25149],[-43.80299,-20.25156],[-43.80327,-20.25174],[-43.80361,-20.25183],[-43.80391,-20.25189],[-43.80404,-20.2519],[-43.80406,-20.25187],[-43.80412,-20.25186],[-43.80483,-20.2516],[-43.80536,-20.25143],[-43.80564,-20.25138],[-43.80602,-20.25119],[-43.8065,-20.25082],[-43.80665,-20.25073],[-43.80678,-20.25071],[-43.80691,-20.25066],[-43.80688,-20.25038],[-43.80689,-20.25023],[-43.80704,-20.24971],[-43.80717,-20.24936],[-43.80899,-20.24698],[-43.80855,-20.24685],[-43.80834,-20.24684],[-43.80786,-20.2467],[-43.80761,-20.24668],[-43.80737,-20.24671]]]]}},{"type":"Feature","properties":{"territory_id":"mg-3131901-quinta-dos-inconfidentes","name":"Quinta dos Inconfidentes","municipality_id":"mg-3131901","polling_places":1,"approx":true,"official":false,"method":"voronoi-polling-places","whole_municipality":false,"approx_coords_only":false},"geometry":{"type":"MultiPolygon","coordinates":[[[[-43.84965,-20.23014],[-43.82661,-20.24994],[-43.81681,-20.24887],[-43.81759,-20.24727],[-43.81741,-20.24731],[-43.81707,-20.24745],[-43.81676,-20.24747],[-43.81653,-20.24747],[-43.81628,-20.24756],[-43.81608,-20.24775],[-43.81546,-20.24797],[-43.81514,-20.24802],[-43.81497,-20.248],[-43.81484,-20.24801],[-43.81441,-20.24814],[-43.81404,-20.24819],[-43.81369,-20.24831],[-43.81357,-20.24833],[-43.81749,-20.24299],[-43.81742,-20.24299],[-43.81688,-20.24313],[-43.81686,-20.24318],[-43.81677,-20.2433],[-43.81639,-20.24356],[-43.81621,-20.24391],[-43.81608,-20.24401],[-43.81578,-20.24412],[-43.81562,-20.24413],[-43.81533,-20.24411],[-43.81517,-20.24414],[-43.81504,-20.24412],[-43.81486,-20.24406],[-43.81475,-20.24405],[-43.81469,-20.24409],[-43.81456,-20.24412],[-43.81448,-20.2442],[-43.8143,-20.24426],[-43.81396,-20.24453],[-43.81386,-20.24469],[-43.81371,-20.24482],[-43.81362,-20.24486],[-43.81359,-20.24492],[-43.81351,-20.24496],[-43.81337,-20.24502],[-43.81328,-20.24509],[-43.81322,-20.24516],[-43.81312,-20.2452],[-43.8131,-20.24517],[-43.81302,-20.24514],[-43.81282,-20.24518],[-43.81264,-20.24537],[-43.8124,-20.24548],[-43.81224,-20.24568],[-43.8122,-20.24576],[-43.8122,-20.24587],[-43.8121,-20.24603],[-43.81202,-20.24608],[-43.81193,-20.24619],[-43.81187,-20.24622],[-43.81125,-20.24626],[-43.81115,-20.24622],[-43.81106,-20.24623],[-43.8109,-20.24618],[-43.81056,-20.24602],[-43.80984,-20.24587],[-43.80899,-20.24698],[-43.80855,-20.24685],[-43.80834,-20.24684],[-43.80786,-20.2467],[-43.80761,-20.24668],[-43.80737,-20.24671],[-43.80766,-20.24612],[-43.80772,-20.24603],[-43.80702,-20.24601],[-43.80676,-20.24602],[-43.80567,-20.2456],[-43.80557,-20.24492],[-43.80594,-20.244],[-43.80639,-20.24382],[-43.80647,-20.24382],[-43.80677,-20.24355],[-43.80712,-20.24317],[-43.80748,-20.24311],[-43.80747,-20.243],[-43.80761,-20.24254],[-43.80785,-20.24195],[-43.80799,-20.24165],[-43.8082,-20.24168],[-43.80826,-20.24163],[-43.80859,-20.24164],[-43.80857,-20.24149],[-43.8087,-20.24138],[-43.8084,-20.24091],[-43.80824,-20.24093],[-43.80798,-20.24103],[-43.80772,-20.24104],[-43.80742,-20.24102],[-43.80713,-20.24086],[-43.80704,-20.24074],[-43.80697,-20.24053],[-43.80691,-20.24021],[-43.80692,-20.2399],[-43.80704,-20.23953],[-43.80704,-20.23927],[-43.80717,-20.23914],[-43.80726,-20.23898],[-43.80728,-20.23888],[-43.80726,-20.23872],[-43.80724,-20.23864],[-43.80699,-20.23867],[-43.80695,-20.23716],[-43.80687,-20.23642],[-43.80635,-20.23653],[-43.80574,-20.23673],[-43.80538,-20.23676],[-43.80476,-20.23685],[-43.80405,-20.23701],[-43.80394,-20.23705],[-43.80378,-20.23707],[-43.80343,-20.237],[-43.80335,-20.2369],[-43.80305,-20.2366],[-43.80296,-20.23658],[-43.80291,-20.23719],[-43.80276,-20.23821],[-43.80276,-20.23854],[-43.8028,-20.2389],[-43.80265,-20.23895],[-43.80228,-20.23877],[-43.80106,-20.23951],[-43.80086,-20.23973],[-43.80078,-20.24],[-43.8006,-20.24042],[-43.80056,-20.24065],[-43.80095,-20.24187],[-43.80133,-20.24337],[-43.80152,-20.24427],[-43.80152,-20.24446],[-43.80148,-20.24486],[-43.8013,-20.24528],[-43.80119,-20.24542],[-43.80084,-20.24565],[-43.80062,-20.24574],[-43.80072,-20.24605],[-43.80057,-20.24616],[-43.80031,-20.24622],[-43.79999,-20.2462],[-43.7996,-20.24612],[-43.79898,-20.24594],[-43.79838,-20.24597],[-43.79799,-20.24581],[-43.79795,-20.24584],[-43.79778,-20.24609],[-43.79773,-20.24621],[-43.79775,-20.24678],[-43.79773,-20.24621],[-43.79756,-20.24613],[-43.79736,-20.24674],[-43.7967,-20.24667],[-43.79674,-20.24655],[-43.79699,-20.24611],[-43.79723,-20.24581],[-43.79715,-20.2457],[-43.79726,-20.24529],[-43.79708,-20.24511],[-43.79678,-20.24485],[-43.79615,-20.24441],[-43.79592,-20.24433],[-43.7957,-20.2443],[-43.79567,-20.24461],[-43.7955,-20.24487],[-43.79438,-20.24556],[-43.79402,-20.24564],[-43.7922,-20.24585],[-43.79147,-20.24567],[-43.79093,-20.24551],[-43.7907,-20.24539],[-43.78999,-20.24426],[-43.78992,-20.24436],[-43.78969,-20.24525],[-43.78963,-20.24531],[-43.78949,-20.24534],[-43.78935,-20.24526],[-43.78908,-20.24495],[-43.78907,-20.24489],[-43.78826,-20.24315],[-43.78775,-20.24301],[-43.78754,-20.24286],[-43.7864,-20.24186],[-43.78589,-20.24137],[-43.78554,-20.24078],[-43.78522,-20.24032],[-43.78501,-20.24009],[-43.78449,-20.23958],[-43.78437,-20.2394],[-43.78433,-20.2393],[-43.78425,-20.23929],[-43.78415,-20.23935],[-43.78403,-20.23936],[-43.78408,-20.23929],[-43.78408,-20.23909],[-43.78402,-20.23843],[-43.78388,-20.23813],[-43.78376,-20.23799],[-43.78363,-20.23793],[-43.78352,-20.23785],[-43.78336,-20.23765],[-43.78324,-20.23741],[-43.78295,-20.23601],[-43.78281,-20.23579],[-43.78253,-20.23557],[-43.78162,-20.23512],[-43.78143,-20.23501],[-43.78113,-20.23479],[-43.78098,-20.23461],[-43.78088,-20.23441],[-43.78054,-20.2339],[-43.78037,-20.23378],[-43.77995,-20.23372],[-43.7796,-20.2337],[-43.77929,-20.23364],[-43.77915,-20.23359],[-43.77885,-20.23334],[-43.77859,-20.23301],[-43.77839,-20.23261],[-43.77823,-20.23294],[-43.77814,-20.23323],[-43.77825,-20.2336],[-43.77833,-20.23373],[-43.77854,-20.23393],[-43.77883,-20.23416],[-43.7793,-20.23461],[-43.77957,-20.23509],[-43.77957,-20.23527],[-43.77932,-20.23544],[-43.77919,-20.23573],[-43.77898,-20.236],[-43.77817,-20.23642],[-43.7781,-20.23649],[-43.77802,-20.23673],[-43.77766,-20.23743],[-43.77742,-20.23761],[-43.77726,-20.23818],[-43.77727,-20.23833],[-43.77737,-20.23846],[-43.77767,-20.23876],[-43.77783,-20.23923],[-43.77781,-20.23942],[-43.77753,-20.24005],[-43.77742,-20.24016],[-43.77729,-20.24023],[-43.77706,-20.24028],[-43.7768,-20.24028],[-43.7767,-20.2403],[-43.77658,-20.24039],[-43.77657,-20.24054],[-43.77651,-20.24074],[-43.77619,-20.24094],[-43.77609,-20.24115],[-43.776,-20.24156],[-43.77584,-20.24173],[-43.7757,-20.24199],[-43.7757,-20.24222],[-43.77573,-20.24243],[-43.77571,-20.24252],[-43.77558,-20.24271],[-43.77541,-20.2429],[-43.77521,-20.24328],[-43.77516,-20.24342],[-43.77484,-20.2432],[-43.77468,-20.24297],[-43.77463,-20.24281],[-43.77454,-20.24267],[-43.77439,-20.24254],[-43.77428,-20.24249],[-43.77357,-20.24232],[-43.77358,-20.24229],[-43.77357,-20.24214],[-43.77361,-20.2421],[-43.7736,-20.24208],[-43.77348,-20.24207],[-43.77335,-20.24203],[-43.77315,-20.24202],[-43.77295,-20.24193],[-43.77288,-20.24188],[-43.77285,-20.24181],[-43.77273,-20.24175],[-43.77263,-20.24175],[-43.77261,-20.24172],[-43.77234,-20.24195],[-43.77231,-20.24204],[-43.77149,-20.24333],[-43.77118,-20.24344],[-43.77062,-20.24382],[-43.76938,-20.24368],[-43.76908,-20.24351],[-43.76885,-20.2434],[-43.76861,-20.2434],[-43.76796,-20.24353],[-43.7667,-20.24339],[-43.76665,-20.24336],[-43.76573,-20.24297],[-43.7995,-20.21511],[-43.84965,-20.23014]],[[-43.80932,-20.22474],[-43.80875,-20.22366],[-43.80845,-20.22379],[-43.80837,-20.22385],[-43.80821,-20.22381],[-43.80816,-20.22372],[-43.80815,-20.22357],[-43.8081,-20.22337],[-43.808,-20.22328],[-43.80774,-20.22324],[-43.80727,-20.22324],[-43.80686,-20.22333],[-43.80672,-20.22341],[-43.80601,-20.2225],[-43.80524,-20.22206],[-43.8044,-20.22178],[-43.8035,-20.22177],[-43.80253,-20.2217],[-43.80242,-20.2216],[-43.80234,-20.22165],[-43.80231,-20.22161],[-43.80218,-20.22151],[-43.80198,-20.22105],[-43.80193,-20.2207],[-43.80173,-20.22019],[-43.80172,-20.21973],[-43.80169,-20.21968],[-43.80161,-20.21999],[-43.80161,-20.22092],[-43.80201,-20.22645],[-43.80201,-20.2269],[-43.80198,-20.22723],[-43.80188,-20.22764],[-43.8017,-20.22814],[-43.80132,-20.22877],[-43.80094,-20.22912],[-43.80014,-20.22975],[-43.79954,-20.2302],[-43.79934,-20.23039],[-43.7991,-20.23071],[-43.799,-20.23104],[-43.79895,-20.23149],[-43.79894,-20.2326],[-43.79889,-20.23291],[-43.79878,-20.23329],[-43.79838,-20.23385],[-43.79745,-20.23437],[-43.79721,-20.23453],[-43.79686,-20.23483],[-43.79668,-20.23516],[-43.79663,-20.23538],[-43.79762,-20.23523],[-43.7978,-20.23519],[-43.79781,-20.23499],[-43.7979,-20.23485],[-43.79803,-20.23476],[-43.79815,-20.23461],[-43.79851,-20.2344],[-43.79894,-20.2342],[-43.80032,-20.23381],[-43.80063,-20.23367],[-43.80086,-20.23367],[-43.80114,-20.23371],[-43.80119,-20.23376],[-43.80097,-20.23544],[-43.80235,-20.23559],[-43.80245,-20.23488],[-43.80262,-20.23474],[-43.80277,-20.23465],[-43.8029,-20.23453],[-43.80293,-20.23445],[-43.80296,-20.23422],[-43.80293,-20.23394],[-43.80296,-20.23378],[-43.80311,-20.23354],[-43.80324,-20.23344],[-43.80323,-20.23401],[-43.80331,-20.23402],[-43.80345,-20.23397],[-43.80356,-20.23382],[-43.80365,-20.23375],[-43.80373,-20.23372],[-43.80381,-20.23373],[-43.80396,-20.23378],[-43.80406,-20.23379],[-43.80418,-20.23382],[-43.8043,-20.2338],[-43.80448,-20.23383],[-43.80458,-20.23383],[-43.80468,-20.23378],[-43.80471,-20.23374],[-43.80482,-20.23373],[-43.80491,-20.23365],[-43.80496,-20.23364],[-43.80512,-20.23374],[-43.80602,-20.22992],[-43.80605,-20.22818],[-43.80862,-20.22658],[-43.80932,-20.22474]]]]}},{"type":"Feature","properties":{"territory_id":"mg-3131901-ribeirao-do-eixo-estrada-70-km","name":"Ribeirão do Eixo Estrada - 70 Km","municipality_id":"mg-3131901","polling_places":1,"approx":true,"official":false,"method":"voronoi-polling-places","whole_municipality":false,"approx_coords_only":false},"geometry":{"type":"MultiPolygon","coordinates":[[[[-43.94695,-20.29562],[-43.9302,-20.3824],[-43.85926,-20.38517],[-43.86154,-20.37351],[-43.93495,-20.29197],[-43.94695,-20.29562]]]]}},{"type":"Feature","properties":{"territory_id":"mg-3131901-saboeiro","name":"Saboeiro","municipality_id":"mg-3131901","polling_places":1,"approx":true,"official":false,"method":"voronoi-polling-places","whole_municipality":false,"approx_coords_only":false},"geometry":{"type":"MultiPolygon","coordinates":[[[[-43.93495,-20.29197],[-43.86154,-20.37351],[-43.84312,-20.31401],[-43.89543,-20.26277],[-43.93495,-20.29197]]]]}},{"type":"Feature","properties":{"territory_id":"mg-3131901-santa-efigenia","name":"Santa Efigênia","municipality_id":"mg-3131901","polling_places":3,"approx":false,"official":true,"method":"official-ibge-cd2022","whole_municipality":false,"approx_coords_only":false,"official_name":"Santa Efigênia","official_code":"3131901008","match":"direct"},"geometry":{"type":"MultiPolygon","coordinates":[[[[-43.79285,-20.25889],[-43.79295,-20.25879],[-43.79304,-20.25867],[-43.79312,-20.2583],[-43.79314,-20.25806],[-43.79331,-20.25794],[-43.79352,-20.25788],[-43.79362,-20.25788],[-43.7937,-20.25796],[-43.79408,-20.25742],[-43.79423,-20.25725],[-43.79444,-20.25704],[-43.79475,-20.25679],[-43.79521,-20.25654],[-43.79566,-20.25633],[-43.79589,-20.25626],[-43.79629,-20.25616],[-43.79712,-20.25613],[-43.79701,-20.25592],[-43.79659,-20.25535],[-43.79647,-20.25514],[-43.79631,-20.25468],[-43.79635,-20.25456],[-43.79605,-20.25423],[-43.79595,-20.25388],[-43.79589,-20.25362],[-43.79583,-20.25315],[-43.79571,-20.25273],[-43.79546,-20.25217],[-43.79615,-20.25203],[-43.79585,-20.2509],[-43.79581,-20.25071],[-43.796,-20.25027],[-43.79648,-20.24933],[-43.79679,-20.24882],[-43.79704,-20.24832],[-43.79721,-20.24823],[-43.79743,-20.24806],[-43.79758,-20.24789],[-43.79768,-20.24767],[-43.79771,-20.24754],[-43.79776,-20.24704],[-43.79773,-20.24621],[-43.79756,-20.24613],[-43.79703,-20.24777],[-43.797,-20.24778],[-43.79654,-20.24707],[-43.79666,-20.2468],[-43.79674,-20.24655],[-43.79699,-20.24611],[-43.79723,-20.24581],[-43.79715,-20.2457],[-43.79681,-20.24609],[-43.79569,-20.24727],[-43.79483,-20.24813],[-43.79387,-20.24866],[-43.79236,-20.24941],[-43.79199,-20.24967],[-43.79173,-20.25003],[-43.79151,-20.25047],[-43.79145,-20.25087],[-43.79151,-20.25245],[-43.79146,-20.25277],[-43.79128,-20.25319],[-43.79102,-20.25349],[-43.79082,-20.25365],[-43.79026,-20.2539],[-43.78978,-20.25403],[-43.78938,-20.25422],[-43.78906,-20.25442],[-43.78886,-20.25465],[-43.7886,-20.25502],[-43.78839,-20.25578],[-43.78829,-20.25631],[-43.78818,-20.25682],[-43.78796,-20.25724],[-43.78781,-20.25749],[-43.78755,-20.25786],[-43.78687,-20.25868],[-43.78573,-20.26012],[-43.78561,-20.26023],[-43.78528,-20.26062],[-43.78515,-20.26084],[-43.78457,-20.26138],[-43.78255,-20.26282],[-43.78173,-20.26334],[-43.78157,-20.26343],[-43.77858,-20.26535],[-43.7781,-20.26553],[-43.77748,-20.26568],[-43.77695,-20.26572],[-43.77635,-20.2657],[-43.77567,-20.26559],[-43.77419,-20.26547],[-43.77367,-20.26558],[-43.77257,-20.26597],[-43.77276,-20.26624],[-43.77352,-20.26676],[-43.77413,-20.26743],[-43.77471,-20.2683],[-43.77641,-20.26923],[-43.77661,-20.26926],[-43.7768,-20.2694],[-43.77692,-20.26968],[-43.77707,-20.2699],[-43.77723,-20.27019],[-43.77727,-20.27036],[-43.77737,-20.27049],[-43.77739,-20.27081],[-43.77769,-20.27139],[-43.77885,-20.2729],[-43.77981,-20.27344],[-43.78104,-20.27358],[-43.78213,-20.27337],[-43.78281,-20.27297],[-43.78365,-20.2723],[-43.78539,-20.27245],[-43.78558,-20.27272],[-43.78599,-20.27258],[-43.78704,-20.27211],[-43.78773,-20.27207],[-43.78875,-20.27198],[-43.78987,-20.27059],[-43.79021,-20.27047],[-43.79048,-20.27047],[-43.79049,-20.27038],[-43.79046,-20.27032],[-43.7904,-20.27031],[-43.79035,-20.27022],[-43.79024,-20.2702],[-43.79014,-20.2701],[-43.79009,-20.2701],[-43.79003,-20.27003],[-43.78997,-20.27003],[-43.78987,-20.26993],[-43.78984,-20.26992],[-43.78983,-20.26949],[-43.78979,-20.26946],[-43.7897,-20.26925],[-43.78963,-20.26915],[-43.7896,-20.26909],[-43.78962,-20.26897],[-43.78964,-20.2689],[-43.78966,-20.26871],[-43.78973,-20.26859],[-43.78982,-20.26849],[-43.78983,-20.26842],[-43.79003,-20.26816],[-43.79007,-20.26805],[-43.7901,-20.26799],[-43.79021,-20.26788],[-43.79022,-20.26783],[-43.79031,-20.26778],[-43.79033,-20.26773],[-43.79037,-20.2677],[-43.79047,-20.26758],[-43.79051,-20.26763],[-43.79064,-20.26761],[-43.79064,-20.26757],[-43.79054,-20.26751],[-43.79052,-20.26724],[-43.79033,-20.26721],[-43.79004,-20.2672],[-43.78999,-20.26718],[-43.79001,-20.26708],[-43.79013,-20.26699],[-43.79016,-20.2669],[-43.79027,-20.26684],[-43.79033,-20.26677],[-43.79038,-20.2666],[-43.79036,-20.26638],[-43.79043,-20.26622],[-43.79051,-20.26616],[-43.79053,-20.26611],[-43.79061,-20.26602],[-43.79067,-20.26598],[-43.79071,-20.26584],[-43.79081,-20.26577],[-43.79087,-20.26567],[-43.79126,-20.26545],[-43.79129,-20.26538],[-43.79129,-20.2653],[-43.79137,-20.26525],[-43.79144,-20.26516],[-43.79144,-20.26512],[-43.79142,-20.26506],[-43.79146,-20.26494],[-43.79164,-20.26474],[-43.79165,-20.26469],[-43.79172,-20.26452],[-43.79175,-20.26446],[-43.79181,-20.26441],[-43.79182,-20.26437],[-43.79181,-20.26428],[-43.79184,-20.26424],[-43.79185,-20.26413],[-43.79195,-20.26397],[-43.79195,-20.26384],[-43.79203,-20.26355],[-43.79201,-20.26347],[-43.79205,-20.26336],[-43.79226,-20.26321],[-43.79228,-20.26319],[-43.79227,-20.26308],[-43.79243,-20.26296],[-43.79241,-20.2629],[-43.79241,-20.26287],[-43.79244,-20.26286],[-43.79244,-20.26281],[-43.79239,-20.26273],[-43.79239,-20.26269],[-43.79239,-20.26261],[-43.79242,-20.26257],[-43.79244,-20.26235],[-43.7925,-20.26213],[-43.79235,-20.26191],[-43.79236,-20.26177],[-43.79232,-20.26169],[-43.79232,-20.26163],[-43.79237,-20.26137],[-43.79233,-20.26099],[-43.79237,-20.26091],[-43.79237,-20.26073],[-43.79231,-20.26061],[-43.79232,-20.26044],[-43.79229,-20.26036],[-43.79229,-20.2603],[-43.79236,-20.26012],[-43.79246,-20.25998],[-43.79255,-20.25971],[-43.79252,-20.25965],[-43.7924,-20.25956],[-43.79241,-20.25951],[-43.79237,-20.25945],[-43.79232,-20.2594],[-43.79218,-20.25892],[-43.79219,-20.25891],[-43.79256,-20.25895],[-43.79266,-20.25895],[-43.79281,-20.25892],[-43.79285,-20.25889]]]]}},{"type":"Feature","properties":{"territory_id":"mg-3131901-santa-rita","name":"Santa Rita","municipality_id":"mg-3131901","polling_places":2,"approx":false,"official":true,"method":"official-ibge-cd2022","whole_municipality":false,"approx_coords_only":false,"official_name":"Santa Rita","official_code":"3131901018","match":"direct"},"geometry":{"type":"MultiPolygon","coordinates":[[[[-43.82372,-20.25694],[-43.82394,-20.25646],[-43.8238,-20.25616],[-43.82367,-20.25597],[-43.82348,-20.25575],[-43.82346,-20.25574],[-43.82339,-20.25574],[-43.82327,-20.25589],[-43.82324,-20.25598],[-43.82309,-20.25602],[-43.8229,-20.25604],[-43.82284,-20.25611],[-43.82279,-20.25624],[-43.82272,-20.25629],[-43.82263,-20.25631],[-43.82253,-20.25636],[-43.82248,-20.25642],[-43.82245,-20.2565],[-43.82223,-20.25665],[-43.82178,-20.2562],[-43.82068,-20.25542],[-43.82052,-20.25567],[-43.82036,-20.25578],[-43.82023,-20.25584],[-43.82005,-20.25522],[-43.81947,-20.25443],[-43.81833,-20.25385],[-43.81748,-20.25236],[-43.81528,-20.25011],[-43.81478,-20.25038],[-43.81398,-20.25094],[-43.81387,-20.25112],[-43.8136,-20.25181],[-43.81358,-20.2519],[-43.81348,-20.252],[-43.81328,-20.25212],[-43.81296,-20.25227],[-43.81267,-20.25234],[-43.81253,-20.25231],[-43.81247,-20.2524],[-43.81225,-20.25243],[-43.8118,-20.25243],[-43.81141,-20.2524],[-43.81128,-20.25239],[-43.81107,-20.25233],[-43.81041,-20.2525],[-43.81006,-20.25255],[-43.80972,-20.25264],[-43.80946,-20.25275],[-43.80898,-20.25309],[-43.80877,-20.25311],[-43.80848,-20.25302],[-43.8082,-20.25288],[-43.80795,-20.25294],[-43.8077,-20.25306],[-43.80754,-20.25318],[-43.80804,-20.25373],[-43.80822,-20.254],[-43.8086,-20.25384],[-43.80864,-20.25383],[-43.80974,-20.25409],[-43.81031,-20.25411],[-43.81055,-20.25415],[-43.81097,-20.25426],[-43.81108,-20.25438],[-43.81127,-20.25441],[-43.81142,-20.25449],[-43.81158,-20.25461],[-43.81177,-20.25482],[-43.81192,-20.25492],[-43.81211,-20.25498],[-43.8126,-20.25529],[-43.81269,-20.25532],[-43.81286,-20.25533],[-43.81306,-20.25553],[-43.81316,-20.25555],[-43.81334,-20.25564],[-43.81366,-20.25601],[-43.81377,-20.25611],[-43.81393,-20.25621],[-43.81422,-20.25624],[-43.81446,-20.25629],[-43.81459,-20.25631],[-43.81476,-20.2563],[-43.81512,-20.25635],[-43.81522,-20.25637],[-43.81546,-20.25657],[-43.81563,-20.25674],[-43.81572,-20.25686],[-43.81588,-20.25719],[-43.81613,-20.25736],[-43.81616,-20.25744],[-43.81615,-20.25752],[-43.81612,-20.25758],[-43.81611,-20.25775],[-43.81617,-20.25792],[-43.81634,-20.25814],[-43.81642,-20.2582],[-43.81657,-20.25843],[-43.81656,-20.25853],[-43.81652,-20.25857],[-43.81649,-20.25863],[-43.81649,-20.25869],[-43.81655,-20.25873],[-43.81668,-20.25889],[-43.8167,-20.25896],[-43.81673,-20.25916],[-43.81669,-20.25925],[-43.81656,-20.25938],[-43.81654,-20.25956],[-43.81646,-20.2597],[-43.81646,-20.25986],[-43.81669,-20.26001],[-43.81669,-20.26008],[-43.81682,-20.26023],[-43.8169,-20.26037],[-43.81703,-20.26081],[-43.81711,-20.26096],[-43.81719,-20.26122],[-43.81732,-20.26143],[-43.81742,-20.26147],[-43.81756,-20.26155],[-43.81768,-20.26175],[-43.81791,-20.26194],[-43.81807,-20.26227],[-43.81832,-20.26261],[-43.81862,-20.26276],[-43.81921,-20.26302],[-43.81935,-20.26312],[-43.81948,-20.26327],[-43.81952,-20.26341],[-43.81964,-20.26344],[-43.81985,-20.26273],[-43.82018,-20.26192],[-43.8205,-20.26139],[-43.82112,-20.26047],[-43.82169,-20.25974],[-43.82295,-20.25822],[-43.8237,-20.25698],[-43.82372,-20.25694]]]]}},{"type":"Feature","properties":{"territory_id":"mg-3131901-santo-antonio","name":"Santo Antônio","municipality_id":"mg-3131901","polling_places":2,"approx":false,"official":true,"method":"official-ibge-cd2022","whole_municipality":false,"approx_coords_only":false,"official_name":"Santo Antônio","official_code":"3131901022","match":"direct"},"geometry":{"type":"MultiPolygon","coordinates":[[[[-43.80501,-20.24425],[-43.80594,-20.244],[-43.80639,-20.24382],[-43.80647,-20.24382],[-43.80677,-20.24355],[-43.80712,-20.24317],[-43.80748,-20.24311],[-43.80747,-20.243],[-43.80761,-20.24254],[-43.80785,-20.24195],[-43.80799,-20.24165],[-43.8082,-20.24168],[-43.80826,-20.24163],[-43.80859,-20.24164],[-43.80857,-20.24149],[-43.8087,-20.24138],[-43.8084,-20.24091],[-43.80824,-20.24093],[-43.80798,-20.24103],[-43.80772,-20.24104],[-43.80742,-20.24102],[-43.80713,-20.24086],[-43.80704,-20.24074],[-43.80697,-20.24053],[-43.80691,-20.24021],[-43.80692,-20.2399],[-43.80704,-20.23953],[-43.80704,-20.23927],[-43.80717,-20.23914],[-43.80726,-20.23898],[-43.80728,-20.23888],[-43.80726,-20.23872],[-43.80724,-20.23864],[-43.80699,-20.23867],[-43.80695,-20.23716],[-43.80687,-20.23642],[-43.80635,-20.23653],[-43.80574,-20.23673],[-43.80538,-20.23676],[-43.80476,-20.23685],[-43.80405,-20.23701],[-43.80394,-20.23705],[-43.80378,-20.23707],[-43.80343,-20.237],[-43.80335,-20.2369],[-43.80305,-20.2366],[-43.80296,-20.23658],[-43.80291,-20.23719],[-43.80276,-20.23821],[-43.80276,-20.23854],[-43.8028,-20.2389],[-43.80265,-20.23895],[-43.80228,-20.23877],[-43.80106,-20.23951],[-43.80086,-20.23973],[-43.80078,-20.24],[-43.80096,-20.24011],[-43.8012,-20.24018],[-43.80142,-20.24046],[-43.80197,-20.24154],[-43.80212,-20.24179],[-43.80251,-20.24223],[-43.80283,-20.24264],[-43.80309,-20.24304],[-43.80377,-20.24379],[-43.80411,-20.2442],[-43.80435,-20.24446],[-43.80444,-20.24462],[-43.8047,-20.24455],[-43.80501,-20.24425]]]]}},{"type":"Feature","properties":{"territory_id":"mg-3131901-sao-jose","name":"São José","municipality_id":"mg-3131901","polling_places":1,"approx":false,"official":true,"method":"official-ibge-cd2022","whole_municipality":false,"approx_coords_only":false,"official_name":"São José","official_code":"3131901009","match":"direct"},"geometry":{"type":"MultiPolygon","coordinates":[[[[-43.77516,-20.24342],[-43.77484,-20.2432],[-43.77468,-20.24297],[-43.77463,-20.24281],[-43.77454,-20.24267],[-43.77439,-20.24254],[-43.77428,-20.24249],[-43.77357,-20.24232],[-43.77358,-20.24229],[-43.77357,-20.24214],[-43.77361,-20.2421],[-43.7736,-20.24208],[-43.77348,-20.24207],[-43.77335,-20.24203],[-43.77315,-20.24202],[-43.77295,-20.24193],[-43.77288,-20.24188],[-43.77285,-20.24181],[-43.77273,-20.24175],[-43.77263,-20.24175],[-43.77261,-20.24172],[-43.77234,-20.24195],[-43.77231,-20.24204],[-43.77149,-20.24333],[-43.77118,-20.24344],[-43.77055,-20.24387],[-43.77055,-20.24405],[-43.77095,-20.24568],[-43.77115,-20.24621],[-43.77118,-20.24625],[-43.7709,-20.24633],[-43.77031,-20.24619],[-43.7701,-20.24607],[-43.76982,-20.24597],[-43.76946,-20.24589],[-43.76913,-20.24575],[-43.76887,-20.2455],[-43.76858,-20.24514],[-43.76873,-20.24477],[-43.76879,-20.24474],[-43.76895,-20.24492],[-43.76907,-20.24503],[-43.76918,-20.24507],[-43.76932,-20.24508],[-43.7694,-20.24501],[-43.7696,-20.24453],[-43.76977,-20.24398],[-43.76973,-20.24388],[-43.76908,-20.24351],[-43.76885,-20.2434],[-43.76861,-20.2434],[-43.76793,-20.24353],[-43.76752,-20.24358],[-43.7672,-20.24353],[-43.76688,-20.2435],[-43.76665,-20.24336],[-43.76571,-20.24296],[-43.76498,-20.24285],[-43.76462,-20.24287],[-43.76448,-20.24289],[-43.7639,-20.24302],[-43.76368,-20.24313],[-43.7629,-20.2436],[-43.76244,-20.24383],[-43.76233,-20.24386],[-43.7621,-20.24385],[-43.76188,-20.24386],[-43.76164,-20.24392],[-43.76152,-20.244],[-43.76144,-20.24401],[-43.76126,-20.24397],[-43.76096,-20.24393],[-43.76069,-20.24381],[-43.76034,-20.24379],[-43.76098,-20.24486],[-43.761,-20.24711],[-43.76094,-20.24724],[-43.76172,-20.24807],[-43.76233,-20.24859],[-43.76354,-20.2491],[-43.76382,-20.24918],[-43.76432,-20.24911],[-43.76475,-20.24923],[-43.76493,-20.24904],[-43.76516,-20.24894],[-43.7653,-20.24896],[-43.76554,-20.24933],[-43.76588,-20.24962],[-43.76741,-20.25053],[-43.76776,-20.25061],[-43.76804,-20.25069],[-43.76842,-20.25089],[-43.76866,-20.25111],[-43.76882,-20.25124],[-43.76906,-20.25133],[-43.76979,-20.25196],[-43.77006,-20.25244],[-43.7705,-20.2537],[-43.77084,-20.2545],[-43.77073,-20.25514],[-43.77098,-20.25522],[-43.77177,-20.25517],[-43.77235,-20.25461],[-43.77301,-20.25516],[-43.77364,-20.25586],[-43.77535,-20.2566],[-43.77578,-20.25654],[-43.77585,-20.2565],[-43.77587,-20.25663],[-43.77681,-20.2583],[-43.77691,-20.25819],[-43.777,-20.25815],[-43.77716,-20.25805],[-43.77726,-20.25795],[-43.77729,-20.25788],[-43.77729,-20.25785],[-43.77735,-20.25777],[-43.77745,-20.25774],[-43.77757,-20.25775],[-43.77775,-20.25771],[-43.77782,-20.25766],[-43.77792,-20.25757],[-43.77805,-20.2573],[-43.77817,-20.25732],[-43.77829,-20.2574],[-43.77839,-20.2574],[-43.77848,-20.25735],[-43.77853,-20.25729],[-43.77861,-20.25726],[-43.77884,-20.25737],[-43.77891,-20.25736],[-43.77935,-20.25752],[-43.77985,-20.25792],[-43.77991,-20.2585],[-43.78002,-20.25882],[-43.78033,-20.25878],[-43.78051,-20.25865],[-43.78071,-20.25845],[-43.78104,-20.25837],[-43.78113,-20.25828],[-43.78127,-20.258],[-43.78131,-20.25806],[-43.78137,-20.2582],[-43.7814,-20.25835],[-43.78142,-20.25877],[-43.78143,-20.25884],[-43.78146,-20.25886],[-43.7816,-20.25894],[-43.78177,-20.25897],[-43.78191,-20.25904],[-43.78198,-20.25913],[-43.7821,-20.25919],[-43.78217,-20.25925],[-43.78229,-20.2594],[-43.78233,-20.25942],[-43.78244,-20.25951],[-43.78261,-20.25976],[-43.78299,-20.25992],[-43.78321,-20.25995],[-43.7834,-20.25995],[-43.78343,-20.25997],[-43.78345,-20.26004],[-43.78348,-20.26006],[-43.78353,-20.26009],[-43.78369,-20.2601],[-43.78374,-20.26011],[-43.78386,-20.26022],[-43.78395,-20.26035],[-43.78404,-20.26041],[-43.7841,-20.26042],[-43.78422,-20.26041],[-43.7845,-20.26028],[-43.78454,-20.26024],[-43.78459,-20.26021],[-43.78463,-20.26021],[-43.78468,-20.26023],[-43.78473,-20.2603],[-43.78479,-20.26035],[-43.78492,-20.2603],[-43.78495,-20.26023],[-43.78499,-20.25993],[-43.78497,-20.25984],[-43.785,-20.25979],[-43.7851,-20.25974],[-43.78514,-20.25979],[-43.78517,-20.2598],[-43.7852,-20.25978],[-43.7852,-20.25963],[-43.78515,-20.25951],[-43.78518,-20.25946],[-43.78525,-20.25944],[-43.78528,-20.25945],[-43.78531,-20.25949],[-43.78535,-20.2595],[-43.78547,-20.2594],[-43.78554,-20.25938],[-43.78572,-20.2594],[-43.78578,-20.25937],[-43.78585,-20.25927],[-43.78598,-20.25916],[-43.78606,-20.25911],[-43.78612,-20.25911],[-43.78642,-20.25925],[-43.78755,-20.25786],[-43.78781,-20.25749],[-43.78796,-20.25724],[-43.78818,-20.25682],[-43.78829,-20.25631],[-43.78839,-20.25578],[-43.7886,-20.25502],[-43.78886,-20.25465],[-43.78906,-20.25442],[-43.78938,-20.25422],[-43.78978,-20.25403],[-43.79026,-20.2539],[-43.79082,-20.25365],[-43.79102,-20.25349],[-43.79128,-20.25319],[-43.79146,-20.25277],[-43.79151,-20.25245],[-43.79145,-20.25087],[-43.79151,-20.25047],[-43.79173,-20.25003],[-43.79199,-20.24967],[-43.79236,-20.24941],[-43.79387,-20.24866],[-43.79483,-20.24813],[-43.79569,-20.24727],[-43.79681,-20.24609],[-43.79715,-20.2457],[-43.79726,-20.24529],[-43.79708,-20.24511],[-43.79678,-20.24485],[-43.79615,-20.24441],[-43.79592,-20.24433],[-43.7957,-20.2443],[-43.79567,-20.24461],[-43.7955,-20.24487],[-43.79438,-20.24556],[-43.79402,-20.24564],[-43.7922,-20.24585],[-43.79147,-20.24567],[-43.79093,-20.24551],[-43.7907,-20.24539],[-43.78999,-20.24426],[-43.78992,-20.24436],[-43.78969,-20.24525],[-43.78963,-20.24531],[-43.78949,-20.24534],[-43.78935,-20.24526],[-43.78908,-20.24495],[-43.78907,-20.24489],[-43.78826,-20.24315],[-43.78775,-20.24301],[-43.78754,-20.24286],[-43.7864,-20.24186],[-43.78589,-20.24137],[-43.78554,-20.24078],[-43.78522,-20.24032],[-43.78501,-20.24009],[-43.78449,-20.23958],[-43.78437,-20.2394],[-43.78433,-20.2393],[-43.78425,-20.23929],[-43.78415,-20.23935],[-43.78403,-20.23936],[-43.78408,-20.23929],[-43.78408,-20.23909],[-43.78402,-20.23843],[-43.78388,-20.23813],[-43.78376,-20.23799],[-43.78363,-20.23793],[-43.78352,-20.23785],[-43.78336,-20.23765],[-43.78324,-20.23741],[-43.78295,-20.23601],[-43.78281,-20.23579],[-43.78253,-20.23557],[-43.78162,-20.23512],[-43.78143,-20.23501],[-43.78113,-20.23479],[-43.78098,-20.23461],[-43.78088,-20.23441],[-43.78054,-20.2339],[-43.78037,-20.23378],[-43.77995,-20.23372],[-43.7796,-20.2337],[-43.77929,-20.23364],[-43.77915,-20.23359],[-43.77885,-20.23334],[-43.77859,-20.23301],[-43.77839,-20.23261],[-43.77823,-20.23294],[-43.77814,-20.23323],[-43.77825,-20.2336],[-43.77833,-20.23373],[-43.77854,-20.23393],[-43.77883,-20.23416],[-43.7793,-20.23461],[-43.77957,-20.23509],[-43.77957,-20.23527],[-43.77932,-20.23544],[-43.77919,-20.23573],[-43.77898,-20.236],[-43.77817,-20.23642],[-43.7781,-20.23649],[-43.77802,-20.23673],[-43.77766,-20.23743],[-43.77742,-20.23761],[-43.77726,-20.23818],[-43.77727,-20.23833],[-43.77737,-20.23846],[-43.77767,-20.23876],[-43.77783,-20.23923],[-43.77781,-20.23942],[-43.77753,-20.24005],[-43.77742,-20.24016],[-43.77729,-20.24023],[-43.77706,-20.24028],[-43.7768,-20.24028],[-43.7767,-20.2403],[-43.77658,-20.24039],[-43.77657,-20.24054],[-43.77651,-20.24074],[-43.77619,-20.24094],[-43.77609,-20.24115],[-43.776,-20.24156],[-43.77584,-20.24173],[-43.7757,-20.24199],[-43.7757,-20.24222],[-43.77573,-20.24243],[-43.77571,-20.24252],[-43.77558,-20.24271],[-43.77541,-20.2429],[-43.77521,-20.24328],[-43.77516,-20.24342]]]]}},{"type":"Feature","properties":{"territory_id":"mg-3131901-saudade","name":"Saudade","municipality_id":"mg-3131901","polling_places":1,"approx":false,"official":true,"method":"official-ibge-cd2022","whole_municipality":false,"approx_coords_only":false,"official_name":"Saudade","official_code":"3131901004","match":"direct"},"geometry":{"type":"MultiPolygon","coordinates":[[[[-43.80743,-20.24902],[-43.80766,-20.24921],[-43.8086,-20.24984],[-43.80897,-20.24991],[-43.81026,-20.25003],[-43.81079,-20.24931],[-43.81035,-20.24899],[-43.81115,-20.2479],[-43.81067,-20.24759],[-43.8096,-20.24714],[-43.80899,-20.24698],[-43.80792,-20.24838],[-43.80743,-20.24902]]]]}},{"type":"Feature","properties":{"territory_id":"mg-3131901-vila-goncalo","name":"Vila Gonçalo","municipality_id":"mg-3131901","polling_places":2,"approx":false,"official":true,"method":"official-ibge-cd2022","whole_municipality":false,"approx_coords_only":false,"official_name":"Vila Gonçalo","official_code":"3131901019","match":"direct"},"geometry":{"type":"MultiPolygon","coordinates":[[[[-43.81478,-20.25038],[-43.81579,-20.24982],[-43.81586,-20.2498],[-43.81594,-20.24981],[-43.81604,-20.24988],[-43.81611,-20.24997],[-43.8162,-20.25013],[-43.81759,-20.24727],[-43.81741,-20.24731],[-43.81707,-20.24745],[-43.81676,-20.24747],[-43.81653,-20.24747],[-43.81628,-20.24756],[-43.81608,-20.24775],[-43.81546,-20.24797],[-43.81514,-20.24802],[-43.81497,-20.248],[-43.81484,-20.24801],[-43.81441,-20.24814],[-43.81404,-20.24819],[-43.81369,-20.24831],[-43.81357,-20.24833],[-43.81749,-20.24299],[-43.81742,-20.24299],[-43.81688,-20.24313],[-43.81686,-20.24318],[-43.81677,-20.2433],[-43.81639,-20.24356],[-43.81621,-20.24391],[-43.81608,-20.24401],[-43.81578,-20.24412],[-43.81562,-20.24413],[-43.81533,-20.24411],[-43.81517,-20.24414],[-43.81504,-20.24412],[-43.81486,-20.24406],[-43.81475,-20.24405],[-43.81469,-20.24409],[-43.81456,-20.24412],[-43.81448,-20.2442],[-43.8143,-20.24426],[-43.81396,-20.24453],[-43.81386,-20.24469],[-43.81371,-20.24482],[-43.81362,-20.24486],[-43.81359,-20.24492],[-43.81351,-20.24496],[-43.81337,-20.24502],[-43.81328,-20.24509],[-43.81322,-20.24516],[-43.81312,-20.2452],[-43.8131,-20.24517],[-43.81302,-20.24514],[-43.81282,-20.24518],[-43.81264,-20.24537],[-43.8124,-20.24548],[-43.81224,-20.24568],[-43.8122,-20.24576],[-43.8122,-20.24587],[-43.8121,-20.24603],[-43.81202,-20.24608],[-43.81193,-20.24619],[-43.81187,-20.24622],[-43.81125,-20.24626],[-43.81115,-20.24622],[-43.81106,-20.24623],[-43.8109,-20.24618],[-43.81056,-20.24602],[-43.80984,-20.24587],[-43.80899,-20.24698],[-43.8096,-20.24714],[-43.81067,-20.24759],[-43.81115,-20.2479],[-43.81035,-20.24899],[-43.81079,-20.24931],[-43.81026,-20.25003],[-43.81103,-20.25013],[-43.81116,-20.24986],[-43.81176,-20.25075],[-43.81191,-20.25065],[-43.81224,-20.2501],[-43.81243,-20.24983],[-43.81336,-20.25046],[-43.81398,-20.25094],[-43.81458,-20.25052],[-43.81478,-20.25038]]]]}},{"type":"Feature","properties":{"territory_id":"mg-3131901-vila-gutierrez","name":"Vila Gutierrez","municipality_id":"mg-3131901","polling_places":1,"approx":false,"official":true,"method":"official-ibge-cd2022","whole_municipality":false,"approx_coords_only":false,"official_name":"Gutierrez","official_code":"3131901015","match":"prefix"},"geometry":{"type":"MultiPolygon","coordinates":[[[[-43.81388,-20.26037],[-43.81381,-20.26015],[-43.81374,-20.26002],[-43.81358,-20.25986],[-43.81319,-20.2597],[-43.81301,-20.25958],[-43.81283,-20.25941],[-43.81265,-20.25929],[-43.812,-20.25927],[-43.81159,-20.25919],[-43.81112,-20.25912],[-43.8109,-20.25903],[-43.8109,-20.25931],[-43.81066,-20.25979],[-43.80922,-20.2611],[-43.80915,-20.26114],[-43.80891,-20.26123],[-43.80882,-20.2613],[-43.8087,-20.26142],[-43.80865,-20.26144],[-43.80852,-20.26139],[-43.80825,-20.26135],[-43.80808,-20.26138],[-43.8079,-20.26146],[-43.80786,-20.2615],[-43.80753,-20.26149],[-43.8075,-20.26152],[-43.80736,-20.26158],[-43.80737,-20.26166],[-43.80721,-20.26181],[-43.80717,-20.26191],[-43.80704,-20.2621],[-43.80671,-20.26222],[-43.80661,-20.26229],[-43.8063,-20.26253],[-43.80624,-20.26262],[-43.80607,-20.26273],[-43.80604,-20.26279],[-43.80592,-20.2629],[-43.80577,-20.26297],[-43.80572,-20.26308],[-43.80553,-20.26329],[-43.80542,-20.26332],[-43.80516,-20.26364],[-43.80509,-20.26381],[-43.80508,-20.26389],[-43.80514,-20.26399],[-43.80506,-20.26403],[-43.80511,-20.26417],[-43.80529,-20.26443],[-43.80541,-20.26474],[-43.80529,-20.26524],[-43.80479,-20.26596],[-43.80414,-20.26715],[-43.80401,-20.26749],[-43.80405,-20.2678],[-43.8042,-20.26812],[-43.80444,-20.26844],[-43.80466,-20.2687],[-43.80471,-20.26902],[-43.80461,-20.26954],[-43.8044,-20.27018],[-43.80422,-20.2706],[-43.80401,-20.27096],[-43.80372,-20.27118],[-43.80333,-20.27116],[-43.80298,-20.27107],[-43.80265,-20.27088],[-43.80218,-20.27098],[-43.80187,-20.27128],[-43.80183,-20.27162],[-43.80218,-20.27199],[-43.80263,-20.27238],[-43.80281,-20.27267],[-43.80398,-20.27265],[-43.80605,-20.27264],[-43.80796,-20.27235],[-43.81005,-20.27254],[-43.81169,-20.27273],[-43.81298,-20.27291],[-43.81318,-20.27312],[-43.81447,-20.2735],[-43.8153,-20.27347],[-43.81639,-20.27444],[-43.81671,-20.27459],[-43.8179,-20.27419],[-43.81926,-20.27268],[-43.82025,-20.27098],[-43.81999,-20.27025],[-43.81986,-20.26971],[-43.81966,-20.26831],[-43.81961,-20.26738],[-43.81944,-20.26558],[-43.81942,-20.26517],[-43.81947,-20.26437],[-43.81956,-20.26377],[-43.81964,-20.26344],[-43.81952,-20.26341],[-43.81948,-20.26327],[-43.81935,-20.26312],[-43.81921,-20.26302],[-43.81862,-20.26276],[-43.81832,-20.26261],[-43.81807,-20.26227],[-43.81791,-20.26194],[-43.81768,-20.26175],[-43.81756,-20.26155],[-43.81742,-20.26147],[-43.81732,-20.26143],[-43.81719,-20.26122],[-43.81711,-20.26096],[-43.81703,-20.26081],[-43.8169,-20.26037],[-43.81682,-20.26023],[-43.81669,-20.26008],[-43.81669,-20.26001],[-43.81646,-20.25986],[-43.81646,-20.2597],[-43.81654,-20.25956],[-43.81656,-20.25938],[-43.81669,-20.25925],[-43.81673,-20.25916],[-43.8167,-20.25896],[-43.81668,-20.25889],[-43.81655,-20.25873],[-43.81649,-20.25869],[-43.81649,-20.25863],[-43.81652,-20.25857],[-43.81656,-20.25853],[-43.81657,-20.25843],[-43.81642,-20.2582],[-43.81634,-20.25814],[-43.81622,-20.25799],[-43.81617,-20.25792],[-43.81611,-20.25775],[-43.81612,-20.25758],[-43.81615,-20.25752],[-43.81616,-20.25744],[-43.81613,-20.25736],[-43.81601,-20.25764],[-43.8159,-20.25921],[-43.81571,-20.25956],[-43.81518,-20.25978],[-43.81474,-20.25987],[-43.81451,-20.26022],[-43.81412,-20.26044],[-43.81398,-20.26046],[-43.8139,-20.2604],[-43.81388,-20.26037]]]]}}]}