{"type":"FeatureCollection","features":[{"type":"Feature","properties":{"territory_id":"mg-3131703-agua-fresca","name":"Água Fresca","municipality_id":"mg-3131703","polling_places":1,"approx":true,"official":false,"method":"voronoi-polling-places","whole_municipality":false,"approx_coords_only":false},"geometry":{"type":"MultiPolygon","coordinates":[[[[-43.22396,-19.63911],[-43.22328,-19.64346],[-43.21526,-19.64425],[-43.21169,-19.64134],[-43.21396,-19.63736],[-43.21581,-19.63564],[-43.22396,-19.63911]]]]}},{"type":"Feature","properties":{"territory_id":"mg-3131703-amazonas","name":"Amazonas","municipality_id":"mg-3131703","polling_places":2,"approx":true,"official":false,"method":"voronoi-polling-places","whole_municipality":false,"approx_coords_only":false},"geometry":{"type":"MultiPolygon","coordinates":[[[[-43.23708,-19.64437],[-43.22576,-19.64878],[-43.22465,-19.6455],[-43.22328,-19.64346],[-43.22396,-19.63911],[-43.22632,-19.63711],[-43.23209,-19.63918],[-43.23225,-19.63939],[-43.2327,-19.64013],[-43.23708,-19.64437]]]]}},{"type":"Feature","properties":{"territory_id":"mg-3131703-barreiro","name":"Barreiro","municipality_id":"mg-3131703","polling_places":1,"approx":true,"official":false,"method":"voronoi-polling-places","whole_municipality":false,"approx_coords_only":false},"geometry":{"type":"MultiPolygon","coordinates":[[[[-43.26727,-19.69298],[-43.26672,-19.69712],[-43.17532,-19.70298],[-43.17793,-19.68434],[-43.208,-19.67219],[-43.22519,-19.67287],[-43.24297,-19.6759],[-43.26727,-19.69298]]]]}},{"type":"Feature","properties":{"territory_id":"mg-3131703-campestre","name":"Campestre","municipality_id":"mg-3131703","polling_places":2,"approx":true,"official":false,"method":"voronoi-polling-places","whole_municipality":false,"approx_coords_only":false},"geometry":{"type":"MultiPolygon","coordinates":[[[[-43.29772,-19.56183],[-43.25464,-19.59634],[-43.22239,-19.61518],[-43.22119,-19.61743],[-43.22031,-19.61814],[-43.21975,-19.61846],[-43.2144,-19.61606],[-43.20419,-19.60771],[-43.21434,-19.59365],[-43.24536,-19.54306],[-43.29467,-19.55741],[-43.29772,-19.56183]]]]}},{"type":"Feature","properties":{"territory_id":"mg-3131703-centro","name":"Centro","municipality_id":"mg-3131703","polling_places":2,"approx":true,"official":false,"method":"voronoi-polling-places","whole_municipality":false,"approx_coords_only":false},"geometry":{"type":"MultiPolygon","coordinates":[[[[-43.22807,-19.62199],[-43.22745,-19.62327],[-43.22027,-19.6219],[-43.21975,-19.61846],[-43.22031,-19.61814],[-43.22119,-19.61743],[-43.22491,-19.61772],[-43.22734,-19.62136],[-43.22807,-19.62199]]]]}},{"type":"Feature","properties":{"territory_id":"mg-3131703-centro-de-ipoema","name":"Centro de Ipoema","municipality_id":"mg-3131703","polling_places":1,"approx":true,"official":false,"method":"voronoi-polling-places","whole_municipality":false,"approx_coords_only":false},"geometry":{"type":"MultiPolygon","coordinates":[[[[-43.47051,-19.67307],[-43.4519,-19.6829],[-43.4218,-19.6628],[-43.40927,-19.66783],[-43.38795,-19.6154],[-43.4699,-19.57359],[-43.47051,-19.67307]]]]}},{"type":"Feature","properties":{"territory_id":"mg-3131703-centro-de-senhora-do-carmo","name":"Centro de Senhora do Carmo","municipality_id":"mg-3131703","polling_places":1,"approx":true,"official":false,"method":"voronoi-polling-places","whole_municipality":false,"approx_coords_only":false},"geometry":{"type":"MultiPolygon","coordinates":[[[[-43.49765,-19.47763],[-43.33412,-19.57758],[-43.30859,-19.57514],[-43.29772,-19.56183],[-43.29467,-19.55741],[-43.31634,-19.4948],[-43.3267,-19.5114],[-43.3599,-19.4738],[-43.3597,-19.4309],[-43.3843,-19.4279],[-43.4388,-19.4617],[-43.4606,-19.4261],[-43.4821,-19.4192],[-43.48,-19.4531],[-43.49765,-19.47763]]]]}},{"type":"Feature","properties":{"territory_id":"mg-3131703-colina-da-praia","name":"Colina da Praia","municipality_id":"mg-3131703","polling_places":1,"approx":true,"official":false,"method":"voronoi-polling-places","whole_municipality":false,"approx_coords_only":false},"geometry":{"type":"MultiPolygon","coordinates":[[[[-43.21396,-19.63736],[-43.21169,-19.64134],[-43.21076,-19.64159],[-43.168,-19.65031],[-43.15887,-19.63193],[-43.20688,-19.62984],[-43.21396,-19.63736]]]]}},{"type":"Feature","properties":{"territory_id":"mg-3131703-eldorado","name":"Eldorado","municipality_id":"mg-3131703","polling_places":1,"approx":true,"official":false,"method":"voronoi-polling-places","whole_municipality":false,"approx_coords_only":false},"geometry":{"type":"MultiPolygon","coordinates":[[[[-43.21461,-19.62673],[-43.21391,-19.62722],[-43.21258,-19.62699],[-43.2013,-19.6097],[-43.20419,-19.60771],[-43.2144,-19.61606],[-43.21461,-19.62673]]]]}},{"type":"Feature","properties":{"territory_id":"mg-3131703-gabiroba","name":"Gabiroba","municipality_id":"mg-3131703","polling_places":2,"approx":true,"official":false,"method":"voronoi-polling-places","whole_municipality":false,"approx_coords_only":false},"geometry":{"type":"MultiPolygon","coordinates":[[[[-43.21853,-19.65644],[-43.21415,-19.66269],[-43.208,-19.67219],[-43.17793,-19.68434],[-43.168,-19.65031],[-43.21076,-19.64159],[-43.21169,-19.64134],[-43.21526,-19.64425],[-43.21853,-19.65644]]]]}},{"type":"Feature","properties":{"territory_id":"mg-3131703-joao-xxiii","name":"João Xxiii","municipality_id":"mg-3131703","polling_places":1,"approx":true,"official":false,"method":"voronoi-polling-places","whole_municipality":false,"approx_coords_only":false},"geometry":{"type":"MultiPolygon","coordinates":[[[[-43.2421,-19.64712],[-43.23937,-19.66053],[-43.23026,-19.65649],[-43.22829,-19.65428],[-43.2421,-19.64712]]]]}},{"type":"Feature","properties":{"territory_id":"mg-3131703-juca-rosa","name":"Juca Rosa","municipality_id":"mg-3131703","polling_places":2,"approx":true,"official":false,"method":"voronoi-polling-places","whole_municipality":false,"approx_coords_only":false},"geometry":{"type":"MultiPolygon","coordinates":[[[[-43.22064,-19.62801],[-43.22047,-19.63214],[-43.21587,-19.63541],[-43.21581,-19.63564],[-43.21396,-19.63736],[-43.20688,-19.62984],[-43.21258,-19.62699],[-43.21391,-19.62722],[-43.21461,-19.62673],[-43.21918,-19.62546],[-43.21997,-19.6262],[-43.22064,-19.62801]]]]}},{"type":"Feature","properties":{"territory_id":"mg-3131703-machado","name":"Machado","municipality_id":"mg-3131703","polling_places":1,"approx":true,"official":false,"method":"voronoi-polling-places","whole_municipality":false,"approx_coords_only":false},"geometry":{"type":"MultiPolygon","coordinates":[[[[-43.24245,-19.64633],[-43.2421,-19.64712],[-43.22829,-19.65428],[-43.22475,-19.65278],[-43.22576,-19.64878],[-43.23708,-19.64437],[-43.24245,-19.64633]]]]}},{"type":"Feature","properties":{"territory_id":"mg-3131703-major-lage-de-baixo","name":"Major Lage de Baixo","municipality_id":"mg-3131703","polling_places":1,"approx":true,"official":false,"method":"voronoi-polling-places","whole_municipality":false,"approx_coords_only":false},"geometry":{"type":"MultiPolygon","coordinates":[[[[-43.23459,-19.62964],[-43.23209,-19.63918],[-43.22632,-19.63711],[-43.2261,-19.63321],[-43.22747,-19.63074],[-43.22894,-19.62917],[-43.23459,-19.62964]]]]}},{"type":"Feature","properties":{"territory_id":"mg-3131703-major-lage-de-cima","name":"Major Lage de Cima","municipality_id":"mg-3131703","polling_places":2,"approx":true,"official":false,"method":"voronoi-polling-places","whole_municipality":false,"approx_coords_only":false},"geometry":{"type":"MultiPolygon","coordinates":[[[[-43.30158,-19.60752],[-43.30059,-19.61581],[-43.24245,-19.64633],[-43.23708,-19.64437],[-43.2327,-19.64013],[-43.23225,-19.63939],[-43.23209,-19.63918],[-43.23459,-19.62964],[-43.23511,-19.62944],[-43.2496,-19.62501],[-43.30158,-19.60752]]]]}},{"type":"Feature","properties":{"territory_id":"mg-3131703-monsenhor-jose-lopes","name":"Monsenhor José Lopes","municipality_id":"mg-3131703","polling_places":1,"approx":true,"official":false,"method":"voronoi-polling-places","whole_municipality":false,"approx_coords_only":false},"geometry":{"type":"MultiPolygon","coordinates":[[[[-43.23026,-19.65649],[-43.22519,-19.67287],[-43.208,-19.67219],[-43.21415,-19.66269],[-43.21853,-19.65644],[-43.22475,-19.65278],[-43.22829,-19.65428],[-43.23026,-19.65649]]]]}},{"type":"Feature","properties":{"territory_id":"mg-3131703-nossa-senhora-das-oliveiras","name":"Nossa Senhora das Oliveiras","municipality_id":"mg-3131703","polling_places":1,"approx":true,"official":false,"method":"voronoi-polling-places","whole_municipality":false,"approx_coords_only":false},"geometry":{"type":"MultiPolygon","coordinates":[[[[-43.21258,-19.62699],[-43.20688,-19.62984],[-43.15887,-19.63193],[-43.15756,-19.62981],[-43.2013,-19.6097],[-43.21258,-19.62699]]]]}},{"type":"Feature","properties":{"territory_id":"mg-3131703-panorama","name":"Panorama","municipality_id":"mg-3131703","polling_places":1,"approx":true,"official":false,"method":"voronoi-polling-places","whole_municipality":false,"approx_coords_only":false},"geometry":{"type":"MultiPolygon","coordinates":[[[[-43.22632,-19.63711],[-43.22396,-19.63911],[-43.21581,-19.63564],[-43.21587,-19.63541],[-43.22047,-19.63214],[-43.2261,-19.63321],[-43.22632,-19.63711]]]]}},{"type":"Feature","properties":{"territory_id":"mg-3131703-para","name":"Pará","municipality_id":"mg-3131703","polling_places":2,"approx":true,"official":false,"method":"voronoi-polling-places","whole_municipality":false,"approx_coords_only":false},"geometry":{"type":"MultiPolygon","coordinates":[[[[-43.30859,-19.57514],[-43.30158,-19.60752],[-43.2496,-19.62501],[-43.23511,-19.62944],[-43.23459,-19.62964],[-43.22894,-19.62917],[-43.22747,-19.62612],[-43.22745,-19.62327],[-43.22807,-19.62199],[-43.22965,-19.62067],[-43.24023,-19.60943],[-43.25464,-19.59634],[-43.29772,-19.56183],[-43.30859,-19.57514]]]]}},{"type":"Feature","properties":{"territory_id":"mg-3131703-pedreira-do-instituto","name":"Pedreira do Instituto","municipality_id":"mg-3131703","polling_places":1,"approx":true,"official":false,"method":"voronoi-polling-places","whole_municipality":false,"approx_coords_only":false},"geometry":{"type":"MultiPolygon","coordinates":[[[[-43.24536,-19.54306],[-43.21434,-19.59365],[-43.20419,-19.60771],[-43.2013,-19.6097],[-43.15756,-19.62981],[-43.1072,-19.58932],[-43.24493,-19.54281],[-43.24536,-19.54306]]]]}},{"type":"Feature","properties":{"territory_id":"mg-3131703-penha","name":"Penha","municipality_id":"mg-3131703","polling_places":2,"approx":true,"official":false,"method":"voronoi-polling-places","whole_municipality":false,"approx_coords_only":false},"geometry":{"type":"MultiPolygon","coordinates":[[[[-43.25464,-19.59634],[-43.24023,-19.60943],[-43.22965,-19.62067],[-43.22807,-19.62199],[-43.22734,-19.62136],[-43.22491,-19.61772],[-43.22119,-19.61743],[-43.22239,-19.61518],[-43.25464,-19.59634]]]]}},{"type":"Feature","properties":{"territory_id":"mg-3131703-quatorze-de-fevereiro","name":"Quatorze de Fevereiro","municipality_id":"mg-3131703","polling_places":1,"approx":true,"official":false,"method":"voronoi-polling-places","whole_municipality":false,"approx_coords_only":false},"geometry":{"type":"MultiPolygon","coordinates":[[[[-43.22894,-19.62917],[-43.22747,-19.63074],[-43.22064,-19.62801],[-43.21997,-19.6262],[-43.22747,-19.62612],[-43.22894,-19.62917]]]]}},{"type":"Feature","properties":{"territory_id":"mg-3131703-santa-ruth","name":"Santa Ruth","municipality_id":"mg-3131703","polling_places":1,"approx":true,"official":false,"method":"voronoi-polling-places","whole_municipality":false,"approx_coords_only":false},"geometry":{"type":"MultiPolygon","coordinates":[[[[-43.24297,-19.6759],[-43.22519,-19.67287],[-43.23026,-19.65649],[-43.23937,-19.66053],[-43.24297,-19.6759]]]]}},{"type":"Feature","properties":{"territory_id":"mg-3131703-sao-pedro","name":"São Pedro","municipality_id":"mg-3131703","polling_places":1,"approx":true,"official":false,"method":"voronoi-polling-places","whole_municipality":false,"approx_coords_only":false},"geometry":{"type":"MultiPolygon","coordinates":[[[[-43.22027,-19.6219],[-43.21918,-19.62546],[-43.21461,-19.62673],[-43.2144,-19.61606],[-43.21975,-19.61846],[-43.22027,-19.6219]]]]}},{"type":"Feature","properties":{"territory_id":"mg-3131703-vila-bethania","name":"Vila Bethania","municipality_id":"mg-3131703","polling_places":1,"approx":true,"official":false,"method":"voronoi-polling-places","whole_municipality":false,"approx_coords_only":false},"geometry":{"type":"MultiPolygon","coordinates":[[[[-43.22576,-19.64878],[-43.22475,-19.65278],[-43.21853,-19.65644],[-43.21526,-19.64425],[-43.22328,-19.64346],[-43.22465,-19.6455],[-43.22576,-19.64878]]]]}},{"type":"Feature","properties":{"territory_id":"mg-3131703-vila-conceicao-de-baixo","name":"Vila Conceição de Baixo","municipality_id":"mg-3131703","polling_places":1,"approx":true,"official":false,"method":"voronoi-polling-places","whole_municipality":false,"approx_coords_only":false},"geometry":{"type":"MultiPolygon","coordinates":[[[[-43.30185,-19.64018],[-43.26727,-19.69298],[-43.24297,-19.6759],[-43.23937,-19.66053],[-43.2421,-19.64712],[-43.24245,-19.64633],[-43.30059,-19.61581],[-43.30185,-19.64018]]]]}},{"type":"Feature","properties":{"territory_id":"mg-3131703-vila-santa-rosa","name":"Vila Santa Rosa","municipality_id":"mg-3131703","polling_places":1,"approx":true,"official":false,"method":"voronoi-polling-places","whole_municipality":false,"approx_coords_only":false},"geometry":{"type":"MultiPolygon","coordinates":[[[[-43.22747,-19.63074],[-43.2261,-19.63321],[-43.22047,-19.63214],[-43.22064,-19.62801],[-43.22747,-19.63074]]]]}},{"type":"Feature","properties":{"territory_id":"mg-3131703-zona-rural","name":"Zona Rural","municipality_id":"mg-3131703","polling_places":8,"approx":true,"official":false,"method":"voronoi-polling-places","whole_municipality":false,"approx_coords_only":false},"geometry":{"type":"MultiPolygon","coordinates":[[[[-43.5429,-19.5405],[-43.5417,-19.6239],[-43.5125,-19.6509],[-43.47051,-19.67307],[-43.4699,-19.57359],[-43.50811,-19.49216],[-43.5429,-19.5405]]],[[[-43.33584,-19.67684],[-43.3338,-19.677],[-43.3292,-19.736],[-43.2713,-19.777],[-43.223,-19.7834],[-43.1957,-19.789],[-43.1626,-19.7759],[-43.1656,-19.7478],[-43.1101,-19.7267],[-43.0828,-19.6531],[-43.062,-19.6266],[-43.0574,-19.5778],[-43.1092,-19.5586],[-43.1297,-19.5295],[-43.192,-19.5254],[-43.1967,-19.5014],[-43.2322,-19.4556],[-43.2006,-19.4221],[-43.2437,-19.452],[-43.2946,-19.46],[-43.31634,-19.4948],[-43.29467,-19.55741],[-43.24536,-19.54306],[-43.24493,-19.54281],[-43.1072,-19.58932],[-43.15756,-19.62981],[-43.15887,-19.63193],[-43.168,-19.65031],[-43.17793,-19.68434],[-43.17532,-19.70298],[-43.26672,-19.69712],[-43.26727,-19.69298],[-43.30185,-19.64018],[-43.33584,-19.67684]]],[[[-43.22747,-19.62612],[-43.21997,-19.6262],[-43.21918,-19.62546],[-43.22027,-19.6219],[-43.22745,-19.62327],[-43.22747,-19.62612]]]]}},{"type":"Feature","properties":{"territory_id":"mg-3131703-zona-rural-de-ipoema","name":"Zona Rural de Ipoema","municipality_id":"mg-3131703","polling_places":2,"approx":true,"official":false,"method":"voronoi-polling-places","whole_municipality":false,"approx_coords_only":false},"geometry":{"type":"MultiPolygon","coordinates":[[[[-43.50811,-19.49216],[-43.4699,-19.57359],[-43.38795,-19.6154],[-43.40927,-19.66783],[-43.3996,-19.6717],[-43.33584,-19.67684],[-43.30185,-19.64018],[-43.30059,-19.61581],[-43.30158,-19.60752],[-43.30859,-19.57514],[-43.33412,-19.57758],[-43.49765,-19.47763],[-43.50811,-19.49216]]]]}}]}