{"type":"FeatureCollection","features":[{"type":"Feature","properties":{"territory_id":"mg-3131158-agua-limpa-dos-goncalves","name":"Água Limpa dos Gonçalves","municipality_id":"mg-3131158","polling_places":1,"approx":true,"official":false,"method":"voronoi-polling-places","whole_municipality":false,"approx_coords_only":false},"geometry":{"type":"MultiPolygon","coordinates":[[[[-42.35833,-19.41089],[-42.34653,-19.44564],[-42.33881,-19.44496],[-42.31285,-19.41179],[-42.3289,-19.4102],[-42.33643,-19.39944],[-42.35833,-19.41089]]]]}},{"type":"Feature","properties":{"territory_id":"mg-3131158-boacha","name":"Boachá","municipality_id":"mg-3131158","polling_places":1,"approx":true,"official":false,"method":"voronoi-polling-places","whole_municipality":false,"approx_coords_only":false},"geometry":{"type":"MultiPolygon","coordinates":[[[[-42.4192,-19.3362],[-42.41699,-19.35672],[-42.41083,-19.36606],[-42.3756,-19.40977],[-42.35833,-19.41089],[-42.33643,-19.39944],[-42.3545,-19.3736],[-42.3901,-19.3532],[-42.3867,-19.328],[-42.4192,-19.3362]]]]}},{"type":"Feature","properties":{"territory_id":"mg-3131158-centro","name":"Centro","municipality_id":"mg-3131158","polling_places":3,"approx":true,"official":false,"method":"voronoi-polling-places","whole_municipality":false,"approx_coords_only":false},"geometry":{"type":"MultiPolygon","coordinates":[[[[-42.4321,-19.4395],[-42.4007,-19.4483],[-42.3756,-19.40977],[-42.41083,-19.36606],[-42.41699,-19.35672],[-42.4134,-19.39],[-42.4321,-19.4395]]],[[[-42.33881,-19.44496],[-42.3381,-19.4449],[-42.2952,-19.4553],[-42.2784,-19.4438],[-42.2967,-19.4134],[-42.31285,-19.41179],[-42.33881,-19.44496]]]]}},{"type":"Feature","properties":{"territory_id":"mg-3131158-vale-verde","name":"Vale Verde","municipality_id":"mg-3131158","polling_places":1,"approx":true,"official":false,"method":"voronoi-polling-places","whole_municipality":false,"approx_coords_only":false},"geometry":{"type":"MultiPolygon","coordinates":[[[[-42.4007,-19.4483],[-42.395,-19.4499],[-42.34653,-19.44564],[-42.35833,-19.41089],[-42.3756,-19.40977],[-42.4007,-19.4483]]]]}}]}