{"type":"FeatureCollection","features":[{"type":"Feature","properties":{"territory_id":"mg-3131604-bagagem","name":"Bagagem","municipality_id":"mg-3131604","polling_places":1,"approx":true,"official":false,"method":"voronoi-polling-places","whole_municipality":false,"approx_coords_only":false},"geometry":{"type":"MultiPolygon","coordinates":[[[[-47.46696,-18.97397],[-47.46622,-18.97561],[-47.41505,-19.02666],[-47.34078,-19.00884],[-47.3395,-18.9594],[-47.4069,-18.9606],[-47.4578,-18.9777],[-47.46696,-18.97397]]]]}},{"type":"Feature","properties":{"territory_id":"mg-3131604-centro","name":"Centro","municipality_id":"mg-3131604","polling_places":1,"approx":true,"official":false,"method":"voronoi-polling-places","whole_municipality":false,"approx_coords_only":false},"geometry":{"type":"MultiPolygon","coordinates":[[[[-47.46622,-18.97561],[-47.46532,-19.04278],[-47.41505,-19.02666],[-47.46622,-18.97561]]]]}},{"type":"Feature","properties":{"territory_id":"mg-3131604-residencial-campestre","name":"Residencial Campestre","municipality_id":"mg-3131604","polling_places":1,"approx":true,"official":false,"method":"voronoi-polling-places","whole_municipality":false,"approx_coords_only":false},"geometry":{"type":"MultiPolygon","coordinates":[[[[-47.595,-19.0451],[-47.5776,-19.088],[-47.46532,-19.04278],[-47.46622,-18.97561],[-47.46696,-18.97397],[-47.4934,-18.9632],[-47.4957,-18.9885],[-47.5349,-19.0085],[-47.573,-19.0129],[-47.595,-19.0451]]]]}},{"type":"Feature","properties":{"territory_id":"mg-3131604-zona-rural","name":"Zona Rural","municipality_id":"mg-3131604","polling_places":1,"approx":true,"official":false,"method":"voronoi-polling-places","whole_municipality":false,"approx_coords_only":false},"geometry":{"type":"MultiPolygon","coordinates":[[[[-47.5776,-19.088],[-47.5703,-19.106],[-47.5584,-19.0975],[-47.4703,-19.1192],[-47.4409,-19.1387],[-47.3895,-19.1276],[-47.3601,-19.0328],[-47.341,-19.0173],[-47.34078,-19.00884],[-47.41505,-19.02666],[-47.46532,-19.04278],[-47.5776,-19.088]]]]}}]}