{"type":"FeatureCollection","features":[{"type":"Feature","properties":{"territory_id":"mg-3131505-barreiro","name":"Barreiro","municipality_id":"mg-3131505","polling_places":1,"approx":true,"official":false,"method":"voronoi-polling-places","whole_municipality":false,"approx_coords_only":false},"geometry":{"type":"MultiPolygon","coordinates":[[[[-46.14458,-22.01181],[-46.13896,-22.10119],[-46.0998,-22.1008],[-46.0741,-22.0901],[-46.051,-22.0357],[-46.0524,-22.00703],[-46.14458,-22.01181]]]]}},{"type":"Feature","properties":{"territory_id":"mg-3131505-centro","name":"Centro","municipality_id":"mg-3131505","polling_places":2,"approx":true,"official":false,"method":"voronoi-polling-places","whole_municipality":false,"approx_coords_only":false},"geometry":{"type":"MultiPolygon","coordinates":[[[[-46.2551,-22.1459],[-46.252,-22.1454],[-46.1992,-22.1377],[-46.17004,-22.11978],[-46.1895,-22.09651],[-46.20358,-22.04894],[-46.2384,-22.0727],[-46.2377,-22.1095],[-46.2551,-22.1459]]]]}},{"type":"Feature","properties":{"territory_id":"mg-3131505-tamandua","name":"Tamanduá","municipality_id":"mg-3131505","polling_places":1,"approx":true,"official":false,"method":"voronoi-polling-places","whole_municipality":false,"approx_coords_only":false},"geometry":{"type":"MultiPolygon","coordinates":[[[[-46.15735,-22.00524],[-46.14458,-22.01181],[-46.0524,-22.00703],[-46.0556,-21.9414],[-46.072,-21.9117],[-46.0615,-21.8756],[-46.0805,-21.8582],[-46.0916,-21.8765],[-46.1372,-21.9436],[-46.1502,-21.9958],[-46.15735,-22.00524]]]]}},{"type":"Feature","properties":{"territory_id":"mg-3131505-turvo","name":"Turvo","municipality_id":"mg-3131505","polling_places":1,"approx":true,"official":false,"method":"voronoi-polling-places","whole_municipality":false,"approx_coords_only":false},"geometry":{"type":"MultiPolygon","coordinates":[[[[-46.20358,-22.04894],[-46.1895,-22.09651],[-46.17004,-22.11978],[-46.1398,-22.1012],[-46.13896,-22.10119],[-46.14458,-22.01181],[-46.15735,-22.00524],[-46.1764,-22.0304],[-46.20358,-22.04894]]]]}}]}