{"type":"FeatureCollection","features":[{"type":"Feature","properties":{"territory_id":"mg-3132008-centro","name":"Centro","municipality_id":"mg-3132008","polling_places":2,"approx":true,"official":false,"method":"voronoi-polling-places","whole_municipality":false,"approx_coords_only":false},"geometry":{"type":"MultiPolygon","coordinates":[[[[-43.5675,-17.0711],[-43.5165,-17.1511],[-43.4887,-17.1777],[-43.2827,-17.1355],[-43.25476,-17.13644],[-43.30644,-17.06901],[-43.31151,-17.06515],[-43.31168,-17.0682],[-43.40002,-16.94927],[-43.4388,-16.93615],[-43.4361,-16.9544],[-43.5661,-16.9638],[-43.554,-17.0071],[-43.5675,-17.0711]]]]}},{"type":"Feature","properties":{"territory_id":"mg-3132008-zona-rural","name":"Zona Rural","municipality_id":"mg-3132008","polling_places":11,"approx":true,"official":false,"method":"voronoi-polling-places","whole_municipality":false,"approx_coords_only":false},"geometry":{"type":"MultiPolygon","coordinates":[[[[-43.4872,-16.8147],[-43.4613,-16.8386],[-43.4551,-16.8727],[-43.4677,-16.9196],[-43.4405,-16.9246],[-43.4388,-16.93615],[-43.40002,-16.94927],[-43.31168,-17.0682],[-43.31151,-17.06515],[-43.30644,-17.06901],[-43.25476,-17.13644],[-43.2293,-17.1373],[-43.207,-17.1057],[-43.18,-17.0857],[-43.175,-17.0138],[-43.1345,-16.981],[-43.1193,-16.9207],[-43.1206,-16.8893],[-43.1469,-16.8435],[-43.1801,-16.7247],[-43.1985,-16.6916],[-43.1295,-16.694],[-43.159,-16.6593],[-43.2155,-16.6441],[-43.2305,-16.6623],[-43.2745,-16.6591],[-43.3415,-16.6971],[-43.3604,-16.7335],[-43.3938,-16.7316],[-43.4477,-16.7994],[-43.4872,-16.8147]]]]}}]}