{"type":"FeatureCollection","features":[{"type":"Feature","properties":{"territory_id":"mg-3132107-bairro-sao-jose","name":"Bairro Sao Jose","municipality_id":"mg-3132107","polling_places":1,"approx":true,"official":false,"method":"voronoi-polling-places","whole_municipality":false,"approx_coords_only":false},"geometry":{"type":"MultiPolygon","coordinates":[[[[-44.19873,-15.0834],[-44.17396,-15.11306],[-44.11086,-15.11529],[-44.09823,-15.0979],[-44.0981,-15.09553],[-44.09871,-15.09363],[-44.11545,-15.07841],[-44.19873,-15.0834]]]]}},{"type":"Feature","properties":{"territory_id":"mg-3132107-caraibas","name":"Caraibas","municipality_id":"mg-3132107","polling_places":1,"approx":true,"official":false,"method":"voronoi-polling-places","whole_municipality":false,"approx_coords_only":false},"geometry":{"type":"MultiPolygon","coordinates":[[[[-44.3307,-15.03333],[-44.3271,-15.0412],[-44.2763,-15.0877],[-44.23143,-15.09964],[-44.20265,-15.08028],[-44.20243,-15.07766],[-44.19539,-14.97092],[-44.2154,-14.9691],[-44.2779,-14.9937],[-44.28834,-14.98803],[-44.3307,-15.03333]]]]}},{"type":"Feature","properties":{"territory_id":"mg-3132107-centro","name":"Centro","municipality_id":"mg-3132107","polling_places":4,"approx":true,"official":false,"method":"voronoi-polling-places","whole_municipality":false,"approx_coords_only":false},"geometry":{"type":"MultiPolygon","coordinates":[[[[-44.11086,-15.11529],[-44.09708,-15.11869],[-44.05052,-15.13317],[-44.06623,-15.10217],[-44.06811,-15.09756],[-44.07326,-15.08193],[-44.09871,-15.09363],[-44.0981,-15.09553],[-44.09823,-15.0979],[-44.11086,-15.11529]]]]}},{"type":"Feature","properties":{"territory_id":"mg-3132107-comunidade-de-junco","name":"Comunidade de Junco","municipality_id":"mg-3132107","polling_places":1,"approx":true,"official":false,"method":"voronoi-polling-places","whole_municipality":false,"approx_coords_only":false},"geometry":{"type":"MultiPolygon","coordinates":[[[[-44.17396,-15.11306],[-44.13778,-15.18993],[-44.06192,-15.1836],[-44.0425,-15.1502],[-44.04239,-15.14129],[-44.05052,-15.13317],[-44.09708,-15.11869],[-44.11086,-15.11529],[-44.17396,-15.11306]]]]}},{"type":"Feature","properties":{"territory_id":"mg-3132107-fabiao-ii","name":"Fabiao Ii","municipality_id":"mg-3132107","polling_places":1,"approx":true,"official":false,"method":"voronoi-polling-places","whole_municipality":false,"approx_coords_only":false},"geometry":{"type":"MultiPolygon","coordinates":[[[[-44.2418,-15.1361],[-44.2243,-15.1685],[-44.1695,-15.1745],[-44.13906,-15.19226],[-44.13778,-15.18993],[-44.17396,-15.11306],[-44.19873,-15.0834],[-44.20265,-15.08028],[-44.23143,-15.09964],[-44.2312,-15.0997],[-44.2418,-15.1361]]]]}},{"type":"Feature","properties":{"territory_id":"mg-3132107-riachao-pajeu","name":"Riachao Pajeu","municipality_id":"mg-3132107","polling_places":1,"approx":true,"official":false,"method":"voronoi-polling-places","whole_municipality":false,"approx_coords_only":false},"geometry":{"type":"MultiPolygon","coordinates":[[[[-44.20265,-15.08028],[-44.19873,-15.0834],[-44.11545,-15.07841],[-44.07648,-15.06663],[-44.06958,-15.04878],[-44.20243,-15.07766],[-44.20265,-15.08028]]]]}},{"type":"Feature","properties":{"territory_id":"mg-3132107-serraria","name":"Serraria","municipality_id":"mg-3132107","polling_places":1,"approx":true,"official":false,"method":"voronoi-polling-places","whole_municipality":false,"approx_coords_only":false},"geometry":{"type":"MultiPolygon","coordinates":[[[[-44.08811,-15.43648],[-44.0461,-15.4476],[-44.0298,-15.4873],[-44.0018,-15.5052],[-43.965,-15.4616],[-43.9304,-15.4375],[-43.9376,-15.3682],[-43.9287,-15.3081],[-43.9912,-15.2556],[-43.99894,-15.25437],[-44.08811,-15.43648]]]]}},{"type":"Feature","properties":{"territory_id":"mg-3132107-vargem-grande","name":"Vargem Grande","municipality_id":"mg-3132107","polling_places":1,"approx":true,"official":false,"method":"voronoi-polling-places","whole_municipality":false,"approx_coords_only":false},"geometry":{"type":"MultiPolygon","coordinates":[[[[-44.4872,-14.9643],[-44.4679,-14.9804],[-44.3803,-14.9735],[-44.3498,-14.9915],[-44.3307,-15.03333],[-44.28834,-14.98803],[-44.3942,-14.9305],[-44.4544,-14.9256],[-44.4837,-14.9071],[-44.4872,-14.9643]]]]}},{"type":"Feature","properties":{"territory_id":"mg-3132107-vila-florentina","name":"Vila Florentina","municipality_id":"mg-3132107","polling_places":2,"approx":true,"official":false,"method":"voronoi-polling-places","whole_municipality":false,"approx_coords_only":false},"geometry":{"type":"MultiPolygon","coordinates":[[[[-44.1543,-15.3576],[-44.1392,-15.3929],[-44.1069,-15.4315],[-44.08811,-15.43648],[-43.99894,-15.25437],[-44.0263,-15.25],[-44.0689,-15.1956],[-44.06192,-15.1836],[-44.13778,-15.18993],[-44.13906,-15.19226],[-44.1061,-15.2115],[-44.1358,-15.2598],[-44.1164,-15.2763],[-44.1275,-15.3185],[-44.1543,-15.3576]]],[[[-44.11545,-15.07841],[-44.09871,-15.09363],[-44.07326,-15.08193],[-44.07648,-15.06663],[-44.11545,-15.07841]]]]}},{"type":"Feature","properties":{"territory_id":"mg-3132107-zona-rural","name":"Zona Rural","municipality_id":"mg-3132107","polling_places":3,"approx":true,"official":false,"method":"voronoi-polling-places","whole_municipality":false,"approx_coords_only":false},"geometry":{"type":"MultiPolygon","coordinates":[[[[-44.20243,-15.07766],[-44.06958,-15.04878],[-44.07648,-15.06663],[-44.07326,-15.08193],[-44.06811,-15.09756],[-44.06623,-15.10217],[-44.05052,-15.13317],[-44.04239,-15.14129],[-44.042,-15.1096],[-44.0157,-15.059],[-44.0181,-15.0142],[-43.9974,-14.9767],[-44.0065,-14.9787],[-44.0627,-14.9909],[-44.106,-14.9628],[-44.1395,-14.976],[-44.19539,-14.97092],[-44.20243,-15.07766]]]]}}]}