{"type":"FeatureCollection","features":[{"type":"Feature","properties":{"territory_id":"mg-3132404-acude","name":"Açude","municipality_id":"mg-3132404","polling_places":1,"approx":true,"official":false,"method":"voronoi-polling-places","whole_municipality":false,"approx_coords_only":false},"geometry":{"type":"MultiPolygon","coordinates":[[[[-45.5291,-22.3877],[-45.516,-22.4372],[-45.52061,-22.45068],[-45.48572,-22.43379],[-45.49651,-22.40854],[-45.52163,-22.38118],[-45.5291,-22.3877]]]]}},{"type":"Feature","properties":{"territory_id":"mg-3132404-anhumas","name":"Anhumas","municipality_id":"mg-3132404","polling_places":1,"approx":true,"official":false,"method":"voronoi-polling-places","whole_municipality":false,"approx_coords_only":false},"geometry":{"type":"MultiPolygon","coordinates":[[[[-45.49896,-22.47432],[-45.44792,-22.50374],[-45.42754,-22.49094],[-45.42748,-22.49033],[-45.43751,-22.47021],[-45.44471,-22.46099],[-45.46293,-22.45477],[-45.48143,-22.46155],[-45.49896,-22.47432]]]]}},{"type":"Feature","properties":{"territory_id":"mg-3132404-ano-bom","name":"Ano Bom","municipality_id":"mg-3132404","polling_places":1,"approx":true,"official":false,"method":"voronoi-polling-places","whole_municipality":false,"approx_coords_only":false},"geometry":{"type":"MultiPolygon","coordinates":[[[[-45.41378,-22.37395],[-45.3958,-22.41518],[-45.37008,-22.37593],[-45.38287,-22.35934],[-45.41378,-22.37395]]]]}},{"type":"Feature","properties":{"territory_id":"mg-3132404-avenida","name":"Avenida","municipality_id":"mg-3132404","polling_places":2,"approx":true,"official":false,"method":"voronoi-polling-places","whole_municipality":false,"approx_coords_only":false},"geometry":{"type":"MultiPolygon","coordinates":[[[[-45.47452,-22.42644],[-45.46416,-22.4319],[-45.46166,-22.43034],[-45.46154,-22.43029],[-45.46507,-22.42375],[-45.47356,-22.4235],[-45.47382,-22.42442],[-45.47452,-22.42644]]]]}},{"type":"Feature","properties":{"territory_id":"mg-3132404-boa-vista","name":"Boa Vista","municipality_id":"mg-3132404","polling_places":1,"approx":true,"official":false,"method":"voronoi-polling-places","whole_municipality":false,"approx_coords_only":false},"geometry":{"type":"MultiPolygon","coordinates":[[[[-45.46507,-22.42375],[-45.46154,-22.43029],[-45.46092,-22.43035],[-45.45775,-22.42617],[-45.4587,-22.42404],[-45.4634,-22.42318],[-45.46507,-22.42375]]]]}},{"type":"Feature","properties":{"territory_id":"mg-3132404-capetinga","name":"Capetinga","municipality_id":"mg-3132404","polling_places":1,"approx":true,"official":false,"method":"voronoi-polling-places","whole_municipality":false,"approx_coords_only":false},"geometry":{"type":"MultiPolygon","coordinates":[[[[-45.5004,-22.36578],[-45.46313,-22.40043],[-45.43962,-22.39747],[-45.43523,-22.36587],[-45.4458,-22.3546],[-45.4824,-22.355],[-45.5004,-22.36578]]]]}},{"type":"Feature","properties":{"territory_id":"mg-3132404-centro","name":"Centro","municipality_id":"mg-3132404","polling_places":2,"approx":true,"official":false,"method":"voronoi-polling-places","whole_municipality":false,"approx_coords_only":false},"geometry":{"type":"MultiPolygon","coordinates":[[[[-45.4587,-22.42404],[-45.45775,-22.42617],[-45.45436,-22.42755],[-45.45376,-22.42909],[-45.45203,-22.43172],[-45.44873,-22.42456],[-45.4509,-22.42355],[-45.45277,-22.4179],[-45.45467,-22.41698],[-45.4587,-22.42404]]]]}},{"type":"Feature","properties":{"territory_id":"mg-3132404-distrito-industrial","name":"Distrito Industrial","municipality_id":"mg-3132404","polling_places":1,"approx":true,"official":false,"method":"voronoi-polling-places","whole_municipality":false,"approx_coords_only":false},"geometry":{"type":"MultiPolygon","coordinates":[[[[-45.49651,-22.40854],[-45.48572,-22.43379],[-45.48403,-22.43399],[-45.47644,-22.4298],[-45.47452,-22.42644],[-45.47382,-22.42442],[-45.47356,-22.4235],[-45.47401,-22.42104],[-45.49651,-22.40854]]]]}},{"type":"Feature","properties":{"territory_id":"mg-3132404-freires","name":"Freires","municipality_id":"mg-3132404","polling_places":1,"approx":true,"official":false,"method":"voronoi-polling-places","whole_municipality":false,"approx_coords_only":false},"geometry":{"type":"MultiPolygon","coordinates":[[[[-45.44792,-22.50374],[-45.4296,-22.5143],[-45.4301,-22.5397],[-45.3932,-22.524],[-45.39289,-22.51726],[-45.42754,-22.49094],[-45.44792,-22.50374]]]]}},{"type":"Feature","properties":{"territory_id":"mg-3132404-goiabal","name":"Goiabal","municipality_id":"mg-3132404","polling_places":1,"approx":true,"official":false,"method":"voronoi-polling-places","whole_municipality":false,"approx_coords_only":false},"geometry":{"type":"MultiPolygon","coordinates":[[[[-45.38287,-22.35934],[-45.37008,-22.37593],[-45.35155,-22.37542],[-45.33543,-22.34089],[-45.3405,-22.3393],[-45.38287,-22.35934]]]]}},{"type":"Feature","properties":{"territory_id":"mg-3132404-imbel","name":"Imbel","municipality_id":"mg-3132404","polling_places":1,"approx":true,"official":false,"method":"voronoi-polling-places","whole_municipality":false,"approx_coords_only":false},"geometry":{"type":"MultiPolygon","coordinates":[[[[-45.44471,-22.46099],[-45.43751,-22.47021],[-45.41425,-22.42656],[-45.44234,-22.44119],[-45.44267,-22.4417],[-45.44471,-22.46099]]]]}},{"type":"Feature","properties":{"territory_id":"mg-3132404-jardim-bernadete","name":"Jardim Bernadete","municipality_id":"mg-3132404","polling_places":1,"approx":true,"official":false,"method":"voronoi-polling-places","whole_municipality":false,"approx_coords_only":false},"geometry":{"type":"MultiPolygon","coordinates":[[[[-45.48403,-22.43399],[-45.48186,-22.43913],[-45.46486,-22.44771],[-45.46505,-22.44346],[-45.46636,-22.44082],[-45.47644,-22.4298],[-45.48403,-22.43399]]]]}},{"type":"Feature","properties":{"territory_id":"mg-3132404-juru","name":"Juru","municipality_id":"mg-3132404","polling_places":1,"approx":true,"official":false,"method":"voronoi-polling-places","whole_municipality":false,"approx_coords_only":false},"geometry":{"type":"MultiPolygon","coordinates":[[[[-45.43962,-22.39747],[-45.42835,-22.40986],[-45.40408,-22.41685],[-45.39598,-22.41618],[-45.3958,-22.41518],[-45.41378,-22.37395],[-45.4234,-22.3785],[-45.43523,-22.36587],[-45.43962,-22.39747]]]]}},{"type":"Feature","properties":{"territory_id":"mg-3132404-medicina","name":"Medicina","municipality_id":"mg-3132404","polling_places":2,"approx":true,"official":false,"method":"voronoi-polling-places","whole_municipality":false,"approx_coords_only":false},"geometry":{"type":"MultiPolygon","coordinates":[[[[-45.46505,-22.44346],[-45.46486,-22.44771],[-45.46293,-22.45477],[-45.44471,-22.46099],[-45.44267,-22.4417],[-45.44953,-22.43614],[-45.45171,-22.4329],[-45.45917,-22.43324],[-45.45997,-22.43734],[-45.46505,-22.44346]]]]}},{"type":"Feature","properties":{"territory_id":"mg-3132404-morro-chic","name":"Morro Chic","municipality_id":"mg-3132404","polling_places":1,"approx":true,"official":false,"method":"voronoi-polling-places","whole_municipality":false,"approx_coords_only":false},"geometry":{"type":"MultiPolygon","coordinates":[[[[-45.4634,-22.42318],[-45.4587,-22.42404],[-45.45467,-22.41698],[-45.45922,-22.41044],[-45.4634,-22.42318]]]]}},{"type":"Feature","properties":{"territory_id":"mg-3132404-novo-horizonte","name":"Novo Horizonte","municipality_id":"mg-3132404","polling_places":1,"approx":true,"official":false,"method":"voronoi-polling-places","whole_municipality":false,"approx_coords_only":false},"geometry":{"type":"MultiPolygon","coordinates":[[[[-45.52163,-22.38118],[-45.49651,-22.40854],[-45.47401,-22.42104],[-45.46316,-22.40144],[-45.46313,-22.40043],[-45.5004,-22.36578],[-45.5118,-22.3726],[-45.52163,-22.38118]]]]}},{"type":"Feature","properties":{"territory_id":"mg-3132404-oriente","name":"Oriente","municipality_id":"mg-3132404","polling_places":1,"approx":true,"official":false,"method":"voronoi-polling-places","whole_municipality":false,"approx_coords_only":false},"geometry":{"type":"MultiPolygon","coordinates":[[[[-45.45277,-22.4179],[-45.4509,-22.42355],[-45.44873,-22.42456],[-45.44602,-22.42541],[-45.44145,-22.42564],[-45.43355,-22.41415],[-45.45277,-22.4179]]]]}},{"type":"Feature","properties":{"territory_id":"mg-3132404-peroba","name":"Peroba","municipality_id":"mg-3132404","polling_places":1,"approx":true,"official":false,"method":"voronoi-polling-places","whole_municipality":false,"approx_coords_only":false},"geometry":{"type":"MultiPolygon","coordinates":[[[[-45.39598,-22.41618],[-45.37793,-22.4383],[-45.36651,-22.44177],[-45.3347,-22.405],[-45.32541,-22.40366],[-45.35155,-22.37542],[-45.37008,-22.37593],[-45.3958,-22.41518],[-45.39598,-22.41618]]]]}},{"type":"Feature","properties":{"territory_id":"mg-3132404-piedade","name":"Piedade","municipality_id":"mg-3132404","polling_places":1,"approx":true,"official":false,"method":"voronoi-polling-places","whole_municipality":false,"approx_coords_only":false},"geometry":{"type":"MultiPolygon","coordinates":[[[[-45.5238,-22.46],[-45.49896,-22.47432],[-45.48143,-22.46155],[-45.48186,-22.43913],[-45.48403,-22.43399],[-45.48572,-22.43379],[-45.52061,-22.45068],[-45.5238,-22.46]]]]}},{"type":"Feature","properties":{"territory_id":"mg-3132404-pinheirinho","name":"Pinheirinho","municipality_id":"mg-3132404","polling_places":1,"approx":true,"official":false,"method":"voronoi-polling-places","whole_municipality":false,"approx_coords_only":false},"geometry":{"type":"MultiPolygon","coordinates":[[[[-45.46316,-22.40144],[-45.45922,-22.41044],[-45.45467,-22.41698],[-45.45277,-22.4179],[-45.43355,-22.41415],[-45.42835,-22.40986],[-45.43962,-22.39747],[-45.46313,-22.40043],[-45.46316,-22.40144]]]]}},{"type":"Feature","properties":{"territory_id":"mg-3132404-ponte-alta","name":"Ponte Alta","municipality_id":"mg-3132404","polling_places":1,"approx":true,"official":false,"method":"voronoi-polling-places","whole_municipality":false,"approx_coords_only":false},"geometry":{"type":"MultiPolygon","coordinates":[[[[-45.46636,-22.44082],[-45.46505,-22.44346],[-45.45997,-22.43734],[-45.45917,-22.43324],[-45.45965,-22.43207],[-45.46092,-22.43035],[-45.46154,-22.43029],[-45.46166,-22.43034],[-45.46416,-22.4319],[-45.46636,-22.44082]]]]}},{"type":"Feature","properties":{"territory_id":"mg-3132404-ponte-santo-antonio","name":"Ponte Santo Antonio","municipality_id":"mg-3132404","polling_places":1,"approx":true,"official":false,"method":"voronoi-polling-places","whole_municipality":false,"approx_coords_only":false},"geometry":{"type":"MultiPolygon","coordinates":[[[[-45.42754,-22.49094],[-45.39289,-22.51726],[-45.3921,-22.4999],[-45.3593,-22.4672],[-45.3706,-22.4465],[-45.36651,-22.44177],[-45.37793,-22.4383],[-45.42748,-22.49033],[-45.42754,-22.49094]]]]}},{"type":"Feature","properties":{"territory_id":"mg-3132404-rebourgeon","name":"Rebourgeon","municipality_id":"mg-3132404","polling_places":1,"approx":true,"official":false,"method":"voronoi-polling-places","whole_municipality":false,"approx_coords_only":false},"geometry":{"type":"MultiPolygon","coordinates":[[[[-45.48186,-22.43913],[-45.48143,-22.46155],[-45.46293,-22.45477],[-45.46486,-22.44771],[-45.48186,-22.43913]]]]}},{"type":"Feature","properties":{"territory_id":"mg-3132404-rio-manso","name":"Rio Manso","municipality_id":"mg-3132404","polling_places":1,"approx":true,"official":false,"method":"voronoi-polling-places","whole_municipality":false,"approx_coords_only":false},"geometry":{"type":"MultiPolygon","coordinates":[[[[-45.35155,-22.37542],[-45.32541,-22.40366],[-45.3001,-22.4],[-45.261,-22.3764],[-45.2893,-22.3553],[-45.33543,-22.34089],[-45.35155,-22.37542]]]]}},{"type":"Feature","properties":{"territory_id":"mg-3132404-santa-rosa","name":"Santa Rosa","municipality_id":"mg-3132404","polling_places":1,"approx":true,"official":false,"method":"voronoi-polling-places","whole_municipality":false,"approx_coords_only":false},"geometry":{"type":"MultiPolygon","coordinates":[[[[-45.43751,-22.47021],[-45.42748,-22.49033],[-45.37793,-22.4383],[-45.39598,-22.41618],[-45.40408,-22.41685],[-45.41425,-22.42656],[-45.43751,-22.47021]]]]}},{"type":"Feature","properties":{"territory_id":"mg-3132404-sao-vicente","name":"São Vicente","municipality_id":"mg-3132404","polling_places":2,"approx":true,"official":false,"method":"voronoi-polling-places","whole_municipality":false,"approx_coords_only":false},"geometry":{"type":"MultiPolygon","coordinates":[[[[-45.46092,-22.43035],[-45.45965,-22.43207],[-45.45917,-22.43324],[-45.45171,-22.4329],[-45.452,-22.43177],[-45.45203,-22.43172],[-45.45376,-22.42909],[-45.45436,-22.42755],[-45.45775,-22.42617],[-45.46092,-22.43035]]]]}},{"type":"Feature","properties":{"territory_id":"mg-3132404-varginha","name":"Varginha","municipality_id":"mg-3132404","polling_places":3,"approx":true,"official":false,"method":"voronoi-polling-places","whole_municipality":false,"approx_coords_only":false},"geometry":{"type":"MultiPolygon","coordinates":[[[[-45.45203,-22.43172],[-45.452,-22.43177],[-45.45171,-22.4329],[-45.44953,-22.43614],[-45.44267,-22.4417],[-45.44234,-22.44119],[-45.41425,-22.42656],[-45.40408,-22.41685],[-45.42835,-22.40986],[-45.43355,-22.41415],[-45.44145,-22.42564],[-45.44602,-22.42541],[-45.44873,-22.42456],[-45.45203,-22.43172]]]]}},{"type":"Feature","properties":{"territory_id":"mg-3132404-vila-poddis","name":"Vila Poddis","municipality_id":"mg-3132404","polling_places":1,"approx":true,"official":false,"method":"voronoi-polling-places","whole_municipality":false,"approx_coords_only":false},"geometry":{"type":"MultiPolygon","coordinates":[[[[-45.47644,-22.4298],[-45.46636,-22.44082],[-45.46416,-22.4319],[-45.47452,-22.42644],[-45.47644,-22.4298]]]]}},{"type":"Feature","properties":{"territory_id":"mg-3132404-vila-rubens","name":"Vila Rubens","municipality_id":"mg-3132404","polling_places":1,"approx":true,"official":false,"method":"voronoi-polling-places","whole_municipality":false,"approx_coords_only":false},"geometry":{"type":"MultiPolygon","coordinates":[[[[-45.47401,-22.42104],[-45.47356,-22.4235],[-45.46507,-22.42375],[-45.4634,-22.42318],[-45.45922,-22.41044],[-45.46316,-22.40144],[-45.47401,-22.42104]]]]}}]}