{"type":"FeatureCollection","features":[{"type":"Feature","properties":{"territory_id":"mg-3132305-centro","name":"Centro","municipality_id":"mg-3132305","polling_places":2,"approx":true,"official":false,"method":"voronoi-polling-places","whole_municipality":false,"approx_coords_only":false},"geometry":{"type":"MultiPolygon","coordinates":[[[[-41.7643,-17.4046],[-41.75634,-17.43329],[-41.59207,-17.37423],[-41.5954,-17.3568],[-41.569,-17.3437],[-41.5903,-17.2959],[-41.6077,-17.2932],[-41.6561,-17.2338],[-41.6888,-17.2517],[-41.6898,-17.2773],[-41.7289,-17.3254],[-41.7331,-17.356],[-41.7643,-17.4046]]]]}},{"type":"Feature","properties":{"territory_id":"mg-3132305-zona-rural","name":"Zona Rural","municipality_id":"mg-3132305","polling_places":6,"approx":true,"official":false,"method":"voronoi-polling-places","whole_municipality":false,"approx_coords_only":false},"geometry":{"type":"MultiPolygon","coordinates":[[[[-41.75634,-17.43329],[-41.7539,-17.4421],[-41.7352,-17.483],[-41.6828,-17.5238],[-41.6568,-17.5587],[-41.6801,-17.595],[-41.6503,-17.6021],[-41.6216,-17.5531],[-41.6009,-17.5573],[-41.5656,-17.4921],[-41.592,-17.4702],[-41.6016,-17.4329],[-41.587,-17.4008],[-41.59207,-17.37423],[-41.75634,-17.43329]]]]}}]}