{"type":"FeatureCollection","features":[{"type":"Feature","properties":{"territory_id":"mg-3132800-centro","name":"Centro","municipality_id":"mg-3132800","polling_places":1,"approx":true,"official":false,"method":"voronoi-polling-places","whole_municipality":false,"approx_coords_only":false},"geometry":{"type":"MultiPolygon","coordinates":[[[[-43.3599,-19.4738],[-43.3267,-19.5114],[-43.2946,-19.46],[-43.25508,-19.45379],[-43.30588,-19.39328],[-43.35989,-19.47252],[-43.3599,-19.4738]]]]}},{"type":"Feature","properties":{"territory_id":"mg-3132800-zona-rural","name":"Zona Rural","municipality_id":"mg-3132800","polling_places":4,"approx":true,"official":false,"method":"voronoi-polling-places","whole_municipality":false,"approx_coords_only":false},"geometry":{"type":"MultiPolygon","coordinates":[[[[-43.5187,-19.3303],[-43.4874,-19.3707],[-43.4821,-19.4192],[-43.4606,-19.4261],[-43.4388,-19.4617],[-43.3843,-19.4279],[-43.3597,-19.4309],[-43.35989,-19.47252],[-43.30588,-19.39328],[-43.25508,-19.45379],[-43.2437,-19.452],[-43.2006,-19.4221],[-43.1937,-19.387],[-43.2138,-19.3882],[-43.2448,-19.3518],[-43.2437,-19.3252],[-43.2659,-19.3097],[-43.2859,-19.3471],[-43.3241,-19.3519],[-43.3509,-19.3259],[-43.3833,-19.3364],[-43.5093,-19.3319],[-43.5181,-19.3161],[-43.5187,-19.3303]]]]}}]}