{"type":"FeatureCollection","features":[{"type":"Feature","properties":{"territory_id":"mg-3132909-centro","name":"Centro","municipality_id":"mg-3132909","polling_places":2,"approx":true,"official":false,"method":"voronoi-polling-places","whole_municipality":false,"approx_coords_only":false},"geometry":{"type":"MultiPolygon","coordinates":[[[[-47.05602,-21.07754],[-47.04793,-21.08009],[-46.97648,-21.11451],[-46.9626,-21.0873],[-46.9354,-21.0619],[-46.965,-21.0326],[-46.98765,-21.02472],[-47.03705,-21.06358],[-47.05602,-21.07754]]]]}},{"type":"Feature","properties":{"territory_id":"mg-3132909-cerrado","name":"Cerrado","municipality_id":"mg-3132909","polling_places":1,"approx":true,"official":false,"method":"voronoi-polling-places","whole_municipality":false,"approx_coords_only":false},"geometry":{"type":"MultiPolygon","coordinates":[[[[-47.133,-21.1332],[-47.1176,-21.1532],[-46.9826,-21.1265],[-46.97648,-21.11451],[-47.04793,-21.08009],[-47.05602,-21.07754],[-47.12745,-21.09573],[-47.1148,-21.1047],[-47.133,-21.1332]]]]}},{"type":"Feature","properties":{"territory_id":"mg-3132909-vale-do-sol","name":"Vale do Sol","municipality_id":"mg-3132909","polling_places":1,"approx":true,"official":false,"method":"voronoi-polling-places","whole_municipality":false,"approx_coords_only":false},"geometry":{"type":"MultiPolygon","coordinates":[[[[-47.1479,-21.0355],[-47.1413,-21.0859],[-47.12745,-21.09573],[-47.05602,-21.07754],[-47.03705,-21.06358],[-46.98765,-21.02472],[-47.0193,-21.0137],[-47.1081,-21.0148],[-47.1479,-21.0355]]]]}}]}