{"type":"FeatureCollection","features":[{"type":"Feature","properties":{"territory_id":"mg-3132206-centro","name":"Centro","municipality_id":"mg-3132206","polling_places":3,"approx":true,"official":false,"method":"voronoi-polling-places","whole_municipality":false,"approx_coords_only":false},"geometry":{"type":"MultiPolygon","coordinates":[[[[-44.55139,-20.3899],[-44.48936,-20.39426],[-44.487,-20.39796],[-44.48549,-20.39434],[-44.48405,-20.39294],[-44.4833,-20.39153],[-44.48911,-20.38741],[-44.49641,-20.37297],[-44.51443,-20.35246],[-44.54785,-20.3745],[-44.55139,-20.3899]]]]}},{"type":"Feature","properties":{"territory_id":"mg-3132206-liberdade","name":"Liberdade","municipality_id":"mg-3132206","polling_places":2,"approx":true,"official":false,"method":"voronoi-polling-places","whole_municipality":false,"approx_coords_only":false},"geometry":{"type":"MultiPolygon","coordinates":[[[[-44.487,-20.39796],[-44.48194,-20.45073],[-44.4628,-20.4408],[-44.45854,-20.43971],[-44.47208,-20.40624],[-44.47791,-20.39011],[-44.4833,-20.39153],[-44.48405,-20.39294],[-44.48549,-20.39434],[-44.487,-20.39796]]]]}},{"type":"Feature","properties":{"territory_id":"mg-3132206-lindorifo-prata-lima","name":"Lindorifo Prata Lima","municipality_id":"mg-3132206","polling_places":1,"approx":true,"official":false,"method":"voronoi-polling-places","whole_municipality":false,"approx_coords_only":false},"geometry":{"type":"MultiPolygon","coordinates":[[[[-44.47791,-20.39011],[-44.47208,-20.40624],[-44.45854,-20.43971],[-44.407,-20.4266],[-44.4125,-20.3833],[-44.41942,-20.373],[-44.44206,-20.36671],[-44.47758,-20.38711],[-44.47791,-20.39011]]]]}},{"type":"Feature","properties":{"territory_id":"mg-3132206-nogueiras","name":"Nogueiras","municipality_id":"mg-3132206","polling_places":1,"approx":true,"official":false,"method":"voronoi-polling-places","whole_municipality":false,"approx_coords_only":false},"geometry":{"type":"MultiPolygon","coordinates":[[[[-44.55799,-20.41582],[-44.55479,-20.47664],[-44.5432,-20.4825],[-44.48194,-20.45073],[-44.487,-20.39796],[-44.48936,-20.39426],[-44.55139,-20.3899],[-44.55799,-20.41582]]]]}},{"type":"Feature","properties":{"territory_id":"mg-3132206-novo-dias","name":"Novo Dias","municipality_id":"mg-3132206","polling_places":1,"approx":true,"official":false,"method":"voronoi-polling-places","whole_municipality":false,"approx_coords_only":false},"geometry":{"type":"MultiPolygon","coordinates":[[[[-44.51443,-20.35246],[-44.49641,-20.37297],[-44.47758,-20.38711],[-44.44206,-20.36671],[-44.50209,-20.34027],[-44.51443,-20.35246]]]]}},{"type":"Feature","properties":{"territory_id":"mg-3132206-povoado-de-aroeiras","name":"Povoado de Aroeiras","municipality_id":"mg-3132206","polling_places":1,"approx":true,"official":false,"method":"voronoi-polling-places","whole_municipality":false,"approx_coords_only":false},"geometry":{"type":"MultiPolygon","coordinates":[[[[-44.6589,-20.3378],[-44.65205,-20.35279],[-44.57892,-20.33511],[-44.58229,-20.28516],[-44.6232,-20.3001],[-44.6589,-20.3378]]]]}},{"type":"Feature","properties":{"territory_id":"mg-3132206-povoado-de-para-dos-vilelas","name":"Povoado de Para dos Vilelas","municipality_id":"mg-3132206","polling_places":1,"approx":true,"official":false,"method":"voronoi-polling-places","whole_municipality":false,"approx_coords_only":false},"geometry":{"type":"MultiPolygon","coordinates":[[[[-44.64442,-20.36948],[-44.6281,-20.4052],[-44.5944,-20.4566],[-44.55479,-20.47664],[-44.55799,-20.41582],[-44.64442,-20.36948]]]]}},{"type":"Feature","properties":{"territory_id":"mg-3132206-sao-vicente","name":"Sao Vicente","municipality_id":"mg-3132206","polling_places":1,"approx":true,"official":false,"method":"voronoi-polling-places","whole_municipality":false,"approx_coords_only":false},"geometry":{"type":"MultiPolygon","coordinates":[[[[-44.49641,-20.37297],[-44.48911,-20.38741],[-44.4833,-20.39153],[-44.47791,-20.39011],[-44.47758,-20.38711],[-44.49641,-20.37297]]]]}},{"type":"Feature","properties":{"territory_id":"mg-3132206-zona-rural","name":"Zona Rural","municipality_id":"mg-3132206","polling_places":3,"approx":true,"official":false,"method":"voronoi-polling-places","whole_municipality":false,"approx_coords_only":false},"geometry":{"type":"MultiPolygon","coordinates":[[[[-44.65205,-20.35279],[-44.64442,-20.36948],[-44.55799,-20.41582],[-44.55139,-20.3899],[-44.54785,-20.3745],[-44.51443,-20.35246],[-44.50209,-20.34027],[-44.44206,-20.36671],[-44.41942,-20.373],[-44.4375,-20.3461],[-44.4353,-20.2917],[-44.4935,-20.2902],[-44.5319,-20.2607],[-44.5657,-20.2791],[-44.58229,-20.28516],[-44.57892,-20.33511],[-44.65205,-20.35279]]]]}}]}