{"type":"FeatureCollection","features":[{"type":"Feature","properties":{"territory_id":"mg-3132701-centro","name":"Centro","municipality_id":"mg-3132701","polling_places":9,"approx":true,"official":false,"method":"voronoi-polling-places","whole_municipality":false,"approx_coords_only":false},"geometry":{"type":"MultiPolygon","coordinates":[[[[-41.71172,-18.01454],[-41.68834,-18.03679],[-41.68761,-18.03848],[-41.68673,-18.0385],[-41.67901,-18.04109],[-41.6792,-18.0396],[-41.67933,-18.0366],[-41.67826,-18.03442],[-41.67221,-18.03266],[-41.67416,-18.02773],[-41.68997,-17.96102],[-41.69238,-17.9634],[-41.699,-17.98396],[-41.71172,-18.01454]],[[-41.68409,-18.03333],[-41.68405,-18.03327],[-41.68274,-18.03442],[-41.68306,-18.03619],[-41.68358,-18.03639],[-41.68409,-18.03333]]]]}},{"type":"Feature","properties":{"territory_id":"mg-3132701-coqueiros","name":"Coqueiros","municipality_id":"mg-3132701","polling_places":1,"approx":true,"official":false,"method":"voronoi-polling-places","whole_municipality":false,"approx_coords_only":false},"geometry":{"type":"MultiPolygon","coordinates":[[[[-41.7579,-18.09432],[-41.71702,-18.12579],[-41.68761,-18.03848],[-41.68834,-18.03679],[-41.71172,-18.01454],[-41.7579,-18.09432]]]]}},{"type":"Feature","properties":{"territory_id":"mg-3132701-distrito-de-frei-serafim","name":"Distrito de Frei Serafim","municipality_id":"mg-3132701","polling_places":1,"approx":true,"official":false,"method":"voronoi-polling-places","whole_municipality":false,"approx_coords_only":false},"geometry":{"type":"MultiPolygon","coordinates":[[[[-42.0496,-18.1458],[-42.04852,-18.17714],[-41.86059,-18.20495],[-41.78809,-18.08842],[-41.87081,-18.05462],[-41.9148,-18.1169],[-41.9996,-18.1232],[-42.0496,-18.1458]]]]}},{"type":"Feature","properties":{"territory_id":"mg-3132701-distrito-de-guarataia","name":"Distrito de Guarataia","municipality_id":"mg-3132701","polling_places":1,"approx":true,"official":false,"method":"voronoi-polling-places","whole_municipality":false,"approx_coords_only":false},"geometry":{"type":"MultiPolygon","coordinates":[[[[-42.0889,-18.2118],[-42.0661,-18.2614],[-42.0635,-18.2913],[-42.0821,-18.3475],[-42.0506,-18.3812],[-42.0531,-18.4183],[-42.0276,-18.4546],[-42.012,-18.4582],[-41.9659,-18.3798],[-41.9258,-18.3797],[-41.8751,-18.3525],[-41.8792,-18.3169],[-41.8333,-18.2806],[-41.8449,-18.2503],[-41.81334,-18.2448],[-41.86059,-18.20495],[-42.04852,-18.17714],[-42.0479,-18.1952],[-42.0889,-18.2118]]]]}},{"type":"Feature","properties":{"territory_id":"mg-3132701-hollywood","name":"Hollywood","municipality_id":"mg-3132701","polling_places":1,"approx":true,"official":false,"method":"voronoi-polling-places","whole_municipality":false,"approx_coords_only":false},"geometry":{"type":"MultiPolygon","coordinates":[[[[-41.68409,-18.03333],[-41.68358,-18.03639],[-41.68306,-18.03619],[-41.68274,-18.03442],[-41.68405,-18.03327],[-41.68409,-18.03333]]]]}},{"type":"Feature","properties":{"territory_id":"mg-3132701-lauro-lopes","name":"Lauro Lopes","municipality_id":"mg-3132701","polling_places":1,"approx":true,"official":false,"method":"voronoi-polling-places","whole_municipality":false,"approx_coords_only":false},"geometry":{"type":"MultiPolygon","coordinates":[[[[-41.67527,-18.04747],[-41.67128,-18.16435],[-41.6697,-18.16589],[-41.657,-18.1406],[-41.626,-18.1078],[-41.6184,-18.0716],[-41.5745,-18.0404],[-41.5709,-18.019],[-41.57743,-18.01572],[-41.66949,-18.03483],[-41.67527,-18.04747]]]]}},{"type":"Feature","properties":{"territory_id":"mg-3132701-montese","name":"Montese","municipality_id":"mg-3132701","polling_places":1,"approx":true,"official":false,"method":"voronoi-polling-places","whole_municipality":false,"approx_coords_only":false},"geometry":{"type":"MultiPolygon","coordinates":[[[[-41.71702,-18.12579],[-41.67128,-18.16435],[-41.67527,-18.04747],[-41.67901,-18.04109],[-41.68673,-18.0385],[-41.68761,-18.03848],[-41.71702,-18.12579]]]]}},{"type":"Feature","properties":{"territory_id":"mg-3132701-nossa-senhora-de-fatima","name":"Nossa Senhora de Fatima","municipality_id":"mg-3132701","polling_places":1,"approx":true,"official":false,"method":"voronoi-polling-places","whole_municipality":false,"approx_coords_only":false},"geometry":{"type":"MultiPolygon","coordinates":[[[[-41.67933,-18.0366],[-41.6792,-18.0396],[-41.67901,-18.04109],[-41.67527,-18.04747],[-41.66949,-18.03483],[-41.67221,-18.03266],[-41.67826,-18.03442],[-41.67933,-18.0366]]]]}},{"type":"Feature","properties":{"territory_id":"mg-3132701-povoado-de-cafelandia","name":"Povoado de Cafelandia","municipality_id":"mg-3132701","polling_places":1,"approx":true,"official":false,"method":"voronoi-polling-places","whole_municipality":false,"approx_coords_only":false},"geometry":{"type":"MultiPolygon","coordinates":[[[[-41.80473,-17.96023],[-41.7754,-17.98543],[-41.69238,-17.9634],[-41.68997,-17.96102],[-41.65865,-17.92581],[-41.6655,-17.9133],[-41.7617,-17.9152],[-41.7993,-17.9396],[-41.80473,-17.96023]]]]}},{"type":"Feature","properties":{"territory_id":"mg-3132701-povoado-de-sao-jose-do-fortuna","name":"Povoado de São José do Fortuna","municipality_id":"mg-3132701","polling_places":1,"approx":true,"official":false,"method":"voronoi-polling-places","whole_municipality":false,"approx_coords_only":false},"geometry":{"type":"MultiPolygon","coordinates":[[[[-41.87081,-18.05462],[-41.78809,-18.08842],[-41.779,-18.08759],[-41.7754,-17.98543],[-41.80473,-17.96023],[-41.8178,-18.0099],[-41.8348,-18.0415],[-41.8648,-18.0461],[-41.87081,-18.05462]]]]}},{"type":"Feature","properties":{"territory_id":"mg-3132701-varzea","name":"Varzea","municipality_id":"mg-3132701","polling_places":1,"approx":true,"official":false,"method":"voronoi-polling-places","whole_municipality":false,"approx_coords_only":false},"geometry":{"type":"MultiPolygon","coordinates":[[[[-41.68997,-17.96102],[-41.67416,-18.02773],[-41.67221,-18.03266],[-41.66949,-18.03483],[-41.57743,-18.01572],[-41.5928,-18.008],[-41.593,-17.9709],[-41.6441,-17.9524],[-41.65865,-17.92581],[-41.68997,-17.96102]]]]}},{"type":"Feature","properties":{"territory_id":"mg-3132701-zona-rural","name":"Zona Rural","municipality_id":"mg-3132701","polling_places":3,"approx":true,"official":false,"method":"voronoi-polling-places","whole_municipality":false,"approx_coords_only":false},"geometry":{"type":"MultiPolygon","coordinates":[[[[-41.86059,-18.20495],[-41.81334,-18.2448],[-41.7835,-18.2396],[-41.7486,-18.1773],[-41.7353,-18.2023],[-41.6816,-18.1896],[-41.6697,-18.16589],[-41.67128,-18.16435],[-41.71702,-18.12579],[-41.7579,-18.09432],[-41.71172,-18.01454],[-41.699,-17.98396],[-41.69238,-17.9634],[-41.7754,-17.98543],[-41.779,-18.08759],[-41.78809,-18.08842],[-41.86059,-18.20495]]]]}}]}