{"type":"FeatureCollection","features":[{"type":"Feature","properties":{"territory_id":"mg-3132602-centro","name":"Centro","municipality_id":"mg-3132602","polling_places":2,"approx":true,"official":false,"method":"voronoi-polling-places","whole_municipality":false,"approx_coords_only":false},"geometry":{"type":"MultiPolygon","coordinates":[[[[-42.87546,-21.48132],[-42.8232,-21.4701],[-42.7992,-21.4244],[-42.7813,-21.3844],[-42.8303,-21.388],[-42.85206,-21.39903],[-42.87546,-21.48132]]]]}},{"type":"Feature","properties":{"territory_id":"mg-3132602-zona-rural","name":"Zona Rural","municipality_id":"mg-3132602","polling_places":1,"approx":true,"official":false,"method":"voronoi-polling-places","whole_municipality":false,"approx_coords_only":false},"geometry":{"type":"MultiPolygon","coordinates":[[[[-42.8944,-21.4413],[-42.8856,-21.4835],[-42.87546,-21.48132],[-42.85206,-21.39903],[-42.8593,-21.4027],[-42.8943,-21.3725],[-42.8944,-21.4413]]]]}}]}