{"type":"FeatureCollection","features":[{"type":"Feature","properties":{"territory_id":"mg-3132503-bom-jesus","name":"Bom Jesus","municipality_id":"mg-3132503","polling_places":1,"approx":true,"official":false,"method":"voronoi-polling-places","whole_municipality":false,"approx_coords_only":false},"geometry":{"type":"MultiPolygon","coordinates":[[[[-42.93316,-17.78618],[-42.87615,-17.8476],[-42.86217,-17.85722],[-42.8608,-17.85592],[-42.85948,-17.85108],[-42.89078,-17.77211],[-42.93316,-17.78618]]]]}},{"type":"Feature","properties":{"territory_id":"mg-3132503-bonfim","name":"Bonfim","municipality_id":"mg-3132503","polling_places":1,"approx":true,"official":false,"method":"voronoi-polling-places","whole_municipality":false,"approx_coords_only":false},"geometry":{"type":"MultiPolygon","coordinates":[[[[-43.06259,-17.65],[-42.95249,-17.78527],[-42.94332,-17.78896],[-42.93316,-17.78618],[-42.89078,-17.77211],[-42.82051,-17.74553],[-42.79927,-17.73726],[-42.79158,-17.71665],[-42.79856,-17.68091],[-42.92162,-17.59966],[-42.9618,-17.6463],[-42.975,-17.7153],[-43.0164,-17.6794],[-43.0164,-17.6376],[-43.0322,-17.6204],[-43.06259,-17.65]]]]}},{"type":"Feature","properties":{"territory_id":"mg-3132503-cachoeira","name":"Cachoeira","municipality_id":"mg-3132503","polling_places":1,"approx":true,"official":false,"method":"voronoi-polling-places","whole_municipality":false,"approx_coords_only":false},"geometry":{"type":"MultiPolygon","coordinates":[[[[-43.04373,-18.08273],[-43.0336,-18.0874],[-43.03353,-18.0875],[-42.92878,-18.05141],[-42.93493,-17.96388],[-42.9413,-17.96331],[-42.95734,-17.96516],[-43.03703,-18.00662],[-43.04373,-18.08273]]]]}},{"type":"Feature","properties":{"territory_id":"mg-3132503-centro","name":"Centro","municipality_id":"mg-3132503","polling_places":2,"approx":true,"official":false,"method":"voronoi-polling-places","whole_municipality":false,"approx_coords_only":false},"geometry":{"type":"MultiPolygon","coordinates":[[[[-42.86217,-17.85722],[-42.86039,-17.86143],[-42.85979,-17.86171],[-42.85687,-17.8578],[-42.8557,-17.85667],[-42.85948,-17.85108],[-42.8608,-17.85592],[-42.86217,-17.85722]]]]}},{"type":"Feature","properties":{"territory_id":"mg-3132503-distrito-de-padre-joao-afonso","name":"Distrito de Padre João Afonso","municipality_id":"mg-3132503","polling_places":1,"approx":true,"official":false,"method":"voronoi-polling-places","whole_municipality":false,"approx_coords_only":false},"geometry":{"type":"MultiPolygon","coordinates":[[[[-42.75054,-17.91889],[-42.6586,-18.0523],[-42.6451,-18.0463],[-42.6068,-17.9921],[-42.6436,-17.9227],[-42.6832,-17.882],[-42.68304,-17.88171],[-42.73281,-17.88845],[-42.75054,-17.91889]]]]}},{"type":"Feature","properties":{"territory_id":"mg-3132503-distrito-de-penha-de-franca","name":"Distrito de Penha de França","municipality_id":"mg-3132503","polling_places":1,"approx":true,"official":false,"method":"voronoi-polling-places","whole_municipality":false,"approx_coords_only":false},"geometry":{"type":"MultiPolygon","coordinates":[[[[-43.1421,-18.0447],[-43.1098,-18.064],[-43.1369,-18.1081],[-43.0884,-18.0992],[-43.0757,-18.068],[-43.04373,-18.08273],[-43.03703,-18.00662],[-43.1198,-17.97338],[-43.1072,-18.0021],[-43.1418,-18.0234],[-43.1421,-18.0447]]]]}},{"type":"Feature","properties":{"territory_id":"mg-3132503-distrito-do-contrato","name":"Distrito do Contrato","municipality_id":"mg-3132503","polling_places":1,"approx":true,"official":false,"method":"voronoi-polling-places","whole_municipality":false,"approx_coords_only":false},"geometry":{"type":"MultiPolygon","coordinates":[[[[-42.79927,-17.73726],[-42.7412,-17.87109],[-42.73281,-17.88845],[-42.68304,-17.88171],[-42.6515,-17.8253],[-42.6445,-17.7783],[-42.5998,-17.7221],[-42.60441,-17.70554],[-42.79158,-17.71665],[-42.79927,-17.73726]]]]}},{"type":"Feature","properties":{"territory_id":"mg-3132503-divino","name":"Divino","municipality_id":"mg-3132503","polling_places":1,"approx":true,"official":false,"method":"voronoi-polling-places","whole_municipality":false,"approx_coords_only":false},"geometry":{"type":"MultiPolygon","coordinates":[[[[-42.79595,-18.10404],[-42.7935,-18.1045],[-42.7621,-18.0829],[-42.7031,-18.0917],[-42.6939,-18.068],[-42.6586,-18.0523],[-42.75054,-17.91889],[-42.78348,-17.94292],[-42.79595,-18.10404]]]]}},{"type":"Feature","properties":{"territory_id":"mg-3132503-fazendinha","name":"Fazendinha","municipality_id":"mg-3132503","polling_places":2,"approx":true,"official":false,"method":"voronoi-polling-places","whole_municipality":false,"approx_coords_only":false},"geometry":{"type":"MultiPolygon","coordinates":[[[[-42.85979,-17.86171],[-42.85864,-17.86435],[-42.85624,-17.87513],[-42.84714,-17.89114],[-42.8157,-17.94326],[-42.78348,-17.94292],[-42.75054,-17.91889],[-42.73281,-17.88845],[-42.7412,-17.87109],[-42.84961,-17.85826],[-42.85508,-17.85667],[-42.8557,-17.85667],[-42.85687,-17.8578],[-42.85979,-17.86171]]]]}},{"type":"Feature","properties":{"territory_id":"mg-3132503-florestal","name":"Florestal","municipality_id":"mg-3132503","polling_places":2,"approx":true,"official":false,"method":"voronoi-polling-places","whole_municipality":false,"approx_coords_only":false},"geometry":{"type":"MultiPolygon","coordinates":[[[[-42.89078,-17.77211],[-42.85948,-17.85108],[-42.8557,-17.85667],[-42.85508,-17.85667],[-42.84961,-17.85826],[-42.7412,-17.87109],[-42.79927,-17.73726],[-42.82051,-17.74553],[-42.89078,-17.77211]]]]}},{"type":"Feature","properties":{"territory_id":"mg-3132503-lagoa-do-bonga","name":"Lagoa do Bonga","municipality_id":"mg-3132503","polling_places":1,"approx":true,"official":false,"method":"voronoi-polling-places","whole_municipality":false,"approx_coords_only":false},"geometry":{"type":"MultiPolygon","coordinates":[[[[-42.92162,-17.59966],[-42.79856,-17.68091],[-42.76443,-17.61041],[-42.772,-17.5841],[-42.8054,-17.5475],[-42.8376,-17.5547],[-42.8729,-17.6053],[-42.9164,-17.5936],[-42.92162,-17.59966]]]]}},{"type":"Feature","properties":{"territory_id":"mg-3132503-mandingueiro","name":"Mandingueiro","municipality_id":"mg-3132503","polling_places":1,"approx":true,"official":false,"method":"voronoi-polling-places","whole_municipality":false,"approx_coords_only":false},"geometry":{"type":"MultiPolygon","coordinates":[[[[-42.79856,-17.68091],[-42.79158,-17.71665],[-42.60441,-17.70554],[-42.6139,-17.6714],[-42.6597,-17.6579],[-42.6956,-17.5879],[-42.6842,-17.55],[-42.7238,-17.5473],[-42.7214,-17.588],[-42.7602,-17.6251],[-42.76443,-17.61041],[-42.79856,-17.68091]]]]}},{"type":"Feature","properties":{"territory_id":"mg-3132503-penedo","name":"Penedo","municipality_id":"mg-3132503","polling_places":1,"approx":true,"official":false,"method":"voronoi-polling-places","whole_municipality":false,"approx_coords_only":false},"geometry":{"type":"MultiPolygon","coordinates":[[[[-43.03353,-18.0875],[-42.9897,-18.1491],[-42.9443,-18.1127],[-42.9094,-18.1098],[-42.88404,-18.11772],[-42.92878,-18.05141],[-43.03353,-18.0875]]]]}},{"type":"Feature","properties":{"territory_id":"mg-3132503-povoado-de-santa-luzia","name":"Povoado de Santa Luzia","municipality_id":"mg-3132503","polling_places":1,"approx":true,"official":false,"method":"voronoi-polling-places","whole_municipality":false,"approx_coords_only":false},"geometry":{"type":"MultiPolygon","coordinates":[[[[-42.87615,-17.8476],[-42.86619,-17.86117],[-42.86593,-17.86146],[-42.86039,-17.86143],[-42.86217,-17.85722],[-42.87615,-17.8476]]]]}},{"type":"Feature","properties":{"territory_id":"mg-3132503-povoado-dom-serafim","name":"Povoado Dom Serafim","municipality_id":"mg-3132503","polling_places":1,"approx":true,"official":false,"method":"voronoi-polling-places","whole_municipality":false,"approx_coords_only":false},"geometry":{"type":"MultiPolygon","coordinates":[[[[-43.04556,-17.85587],[-42.9413,-17.96331],[-42.93493,-17.96388],[-42.92666,-17.95579],[-42.93239,-17.86796],[-42.94332,-17.78896],[-42.95249,-17.78527],[-43.04556,-17.85587]]]]}},{"type":"Feature","properties":{"territory_id":"mg-3132503-primeiro-de-maio","name":"Primeiro de Maio","municipality_id":"mg-3132503","polling_places":1,"approx":true,"official":false,"method":"voronoi-polling-places","whole_municipality":false,"approx_coords_only":false},"geometry":{"type":"MultiPolygon","coordinates":[[[[-42.86722,-17.8667],[-42.85624,-17.87513],[-42.85864,-17.86435],[-42.85979,-17.86171],[-42.86039,-17.86143],[-42.86593,-17.86146],[-42.86722,-17.8667]]]]}},{"type":"Feature","properties":{"territory_id":"mg-3132503-salgadinho","name":"Salgadinho","municipality_id":"mg-3132503","polling_places":1,"approx":true,"official":false,"method":"voronoi-polling-places","whole_municipality":false,"approx_coords_only":false},"geometry":{"type":"MultiPolygon","coordinates":[[[[-43.1265,-17.9581],[-43.1198,-17.97338],[-43.03703,-18.00662],[-42.95734,-17.96516],[-43.123,-17.90431],[-43.1265,-17.9581]]]]}},{"type":"Feature","properties":{"territory_id":"mg-3132503-santa-joana","name":"Santa Joana","municipality_id":"mg-3132503","polling_places":1,"approx":true,"official":false,"method":"voronoi-polling-places","whole_municipality":false,"approx_coords_only":false},"geometry":{"type":"MultiPolygon","coordinates":[[[[-42.87307,-17.86736],[-42.84714,-17.89114],[-42.85624,-17.87513],[-42.86722,-17.8667],[-42.87307,-17.86736]]]]}},{"type":"Feature","properties":{"territory_id":"mg-3132503-sao-geraldo","name":"São Geraldo","municipality_id":"mg-3132503","polling_places":2,"approx":true,"official":false,"method":"voronoi-polling-places","whole_municipality":false,"approx_coords_only":false},"geometry":{"type":"MultiPolygon","coordinates":[[[[-42.94332,-17.78896],[-42.93239,-17.86796],[-42.87759,-17.86725],[-42.87307,-17.86736],[-42.86722,-17.8667],[-42.86593,-17.86146],[-42.86619,-17.86117],[-42.87615,-17.8476],[-42.93316,-17.78618],[-42.94332,-17.78896]]]]}},{"type":"Feature","properties":{"territory_id":"mg-3132503-sao-gil-ii","name":"São Gil Ii","municipality_id":"mg-3132503","polling_places":1,"approx":true,"official":false,"method":"voronoi-polling-places","whole_municipality":false,"approx_coords_only":false},"geometry":{"type":"MultiPolygon","coordinates":[[[[-42.93493,-17.96388],[-42.92878,-18.05141],[-42.88404,-18.11772],[-42.8668,-18.1231],[-42.8289,-18.0978],[-42.79595,-18.10404],[-42.78348,-17.94292],[-42.8157,-17.94326],[-42.92666,-17.95579],[-42.93493,-17.96388]]]]}},{"type":"Feature","properties":{"territory_id":"mg-3132503-sao-joao-batista","name":"São João Batista","municipality_id":"mg-3132503","polling_places":1,"approx":true,"official":false,"method":"voronoi-polling-places","whole_municipality":false,"approx_coords_only":false},"geometry":{"type":"MultiPolygon","coordinates":[[[[-42.93239,-17.86796],[-42.92666,-17.95579],[-42.8157,-17.94326],[-42.84714,-17.89114],[-42.87307,-17.86736],[-42.87759,-17.86725],[-42.93239,-17.86796]]]]}},{"type":"Feature","properties":{"territory_id":"mg-3132503-varzea-santo-antonio","name":"Varzea Santo Antonio","municipality_id":"mg-3132503","polling_places":1,"approx":true,"official":false,"method":"voronoi-polling-places","whole_municipality":false,"approx_coords_only":false},"geometry":{"type":"MultiPolygon","coordinates":[[[[-43.1576,-17.772],[-43.137,-17.8072],[-43.12385,-17.8789],[-43.04556,-17.85587],[-42.95249,-17.78527],[-43.06259,-17.65],[-43.14,-17.7254],[-43.1576,-17.772]]]]}},{"type":"Feature","properties":{"territory_id":"mg-3132503-zona-rural","name":"Zona Rural","municipality_id":"mg-3132503","polling_places":1,"approx":true,"official":false,"method":"voronoi-polling-places","whole_municipality":false,"approx_coords_only":false},"geometry":{"type":"MultiPolygon","coordinates":[[[[-43.12385,-17.8789],[-43.122,-17.889],[-43.123,-17.90431],[-42.95734,-17.96516],[-42.9413,-17.96331],[-43.04556,-17.85587],[-43.12385,-17.8789]]]]}}]}