{"type":"FeatureCollection","features":[{"type":"Feature","properties":{"territory_id":"mg-3133402-centro","name":"Centro","municipality_id":"mg-3133402","polling_places":5,"approx":true,"official":false,"method":"voronoi-polling-places","whole_municipality":false,"approx_coords_only":false},"geometry":{"type":"MultiPolygon","coordinates":[[[[-49.45278,-19.97819],[-49.3565,-19.9867],[-49.2975,-19.9605],[-49.2501,-19.9693],[-49.2222,-19.9312],[-49.2038,-19.9284],[-49.1565,-19.8605],[-49.1395,-19.7869],[-49.2087,-19.7467],[-49.203,-19.6947],[-49.22137,-19.67325],[-49.37758,-19.90493],[-49.45278,-19.97819]]]]}},{"type":"Feature","properties":{"territory_id":"mg-3133402-sebastiao-soares-rezende","name":"Sebastião Soares Rezende","municipality_id":"mg-3133402","polling_places":1,"approx":true,"official":false,"method":"voronoi-polling-places","whole_municipality":false,"approx_coords_only":false},"geometry":{"type":"MultiPolygon","coordinates":[[[[-49.7494,-19.9247],[-49.6344,-19.9319],[-49.6132,-19.92],[-49.5515,-19.9058],[-49.514,-19.9143],[-49.4928,-19.9504],[-49.4538,-19.9781],[-49.45278,-19.97819],[-49.37758,-19.90493],[-49.22137,-19.67325],[-49.2215,-19.6731],[-49.2677,-19.6934],[-49.3303,-19.6609],[-49.3737,-19.5529],[-49.3653,-19.5394],[-49.4323,-19.5333],[-49.4751,-19.5597],[-49.4837,-19.6356],[-49.5084,-19.6678],[-49.5728,-19.6799],[-49.6304,-19.6764],[-49.6535,-19.6893],[-49.6706,-19.7567],[-49.6487,-19.8311],[-49.7289,-19.8782],[-49.7494,-19.9247]]]]}}]}