{"type":"FeatureCollection","features":[{"type":"Feature","properties":{"territory_id":"mg-3133105-centro","name":"Centro","municipality_id":"mg-3133105","polling_places":2,"approx":true,"official":false,"method":"voronoi-polling-places","whole_municipality":false,"approx_coords_only":false},"geometry":{"type":"MultiPolygon","coordinates":[[[[-44.94265,-22.3199],[-44.9374,-22.32106],[-44.93242,-22.29758],[-44.91987,-22.25728],[-44.9352,-22.2543],[-44.93699,-22.25524],[-44.94039,-22.30143],[-44.94265,-22.3199]]]]}},{"type":"Feature","properties":{"territory_id":"mg-3133105-jardim","name":"Jardim","municipality_id":"mg-3133105","polling_places":1,"approx":true,"official":false,"method":"voronoi-polling-places","whole_municipality":false,"approx_coords_only":false},"geometry":{"type":"MultiPolygon","coordinates":[[[[-44.92526,-22.32374],[-44.915,-22.326],[-44.9182,-22.3597],[-44.8236,-22.4044],[-44.8094,-22.4043],[-44.8035,-22.3937],[-44.8261,-22.3637],[-44.8581,-22.3655],[-44.8637,-22.3094],[-44.8896,-22.3044],[-44.88884,-22.29499],[-44.92526,-22.32374]]]]}},{"type":"Feature","properties":{"territory_id":"mg-3133105-varzea","name":"Várzea","municipality_id":"mg-3133105","polling_places":1,"approx":true,"official":false,"method":"voronoi-polling-places","whole_municipality":false,"approx_coords_only":false},"geometry":{"type":"MultiPolygon","coordinates":[[[[-44.9374,-22.32106],[-44.92526,-22.32374],[-44.88884,-22.29499],[-44.8863,-22.2638],[-44.91987,-22.25728],[-44.93242,-22.29758],[-44.9374,-22.32106]]]]}},{"type":"Feature","properties":{"territory_id":"mg-3133105-vila-carneiro","name":"Vila Carneiro","municipality_id":"mg-3133105","polling_places":1,"approx":true,"official":false,"method":"voronoi-polling-places","whole_municipality":false,"approx_coords_only":false},"geometry":{"type":"MultiPolygon","coordinates":[[[[-45.0154,-22.3398],[-44.9685,-22.3367],[-44.9576,-22.3166],[-44.94265,-22.3199],[-44.94039,-22.30143],[-44.93699,-22.25524],[-44.9794,-22.2775],[-45.0148,-22.2759],[-45.0154,-22.3398]]]]}}]}