{"type":"FeatureCollection","features":[{"type":"Feature","properties":{"territory_id":"mg-3133204-centro","name":"Centro","municipality_id":"mg-3133204","polling_places":2,"approx":true,"official":false,"method":"voronoi-polling-places","whole_municipality":false,"approx_coords_only":false},"geometry":{"type":"MultiPolygon","coordinates":[[[[-41.9943,-19.0588],[-41.8785,-19.21836],[-41.85647,-19.21825],[-41.85847,-19.17056],[-41.86369,-19.16398],[-41.88648,-19.11977],[-41.9044,-19.1179],[-41.90143,-19.09077],[-41.91528,-19.0639],[-41.9426,-19.0606],[-41.9457,-19.0225],[-41.9868,-19.0412],[-41.9943,-19.0588]]]]}},{"type":"Feature","properties":{"territory_id":"mg-3133204-cidade-nova","name":"Cidade Nova","municipality_id":"mg-3133204","polling_places":1,"approx":true,"official":false,"method":"voronoi-polling-places","whole_municipality":false,"approx_coords_only":false},"geometry":{"type":"MultiPolygon","coordinates":[[[[-41.91528,-19.0639],[-41.90143,-19.09077],[-41.8987,-19.0659],[-41.91528,-19.0639]]],[[[-41.88648,-19.11977],[-41.86369,-19.16398],[-41.85847,-19.17056],[-41.8035,-19.11051],[-41.844,-19.1242],[-41.88648,-19.11977]]]]}},{"type":"Feature","properties":{"territory_id":"mg-3133204-distrito-edgard-melo","name":"Distrito Edgard Melo","municipality_id":"mg-3133204","polling_places":1,"approx":true,"official":false,"method":"voronoi-polling-places","whole_municipality":false,"approx_coords_only":false},"geometry":{"type":"MultiPolygon","coordinates":[[[[-41.9997,-19.0715],[-41.9664,-19.104],[-41.9669,-19.1401],[-41.9309,-19.1781],[-41.9585,-19.2312],[-41.9073,-19.2422],[-41.8877,-19.2184],[-41.8785,-19.21836],[-41.9943,-19.0588],[-41.9997,-19.0715]]]]}},{"type":"Feature","properties":{"territory_id":"mg-3133204-distrito-santa-luzia-do-carneiro","name":"Distrito Santa Luzia do Carneiro","municipality_id":"mg-3133204","polling_places":1,"approx":true,"official":false,"method":"voronoi-polling-places","whole_municipality":false,"approx_coords_only":false},"geometry":{"type":"MultiPolygon","coordinates":[[[[-41.77175,-19.09977],[-41.76686,-19.12881],[-41.6789,-19.23888],[-41.6339,-19.1771],[-41.6744,-19.1483],[-41.7051,-19.0947],[-41.7402,-19.0891],[-41.77175,-19.09977]]]]}},{"type":"Feature","properties":{"territory_id":"mg-3133204-distrito-sao-francisco-do-jatai","name":"Distrito São Francisco do Jataí","municipality_id":"mg-3133204","polling_places":1,"approx":true,"official":false,"method":"voronoi-polling-places","whole_municipality":false,"approx_coords_only":false},"geometry":{"type":"MultiPolygon","coordinates":[[[[-41.83164,-19.21813],[-41.7828,-19.2179],[-41.7763,-19.2462],[-41.7039,-19.2732],[-41.6789,-19.23888],[-41.76686,-19.12881],[-41.83164,-19.21813]]]]}},{"type":"Feature","properties":{"territory_id":"mg-3133204-sao-francisco","name":"São Francisco","municipality_id":"mg-3133204","polling_places":1,"approx":true,"official":false,"method":"voronoi-polling-places","whole_municipality":false,"approx_coords_only":false},"geometry":{"type":"MultiPolygon","coordinates":[[[[-41.85847,-19.17056],[-41.85647,-19.21825],[-41.83164,-19.21813],[-41.76686,-19.12881],[-41.77175,-19.09977],[-41.8035,-19.11051],[-41.85847,-19.17056]]]]}}]}