{"type":"FeatureCollection","features":[{"type":"Feature","properties":{"territory_id":"mg-3133709-centro","name":"Centro","municipality_id":"mg-3133709","polling_places":1,"approx":true,"official":false,"method":"voronoi-polling-places","whole_municipality":false,"approx_coords_only":false},"geometry":{"type":"MultiPolygon","coordinates":[[[[-44.44763,-20.1577],[-44.41425,-20.21492],[-44.3956,-20.20268],[-44.41969,-20.13508],[-44.445,-20.1477],[-44.44594,-20.14838],[-44.44763,-20.1577]]]]}},{"type":"Feature","properties":{"territory_id":"mg-3133709-povoado-de-pinheiros","name":"Povoado de Pinheiros","municipality_id":"mg-3133709","polling_places":1,"approx":true,"official":false,"method":"voronoi-polling-places","whole_municipality":false,"approx_coords_only":false},"geometry":{"type":"MultiPolygon","coordinates":[[[[-44.41969,-20.13508],[-44.3956,-20.20268],[-44.35909,-20.21723],[-44.35343,-20.17796],[-44.41125,-20.13087],[-44.41969,-20.13508]]]]}},{"type":"Feature","properties":{"territory_id":"mg-3133709-robert-kennedy","name":"Robert Kennedy","municipality_id":"mg-3133709","polling_places":1,"approx":true,"official":false,"method":"voronoi-polling-places","whole_municipality":false,"approx_coords_only":false},"geometry":{"type":"MultiPolygon","coordinates":[[[[-44.46807,-20.22489],[-44.42912,-20.2329],[-44.41425,-20.21492],[-44.44763,-20.1577],[-44.46807,-20.22489]]]]}},{"type":"Feature","properties":{"territory_id":"mg-3133709-santa-terezinha-de-minas","name":"Santa Terezinha de Minas","municipality_id":"mg-3133709","polling_places":1,"approx":true,"official":false,"method":"voronoi-polling-places","whole_municipality":false,"approx_coords_only":false},"geometry":{"type":"MultiPolygon","coordinates":[[[[-44.42912,-20.2329],[-44.41,-20.25541],[-44.3907,-20.2574],[-44.362,-20.2374],[-44.35909,-20.21723],[-44.3956,-20.20268],[-44.41425,-20.21492],[-44.42912,-20.2329]]]]}},{"type":"Feature","properties":{"territory_id":"mg-3133709-zona-rural","name":"Zona Rural","municipality_id":"mg-3133709","polling_places":4,"approx":true,"official":false,"method":"voronoi-polling-places","whole_municipality":false,"approx_coords_only":false},"geometry":{"type":"MultiPolygon","coordinates":[[[[-44.5697,-20.2244],[-44.5657,-20.2791],[-44.5319,-20.2607],[-44.4935,-20.2902],[-44.4353,-20.2917],[-44.4179,-20.2546],[-44.41,-20.25541],[-44.42912,-20.2329],[-44.46807,-20.22489],[-44.44763,-20.1577],[-44.44594,-20.14838],[-44.4746,-20.1691],[-44.5465,-20.1715],[-44.5697,-20.2244]]],[[[-44.41125,-20.13087],[-44.35343,-20.17796],[-44.3508,-20.1597],[-44.3378,-20.1196],[-44.3544,-20.1213],[-44.4047,-20.1276],[-44.41125,-20.13087]]]]}}]}