{"type":"FeatureCollection","features":[{"type":"Feature","properties":{"territory_id":"mg-3133501-alto-rosario","name":"Alto Rosario","municipality_id":"mg-3133501","polling_places":1,"approx":true,"official":false,"method":"voronoi-polling-places","whole_municipality":false,"approx_coords_only":false},"geometry":{"type":"MultiPolygon","coordinates":[[[[-45.12582,-20.47969],[-45.11025,-20.48204],[-45.11469,-20.47054],[-45.12546,-20.47919],[-45.12582,-20.47969]]]]}},{"type":"Feature","properties":{"territory_id":"mg-3133501-boa-viagem","name":"Boa Viagem","municipality_id":"mg-3133501","polling_places":1,"approx":true,"official":false,"method":"voronoi-polling-places","whole_municipality":false,"approx_coords_only":false},"geometry":{"type":"MultiPolygon","coordinates":[[[[-45.16635,-20.51451],[-45.14525,-20.56885],[-45.1249,-20.56],[-45.0734,-20.5951],[-45.06326,-20.60919],[-45.06739,-20.57268],[-45.09491,-20.49633],[-45.11025,-20.48204],[-45.12582,-20.47969],[-45.13018,-20.48131],[-45.13705,-20.48636],[-45.16635,-20.51451]]]]}},{"type":"Feature","properties":{"territory_id":"mg-3133501-bom-jesus","name":"Bom Jesus","municipality_id":"mg-3133501","polling_places":1,"approx":true,"official":false,"method":"voronoi-polling-places","whole_municipality":false,"approx_coords_only":false},"geometry":{"type":"MultiPolygon","coordinates":[[[[-45.11508,-20.46574],[-45.11469,-20.47054],[-45.11025,-20.48204],[-45.09491,-20.49633],[-45.09586,-20.44267],[-45.10975,-20.44187],[-45.11508,-20.46574]]]]}},{"type":"Feature","properties":{"territory_id":"mg-3133501-centro","name":"Centro","municipality_id":"mg-3133501","polling_places":6,"approx":true,"official":false,"method":"voronoi-polling-places","whole_municipality":false,"approx_coords_only":false},"geometry":{"type":"MultiPolygon","coordinates":[[[[-45.13266,-20.43382],[-45.13157,-20.44677],[-45.13136,-20.46375],[-45.12828,-20.47211],[-45.12848,-20.47401],[-45.13018,-20.48131],[-45.12582,-20.47969],[-45.12546,-20.47919],[-45.11469,-20.47054],[-45.11508,-20.46574],[-45.10975,-20.44187],[-45.13266,-20.43382]]]]}},{"type":"Feature","properties":{"territory_id":"mg-3133501-cidade-ecologica","name":"Cidade Ecológica","municipality_id":"mg-3133501","polling_places":1,"approx":true,"official":false,"method":"voronoi-polling-places","whole_municipality":false,"approx_coords_only":false},"geometry":{"type":"MultiPolygon","coordinates":[[[[-45.09586,-20.44267],[-45.09491,-20.49633],[-45.06739,-20.57268],[-45.05818,-20.46102],[-45.09363,-20.44186],[-45.09586,-20.44267]]]]}},{"type":"Feature","properties":{"territory_id":"mg-3133501-distrito-de-lamounier","name":"Distrito de Lamounier","municipality_id":"mg-3133501","polling_places":1,"approx":true,"official":false,"method":"voronoi-polling-places","whole_municipality":false,"approx_coords_only":false},"geometry":{"type":"MultiPolygon","coordinates":[[[[-45.06739,-20.57268],[-45.06326,-20.60919],[-45.0462,-20.6329],[-45.0185,-20.6191],[-45.0119,-20.5703],[-45.0127,-20.5044],[-44.98638,-20.4881],[-45.04792,-20.45423],[-45.05818,-20.46102],[-45.06739,-20.57268]]]]}},{"type":"Feature","properties":{"territory_id":"mg-3133501-distrito-de-marilandia","name":"Distrito de Marilandia","municipality_id":"mg-3133501","polling_places":1,"approx":true,"official":false,"method":"voronoi-polling-places","whole_municipality":false,"approx_coords_only":false},"geometry":{"type":"MultiPolygon","coordinates":[[[[-44.99839,-20.33125],[-44.98989,-20.39563],[-44.90497,-20.47703],[-44.8925,-20.4715],[-44.8826,-20.3923],[-44.9139,-20.3176],[-44.9044,-20.2591],[-44.9402,-20.3045],[-44.9788,-20.3286],[-44.99839,-20.33125]]]]}},{"type":"Feature","properties":{"territory_id":"mg-3133501-distrito-de-neolandia","name":"Distrito de Neolandia","municipality_id":"mg-3133501","polling_places":1,"approx":true,"official":false,"method":"voronoi-polling-places","whole_municipality":false,"approx_coords_only":false},"geometry":{"type":"MultiPolygon","coordinates":[[[[-45.21741,-20.36081],[-45.20411,-20.37629],[-45.14922,-20.39021],[-45.1057,-20.36126],[-45.1275,-20.3633],[-45.1284,-20.3332],[-45.1726,-20.3544],[-45.2028,-20.3426],[-45.21741,-20.36081]]]]}},{"type":"Feature","properties":{"territory_id":"mg-3133501-nossa-senhora-das-gracas","name":"Nossa Senhora das Gracas","municipality_id":"mg-3133501","polling_places":2,"approx":true,"official":false,"method":"voronoi-polling-places","whole_municipality":false,"approx_coords_only":false},"geometry":{"type":"MultiPolygon","coordinates":[[[[-45.18572,-20.48432],[-45.16635,-20.51451],[-45.13705,-20.48636],[-45.13018,-20.48131],[-45.12848,-20.47401],[-45.12828,-20.47211],[-45.13136,-20.46375],[-45.13157,-20.44677],[-45.13266,-20.43382],[-45.13733,-20.43132],[-45.18572,-20.48432]]]]}},{"type":"Feature","properties":{"territory_id":"mg-3133501-povoado-de-cafofo","name":"Povoado de Cafofo","municipality_id":"mg-3133501","polling_places":1,"approx":true,"official":false,"method":"voronoi-polling-places","whole_municipality":false,"approx_coords_only":false},"geometry":{"type":"MultiPolygon","coordinates":[[[[-45.21726,-20.46881],[-45.18572,-20.48432],[-45.13733,-20.43132],[-45.14922,-20.39021],[-45.20411,-20.37629],[-45.21726,-20.46881]]]]}},{"type":"Feature","properties":{"territory_id":"mg-3133501-povoado-de-capivara","name":"Povoado de Capivara","municipality_id":"mg-3133501","polling_places":1,"approx":true,"official":false,"method":"voronoi-polling-places","whole_municipality":false,"approx_coords_only":false},"geometry":{"type":"MultiPolygon","coordinates":[[[[-45.3215,-20.4362],[-45.2988,-20.4747],[-45.30053,-20.49109],[-45.29977,-20.49065],[-45.25543,-20.38339],[-45.2865,-20.3587],[-45.3206,-20.3506],[-45.304,-20.3765],[-45.3215,-20.4362]]]]}},{"type":"Feature","properties":{"territory_id":"mg-3133501-povoado-de-casa-queimada","name":"Povoado de Casa Queimada","municipality_id":"mg-3133501","polling_places":1,"approx":true,"official":false,"method":"voronoi-polling-places","whole_municipality":false,"approx_coords_only":false},"geometry":{"type":"MultiPolygon","coordinates":[[[[-45.04792,-20.45423],[-44.98638,-20.4881],[-44.9825,-20.4857],[-44.9464,-20.4954],[-44.90497,-20.47703],[-44.98989,-20.39563],[-45.02708,-20.41001],[-45.04792,-20.45423]]]]}},{"type":"Feature","properties":{"territory_id":"mg-3133501-povoado-de-corrego-fundo","name":"Povoado de Corrego Fundo","municipality_id":"mg-3133501","polling_places":1,"approx":true,"official":false,"method":"voronoi-polling-places","whole_municipality":false,"approx_coords_only":false},"geometry":{"type":"MultiPolygon","coordinates":[[[[-45.29977,-20.49065],[-45.21726,-20.46881],[-45.20411,-20.37629],[-45.21741,-20.36081],[-45.2336,-20.381],[-45.2534,-20.385],[-45.25543,-20.38339],[-45.29977,-20.49065]]]]}},{"type":"Feature","properties":{"territory_id":"mg-3133501-povoado-de-inacio-caetano","name":"Povoado de Inacio Caetano","municipality_id":"mg-3133501","polling_places":1,"approx":true,"official":false,"method":"voronoi-polling-places","whole_municipality":false,"approx_coords_only":false},"geometry":{"type":"MultiPolygon","coordinates":[[[[-45.09363,-20.44186],[-45.05818,-20.46102],[-45.04792,-20.45423],[-45.02708,-20.41001],[-45.0725,-20.40278],[-45.09363,-20.44186]]]]}},{"type":"Feature","properties":{"territory_id":"mg-3133501-povoado-de-partidario","name":"Povoado de Partidario","municipality_id":"mg-3133501","polling_places":1,"approx":true,"official":false,"method":"voronoi-polling-places","whole_municipality":false,"approx_coords_only":false},"geometry":{"type":"MultiPolygon","coordinates":[[[[-45.10237,-20.36095],[-45.0725,-20.40278],[-45.02708,-20.41001],[-44.98989,-20.39563],[-44.99839,-20.33125],[-45.0335,-20.336],[-45.0451,-20.3556],[-45.10237,-20.36095]]]]}},{"type":"Feature","properties":{"territory_id":"mg-3133501-povoado-de-serra-dos-lopes","name":"Povoado de Serra dos Lopes","municipality_id":"mg-3133501","polling_places":1,"approx":true,"official":false,"method":"voronoi-polling-places","whole_municipality":false,"approx_coords_only":false},"geometry":{"type":"MultiPolygon","coordinates":[[[[-45.14922,-20.39021],[-45.13733,-20.43132],[-45.13266,-20.43382],[-45.10975,-20.44187],[-45.09586,-20.44267],[-45.09363,-20.44186],[-45.0725,-20.40278],[-45.10237,-20.36095],[-45.1057,-20.36126],[-45.14922,-20.39021]]]]}},{"type":"Feature","properties":{"territory_id":"mg-3133501-povoado-de-taquara","name":"Povoado de Taquara","municipality_id":"mg-3133501","polling_places":1,"approx":true,"official":false,"method":"voronoi-polling-places","whole_municipality":false,"approx_coords_only":false},"geometry":{"type":"MultiPolygon","coordinates":[[[[-45.3036,-20.5202],[-45.2633,-20.5631],[-45.2925,-20.5905],[-45.2617,-20.6077],[-45.2603,-20.6509],[-45.1817,-20.5847],[-45.14525,-20.56885],[-45.16635,-20.51451],[-45.18572,-20.48432],[-45.21726,-20.46881],[-45.29977,-20.49065],[-45.30053,-20.49109],[-45.3036,-20.5202]]]]}}]}