{"type":"FeatureCollection","features":[{"type":"Feature","properties":{"territory_id":"mg-3133303-centro","name":"Centro","municipality_id":"mg-3133303","polling_places":3,"approx":true,"official":false,"method":"voronoi-polling-places","whole_municipality":false,"approx_coords_only":false},"geometry":{"type":"MultiPolygon","coordinates":[[[[-41.51681,-16.58229],[-41.51353,-16.5805],[-41.47378,-16.55945],[-41.45915,-16.55526],[-41.46174,-16.5358],[-41.49532,-16.54785],[-41.50209,-16.55519],[-41.4847,-16.55932],[-41.49641,-16.56073],[-41.50131,-16.56104],[-41.51681,-16.58229]]]]}},{"type":"Feature","properties":{"territory_id":"mg-3133303-estacao-da-luz","name":"Estação da Luz","municipality_id":"mg-3133303","polling_places":1,"approx":true,"official":false,"method":"voronoi-polling-places","whole_municipality":false,"approx_coords_only":false},"geometry":{"type":"MultiPolygon","coordinates":[[[[-41.56921,-16.6201],[-41.56879,-16.62972],[-41.37541,-16.63914],[-41.3545,-16.6238],[-41.4002,-16.5709],[-41.4576,-16.5669],[-41.45915,-16.55526],[-41.47378,-16.55945],[-41.51353,-16.5805],[-41.51681,-16.58229],[-41.56921,-16.6201]]]]}},{"type":"Feature","properties":{"territory_id":"mg-3133303-guadalupe","name":"Guadalupe","municipality_id":"mg-3133303","polling_places":1,"approx":true,"official":false,"method":"voronoi-polling-places","whole_municipality":false,"approx_coords_only":false},"geometry":{"type":"MultiPolygon","coordinates":[[[[-41.50453,-16.55553],[-41.50131,-16.56104],[-41.49641,-16.56073],[-41.4847,-16.55932],[-41.50209,-16.55519],[-41.50453,-16.55553]]]]}},{"type":"Feature","properties":{"territory_id":"mg-3133303-pasmado","name":"Pasmado","municipality_id":"mg-3133303","polling_places":1,"approx":true,"official":false,"method":"voronoi-polling-places","whole_municipality":false,"approx_coords_only":false},"geometry":{"type":"MultiPolygon","coordinates":[[[[-41.682,-16.4974],[-41.6581,-16.5235],[-41.6517,-16.5729],[-41.6404,-16.6608],[-41.61138,-16.69167],[-41.56879,-16.62972],[-41.56921,-16.6201],[-41.58277,-16.53862],[-41.6049,-16.45456],[-41.6171,-16.4533],[-41.682,-16.4974]]]]}},{"type":"Feature","properties":{"territory_id":"mg-3133303-povoado-sao-joao","name":"Povoado São João","municipality_id":"mg-3133303","polling_places":1,"approx":true,"official":false,"method":"voronoi-polling-places","whole_municipality":false,"approx_coords_only":false},"geometry":{"type":"MultiPolygon","coordinates":[[[[-41.61138,-16.69167],[-41.6043,-16.6992],[-41.5572,-16.7302],[-41.4991,-16.7091],[-41.4651,-16.7236],[-41.4515,-16.6793],[-41.4209,-16.6725],[-41.37541,-16.63914],[-41.56879,-16.62972],[-41.61138,-16.69167]]]]}},{"type":"Feature","properties":{"territory_id":"mg-3133303-sao-cristovao","name":"São Cristóvão","municipality_id":"mg-3133303","polling_places":1,"approx":true,"official":false,"method":"voronoi-polling-places","whole_municipality":false,"approx_coords_only":false},"geometry":{"type":"MultiPolygon","coordinates":[[[[-41.6049,-16.45456],[-41.58277,-16.53862],[-41.514,-16.55117],[-41.49532,-16.54785],[-41.46174,-16.5358],[-41.4636,-16.5218],[-41.4207,-16.4865],[-41.4512,-16.454],[-41.4867,-16.4659],[-41.5594,-16.4269],[-41.589,-16.4562],[-41.6049,-16.45456]]]]}},{"type":"Feature","properties":{"territory_id":"mg-3133303-sao-jorge","name":"São Jorge","municipality_id":"mg-3133303","polling_places":1,"approx":true,"official":false,"method":"voronoi-polling-places","whole_municipality":false,"approx_coords_only":false},"geometry":{"type":"MultiPolygon","coordinates":[[[[-41.58277,-16.53862],[-41.56921,-16.6201],[-41.51681,-16.58229],[-41.50131,-16.56104],[-41.50453,-16.55553],[-41.514,-16.55117],[-41.58277,-16.53862]]]]}},{"type":"Feature","properties":{"territory_id":"mg-3133303-vila-nova","name":"Vila Nova","municipality_id":"mg-3133303","polling_places":1,"approx":true,"official":false,"method":"voronoi-polling-places","whole_municipality":false,"approx_coords_only":false},"geometry":{"type":"MultiPolygon","coordinates":[[[[-41.514,-16.55117],[-41.50453,-16.55553],[-41.50209,-16.55519],[-41.49532,-16.54785],[-41.514,-16.55117]]]]}}]}