{"type":"FeatureCollection","features":[{"type":"Feature","properties":{"territory_id":"mg-3133808-aeroporto","name":"Aeroporto","municipality_id":"mg-3133808","polling_places":1,"approx":false,"official":true,"method":"official-ibge-cd2022","whole_municipality":false,"approx_coords_only":false,"official_name":"Aeroporto","official_code":"3133808044","match":"direct"},"geometry":{"type":"MultiPolygon","coordinates":[[[[-44.59417,-20.09976],[-44.60397,-20.09537],[-44.60433,-20.09602],[-44.6044,-20.09609],[-44.60453,-20.09592],[-44.60456,-20.09581],[-44.6045,-20.09584],[-44.60376,-20.09436],[-44.60293,-20.09473],[-44.60166,-20.09407],[-44.60096,-20.09367],[-44.59955,-20.09411],[-44.59823,-20.09454],[-44.59815,-20.09454],[-44.59802,-20.0945],[-44.5979,-20.09445],[-44.59772,-20.09429],[-44.5976,-20.09416],[-44.59758,-20.09416],[-44.59728,-20.09341],[-44.59666,-20.09374],[-44.59615,-20.09392],[-44.59567,-20.09406],[-44.59527,-20.09431],[-44.59489,-20.0946],[-44.59475,-20.09466],[-44.59426,-20.09472],[-44.59416,-20.09477],[-44.59406,-20.09484],[-44.59376,-20.09515],[-44.59292,-20.09585],[-44.59281,-20.09598],[-44.59276,-20.09611],[-44.59274,-20.09623],[-44.59274,-20.09654],[-44.59272,-20.09674],[-44.59269,-20.09686],[-44.59261,-20.09699],[-44.59248,-20.09712],[-44.59231,-20.09725],[-44.59195,-20.09742],[-44.59186,-20.09749],[-44.59176,-20.09774],[-44.59164,-20.09788],[-44.59114,-20.0982],[-44.59068,-20.09841],[-44.59193,-20.09968],[-44.59197,-20.09983],[-44.59206,-20.09988],[-44.59212,-20.09959],[-44.59252,-20.09943],[-44.59296,-20.10031],[-44.59382,-20.09993],[-44.59417,-20.09976]]]]}},{"type":"Feature","properties":{"territory_id":"mg-3133808-centro","name":"Centro","municipality_id":"mg-3133808","polling_places":7,"approx":false,"official":true,"method":"official-ibge-cd2022","whole_municipality":false,"approx_coords_only":false,"official_name":"Centro","official_code":"3133808001","match":"direct"},"geometry":{"type":"MultiPolygon","coordinates":[[[[-44.57205,-20.07771],[-44.57199,-20.07798],[-44.57187,-20.07825],[-44.57221,-20.07904],[-44.57229,-20.07911],[-44.57243,-20.07917],[-44.57327,-20.07981],[-44.57352,-20.07997],[-44.57377,-20.0801],[-44.5739,-20.08014],[-44.57411,-20.08018],[-44.57426,-20.08044],[-44.57433,-20.0802],[-44.57609,-20.0801],[-44.5762,-20.08012],[-44.57627,-20.08015],[-44.57645,-20.08028],[-44.57728,-20.08105],[-44.57859,-20.08221],[-44.5787,-20.08228],[-44.57879,-20.0823],[-44.57875,-20.08235],[-44.57871,-20.08242],[-44.57861,-20.08264],[-44.57948,-20.08284],[-44.57955,-20.08284],[-44.57959,-20.08192],[-44.57964,-20.08116],[-44.57968,-20.08086],[-44.57982,-20.0804],[-44.58025,-20.07911],[-44.58029,-20.07886],[-44.5803,-20.07861],[-44.58015,-20.0777],[-44.57988,-20.07682],[-44.57984,-20.07652],[-44.57985,-20.07637],[-44.58,-20.07557],[-44.57997,-20.07504],[-44.57995,-20.07392],[-44.58026,-20.07217],[-44.58029,-20.07193],[-44.58027,-20.07171],[-44.58008,-20.07055],[-44.58006,-20.07027],[-44.58007,-20.06932],[-44.58005,-20.06903],[-44.58007,-20.06791],[-44.57986,-20.068],[-44.57968,-20.068],[-44.57943,-20.06793],[-44.5793,-20.06787],[-44.57916,-20.06777],[-44.57905,-20.06773],[-44.57893,-20.06773],[-44.57841,-20.0678],[-44.57794,-20.06797],[-44.57728,-20.06812],[-44.57698,-20.0682],[-44.5763,-20.06833],[-44.57614,-20.06839],[-44.57596,-20.0685],[-44.57497,-20.06912],[-44.57386,-20.06989],[-44.57367,-20.06999],[-44.57343,-20.07006],[-44.57234,-20.07035],[-44.57225,-20.0704],[-44.57218,-20.07047],[-44.57087,-20.07254],[-44.5705,-20.07309],[-44.57034,-20.07345],[-44.57017,-20.07367],[-44.57006,-20.07377],[-44.56994,-20.0742],[-44.56993,-20.0744],[-44.56978,-20.07514],[-44.56955,-20.07589],[-44.56902,-20.07727],[-44.57064,-20.07678],[-44.57088,-20.07674],[-44.5721,-20.07693],[-44.57205,-20.0774],[-44.57205,-20.07771]]]]}},{"type":"Feature","properties":{"territory_id":"mg-3133808-cidade-nova","name":"Cidade Nova","municipality_id":"mg-3133808","polling_places":1,"approx":false,"official":true,"method":"official-ibge-cd2022","whole_municipality":false,"approx_coords_only":false,"official_name":"Cidade Nova","official_code":"3133808048","match":"direct"},"geometry":{"type":"MultiPolygon","coordinates":[[[[-44.59506,-20.10617],[-44.59539,-20.10282],[-44.59542,-20.10236],[-44.5954,-20.10227],[-44.5941,-20.10035],[-44.59455,-20.10011],[-44.5943,-20.09971],[-44.59296,-20.10031],[-44.59252,-20.09943],[-44.59212,-20.09959],[-44.59206,-20.09988],[-44.59197,-20.09983],[-44.59193,-20.09968],[-44.59068,-20.09841],[-44.59023,-20.09863],[-44.59013,-20.0987],[-44.58991,-20.09895],[-44.58984,-20.09911],[-44.58982,-20.09955],[-44.58976,-20.09968],[-44.58969,-20.09978],[-44.58949,-20.10027],[-44.58933,-20.10059],[-44.58927,-20.10077],[-44.58924,-20.10106],[-44.58938,-20.10175],[-44.58919,-20.10196],[-44.58897,-20.10207],[-44.58886,-20.10215],[-44.58878,-20.10224],[-44.58873,-20.10235],[-44.58876,-20.10257],[-44.58889,-20.10276],[-44.58889,-20.10282],[-44.58899,-20.10297],[-44.58904,-20.10314],[-44.58906,-20.10333],[-44.5891,-20.10349],[-44.58915,-20.10357],[-44.5892,-20.10375],[-44.58554,-20.10576],[-44.58647,-20.10856],[-44.5873,-20.10922],[-44.58889,-20.10954],[-44.59054,-20.10895],[-44.59202,-20.10807],[-44.59201,-20.10798],[-44.59206,-20.10788],[-44.59238,-20.10751],[-44.59249,-20.10744],[-44.59266,-20.10739],[-44.59283,-20.10725],[-44.59289,-20.10715],[-44.59293,-20.10703],[-44.59297,-20.10687],[-44.59311,-20.1067],[-44.59405,-20.10783],[-44.59417,-20.10788],[-44.5944,-20.10815],[-44.59469,-20.10829],[-44.59505,-20.10831],[-44.59526,-20.10838],[-44.59541,-20.10844],[-44.59559,-20.10855],[-44.59587,-20.10876],[-44.59623,-20.10911],[-44.59654,-20.10952],[-44.59666,-20.10965],[-44.59667,-20.10969],[-44.59688,-20.10993],[-44.59711,-20.11004],[-44.59718,-20.10969],[-44.59724,-20.10924],[-44.59737,-20.10866],[-44.5973,-20.10844],[-44.59739,-20.10754],[-44.59556,-20.10737],[-44.59568,-20.10623],[-44.59506,-20.10617]]]]}},{"type":"Feature","properties":{"territory_id":"mg-3133808-conjunto-habitacional-jadir-marinho-de-faria","name":"Conjunto Habitacional Jadir Marinho de Faria","municipality_id":"mg-3133808","polling_places":1,"approx":false,"official":true,"method":"official-ibge-cd2022","whole_municipality":false,"approx_coords_only":false,"official_name":"Conjunto Habitacional Jadir Marinho de Faria","official_code":"3133808036","match":"direct"},"geometry":{"type":"MultiPolygon","coordinates":[[[[-44.56095,-20.05724],[-44.5616,-20.05807],[-44.56291,-20.05784],[-44.56367,-20.05774],[-44.56476,-20.05846],[-44.56489,-20.05856],[-44.56527,-20.05897],[-44.56624,-20.05978],[-44.56822,-20.06202],[-44.56833,-20.06218],[-44.56846,-20.06251],[-44.56959,-20.06272],[-44.57017,-20.06273],[-44.57059,-20.0627],[-44.57217,-20.06245],[-44.57263,-20.06247],[-44.57089,-20.05739],[-44.5708,-20.05709],[-44.57058,-20.05622],[-44.57051,-20.05577],[-44.5705,-20.0556],[-44.57066,-20.05391],[-44.5711,-20.05069],[-44.57105,-20.05068],[-44.57112,-20.0502],[-44.57085,-20.05027],[-44.57011,-20.04925],[-44.56961,-20.04961],[-44.56904,-20.0503],[-44.56894,-20.0506],[-44.5688,-20.05114],[-44.56822,-20.0519],[-44.56846,-20.05084],[-44.56619,-20.05116],[-44.5667,-20.05426],[-44.56654,-20.05494],[-44.56649,-20.05494],[-44.56641,-20.05511],[-44.56627,-20.05524],[-44.56618,-20.05522],[-44.56617,-20.05514],[-44.56613,-20.05508],[-44.5661,-20.05488],[-44.56601,-20.05482],[-44.56592,-20.05482],[-44.56581,-20.05484],[-44.56571,-20.05489],[-44.56557,-20.05478],[-44.56555,-20.05465],[-44.5655,-20.05459],[-44.56533,-20.0546],[-44.56532,-20.05455],[-44.56518,-20.05446],[-44.56505,-20.05441],[-44.56497,-20.05433],[-44.56488,-20.05432],[-44.56457,-20.05439],[-44.56439,-20.0544],[-44.56432,-20.05442],[-44.56418,-20.05442],[-44.56413,-20.0544],[-44.56407,-20.05429],[-44.56394,-20.0543],[-44.56379,-20.05436],[-44.56372,-20.05436],[-44.56361,-20.05433],[-44.56351,-20.05434],[-44.56344,-20.05428],[-44.5634,-20.05412],[-44.56335,-20.05408],[-44.56332,-20.05399],[-44.56325,-20.05394],[-44.56316,-20.05376],[-44.56315,-20.05365],[-44.56309,-20.05356],[-44.56302,-20.05352],[-44.56267,-20.05346],[-44.56259,-20.05352],[-44.5625,-20.05351],[-44.56211,-20.05357],[-44.56194,-20.0535],[-44.56182,-20.05334],[-44.56167,-20.05325],[-44.56098,-20.05315],[-44.55995,-20.05317],[-44.55953,-20.05349],[-44.55903,-20.05402],[-44.55862,-20.05481],[-44.55851,-20.05542],[-44.55856,-20.05554],[-44.55856,-20.05576],[-44.55844,-20.05619],[-44.55837,-20.05684],[-44.5583,-20.05717],[-44.55816,-20.05729],[-44.55768,-20.05764],[-44.55958,-20.05731],[-44.55963,-20.05736],[-44.56038,-20.05729],[-44.56052,-20.05729],[-44.56095,-20.05724]]]]}},{"type":"Feature","properties":{"territory_id":"mg-3133808-garcias","name":"Garcias","municipality_id":"mg-3133808","polling_places":1,"approx":false,"official":true,"method":"official-ibge-cd2022","whole_municipality":false,"approx_coords_only":false,"official_name":"Garcias","official_code":"3133808041","match":"direct"},"geometry":{"type":"MultiPolygon","coordinates":[[[[-44.6044,-20.09609],[-44.60433,-20.09602],[-44.60397,-20.09537],[-44.5977,-20.09818],[-44.59784,-20.09848],[-44.59876,-20.09998],[-44.59923,-20.10007],[-44.60022,-20.10019],[-44.60117,-20.10027],[-44.60213,-20.1004],[-44.60245,-20.10044],[-44.6033,-20.10061],[-44.60398,-20.10066],[-44.60418,-20.10065],[-44.60446,-20.1006],[-44.60447,-20.10077],[-44.60452,-20.10105],[-44.6046,-20.10127],[-44.60479,-20.10162],[-44.60498,-20.10189],[-44.60528,-20.10219],[-44.60774,-20.10428],[-44.61064,-20.10243],[-44.61059,-20.10241],[-44.61054,-20.10237],[-44.61018,-20.10199],[-44.61016,-20.10185],[-44.61017,-20.10164],[-44.61013,-20.10154],[-44.61009,-20.10149],[-44.6099,-20.10135],[-44.60979,-20.10121],[-44.60957,-20.10111],[-44.60954,-20.10108],[-44.60951,-20.10099],[-44.60953,-20.10071],[-44.60952,-20.1006],[-44.60948,-20.10057],[-44.60944,-20.10056],[-44.60929,-20.10063],[-44.60925,-20.10061],[-44.60923,-20.10058],[-44.60917,-20.10019],[-44.60913,-20.0998],[-44.6092,-20.09965],[-44.6094,-20.09944],[-44.60945,-20.09937],[-44.60948,-20.09927],[-44.60948,-20.09917],[-44.60942,-20.09906],[-44.60943,-20.09891],[-44.6094,-20.09874],[-44.60938,-20.09845],[-44.6094,-20.09834],[-44.60949,-20.09822],[-44.6096,-20.09797],[-44.60975,-20.09775],[-44.60978,-20.09766],[-44.60981,-20.09748],[-44.60977,-20.09726],[-44.60972,-20.09718],[-44.60944,-20.09689],[-44.60923,-20.0967],[-44.60907,-20.09662],[-44.60897,-20.0966],[-44.60849,-20.09659],[-44.60835,-20.09657],[-44.6081,-20.09642],[-44.60799,-20.09628],[-44.60792,-20.09615],[-44.60786,-20.09594],[-44.60785,-20.09581],[-44.60784,-20.09573],[-44.60787,-20.09566],[-44.60808,-20.09526],[-44.60817,-20.095],[-44.60822,-20.09492],[-44.60846,-20.09462],[-44.60851,-20.09452],[-44.60851,-20.09446],[-44.60846,-20.09434],[-44.60837,-20.09425],[-44.60824,-20.09416],[-44.6081,-20.0941],[-44.60807,-20.09405],[-44.60806,-20.09392],[-44.60794,-20.09384],[-44.60791,-20.09381],[-44.60771,-20.09339],[-44.60768,-20.09324],[-44.60769,-20.0928],[-44.60764,-20.09248],[-44.60768,-20.09227],[-44.6078,-20.09214],[-44.6078,-20.0921],[-44.60771,-20.09179],[-44.60741,-20.09155],[-44.60721,-20.09123],[-44.60709,-20.09115],[-44.60746,-20.09096],[-44.60707,-20.09068],[-44.60688,-20.09052],[-44.60678,-20.09041],[-44.60548,-20.08842],[-44.60524,-20.08808],[-44.60493,-20.0878],[-44.60386,-20.08712],[-44.60365,-20.08694],[-44.60345,-20.08672],[-44.60328,-20.08647],[-44.60315,-20.08623],[-44.60306,-20.08597],[-44.60295,-20.08596],[-44.603,-20.08621],[-44.60309,-20.08647],[-44.60317,-20.08664],[-44.60339,-20.08718],[-44.60343,-20.08735],[-44.60345,-20.08767],[-44.60335,-20.08766],[-44.60313,-20.08761],[-44.60283,-20.08759],[-44.60253,-20.08749],[-44.60246,-20.08739],[-44.60232,-20.0873],[-44.60229,-20.08725],[-44.60226,-20.08719],[-44.60226,-20.08701],[-44.60224,-20.08692],[-44.60219,-20.08687],[-44.60204,-20.08681],[-44.602,-20.08677],[-44.60198,-20.08686],[-44.602,-20.08705],[-44.60191,-20.0873],[-44.60184,-20.08757],[-44.6018,-20.08793],[-44.60171,-20.0883],[-44.6017,-20.08843],[-44.60161,-20.08868],[-44.6016,-20.08889],[-44.60145,-20.08898],[-44.60072,-20.08966],[-44.60049,-20.08993],[-44.59916,-20.09185],[-44.59911,-20.09183],[-44.5989,-20.09159],[-44.59886,-20.09148],[-44.59888,-20.09133],[-44.59884,-20.09113],[-44.59875,-20.09096],[-44.59862,-20.09084],[-44.59845,-20.09076],[-44.59804,-20.0907],[-44.59792,-20.09067],[-44.59765,-20.09055],[-44.59681,-20.09],[-44.59601,-20.08958],[-44.596,-20.08974],[-44.59615,-20.08987],[-44.59628,-20.09007],[-44.59636,-20.09043],[-44.59694,-20.09256],[-44.59758,-20.09416],[-44.5976,-20.09416],[-44.59772,-20.09429],[-44.59785,-20.0944],[-44.59802,-20.0945],[-44.59823,-20.09454],[-44.59955,-20.09411],[-44.60096,-20.09367],[-44.60166,-20.09407],[-44.60293,-20.09473],[-44.60376,-20.09436],[-44.6045,-20.09584],[-44.60456,-20.09581],[-44.60451,-20.09595],[-44.6044,-20.09609]]]]}},{"type":"Feature","properties":{"territory_id":"mg-3133808-gracas","name":"Graças","municipality_id":"mg-3133808","polling_places":3,"approx":true,"official":false,"method":"voronoi-polling-places","whole_municipality":false,"approx_coords_only":false},"geometry":{"type":"MultiPolygon","coordinates":[[[[-44.63087,-20.05815],[-44.61234,-20.06633],[-44.61229,-20.06625],[-44.61209,-20.06569],[-44.61191,-20.065],[-44.61179,-20.06194],[-44.61174,-20.06138],[-44.61168,-20.06112],[-44.61161,-20.06097],[-44.61151,-20.06078],[-44.61137,-20.06057],[-44.61111,-20.06032],[-44.61078,-20.06018],[-44.61058,-20.06013],[-44.61013,-20.0601],[-44.60962,-20.06018],[-44.60899,-20.06035],[-44.60856,-20.06051],[-44.60802,-20.06067],[-44.60731,-20.06084],[-44.60737,-20.06101],[-44.60741,-20.06185],[-44.60732,-20.06218],[-44.60689,-20.06318],[-44.60662,-20.06373],[-44.60651,-20.06383],[-44.60624,-20.06391],[-44.6059,-20.06393],[-44.6053,-20.06392],[-44.60431,-20.06375],[-44.60382,-20.06362],[-44.60347,-20.06357],[-44.60329,-20.06359],[-44.60319,-20.06362],[-44.60245,-20.06396],[-44.60205,-20.064],[-44.60167,-20.0641],[-44.60137,-20.06434],[-44.60101,-20.06456],[-44.60082,-20.06479],[-44.60073,-20.06488],[-44.60048,-20.06499],[-44.6019,-20.06576],[-44.60255,-20.06607],[-44.60268,-20.06594],[-44.60287,-20.06581],[-44.603,-20.06576],[-44.60323,-20.0657],[-44.60358,-20.06568],[-44.60373,-20.06569],[-44.6041,-20.06582],[-44.60433,-20.06598],[-44.60456,-20.06617],[-44.60517,-20.06675],[-44.6054,-20.06702],[-44.60552,-20.06722],[-44.60559,-20.06743],[-44.60565,-20.06776],[-44.60564,-20.06799],[-44.60562,-20.06814],[-44.60545,-20.06887],[-44.60543,-20.06911],[-44.60545,-20.06926],[-44.60547,-20.06937],[-44.58589,-20.07803],[-44.58343,-20.07979],[-44.58207,-20.0791],[-44.58172,-20.0789],[-44.58171,-20.07881],[-44.5803,-20.07861],[-44.58015,-20.0777],[-44.57988,-20.07682],[-44.57984,-20.07652],[-44.57985,-20.07637],[-44.58,-20.07557],[-44.57997,-20.07504],[-44.57995,-20.07392],[-44.58026,-20.07217],[-44.58029,-20.07193],[-44.58027,-20.07171],[-44.58008,-20.07055],[-44.58006,-20.07027],[-44.58007,-20.06932],[-44.58005,-20.06903],[-44.58007,-20.06791],[-44.57986,-20.068],[-44.57968,-20.068],[-44.57943,-20.06793],[-44.5793,-20.06787],[-44.57916,-20.06777],[-44.57905,-20.06773],[-44.57893,-20.06773],[-44.57841,-20.0678],[-44.57794,-20.06797],[-44.57728,-20.06812],[-44.57698,-20.0682],[-44.5763,-20.06833],[-44.57614,-20.06839],[-44.57596,-20.0685],[-44.57497,-20.06912],[-44.57386,-20.06989],[-44.57367,-20.06999],[-44.57343,-20.07006],[-44.57234,-20.07035],[-44.57225,-20.0704],[-44.57218,-20.07047],[-44.57087,-20.07254],[-44.5705,-20.07309],[-44.57034,-20.07345],[-44.57017,-20.07367],[-44.57006,-20.07377],[-44.56994,-20.0742],[-44.56993,-20.0744],[-44.56978,-20.07514],[-44.56955,-20.07589],[-44.56902,-20.07727],[-44.56858,-20.07853],[-44.56838,-20.07872],[-44.56789,-20.07906],[-44.56657,-20.07974],[-44.5721,-20.06877],[-44.58901,-20.02035],[-44.59814,-20.02186],[-44.62765,-20.05373],[-44.6282,-20.05449],[-44.63087,-20.05815]]],[[[-44.57769,-20.08388],[-44.57467,-20.08604],[-44.57322,-20.08494],[-44.57341,-20.08462],[-44.57378,-20.08406],[-44.57409,-20.08354],[-44.57421,-20.08341],[-44.57437,-20.08329],[-44.57443,-20.08327],[-44.57472,-20.08325],[-44.57486,-20.08326],[-44.57534,-20.08338],[-44.57652,-20.0834],[-44.57761,-20.0834],[-44.57766,-20.0837],[-44.57769,-20.08388]]],[[[-44.57728,-20.08105],[-44.57673,-20.08054],[-44.5764,-20.08024],[-44.57645,-20.08028],[-44.57728,-20.08105]]],[[[-44.57631,-20.08017],[-44.5762,-20.08012],[-44.57627,-20.08015],[-44.57631,-20.08017]]],[[[-44.57428,-20.08049],[-44.57411,-20.08018],[-44.57426,-20.08044],[-44.57428,-20.08049]]],[[[-44.5687,-20.08065],[-44.56842,-20.08131],[-44.56651,-20.07987],[-44.56656,-20.07976],[-44.5687,-20.08065]]]]}},{"type":"Feature","properties":{"territory_id":"mg-3133808-irmaos-auller","name":"Irmãos Auller","municipality_id":"mg-3133808","polling_places":1,"approx":true,"official":false,"method":"voronoi-polling-places","whole_municipality":false,"approx_coords_only":false},"geometry":{"type":"MultiPolygon","coordinates":[[[[-44.58901,-20.02035],[-44.5721,-20.06877],[-44.56657,-20.07974],[-44.56655,-20.07975],[-44.56656,-20.07976],[-44.56651,-20.07987],[-44.55231,-20.08176],[-44.56403,-20.01079],[-44.58901,-20.02035]],[[-44.57263,-20.06247],[-44.57089,-20.05739],[-44.5708,-20.05709],[-44.57058,-20.05622],[-44.57051,-20.05577],[-44.5705,-20.0556],[-44.57066,-20.05391],[-44.5711,-20.05069],[-44.57105,-20.05068],[-44.57112,-20.0502],[-44.57085,-20.05027],[-44.57011,-20.04925],[-44.56961,-20.04961],[-44.56904,-20.0503],[-44.56894,-20.0506],[-44.5688,-20.05114],[-44.56822,-20.0519],[-44.56846,-20.05084],[-44.56619,-20.05116],[-44.5667,-20.05426],[-44.56654,-20.05494],[-44.56649,-20.05494],[-44.56641,-20.05511],[-44.56627,-20.05524],[-44.56618,-20.05522],[-44.56617,-20.05514],[-44.56613,-20.05508],[-44.5661,-20.05488],[-44.56601,-20.05482],[-44.56592,-20.05482],[-44.56581,-20.05484],[-44.56571,-20.05489],[-44.56557,-20.05478],[-44.56555,-20.05465],[-44.5655,-20.05459],[-44.56533,-20.0546],[-44.56532,-20.05455],[-44.56518,-20.05446],[-44.56505,-20.05441],[-44.56497,-20.05433],[-44.56488,-20.05432],[-44.56457,-20.05439],[-44.56439,-20.0544],[-44.56432,-20.05442],[-44.56418,-20.05442],[-44.56413,-20.0544],[-44.56407,-20.05429],[-44.56394,-20.0543],[-44.56379,-20.05436],[-44.56372,-20.05436],[-44.56361,-20.05433],[-44.56351,-20.05434],[-44.56344,-20.05428],[-44.5634,-20.05412],[-44.56335,-20.05408],[-44.56332,-20.05399],[-44.56325,-20.05394],[-44.56316,-20.05376],[-44.56315,-20.05365],[-44.56309,-20.05356],[-44.56302,-20.05352],[-44.56267,-20.05346],[-44.56259,-20.05352],[-44.5625,-20.05351],[-44.56211,-20.05357],[-44.56194,-20.0535],[-44.56182,-20.05334],[-44.56167,-20.05325],[-44.56098,-20.05315],[-44.55995,-20.05317],[-44.55953,-20.05349],[-44.55903,-20.05402],[-44.55862,-20.05481],[-44.55851,-20.05542],[-44.55856,-20.05554],[-44.55856,-20.05576],[-44.55844,-20.05619],[-44.55837,-20.05684],[-44.5583,-20.05717],[-44.55816,-20.05729],[-44.55768,-20.05764],[-44.55958,-20.05731],[-44.55963,-20.05736],[-44.56038,-20.05729],[-44.56052,-20.05729],[-44.56095,-20.05724],[-44.5616,-20.05807],[-44.56291,-20.05784],[-44.56367,-20.05774],[-44.56476,-20.05846],[-44.56489,-20.05856],[-44.56527,-20.05897],[-44.56624,-20.05978],[-44.56822,-20.06202],[-44.56833,-20.06218],[-44.56846,-20.06251],[-44.56959,-20.06272],[-44.57017,-20.06273],[-44.57059,-20.0627],[-44.57217,-20.06245],[-44.57263,-20.06247]],[[-44.56794,-20.07039],[-44.56791,-20.06836],[-44.56787,-20.06803],[-44.5678,-20.06779],[-44.5677,-20.06759],[-44.56752,-20.06731],[-44.56724,-20.06705],[-44.56696,-20.06686],[-44.56654,-20.06668],[-44.56393,-20.06572],[-44.5638,-20.06569],[-44.56341,-20.06563],[-44.56288,-20.06563],[-44.56257,-20.06569],[-44.56232,-20.06576],[-44.56211,-20.06585],[-44.56184,-20.06599],[-44.56178,-20.06603],[-44.56158,-20.06617],[-44.56016,-20.0673],[-44.56006,-20.06736],[-44.55978,-20.06749],[-44.55956,-20.06755],[-44.55931,-20.06757],[-44.55906,-20.06757],[-44.55896,-20.06822],[-44.55898,-20.06837],[-44.55897,-20.06863],[-44.55892,-20.06885],[-44.55883,-20.06914],[-44.55882,-20.06924],[-44.55891,-20.06938],[-44.559,-20.06961],[-44.55904,-20.06965],[-44.55928,-20.06977],[-44.55954,-20.06999],[-44.55982,-20.07008],[-44.55997,-20.07011],[-44.56001,-20.07013],[-44.56008,-20.07033],[-44.56016,-20.07038],[-44.56018,-20.07043],[-44.56018,-20.07047],[-44.56011,-20.07063],[-44.56013,-20.07068],[-44.56019,-20.07076],[-44.56019,-20.07079],[-44.56013,-20.07088],[-44.56013,-20.07091],[-44.56017,-20.07096],[-44.56017,-20.07101],[-44.56007,-20.07121],[-44.56007,-20.07132],[-44.56008,-20.07137],[-44.56034,-20.07155],[-44.56055,-20.07204],[-44.56212,-20.07147],[-44.56256,-20.07255],[-44.56306,-20.07391],[-44.56392,-20.07394],[-44.56539,-20.07406],[-44.5656,-20.07379],[-44.56582,-20.07356],[-44.56604,-20.07338],[-44.56626,-20.07322],[-44.56711,-20.07268],[-44.56708,-20.07238],[-44.56712,-20.07209],[-44.56716,-20.07198],[-44.56727,-20.07177],[-44.56734,-20.07167],[-44.56775,-20.07115],[-44.56781,-20.07107],[-44.56786,-20.07093],[-44.5679,-20.07081],[-44.56793,-20.0706],[-44.56794,-20.07039]]]]}},{"type":"Feature","properties":{"territory_id":"mg-3133808-itaunense","name":"Itaunense","municipality_id":"mg-3133808","polling_places":1,"approx":false,"official":true,"method":"official-ibge-cd2022","whole_municipality":false,"approx_coords_only":false,"official_name":"Itaunense","official_code":"3133808052","match":"direct"},"geometry":{"type":"MultiPolygon","coordinates":[[[[-44.61344,-20.09293],[-44.61326,-20.09295],[-44.61289,-20.09294],[-44.61265,-20.09287],[-44.61254,-20.09283],[-44.61243,-20.09277],[-44.61219,-20.09259],[-44.61191,-20.09229],[-44.61169,-20.09208],[-44.61151,-20.09196],[-44.61129,-20.09186],[-44.61097,-20.09179],[-44.61082,-20.09179],[-44.60957,-20.09195],[-44.60943,-20.09196],[-44.60918,-20.09193],[-44.60896,-20.09187],[-44.60871,-20.09177],[-44.60746,-20.09096],[-44.60709,-20.09115],[-44.60721,-20.09123],[-44.60741,-20.09155],[-44.60771,-20.09179],[-44.60773,-20.09183],[-44.6078,-20.0921],[-44.6078,-20.09214],[-44.60768,-20.09227],[-44.60764,-20.09248],[-44.60769,-20.0928],[-44.60768,-20.09324],[-44.60771,-20.09339],[-44.60791,-20.09381],[-44.60794,-20.09384],[-44.60806,-20.09392],[-44.60807,-20.09405],[-44.6081,-20.0941],[-44.60824,-20.09416],[-44.60837,-20.09425],[-44.60846,-20.09434],[-44.60851,-20.09446],[-44.60851,-20.09452],[-44.60846,-20.09462],[-44.60822,-20.09492],[-44.60817,-20.095],[-44.60808,-20.09526],[-44.60787,-20.09566],[-44.60784,-20.09573],[-44.60785,-20.09581],[-44.60786,-20.09594],[-44.60792,-20.09615],[-44.60799,-20.09628],[-44.6081,-20.09642],[-44.60835,-20.09657],[-44.60849,-20.09659],[-44.60897,-20.0966],[-44.60907,-20.09662],[-44.60923,-20.0967],[-44.60937,-20.09683],[-44.60972,-20.09718],[-44.60977,-20.09726],[-44.6098,-20.09734],[-44.60981,-20.09748],[-44.6098,-20.09758],[-44.60975,-20.09775],[-44.6096,-20.09797],[-44.60949,-20.09822],[-44.6094,-20.09834],[-44.60939,-20.09839],[-44.60938,-20.09845],[-44.6094,-20.09874],[-44.60943,-20.09891],[-44.60942,-20.09906],[-44.60948,-20.09917],[-44.60947,-20.09932],[-44.6094,-20.09944],[-44.6092,-20.09965],[-44.60913,-20.0998],[-44.60917,-20.10019],[-44.60923,-20.10058],[-44.60925,-20.10061],[-44.60929,-20.10063],[-44.60944,-20.10056],[-44.60948,-20.10057],[-44.60952,-20.1006],[-44.60953,-20.10071],[-44.60951,-20.10099],[-44.60952,-20.10105],[-44.60957,-20.10111],[-44.60979,-20.10121],[-44.6099,-20.10135],[-44.61009,-20.10149],[-44.61013,-20.10154],[-44.61017,-20.10164],[-44.61016,-20.10185],[-44.61018,-20.10199],[-44.61054,-20.10237],[-44.61059,-20.10241],[-44.61064,-20.10243],[-44.61083,-20.10245],[-44.61099,-20.10258],[-44.61106,-20.1026],[-44.61159,-20.1026],[-44.6117,-20.10262],[-44.61178,-20.10266],[-44.61184,-20.10274],[-44.61189,-20.10283],[-44.61188,-20.10292],[-44.6119,-20.103],[-44.61205,-20.10318],[-44.61224,-20.10347],[-44.61242,-20.10365],[-44.61288,-20.10353],[-44.61331,-20.10347],[-44.61381,-20.10339],[-44.61445,-20.10323],[-44.61525,-20.10296],[-44.61552,-20.10291],[-44.61585,-20.10291],[-44.61615,-20.10285],[-44.61638,-20.10275],[-44.61653,-20.10263],[-44.6166,-20.10242],[-44.61653,-20.10156],[-44.61608,-20.10066],[-44.6156,-20.10005],[-44.61579,-20.09817],[-44.61495,-20.09804],[-44.61475,-20.09797],[-44.61456,-20.09788],[-44.61431,-20.09767],[-44.61414,-20.09742],[-44.61409,-20.09727],[-44.61404,-20.09698],[-44.61406,-20.09672],[-44.61411,-20.09659],[-44.61419,-20.0964],[-44.61432,-20.09625],[-44.61443,-20.09614],[-44.61459,-20.09603],[-44.61509,-20.09577],[-44.61533,-20.09563],[-44.61542,-20.09556],[-44.61557,-20.09541],[-44.61591,-20.09496],[-44.61621,-20.09452],[-44.61636,-20.09423],[-44.61642,-20.094],[-44.61643,-20.09386],[-44.61641,-20.09356],[-44.61635,-20.09336],[-44.61629,-20.09323],[-44.61619,-20.09308],[-44.616,-20.09289],[-44.61586,-20.09278],[-44.61561,-20.09266],[-44.61529,-20.09258],[-44.61505,-20.09258],[-44.61474,-20.09263],[-44.61391,-20.09281],[-44.61347,-20.09292],[-44.61344,-20.09293]]]]}},{"type":"Feature","properties":{"territory_id":"mg-3133808-lourdes","name":"Lourdes","municipality_id":"mg-3133808","polling_places":2,"approx":false,"official":true,"method":"official-ibge-cd2022","whole_municipality":false,"approx_coords_only":false,"official_name":"Lourdes","official_code":"3133808013","match":"direct"},"geometry":{"type":"MultiPolygon","coordinates":[[[[-44.57084,-20.08843],[-44.57194,-20.08731],[-44.57243,-20.08642],[-44.57308,-20.08519],[-44.57341,-20.08462],[-44.57378,-20.08406],[-44.57409,-20.08354],[-44.57421,-20.08341],[-44.57437,-20.08329],[-44.57443,-20.08327],[-44.57472,-20.08325],[-44.57487,-20.08183],[-44.5747,-20.0814],[-44.57428,-20.08049],[-44.57411,-20.08018],[-44.5739,-20.08014],[-44.57377,-20.0801],[-44.57352,-20.07997],[-44.57327,-20.07981],[-44.57243,-20.07917],[-44.57229,-20.07911],[-44.57221,-20.07904],[-44.57187,-20.07825],[-44.57199,-20.07798],[-44.57205,-20.07771],[-44.57205,-20.0774],[-44.5721,-20.07693],[-44.57088,-20.07674],[-44.57064,-20.07678],[-44.56902,-20.07727],[-44.56858,-20.07853],[-44.56838,-20.07872],[-44.56789,-20.07906],[-44.56655,-20.07975],[-44.5687,-20.08065],[-44.56744,-20.08358],[-44.56774,-20.0837],[-44.56854,-20.08395],[-44.56839,-20.08444],[-44.56942,-20.0848],[-44.56874,-20.08657],[-44.56874,-20.08681],[-44.56875,-20.08718],[-44.56724,-20.08716],[-44.56732,-20.08747],[-44.56725,-20.08788],[-44.56691,-20.08883],[-44.5667,-20.08935],[-44.56653,-20.08965],[-44.5664,-20.08977],[-44.56787,-20.09164],[-44.56873,-20.09089],[-44.56886,-20.09071],[-44.57054,-20.08873],[-44.57084,-20.08843]]]]}},{"type":"Feature","properties":{"territory_id":"mg-3133808-morada-nova","name":"Morada Nova","municipality_id":"mg-3133808","polling_places":1,"approx":false,"official":true,"method":"official-ibge-cd2022","whole_municipality":false,"approx_coords_only":false,"official_name":"Morada Nova","official_code":"3133808047","match":"direct"},"geometry":{"type":"MultiPolygon","coordinates":[[[[-44.59274,-20.09654],[-44.59274,-20.09623],[-44.59276,-20.09611],[-44.59281,-20.09598],[-44.59292,-20.09585],[-44.59315,-20.09565],[-44.59175,-20.09205],[-44.59328,-20.09117],[-44.59468,-20.09027],[-44.59576,-20.08951],[-44.59529,-20.0892],[-44.59388,-20.08818],[-44.5926,-20.08732],[-44.59176,-20.08673],[-44.59158,-20.08662],[-44.59101,-20.08633],[-44.58832,-20.087],[-44.58866,-20.08732],[-44.58893,-20.08799],[-44.58928,-20.08876],[-44.58938,-20.08902],[-44.58941,-20.08912],[-44.58941,-20.08929],[-44.58939,-20.08939],[-44.58933,-20.08952],[-44.58924,-20.08963],[-44.58914,-20.08971],[-44.58882,-20.08982],[-44.58877,-20.08986],[-44.58876,-20.08989],[-44.58874,-20.08996],[-44.58876,-20.09009],[-44.58902,-20.09084],[-44.58366,-20.09249],[-44.58172,-20.09291],[-44.58226,-20.09356],[-44.58245,-20.09415],[-44.58254,-20.09525],[-44.58259,-20.09647],[-44.5826,-20.09785],[-44.58242,-20.09899],[-44.58226,-20.09935],[-44.58211,-20.09962],[-44.58198,-20.10043],[-44.58195,-20.10209],[-44.58211,-20.10311],[-44.5833,-20.10413],[-44.58472,-20.1048],[-44.58519,-20.10531],[-44.58554,-20.10576],[-44.5892,-20.10375],[-44.58915,-20.10357],[-44.5891,-20.10349],[-44.58906,-20.10333],[-44.58904,-20.10314],[-44.58899,-20.10297],[-44.58889,-20.10282],[-44.58889,-20.10276],[-44.58876,-20.10257],[-44.58873,-20.10235],[-44.58878,-20.10224],[-44.58886,-20.10215],[-44.58897,-20.10207],[-44.58919,-20.10196],[-44.58938,-20.10175],[-44.58924,-20.10106],[-44.58927,-20.10077],[-44.58933,-20.10059],[-44.58949,-20.10027],[-44.58969,-20.09978],[-44.58976,-20.09968],[-44.58982,-20.09955],[-44.58984,-20.09911],[-44.58991,-20.09895],[-44.59013,-20.0987],[-44.59023,-20.09863],[-44.59114,-20.0982],[-44.59164,-20.09788],[-44.59176,-20.09774],[-44.59186,-20.09749],[-44.59195,-20.09742],[-44.59231,-20.09725],[-44.59248,-20.09712],[-44.59261,-20.09699],[-44.59269,-20.09686],[-44.59272,-20.09674],[-44.59274,-20.09663],[-44.59274,-20.09654]]]]}},{"type":"Feature","properties":{"territory_id":"mg-3133808-morro-do-engenho","name":"Morro do Engenho","municipality_id":"mg-3133808","polling_places":1,"approx":true,"official":false,"method":"voronoi-polling-places","whole_municipality":false,"approx_coords_only":false},"geometry":{"type":"MultiPolygon","coordinates":[[[[-44.58783,-20.11221],[-44.58486,-20.11948],[-44.56183,-20.14059],[-44.51986,-20.1388],[-44.51265,-20.10411],[-44.55231,-20.08176],[-44.56651,-20.07987],[-44.56842,-20.08131],[-44.56744,-20.08358],[-44.56774,-20.0837],[-44.56854,-20.08395],[-44.56839,-20.08444],[-44.56942,-20.0848],[-44.56874,-20.08657],[-44.56874,-20.08681],[-44.56875,-20.08718],[-44.56724,-20.08716],[-44.56732,-20.08747],[-44.56725,-20.08788],[-44.56691,-20.08883],[-44.5667,-20.08935],[-44.56653,-20.08965],[-44.5664,-20.08977],[-44.56787,-20.09164],[-44.56873,-20.09089],[-44.56886,-20.09071],[-44.57054,-20.08873],[-44.57084,-20.08843],[-44.57194,-20.08731],[-44.57243,-20.08642],[-44.57308,-20.08519],[-44.57322,-20.08494],[-44.57467,-20.08604],[-44.57572,-20.08813],[-44.57547,-20.08848],[-44.57535,-20.08883],[-44.57613,-20.08895],[-44.58197,-20.10057],[-44.58195,-20.10209],[-44.58211,-20.10311],[-44.5833,-20.10413],[-44.58391,-20.10442],[-44.58783,-20.11221]]]]}},{"type":"Feature","properties":{"territory_id":"mg-3133808-novo-horizonte","name":"Novo Horizonte","municipality_id":"mg-3133808","polling_places":1,"approx":true,"official":false,"method":"voronoi-polling-places","whole_municipality":false,"approx_coords_only":false},"geometry":{"type":"MultiPolygon","coordinates":[[[[-44.63697,-20.06627],[-44.61694,-20.08499],[-44.6157,-20.08352],[-44.61309,-20.08286],[-44.61204,-20.08265],[-44.61206,-20.08288],[-44.61172,-20.08419],[-44.60956,-20.08589],[-44.60891,-20.08565],[-44.60867,-20.08553],[-44.60847,-20.08538],[-44.60839,-20.08528],[-44.60831,-20.08515],[-44.60431,-20.0874],[-44.60479,-20.0877],[-44.60493,-20.0878],[-44.60386,-20.08712],[-44.60365,-20.08694],[-44.60345,-20.08672],[-44.60328,-20.08647],[-44.60315,-20.08623],[-44.60306,-20.08597],[-44.60295,-20.08596],[-44.603,-20.08621],[-44.60309,-20.08647],[-44.60317,-20.08664],[-44.60339,-20.08718],[-44.60343,-20.08735],[-44.60345,-20.08767],[-44.60335,-20.08766],[-44.60313,-20.08761],[-44.60283,-20.08759],[-44.60253,-20.08749],[-44.60246,-20.08739],[-44.60232,-20.0873],[-44.60229,-20.08725],[-44.60226,-20.08719],[-44.60226,-20.08701],[-44.60224,-20.08692],[-44.60219,-20.08687],[-44.60204,-20.08681],[-44.602,-20.08677],[-44.60198,-20.08686],[-44.602,-20.08705],[-44.60191,-20.0873],[-44.60184,-20.08757],[-44.6018,-20.08793],[-44.60171,-20.0883],[-44.6017,-20.08843],[-44.60161,-20.08868],[-44.6016,-20.08889],[-44.60145,-20.08898],[-44.60072,-20.08966],[-44.60049,-20.08993],[-44.59916,-20.09185],[-44.59911,-20.09183],[-44.5989,-20.09159],[-44.59886,-20.09148],[-44.59888,-20.09133],[-44.59884,-20.09113],[-44.59875,-20.09096],[-44.59862,-20.09084],[-44.59845,-20.09076],[-44.59804,-20.0907],[-44.59792,-20.09067],[-44.59765,-20.09055],[-44.59681,-20.09],[-44.59601,-20.08958],[-44.596,-20.08966],[-44.59576,-20.08951],[-44.59529,-20.0892],[-44.59388,-20.08818],[-44.5926,-20.08732],[-44.59176,-20.08673],[-44.59158,-20.08662],[-44.59101,-20.08633],[-44.58832,-20.087],[-44.58866,-20.08732],[-44.58827,-20.08695],[-44.58804,-20.08682],[-44.58788,-20.08666],[-44.58777,-20.08648],[-44.58721,-20.08531],[-44.58711,-20.08513],[-44.58684,-20.08489],[-44.58626,-20.08448],[-44.58698,-20.08407],[-44.58831,-20.08326],[-44.5879,-20.08292],[-44.58763,-20.08265],[-44.58707,-20.08205],[-44.58656,-20.08145],[-44.58603,-20.08118],[-44.58477,-20.08046],[-44.58343,-20.07979],[-44.58589,-20.07803],[-44.60547,-20.06937],[-44.60567,-20.07043],[-44.60613,-20.07166],[-44.6062,-20.07197],[-44.60621,-20.07213],[-44.60617,-20.07239],[-44.60604,-20.07269],[-44.60449,-20.07548],[-44.6044,-20.07574],[-44.60431,-20.07609],[-44.60427,-20.07651],[-44.60431,-20.07696],[-44.60477,-20.07872],[-44.60485,-20.07917],[-44.60487,-20.0795],[-44.6048,-20.08008],[-44.60509,-20.08012],[-44.60561,-20.08033],[-44.60584,-20.0804],[-44.6061,-20.08044],[-44.60673,-20.08047],[-44.607,-20.08044],[-44.60718,-20.08035],[-44.60754,-20.08001],[-44.60768,-20.07985],[-44.60774,-20.07975],[-44.60779,-20.07957],[-44.60781,-20.07948],[-44.60768,-20.0774],[-44.60767,-20.07735],[-44.60763,-20.07731],[-44.6076,-20.0773],[-44.60848,-20.07748],[-44.60829,-20.07692],[-44.60853,-20.07677],[-44.60909,-20.07604],[-44.61062,-20.07492],[-44.6177,-20.07403],[-44.61901,-20.07391],[-44.62028,-20.07395],[-44.62135,-20.07392],[-44.62236,-20.07373],[-44.6235,-20.07345],[-44.62435,-20.07311],[-44.62563,-20.07243],[-44.62561,-20.07178],[-44.6255,-20.07167],[-44.62416,-20.07194],[-44.62378,-20.07198],[-44.62352,-20.07199],[-44.62324,-20.07198],[-44.62289,-20.07193],[-44.62246,-20.07181],[-44.62163,-20.07147],[-44.62022,-20.07084],[-44.61507,-20.06848],[-44.6138,-20.06788],[-44.61324,-20.06747],[-44.61276,-20.06696],[-44.61255,-20.06668],[-44.61234,-20.06633],[-44.63087,-20.05815],[-44.63658,-20.06433],[-44.63697,-20.06627]]],[[[-44.6095,-20.09195],[-44.60949,-20.09196],[-44.60943,-20.09196],[-44.6095,-20.09195]]],[[[-44.6078,-20.0921],[-44.60771,-20.09179],[-44.60773,-20.09183],[-44.6078,-20.0921]]],[[[-44.60583,-20.08894],[-44.60567,-20.08871],[-44.60569,-20.08874],[-44.60583,-20.08894]]],[[[-44.60543,-20.08835],[-44.60528,-20.08814],[-44.60533,-20.08819],[-44.60543,-20.08835]]],[[[-44.6052,-20.08804],[-44.60493,-20.0878],[-44.60515,-20.08799],[-44.6052,-20.08804]]],[[[-44.60451,-20.09594],[-44.60451,-20.09595],[-44.6044,-20.09609],[-44.60451,-20.09594]]],[[[-44.60065,-20.10022],[-44.59514,-20.10537],[-44.59539,-20.10282],[-44.59542,-20.10236],[-44.5954,-20.10227],[-44.5941,-20.10035],[-44.59455,-20.10011],[-44.5943,-20.09971],[-44.59408,-20.09981],[-44.59417,-20.09976],[-44.5977,-20.09818],[-44.59784,-20.09848],[-44.59876,-20.09998],[-44.59923,-20.10007],[-44.60022,-20.10019],[-44.60065,-20.10022]]],[[[-44.59823,-20.09454],[-44.59815,-20.09454],[-44.59802,-20.0945],[-44.59823,-20.09454]]],[[[-44.59802,-20.0945],[-44.5979,-20.09445],[-44.59787,-20.09442],[-44.59802,-20.0945]]],[[[-44.59758,-20.09416],[-44.59728,-20.09341],[-44.59694,-20.09256],[-44.59758,-20.09416]]],[[[-44.59617,-20.08989],[-44.59614,-20.08986],[-44.59615,-20.08987],[-44.59617,-20.08989]]],[[[-44.59475,-20.09466],[-44.59426,-20.09472],[-44.59436,-20.09471],[-44.59475,-20.09466]]],[[[-44.59399,-20.09492],[-44.59376,-20.09515],[-44.5939,-20.09499],[-44.59399,-20.09492]]],[[[-44.59376,-20.09515],[-44.59292,-20.09585],[-44.59315,-20.09565],[-44.59376,-20.09515]]],[[[-44.59338,-20.10702],[-44.58783,-20.11221],[-44.58391,-20.10442],[-44.58472,-20.1048],[-44.58519,-20.10531],[-44.58554,-20.10576],[-44.58647,-20.10856],[-44.5873,-20.10922],[-44.58889,-20.10954],[-44.59054,-20.10895],[-44.59202,-20.10807],[-44.59201,-20.10798],[-44.59206,-20.10788],[-44.59238,-20.10751],[-44.59249,-20.10744],[-44.59266,-20.10739],[-44.59283,-20.10725],[-44.59289,-20.10715],[-44.59293,-20.10703],[-44.59297,-20.10687],[-44.59311,-20.1067],[-44.59338,-20.10702]]],[[[-44.59114,-20.0982],[-44.59068,-20.09841],[-44.59023,-20.09863],[-44.59114,-20.0982]]],[[[-44.58941,-20.08929],[-44.58939,-20.08939],[-44.58941,-20.08924],[-44.58941,-20.08929]]],[[[-44.58941,-20.08914],[-44.58938,-20.08902],[-44.58941,-20.08912],[-44.58941,-20.08914]]],[[[-44.58933,-20.08952],[-44.58924,-20.08963],[-44.58923,-20.08964],[-44.58933,-20.08952]]],[[[-44.58902,-20.09084],[-44.58366,-20.09249],[-44.58172,-20.09291],[-44.58226,-20.09356],[-44.58245,-20.09415],[-44.58254,-20.09525],[-44.58259,-20.09647],[-44.5826,-20.09785],[-44.58242,-20.09899],[-44.58226,-20.09935],[-44.58211,-20.09962],[-44.58198,-20.10043],[-44.58197,-20.10057],[-44.57613,-20.08895],[-44.57687,-20.08906],[-44.57689,-20.08929],[-44.57756,-20.08956],[-44.57796,-20.08906],[-44.57843,-20.08849],[-44.57889,-20.08792],[-44.57939,-20.08736],[-44.57985,-20.08678],[-44.58133,-20.08774],[-44.582,-20.08673],[-44.58197,-20.08665],[-44.5821,-20.08694],[-44.5822,-20.08712],[-44.58232,-20.08728],[-44.58239,-20.08734],[-44.58269,-20.08752],[-44.58278,-20.08759],[-44.58282,-20.08766],[-44.58281,-20.08782],[-44.58288,-20.08795],[-44.58287,-20.08813],[-44.58291,-20.08824],[-44.58303,-20.08835],[-44.5831,-20.08839],[-44.58319,-20.0884],[-44.58326,-20.08844],[-44.58337,-20.0886],[-44.58341,-20.08863],[-44.58377,-20.08877],[-44.58391,-20.08896],[-44.58413,-20.08909],[-44.58448,-20.08923],[-44.5845,-20.08925],[-44.5845,-20.08929],[-44.58444,-20.08941],[-44.58452,-20.08961],[-44.58876,-20.08988],[-44.58876,-20.08989],[-44.58874,-20.08996],[-44.58876,-20.09009],[-44.58902,-20.09084]]],[[[-44.58191,-20.0862],[-44.58167,-20.08595],[-44.58171,-20.08598],[-44.58191,-20.0862]]],[[[-44.58159,-20.08587],[-44.58155,-20.08583],[-44.58157,-20.08584],[-44.58159,-20.08587]]],[[[-44.58144,-20.08576],[-44.58138,-20.08573],[-44.58139,-20.08573],[-44.58144,-20.08576]]],[[[-44.58116,-20.08565],[-44.58114,-20.08564],[-44.58115,-20.08564],[-44.58116,-20.08565]]],[[[-44.57813,-20.08555],[-44.57781,-20.08586],[-44.57678,-20.08668],[-44.57659,-20.08688],[-44.57572,-20.08813],[-44.57467,-20.08604],[-44.57769,-20.08388],[-44.57786,-20.08528],[-44.57793,-20.0854],[-44.57813,-20.08555]]]]}},{"type":"Feature","properties":{"territory_id":"mg-3133808-padre-eustaquio","name":"Padre Eustáquio","municipality_id":"mg-3133808","polling_places":2,"approx":false,"official":true,"method":"official-ibge-cd2022","whole_municipality":false,"approx_coords_only":false,"official_name":"Padre Eustáquio","official_code":"3133808007","match":"direct"},"geometry":{"type":"MultiPolygon","coordinates":[[[[-44.56178,-20.06603],[-44.56158,-20.06617],[-44.56016,-20.0673],[-44.56006,-20.06736],[-44.55978,-20.06749],[-44.55956,-20.06755],[-44.55931,-20.06757],[-44.55906,-20.06757],[-44.55896,-20.06822],[-44.55898,-20.06837],[-44.55897,-20.06863],[-44.55892,-20.06885],[-44.55883,-20.06914],[-44.55882,-20.06924],[-44.55891,-20.06938],[-44.559,-20.06961],[-44.55904,-20.06965],[-44.55928,-20.06977],[-44.55954,-20.06999],[-44.55982,-20.07008],[-44.55997,-20.07011],[-44.56001,-20.07013],[-44.56008,-20.07033],[-44.56016,-20.07038],[-44.56018,-20.07043],[-44.56018,-20.07047],[-44.56011,-20.07063],[-44.56013,-20.07068],[-44.56019,-20.07076],[-44.56019,-20.07079],[-44.56013,-20.07088],[-44.56013,-20.07091],[-44.56017,-20.07096],[-44.56017,-20.07101],[-44.56007,-20.07121],[-44.56007,-20.07132],[-44.56008,-20.07137],[-44.56034,-20.07155],[-44.56055,-20.07204],[-44.56212,-20.07147],[-44.56256,-20.07255],[-44.56306,-20.07391],[-44.56392,-20.07394],[-44.56539,-20.07406],[-44.5656,-20.07379],[-44.56582,-20.07356],[-44.56604,-20.07338],[-44.56626,-20.07322],[-44.56711,-20.07268],[-44.56708,-20.07238],[-44.56712,-20.07209],[-44.56716,-20.07198],[-44.56727,-20.07177],[-44.56734,-20.07167],[-44.56775,-20.07115],[-44.56781,-20.07107],[-44.56786,-20.07093],[-44.5679,-20.07081],[-44.56793,-20.0706],[-44.56794,-20.07039],[-44.56791,-20.06836],[-44.56787,-20.06803],[-44.5678,-20.06779],[-44.5677,-20.06759],[-44.56752,-20.06731],[-44.56724,-20.06705],[-44.56696,-20.06686],[-44.56654,-20.06668],[-44.56393,-20.06572],[-44.5638,-20.06569],[-44.56341,-20.06563],[-44.56288,-20.06563],[-44.56257,-20.06569],[-44.56232,-20.06576],[-44.56211,-20.06585],[-44.56184,-20.06599],[-44.56178,-20.06603]]]]}},{"type":"Feature","properties":{"territory_id":"mg-3133808-parque-jardim-santanense","name":"Parque Jardim Santanense","municipality_id":"mg-3133808","polling_places":1,"approx":false,"official":true,"method":"official-ibge-cd2022","whole_municipality":false,"approx_coords_only":false,"official_name":"Parque Jardim Santanense","official_code":"3133808050","match":"direct"},"geometry":{"type":"MultiPolygon","coordinates":[[[[-44.60612,-20.0894],[-44.60678,-20.09041],[-44.60688,-20.09052],[-44.60707,-20.09068],[-44.60735,-20.09088],[-44.60851,-20.09164],[-44.60871,-20.09177],[-44.60896,-20.09187],[-44.60918,-20.09193],[-44.60943,-20.09196],[-44.60982,-20.09193],[-44.61082,-20.09179],[-44.61097,-20.09179],[-44.61129,-20.09186],[-44.61151,-20.09196],[-44.61169,-20.09208],[-44.61191,-20.09229],[-44.61219,-20.09259],[-44.61243,-20.09277],[-44.61265,-20.09287],[-44.61289,-20.09294],[-44.61326,-20.09295],[-44.61344,-20.09293],[-44.61391,-20.09281],[-44.61474,-20.09263],[-44.61505,-20.09258],[-44.61529,-20.09258],[-44.61561,-20.09266],[-44.61512,-20.09191],[-44.6162,-20.09127],[-44.61646,-20.09047],[-44.61668,-20.08951],[-44.61695,-20.08872],[-44.61693,-20.08854],[-44.61678,-20.08808],[-44.6184,-20.08779],[-44.6186,-20.0877],[-44.61889,-20.08761],[-44.61922,-20.08764],[-44.61948,-20.08773],[-44.61957,-20.08769],[-44.61959,-20.08763],[-44.61956,-20.08749],[-44.61939,-20.08723],[-44.61929,-20.08711],[-44.61917,-20.08701],[-44.61828,-20.08643],[-44.61768,-20.08586],[-44.6157,-20.08352],[-44.61309,-20.08286],[-44.61204,-20.08265],[-44.61206,-20.08288],[-44.61172,-20.08419],[-44.60956,-20.08589],[-44.60891,-20.08565],[-44.60867,-20.08553],[-44.60847,-20.08538],[-44.60839,-20.08528],[-44.60831,-20.08515],[-44.60431,-20.0874],[-44.60479,-20.0877],[-44.60493,-20.0878],[-44.60515,-20.08799],[-44.60533,-20.08819],[-44.60569,-20.08874],[-44.60612,-20.0894]]]]}},{"type":"Feature","properties":{"territory_id":"mg-3133808-piedade","name":"Piedade","municipality_id":"mg-3133808","polling_places":1,"approx":false,"official":true,"method":"official-ibge-cd2022","whole_municipality":false,"approx_coords_only":false,"official_name":"Piedade","official_code":"3133808023","match":"direct"},"geometry":{"type":"MultiPolygon","coordinates":[[[[-44.58172,-20.0789],[-44.58171,-20.07881],[-44.5803,-20.07861],[-44.58029,-20.07886],[-44.58025,-20.07911],[-44.57982,-20.0804],[-44.57968,-20.08086],[-44.57964,-20.08116],[-44.57959,-20.08192],[-44.57955,-20.08284],[-44.58021,-20.08278],[-44.58013,-20.08324],[-44.58015,-20.08339],[-44.58074,-20.08437],[-44.58083,-20.08457],[-44.58084,-20.08469],[-44.58071,-20.08498],[-44.58061,-20.08505],[-44.58019,-20.0853],[-44.58033,-20.08542],[-44.58048,-20.08552],[-44.58065,-20.0856],[-44.58082,-20.08563],[-44.58115,-20.08564],[-44.58122,-20.08571],[-44.58139,-20.08573],[-44.58157,-20.08584],[-44.58162,-20.08591],[-44.58171,-20.08598],[-44.58191,-20.0862],[-44.58203,-20.08636],[-44.58207,-20.0865],[-44.58204,-20.08655],[-44.58198,-20.08661],[-44.58197,-20.08665],[-44.5821,-20.08694],[-44.5822,-20.08712],[-44.58232,-20.08728],[-44.58239,-20.08734],[-44.58269,-20.08752],[-44.58278,-20.08759],[-44.58282,-20.08766],[-44.58281,-20.08782],[-44.58288,-20.08795],[-44.58287,-20.08813],[-44.58291,-20.08824],[-44.58303,-20.08835],[-44.5831,-20.08839],[-44.58319,-20.0884],[-44.58326,-20.08844],[-44.58337,-20.0886],[-44.58341,-20.08863],[-44.58377,-20.08877],[-44.58391,-20.08896],[-44.58413,-20.08909],[-44.58448,-20.08923],[-44.5845,-20.08925],[-44.5845,-20.08929],[-44.58444,-20.08941],[-44.58452,-20.08961],[-44.58876,-20.08988],[-44.58882,-20.08982],[-44.58914,-20.08971],[-44.58921,-20.08966],[-44.58933,-20.08952],[-44.58939,-20.08939],[-44.58942,-20.08919],[-44.58938,-20.08902],[-44.58928,-20.08876],[-44.58893,-20.08799],[-44.58866,-20.08732],[-44.58827,-20.08695],[-44.58804,-20.08682],[-44.58788,-20.08666],[-44.58777,-20.08648],[-44.58721,-20.08531],[-44.58711,-20.08513],[-44.58684,-20.08489],[-44.58626,-20.08448],[-44.58698,-20.08407],[-44.58831,-20.08326],[-44.5879,-20.08292],[-44.58763,-20.08265],[-44.58707,-20.08205],[-44.58656,-20.08145],[-44.58603,-20.08118],[-44.58477,-20.08046],[-44.58207,-20.0791],[-44.58172,-20.0789]]]]}},{"type":"Feature","properties":{"territory_id":"mg-3133808-pio-xii","name":"Pio Xii","municipality_id":"mg-3133808","polling_places":1,"approx":false,"official":true,"method":"official-ibge-cd2022","whole_municipality":false,"approx_coords_only":false,"official_name":"Pio XII","official_code":"3133808018","match":"direct"},"geometry":{"type":"MultiPolygon","coordinates":[[[[-44.57843,-20.08849],[-44.57889,-20.08792],[-44.57939,-20.08736],[-44.57985,-20.08678],[-44.58133,-20.08774],[-44.582,-20.08673],[-44.58197,-20.08665],[-44.58198,-20.08661],[-44.58204,-20.08655],[-44.58207,-20.0865],[-44.58203,-20.08636],[-44.58191,-20.0862],[-44.58152,-20.0858],[-44.58136,-20.08572],[-44.58122,-20.08571],[-44.58118,-20.08566],[-44.58113,-20.08564],[-44.58082,-20.08563],[-44.58065,-20.0856],[-44.58048,-20.08552],[-44.58033,-20.08542],[-44.58019,-20.0853],[-44.58061,-20.08505],[-44.58071,-20.08498],[-44.58084,-20.08469],[-44.58083,-20.08457],[-44.58074,-20.08437],[-44.58015,-20.08339],[-44.58013,-20.08324],[-44.58021,-20.08278],[-44.57955,-20.08284],[-44.57948,-20.08341],[-44.57936,-20.08386],[-44.57919,-20.08422],[-44.57909,-20.08439],[-44.57895,-20.08458],[-44.57766,-20.0837],[-44.57786,-20.08528],[-44.57793,-20.0854],[-44.57813,-20.08555],[-44.57781,-20.08586],[-44.57678,-20.08668],[-44.57659,-20.08688],[-44.57547,-20.08848],[-44.57535,-20.08883],[-44.57687,-20.08906],[-44.57689,-20.08929],[-44.57756,-20.08956],[-44.57796,-20.08906],[-44.57843,-20.08849]]]]}},{"type":"Feature","properties":{"territory_id":"mg-3133808-povoado-dos-lopes","name":"Povoado dos Lopes","municipality_id":"mg-3133808","polling_places":1,"approx":true,"official":false,"method":"voronoi-polling-places","whole_municipality":false,"approx_coords_only":false},"geometry":{"type":"MultiPolygon","coordinates":[[[[-44.67744,-20.12394],[-44.6659,-20.1287],[-44.65096,-20.13992],[-44.58486,-20.11948],[-44.58783,-20.11221],[-44.59338,-20.10702],[-44.59405,-20.10783],[-44.59417,-20.10788],[-44.5944,-20.10815],[-44.59469,-20.10829],[-44.59505,-20.10831],[-44.59526,-20.10838],[-44.59541,-20.10844],[-44.59559,-20.10855],[-44.59587,-20.10876],[-44.59623,-20.10911],[-44.59654,-20.10952],[-44.59666,-20.10965],[-44.59667,-20.10969],[-44.59688,-20.10993],[-44.59711,-20.11004],[-44.59718,-20.10969],[-44.59724,-20.10924],[-44.59737,-20.10866],[-44.5973,-20.10844],[-44.59739,-20.10754],[-44.59556,-20.10737],[-44.59568,-20.10623],[-44.59506,-20.10617],[-44.59514,-20.10537],[-44.60065,-20.10022],[-44.60117,-20.10027],[-44.60213,-20.1004],[-44.60245,-20.10044],[-44.6033,-20.10061],[-44.60398,-20.10066],[-44.60418,-20.10065],[-44.60446,-20.1006],[-44.60447,-20.10077],[-44.60452,-20.10105],[-44.6046,-20.10127],[-44.60479,-20.10162],[-44.60498,-20.10189],[-44.60528,-20.10219],[-44.60774,-20.10428],[-44.61064,-20.10243],[-44.61083,-20.10245],[-44.61099,-20.10258],[-44.61106,-20.1026],[-44.61159,-20.1026],[-44.6117,-20.10262],[-44.61178,-20.10266],[-44.61184,-20.10274],[-44.61189,-20.10283],[-44.61188,-20.10292],[-44.6119,-20.103],[-44.61205,-20.10318],[-44.61224,-20.10347],[-44.61242,-20.10365],[-44.61288,-20.10353],[-44.61331,-20.10347],[-44.61381,-20.10339],[-44.61445,-20.10323],[-44.61525,-20.10296],[-44.61552,-20.10291],[-44.61585,-20.10291],[-44.61615,-20.10285],[-44.61638,-20.10275],[-44.61653,-20.10263],[-44.6166,-20.10242],[-44.61653,-20.10156],[-44.61608,-20.10066],[-44.6156,-20.10005],[-44.61579,-20.09817],[-44.61495,-20.09804],[-44.61475,-20.09797],[-44.61456,-20.09788],[-44.61431,-20.09767],[-44.61414,-20.09742],[-44.61409,-20.09727],[-44.61404,-20.09698],[-44.61406,-20.09672],[-44.61411,-20.09659],[-44.61419,-20.0964],[-44.61432,-20.09625],[-44.61443,-20.09614],[-44.61459,-20.09603],[-44.61509,-20.09577],[-44.61533,-20.09563],[-44.61542,-20.09556],[-44.61557,-20.09541],[-44.61591,-20.09496],[-44.61621,-20.09452],[-44.61636,-20.09423],[-44.61642,-20.094],[-44.61643,-20.09386],[-44.61641,-20.09356],[-44.61635,-20.09336],[-44.61629,-20.09323],[-44.61619,-20.09308],[-44.616,-20.09289],[-44.61586,-20.09278],[-44.61561,-20.09266],[-44.61512,-20.09191],[-44.6162,-20.09127],[-44.61646,-20.09047],[-44.61668,-20.08951],[-44.61695,-20.08872],[-44.61693,-20.08854],[-44.61678,-20.08808],[-44.6184,-20.08779],[-44.6186,-20.0877],[-44.61889,-20.08761],[-44.61922,-20.08764],[-44.61948,-20.08773],[-44.61957,-20.08769],[-44.61959,-20.08763],[-44.61956,-20.08749],[-44.61939,-20.08723],[-44.61929,-20.08711],[-44.61917,-20.08701],[-44.61828,-20.08643],[-44.61768,-20.08586],[-44.61694,-20.08499],[-44.63697,-20.06627],[-44.67744,-20.12394]]],[[[-44.61391,-20.09281],[-44.61347,-20.09292],[-44.61344,-20.09293],[-44.61391,-20.09281]]],[[[-44.61265,-20.09287],[-44.61254,-20.09283],[-44.61243,-20.09277],[-44.61265,-20.09287]]],[[[-44.60981,-20.09748],[-44.6098,-20.09758],[-44.60979,-20.09762],[-44.60981,-20.09748]]],[[[-44.60981,-20.09748],[-44.60977,-20.09726],[-44.6098,-20.09734],[-44.60981,-20.09748]]],[[[-44.60971,-20.09193],[-44.60957,-20.09195],[-44.60949,-20.09196],[-44.6095,-20.09195],[-44.60971,-20.09193]]],[[[-44.60957,-20.10111],[-44.60954,-20.10108],[-44.60953,-20.10106],[-44.60957,-20.10111]]],[[[-44.60947,-20.0993],[-44.60947,-20.09932],[-44.60946,-20.09933],[-44.60947,-20.0993]]],[[[-44.60942,-20.09687],[-44.60923,-20.0967],[-44.60937,-20.09683],[-44.60942,-20.09687]]]]}},{"type":"Feature","properties":{"territory_id":"mg-3133808-residencial-sao-geraldo","name":"Residencial São Geraldo","municipality_id":"mg-3133808","polling_places":1,"approx":false,"official":true,"method":"official-ibge-cd2022","whole_municipality":false,"approx_coords_only":false,"official_name":"Residencial São Geraldo","official_code":"3133808045","match":"direct"},"geometry":{"type":"MultiPolygon","coordinates":[[[[-44.59636,-20.09043],[-44.59628,-20.09007],[-44.59621,-20.08994],[-44.59612,-20.08983],[-44.596,-20.08974],[-44.596,-20.08966],[-44.59576,-20.08951],[-44.59468,-20.09027],[-44.59328,-20.09117],[-44.59175,-20.09205],[-44.59315,-20.09565],[-44.59376,-20.09515],[-44.5939,-20.09499],[-44.59416,-20.09477],[-44.59426,-20.09472],[-44.59436,-20.09471],[-44.59475,-20.09466],[-44.59489,-20.0946],[-44.59527,-20.09431],[-44.59567,-20.09406],[-44.59615,-20.09392],[-44.59666,-20.09374],[-44.59728,-20.09341],[-44.59694,-20.09256],[-44.59682,-20.09208],[-44.59636,-20.09043]]]]}},{"type":"Feature","properties":{"territory_id":"mg-3133808-santanense","name":"Santanense","municipality_id":"mg-3133808","polling_places":2,"approx":false,"official":true,"method":"official-ibge-cd2022","whole_municipality":false,"approx_coords_only":false,"official_name":"Santanense","official_code":"3133808037","match":"direct"},"geometry":{"type":"MultiPolygon","coordinates":[[[[-44.6076,-20.0773],[-44.60848,-20.07748],[-44.60829,-20.07692],[-44.60853,-20.07677],[-44.60909,-20.07604],[-44.61062,-20.07492],[-44.6177,-20.07403],[-44.61901,-20.07391],[-44.62028,-20.07395],[-44.62135,-20.07392],[-44.62236,-20.07373],[-44.6235,-20.07345],[-44.62435,-20.07311],[-44.62563,-20.07243],[-44.62561,-20.07178],[-44.6255,-20.07167],[-44.62416,-20.07194],[-44.62378,-20.07198],[-44.62352,-20.07199],[-44.62324,-20.07198],[-44.62289,-20.07193],[-44.62246,-20.07181],[-44.62163,-20.07147],[-44.62022,-20.07084],[-44.61507,-20.06848],[-44.6138,-20.06788],[-44.61324,-20.06747],[-44.61276,-20.06696],[-44.61255,-20.06668],[-44.61229,-20.06625],[-44.61209,-20.06569],[-44.61191,-20.065],[-44.61179,-20.06194],[-44.61174,-20.06138],[-44.61168,-20.06112],[-44.61161,-20.06097],[-44.61151,-20.06078],[-44.61137,-20.06057],[-44.61111,-20.06032],[-44.61078,-20.06018],[-44.61058,-20.06013],[-44.61013,-20.0601],[-44.60962,-20.06018],[-44.60899,-20.06035],[-44.60856,-20.06051],[-44.60802,-20.06067],[-44.60731,-20.06084],[-44.60737,-20.06101],[-44.60741,-20.06185],[-44.60732,-20.06218],[-44.60689,-20.06318],[-44.60662,-20.06373],[-44.60651,-20.06383],[-44.60624,-20.06391],[-44.6059,-20.06393],[-44.6053,-20.06392],[-44.60431,-20.06375],[-44.60382,-20.06362],[-44.60347,-20.06357],[-44.60329,-20.06359],[-44.60319,-20.06362],[-44.60245,-20.06396],[-44.60205,-20.064],[-44.60167,-20.0641],[-44.60137,-20.06434],[-44.60101,-20.06456],[-44.60082,-20.06479],[-44.60073,-20.06488],[-44.60048,-20.06499],[-44.6019,-20.06576],[-44.60255,-20.06607],[-44.60268,-20.06594],[-44.60287,-20.06581],[-44.603,-20.06576],[-44.60323,-20.0657],[-44.60358,-20.06568],[-44.60373,-20.06569],[-44.6041,-20.06582],[-44.60433,-20.06598],[-44.60456,-20.06617],[-44.60517,-20.06675],[-44.6054,-20.06702],[-44.60552,-20.06722],[-44.60559,-20.06743],[-44.60565,-20.06776],[-44.60564,-20.06799],[-44.60562,-20.06814],[-44.60545,-20.06887],[-44.60543,-20.06911],[-44.60545,-20.06926],[-44.60567,-20.07043],[-44.60613,-20.07166],[-44.6062,-20.07197],[-44.60621,-20.07213],[-44.60617,-20.07239],[-44.60604,-20.07269],[-44.60449,-20.07548],[-44.6044,-20.07574],[-44.60431,-20.07609],[-44.60427,-20.07651],[-44.60431,-20.07696],[-44.60477,-20.07872],[-44.60485,-20.07917],[-44.60487,-20.0795],[-44.6048,-20.08008],[-44.60509,-20.08012],[-44.60561,-20.08033],[-44.60584,-20.0804],[-44.6061,-20.08044],[-44.60673,-20.08047],[-44.607,-20.08044],[-44.60718,-20.08035],[-44.60754,-20.08001],[-44.60768,-20.07985],[-44.60774,-20.07975],[-44.60779,-20.07957],[-44.60781,-20.07948],[-44.60768,-20.0774],[-44.60767,-20.07735],[-44.60763,-20.07731],[-44.6076,-20.0773]]]]}},{"type":"Feature","properties":{"territory_id":"mg-3133808-santo-antonio","name":"Santo Antônio","municipality_id":"mg-3133808","polling_places":2,"approx":false,"official":true,"method":"official-ibge-cd2022","whole_municipality":false,"approx_coords_only":false,"official_name":"Santo Antônio","official_code":"3133808019","match":"direct"},"geometry":{"type":"MultiPolygon","coordinates":[[[[-44.57673,-20.08054],[-44.57635,-20.0802],[-44.5762,-20.08012],[-44.57609,-20.0801],[-44.57433,-20.0802],[-44.57426,-20.08044],[-44.5747,-20.0814],[-44.57487,-20.08183],[-44.57472,-20.08325],[-44.57486,-20.08326],[-44.57534,-20.08338],[-44.57652,-20.0834],[-44.57761,-20.0834],[-44.57766,-20.0837],[-44.57895,-20.08458],[-44.57909,-20.08439],[-44.57919,-20.08422],[-44.57936,-20.08386],[-44.57948,-20.08341],[-44.57955,-20.08284],[-44.57948,-20.08284],[-44.57861,-20.08264],[-44.57871,-20.08242],[-44.57875,-20.08235],[-44.57879,-20.0823],[-44.5787,-20.08228],[-44.57859,-20.08221],[-44.57728,-20.08105],[-44.57673,-20.08054]]]]}},{"type":"Feature","properties":{"territory_id":"mg-3133808-varzea-da-olaria","name":"Várzea da Olaria","municipality_id":"mg-3133808","polling_places":1,"approx":true,"official":false,"method":"voronoi-polling-places","whole_municipality":false,"approx_coords_only":false},"geometry":{"type":"MultiPolygon","coordinates":[[[[-44.56403,-20.01079],[-44.55231,-20.08176],[-44.51265,-20.10411],[-44.49679,-20.07774],[-44.5006,-20.0726],[-44.4987,-20.0133],[-44.51451,-19.98429],[-44.56403,-20.01079]]]]}},{"type":"Feature","properties":{"territory_id":"mg-3133808-zona-rural","name":"Zona Rural","municipality_id":"mg-3133808","polling_places":9,"approx":true,"official":false,"method":"voronoi-polling-places","whole_municipality":false,"approx_coords_only":false},"geometry":{"type":"MultiPolygon","coordinates":[[[[-44.718,-20.0847],[-44.7166,-20.1078],[-44.67744,-20.12394],[-44.63697,-20.06627],[-44.63658,-20.06433],[-44.63087,-20.05815],[-44.6282,-20.05449],[-44.62765,-20.05373],[-44.59814,-20.02186],[-44.58901,-20.02035],[-44.56403,-20.01079],[-44.51451,-19.98429],[-44.5163,-19.981],[-44.5419,-19.9674],[-44.5694,-19.9751],[-44.6204,-19.9361],[-44.612,-19.9542],[-44.6596,-19.9871],[-44.6964,-20.0002],[-44.712,-20.0314],[-44.718,-20.0847]]],[[[-44.65096,-20.13992],[-44.6189,-20.164],[-44.6128,-20.1997],[-44.5697,-20.2244],[-44.5465,-20.1715],[-44.4746,-20.1691],[-44.445,-20.1477],[-44.49679,-20.07774],[-44.51265,-20.10411],[-44.51986,-20.1388],[-44.56183,-20.14059],[-44.58486,-20.11948],[-44.65096,-20.13992]]]]}}]}