{"type":"FeatureCollection","features":[{"type":"Feature","properties":{"territory_id":"mg-3133006-boa-vista","name":"Boa Vista","municipality_id":"mg-3133006","polling_places":1,"approx":true,"official":false,"method":"voronoi-polling-places","whole_municipality":false,"approx_coords_only":false},"geometry":{"type":"MultiPolygon","coordinates":[[[[-44.8896,-22.3044],[-44.8637,-22.3094],[-44.8581,-22.3655],[-44.8261,-22.3637],[-44.8035,-22.3937],[-44.76761,-22.37772],[-44.77739,-22.32503],[-44.80042,-22.31671],[-44.85857,-22.29693],[-44.87497,-22.29385],[-44.88856,-22.29157],[-44.8896,-22.3044]]]]}},{"type":"Feature","properties":{"territory_id":"mg-3133006-campo-redondo","name":"Campo Redondo","municipality_id":"mg-3133006","polling_places":1,"approx":true,"official":false,"method":"voronoi-polling-places","whole_municipality":false,"approx_coords_only":false},"geometry":{"type":"MultiPolygon","coordinates":[[[[-44.78707,-22.19777],[-44.77739,-22.32503],[-44.76761,-22.37772],[-44.7296,-22.3608],[-44.6659,-22.3727],[-44.6661,-22.3202],[-44.6134,-22.2873],[-44.5976,-22.2552],[-44.6066,-22.2255],[-44.761,-22.2217],[-44.7665,-22.2014],[-44.78707,-22.19777]]]]}},{"type":"Feature","properties":{"territory_id":"mg-3133006-centro","name":"Centro","municipality_id":"mg-3133006","polling_places":4,"approx":true,"official":false,"method":"voronoi-polling-places","whole_municipality":false,"approx_coords_only":false},"geometry":{"type":"MultiPolygon","coordinates":[[[[-44.88856,-22.29157],[-44.87497,-22.29385],[-44.85857,-22.29693],[-44.80042,-22.31671],[-44.77739,-22.32503],[-44.78707,-22.19777],[-44.8169,-22.1925],[-44.8535,-22.2107],[-44.8863,-22.2638],[-44.88856,-22.29157]]]]}}]}