{"type":"FeatureCollection","features":[{"type":"Feature","properties":{"territory_id":"mg-3133907-centro","name":"Centro","municipality_id":"mg-3133907","polling_places":1,"approx":true,"official":false,"method":"voronoi-polling-places","whole_municipality":false,"approx_coords_only":false},"geometry":{"type":"MultiPolygon","coordinates":[[[[-43.6913,-20.7191],[-43.65787,-20.75991],[-43.54951,-20.6817],[-43.5587,-20.6577],[-43.56256,-20.62427],[-43.68534,-20.67255],[-43.6913,-20.7191]]]]}},{"type":"Feature","properties":{"territory_id":"mg-3133907-macuco","name":"Macuco","municipality_id":"mg-3133907","polling_places":1,"approx":true,"official":false,"method":"voronoi-polling-places","whole_municipality":false,"approx_coords_only":false},"geometry":{"type":"MultiPolygon","coordinates":[[[[-43.65787,-20.75991],[-43.6514,-20.7678],[-43.587,-20.7651],[-43.5616,-20.7541],[-43.528,-20.7674],[-43.4973,-20.7343],[-43.5348,-20.7201],[-43.54951,-20.6817],[-43.65787,-20.75991]]]]}},{"type":"Feature","properties":{"territory_id":"mg-3133907-monsenhor-izidro","name":"Monsenhor Izidro","municipality_id":"mg-3133907","polling_places":1,"approx":true,"official":false,"method":"voronoi-polling-places","whole_municipality":false,"approx_coords_only":false},"geometry":{"type":"MultiPolygon","coordinates":[[[[-43.68534,-20.67255],[-43.56256,-20.62427],[-43.5647,-20.6058],[-43.6013,-20.5841],[-43.6533,-20.5933],[-43.6788,-20.6215],[-43.68534,-20.67255]]]]}}]}