{"type":"FeatureCollection","features":[{"type":"Feature","properties":{"territory_id":"mg-3133758-centro","name":"Centro","municipality_id":"mg-3133758","polling_places":4,"approx":true,"official":false,"method":"voronoi-polling-places","whole_municipality":false,"approx_coords_only":false},"geometry":{"type":"MultiPolygon","coordinates":[[[[-46.8412,-20.6813],[-46.82684,-20.70264],[-46.75513,-20.74704],[-46.75244,-20.75096],[-46.75062,-20.75562],[-46.7412,-20.7337],[-46.73146,-20.72252],[-46.7656,-20.6742],[-46.8108,-20.6688],[-46.8318,-20.6308],[-46.8412,-20.6813]]]]}},{"type":"Feature","properties":{"territory_id":"mg-3133758-cohab-i","name":"Cohab I","municipality_id":"mg-3133758","polling_places":1,"approx":true,"official":false,"method":"voronoi-polling-places","whole_municipality":false,"approx_coords_only":false},"geometry":{"type":"MultiPolygon","coordinates":[[[[-46.75062,-20.75562],[-46.73515,-20.83495],[-46.7056,-20.8407],[-46.6955,-20.8272],[-46.7308,-20.7663],[-46.7266,-20.7294],[-46.73146,-20.72252],[-46.7412,-20.7337],[-46.75062,-20.75562]]]]}},{"type":"Feature","properties":{"territory_id":"mg-3133758-jardim-bela-vista","name":"Jardim Bela Vista","municipality_id":"mg-3133758","polling_places":1,"approx":true,"official":false,"method":"voronoi-polling-places","whole_municipality":false,"approx_coords_only":false},"geometry":{"type":"MultiPolygon","coordinates":[[[[-46.82684,-20.70264],[-46.7945,-20.7507],[-46.8034,-20.7838],[-46.7467,-20.8327],[-46.73515,-20.83495],[-46.75062,-20.75562],[-46.75244,-20.75096],[-46.75513,-20.74704],[-46.82684,-20.70264]]]]}}]}