{"type":"FeatureCollection","features":[{"type":"Feature","properties":{"territory_id":"mg-3133600-centro","name":"Centro","municipality_id":"mg-3133600","polling_places":4,"approx":true,"official":false,"method":"voronoi-polling-places","whole_municipality":true,"approx_coords_only":false},"geometry":{"type":"MultiPolygon","coordinates":[[[[-46.229,-22.8066],[-46.1828,-22.7386],[-46.1244,-22.6698],[-46.1331,-22.6267],[-46.1529,-22.6077],[-46.1585,-22.6156],[-46.2874,-22.6923],[-46.3082,-22.692],[-46.2997,-22.7217],[-46.2491,-22.7518],[-46.229,-22.8066]]]]}}]}