{"type":"FeatureCollection","features":[{"type":"Feature","properties":{"territory_id":"mg-3134103-centro","name":"Centro","municipality_id":"mg-3134103","polling_places":1,"approx":true,"official":false,"method":"voronoi-polling-places","whole_municipality":false,"approx_coords_only":false},"geometry":{"type":"MultiPolygon","coordinates":[[[[-41.26101,-19.3724],[-41.18478,-19.46483],[-41.1591,-19.454],[-41.11837,-19.42029],[-41.14877,-19.31007],[-41.1534,-19.3129],[-41.1442,-19.3409],[-41.194,-19.3399],[-41.2073,-19.3734],[-41.26101,-19.3724]]]]}},{"type":"Feature","properties":{"territory_id":"mg-3134103-distrito-de-quatituba","name":"Distrito de Quatituba","municipality_id":"mg-3134103","polling_places":1,"approx":true,"official":false,"method":"voronoi-polling-places","whole_municipality":false,"approx_coords_only":false},"geometry":{"type":"MultiPolygon","coordinates":[[[[-41.2902,-19.4303],[-41.2631,-19.4724],[-41.2756,-19.4922],[-41.2566,-19.4951],[-41.18478,-19.46483],[-41.26101,-19.3724],[-41.2826,-19.372],[-41.2902,-19.4303]]]]}},{"type":"Feature","properties":{"territory_id":"mg-3134103-povoado-de-santo-antonio","name":"Povoado de Santo Antonio","municipality_id":"mg-3134103","polling_places":1,"approx":true,"official":false,"method":"voronoi-polling-places","whole_municipality":false,"approx_coords_only":false},"geometry":{"type":"MultiPolygon","coordinates":[[[[-41.14877,-19.31007],[-41.11837,-19.42029],[-41.0837,-19.3916],[-41.0336,-19.377],[-40.9664,-19.4236],[-40.9304,-19.3842],[-40.9385,-19.3461],[-40.9245,-19.3025],[-40.9445,-19.2795],[-40.9323,-19.2512],[-40.9577,-19.2617],[-41.0017,-19.3042],[-41.0704,-19.307],[-41.1189,-19.2918],[-41.14877,-19.31007]]]]}}]}