{"type":"FeatureCollection","features":[{"type":"Feature","properties":{"territory_id":"mg-3134608-centro","name":"Centro","municipality_id":"mg-3134608","polling_places":2,"approx":true,"official":false,"method":"voronoi-polling-places","whole_municipality":false,"approx_coords_only":false},"geometry":{"type":"MultiPolygon","coordinates":[[[[-43.78879,-19.5326],[-43.74678,-19.56056],[-43.73784,-19.55707],[-43.73991,-19.52511],[-43.7356,-19.50322],[-43.75484,-19.51792],[-43.78758,-19.52947],[-43.78879,-19.5326]]]]}},{"type":"Feature","properties":{"territory_id":"mg-3134608-distrito-de-sao-jose-do-almeida","name":"Distrito de Sao Jose do Almeida","municipality_id":"mg-3134608","polling_places":1,"approx":true,"official":false,"method":"voronoi-polling-places","whole_municipality":false,"approx_coords_only":false},"geometry":{"type":"MultiPolygon","coordinates":[[[[-43.87723,-19.3838],[-43.85001,-19.47691],[-43.80778,-19.4648],[-43.77488,-19.42477],[-43.77052,-19.41079],[-43.77536,-19.4041],[-43.81722,-19.38612],[-43.81906,-19.38537],[-43.8206,-19.3876],[-43.87723,-19.3838]]]]}},{"type":"Feature","properties":{"territory_id":"mg-3134608-distrito-vila-almeida","name":"Distrito Vila Almeida","municipality_id":"mg-3134608","polling_places":1,"approx":true,"official":false,"method":"voronoi-polling-places","whole_municipality":false,"approx_coords_only":false},"geometry":{"type":"MultiPolygon","coordinates":[[[[-43.77536,-19.4041],[-43.77052,-19.41079],[-43.7468,-19.41334],[-43.71575,-19.40406],[-43.70813,-19.34726],[-43.73814,-19.29827],[-43.77536,-19.4041]]]]}},{"type":"Feature","properties":{"territory_id":"mg-3134608-jaguara","name":"Jaguara","municipality_id":"mg-3134608","polling_places":1,"approx":true,"official":false,"method":"voronoi-polling-places","whole_municipality":false,"approx_coords_only":false},"geometry":{"type":"MultiPolygon","coordinates":[[[[-43.9501,-19.4867],[-43.9208,-19.5126],[-43.9219,-19.5357],[-43.88848,-19.57871],[-43.85182,-19.53422],[-43.85268,-19.48155],[-43.94924,-19.47192],[-43.9501,-19.4867]]]]}},{"type":"Feature","properties":{"territory_id":"mg-3134608-santo-antonio","name":"Santo Antonio","municipality_id":"mg-3134608","polling_places":1,"approx":true,"official":false,"method":"voronoi-polling-places","whole_municipality":false,"approx_coords_only":false},"geometry":{"type":"MultiPolygon","coordinates":[[[[-43.78758,-19.52947],[-43.75484,-19.51792],[-43.7356,-19.50322],[-43.73074,-19.49394],[-43.75302,-19.48556],[-43.78389,-19.51013],[-43.78758,-19.52947]]]]}},{"type":"Feature","properties":{"territory_id":"mg-3134608-sao-vicente","name":"Sao Vicente","municipality_id":"mg-3134608","polling_places":1,"approx":true,"official":false,"method":"voronoi-polling-places","whole_municipality":false,"approx_coords_only":false},"geometry":{"type":"MultiPolygon","coordinates":[[[[-43.73991,-19.52511],[-43.73784,-19.55707],[-43.7187,-19.5496],[-43.68743,-19.55308],[-43.70456,-19.49089],[-43.73074,-19.49394],[-43.7356,-19.50322],[-43.73991,-19.52511]]]]}},{"type":"Feature","properties":{"territory_id":"mg-3134608-zona-rural","name":"Zona Rural","municipality_id":"mg-3134608","polling_places":14,"approx":true,"official":false,"method":"voronoi-polling-places","whole_municipality":false,"approx_coords_only":false},"geometry":{"type":"MultiPolygon","coordinates":[[[[-43.94924,-19.47192],[-43.85268,-19.48155],[-43.85182,-19.53422],[-43.88848,-19.57871],[-43.8874,-19.5801],[-43.8424,-19.579],[-43.7984,-19.613],[-43.7822,-19.6111],[-43.7679,-19.5688],[-43.74678,-19.56056],[-43.78879,-19.5326],[-43.78758,-19.52947],[-43.78389,-19.51013],[-43.75302,-19.48556],[-43.73074,-19.49394],[-43.70456,-19.49089],[-43.68743,-19.55308],[-43.6369,-19.5587],[-43.5822,-19.5137],[-43.546,-19.5113],[-43.5429,-19.5405],[-43.48,-19.4531],[-43.4821,-19.4192],[-43.4874,-19.3707],[-43.5187,-19.3303],[-43.5944,-19.3481],[-43.6686,-19.3309],[-43.6798,-19.2827],[-43.734,-19.2545],[-43.7486,-19.2364],[-43.7777,-19.285],[-43.7969,-19.2913],[-43.8096,-19.3348],[-43.792,-19.346],[-43.81906,-19.38537],[-43.81722,-19.38612],[-43.77536,-19.4041],[-43.73814,-19.29827],[-43.70813,-19.34726],[-43.71575,-19.40406],[-43.7468,-19.41334],[-43.77052,-19.41079],[-43.77488,-19.42477],[-43.80778,-19.4648],[-43.85001,-19.47691],[-43.87723,-19.3838],[-43.8921,-19.3828],[-43.9469,-19.4315],[-43.94924,-19.47192]]]]}}]}