{"type":"FeatureCollection","features":[{"type":"Feature","properties":{"territory_id":"mg-3134806-centro","name":"Centro","municipality_id":"mg-3134806","polling_places":3,"approx":true,"official":false,"method":"voronoi-polling-places","whole_municipality":true,"approx_coords_only":false},"geometry":{"type":"MultiPolygon","coordinates":[[[[-46.6732,-20.898],[-46.6992,-20.9268],[-46.7469,-20.939],[-46.7521,-20.969],[-46.7981,-20.9757],[-46.8236,-20.9977],[-46.8684,-21.0106],[-46.8919,-21.0654],[-46.8679,-21.0524],[-46.8359,-21.0879],[-46.812,-21.0846],[-46.7854,-21.1519],[-46.7821,-21.1577],[-46.7598,-21.1182],[-46.6789,-21.1104],[-46.6488,-21.0886],[-46.6368,-21.0112],[-46.6135,-20.9709],[-46.6482,-20.9343],[-46.6388,-20.9041],[-46.6732,-20.898]]]]}}]}