{"type":"FeatureCollection","features":[{"type":"Feature","properties":{"territory_id":"mg-3134202-alcides-junqueira","name":"Alcides Junqueira","municipality_id":"mg-3134202","polling_places":1,"approx":true,"official":false,"method":"voronoi-polling-places","whole_municipality":false,"approx_coords_only":false},"geometry":{"type":"MultiPolygon","coordinates":[[[[-49.50383,-18.86668],[-49.4727,-18.96204],[-49.47242,-18.96185],[-49.47209,-18.96157],[-49.47178,-18.96126],[-49.47135,-18.96064],[-49.4709,-18.96023],[-49.47052,-18.96003],[-49.47027,-18.95993],[-49.46908,-18.95934],[-49.4689,-18.95915],[-49.46853,-18.95934],[-49.46815,-18.95935],[-49.46762,-18.95899],[-49.4674,-18.95871],[-49.46725,-18.95869],[-49.46676,-18.95897],[-49.46584,-18.9596],[-49.46562,-18.95978],[-49.46537,-18.9598],[-49.46488,-18.96003],[-49.46458,-18.96012],[-49.46415,-18.96043],[-49.46384,-18.96058],[-49.46349,-18.96073],[-49.46327,-18.961],[-49.46314,-18.96141],[-49.46301,-18.96209],[-49.46293,-18.96239],[-49.4629,-18.96244],[-49.46272,-18.96238],[-49.46035,-18.96155],[-49.46042,-18.96129],[-49.45973,-18.95963],[-49.45968,-18.95957],[-49.45964,-18.95953],[-49.45933,-18.95893],[-49.45764,-18.95893],[-49.4618,-18.95062],[-49.46347,-18.95157],[-49.46348,-18.95154],[-49.46333,-18.95125],[-49.46325,-18.95078],[-49.4633,-18.95017],[-49.46375,-18.95048],[-49.46385,-18.95048],[-49.46398,-18.95042],[-49.46403,-18.95034],[-49.46403,-18.95018],[-49.4638,-18.94999],[-49.46311,-18.94962],[-49.4625,-18.94923],[-49.50383,-18.86668]]],[[[-49.47127,-18.96644],[-49.46988,-18.97069],[-49.4696,-18.97048],[-49.46909,-18.97038],[-49.469,-18.97093],[-49.4691,-18.97033],[-49.46966,-18.9685],[-49.4696,-18.96826],[-49.46956,-18.96819],[-49.46956,-18.96813],[-49.46956,-18.96786],[-49.46962,-18.96767],[-49.46971,-18.96751],[-49.46991,-18.9673],[-49.47043,-18.96698],[-49.47068,-18.96693],[-49.47127,-18.96644]]],[[[-49.46374,-18.9649],[-49.46089,-18.96637],[-49.4609,-18.96637],[-49.46374,-18.9649]]],[[[-49.46348,-18.99032],[-49.45671,-19.01106],[-49.45659,-19.01084],[-49.44734,-19.00997],[-49.44716,-19.01163],[-49.44711,-19.01195],[-49.44766,-19.01315],[-49.44802,-19.01515],[-49.44868,-19.01723],[-49.44989,-19.01777],[-49.45397,-19.01702],[-49.45472,-19.01714],[-49.39486,-19.20057],[-49.3768,-19.1591],[-49.3767,-19.1245],[-49.37475,-19.12451],[-49.44444,-18.9853],[-49.44685,-18.98587],[-49.4473,-18.98419],[-49.44798,-18.98435],[-49.4507,-18.985],[-49.45103,-18.98381],[-49.45212,-18.98257],[-49.45112,-18.98178],[-49.45085,-18.98171],[-49.45106,-18.98089],[-49.45085,-18.98073],[-49.45104,-18.98044],[-49.45131,-18.98065],[-49.45814,-18.98604],[-49.45825,-18.98613],[-49.45832,-18.98623],[-49.45829,-18.98642],[-49.45815,-18.98648],[-49.4572,-18.99002],[-49.45611,-18.9898],[-49.4554,-18.98963],[-49.45575,-18.98829],[-49.45548,-18.98833],[-49.45455,-18.9885],[-49.4543,-18.9883],[-49.45172,-18.99812],[-49.45404,-18.98929],[-49.45055,-18.98845],[-49.45013,-18.99007],[-49.44399,-18.9886],[-49.44356,-18.99024],[-49.44492,-18.99056],[-49.44407,-18.99379],[-49.44476,-18.99395],[-49.44435,-18.99551],[-49.4414,-18.99481],[-49.44145,-18.99498],[-49.44141,-18.99533],[-49.44138,-18.99582],[-49.44135,-18.99608],[-49.4422,-18.99664],[-49.44228,-18.99663],[-49.44228,-18.99669],[-49.44453,-18.99816],[-49.44513,-18.99816],[-49.44515,-18.99817],[-49.44713,-18.99812],[-49.44752,-18.99811],[-49.44764,-18.99808],[-49.44916,-18.99687],[-49.4492,-18.99686],[-49.4497,-18.99698],[-49.44972,-18.99712],[-49.4496,-18.99714],[-49.44966,-18.99749],[-49.45083,-18.99733],[-49.45113,-18.99799],[-49.45137,-18.99852],[-49.45152,-18.99844],[-49.45199,-18.99948],[-49.45207,-19.00112],[-49.45178,-19.0021],[-49.44945,-19.00347],[-49.44948,-19.00571],[-49.45455,-19.00343],[-49.45472,-19.00324],[-49.45481,-19.0032],[-49.45486,-19.00304],[-49.45773,-19.00131],[-49.45837,-19.00092],[-49.45838,-19.00087],[-49.45847,-19.00085],[-49.45869,-19.00069],[-49.45771,-19.00042],[-49.45792,-18.99961],[-49.45824,-18.99843],[-49.45856,-18.9972],[-49.45917,-18.99485],[-49.46082,-18.98867],[-49.46122,-18.98898],[-49.46119,-18.98887],[-49.46127,-18.98875],[-49.4614,-18.98869],[-49.45839,-18.98632],[-49.46348,-18.99032]]],[[[-49.4567,-18.9713],[-49.45513,-18.97227],[-49.45468,-18.97249],[-49.45508,-18.9723],[-49.4567,-18.9713]]],[[[-49.4524,-18.99826],[-49.45113,-18.99799],[-49.45172,-18.99812],[-49.4524,-18.99826]]],[[[-49.45124,-18.97364],[-49.45118,-18.97343],[-49.45122,-18.97352],[-49.45124,-18.97364]]],[[[-49.45073,-18.97348],[-49.4505,-18.97361],[-49.45051,-18.9736],[-49.45073,-18.97348]]],[[[-49.44956,-18.97928],[-49.44936,-18.97955],[-49.44925,-18.97947],[-49.4492,-18.97968],[-49.44852,-18.97952],[-49.44812,-18.98104],[-49.44674,-18.98072],[-49.44856,-18.97707],[-49.44886,-18.97713],[-49.44866,-18.97805],[-49.44939,-18.9782],[-49.44922,-18.979],[-49.44956,-18.97928]]]]}},{"type":"Feature","properties":{"territory_id":"mg-3134202-alvorada","name":"Alvorada","municipality_id":"mg-3134202","polling_places":1,"approx":false,"official":true,"method":"official-ibge-cd2022","whole_municipality":false,"approx_coords_only":false,"official_name":"Alvorada","official_code":"3134202008","match":"direct"},"geometry":{"type":"MultiPolygon","coordinates":[[[[-49.4817,-18.97761],[-49.48616,-18.97207],[-49.48798,-18.96983],[-49.48793,-18.96979],[-49.4879,-18.96969],[-49.48793,-18.96958],[-49.48801,-18.9695],[-49.48811,-18.96947],[-49.48822,-18.96952],[-49.48842,-18.96928],[-49.48813,-18.96911],[-49.48786,-18.96904],[-49.4874,-18.969],[-49.48708,-18.96894],[-49.48686,-18.96879],[-49.48651,-18.96864],[-49.48635,-18.9683],[-49.48621,-18.96806],[-49.48635,-18.96802],[-49.48647,-18.96776],[-49.48629,-18.96763],[-49.48619,-18.96747],[-49.48595,-18.96737],[-49.48542,-18.96732],[-49.48522,-18.96727],[-49.4845,-18.96693],[-49.48403,-18.96686],[-49.48351,-18.96682],[-49.48323,-18.96673],[-49.48298,-18.96672],[-49.48265,-18.96681],[-49.48234,-18.96686],[-49.48202,-18.96701],[-49.48128,-18.96717],[-49.48067,-18.96719],[-49.48042,-18.96722],[-49.48004,-18.9669],[-49.47992,-18.96682],[-49.47948,-18.96685],[-49.47931,-18.96675],[-49.47859,-18.96658],[-49.47806,-18.96637],[-49.47812,-18.96659],[-49.47643,-18.96866],[-49.47697,-18.96908],[-49.47648,-18.96968],[-49.47553,-18.96897],[-49.47401,-18.9707],[-49.47354,-18.9712],[-49.47696,-18.97366],[-49.47585,-18.97505],[-49.47623,-18.97533],[-49.47784,-18.97549],[-49.48029,-18.97569],[-49.48041,-18.97574],[-49.48056,-18.97595],[-49.48061,-18.97612],[-49.48012,-18.9773],[-49.48049,-18.97744],[-49.48063,-18.97769],[-49.48125,-18.97816],[-49.4817,-18.97761]]]]}},{"type":"Feature","properties":{"territory_id":"mg-3134202-brasil","name":"Brasil","municipality_id":"mg-3134202","polling_places":1,"approx":false,"official":true,"method":"official-ibge-cd2022","whole_municipality":false,"approx_coords_only":false,"official_name":"Brasil","official_code":"3134202020","match":"direct"},"geometry":{"type":"MultiPolygon","coordinates":[[[[-49.44752,-18.99811],[-49.44764,-18.99808],[-49.44916,-18.99687],[-49.4492,-18.99686],[-49.4497,-18.99698],[-49.44972,-18.99712],[-49.4496,-18.99714],[-49.44966,-18.99749],[-49.45083,-18.99733],[-49.45113,-18.99799],[-49.45172,-18.99812],[-49.45404,-18.98929],[-49.45055,-18.98845],[-49.45013,-18.99007],[-49.44399,-18.9886],[-49.44356,-18.99024],[-49.44492,-18.99056],[-49.44407,-18.99379],[-49.44476,-18.99395],[-49.44435,-18.99551],[-49.4414,-18.99481],[-49.44145,-18.99498],[-49.44141,-18.99533],[-49.44138,-18.99582],[-49.44135,-18.99608],[-49.4422,-18.99664],[-49.44228,-18.99663],[-49.44228,-18.99669],[-49.44453,-18.99816],[-49.44513,-18.99816],[-49.44515,-18.99817],[-49.44713,-18.99812],[-49.44752,-18.99811]]]]}},{"type":"Feature","properties":{"territory_id":"mg-3134202-canaa-i","name":"Canaa I","municipality_id":"mg-3134202","polling_places":1,"approx":true,"official":false,"method":"voronoi-polling-places","whole_municipality":false,"approx_coords_only":false},"geometry":{"type":"MultiPolygon","coordinates":[[[[-49.54291,-18.76592],[-49.50383,-18.86668],[-49.4625,-18.94923],[-49.46156,-18.94864],[-49.46116,-18.94835],[-49.46095,-18.94822],[-49.46098,-18.94837],[-49.46091,-18.94848],[-49.46078,-18.94853],[-49.46066,-18.94852],[-49.46005,-18.94814],[-49.45915,-18.94765],[-49.45903,-18.9477],[-49.45883,-18.94799],[-49.45687,-18.95371],[-49.45679,-18.95408],[-49.45665,-18.95473],[-49.4566,-18.95559],[-49.45662,-18.95583],[-49.45896,-18.95377],[-49.46027,-18.95265],[-49.46036,-18.95262],[-49.46103,-18.9516],[-49.46169,-18.95056],[-49.4618,-18.95062],[-49.45764,-18.95893],[-49.45727,-18.95893],[-49.45726,-18.95887],[-49.4563,-18.95953],[-49.45489,-18.95992],[-49.45278,-18.96054],[-49.45246,-18.96064],[-49.45126,-18.96099],[-49.4511,-18.96097],[-49.45047,-18.96115],[-49.44998,-18.96132],[-49.44859,-18.96231],[-49.4496,-18.96332],[-49.44857,-18.96429],[-49.45161,-18.96724],[-49.44795,-18.9637],[-49.4471,-18.96569],[-49.443,-18.96953],[-49.44253,-18.97181],[-49.44605,-18.97522],[-49.44649,-18.9755],[-49.44684,-18.97585],[-49.44706,-18.97609],[-49.4477,-18.97535],[-49.44656,-18.97668],[-49.44856,-18.97707],[-49.44674,-18.98072],[-49.44476,-18.98025],[-49.44455,-18.98089],[-49.44424,-18.98152],[-49.44397,-18.98179],[-49.44389,-18.9821],[-49.4439,-18.98216],[-49.44387,-18.98286],[-49.44378,-18.98308],[-49.44358,-18.98344],[-49.44334,-18.98374],[-49.44327,-18.98398],[-49.44314,-18.98412],[-49.44295,-18.98417],[-49.44269,-18.98418],[-49.44245,-18.98433],[-49.44234,-18.9845],[-49.44228,-18.98479],[-49.44444,-18.9853],[-49.37475,-19.12451],[-49.3148,-19.1249],[-49.3055,-19.1382],[-49.2495,-19.1357],[-49.2274,-19.1225],[-49.2278,-19.0777],[-49.1964,-19.057],[-49.2287,-18.9899],[-49.2257,-18.9358],[-49.2595,-18.9404],[-49.3401,-18.9522],[-49.3228,-18.8903],[-49.3312,-18.8669],[-49.3766,-18.868],[-49.4334,-18.8454],[-49.4239,-18.8107],[-49.4836,-18.7892],[-49.5287,-18.7556],[-49.54291,-18.76592]]],[[[-49.45516,-18.96389],[-49.45268,-18.96623],[-49.45161,-18.96724],[-49.45516,-18.96389]]]]}},{"type":"Feature","properties":{"territory_id":"mg-3134202-centro","name":"Centro","municipality_id":"mg-3134202","polling_places":8,"approx":false,"official":true,"method":"official-ibge-cd2022","whole_municipality":false,"approx_coords_only":false,"official_name":"Centro","official_code":"3134202057","match":"direct"},"geometry":{"type":"MultiPolygon","coordinates":[[[[-49.44939,-18.9782],[-49.44922,-18.979],[-49.45131,-18.98065],[-49.45173,-18.98072],[-49.45195,-18.98081],[-49.45491,-18.98139],[-49.45699,-18.98184],[-49.45805,-18.98204],[-49.45815,-18.98209],[-49.4592,-18.98231],[-49.46177,-18.98283],[-49.46563,-18.9836],[-49.46668,-18.98378],[-49.46881,-18.98423],[-49.47181,-18.9848],[-49.47384,-18.98521],[-49.47453,-18.98529],[-49.47454,-18.98523],[-49.47452,-18.98478],[-49.47445,-18.98449],[-49.47436,-18.98442],[-49.47436,-18.9841],[-49.47452,-18.98392],[-49.47454,-18.98365],[-49.47437,-18.98281],[-49.47418,-18.98261],[-49.47379,-18.98253],[-49.4737,-18.98232],[-49.47366,-18.98215],[-49.4729,-18.9807],[-49.47288,-18.98048],[-49.47281,-18.98031],[-49.4723,-18.97942],[-49.47202,-18.9792],[-49.47065,-18.97788],[-49.47016,-18.97768],[-49.47009,-18.97757],[-49.46988,-18.97711],[-49.46983,-18.97671],[-49.46967,-18.97651],[-49.46854,-18.97459],[-49.46775,-18.97417],[-49.46751,-18.97399],[-49.46734,-18.97365],[-49.46739,-18.97322],[-49.46757,-18.97297],[-49.46767,-18.97289],[-49.4678,-18.97266],[-49.46806,-18.97231],[-49.46842,-18.97189],[-49.46887,-18.97143],[-49.46898,-18.97119],[-49.469,-18.97093],[-49.4691,-18.97033],[-49.46966,-18.9685],[-49.4696,-18.96826],[-49.46956,-18.96819],[-49.46956,-18.96813],[-49.46956,-18.96786],[-49.46962,-18.96767],[-49.46971,-18.96751],[-49.46991,-18.9673],[-49.47043,-18.96698],[-49.47068,-18.96693],[-49.47132,-18.9664],[-49.47151,-18.96631],[-49.47156,-18.96627],[-49.47125,-18.96618],[-49.46932,-18.96586],[-49.46931,-18.96592],[-49.46921,-18.96619],[-49.46896,-18.96642],[-49.46869,-18.96652],[-49.46839,-18.96654],[-49.46809,-18.96641],[-49.46788,-18.9662],[-49.46777,-18.96595],[-49.46775,-18.96566],[-49.46378,-18.96497],[-49.46374,-18.9649],[-49.46089,-18.96637],[-49.46083,-18.96664],[-49.46079,-18.967],[-49.46072,-18.96737],[-49.46057,-18.96769],[-49.46035,-18.96798],[-49.46006,-18.96822],[-49.45981,-18.96838],[-49.45956,-18.96862],[-49.45936,-18.96887],[-49.45903,-18.96967],[-49.45882,-18.9699],[-49.4583,-18.97027],[-49.4567,-18.9713],[-49.45513,-18.97227],[-49.45468,-18.97249],[-49.45334,-18.97285],[-49.45228,-18.97316],[-49.45148,-18.97351],[-49.45124,-18.97364],[-49.45112,-18.97326],[-49.45025,-18.97375],[-49.45005,-18.97388],[-49.44985,-18.97397],[-49.449,-18.9743],[-49.44866,-18.97447],[-49.44836,-18.97465],[-49.44814,-18.97487],[-49.4477,-18.97535],[-49.44656,-18.97668],[-49.44886,-18.97713],[-49.44866,-18.97805],[-49.44939,-18.9782]]]]}},{"type":"Feature","properties":{"territory_id":"mg-3134202-gardenia","name":"Gardenia","municipality_id":"mg-3134202","polling_places":1,"approx":false,"official":true,"method":"official-ibge-cd2022","whole_municipality":false,"approx_coords_only":false,"official_name":"Gardênia","official_code":"3134202035","match":"direct"},"geometry":{"type":"MultiPolygon","coordinates":[[[[-49.45679,-18.95408],[-49.45665,-18.95473],[-49.4566,-18.95559],[-49.45662,-18.95583],[-49.45896,-18.95377],[-49.46027,-18.95265],[-49.46036,-18.95262],[-49.46103,-18.9516],[-49.46169,-18.95056],[-49.46347,-18.95157],[-49.46348,-18.95154],[-49.46333,-18.95125],[-49.46325,-18.95078],[-49.4633,-18.95017],[-49.46375,-18.95048],[-49.46385,-18.95048],[-49.46398,-18.95042],[-49.46403,-18.95034],[-49.46403,-18.95018],[-49.4638,-18.94999],[-49.46311,-18.94962],[-49.46156,-18.94864],[-49.46116,-18.94835],[-49.46095,-18.94822],[-49.46098,-18.94837],[-49.46091,-18.94848],[-49.46078,-18.94853],[-49.46066,-18.94852],[-49.46005,-18.94814],[-49.45915,-18.94765],[-49.45903,-18.9477],[-49.45883,-18.94799],[-49.45687,-18.95371],[-49.45679,-18.95408]]]]}},{"type":"Feature","properties":{"territory_id":"mg-3134202-independencia","name":"Independencia","municipality_id":"mg-3134202","polling_places":1,"approx":false,"official":true,"method":"official-ibge-cd2022","whole_municipality":false,"approx_coords_only":false,"official_name":"Independência","official_code":"3134202019","match":"direct"},"geometry":{"type":"MultiPolygon","coordinates":[[[[-49.45856,-18.9972],[-49.45917,-18.99485],[-49.46082,-18.98867],[-49.46122,-18.98898],[-49.46119,-18.98887],[-49.46127,-18.98875],[-49.4614,-18.98869],[-49.45839,-18.98632],[-49.45832,-18.98623],[-49.45829,-18.98642],[-49.45815,-18.98648],[-49.4572,-18.99002],[-49.45611,-18.9898],[-49.4554,-18.98963],[-49.45575,-18.98829],[-49.45548,-18.98833],[-49.45455,-18.9885],[-49.4543,-18.9883],[-49.45172,-18.99812],[-49.4524,-18.99826],[-49.4526,-18.9975],[-49.45678,-18.99847],[-49.45657,-18.99927],[-49.45792,-18.99961],[-49.45824,-18.99843],[-49.45856,-18.9972]]]]}},{"type":"Feature","properties":{"territory_id":"mg-3134202-ipiranga","name":"Ipiranga","municipality_id":"mg-3134202","polling_places":1,"approx":false,"official":true,"method":"official-ibge-cd2022","whole_municipality":false,"approx_coords_only":false,"official_name":"Ipiranga","official_code":"3134202028","match":"direct"},"geometry":{"type":"MultiPolygon","coordinates":[[[[-49.45246,-18.96064],[-49.45126,-18.96099],[-49.4511,-18.96097],[-49.45047,-18.96115],[-49.44998,-18.96132],[-49.44859,-18.96231],[-49.4496,-18.96332],[-49.44857,-18.96429],[-49.45161,-18.96724],[-49.45803,-18.96119],[-49.45804,-18.96123],[-49.45814,-18.96131],[-49.45827,-18.96129],[-49.45838,-18.96122],[-49.45842,-18.96108],[-49.45838,-18.96096],[-49.45832,-18.96092],[-49.45965,-18.95966],[-49.45968,-18.95957],[-49.45964,-18.95953],[-49.45933,-18.95893],[-49.45727,-18.95893],[-49.45726,-18.95887],[-49.4563,-18.95953],[-49.45489,-18.95992],[-49.45278,-18.96054],[-49.45246,-18.96064]]]]}},{"type":"Feature","properties":{"territory_id":"mg-3134202-jardim-do-rosario","name":"Jardim do Rosario","municipality_id":"mg-3134202","polling_places":1,"approx":false,"official":true,"method":"official-ibge-cd2022","whole_municipality":false,"approx_coords_only":false,"official_name":"Jardim do Rosário","official_code":"3134202023","match":"direct"},"geometry":{"type":"MultiPolygon","coordinates":[[[[-49.44798,-18.98435],[-49.4507,-18.985],[-49.45103,-18.98381],[-49.45212,-18.98257],[-49.45112,-18.98178],[-49.45085,-18.98171],[-49.45106,-18.98089],[-49.45085,-18.98073],[-49.45104,-18.98044],[-49.44956,-18.97928],[-49.44936,-18.97955],[-49.44925,-18.97947],[-49.4492,-18.97968],[-49.44852,-18.97952],[-49.44812,-18.98104],[-49.44476,-18.98025],[-49.44455,-18.98089],[-49.44424,-18.98152],[-49.44397,-18.98179],[-49.44389,-18.9821],[-49.4439,-18.98216],[-49.44387,-18.98286],[-49.44378,-18.98308],[-49.44358,-18.98344],[-49.44334,-18.98374],[-49.44327,-18.98398],[-49.44314,-18.98412],[-49.44295,-18.98417],[-49.44269,-18.98418],[-49.44245,-18.98433],[-49.44234,-18.9845],[-49.44228,-18.98479],[-49.44685,-18.98587],[-49.4473,-18.98419],[-49.44798,-18.98435]]]]}},{"type":"Feature","properties":{"territory_id":"mg-3134202-jeronimo-mendonca","name":"Jeronimo Mendonca","municipality_id":"mg-3134202","polling_places":1,"approx":true,"official":false,"method":"voronoi-polling-places","whole_municipality":false,"approx_coords_only":false},"geometry":{"type":"MultiPolygon","coordinates":[[[[-49.8722,-18.8018],[-49.8624,-18.8468],[-49.8018,-18.9324],[-49.7312,-18.99],[-49.696,-19.0372],[-49.5994,-19.1167],[-49.6005,-19.1417],[-49.6345,-19.1881],[-49.6436,-19.2224],[-49.6789,-19.2774],[-49.6536,-19.3321],[-49.5897,-19.3541],[-49.5692,-19.3372],[-49.5375,-19.3546],[-49.4957,-19.2937],[-49.4755,-19.2409],[-49.422,-19.2629],[-49.39486,-19.20057],[-49.45472,-19.01714],[-49.45915,-19.01781],[-49.45722,-19.01239],[-49.45677,-19.01117],[-49.45671,-19.01106],[-49.46348,-18.99032],[-49.46695,-18.99306],[-49.47177,-18.99681],[-49.47193,-18.99658],[-49.47207,-18.9963],[-49.47236,-18.99584],[-49.47262,-18.99579],[-49.47285,-18.99567],[-49.47291,-18.99556],[-49.47286,-18.99549],[-49.47288,-18.99533],[-49.47309,-18.99518],[-49.4731,-18.99511],[-49.47332,-18.99469],[-49.4735,-18.99458],[-49.47364,-18.99436],[-49.47377,-18.99423],[-49.47398,-18.9939],[-49.47417,-18.99376],[-49.47421,-18.99366],[-49.47421,-18.99351],[-49.47435,-18.9934],[-49.47477,-18.99289],[-49.47467,-18.99266],[-49.47469,-18.99242],[-49.4748,-18.99238],[-49.47497,-18.9925],[-49.4751,-18.99228],[-49.47524,-18.99222],[-49.47527,-18.99211],[-49.47516,-18.99203],[-49.4751,-18.99156],[-49.47522,-18.99117],[-49.47515,-18.99103],[-49.4751,-18.99087],[-49.47517,-18.99021],[-49.47509,-18.99006],[-49.47498,-18.98941],[-49.47486,-18.9892],[-49.47472,-18.98906],[-49.47464,-18.98886],[-49.47794,-18.98807],[-49.47852,-18.98999],[-49.47922,-18.99267],[-49.48276,-18.99114],[-49.48296,-18.99158],[-49.48088,-18.99365],[-49.4809,-18.99371],[-49.48188,-18.99542],[-49.4863,-18.99102],[-49.48546,-18.98926],[-49.48479,-18.98954],[-49.48306,-18.98588],[-49.4819,-18.98638],[-49.48131,-18.98514],[-49.48015,-18.98566],[-49.47987,-18.98505],[-49.47969,-18.98513],[-49.47906,-18.9838],[-49.47808,-18.98424],[-49.47693,-18.98472],[-49.47607,-18.98289],[-49.4749,-18.98339],[-49.47428,-18.98205],[-49.47407,-18.9818],[-49.47384,-18.98148],[-49.4735,-18.98063],[-49.47311,-18.98066],[-49.4729,-18.98064],[-49.47288,-18.98048],[-49.47281,-18.98031],[-49.4723,-18.97942],[-49.47202,-18.9792],[-49.47065,-18.97788],[-49.47016,-18.97768],[-49.47009,-18.97757],[-49.46988,-18.97711],[-49.46983,-18.97671],[-49.46967,-18.97651],[-49.46859,-18.97466],[-49.46963,-18.97643],[-49.4704,-18.97658],[-49.47069,-18.97699],[-49.47102,-18.97724],[-49.47127,-18.97739],[-49.4716,-18.97752],[-49.47278,-18.97788],[-49.47382,-18.97929],[-49.47421,-18.97959],[-49.47449,-18.9797],[-49.47477,-18.97975],[-49.47603,-18.97983],[-49.479,-18.97996],[-49.48061,-18.97612],[-49.48012,-18.9773],[-49.48049,-18.97744],[-49.48063,-18.97769],[-49.48125,-18.97816],[-49.4817,-18.97761],[-49.48616,-18.97207],[-49.48798,-18.96983],[-49.48793,-18.96979],[-49.4879,-18.96969],[-49.48793,-18.96958],[-49.48801,-18.9695],[-49.48811,-18.96947],[-49.48822,-18.96952],[-49.48842,-18.96928],[-49.48813,-18.96911],[-49.48786,-18.96904],[-49.4874,-18.969],[-49.48708,-18.96894],[-49.48686,-18.96879],[-49.48651,-18.96864],[-49.48635,-18.9683],[-49.48621,-18.96806],[-49.48635,-18.96802],[-49.48647,-18.96776],[-49.48629,-18.96763],[-49.48619,-18.96747],[-49.48595,-18.96737],[-49.48542,-18.96732],[-49.48522,-18.96727],[-49.4845,-18.96693],[-49.48403,-18.96686],[-49.48351,-18.96682],[-49.48323,-18.96673],[-49.48298,-18.96672],[-49.48265,-18.96681],[-49.48234,-18.96686],[-49.48202,-18.96701],[-49.48128,-18.96717],[-49.48067,-18.96719],[-49.48042,-18.96722],[-49.48004,-18.9669],[-49.47992,-18.96682],[-49.47948,-18.96685],[-49.47931,-18.96675],[-49.47859,-18.96658],[-49.47806,-18.96637],[-49.47812,-18.96659],[-49.47643,-18.96866],[-49.47697,-18.96908],[-49.47648,-18.96968],[-49.47553,-18.96897],[-49.47401,-18.9707],[-49.47354,-18.9712],[-49.47696,-18.97366],[-49.47585,-18.97505],[-49.46988,-18.97069],[-49.47127,-18.96644],[-49.47132,-18.9664],[-49.47151,-18.96631],[-49.47156,-18.96627],[-49.47166,-18.96625],[-49.47231,-18.96592],[-49.47251,-18.96555],[-49.47291,-18.96446],[-49.47293,-18.96435],[-49.47306,-18.96403],[-49.47323,-18.96375],[-49.47341,-18.96362],[-49.47386,-18.96351],[-49.47408,-18.96336],[-49.47415,-18.96312],[-49.47396,-18.96292],[-49.4727,-18.96204],[-49.50383,-18.86668],[-49.54291,-18.76592],[-49.5605,-18.7787],[-49.6362,-18.7975],[-49.6648,-18.7689],[-49.7147,-18.7487],[-49.7276,-18.7175],[-49.7185,-18.6417],[-49.723,-18.6094],[-49.7577,-18.6097],[-49.7946,-18.6438],[-49.8185,-18.6975],[-49.803,-18.7383],[-49.8722,-18.8018]],[[-49.49326,-18.9813],[-49.49264,-18.98001],[-49.48386,-18.98288],[-49.48461,-18.98447],[-49.48801,-18.98303],[-49.49014,-18.98304],[-49.49138,-18.98305],[-49.4915,-18.98301],[-49.49326,-18.9813]],[[-49.48483,-18.96289],[-49.48275,-18.95692],[-49.48233,-18.95694],[-49.48231,-18.95599],[-49.47763,-18.95626],[-49.47757,-18.9564],[-49.47754,-18.95654],[-49.47755,-18.95669],[-49.47769,-18.95716],[-49.47709,-18.95719],[-49.47416,-18.95993],[-49.47577,-18.96154],[-49.47481,-18.96253],[-49.47553,-18.96291],[-49.47646,-18.96329],[-49.47942,-18.96421],[-49.48172,-18.96495],[-49.48157,-18.96395],[-49.48235,-18.9637],[-49.4824,-18.96368],[-49.48483,-18.96289]],[[-49.48419,-18.99956],[-49.48415,-18.99941],[-49.48409,-18.99949],[-49.48258,-18.999],[-49.48256,-18.99894],[-49.48244,-18.99896],[-49.48097,-18.99894],[-49.48056,-18.99888],[-49.48008,-18.99886],[-49.47976,-18.9992],[-49.47977,-18.99927],[-49.47879,-19.0004],[-49.47917,-19.0007],[-49.47819,-19.00184],[-49.47804,-19.00172],[-49.47798,-19.00215],[-49.47801,-19.00235],[-49.47782,-19.00237],[-49.47807,-19.00354],[-49.47808,-19.00452],[-49.47814,-19.00479],[-49.47837,-19.00472],[-49.47847,-19.00486],[-49.47833,-19.00558],[-49.4784,-19.00565],[-49.47859,-19.00566],[-49.47859,-19.00603],[-49.47834,-19.00617],[-49.47824,-19.00673],[-49.47843,-19.00681],[-49.47841,-19.00719],[-49.47827,-19.00762],[-49.47837,-19.00803],[-49.47875,-19.00834],[-49.47904,-19.00877],[-49.47925,-19.00954],[-49.47937,-19.01028],[-49.47983,-19.01126],[-49.48074,-19.01095],[-49.48092,-19.01095],[-49.48093,-19.01088],[-49.48269,-19.0102],[-49.48269,-19.01001],[-49.48308,-19.00719],[-49.48321,-19.00617],[-49.48351,-19.00408],[-49.48367,-19.00295],[-49.48395,-19.00125],[-49.48418,-18.99973],[-49.48419,-18.99956]]],[[[-49.46788,-18.9887],[-49.46756,-18.99024],[-49.46754,-18.99029],[-49.46695,-18.99306],[-49.46788,-18.9887]]]]}},{"type":"Feature","properties":{"territory_id":"mg-3134202-natal","name":"Natal","municipality_id":"mg-3134202","polling_places":1,"approx":false,"official":true,"method":"official-ibge-cd2022","whole_municipality":false,"approx_coords_only":false,"official_name":"Natal","official_code":"3134202014","match":"direct"},"geometry":{"type":"MultiPolygon","coordinates":[[[[-49.46754,-18.99029],[-49.46695,-18.99306],[-49.47177,-18.99681],[-49.47193,-18.99658],[-49.47207,-18.9963],[-49.47236,-18.99584],[-49.47262,-18.99579],[-49.47285,-18.99567],[-49.47291,-18.99556],[-49.47286,-18.99549],[-49.47288,-18.99533],[-49.47309,-18.99518],[-49.4731,-18.99511],[-49.47332,-18.99469],[-49.4735,-18.99458],[-49.47364,-18.99436],[-49.47377,-18.99423],[-49.47398,-18.9939],[-49.47417,-18.99376],[-49.47421,-18.99366],[-49.47421,-18.99351],[-49.47435,-18.9934],[-49.47477,-18.99289],[-49.47467,-18.99266],[-49.47469,-18.99242],[-49.4748,-18.99238],[-49.47497,-18.9925],[-49.4751,-18.99228],[-49.47524,-18.99222],[-49.47527,-18.99211],[-49.47516,-18.99203],[-49.4751,-18.99156],[-49.47522,-18.99117],[-49.47515,-18.99103],[-49.4751,-18.99087],[-49.47517,-18.99021],[-49.47509,-18.99006],[-49.47498,-18.98941],[-49.47486,-18.9892],[-49.47472,-18.98906],[-49.47464,-18.98886],[-49.47466,-18.98863],[-49.47505,-18.9882],[-49.47518,-18.98786],[-49.47516,-18.98764],[-49.47483,-18.98728],[-49.47452,-18.98534],[-49.47453,-18.98529],[-49.47384,-18.98521],[-49.47181,-18.9848],[-49.46886,-18.98424],[-49.46808,-18.98782],[-49.46848,-18.98833],[-49.46788,-18.9887],[-49.46756,-18.99024],[-49.46754,-18.99029]]]]}},{"type":"Feature","properties":{"territory_id":"mg-3134202-nova-ituiutaba-i","name":"Nova Ituiutaba I","municipality_id":"mg-3134202","polling_places":1,"approx":false,"official":true,"method":"official-ibge-cd2022","whole_municipality":false,"approx_coords_only":false,"official_name":"Nova Ituiutaba I","official_code":"3134202069","match":"direct"},"geometry":{"type":"MultiPolygon","coordinates":[[[[-49.44716,-19.01163],[-49.44711,-19.01195],[-49.44766,-19.01315],[-49.44802,-19.01515],[-49.44868,-19.01723],[-49.44989,-19.01777],[-49.45397,-19.01702],[-49.45915,-19.01781],[-49.45722,-19.01239],[-49.45677,-19.01117],[-49.45659,-19.01084],[-49.44734,-19.00997],[-49.44716,-19.01163]]]]}},{"type":"Feature","properties":{"territory_id":"mg-3134202-novo-tempo-ii","name":"Novo Tempo Ii","municipality_id":"mg-3134202","polling_places":1,"approx":false,"official":true,"method":"official-ibge-cd2022","whole_municipality":false,"approx_coords_only":false,"official_name":"Novo Tempo II","official_code":"3134202043","match":"direct"},"geometry":{"type":"MultiPolygon","coordinates":[[[[-49.48351,-19.00408],[-49.48367,-19.00295],[-49.48395,-19.00125],[-49.48418,-18.99973],[-49.48419,-18.99956],[-49.48415,-18.99941],[-49.48409,-18.99949],[-49.48258,-18.999],[-49.48256,-18.99894],[-49.48244,-18.99896],[-49.48097,-18.99894],[-49.48056,-18.99888],[-49.48008,-18.99886],[-49.47976,-18.9992],[-49.47977,-18.99927],[-49.47879,-19.0004],[-49.47917,-19.0007],[-49.47819,-19.00184],[-49.47804,-19.00172],[-49.47798,-19.00215],[-49.47801,-19.00235],[-49.47782,-19.00237],[-49.47807,-19.00354],[-49.47808,-19.00452],[-49.47814,-19.00479],[-49.47837,-19.00472],[-49.47847,-19.00486],[-49.47833,-19.00558],[-49.4784,-19.00565],[-49.47859,-19.00566],[-49.47859,-19.00603],[-49.47834,-19.00617],[-49.47824,-19.00673],[-49.47843,-19.00681],[-49.47841,-19.00719],[-49.47827,-19.00762],[-49.47837,-19.00803],[-49.47875,-19.00834],[-49.47904,-19.00877],[-49.47925,-19.00954],[-49.47937,-19.01028],[-49.47983,-19.01126],[-49.48074,-19.01095],[-49.48092,-19.01095],[-49.48093,-19.01088],[-49.48269,-19.0102],[-49.48269,-19.01001],[-49.48308,-19.00719],[-49.48321,-19.00617],[-49.48351,-19.00408]]]]}},{"type":"Feature","properties":{"territory_id":"mg-3134202-pirapitinga","name":"Pirapitinga","municipality_id":"mg-3134202","polling_places":1,"approx":false,"official":true,"method":"official-ibge-cd2022","whole_municipality":false,"approx_coords_only":false,"official_name":"Pirapitinga","official_code":"3134202004","match":"direct"},"geometry":{"type":"MultiPolygon","coordinates":[[[[-49.48015,-18.98566],[-49.47987,-18.98505],[-49.47969,-18.98513],[-49.47906,-18.9838],[-49.47808,-18.98424],[-49.47693,-18.98472],[-49.47607,-18.98289],[-49.4749,-18.98339],[-49.47428,-18.98205],[-49.47407,-18.9818],[-49.47384,-18.98148],[-49.4735,-18.98063],[-49.47311,-18.98066],[-49.4729,-18.98064],[-49.4729,-18.9807],[-49.47366,-18.98215],[-49.4737,-18.98232],[-49.47379,-18.98253],[-49.47418,-18.98261],[-49.47437,-18.98281],[-49.47454,-18.98365],[-49.47452,-18.98392],[-49.47436,-18.9841],[-49.47436,-18.98442],[-49.47445,-18.98449],[-49.47452,-18.98478],[-49.47454,-18.98523],[-49.47452,-18.98534],[-49.47483,-18.98728],[-49.47516,-18.98764],[-49.47518,-18.98786],[-49.47505,-18.9882],[-49.47466,-18.98863],[-49.47464,-18.98886],[-49.47794,-18.98807],[-49.47852,-18.98999],[-49.47922,-18.99267],[-49.48276,-18.99114],[-49.48296,-18.99158],[-49.48088,-18.99365],[-49.4809,-18.99371],[-49.48188,-18.99542],[-49.4863,-18.99102],[-49.48546,-18.98926],[-49.48479,-18.98954],[-49.48306,-18.98588],[-49.4819,-18.98638],[-49.48131,-18.98514],[-49.48015,-18.98566]]]]}},{"type":"Feature","properties":{"territory_id":"mg-3134202-platina","name":"Platina","municipality_id":"mg-3134202","polling_places":2,"approx":false,"official":true,"method":"official-ibge-cd2022","whole_municipality":false,"approx_coords_only":false,"official_name":"Platina","official_code":"3134202007","match":"direct"},"geometry":{"type":"MultiPolygon","coordinates":[[[[-49.47585,-18.97505],[-49.4696,-18.97048],[-49.46909,-18.97038],[-49.469,-18.97093],[-49.46898,-18.97119],[-49.46887,-18.97143],[-49.46842,-18.97189],[-49.46806,-18.97231],[-49.4678,-18.97266],[-49.46767,-18.97289],[-49.46757,-18.97297],[-49.46739,-18.97322],[-49.46734,-18.97365],[-49.46751,-18.97399],[-49.46775,-18.97417],[-49.46854,-18.97459],[-49.46963,-18.97643],[-49.4704,-18.97658],[-49.47069,-18.97699],[-49.47102,-18.97724],[-49.47127,-18.97739],[-49.4716,-18.97752],[-49.47278,-18.97788],[-49.47382,-18.97929],[-49.47421,-18.97959],[-49.47449,-18.9797],[-49.47477,-18.97975],[-49.47603,-18.97983],[-49.479,-18.97996],[-49.48061,-18.97612],[-49.48056,-18.97595],[-49.48041,-18.97574],[-49.48029,-18.97569],[-49.47784,-18.97549],[-49.47623,-18.97533],[-49.47585,-18.97505]]]]}},{"type":"Feature","properties":{"territory_id":"mg-3134202-progresso","name":"Progresso","municipality_id":"mg-3134202","polling_places":1,"approx":false,"official":true,"method":"official-ibge-cd2022","whole_municipality":false,"approx_coords_only":false,"official_name":"Progresso","official_code":"3134202027","match":"direct"},"geometry":{"type":"MultiPolygon","coordinates":[[[[-49.45508,-18.9723],[-49.4567,-18.9713],[-49.4583,-18.97027],[-49.45882,-18.96991],[-49.45903,-18.96967],[-49.45936,-18.96887],[-49.45956,-18.96862],[-49.45981,-18.96838],[-49.46006,-18.96822],[-49.46035,-18.96798],[-49.46057,-18.96769],[-49.46072,-18.96737],[-49.46079,-18.967],[-49.46083,-18.96664],[-49.46089,-18.96637],[-49.46067,-18.96649],[-49.46046,-18.96649],[-49.46067,-18.9645],[-49.46073,-18.96412],[-49.4608,-18.96393],[-49.46094,-18.96372],[-49.46109,-18.96356],[-49.46124,-18.96344],[-49.4614,-18.96335],[-49.46163,-18.96326],[-49.46201,-18.96316],[-49.46221,-18.96304],[-49.46235,-18.9629],[-49.46254,-18.96262],[-49.46272,-18.96238],[-49.46035,-18.96155],[-49.46042,-18.96129],[-49.45973,-18.95963],[-49.45968,-18.95957],[-49.45965,-18.95966],[-49.45832,-18.96092],[-49.45838,-18.96096],[-49.45842,-18.96108],[-49.45838,-18.96122],[-49.45827,-18.96129],[-49.45814,-18.96131],[-49.45804,-18.96123],[-49.45803,-18.96119],[-49.45268,-18.96623],[-49.45112,-18.97326],[-49.45115,-18.97336],[-49.45122,-18.97352],[-49.45124,-18.97364],[-49.45148,-18.97351],[-49.45228,-18.97316],[-49.45334,-18.97285],[-49.45468,-18.97249],[-49.45508,-18.9723]]]]}},{"type":"Feature","properties":{"territory_id":"mg-3134202-satelite-andradina","name":"Satelite Andradina","municipality_id":"mg-3134202","polling_places":1,"approx":false,"official":true,"method":"official-ibge-cd2022","whole_municipality":false,"approx_coords_only":false,"official_name":"Satélite Andradina","official_code":"3134202009","match":"direct"},"geometry":{"type":"MultiPolygon","coordinates":[[[[-49.4824,-18.96368],[-49.48483,-18.96289],[-49.48275,-18.95692],[-49.48233,-18.95694],[-49.48231,-18.95599],[-49.47763,-18.95626],[-49.47757,-18.9564],[-49.47754,-18.95654],[-49.47755,-18.95669],[-49.47769,-18.95716],[-49.47709,-18.95719],[-49.47416,-18.95993],[-49.47577,-18.96154],[-49.47481,-18.96253],[-49.47553,-18.96291],[-49.47646,-18.96329],[-49.47942,-18.96421],[-49.48172,-18.96495],[-49.48157,-18.96395],[-49.48235,-18.9637],[-49.4824,-18.96368]]]]}},{"type":"Feature","properties":{"territory_id":"mg-3134202-setor-norte","name":"Setor Norte","municipality_id":"mg-3134202","polling_places":1,"approx":false,"official":true,"method":"official-ibge-cd2022","whole_municipality":false,"approx_coords_only":false,"official_name":"Setor Norte","official_code":"3134202058","match":"direct"},"geometry":{"type":"MultiPolygon","coordinates":[[[[-49.4609,-18.96637],[-49.46374,-18.9649],[-49.46378,-18.96497],[-49.46775,-18.96566],[-49.46777,-18.96595],[-49.46788,-18.9662],[-49.46809,-18.96641],[-49.46839,-18.96654],[-49.46869,-18.96652],[-49.46896,-18.96642],[-49.46921,-18.96619],[-49.46931,-18.96592],[-49.46932,-18.96586],[-49.47125,-18.96618],[-49.47156,-18.96627],[-49.47166,-18.96625],[-49.47231,-18.96592],[-49.47251,-18.96555],[-49.47291,-18.96446],[-49.47293,-18.96435],[-49.47306,-18.96403],[-49.47323,-18.96375],[-49.47341,-18.96362],[-49.47386,-18.96351],[-49.47408,-18.96336],[-49.47415,-18.96312],[-49.47396,-18.96292],[-49.47242,-18.96185],[-49.47209,-18.96157],[-49.47178,-18.96126],[-49.47135,-18.96064],[-49.4709,-18.96023],[-49.47052,-18.96003],[-49.47027,-18.95993],[-49.46908,-18.95934],[-49.4689,-18.95915],[-49.46853,-18.95934],[-49.46815,-18.95935],[-49.46762,-18.95899],[-49.4674,-18.95871],[-49.46725,-18.95869],[-49.46676,-18.95897],[-49.46584,-18.9596],[-49.46562,-18.95978],[-49.46537,-18.9598],[-49.46488,-18.96003],[-49.46458,-18.96012],[-49.46415,-18.96043],[-49.46384,-18.96058],[-49.46349,-18.96073],[-49.46327,-18.961],[-49.46314,-18.96141],[-49.46301,-18.96209],[-49.46293,-18.96239],[-49.4629,-18.96244],[-49.46272,-18.96238],[-49.46254,-18.96262],[-49.46235,-18.9629],[-49.46221,-18.96304],[-49.46201,-18.96316],[-49.46163,-18.96326],[-49.4614,-18.96335],[-49.46124,-18.96344],[-49.46109,-18.96356],[-49.46094,-18.96372],[-49.4608,-18.96393],[-49.46073,-18.96412],[-49.46067,-18.9645],[-49.46046,-18.96649],[-49.46067,-18.96649],[-49.46089,-18.96637],[-49.4609,-18.96637]]]]}},{"type":"Feature","properties":{"territory_id":"mg-3134202-setor-sul","name":"Setor Sul","municipality_id":"mg-3134202","polling_places":3,"approx":false,"official":true,"method":"official-ibge-cd2022","whole_municipality":false,"approx_coords_only":false,"official_name":"Setor Sul","official_code":"3134202059","match":"direct"},"geometry":{"type":"MultiPolygon","coordinates":[[[[-49.4592,-18.98231],[-49.45815,-18.98209],[-49.45805,-18.98204],[-49.45699,-18.98184],[-49.45491,-18.98139],[-49.45195,-18.98081],[-49.45173,-18.98072],[-49.45131,-18.98065],[-49.45814,-18.98604],[-49.45825,-18.98613],[-49.45839,-18.98632],[-49.46695,-18.99306],[-49.46788,-18.9887],[-49.46848,-18.98833],[-49.46808,-18.98782],[-49.46886,-18.98424],[-49.46668,-18.98378],[-49.46563,-18.9836],[-49.46177,-18.98283],[-49.4592,-18.98231]]]]}},{"type":"Feature","properties":{"territory_id":"mg-3134202-sol-nascente","name":"Sol Nascente","municipality_id":"mg-3134202","polling_places":1,"approx":false,"official":true,"method":"official-ibge-cd2022","whole_municipality":false,"approx_coords_only":false,"official_name":"Sol Nascente","official_code":"3134202001","match":"direct"},"geometry":{"type":"MultiPolygon","coordinates":[[[[-49.49014,-18.98304],[-49.49138,-18.98305],[-49.4915,-18.98301],[-49.49326,-18.9813],[-49.49264,-18.98001],[-49.48386,-18.98288],[-49.48461,-18.98447],[-49.48801,-18.98303],[-49.49014,-18.98304]]]]}},{"type":"Feature","properties":{"territory_id":"mg-3134202-tupa","name":"Tupã","municipality_id":"mg-3134202","polling_places":1,"approx":false,"official":true,"method":"official-ibge-cd2022","whole_municipality":false,"approx_coords_only":false,"official_name":"Tupã","official_code":"3134202018","match":"direct"},"geometry":{"type":"MultiPolygon","coordinates":[[[[-49.45773,-19.00131],[-49.45837,-19.00092],[-49.45838,-19.00087],[-49.45847,-19.00085],[-49.45869,-19.00069],[-49.45771,-19.00042],[-49.45792,-18.99961],[-49.45657,-18.99927],[-49.45678,-18.99847],[-49.4526,-18.9975],[-49.4524,-18.99826],[-49.45113,-18.99799],[-49.45137,-18.99852],[-49.45152,-18.99844],[-49.45199,-18.99948],[-49.45207,-19.00112],[-49.45178,-19.0021],[-49.44945,-19.00347],[-49.44948,-19.00571],[-49.45455,-19.00343],[-49.45472,-19.00324],[-49.45481,-19.0032],[-49.45486,-19.00304],[-49.45773,-19.00131]]]]}},{"type":"Feature","properties":{"territory_id":"mg-3134202-universitario","name":"Universitario","municipality_id":"mg-3134202","polling_places":2,"approx":false,"official":true,"method":"official-ibge-cd2022","whole_municipality":false,"approx_coords_only":false,"official_name":"Universitário","official_code":"3134202026","match":"direct"},"geometry":{"type":"MultiPolygon","coordinates":[[[[-49.45096,-18.97335],[-49.45112,-18.97326],[-49.45268,-18.96623],[-49.45161,-18.96724],[-49.44795,-18.9637],[-49.4471,-18.96569],[-49.443,-18.96953],[-49.44253,-18.97181],[-49.44605,-18.97522],[-49.44649,-18.9755],[-49.44684,-18.97585],[-49.44706,-18.97609],[-49.4477,-18.97535],[-49.44814,-18.97487],[-49.44836,-18.97465],[-49.44866,-18.97447],[-49.449,-18.9743],[-49.44985,-18.97397],[-49.45005,-18.97388],[-49.45051,-18.9736],[-49.45096,-18.97335]]]]}}]}