{"type":"FeatureCollection","features":[{"type":"Feature","properties":{"territory_id":"mg-3134905-centro","name":"Centro","municipality_id":"mg-3134905","polling_places":3,"approx":true,"official":false,"method":"voronoi-polling-places","whole_municipality":false,"approx_coords_only":false},"geometry":{"type":"MultiPolygon","coordinates":[[[[-46.65685,-22.31618],[-46.63757,-22.37527],[-46.6113,-22.3857],[-46.5697,-22.3801],[-46.5455,-22.3483],[-46.5062,-22.3409],[-46.50891,-22.33608],[-46.61281,-22.28465],[-46.62466,-22.27178],[-46.63262,-22.28462],[-46.65685,-22.31618]]]]}},{"type":"Feature","properties":{"territory_id":"mg-3134905-distrito-de-sapucai","name":"Distrito de Sapucaí","municipality_id":"mg-3134905","polling_places":1,"approx":true,"official":false,"method":"voronoi-polling-places","whole_municipality":false,"approx_coords_only":false},"geometry":{"type":"MultiPolygon","coordinates":[[[[-46.7233,-22.3066],[-46.6609,-22.366],[-46.63757,-22.37527],[-46.65685,-22.31618],[-46.7059,-22.25634],[-46.7069,-22.2579],[-46.7233,-22.3066]]]]}},{"type":"Feature","properties":{"territory_id":"mg-3134905-parque-coronel-renno","name":"Parque Coronel Renno","municipality_id":"mg-3134905","polling_places":1,"approx":true,"official":false,"method":"voronoi-polling-places","whole_municipality":false,"approx_coords_only":false},"geometry":{"type":"MultiPolygon","coordinates":[[[[-46.62466,-22.27178],[-46.61281,-22.28465],[-46.50891,-22.33608],[-46.5293,-22.2999],[-46.52868,-22.29561],[-46.59597,-22.21939],[-46.61175,-22.21885],[-46.62466,-22.27178]]]]}},{"type":"Feature","properties":{"territory_id":"mg-3134905-sao-luiz","name":"São Luiz","municipality_id":"mg-3134905","polling_places":1,"approx":true,"official":false,"method":"voronoi-polling-places","whole_municipality":false,"approx_coords_only":false},"geometry":{"type":"MultiPolygon","coordinates":[[[[-46.7059,-22.25634],[-46.65685,-22.31618],[-46.63262,-22.28462],[-46.62466,-22.27178],[-46.61175,-22.21885],[-46.6803,-22.2165],[-46.7059,-22.25634]]]]}},{"type":"Feature","properties":{"territory_id":"mg-3134905-sao-sebastiao-dos-robertos","name":"São Sebastião dos Robertos","municipality_id":"mg-3134905","polling_places":1,"approx":true,"official":false,"method":"voronoi-polling-places","whole_municipality":false,"approx_coords_only":false},"geometry":{"type":"MultiPolygon","coordinates":[[[[-46.59597,-22.21939],[-46.52868,-22.29561],[-46.5259,-22.2763],[-46.4843,-22.2612],[-46.5055,-22.2081],[-46.4895,-22.1839],[-46.533,-22.1855],[-46.5753,-22.2201],[-46.59597,-22.21939]]]]}}]}