{"type":"FeatureCollection","features":[{"type":"Feature","properties":{"territory_id":"mg-3134707-centro","name":"Centro","municipality_id":"mg-3134707","polling_places":4,"approx":true,"official":false,"method":"voronoi-polling-places","whole_municipality":false,"approx_coords_only":false},"geometry":{"type":"MultiPolygon","coordinates":[[[[-40.39185,-16.12583],[-40.19658,-16.2244],[-40.18824,-16.22893],[-40.1783,-16.2278],[-40.1463,-16.1694],[-40.1351,-16.1269],[-40.1946,-16.1023],[-40.1823,-16.0835],[-40.2041,-16.0254],[-40.1921,-16.0087],[-40.2294,-15.9677],[-40.23816,-15.96792],[-40.32683,-16.06078],[-40.37732,-16.1119],[-40.39185,-16.12583]]]]}},{"type":"Feature","properties":{"territory_id":"mg-3134707-distrito-de-avai","name":"Distrito de Avaí","municipality_id":"mg-3134707","polling_places":1,"approx":true,"official":false,"method":"voronoi-polling-places","whole_municipality":false,"approx_coords_only":false},"geometry":{"type":"MultiPolygon","coordinates":[[[[-40.4978,-15.9728],[-40.4908,-16.0148],[-40.4609,-16.046],[-40.4264,-16.0532],[-40.4162,-16.11817],[-40.39241,-16.12616],[-40.39185,-16.12583],[-40.37732,-16.1119],[-40.32683,-16.06078],[-40.23816,-15.96792],[-40.2606,-15.9685],[-40.3113,-15.9929],[-40.3602,-15.9653],[-40.3638,-15.933],[-40.419,-15.9325],[-40.4978,-15.9728]]]]}},{"type":"Feature","properties":{"territory_id":"mg-3134707-distrito-de-bom-jardim","name":"Distrito de Bom Jardim","municipality_id":"mg-3134707","polling_places":1,"approx":true,"official":false,"method":"voronoi-polling-places","whole_municipality":false,"approx_coords_only":false},"geometry":{"type":"MultiPolygon","coordinates":[[[[-40.43279,-16.28741],[-40.4155,-16.3319],[-40.4307,-16.3821],[-40.4196,-16.428],[-40.4041,-16.3867],[-40.3647,-16.3761],[-40.3494,-16.3967],[-40.2849,-16.3988],[-40.2563,-16.447],[-40.2214,-16.4444],[-40.1545,-16.4173],[-40.167,-16.3844],[-40.21216,-16.31974],[-40.38952,-16.2634],[-40.43279,-16.28741]]]]}},{"type":"Feature","properties":{"territory_id":"mg-3134707-distrito-de-conceicao","name":"Distrito de Conceição","municipality_id":"mg-3134707","polling_places":1,"approx":true,"official":false,"method":"voronoi-polling-places","whole_municipality":false,"approx_coords_only":false},"geometry":{"type":"MultiPolygon","coordinates":[[[[-40.47,-16.1818],[-40.4686,-16.1953],[-40.43279,-16.28741],[-40.38952,-16.2634],[-40.39241,-16.12616],[-40.4162,-16.11817],[-40.4158,-16.1207],[-40.47,-16.1818]]]]}},{"type":"Feature","properties":{"territory_id":"mg-3134707-distrito-de-jaguarao","name":"Distrito de Jaguarão","municipality_id":"mg-3134707","polling_places":1,"approx":true,"official":false,"method":"voronoi-polling-places","whole_municipality":false,"approx_coords_only":true},"geometry":{"type":"MultiPolygon","coordinates":[[[[-40.39241,-16.12616],[-40.38952,-16.2634],[-40.21216,-16.31974],[-40.2168,-16.3131],[-40.2012,-16.2304],[-40.18824,-16.22893],[-40.19658,-16.2244],[-40.39185,-16.12583],[-40.39241,-16.12616]]]]}}]}