{"type":"FeatureCollection","features":[{"type":"Feature","properties":{"territory_id":"mg-3134004-agua-fria-dos-alves","name":"Agua Fria dos Alves","municipality_id":"mg-3134004","polling_places":1,"approx":true,"official":false,"method":"voronoi-polling-places","whole_municipality":false,"approx_coords_only":false},"geometry":{"type":"MultiPolygon","coordinates":[[[[-41.77261,-16.60526],[-41.7682,-16.60408],[-41.7469,-16.59246],[-41.73644,-16.58318],[-41.77159,-16.60328],[-41.77261,-16.60526]]]]}},{"type":"Feature","properties":{"territory_id":"mg-3134004-centro","name":"Centro","municipality_id":"mg-3134004","polling_places":4,"approx":true,"official":false,"method":"voronoi-polling-places","whole_municipality":false,"approx_coords_only":false},"geometry":{"type":"MultiPolygon","coordinates":[[[[-42.0431,-16.5836],[-42.0088,-16.5789],[-41.9891,-16.596],[-41.9719,-16.6426],[-41.96464,-16.64613],[-41.8802,-16.59246],[-41.86699,-16.55603],[-41.9044,-16.47711],[-42.03226,-16.51864],[-42.0418,-16.5494],[-42.0431,-16.5836]]],[[[-41.80256,-16.64257],[-41.74891,-16.59437],[-41.7469,-16.59246],[-41.7682,-16.60408],[-41.77261,-16.60526],[-41.77262,-16.60527],[-41.77181,-16.60608],[-41.77636,-16.60901],[-41.77677,-16.60928],[-41.80256,-16.64257]]],[[[-41.79115,-16.53185],[-41.77453,-16.60481],[-41.77354,-16.60434],[-41.77159,-16.60328],[-41.73644,-16.58318],[-41.69422,-16.54786],[-41.6984,-16.5454],[-41.7125,-16.506],[-41.71238,-16.50537],[-41.79115,-16.53185]]]]}},{"type":"Feature","properties":{"territory_id":"mg-3134004-distrito-do-taquaral","name":"Distrito do Taquaral","municipality_id":"mg-3134004","polling_places":1,"approx":true,"official":false,"method":"voronoi-polling-places","whole_municipality":false,"approx_coords_only":false},"geometry":{"type":"MultiPolygon","coordinates":[[[[-41.96464,-16.64613],[-41.9018,-16.6767],[-41.90002,-16.71309],[-41.79648,-16.77699],[-41.76681,-16.71596],[-41.80098,-16.67229],[-41.81483,-16.65502],[-41.8802,-16.59246],[-41.96464,-16.64613]]]]}},{"type":"Feature","properties":{"territory_id":"mg-3134004-distrito-jacare","name":"Distrito Jacare","municipality_id":"mg-3134004","polling_places":1,"approx":true,"official":false,"method":"voronoi-polling-places","whole_municipality":false,"approx_coords_only":false},"geometry":{"type":"MultiPolygon","coordinates":[[[[-42.1054,-16.4371],[-42.0226,-16.4875],[-42.03226,-16.51864],[-41.9044,-16.47711],[-41.9065,-16.37117],[-41.9497,-16.4018],[-41.9872,-16.3827],[-42.0274,-16.3773],[-42.0937,-16.3883],[-42.1054,-16.4371]]]]}},{"type":"Feature","properties":{"territory_id":"mg-3134004-fazenda-itinguinha","name":"Fazenda Itinguinha","municipality_id":"mg-3134004","polling_places":1,"approx":true,"official":false,"method":"voronoi-polling-places","whole_municipality":false,"approx_coords_only":false},"geometry":{"type":"MultiPolygon","coordinates":[[[[-41.77354,-16.60434],[-41.77262,-16.60527],[-41.77261,-16.60526],[-41.77159,-16.60328],[-41.77354,-16.60434]]]]}},{"type":"Feature","properties":{"territory_id":"mg-3134004-maria-pereira","name":"Maria Pereira","municipality_id":"mg-3134004","polling_places":1,"approx":true,"official":false,"method":"voronoi-polling-places","whole_municipality":false,"approx_coords_only":false},"geometry":{"type":"MultiPolygon","coordinates":[[[[-41.80104,-16.81092],[-41.7976,-16.8115],[-41.757,-16.8647],[-41.6794,-16.8068],[-41.6533,-16.8014],[-41.6488,-16.7649],[-41.6043,-16.6992],[-41.6404,-16.6608],[-41.64042,-16.66067],[-41.76681,-16.71596],[-41.79648,-16.77699],[-41.80104,-16.81092]]]]}},{"type":"Feature","properties":{"territory_id":"mg-3134004-pasmadinho","name":"Pasmadinho","municipality_id":"mg-3134004","polling_places":1,"approx":true,"official":false,"method":"voronoi-polling-places","whole_municipality":false,"approx_coords_only":false},"geometry":{"type":"MultiPolygon","coordinates":[[[[-41.8802,-16.59246],[-41.81483,-16.65502],[-41.80256,-16.64257],[-41.77677,-16.60928],[-41.77453,-16.60481],[-41.79115,-16.53185],[-41.86699,-16.55603],[-41.8802,-16.59246]]]]}},{"type":"Feature","properties":{"territory_id":"mg-3134004-piaui","name":"Piaui","municipality_id":"mg-3134004","polling_places":1,"approx":true,"official":false,"method":"voronoi-polling-places","whole_municipality":false,"approx_coords_only":false},"geometry":{"type":"MultiPolygon","coordinates":[[[[-41.9124,-16.7892],[-41.8979,-16.811],[-41.8528,-16.8022],[-41.80104,-16.81092],[-41.79648,-16.77699],[-41.90002,-16.71309],[-41.8993,-16.7278],[-41.9124,-16.7892]]]]}},{"type":"Feature","properties":{"territory_id":"mg-3134004-ponto-do-pasmado","name":"Ponto do Pasmado","municipality_id":"mg-3134004","polling_places":1,"approx":true,"official":false,"method":"voronoi-polling-places","whole_municipality":false,"approx_coords_only":false},"geometry":{"type":"MultiPolygon","coordinates":[[[[-41.77677,-16.60928],[-41.77636,-16.60901],[-41.77262,-16.60527],[-41.77354,-16.60434],[-41.77453,-16.60481],[-41.77677,-16.60928]]]]}},{"type":"Feature","properties":{"territory_id":"mg-3134004-porto-alegre","name":"Porto Alegre","municipality_id":"mg-3134004","polling_places":1,"approx":true,"official":false,"method":"voronoi-polling-places","whole_municipality":false,"approx_coords_only":false},"geometry":{"type":"MultiPolygon","coordinates":[[[[-41.81483,-16.65502],[-41.80098,-16.67229],[-41.74891,-16.59437],[-41.80256,-16.64257],[-41.81483,-16.65502]]]]}},{"type":"Feature","properties":{"territory_id":"mg-3134004-povoado-barra-corrente","name":"Povoado Barra Corrente","municipality_id":"mg-3134004","polling_places":1,"approx":true,"official":false,"method":"voronoi-polling-places","whole_municipality":false,"approx_coords_only":false},"geometry":{"type":"MultiPolygon","coordinates":[[[[-41.9065,-16.37117],[-41.9044,-16.47711],[-41.86699,-16.55603],[-41.79115,-16.53185],[-41.71238,-16.50537],[-41.7027,-16.4524],[-41.7229,-16.4256],[-41.7618,-16.4133],[-41.8042,-16.3728],[-41.8444,-16.3551],[-41.8718,-16.3753],[-41.8976,-16.337],[-41.8954,-16.3633],[-41.9065,-16.37117]]]]}},{"type":"Feature","properties":{"territory_id":"mg-3134004-povoado-do-jenipapo","name":"Povoado do Jenipapo","municipality_id":"mg-3134004","polling_places":1,"approx":true,"official":false,"method":"voronoi-polling-places","whole_municipality":false,"approx_coords_only":false},"geometry":{"type":"MultiPolygon","coordinates":[[[[-41.80098,-16.67229],[-41.76681,-16.71596],[-41.64042,-16.66067],[-41.6517,-16.5729],[-41.69422,-16.54786],[-41.73644,-16.58318],[-41.7469,-16.59246],[-41.74891,-16.59437],[-41.80098,-16.67229]]]]}},{"type":"Feature","properties":{"territory_id":"mg-3134004-teixeirinha","name":"Teixeirinha","municipality_id":"mg-3134004","polling_places":1,"approx":true,"official":false,"method":"voronoi-polling-places","whole_municipality":false,"approx_coords_only":false},"geometry":{"type":"MultiPolygon","coordinates":[[[[-41.77636,-16.60901],[-41.77181,-16.60608],[-41.77262,-16.60527],[-41.77636,-16.60901]]]]}}]}