{"type":"FeatureCollection","features":[{"type":"Feature","properties":{"territory_id":"mg-3134301-centro","name":"Centro","municipality_id":"mg-3134301","polling_places":2,"approx":true,"official":false,"method":"voronoi-polling-places","whole_municipality":false,"approx_coords_only":false},"geometry":{"type":"MultiPolygon","coordinates":[[[[-44.9042,-21.3428],[-44.8785,-21.3634],[-44.8363,-21.3675],[-44.8179,-21.3933],[-44.79061,-21.37474],[-44.81394,-21.3041],[-44.81704,-21.29428],[-44.87193,-21.26913],[-44.8821,-21.3118],[-44.9042,-21.3428]]]]}},{"type":"Feature","properties":{"territory_id":"mg-3134301-distrito-de-macuco-de-minas-centro","name":"Distrito de Macuco de Minas (centro)","municipality_id":"mg-3134301","polling_places":1,"approx":true,"official":false,"method":"voronoi-polling-places","whole_municipality":false,"approx_coords_only":false},"geometry":{"type":"MultiPolygon","coordinates":[[[[-44.81704,-21.29428],[-44.81394,-21.3041],[-44.79061,-21.37474],[-44.7713,-21.3616],[-44.7536,-21.2801],[-44.7596,-21.2348],[-44.7738,-21.21321],[-44.81704,-21.29428]]]]}},{"type":"Feature","properties":{"territory_id":"mg-3134301-povoado-do-rosario-zona-rural","name":"Povoado do Rosário (zona Rural)","municipality_id":"mg-3134301","polling_places":1,"approx":true,"official":false,"method":"voronoi-polling-places","whole_municipality":false,"approx_coords_only":false},"geometry":{"type":"MultiPolygon","coordinates":[[[[-44.87193,-21.26913],[-44.81704,-21.29428],[-44.7738,-21.21321],[-44.7767,-21.2088],[-44.8096,-21.2211],[-44.8478,-21.194],[-44.8634,-21.1667],[-44.8693,-21.2122],[-44.8648,-21.2392],[-44.87193,-21.26913]]]]}}]}