{"type":"FeatureCollection","features":[{"type":"Feature","properties":{"territory_id":"mg-3134400-bom-sucesso","name":"Bom Sucesso","municipality_id":"mg-3134400","polling_places":1,"approx":true,"official":false,"method":"voronoi-polling-places","whole_municipality":false,"approx_coords_only":false},"geometry":{"type":"MultiPolygon","coordinates":[[[[-50.18722,-19.73544],[-50.0996,-19.8627],[-50.0831,-19.8337],[-50.0909,-19.7695],[-50.1162,-19.7508],[-50.14358,-19.67478],[-50.18722,-19.73544]]]]}},{"type":"Feature","properties":{"territory_id":"mg-3134400-centro","name":"Centro","municipality_id":"mg-3134400","polling_places":2,"approx":true,"official":false,"method":"voronoi-polling-places","whole_municipality":false,"approx_coords_only":false},"geometry":{"type":"MultiPolygon","coordinates":[[[[-50.6922,-19.5742],[-50.6632,-19.6262],[-50.6008,-19.6524],[-50.6161,-19.6883],[-50.6064,-19.7221],[-50.5726,-19.7598],[-50.562,-19.8136],[-50.4693,-19.7799],[-50.4541,-19.7862],[-50.4171,-19.8011],[-50.3653,-19.84556],[-50.32683,-19.67958],[-50.31145,-19.56763],[-50.3432,-19.5499],[-50.3638,-19.5803],[-50.4169,-19.5924],[-50.4548,-19.5809],[-50.4985,-19.5921],[-50.5175,-19.6132],[-50.5787,-19.6096],[-50.6922,-19.5742]]],[[[-50.20236,-19.74172],[-50.1889,-19.73428],[-50.19237,-19.72976],[-50.20216,-19.72927],[-50.20227,-19.72943],[-50.20236,-19.74172]]]]}},{"type":"Feature","properties":{"territory_id":"mg-3134400-conj-hab-tiradentes","name":"Conj Hab Tiradentes","municipality_id":"mg-3134400","polling_places":1,"approx":true,"official":false,"method":"voronoi-polling-places","whole_municipality":false,"approx_coords_only":false},"geometry":{"type":"MultiPolygon","coordinates":[[[[-50.19237,-19.72976],[-50.1889,-19.73428],[-50.18722,-19.73544],[-50.14358,-19.67478],[-50.16,-19.6292],[-50.1701,-19.61625],[-50.19237,-19.72976]]]]}},{"type":"Feature","properties":{"territory_id":"mg-3134400-jardim-america","name":"Jardim América","municipality_id":"mg-3134400","polling_places":1,"approx":true,"official":false,"method":"voronoi-polling-places","whole_municipality":false,"approx_coords_only":false},"geometry":{"type":"MultiPolygon","coordinates":[[[[-50.26482,-19.59267],[-50.20216,-19.72927],[-50.19237,-19.72976],[-50.1701,-19.61625],[-50.2145,-19.5593],[-50.2348,-19.5842],[-50.26482,-19.59267]]]]}},{"type":"Feature","properties":{"territory_id":"mg-3134400-recanto-dos-lagos","name":"Recanto dos Lagos","municipality_id":"mg-3134400","polling_places":1,"approx":true,"official":false,"method":"voronoi-polling-places","whole_municipality":false,"approx_coords_only":false},"geometry":{"type":"MultiPolygon","coordinates":[[[[-50.32683,-19.67958],[-50.21787,-19.73697],[-50.20227,-19.72943],[-50.20216,-19.72927],[-50.26482,-19.59267],[-50.266,-19.593],[-50.31145,-19.56763],[-50.32683,-19.67958]]]]}},{"type":"Feature","properties":{"territory_id":"mg-3134400-santa-rosa","name":"Santa Rosa","municipality_id":"mg-3134400","polling_places":1,"approx":true,"official":false,"method":"voronoi-polling-places","whole_municipality":false,"approx_coords_only":false},"geometry":{"type":"MultiPolygon","coordinates":[[[[-50.21787,-19.73697],[-50.20674,-19.75011],[-50.20236,-19.74172],[-50.20227,-19.72943],[-50.21787,-19.73697]]]]}},{"type":"Feature","properties":{"territory_id":"mg-3134400-sao-miguel","name":"São Miguel","municipality_id":"mg-3134400","polling_places":1,"approx":true,"official":false,"method":"voronoi-polling-places","whole_municipality":false,"approx_coords_only":false},"geometry":{"type":"MultiPolygon","coordinates":[[[[-50.20674,-19.75011],[-50.17121,-19.87549],[-50.1062,-19.8743],[-50.0996,-19.8627],[-50.18722,-19.73544],[-50.1889,-19.73428],[-50.20236,-19.74172],[-50.20674,-19.75011]]]]}},{"type":"Feature","properties":{"territory_id":"mg-3134400-zona-rural","name":"Zona Rural","municipality_id":"mg-3134400","polling_places":1,"approx":true,"official":false,"method":"voronoi-polling-places","whole_municipality":false,"approx_coords_only":false},"geometry":{"type":"MultiPolygon","coordinates":[[[[-50.3653,-19.84556],[-50.3374,-19.8695],[-50.2452,-19.8768],[-50.2157,-19.8666],[-50.1718,-19.8755],[-50.17121,-19.87549],[-50.20674,-19.75011],[-50.21787,-19.73697],[-50.32683,-19.67958],[-50.3653,-19.84556]]]]}}]}