{"type":"FeatureCollection","features":[{"type":"Feature","properties":{"territory_id":"mg-3134509-centro","name":"Centro","municipality_id":"mg-3134509","polling_places":2,"approx":true,"official":false,"method":"voronoi-polling-places","whole_municipality":true,"approx_coords_only":false},"geometry":{"type":"MultiPolygon","coordinates":[[[[-44.6024,-21.3466],[-44.5987,-21.3077],[-44.6573,-21.275],[-44.6904,-21.2176],[-44.7329,-21.2116],[-44.7596,-21.2348],[-44.7536,-21.2801],[-44.7713,-21.3616],[-44.8179,-21.3933],[-44.8133,-21.4691],[-44.7633,-21.4778],[-44.7651,-21.4432],[-44.716,-21.4374],[-44.6384,-21.4493],[-44.6486,-21.4056],[-44.6087,-21.3713],[-44.6024,-21.3466]]]]}}]}