{"type":"FeatureCollection","features":[{"type":"Feature","properties":{"territory_id":"mg-3135605-centro","name":"Centro","municipality_id":"mg-3135605","polling_places":3,"approx":true,"official":false,"method":"voronoi-polling-places","whole_municipality":false,"approx_coords_only":false},"geometry":{"type":"MultiPolygon","coordinates":[[[[-44.6878,-17.2205],[-44.6522,-17.2842],[-44.6142,-17.3281],[-44.6251,-17.365],[-44.5868,-17.3946],[-44.5775,-17.3677],[-44.534,-17.4125],[-44.5184,-17.4026],[-44.4843,-17.4456],[-44.4338,-17.4559],[-44.4203,-17.4472],[-44.4223,-17.3585],[-44.4051,-17.3071],[-44.375,-17.3027],[-44.3574,-17.2582],[-44.35251,-17.2567],[-44.42972,-17.04671],[-44.4624,-17.0731],[-44.5738,-17.0765],[-44.6091,-17.1032],[-44.6497,-17.1681],[-44.6789,-17.1816],[-44.6878,-17.2205]]]]}},{"type":"Feature","properties":{"territory_id":"mg-3135605-zona-rural","name":"Zona Rural","municipality_id":"mg-3135605","polling_places":1,"approx":true,"official":false,"method":"voronoi-polling-places","whole_municipality":false,"approx_coords_only":false},"geometry":{"type":"MultiPolygon","coordinates":[[[[-44.42972,-17.04671],[-44.35251,-17.2567],[-44.329,-17.2495],[-44.3055,-17.1963],[-44.2694,-17.158],[-44.3263,-17.1307],[-44.3504,-17.1093],[-44.3332,-17.0456],[-44.2965,-17.0206],[-44.283,-16.9926],[-44.3323,-16.9458],[-44.3481,-16.9509],[-44.4068,-17.0282],[-44.42972,-17.04671]]]]}}]}