{"type":"FeatureCollection","features":[{"type":"Feature","properties":{"territory_id":"mg-3135357-centro","name":"Centro","municipality_id":"mg-3135357","polling_places":2,"approx":true,"official":false,"method":"voronoi-polling-places","whole_municipality":false,"approx_coords_only":false},"geometry":{"type":"MultiPolygon","coordinates":[[[[-44.30614,-16.01472],[-44.30453,-16.04524],[-44.226,-16.0817],[-44.2085,-16.03009],[-44.27262,-15.99858],[-44.28049,-15.99243],[-44.29728,-16.00711],[-44.30614,-16.01472]]]]}},{"type":"Feature","properties":{"territory_id":"mg-3135357-distrito-nova-minda","name":"Distrito Nova Minda","municipality_id":"mg-3135357","polling_places":2,"approx":true,"official":false,"method":"voronoi-polling-places","whole_municipality":false,"approx_coords_only":false},"geometry":{"type":"MultiPolygon","coordinates":[[[[-44.4386,-15.8511],[-44.4198,-15.8598],[-44.4114,-15.9287],[-44.4302,-15.9732],[-44.4022,-16.0081],[-44.3712,-15.9953],[-44.36849,-15.99634],[-44.35701,-15.98445],[-44.36722,-15.93085],[-44.32843,-15.92129],[-44.3366,-15.9188],[-44.3643,-15.8923],[-44.3442,-15.8239],[-44.3689,-15.7851],[-44.4272,-15.8054],[-44.4386,-15.8511]]]]}},{"type":"Feature","properties":{"territory_id":"mg-3135357-zona-rural","name":"Zona Rural","municipality_id":"mg-3135357","polling_places":7,"approx":true,"official":false,"method":"voronoi-polling-places","whole_municipality":false,"approx_coords_only":false},"geometry":{"type":"MultiPolygon","coordinates":[[[[-44.36849,-15.99634],[-44.3298,-16.0112],[-44.3143,-16.0407],[-44.30453,-16.04524],[-44.30614,-16.01472],[-44.29728,-16.00711],[-44.28049,-15.99243],[-44.27262,-15.99858],[-44.2085,-16.03009],[-44.2063,-16.0236],[-44.2357,-15.9805],[-44.2016,-15.9383],[-44.2289,-15.9058],[-44.2982,-15.9305],[-44.32843,-15.92129],[-44.36722,-15.93085],[-44.35701,-15.98445],[-44.36849,-15.99634]]]]}}]}