{"type":"FeatureCollection","features":[{"type":"Feature","properties":{"territory_id":"mg-3135100-algodoes","name":"Algodões","municipality_id":"mg-3135100","polling_places":1,"approx":true,"official":false,"method":"voronoi-polling-places","whole_municipality":false,"approx_coords_only":false},"geometry":{"type":"MultiPolygon","coordinates":[[[[-43.30983,-15.83994],[-43.24993,-15.87316],[-43.23162,-15.87501],[-43.20666,-15.8648],[-43.2132,-15.84076],[-43.29282,-15.83211],[-43.30983,-15.83994]]]]}},{"type":"Feature","properties":{"territory_id":"mg-3135100-barbosas","name":"Barbosas","municipality_id":"mg-3135100","polling_places":1,"approx":true,"official":false,"method":"voronoi-polling-places","whole_municipality":false,"approx_coords_only":false},"geometry":{"type":"MultiPolygon","coordinates":[[[[-43.36222,-15.75924],[-43.33623,-15.78395],[-43.31464,-15.78642],[-43.31385,-15.78572],[-43.317,-15.7809],[-43.30522,-15.75454],[-43.3282,-15.74964],[-43.36222,-15.75924]]]]}},{"type":"Feature","properties":{"territory_id":"mg-3135100-boa-vista","name":"Boa Vista","municipality_id":"mg-3135100","polling_places":1,"approx":true,"official":false,"method":"voronoi-polling-places","whole_municipality":false,"approx_coords_only":false},"geometry":{"type":"MultiPolygon","coordinates":[[[[-43.33432,-15.78776],[-43.33059,-15.81],[-43.32258,-15.80503],[-43.31903,-15.7975],[-43.33432,-15.78776]]]]}},{"type":"Feature","properties":{"territory_id":"mg-3135100-centro","name":"Centro","municipality_id":"mg-3135100","polling_places":6,"approx":true,"official":false,"method":"voronoi-polling-places","whole_municipality":false,"approx_coords_only":false},"geometry":{"type":"MultiPolygon","coordinates":[[[[-43.31492,-15.80728],[-43.31211,-15.81003],[-43.31073,-15.81373],[-43.30611,-15.8134],[-43.30488,-15.8134],[-43.30211,-15.8124],[-43.29709,-15.81136],[-43.30686,-15.79641],[-43.30751,-15.79649],[-43.31172,-15.80062],[-43.31206,-15.80063],[-43.31492,-15.80728]]]]}},{"type":"Feature","properties":{"territory_id":"mg-3135100-ceramica","name":"Cerâmica","municipality_id":"mg-3135100","polling_places":1,"approx":true,"official":false,"method":"voronoi-polling-places","whole_municipality":false,"approx_coords_only":false},"geometry":{"type":"MultiPolygon","coordinates":[[[[-43.3353,-15.81974],[-43.31263,-15.81604],[-43.31073,-15.81373],[-43.31211,-15.81003],[-43.31492,-15.80728],[-43.32258,-15.80503],[-43.33059,-15.81],[-43.3353,-15.81974]]]]}},{"type":"Feature","properties":{"territory_id":"mg-3135100-dente-grande","name":"Dente Grande","municipality_id":"mg-3135100","polling_places":1,"approx":true,"official":false,"method":"voronoi-polling-places","whole_municipality":false,"approx_coords_only":false},"geometry":{"type":"MultiPolygon","coordinates":[[[[-43.38142,-15.86857],[-43.31857,-15.83985],[-43.31028,-15.8241],[-43.31263,-15.81604],[-43.3353,-15.81974],[-43.38142,-15.86857]]]]}},{"type":"Feature","properties":{"territory_id":"mg-3135100-distrito-barreiro-da-raiz","name":"Distrito Barreiro da Raiz","municipality_id":"mg-3135100","polling_places":1,"approx":true,"official":false,"method":"voronoi-polling-places","whole_municipality":false,"approx_coords_only":false},"geometry":{"type":"MultiPolygon","coordinates":[[[[-43.34877,-16.11835],[-43.3342,-16.1164],[-43.2995,-16.1293],[-43.2603,-16.1211],[-43.2692,-16.0802],[-43.231,-16.0419],[-43.22232,-16.00693],[-43.31516,-15.98642],[-43.34877,-16.11835]]]]}},{"type":"Feature","properties":{"territory_id":"mg-3135100-distrito-quem-quem","name":"Distrito Quem-quem","municipality_id":"mg-3135100","polling_places":1,"approx":true,"official":false,"method":"voronoi-polling-places","whole_municipality":false,"approx_coords_only":false},"geometry":{"type":"MultiPolygon","coordinates":[[[[-43.6166,-15.8248],[-43.6131,-15.8621],[-43.5574,-15.91],[-43.542,-15.9533],[-43.5566,-16.005],[-43.5276,-16.0867],[-43.49,-16.0974],[-43.46332,-16.08406],[-43.44017,-15.90163],[-43.44438,-15.89271],[-43.46541,-15.87277],[-43.6166,-15.8248]]]]}},{"type":"Feature","properties":{"territory_id":"mg-3135100-distrito-vila-nova-dos-pocoes","name":"Distrito Vila Nova dos Poções","municipality_id":"mg-3135100","polling_places":1,"approx":true,"official":false,"method":"voronoi-polling-places","whole_municipality":false,"approx_coords_only":false},"geometry":{"type":"MultiPolygon","coordinates":[[[[-43.42191,-15.6069],[-43.39745,-15.64743],[-43.3151,-15.68406],[-43.30022,-15.68492],[-43.3013,-15.6684],[-43.2772,-15.606],[-43.27821,-15.55852],[-43.42191,-15.6069]]]]}},{"type":"Feature","properties":{"territory_id":"mg-3135100-gameleira","name":"Gameleira","municipality_id":"mg-3135100","polling_places":1,"approx":true,"official":false,"method":"voronoi-polling-places","whole_municipality":false,"approx_coords_only":false},"geometry":{"type":"MultiPolygon","coordinates":[[[[-43.31505,-15.79135],[-43.30751,-15.79649],[-43.30686,-15.79641],[-43.31385,-15.78572],[-43.31464,-15.78642],[-43.31505,-15.79135]]]]}},{"type":"Feature","properties":{"territory_id":"mg-3135100-padre-eustaquio","name":"Padre Eustáquio","municipality_id":"mg-3135100","polling_places":2,"approx":true,"official":false,"method":"voronoi-polling-places","whole_municipality":false,"approx_coords_only":false},"geometry":{"type":"MultiPolygon","coordinates":[[[[-43.32258,-15.80503],[-43.31492,-15.80728],[-43.31206,-15.80063],[-43.31172,-15.80062],[-43.30751,-15.79649],[-43.31505,-15.79135],[-43.31829,-15.79711],[-43.31903,-15.7975],[-43.32258,-15.80503]]]]}},{"type":"Feature","properties":{"territory_id":"mg-3135100-residencial-dona-lindu","name":"Residencial Dona Lindu","municipality_id":"mg-3135100","polling_places":1,"approx":true,"official":false,"method":"voronoi-polling-places","whole_municipality":false,"approx_coords_only":false},"geometry":{"type":"MultiPolygon","coordinates":[[[[-43.38446,-15.87079],[-43.24993,-15.87316],[-43.30983,-15.83994],[-43.31714,-15.8397],[-43.31857,-15.83985],[-43.38142,-15.86857],[-43.38446,-15.87079]]]]}},{"type":"Feature","properties":{"territory_id":"mg-3135100-ribeirao-do-ouro","name":"Ribeirão do Ouro","municipality_id":"mg-3135100","polling_places":1,"approx":true,"official":false,"method":"voronoi-polling-places","whole_municipality":false,"approx_coords_only":false},"geometry":{"type":"MultiPolygon","coordinates":[[[[-43.31857,-15.83985],[-43.31714,-15.8397],[-43.30077,-15.82649],[-43.30178,-15.82466],[-43.30386,-15.82364],[-43.31028,-15.8241],[-43.31857,-15.83985]]]]}},{"type":"Feature","properties":{"territory_id":"mg-3135100-rio-novo","name":"Rio Novo","municipality_id":"mg-3135100","polling_places":1,"approx":true,"official":false,"method":"voronoi-polling-places","whole_municipality":false,"approx_coords_only":false},"geometry":{"type":"MultiPolygon","coordinates":[[[[-43.33623,-15.78395],[-43.33432,-15.78776],[-43.31903,-15.7975],[-43.31829,-15.79711],[-43.31505,-15.79135],[-43.31464,-15.78642],[-43.33623,-15.78395]]]]}},{"type":"Feature","properties":{"territory_id":"mg-3135100-santa-cruz","name":"Santa Cruz","municipality_id":"mg-3135100","polling_places":1,"approx":true,"official":false,"method":"voronoi-polling-places","whole_municipality":false,"approx_coords_only":false},"geometry":{"type":"MultiPolygon","coordinates":[[[[-43.31714,-15.8397],[-43.30983,-15.83994],[-43.29282,-15.83211],[-43.30077,-15.82649],[-43.31714,-15.8397]]]]}},{"type":"Feature","properties":{"territory_id":"mg-3135100-santo-antonio","name":"Santo Antônio","municipality_id":"mg-3135100","polling_places":2,"approx":true,"official":false,"method":"voronoi-polling-places","whole_municipality":false,"approx_coords_only":false},"geometry":{"type":"MultiPolygon","coordinates":[[[[-43.30488,-15.8134],[-43.30386,-15.82364],[-43.30178,-15.82466],[-43.30077,-15.82649],[-43.29282,-15.83211],[-43.2132,-15.84076],[-43.2162,-15.8297],[-43.2623,-15.8285],[-43.2889,-15.8239],[-43.29709,-15.81136],[-43.30211,-15.8124],[-43.30488,-15.8134]]]]}},{"type":"Feature","properties":{"territory_id":"mg-3135100-sao-lucas","name":"São Lucas","municipality_id":"mg-3135100","polling_places":1,"approx":true,"official":false,"method":"voronoi-polling-places","whole_municipality":false,"approx_coords_only":false},"geometry":{"type":"MultiPolygon","coordinates":[[[[-43.46541,-15.87277],[-43.44438,-15.89271],[-43.38446,-15.87079],[-43.38142,-15.86857],[-43.3353,-15.81974],[-43.33059,-15.81],[-43.33432,-15.78776],[-43.33623,-15.78395],[-43.36222,-15.75924],[-43.38764,-15.75858],[-43.46541,-15.87277]]]]}},{"type":"Feature","properties":{"territory_id":"mg-3135100-saudade","name":"Saudade","municipality_id":"mg-3135100","polling_places":1,"approx":true,"official":false,"method":"voronoi-polling-places","whole_municipality":false,"approx_coords_only":false},"geometry":{"type":"MultiPolygon","coordinates":[[[[-43.31263,-15.81604],[-43.31028,-15.8241],[-43.30386,-15.82364],[-43.30488,-15.8134],[-43.30611,-15.8134],[-43.31073,-15.81373],[-43.31263,-15.81604]]]]}},{"type":"Feature","properties":{"territory_id":"mg-3135100-veredas","name":"Veredas","municipality_id":"mg-3135100","polling_places":1,"approx":true,"official":false,"method":"voronoi-polling-places","whole_municipality":false,"approx_coords_only":true},"geometry":{"type":"MultiPolygon","coordinates":[[[[-43.6203,-15.7854],[-43.6166,-15.8248],[-43.46541,-15.87277],[-43.38764,-15.75858],[-43.39745,-15.64743],[-43.42191,-15.6069],[-43.44966,-15.5952],[-43.5085,-15.6624],[-43.6026,-15.7206],[-43.5939,-15.7537],[-43.6203,-15.7854]]]]}},{"type":"Feature","properties":{"territory_id":"mg-3135100-zona-rural","name":"Zona Rural","municipality_id":"mg-3135100","polling_places":10,"approx":true,"official":false,"method":"voronoi-polling-places","whole_municipality":false,"approx_coords_only":false},"geometry":{"type":"MultiPolygon","coordinates":[[[[-43.46332,-16.08406],[-43.4624,-16.0836],[-43.3893,-16.0999],[-43.3724,-16.1215],[-43.34877,-16.11835],[-43.31516,-15.98642],[-43.22232,-16.00693],[-43.215,-15.9774],[-43.2263,-15.9345],[-43.2077,-15.9099],[-43.2043,-15.8735],[-43.20666,-15.8648],[-43.23162,-15.87501],[-43.24993,-15.87316],[-43.38446,-15.87079],[-43.44438,-15.89271],[-43.44017,-15.90163],[-43.46332,-16.08406]]],[[[-43.44966,-15.5952],[-43.42191,-15.6069],[-43.27821,-15.55852],[-43.2789,-15.5257],[-43.2542,-15.4791],[-43.2945,-15.4127],[-43.2896,-15.3934],[-43.3115,-15.3271],[-43.4426,-15.359],[-43.401,-15.3897],[-43.3836,-15.4403],[-43.3632,-15.467],[-43.3879,-15.4997],[-43.3931,-15.5306],[-43.44966,-15.5952]]],[[[-43.39745,-15.64743],[-43.38764,-15.75858],[-43.36222,-15.75924],[-43.3282,-15.74964],[-43.30522,-15.75454],[-43.2969,-15.7359],[-43.30022,-15.68492],[-43.3151,-15.68406],[-43.39745,-15.64743]]]]}}]}