{"type":"FeatureCollection","features":[{"type":"Feature","properties":{"territory_id":"mg-3135902-bananal-rural","name":"Bananal-rural","municipality_id":"mg-3135902","polling_places":1,"approx":true,"official":false,"method":"voronoi-polling-places","whole_municipality":false,"approx_coords_only":false},"geometry":{"type":"MultiPolygon","coordinates":[[[[-45.3709,-22.0822],[-45.3365,-22.1031],[-45.27148,-22.05139],[-45.29948,-22.03882],[-45.32363,-22.03062],[-45.3242,-22.0343],[-45.3642,-22.0742],[-45.3709,-22.0822]]]]}},{"type":"Feature","properties":{"territory_id":"mg-3135902-centro","name":"Centro","municipality_id":"mg-3135902","polling_places":1,"approx":true,"official":false,"method":"voronoi-polling-places","whole_municipality":false,"approx_coords_only":false},"geometry":{"type":"MultiPolygon","coordinates":[[[[-45.29948,-22.03882],[-45.27148,-22.05139],[-45.2603,-22.0425],[-45.2367,-22.0405],[-45.2103,-22.0176],[-45.2004,-21.9854],[-45.2169,-21.9611],[-45.2157,-21.9097],[-45.25856,-21.94026],[-45.2938,-22.00665],[-45.29948,-22.03882]]]]}},{"type":"Feature","properties":{"territory_id":"mg-3135902-jardim-rural","name":"Jardim - Rural","municipality_id":"mg-3135902","polling_places":1,"approx":true,"official":false,"method":"voronoi-polling-places","whole_municipality":false,"approx_coords_only":false},"geometry":{"type":"MultiPolygon","coordinates":[[[[-45.2938,-22.00665],[-45.25856,-21.94026],[-45.2704,-21.9487],[-45.29069,-21.96554],[-45.2938,-22.00665]]]]}},{"type":"Feature","properties":{"territory_id":"mg-3135902-santa-filomena","name":"Santa Filomena","municipality_id":"mg-3135902","polling_places":1,"approx":true,"official":false,"method":"voronoi-polling-places","whole_municipality":false,"approx_coords_only":false},"geometry":{"type":"MultiPolygon","coordinates":[[[[-45.32363,-22.03062],[-45.29948,-22.03882],[-45.2938,-22.00665],[-45.29069,-21.96554],[-45.3169,-21.9873],[-45.32363,-22.03062]]]]}}]}