{"type":"FeatureCollection","features":[{"type":"Feature","properties":{"territory_id":"mg-3135704-bebedouro","name":"Bebedouro","municipality_id":"mg-3135704","polling_places":1,"approx":true,"official":false,"method":"voronoi-polling-places","whole_municipality":false,"approx_coords_only":false},"geometry":{"type":"MultiPolygon","coordinates":[[[[-44.0412,-19.079],[-44.0264,-19.1042],[-44.03614,-19.12209],[-44.01223,-19.15755],[-43.97971,-19.13184],[-44.012,-19.084],[-44.0412,-19.079]]]]}},{"type":"Feature","properties":{"territory_id":"mg-3135704-brejinho","name":"Brejinho","municipality_id":"mg-3135704","polling_places":1,"approx":true,"official":false,"method":"voronoi-polling-places","whole_municipality":false,"approx_coords_only":false},"geometry":{"type":"MultiPolygon","coordinates":[[[[-44.02171,-19.19456],[-43.98034,-19.23089],[-43.95466,-19.24188],[-43.93959,-19.18172],[-44.01273,-19.16196],[-44.01895,-19.17459],[-44.02171,-19.19456]]]]}},{"type":"Feature","properties":{"territory_id":"mg-3135704-centro","name":"Centro","municipality_id":"mg-3135704","polling_places":2,"approx":true,"official":false,"method":"voronoi-polling-places","whole_municipality":false,"approx_coords_only":false},"geometry":{"type":"MultiPolygon","coordinates":[[[[-44.07479,-19.2752],[-44.01378,-19.24554],[-43.98034,-19.23089],[-44.02171,-19.19456],[-44.06178,-19.21342],[-44.07445,-19.21913],[-44.07479,-19.2752]]]]}},{"type":"Feature","properties":{"territory_id":"mg-3135704-doutor-campolina","name":"Doutor Campolina","municipality_id":"mg-3135704","polling_places":1,"approx":true,"official":false,"method":"voronoi-polling-places","whole_municipality":false,"approx_coords_only":false},"geometry":{"type":"MultiPolygon","coordinates":[[[[-44.07085,-19.30307],[-44.0583,-19.3305],[-44.0063,-19.3334],[-43.9897,-19.3366],[-43.9913,-19.28175],[-44.07085,-19.30307]]]]}},{"type":"Feature","properties":{"territory_id":"mg-3135704-lagoa-de-santo-antonio","name":"Lagoa de Santo Antônio","municipality_id":"mg-3135704","polling_places":1,"approx":true,"official":false,"method":"voronoi-polling-places","whole_municipality":false,"approx_coords_only":false},"geometry":{"type":"MultiPolygon","coordinates":[[[[-44.08022,-19.29673],[-44.0728,-19.2988],[-44.07085,-19.30307],[-43.9913,-19.28175],[-43.9918,-19.2644],[-43.94959,-19.2515],[-43.95466,-19.24188],[-43.98034,-19.23089],[-44.01378,-19.24554],[-44.07479,-19.2752],[-44.08022,-19.29673]]]]}},{"type":"Feature","properties":{"territory_id":"mg-3135704-onca","name":"Onça","municipality_id":"mg-3135704","polling_places":1,"approx":true,"official":false,"method":"voronoi-polling-places","whole_municipality":false,"approx_coords_only":false},"geometry":{"type":"MultiPolygon","coordinates":[[[[-44.01273,-19.16196],[-43.93959,-19.18172],[-43.93514,-19.17445],[-43.93115,-19.14998],[-43.93418,-19.13073],[-43.969,-19.1477],[-43.97971,-19.13184],[-44.01223,-19.15755],[-44.01273,-19.16196]]]]}},{"type":"Feature","properties":{"territory_id":"mg-3135704-perobas","name":"Perobas","municipality_id":"mg-3135704","polling_places":1,"approx":true,"official":false,"method":"voronoi-polling-places","whole_municipality":false,"approx_coords_only":false},"geometry":{"type":"MultiPolygon","coordinates":[[[[-43.93514,-19.17445],[-43.84245,-19.2075],[-43.83963,-19.16908],[-43.93115,-19.14998],[-43.93514,-19.17445]]]]}},{"type":"Feature","properties":{"territory_id":"mg-3135704-pindaibas","name":"Pindaíbas","municipality_id":"mg-3135704","polling_places":1,"approx":true,"official":false,"method":"voronoi-polling-places","whole_municipality":false,"approx_coords_only":false},"geometry":{"type":"MultiPolygon","coordinates":[[[[-44.09485,-19.19849],[-44.07445,-19.21913],[-44.06178,-19.21342],[-44.02171,-19.19456],[-44.01895,-19.17459],[-44.05972,-19.1592],[-44.0927,-19.1767],[-44.09485,-19.19849]]]]}},{"type":"Feature","properties":{"territory_id":"mg-3135704-tiririca","name":"Tiririca","municipality_id":"mg-3135704","polling_places":1,"approx":true,"official":false,"method":"voronoi-polling-places","whole_municipality":false,"approx_coords_only":false},"geometry":{"type":"MultiPolygon","coordinates":[[[[-43.93418,-19.13073],[-43.93115,-19.14998],[-43.83963,-19.16908],[-43.8389,-19.1592],[-43.8502,-19.144],[-43.8874,-19.1447],[-43.9214,-19.1245],[-43.93418,-19.13073]]]]}},{"type":"Feature","properties":{"territory_id":"mg-3135704-vargem-bonita","name":"Vargem Bonita","municipality_id":"mg-3135704","polling_places":1,"approx":true,"official":false,"method":"voronoi-polling-places","whole_municipality":false,"approx_coords_only":false},"geometry":{"type":"MultiPolygon","coordinates":[[[[-44.1604,-19.2927],[-44.1475,-19.303],[-44.105,-19.2898],[-44.08022,-19.29673],[-44.07479,-19.2752],[-44.07445,-19.21913],[-44.09485,-19.19849],[-44.0965,-19.2152],[-44.1383,-19.2435],[-44.1604,-19.2927]]]]}},{"type":"Feature","properties":{"territory_id":"mg-3135704-vargem-formosa","name":"Vargem Formosa","municipality_id":"mg-3135704","polling_places":1,"approx":true,"official":false,"method":"voronoi-polling-places","whole_municipality":false,"approx_coords_only":false},"geometry":{"type":"MultiPolygon","coordinates":[[[[-43.95466,-19.24188],[-43.94959,-19.2515],[-43.9388,-19.2482],[-43.9037,-19.225],[-43.8428,-19.2122],[-43.84245,-19.2075],[-43.93514,-19.17445],[-43.93959,-19.18172],[-43.95466,-19.24188]]]]}},{"type":"Feature","properties":{"territory_id":"mg-3135704-vera-cruz","name":"Vera Cruz","municipality_id":"mg-3135704","polling_places":1,"approx":true,"official":false,"method":"voronoi-polling-places","whole_municipality":false,"approx_coords_only":false},"geometry":{"type":"MultiPolygon","coordinates":[[[[-44.05972,-19.1592],[-44.01895,-19.17459],[-44.01273,-19.16196],[-44.01223,-19.15755],[-44.03614,-19.12209],[-44.055,-19.1567],[-44.05972,-19.1592]]]]}}]}