{"type":"FeatureCollection","features":[{"type":"Feature","properties":{"territory_id":"mg-3135050-area-rural","name":"Area Rural","municipality_id":"mg-3135050","polling_places":10,"approx":true,"official":false,"method":"voronoi-polling-places","whole_municipality":false,"approx_coords_only":false},"geometry":{"type":"MultiPolygon","coordinates":[[[[-44.0689,-15.1956],[-44.02872,-15.24691],[-43.97828,-15.13411],[-43.94069,-15.11396],[-43.92499,-15.23601],[-43.83556,-15.23632],[-43.79854,-15.11036],[-43.99236,-15.06452],[-43.99952,-15.1046],[-44.04201,-15.11054],[-44.0425,-15.1502],[-44.0689,-15.1956]]],[[[-43.84006,-15.4327],[-43.8038,-15.4146],[-43.7631,-15.4143],[-43.7336,-15.3778],[-43.6605,-15.3775],[-43.6463,-15.4008],[-43.4426,-15.359],[-43.3115,-15.3271],[-43.31349,-15.31421],[-43.62871,-15.33675],[-43.63933,-15.33928],[-43.67356,-15.353],[-43.67101,-15.34153],[-43.67364,-15.34101],[-43.6759,-15.33476],[-43.68174,-15.32657],[-43.69398,-15.32053],[-43.70072,-15.28896],[-43.73122,-15.27216],[-43.81797,-15.27027],[-43.82172,-15.34011],[-43.84006,-15.4327]]]]}},{"type":"Feature","properties":{"territory_id":"mg-3135050-centro","name":"Centro","municipality_id":"mg-3135050","polling_places":2,"approx":true,"official":false,"method":"voronoi-polling-places","whole_municipality":false,"approx_coords_only":false},"geometry":{"type":"MultiPolygon","coordinates":[[[[-43.6759,-15.33476],[-43.67364,-15.34101],[-43.67101,-15.34153],[-43.67356,-15.353],[-43.63933,-15.33928],[-43.66433,-15.34005],[-43.6759,-15.33476]]]]}},{"type":"Feature","properties":{"territory_id":"mg-3135050-centro-comunitario","name":"Centro Comunitario","municipality_id":"mg-3135050","polling_places":1,"approx":true,"official":false,"method":"voronoi-polling-places","whole_municipality":false,"approx_coords_only":false},"geometry":{"type":"MultiPolygon","coordinates":[[[[-43.68174,-15.32657],[-43.6759,-15.33476],[-43.66433,-15.34005],[-43.63933,-15.33928],[-43.62871,-15.33675],[-43.68174,-15.32657]]]]}},{"type":"Feature","properties":{"territory_id":"mg-3135050-mocambinho","name":"Mocambinho","municipality_id":"mg-3135050","polling_places":1,"approx":true,"official":false,"method":"voronoi-polling-places","whole_municipality":false,"approx_coords_only":false},"geometry":{"type":"MultiPolygon","coordinates":[[[[-44.04201,-15.11054],[-43.99952,-15.1046],[-43.99236,-15.06452],[-44.0157,-15.059],[-44.042,-15.1096],[-44.04201,-15.11054]]]]}},{"type":"Feature","properties":{"territory_id":"mg-3135050-nova-esperanca","name":"Nova Esperanca","municipality_id":"mg-3135050","polling_places":1,"approx":true,"official":false,"method":"voronoi-polling-places","whole_municipality":false,"approx_coords_only":false},"geometry":{"type":"MultiPolygon","coordinates":[[[[-43.70072,-15.28896],[-43.69398,-15.32053],[-43.68174,-15.32657],[-43.62871,-15.33675],[-43.31349,-15.31421],[-43.32094,-15.26585],[-43.70072,-15.28896]]]]}},{"type":"Feature","properties":{"territory_id":"mg-3135050-projeto-jaiba","name":"Projeto Jaiba","municipality_id":"mg-3135050","polling_places":2,"approx":true,"official":false,"method":"voronoi-polling-places","whole_municipality":false,"approx_coords_only":false},"geometry":{"type":"MultiPolygon","coordinates":[[[[-44.02872,-15.24691],[-44.02688,-15.24926],[-43.92499,-15.23601],[-43.94069,-15.11396],[-43.97828,-15.13411],[-44.02872,-15.24691]]],[[[-43.83556,-15.23632],[-43.81797,-15.27027],[-43.73122,-15.27216],[-43.50341,-15.03138],[-43.507,-15.0295],[-43.5037,-14.9866],[-43.5252,-14.9773],[-43.5593,-14.9698],[-43.5368,-15.0231],[-43.5844,-15.0127],[-43.5901,-15.0547],[-43.6259,-15.0464],[-43.6135,-15.0942],[-43.6598,-15.1133],[-43.7912,-15.1121],[-43.79854,-15.11036],[-43.83556,-15.23632]]]]}},{"type":"Feature","properties":{"territory_id":"mg-3135050-serraria","name":"Serraria","municipality_id":"mg-3135050","polling_places":1,"approx":true,"official":false,"method":"voronoi-polling-places","whole_municipality":false,"approx_coords_only":false},"geometry":{"type":"MultiPolygon","coordinates":[[[[-44.02688,-15.24926],[-44.0263,-15.25],[-43.9912,-15.2556],[-43.9287,-15.3081],[-43.9376,-15.3682],[-43.9304,-15.4375],[-43.965,-15.4616],[-44.0018,-15.5052],[-43.9708,-15.5316],[-43.9174,-15.5122],[-43.9092,-15.4947],[-43.8633,-15.4443],[-43.84006,-15.4327],[-43.82172,-15.34011],[-43.81797,-15.27027],[-43.83556,-15.23632],[-43.92499,-15.23601],[-44.02688,-15.24926]]]]}},{"type":"Feature","properties":{"territory_id":"mg-3135050-veredas-do-rio-verde","name":"Veredas do Rio Verde","municipality_id":"mg-3135050","polling_places":1,"approx":true,"official":false,"method":"voronoi-polling-places","whole_municipality":false,"approx_coords_only":true},"geometry":{"type":"MultiPolygon","coordinates":[[[[-43.73122,-15.27216],[-43.70072,-15.28896],[-43.32094,-15.26585],[-43.3228,-15.2538],[-43.3094,-15.2366],[-43.3165,-15.1556],[-43.3305,-15.1063],[-43.3119,-15.0837],[-43.325,-15.0662],[-43.3689,-15.0605],[-43.4689,-15.0781],[-43.487,-15.04],[-43.50341,-15.03138],[-43.73122,-15.27216]]]]}}]}