{"type":"FeatureCollection","features":[{"type":"Feature","properties":{"territory_id":"mg-3135209-alto-dos-pocoes","name":"Alto dos Poções","municipality_id":"mg-3135209","polling_places":1,"approx":true,"official":false,"method":"voronoi-polling-places","whole_municipality":false,"approx_coords_only":false},"geometry":{"type":"MultiPolygon","coordinates":[[[[-44.40304,-15.472],[-44.3821,-15.48671],[-44.37445,-15.48553],[-44.37352,-15.48513],[-44.37334,-15.48467],[-44.37348,-15.48398],[-44.38971,-15.46537],[-44.40279,-15.47121],[-44.40304,-15.472]]]]}},{"type":"Feature","properties":{"territory_id":"mg-3135209-bairro-sao-miguel","name":"Bairro São Miguel","municipality_id":"mg-3135209","polling_places":1,"approx":true,"official":false,"method":"voronoi-polling-places","whole_municipality":false,"approx_coords_only":false},"geometry":{"type":"MultiPolygon","coordinates":[[[[-44.37449,-15.49465],[-44.36596,-15.49856],[-44.36927,-15.49079],[-44.37268,-15.48757],[-44.37449,-15.49465]]]]}},{"type":"Feature","properties":{"territory_id":"mg-3135209-barreiras-do-rio-pardo","name":"Barreiras do Rio Pardo","municipality_id":"mg-3135209","polling_places":1,"approx":true,"official":false,"method":"voronoi-polling-places","whole_municipality":false,"approx_coords_only":false},"geometry":{"type":"MultiPolygon","coordinates":[[[[-45.23647,-15.47543],[-45.2364,-15.4988],[-45.18289,-15.55554],[-45.14415,-15.52483],[-45.23647,-15.47543]]]]}},{"type":"Feature","properties":{"territory_id":"mg-3135209-boa-vista","name":"Boa Vista","municipality_id":"mg-3135209","polling_places":1,"approx":true,"official":false,"method":"voronoi-polling-places","whole_municipality":false,"approx_coords_only":false},"geometry":{"type":"MultiPolygon","coordinates":[[[[-44.36679,-15.47218],[-44.35834,-15.47458],[-44.35062,-15.46877],[-44.35041,-15.46632],[-44.35997,-15.46565],[-44.36679,-15.47218]]]]}},{"type":"Feature","properties":{"territory_id":"mg-3135209-bom-jardim","name":"Bom Jardim","municipality_id":"mg-3135209","polling_places":1,"approx":true,"official":false,"method":"voronoi-polling-places","whole_municipality":false,"approx_coords_only":false},"geometry":{"type":"MultiPolygon","coordinates":[[[[-44.38516,-15.46143],[-44.38115,-15.4625],[-44.3666,-15.46103],[-44.36611,-15.46001],[-44.38104,-15.44422],[-44.38516,-15.46143]]],[[[-44.3679,-15.3993],[-44.34819,-15.42263],[-44.34143,-15.40854],[-44.3614,-15.37762],[-44.36788,-15.399],[-44.3679,-15.3993]]]]}},{"type":"Feature","properties":{"territory_id":"mg-3135209-brejo-do-amparo","name":"Brejo do Amparo","municipality_id":"mg-3135209","polling_places":5,"approx":true,"official":false,"method":"voronoi-polling-places","whole_municipality":false,"approx_coords_only":false},"geometry":{"type":"MultiPolygon","coordinates":[[[[-44.66537,-15.39377],[-44.5378,-15.3558],[-44.45876,-15.38755],[-44.44729,-15.37415],[-44.4496,-15.3717],[-44.5008,-15.3256],[-44.5057,-15.2914],[-44.5296,-15.2874],[-44.5495,-15.3135],[-44.627,-15.3396],[-44.66537,-15.39377]]],[[[-44.5672,-15.15313],[-44.5587,-15.1766],[-44.4937,-15.2681],[-44.4692,-15.2696],[-44.43601,-15.22011],[-44.45405,-15.16882],[-44.55559,-15.15555],[-44.5672,-15.15313]]],[[[-44.52242,-15.46922],[-44.52123,-15.47485],[-44.42375,-15.56094],[-44.39446,-15.58474],[-44.40111,-15.52654],[-44.40129,-15.52561],[-44.41242,-15.49154],[-44.40304,-15.472],[-44.40279,-15.47121],[-44.38971,-15.46537],[-44.38516,-15.46143],[-44.38104,-15.44422],[-44.38551,-15.43949],[-44.41356,-15.45609],[-44.46299,-15.39645],[-44.51661,-15.46437],[-44.52242,-15.46922]]]]}},{"type":"Feature","properties":{"territory_id":"mg-3135209-caic","name":"Caic","municipality_id":"mg-3135209","polling_places":1,"approx":true,"official":false,"method":"voronoi-polling-places","whole_municipality":false,"approx_coords_only":false},"geometry":{"type":"MultiPolygon","coordinates":[[[[-44.41242,-15.49154],[-44.40129,-15.52561],[-44.39185,-15.50874],[-44.3821,-15.48671],[-44.40304,-15.472],[-44.41242,-15.49154]]]]}},{"type":"Feature","properties":{"territory_id":"mg-3135209-centro","name":"Centro","municipality_id":"mg-3135209","polling_places":12,"approx":true,"official":false,"method":"voronoi-polling-places","whole_municipality":false,"approx_coords_only":false},"geometry":{"type":"MultiPolygon","coordinates":[[[[-44.40111,-15.52654],[-44.39446,-15.58474],[-44.38972,-15.5929],[-44.38942,-15.59325],[-44.3893,-15.5932],[-44.3706,-15.5563],[-44.3726,-15.5158],[-44.3537,-15.4881],[-44.34406,-15.48612],[-44.34762,-15.48134],[-44.35412,-15.48217],[-44.36109,-15.47816],[-44.36121,-15.47831],[-44.36456,-15.47862],[-44.36716,-15.48426],[-44.37334,-15.48467],[-44.37352,-15.48513],[-44.37268,-15.48757],[-44.36927,-15.49079],[-44.36596,-15.49856],[-44.37449,-15.49465],[-44.40111,-15.52654]]]]}},{"type":"Feature","properties":{"territory_id":"mg-3135209-ceramica","name":"Cerâmica","municipality_id":"mg-3135209","polling_places":1,"approx":true,"official":false,"method":"voronoi-polling-places","whole_municipality":false,"approx_coords_only":false},"geometry":{"type":"MultiPolygon","coordinates":[[[[-44.40129,-15.52561],[-44.40111,-15.52654],[-44.37449,-15.49465],[-44.37268,-15.48757],[-44.37352,-15.48513],[-44.37445,-15.48553],[-44.39185,-15.50874],[-44.40129,-15.52561]]]]}},{"type":"Feature","properties":{"territory_id":"mg-3135209-estiva","name":"Estiva","municipality_id":"mg-3135209","polling_places":1,"approx":true,"official":false,"method":"voronoi-polling-places","whole_municipality":false,"approx_coords_only":false},"geometry":{"type":"MultiPolygon","coordinates":[[[[-44.45405,-15.16882],[-44.43601,-15.22011],[-44.436,-15.2201],[-44.3627,-15.302],[-44.36416,-15.32929],[-44.32165,-15.31043],[-44.29289,-15.27148],[-44.29289,-15.16478],[-44.35023,-15.09631],[-44.45405,-15.16882]]]]}},{"type":"Feature","properties":{"territory_id":"mg-3135209-jardim-estela","name":"Jardim Estela","municipality_id":"mg-3135209","polling_places":1,"approx":true,"official":false,"method":"voronoi-polling-places","whole_municipality":false,"approx_coords_only":false},"geometry":{"type":"MultiPolygon","coordinates":[[[[-44.36706,-15.47235],[-44.36101,-15.47781],[-44.35834,-15.47458],[-44.36679,-15.47218],[-44.36706,-15.47235]]]]}},{"type":"Feature","properties":{"territory_id":"mg-3135209-lagoa-larga","name":"Lagoa Larga","municipality_id":"mg-3135209","polling_places":1,"approx":true,"official":false,"method":"voronoi-polling-places","whole_municipality":false,"approx_coords_only":false},"geometry":{"type":"MultiPolygon","coordinates":[[[[-44.9541,-15.6393],[-44.8585,-15.7349],[-44.81163,-15.76366],[-44.81383,-15.7537],[-44.86832,-15.62198],[-44.88432,-15.61496],[-44.91074,-15.61353],[-44.9541,-15.6393]]]]}},{"type":"Feature","properties":{"territory_id":"mg-3135209-levinopolis","name":"Levinópolis","municipality_id":"mg-3135209","polling_places":9,"approx":true,"official":false,"method":"voronoi-polling-places","whole_municipality":false,"approx_coords_only":false},"geometry":{"type":"MultiPolygon","coordinates":[[[[-44.5786,-15.0798],[-44.5779,-15.1236],[-44.5672,-15.15313],[-44.55559,-15.15555],[-44.45405,-15.16882],[-44.35023,-15.09631],[-44.31772,-15.04979],[-44.3271,-15.0412],[-44.3498,-14.9915],[-44.3803,-14.9735],[-44.4679,-14.9804],[-44.4872,-14.9643],[-44.5213,-14.9782],[-44.5457,-15.0328],[-44.5786,-15.0798]]],[[[-44.29289,-15.27148],[-44.28816,-15.26507],[-44.21938,-15.26102],[-44.2129,-15.24674],[-44.26054,-15.20341],[-44.29289,-15.16478],[-44.29289,-15.27148]]]]}},{"type":"Feature","properties":{"territory_id":"mg-3135209-moradeiras","name":"Moradeiras","municipality_id":"mg-3135209","polling_places":1,"approx":true,"official":false,"method":"voronoi-polling-places","whole_municipality":false,"approx_coords_only":false},"geometry":{"type":"MultiPolygon","coordinates":[[[[-44.33414,-15.48408],[-44.2939,-15.4758],[-44.27751,-15.45522],[-44.32518,-15.42996],[-44.33005,-15.43975],[-44.33414,-15.48408]]]]}},{"type":"Feature","properties":{"territory_id":"mg-3135209-novo-milenio","name":"Novo Milênio","municipality_id":"mg-3135209","polling_places":1,"approx":true,"official":false,"method":"voronoi-polling-places","whole_municipality":false,"approx_coords_only":false},"geometry":{"type":"MultiPolygon","coordinates":[[[[-44.38115,-15.4625],[-44.36859,-15.47274],[-44.36706,-15.47235],[-44.36679,-15.47218],[-44.35997,-15.46565],[-44.3666,-15.46103],[-44.38115,-15.4625]]]]}},{"type":"Feature","properties":{"territory_id":"mg-3135209-palmeiras-ii","name":"Palmeiras Ii","municipality_id":"mg-3135209","polling_places":1,"approx":true,"official":false,"method":"voronoi-polling-places","whole_municipality":false,"approx_coords_only":false},"geometry":{"type":"MultiPolygon","coordinates":[[[[-44.96168,-15.35884],[-44.95811,-15.41002],[-44.8656,-15.48725],[-44.83015,-15.50454],[-44.77169,-15.46692],[-44.7724,-15.4646],[-44.8314,-15.4404],[-44.8815,-15.3965],[-44.9205,-15.3841],[-44.96168,-15.35884]]]]}},{"type":"Feature","properties":{"territory_id":"mg-3135209-pandeiros","name":"Pandeiros","municipality_id":"mg-3135209","polling_places":1,"approx":true,"official":false,"method":"voronoi-polling-places","whole_municipality":false,"approx_coords_only":false},"geometry":{"type":"MultiPolygon","coordinates":[[[[-44.86832,-15.62198],[-44.81383,-15.7537],[-44.78894,-15.61749],[-44.8146,-15.58382],[-44.86832,-15.62198]]]]}},{"type":"Feature","properties":{"territory_id":"mg-3135209-quinta-das-mangueiras","name":"Quinta das Mangueiras","municipality_id":"mg-3135209","polling_places":1,"approx":true,"official":false,"method":"voronoi-polling-places","whole_municipality":false,"approx_coords_only":false},"geometry":{"type":"MultiPolygon","coordinates":[[[[-44.36109,-15.47816],[-44.35412,-15.48217],[-44.34762,-15.48134],[-44.35062,-15.46877],[-44.35834,-15.47458],[-44.36101,-15.47781],[-44.36109,-15.47816]]]]}},{"type":"Feature","properties":{"territory_id":"mg-3135209-remansinho","name":"Remansinho","municipality_id":"mg-3135209","polling_places":1,"approx":true,"official":false,"method":"voronoi-polling-places","whole_municipality":false,"approx_coords_only":false},"geometry":{"type":"MultiPolygon","coordinates":[[[[-44.66293,-15.76118],[-44.583,-15.7034],[-44.5327,-15.689],[-44.50255,-15.65618],[-44.5392,-15.62315],[-44.63528,-15.69433],[-44.66293,-15.76118]]]]}},{"type":"Feature","properties":{"territory_id":"mg-3135209-residencial-sao-francisco","name":"Residencial São Francisco","municipality_id":"mg-3135209","polling_places":1,"approx":true,"official":false,"method":"voronoi-polling-places","whole_municipality":false,"approx_coords_only":false},"geometry":{"type":"MultiPolygon","coordinates":[[[[-44.35062,-15.46877],[-44.34762,-15.48134],[-44.34406,-15.48612],[-44.33414,-15.48408],[-44.33005,-15.43975],[-44.35041,-15.46632],[-44.35062,-15.46877]]]]}},{"type":"Feature","properties":{"territory_id":"mg-3135209-riacho-da-cruz","name":"Riacho da Cruz","municipality_id":"mg-3135209","polling_places":11,"approx":true,"official":false,"method":"voronoi-polling-places","whole_municipality":false,"approx_coords_only":false},"geometry":{"type":"MultiPolygon","coordinates":[[[[-44.36609,-15.36543],[-44.3614,-15.37762],[-44.34143,-15.40854],[-44.32518,-15.42996],[-44.27751,-15.45522],[-44.2341,-15.4007],[-44.1924,-15.3978],[-44.18363,-15.3819],[-44.24117,-15.34085],[-44.22078,-15.30476],[-44.17573,-15.36759],[-44.1497,-15.3204],[-44.1358,-15.2598],[-44.1061,-15.2115],[-44.1695,-15.1745],[-44.2243,-15.1685],[-44.2418,-15.1361],[-44.2312,-15.0997],[-44.2763,-15.0877],[-44.31772,-15.04979],[-44.35023,-15.09631],[-44.29289,-15.16478],[-44.26054,-15.20341],[-44.2129,-15.24674],[-44.21938,-15.26102],[-44.28816,-15.26507],[-44.29289,-15.27148],[-44.32165,-15.31043],[-44.36416,-15.32929],[-44.36609,-15.36543]],[[-44.26356,-15.34762],[-44.24672,-15.31613],[-44.24672,-15.34442],[-44.25618,-15.35053],[-44.26356,-15.34762]]]]}},{"type":"Feature","properties":{"territory_id":"mg-3135209-riacho-novo","name":"Riacho Novo","municipality_id":"mg-3135209","polling_places":1,"approx":true,"official":false,"method":"voronoi-polling-places","whole_municipality":false,"approx_coords_only":false},"geometry":{"type":"MultiPolygon","coordinates":[[[[-44.24117,-15.34085],[-44.18363,-15.3819],[-44.17573,-15.36759],[-44.22078,-15.30476],[-44.24117,-15.34085]]]]}},{"type":"Feature","properties":{"territory_id":"mg-3135209-rio-do-peixe","name":"Rio do Peixe","municipality_id":"mg-3135209","polling_places":1,"approx":true,"official":false,"method":"voronoi-polling-places","whole_municipality":false,"approx_coords_only":false},"geometry":{"type":"MultiPolygon","coordinates":[[[[-44.81383,-15.7537],[-44.81163,-15.76366],[-44.7974,-15.7724],[-44.7786,-15.8074],[-44.7199,-15.777],[-44.71216,-15.77677],[-44.72461,-15.62133],[-44.72758,-15.61825],[-44.78894,-15.61749],[-44.81383,-15.7537]]]]}},{"type":"Feature","properties":{"territory_id":"mg-3135209-sao-joaquim","name":"São Joaquim","municipality_id":"mg-3135209","polling_places":18,"approx":true,"official":false,"method":"voronoi-polling-places","whole_municipality":false,"approx_coords_only":false},"geometry":{"type":"MultiPolygon","coordinates":[[[[-45.46636,-15.26113],[-45.4653,-15.2731],[-45.4398,-15.3086],[-45.3623,-15.3412],[-45.3207,-15.3379],[-45.2679,-15.363],[-45.2365,-15.4651],[-45.23647,-15.47543],[-45.14415,-15.52483],[-45.18289,-15.55554],[-45.1818,-15.5567],[-45.1558,-15.5569],[-45.0942,-15.5868],[-45.0362,-15.5538],[-45.016,-15.5639],[-44.982,-15.6114],[-44.9541,-15.6393],[-44.91074,-15.61353],[-44.88432,-15.61496],[-44.8656,-15.48725],[-44.95811,-15.41002],[-44.96168,-15.35884],[-44.9836,-15.3454],[-45.0067,-15.2602],[-44.99126,-15.22942],[-45.46636,-15.26113]]],[[[-44.83015,-15.50454],[-44.80635,-15.5387],[-44.8019,-15.54719],[-44.8146,-15.58382],[-44.78894,-15.61749],[-44.72758,-15.61825],[-44.74799,-15.55775],[-44.67158,-15.50049],[-44.66472,-15.48504],[-44.6582,-15.44012],[-44.65628,-15.43093],[-44.67187,-15.40294],[-44.7103,-15.4572],[-44.7666,-15.4836],[-44.77169,-15.46692],[-44.83015,-15.50454]]]]}},{"type":"Feature","properties":{"territory_id":"mg-3135209-tejuco","name":"Tejuco","municipality_id":"mg-3135209","polling_places":10,"approx":true,"official":false,"method":"voronoi-polling-places","whole_municipality":false,"approx_coords_only":false},"geometry":{"type":"MultiPolygon","coordinates":[[[[-44.74799,-15.55775],[-44.72758,-15.61825],[-44.72461,-15.62133],[-44.71216,-15.77677],[-44.6833,-15.7759],[-44.66293,-15.76118],[-44.63528,-15.69433],[-44.5392,-15.62315],[-44.50255,-15.65618],[-44.4852,-15.6373],[-44.38942,-15.59325],[-44.38972,-15.5929],[-44.39446,-15.58474],[-44.42375,-15.56094],[-44.52123,-15.47485],[-44.52734,-15.50843],[-44.59538,-15.56583],[-44.66472,-15.48504],[-44.67158,-15.50049],[-44.74799,-15.55775]]],[[[-44.67187,-15.40294],[-44.65628,-15.43093],[-44.52242,-15.46922],[-44.51661,-15.46437],[-44.46299,-15.39645],[-44.45876,-15.38755],[-44.5378,-15.3558],[-44.66537,-15.39377],[-44.67187,-15.40294]]],[[[-44.3666,-15.46103],[-44.35997,-15.46565],[-44.35041,-15.46632],[-44.33005,-15.43975],[-44.32518,-15.42996],[-44.34143,-15.40854],[-44.34819,-15.42263],[-44.3363,-15.4367],[-44.3647,-15.4615],[-44.36611,-15.46001],[-44.3666,-15.46103]]]]}},{"type":"Feature","properties":{"territory_id":"mg-3135209-vila-jadete","name":"Vila Jadete","municipality_id":"mg-3135209","polling_places":2,"approx":true,"official":false,"method":"voronoi-polling-places","whole_municipality":false,"approx_coords_only":false},"geometry":{"type":"MultiPolygon","coordinates":[[[[-44.38971,-15.46537],[-44.37348,-15.48398],[-44.37334,-15.48467],[-44.36716,-15.48426],[-44.36456,-15.47862],[-44.36906,-15.4759],[-44.36859,-15.47274],[-44.38115,-15.4625],[-44.38516,-15.46143],[-44.38971,-15.46537]]]]}},{"type":"Feature","properties":{"territory_id":"mg-3135209-vila-jussara","name":"Vila Jussara","municipality_id":"mg-3135209","polling_places":1,"approx":true,"official":false,"method":"voronoi-polling-places","whole_municipality":false,"approx_coords_only":false},"geometry":{"type":"MultiPolygon","coordinates":[[[[-44.36906,-15.4759],[-44.36456,-15.47862],[-44.36121,-15.47831],[-44.36109,-15.47816],[-44.36101,-15.47781],[-44.36706,-15.47235],[-44.36859,-15.47274],[-44.36906,-15.4759]]]]}},{"type":"Feature","properties":{"territory_id":"mg-3135209-vila-sao-domingos","name":"Vila Sao Domingos","municipality_id":"mg-3135209","polling_places":1,"approx":true,"official":false,"method":"voronoi-polling-places","whole_municipality":false,"approx_coords_only":false},"geometry":{"type":"MultiPolygon","coordinates":[[[[-44.39185,-15.50874],[-44.37445,-15.48553],[-44.3821,-15.48671],[-44.39185,-15.50874]]]]}},{"type":"Feature","properties":{"territory_id":"mg-3135209-zona-rural","name":"Zona Rural","municipality_id":"mg-3135209","polling_places":5,"approx":true,"official":false,"method":"voronoi-polling-places","whole_municipality":false,"approx_coords_only":false},"geometry":{"type":"MultiPolygon","coordinates":[[[[-45.6169,-15.0141],[-45.5861,-15.0338],[-45.5652,-15.0261],[-45.5097,-15.049],[-45.4903,-15.0982],[-45.4336,-15.1332],[-45.4484,-15.2001],[-45.47,-15.2199],[-45.46636,-15.26113],[-44.99126,-15.22942],[-44.9753,-15.1976],[-45.0329,-15.1134],[-45.0417,-15.0813],[-45.0731,-15.0749],[-45.1852,-14.9829],[-45.2172,-14.9068],[-45.2385,-14.8771],[-45.2835,-14.8626],[-45.3057,-14.8337],[-45.364,-14.8717],[-45.3689,-14.8904],[-45.4103,-14.9234],[-45.4352,-14.9226],[-45.4553,-14.9491],[-45.4901,-14.9608],[-45.5361,-14.9381],[-45.5943,-14.9785],[-45.6169,-15.0141]]],[[[-44.88432,-15.61496],[-44.86832,-15.62198],[-44.8146,-15.58382],[-44.8019,-15.54719],[-44.80635,-15.5387],[-44.83015,-15.50454],[-44.8656,-15.48725],[-44.88432,-15.61496]]],[[[-44.66472,-15.48504],[-44.59538,-15.56583],[-44.52734,-15.50843],[-44.52123,-15.47485],[-44.52242,-15.46922],[-44.65628,-15.43093],[-44.6582,-15.44012],[-44.66472,-15.48504]]],[[[-44.46299,-15.39645],[-44.41356,-15.45609],[-44.38551,-15.43949],[-44.44729,-15.37415],[-44.45876,-15.38755],[-44.46299,-15.39645]]],[[[-44.36788,-15.399],[-44.3614,-15.37762],[-44.36609,-15.36543],[-44.36788,-15.399]]],[[[-44.26356,-15.34762],[-44.25618,-15.35053],[-44.24672,-15.34442],[-44.24672,-15.31613],[-44.26356,-15.34762]]]]}}]}