{"type":"FeatureCollection","features":[{"type":"Feature","properties":{"territory_id":"mg-3135407-bituri","name":"Bituri","municipality_id":"mg-3135407","polling_places":1,"approx":true,"official":false,"method":"voronoi-polling-places","whole_municipality":false,"approx_coords_only":false},"geometry":{"type":"MultiPolygon","coordinates":[[[[-44.11108,-20.58291],[-44.07327,-20.57031],[-44.06399,-20.55389],[-44.06019,-20.52796],[-44.07914,-20.49787],[-44.09831,-20.50334],[-44.11108,-20.58291]]]]}},{"type":"Feature","properties":{"territory_id":"mg-3135407-caetano-lopes","name":"Caetano Lopes","municipality_id":"mg-3135407","polling_places":1,"approx":true,"official":false,"method":"voronoi-polling-places","whole_municipality":false,"approx_coords_only":false},"geometry":{"type":"MultiPolygon","coordinates":[[[[-43.96049,-20.53617],[-43.95987,-20.55242],[-43.95189,-20.59364],[-43.915,-20.5841],[-43.9085,-20.558],[-43.9303,-20.5314],[-43.96049,-20.53617]]]]}},{"type":"Feature","properties":{"territory_id":"mg-3135407-centro","name":"Centro","municipality_id":"mg-3135407","polling_places":2,"approx":true,"official":false,"method":"voronoi-polling-places","whole_municipality":false,"approx_coords_only":false},"geometry":{"type":"MultiPolygon","coordinates":[[[[-44.01299,-20.53052],[-44.01197,-20.55857],[-44.00816,-20.56954],[-44.0057,-20.5656],[-43.9653,-20.5971],[-43.95189,-20.59364],[-43.95987,-20.55242],[-43.96049,-20.53617],[-43.9771,-20.5388],[-43.9864,-20.5068],[-44.0016,-20.50716],[-44.01139,-20.528],[-44.01299,-20.53052]]]]}},{"type":"Feature","properties":{"territory_id":"mg-3135407-mato-dentro","name":"Mato Dentro","municipality_id":"mg-3135407","polling_places":1,"approx":true,"official":false,"method":"voronoi-polling-places","whole_municipality":false,"approx_coords_only":false},"geometry":{"type":"MultiPolygon","coordinates":[[[[-44.06399,-20.55389],[-44.01197,-20.55857],[-44.01299,-20.53052],[-44.06019,-20.52796],[-44.06399,-20.55389]]]]}},{"type":"Feature","properties":{"territory_id":"mg-3135407-povoado-diniz","name":"Povoado Diniz","municipality_id":"mg-3135407","polling_places":1,"approx":true,"official":false,"method":"voronoi-polling-places","whole_municipality":false,"approx_coords_only":false},"geometry":{"type":"MultiPolygon","coordinates":[[[[-44.06459,-20.5758],[-44.04118,-20.62258],[-44.01505,-20.58061],[-44.06459,-20.5758]]]]}},{"type":"Feature","properties":{"territory_id":"mg-3135407-povoado-lava-pes","name":"Povoado Lava-pes","municipality_id":"mg-3135407","polling_places":1,"approx":true,"official":false,"method":"voronoi-polling-places","whole_municipality":false,"approx_coords_only":false},"geometry":{"type":"MultiPolygon","coordinates":[[[[-44.07914,-20.49787],[-44.06019,-20.52796],[-44.01299,-20.53052],[-44.01139,-20.528],[-44.0016,-20.50716],[-44.0286,-20.5078],[-44.0649,-20.4938],[-44.07914,-20.49787]]]]}},{"type":"Feature","properties":{"territory_id":"mg-3135407-povoado-machados","name":"Povoado Machados","municipality_id":"mg-3135407","polling_places":1,"approx":true,"official":false,"method":"voronoi-polling-places","whole_municipality":false,"approx_coords_only":false},"geometry":{"type":"MultiPolygon","coordinates":[[[[-44.07327,-20.57031],[-44.06459,-20.5758],[-44.01505,-20.58061],[-44.00816,-20.56954],[-44.01197,-20.55857],[-44.06399,-20.55389],[-44.07327,-20.57031]]]]}},{"type":"Feature","properties":{"territory_id":"mg-3135407-povoado-sape","name":"Povoado Sape","municipality_id":"mg-3135407","polling_places":1,"approx":true,"official":false,"method":"voronoi-polling-places","whole_municipality":false,"approx_coords_only":false},"geometry":{"type":"MultiPolygon","coordinates":[[[[-44.13326,-20.60224],[-44.043,-20.6255],[-44.04118,-20.62258],[-44.06459,-20.5758],[-44.07327,-20.57031],[-44.11108,-20.58291],[-44.13326,-20.60224]]]]}},{"type":"Feature","properties":{"territory_id":"mg-3135407-povoado-sesmaria","name":"Povoado Sesmaria","municipality_id":"mg-3135407","polling_places":1,"approx":true,"official":false,"method":"voronoi-polling-places","whole_municipality":false,"approx_coords_only":false},"geometry":{"type":"MultiPolygon","coordinates":[[[[-44.1802,-20.5229],[-44.137,-20.5563],[-44.1369,-20.6013],[-44.13326,-20.60224],[-44.11108,-20.58291],[-44.09831,-20.50334],[-44.1234,-20.5105],[-44.1587,-20.5112],[-44.1802,-20.5229]]]]}}]}