{"type":"FeatureCollection","features":[{"type":"Feature","properties":{"territory_id":"mg-3135308-capoeirao","name":"Capoeirao","municipality_id":"mg-3135308","polling_places":1,"approx":true,"official":false,"method":"voronoi-polling-places","whole_municipality":false,"approx_coords_only":false},"geometry":{"type":"MultiPolygon","coordinates":[[[[-45.624,-20.0737],[-45.6123,-20.1348],[-45.589,-20.1661],[-45.5654,-20.1588],[-45.54481,-20.16787],[-45.51342,-20.07838],[-45.5261,-20.0719],[-45.5792,-20.0934],[-45.6034,-20.0723],[-45.624,-20.0737]]]]}},{"type":"Feature","properties":{"territory_id":"mg-3135308-centro","name":"Centro","municipality_id":"mg-3135308","polling_places":1,"approx":true,"official":false,"method":"voronoi-polling-places","whole_municipality":false,"approx_coords_only":false},"geometry":{"type":"MultiPolygon","coordinates":[[[[-45.51031,-20.07997],[-45.50432,-20.1857],[-45.4564,-20.2068],[-45.4405,-20.178],[-45.46,-20.1256],[-45.4664,-20.1024],[-45.51031,-20.07997]]]]}},{"type":"Feature","properties":{"territory_id":"mg-3135308-sao-jose","name":"Sao Jose","municipality_id":"mg-3135308","polling_places":1,"approx":true,"official":false,"method":"voronoi-polling-places","whole_municipality":false,"approx_coords_only":false},"geometry":{"type":"MultiPolygon","coordinates":[[[[-45.54481,-20.16787],[-45.50432,-20.1857],[-45.51031,-20.07997],[-45.51342,-20.07838],[-45.54481,-20.16787]]]]}}]}