{"type":"FeatureCollection","features":[{"type":"Feature","properties":{"territory_id":"mg-3135076-centro","name":"Centro","municipality_id":"mg-3135076","polling_places":2,"approx":true,"official":false,"method":"voronoi-polling-places","whole_municipality":false,"approx_coords_only":false},"geometry":{"type":"MultiPolygon","coordinates":[[[[-41.9275,-18.4437],[-41.8999,-18.4356],[-41.8423,-18.4398],[-41.8125,-18.4646],[-41.8068,-18.5266],[-41.7779,-18.5531],[-41.73785,-18.5365],[-41.64374,-18.42137],[-41.6852,-18.3878],[-41.6908,-18.3567],[-41.7237,-18.3471],[-41.747,-18.3631],[-41.7558,-18.4079],[-41.7961,-18.41],[-41.8041,-18.3702],[-41.8751,-18.3525],[-41.9258,-18.3797],[-41.9275,-18.4437]]]]}},{"type":"Feature","properties":{"territory_id":"mg-3135076-distrito-de-s-sebastiao-do-barroso","name":"Distrito de S. Sebastiao do Barroso","municipality_id":"mg-3135076","polling_places":1,"approx":true,"official":false,"method":"voronoi-polling-places","whole_municipality":false,"approx_coords_only":false},"geometry":{"type":"MultiPolygon","coordinates":[[[[-41.73785,-18.5365],[-41.7265,-18.5318],[-41.6953,-18.5613],[-41.6464,-18.6122],[-41.5733,-18.573],[-41.5833,-18.535],[-41.6284,-18.5254],[-41.629,-18.4333],[-41.64374,-18.42137],[-41.73785,-18.5365]]]]}}]}