{"type":"FeatureCollection","features":[{"type":"Feature","properties":{"territory_id":"mg-3135456-bairro-centro","name":"Bairro Centro","municipality_id":"mg-3135456","polling_places":2,"approx":true,"official":false,"method":"voronoi-polling-places","whole_municipality":false,"approx_coords_only":false},"geometry":{"type":"MultiPolygon","coordinates":[[[[-42.3473,-17.1257],[-42.34097,-17.13761],[-42.31286,-17.12768],[-42.25854,-17.08186],[-42.25966,-17.07834],[-42.23234,-17.07015],[-42.2349,-17.0621],[-42.2733,-17.0571],[-42.3265,-17.0799],[-42.3416,-17.1077],[-42.3473,-17.1257]]]]}},{"type":"Feature","properties":{"territory_id":"mg-3135456-comunidade-estiva-zona-rural","name":"Comunidade Estiva - Zona Rural","municipality_id":"mg-3135456","polling_places":1,"approx":true,"official":false,"method":"voronoi-polling-places","whole_municipality":false,"approx_coords_only":false},"geometry":{"type":"MultiPolygon","coordinates":[[[[-42.31286,-17.12768],[-42.243,-17.10362],[-42.25854,-17.08186],[-42.31286,-17.12768]]]]}},{"type":"Feature","properties":{"territory_id":"mg-3135456-vila-sao-jose-zona-rural","name":"Vila Sao Jose -zona Rural","municipality_id":"mg-3135456","polling_places":1,"approx":true,"official":false,"method":"voronoi-polling-places","whole_municipality":false,"approx_coords_only":false},"geometry":{"type":"MultiPolygon","coordinates":[[[[-42.25966,-17.07834],[-42.25854,-17.08186],[-42.243,-17.10362],[-42.22333,-17.09822],[-42.2235,-17.098],[-42.23234,-17.07015],[-42.25966,-17.07834]]]]}},{"type":"Feature","properties":{"territory_id":"mg-3135456-zona-rural","name":"Zona Rural","municipality_id":"mg-3135456","polling_places":2,"approx":true,"official":false,"method":"voronoi-polling-places","whole_municipality":false,"approx_coords_only":false},"geometry":{"type":"MultiPolygon","coordinates":[[[[-42.34097,-17.13761],[-42.3154,-17.1857],[-42.2706,-17.1455],[-42.2491,-17.1743],[-42.1488,-17.2567],[-42.132,-17.3084],[-42.1149,-17.3162],[-42.0794,-17.2382],[-42.0798,-17.2121],[-42.1118,-17.2038],[-42.151,-17.1671],[-42.1713,-17.1652],[-42.22333,-17.09822],[-42.243,-17.10362],[-42.31286,-17.12768],[-42.34097,-17.13761]]]]}}]}