{"type":"FeatureCollection","features":[{"type":"Feature","properties":{"territory_id":"mg-3135001-centro","name":"Centro","municipality_id":"mg-3135001","polling_places":1,"approx":true,"official":false,"method":"voronoi-polling-places","whole_municipality":false,"approx_coords_only":false},"geometry":{"type":"MultiPolygon","coordinates":[[[[-42.75187,-19.69093],[-42.723,-19.6835],[-42.68822,-19.67931],[-42.72017,-19.57485],[-42.75187,-19.5977],[-42.75187,-19.69093]]]]}},{"type":"Feature","properties":{"territory_id":"mg-3135001-lagoa-do-pau","name":"Lagoa do Pau","municipality_id":"mg-3135001","polling_places":1,"approx":true,"official":false,"method":"voronoi-polling-places","whole_municipality":false,"approx_coords_only":false},"geometry":{"type":"MultiPolygon","coordinates":[[[[-42.8077,-19.691],[-42.8001,-19.7115],[-42.7973,-19.7129],[-42.7914,-19.7011],[-42.75187,-19.69093],[-42.75187,-19.5977],[-42.7835,-19.6205],[-42.8077,-19.691]]]]}},{"type":"Feature","properties":{"territory_id":"mg-3135001-lavrinha","name":"Lavrinha","municipality_id":"mg-3135001","polling_places":1,"approx":true,"official":false,"method":"voronoi-polling-places","whole_municipality":false,"approx_coords_only":false},"geometry":{"type":"MultiPolygon","coordinates":[[[[-42.72017,-19.57485],[-42.68822,-19.67931],[-42.6616,-19.6761],[-42.625,-19.6417],[-42.6525,-19.6036],[-42.6378,-19.5918],[-42.6726,-19.5849],[-42.7083,-19.5982],[-42.689,-19.5407],[-42.7133,-19.5699],[-42.72017,-19.57485]]]]}}]}