{"type":"FeatureCollection","features":[{"type":"Feature","properties":{"territory_id":"mg-3135803-alvorada","name":"Alvorada","municipality_id":"mg-3135803","polling_places":1,"approx":true,"official":false,"method":"voronoi-polling-places","whole_municipality":false,"approx_coords_only":false},"geometry":{"type":"MultiPolygon","coordinates":[[[[-41.18,-16.45992],[-41.14444,-16.64102],[-41.1202,-16.6096],[-41.0932,-16.6105],[-41.0558,-16.56],[-40.98674,-16.54983],[-41.00905,-16.44384],[-41.01116,-16.44238],[-41.17584,-16.44435],[-41.18,-16.45992]]]]}},{"type":"Feature","properties":{"territory_id":"mg-3135803-centro","name":"Centro","municipality_id":"mg-3135803","polling_places":4,"approx":true,"official":false,"method":"voronoi-polling-places","whole_municipality":false,"approx_coords_only":false},"geometry":{"type":"MultiPolygon","coordinates":[[[[-41.09326,-16.33081],[-41.01627,-16.42697],[-41.00814,-16.43409],[-41.00798,-16.43426],[-41.00656,-16.44022],[-40.99165,-16.43905],[-40.99921,-16.43682],[-41.00419,-16.43292],[-40.87207,-16.39006],[-40.87474,-16.38557],[-41.09326,-16.33081]]]]}},{"type":"Feature","properties":{"territory_id":"mg-3135803-comunidade-mumbuca","name":"Comunidade Mumbuca","municipality_id":"mg-3135803","polling_places":1,"approx":true,"official":false,"method":"voronoi-polling-places","whole_municipality":false,"approx_coords_only":false},"geometry":{"type":"MultiPolygon","coordinates":[[[[-41.1326,-16.31901],[-41.09326,-16.33081],[-40.87474,-16.38557],[-40.86652,-16.23705],[-40.9283,-16.2617],[-40.9625,-16.2575],[-40.9892,-16.2126],[-40.9624,-16.1763],[-40.9891,-16.1442],[-40.9637,-16.1104],[-40.9698,-16.0855],[-41.01556,-16.07719],[-41.1326,-16.31901]]]]}},{"type":"Feature","properties":{"territory_id":"mg-3135803-fazenda-nova","name":"Fazenda Nova","municipality_id":"mg-3135803","polling_places":1,"approx":true,"official":false,"method":"voronoi-polling-places","whole_municipality":false,"approx_coords_only":false},"geometry":{"type":"MultiPolygon","coordinates":[[[[-41.00419,-16.43292],[-40.99921,-16.43682],[-40.99165,-16.43905],[-40.83499,-16.45177],[-40.87207,-16.39006],[-41.00419,-16.43292]]]]}},{"type":"Feature","properties":{"territory_id":"mg-3135803-guaranilandia","name":"Guaranilândia","municipality_id":"mg-3135803","polling_places":1,"approx":true,"official":false,"method":"voronoi-polling-places","whole_municipality":false,"approx_coords_only":false},"geometry":{"type":"MultiPolygon","coordinates":[[[[-40.87474,-16.38557],[-40.87207,-16.39006],[-40.83499,-16.45177],[-40.80475,-16.49904],[-40.7903,-16.5151],[-40.7064,-16.4939],[-40.6647,-16.5137],[-40.6724,-16.4543],[-40.6449,-16.3711],[-40.6704,-16.3215],[-40.7223,-16.3029],[-40.7075,-16.27],[-40.7525,-16.2315],[-40.7733,-16.2748],[-40.8122,-16.2465],[-40.8654,-16.2366],[-40.86652,-16.23705],[-40.87474,-16.38557]]]]}},{"type":"Feature","properties":{"territory_id":"mg-3135803-povoado-de-estiva","name":"Povoado de Estiva","municipality_id":"mg-3135803","polling_places":1,"approx":true,"official":false,"method":"voronoi-polling-places","whole_municipality":false,"approx_coords_only":false},"geometry":{"type":"MultiPolygon","coordinates":[[[[-41.30755,-16.24004],[-41.14675,-16.32905],[-41.1326,-16.31901],[-41.01556,-16.07719],[-41.048,-16.0713],[-41.0845,-16.0817],[-41.1561,-16.0552],[-41.2177,-16.0723],[-41.2203,-16.1046],[-41.2574,-16.1514],[-41.2971,-16.1712],[-41.2804,-16.1772],[-41.30755,-16.24004]]]]}},{"type":"Feature","properties":{"territory_id":"mg-3135803-povoado-do-caju","name":"Povoado do Caju","municipality_id":"mg-3135803","polling_places":1,"approx":true,"official":false,"method":"voronoi-polling-places","whole_municipality":false,"approx_coords_only":false},"geometry":{"type":"MultiPolygon","coordinates":[[[[-41.4624,-16.4145],[-41.46232,-16.41479],[-41.18,-16.45992],[-41.17584,-16.44435],[-41.14675,-16.32905],[-41.30755,-16.24004],[-41.3084,-16.242],[-41.281,-16.2727],[-41.3064,-16.2873],[-41.3027,-16.333],[-41.3933,-16.3683],[-41.4121,-16.4011],[-41.4624,-16.4145]]]]}},{"type":"Feature","properties":{"territory_id":"mg-3135803-sao-jose","name":"São José","municipality_id":"mg-3135803","polling_places":1,"approx":true,"official":false,"method":"voronoi-polling-places","whole_municipality":false,"approx_coords_only":false},"geometry":{"type":"MultiPolygon","coordinates":[[[[-41.00905,-16.44384],[-40.98674,-16.54983],[-40.9662,-16.5468],[-40.9499,-16.574],[-40.8908,-16.6216],[-40.8853,-16.5791],[-40.8208,-16.4812],[-40.80475,-16.49904],[-40.83499,-16.45177],[-40.99165,-16.43905],[-41.00656,-16.44022],[-41.00688,-16.44058],[-41.00905,-16.44384]]]]}},{"type":"Feature","properties":{"territory_id":"mg-3135803-sao-pedro-do-jequitinhonha","name":"São Pedro do Jequitinhonha","municipality_id":"mg-3135803","polling_places":1,"approx":true,"official":false,"method":"voronoi-polling-places","whole_municipality":false,"approx_coords_only":false},"geometry":{"type":"MultiPolygon","coordinates":[[[[-41.4636,-16.5218],[-41.4576,-16.5669],[-41.4002,-16.5709],[-41.3545,-16.6238],[-41.3236,-16.629],[-41.3112,-16.6662],[-41.2861,-16.6728],[-41.3014,-16.7268],[-41.2923,-16.7485],[-41.2608,-16.7311],[-41.2321,-16.6973],[-41.1519,-16.6507],[-41.14444,-16.64102],[-41.18,-16.45992],[-41.46232,-16.41479],[-41.4512,-16.454],[-41.4207,-16.4865],[-41.4636,-16.5218]]]]}},{"type":"Feature","properties":{"territory_id":"mg-3135803-vaticano","name":"Vaticano","municipality_id":"mg-3135803","polling_places":3,"approx":true,"official":false,"method":"voronoi-polling-places","whole_municipality":false,"approx_coords_only":false},"geometry":{"type":"MultiPolygon","coordinates":[[[[-41.17584,-16.44435],[-41.01116,-16.44238],[-41.00905,-16.44384],[-41.00688,-16.44058],[-41.00656,-16.44022],[-41.00798,-16.43426],[-41.00814,-16.43409],[-41.01627,-16.42697],[-41.09326,-16.33081],[-41.1326,-16.31901],[-41.14675,-16.32905],[-41.17584,-16.44435]]]]}}]}