{"type":"FeatureCollection","features":[{"type":"Feature","properties":{"territory_id":"mg-3135506-centro","name":"Centro","municipality_id":"mg-3135506","polling_places":3,"approx":true,"official":false,"method":"voronoi-polling-places","whole_municipality":false,"approx_coords_only":false},"geometry":{"type":"MultiPolygon","coordinates":[[[[-42.72492,-20.51918],[-42.7244,-20.5202],[-42.6799,-20.5313],[-42.66942,-20.54543],[-42.6667,-20.54345],[-42.60071,-20.49673],[-42.59314,-20.47721],[-42.62164,-20.40707],[-42.63416,-20.37406],[-42.6419,-20.3735],[-42.6526,-20.3493],[-42.65803,-20.34857],[-42.69634,-20.45043],[-42.72492,-20.51918]]]]}},{"type":"Feature","properties":{"territory_id":"mg-3135506-distrito-de-piscamba","name":"Distrito de Piscamba","municipality_id":"mg-3135506","polling_places":1,"approx":true,"official":false,"method":"voronoi-polling-places","whole_municipality":false,"approx_coords_only":false},"geometry":{"type":"MultiPolygon","coordinates":[[[[-42.7574,-20.4557],[-42.72492,-20.51918],[-42.69634,-20.45043],[-42.65803,-20.34857],[-42.6892,-20.3444],[-42.7162,-20.3849],[-42.7458,-20.3975],[-42.7574,-20.4557]]]]}},{"type":"Feature","properties":{"territory_id":"mg-3135506-distrito-de-pouso-alegre-da-mata","name":"Distrito de Pouso Alegre da Mata","municipality_id":"mg-3135506","polling_places":1,"approx":true,"official":false,"method":"voronoi-polling-places","whole_municipality":false,"approx_coords_only":false},"geometry":{"type":"MultiPolygon","coordinates":[[[[-42.66942,-20.54543],[-42.6412,-20.5835],[-42.6088,-20.6059],[-42.5578,-20.5985],[-42.50615,-20.5833],[-42.60071,-20.49673],[-42.6667,-20.54345],[-42.66942,-20.54543]]]]}},{"type":"Feature","properties":{"territory_id":"mg-3135506-distrito-de-sao-vicente-do-grama","name":"Distrito de São Vicente do Grama","municipality_id":"mg-3135506","polling_places":1,"approx":true,"official":false,"method":"voronoi-polling-places","whole_municipality":false,"approx_coords_only":false},"geometry":{"type":"MultiPolygon","coordinates":[[[[-42.60071,-20.49673],[-42.50615,-20.5833],[-42.4871,-20.5777],[-42.4863,-20.5573],[-42.51,-20.5114],[-42.5055,-20.4749],[-42.5288,-20.4589],[-42.52859,-20.45562],[-42.59314,-20.47721],[-42.60071,-20.49673]]]]}},{"type":"Feature","properties":{"territory_id":"mg-3135506-grota","name":"Grota","municipality_id":"mg-3135506","polling_places":1,"approx":true,"official":false,"method":"voronoi-polling-places","whole_municipality":false,"approx_coords_only":false},"geometry":{"type":"MultiPolygon","coordinates":[[[[-42.63416,-20.37406],[-42.62164,-20.40707],[-42.59314,-20.47721],[-42.52859,-20.45562],[-42.5266,-20.425],[-42.5135,-20.3704],[-42.543,-20.3598],[-42.5618,-20.3793],[-42.63416,-20.37406]]]]}}]}