{"type":"FeatureCollection","features":[{"type":"Feature","properties":{"territory_id":"mg-3136108-centro","name":"Centro","municipality_id":"mg-3136108","polling_places":2,"approx":true,"official":false,"method":"voronoi-polling-places","whole_municipality":false,"approx_coords_only":false},"geometry":{"type":"MultiPolygon","coordinates":[[[[-42.72979,-19.20317],[-42.65543,-19.21917],[-42.6467,-19.1841],[-42.6219,-19.1476],[-42.6228,-19.1188],[-42.6615,-19.1255],[-42.664,-19.0979],[-42.70075,-19.11061],[-42.70939,-19.14139],[-42.72979,-19.20317]]]]}},{"type":"Feature","properties":{"territory_id":"mg-3136108-povoado-da-lavrinha","name":"Povoado da Lavrinha","municipality_id":"mg-3136108","polling_places":1,"approx":true,"official":false,"method":"voronoi-polling-places","whole_municipality":false,"approx_coords_only":false},"geometry":{"type":"MultiPolygon","coordinates":[[[[-42.74504,-19.25389],[-42.7439,-19.282],[-42.727,-19.3204],[-42.742,-19.3553],[-42.6976,-19.3538],[-42.6792,-19.2941],[-42.68653,-19.27381],[-42.74504,-19.25389]]]]}},{"type":"Feature","properties":{"territory_id":"mg-3136108-povoado-do-braco","name":"Povoado do Braço","municipality_id":"mg-3136108","polling_places":1,"approx":true,"official":false,"method":"voronoi-polling-places","whole_municipality":false,"approx_coords_only":false},"geometry":{"type":"MultiPolygon","coordinates":[[[[-42.76061,-19.22035],[-42.7462,-19.2253],[-42.74504,-19.25389],[-42.68653,-19.27381],[-42.687,-19.2725],[-42.6592,-19.2343],[-42.65543,-19.21917],[-42.72979,-19.20317],[-42.76061,-19.22035]]]]}},{"type":"Feature","properties":{"territory_id":"mg-3136108-povoado-ponte-santo-antonio","name":"Povoado Ponte Santo Antônio","municipality_id":"mg-3136108","polling_places":1,"approx":true,"official":false,"method":"voronoi-polling-places","whole_municipality":false,"approx_coords_only":false},"geometry":{"type":"MultiPolygon","coordinates":[[[[-42.7925,-19.1883],[-42.7756,-19.2152],[-42.76061,-19.22035],[-42.72979,-19.20317],[-42.70939,-19.14139],[-42.70075,-19.11061],[-42.7039,-19.1117],[-42.7189,-19.147],[-42.7486,-19.1524],[-42.781,-19.1603],[-42.7925,-19.1883]]]]}}]}