{"type":"FeatureCollection","features":[{"type":"Feature","properties":{"territory_id":"mg-3136520-centro","name":"Centro","municipality_id":"mg-3136520","polling_places":1,"approx":true,"official":false,"method":"voronoi-polling-places","whole_municipality":false,"approx_coords_only":false},"geometry":{"type":"MultiPolygon","coordinates":[[[[-42.64683,-16.93532],[-42.59162,-16.95414],[-42.5819,-16.9484],[-42.5519,-16.9459],[-42.5665,-16.8591],[-42.57472,-16.84769],[-42.64361,-16.8724],[-42.64683,-16.93532]]]]}},{"type":"Feature","properties":{"territory_id":"mg-3136520-zona-rural","name":"Zona Rural","municipality_id":"mg-3136520","polling_places":4,"approx":true,"official":false,"method":"voronoi-polling-places","whole_municipality":false,"approx_coords_only":false},"geometry":{"type":"MultiPolygon","coordinates":[[[[-42.7579,-16.9436],[-42.7047,-16.9669],[-42.7069,-17.0357],[-42.6812,-17.0446],[-42.6573,-16.9929],[-42.59162,-16.95414],[-42.64683,-16.93532],[-42.64361,-16.8724],[-42.57472,-16.84769],[-42.5967,-16.8172],[-42.6411,-16.7945],[-42.642,-16.7703],[-42.6815,-16.809],[-42.7331,-16.8268],[-42.737,-16.8516],[-42.7574,-16.8861],[-42.7444,-16.9084],[-42.7579,-16.9436]]]]}}]}