{"type":"FeatureCollection","features":[{"type":"Feature","properties":{"territory_id":"mg-3136553-centro","name":"Centro","municipality_id":"mg-3136553","polling_places":1,"approx":true,"official":false,"method":"voronoi-polling-places","whole_municipality":false,"approx_coords_only":false},"geometry":{"type":"MultiPolygon","coordinates":[[[[-42.53422,-18.24719],[-42.5097,-18.2634],[-42.50054,-18.26514],[-42.44412,-18.22425],[-42.4463,-18.2213],[-42.464,-18.1779],[-42.4878,-18.1848],[-42.49878,-18.17953],[-42.53422,-18.24719]]]]}},{"type":"Feature","properties":{"territory_id":"mg-3136553-corrego-sao-pedro","name":"Corrego Sao Pedro","municipality_id":"mg-3136553","polling_places":1,"approx":true,"official":false,"method":"voronoi-polling-places","whole_municipality":false,"approx_coords_only":false},"geometry":{"type":"MultiPolygon","coordinates":[[[[-42.4724,-18.3471],[-42.3973,-18.3544],[-42.4108,-18.3196],[-42.40881,-18.27681],[-42.46108,-18.31868],[-42.4512,-18.331],[-42.4724,-18.3471]]]]}},{"type":"Feature","properties":{"territory_id":"mg-3136553-jurema","name":"Jurema","municipality_id":"mg-3136553","polling_places":1,"approx":true,"official":false,"method":"voronoi-polling-places","whole_municipality":false,"approx_coords_only":false},"geometry":{"type":"MultiPolygon","coordinates":[[[[-42.5818,-18.1842],[-42.5531,-18.2347],[-42.53422,-18.24719],[-42.49878,-18.17953],[-42.5384,-18.1605],[-42.5818,-18.1842]]]]}},{"type":"Feature","properties":{"territory_id":"mg-3136553-povoado-de-fonseca","name":"Povoado de Fonseca","municipality_id":"mg-3136553","polling_places":1,"approx":true,"official":false,"method":"voronoi-polling-places","whole_municipality":false,"approx_coords_only":false},"geometry":{"type":"MultiPolygon","coordinates":[[[[-42.50054,-18.26514],[-42.4813,-18.2688],[-42.4767,-18.2992],[-42.46108,-18.31868],[-42.40881,-18.27681],[-42.4086,-18.2722],[-42.44412,-18.22425],[-42.50054,-18.26514]]]]}}]}