{"type":"FeatureCollection","features":[{"type":"Feature","properties":{"territory_id":"mg-3136900-centro","name":"Centro","municipality_id":"mg-3136900","polling_places":3,"approx":true,"official":false,"method":"voronoi-polling-places","whole_municipality":false,"approx_coords_only":false},"geometry":{"type":"MultiPolygon","coordinates":[[[[-46.6218,-21.2475],[-46.6121,-21.2919],[-46.5721,-21.3073],[-46.5457,-21.2704],[-46.50969,-21.24718],[-46.56699,-21.20409],[-46.57629,-21.19629],[-46.618,-21.1931],[-46.6218,-21.2475]]]]}},{"type":"Feature","properties":{"territory_id":"mg-3136900-mata-do-sino-zona-rural","name":"Mata do Sino Zona Rural","municipality_id":"mg-3136900","polling_places":1,"approx":true,"official":false,"method":"voronoi-polling-places","whole_municipality":false,"approx_coords_only":false},"geometry":{"type":"MultiPolygon","coordinates":[[[[-46.57629,-21.19629],[-46.56699,-21.20409],[-46.50969,-21.24718],[-46.4939,-21.237],[-46.4115,-21.2472],[-46.4155,-21.195],[-46.4253,-21.1704],[-46.4603,-21.1723],[-46.5506,-21.1506],[-46.5709,-21.1967],[-46.57629,-21.19629]]]]}}]}