{"type":"FeatureCollection","features":[{"type":"Feature","properties":{"territory_id":"mg-3136959-centro","name":"Centro","municipality_id":"mg-3136959","polling_places":3,"approx":true,"official":false,"method":"voronoi-polling-places","whole_municipality":false,"approx_coords_only":false},"geometry":{"type":"MultiPolygon","coordinates":[[[[-44.3373,-14.511],[-44.3206,-14.5485],[-44.3012,-14.5428],[-44.2584,-14.565],[-44.2353,-14.516],[-44.1947,-14.4672],[-44.216,-14.4435],[-44.1908,-14.4087],[-44.1459,-14.4056],[-44.1161,-14.3654],[-44.10414,-14.36683],[-44.08795,-14.26686],[-44.1073,-14.2591],[-44.1704,-14.2687],[-44.2091,-14.2467],[-44.26097,-14.25058],[-44.19719,-14.33637],[-44.16336,-14.38413],[-44.31321,-14.44606],[-44.3118,-14.4536],[-44.3373,-14.511]]]]}},{"type":"Feature","properties":{"territory_id":"mg-3136959-lote-grande","name":"Lote Grande","municipality_id":"mg-3136959","polling_places":1,"approx":true,"official":false,"method":"voronoi-polling-places","whole_municipality":false,"approx_coords_only":false},"geometry":{"type":"MultiPolygon","coordinates":[[[[-44.10414,-14.36683],[-44.08698,-14.36889],[-43.91053,-14.29736],[-43.9619,-14.291],[-43.9966,-14.2657],[-44.0457,-14.2838],[-44.08795,-14.26686],[-44.10414,-14.36683]]]]}},{"type":"Feature","properties":{"territory_id":"mg-3136959-porto-agrario","name":"Porto Agrario","municipality_id":"mg-3136959","polling_places":1,"approx":true,"official":false,"method":"voronoi-polling-places","whole_municipality":false,"approx_coords_only":false},"geometry":{"type":"MultiPolygon","coordinates":[[[[-44.08698,-14.36889],[-44.0594,-14.3722],[-44.04688,-14.4192],[-43.86714,-14.31282],[-43.8809,-14.3118],[-43.8973,-14.299],[-43.91053,-14.29736],[-44.08698,-14.36889]]]]}},{"type":"Feature","properties":{"territory_id":"mg-3136959-zona-rural","name":"Zona Rural","municipality_id":"mg-3136959","polling_places":2,"approx":true,"official":false,"method":"voronoi-polling-places","whole_municipality":false,"approx_coords_only":false},"geometry":{"type":"MultiPolygon","coordinates":[[[[-44.3246,-14.3852],[-44.31321,-14.44606],[-44.16336,-14.38413],[-44.19719,-14.33637],[-44.26097,-14.25058],[-44.296,-14.2532],[-44.2347,-14.3085],[-44.2639,-14.3233],[-44.3246,-14.3852]]],[[[-44.04688,-14.4192],[-44.0254,-14.4998],[-44.0114,-14.5358],[-43.9518,-14.5293],[-43.9188,-14.5137],[-43.8697,-14.4083],[-43.8184,-14.3877],[-43.7832,-14.3392],[-43.8284,-14.3157],[-43.86714,-14.31282],[-44.04688,-14.4192]]]]}}]}