{"type":"FeatureCollection","features":[{"type":"Feature","properties":{"territory_id":"mg-3136801-centro","name":"Centro","municipality_id":"mg-3136801","polling_places":1,"approx":true,"official":false,"method":"voronoi-polling-places","whole_municipality":false,"approx_coords_only":false},"geometry":{"type":"MultiPolygon","coordinates":[[[[-43.63095,-16.84001],[-43.6225,-16.8865],[-43.6055,-16.8933],[-43.59488,-16.9077],[-43.54599,-16.90082],[-43.60674,-16.79349],[-43.63095,-16.84001]]]]}},{"type":"Feature","properties":{"territory_id":"mg-3136801-nenzinha-borges","name":"Nenzinha Borges","municipality_id":"mg-3136801","polling_places":1,"approx":true,"official":false,"method":"voronoi-polling-places","whole_municipality":false,"approx_coords_only":false},"geometry":{"type":"MultiPolygon","coordinates":[[[[-43.60674,-16.79349],[-43.54599,-16.90082],[-43.4627,-16.90098],[-43.4551,-16.8727],[-43.4613,-16.8386],[-43.4872,-16.8147],[-43.5057,-16.8089],[-43.5427,-16.7485],[-43.55113,-16.74114],[-43.60341,-16.78289],[-43.60674,-16.79349]]]]}},{"type":"Feature","properties":{"territory_id":"mg-3136801-zona-rural","name":"Zona Rural","municipality_id":"mg-3136801","polling_places":3,"approx":true,"official":false,"method":"voronoi-polling-places","whole_municipality":false,"approx_coords_only":false},"geometry":{"type":"MultiPolygon","coordinates":[[[[-43.6978,-16.7752],[-43.6744,-16.8088],[-43.6328,-16.8298],[-43.63095,-16.84001],[-43.60674,-16.79349],[-43.60341,-16.78289],[-43.55113,-16.74114],[-43.5632,-16.7306],[-43.6231,-16.7107],[-43.6678,-16.7251],[-43.6978,-16.7752]]],[[[-43.6204,-16.9894],[-43.5661,-16.9638],[-43.4361,-16.9544],[-43.4405,-16.9246],[-43.4677,-16.9196],[-43.4627,-16.90098],[-43.54599,-16.90082],[-43.59488,-16.9077],[-43.5676,-16.9447],[-43.6204,-16.9894]]]]}}]}