{"type":"FeatureCollection","features":[{"type":"Feature","properties":{"territory_id":"mg-3136009-bela-vista","name":"Bela Vista","municipality_id":"mg-3136009","polling_places":1,"approx":true,"official":false,"method":"voronoi-polling-places","whole_municipality":false,"approx_coords_only":false},"geometry":{"type":"MultiPolygon","coordinates":[[[[-41.25512,-16.72442],[-41.01302,-16.77035],[-41.02323,-16.66112],[-41.02762,-16.65895],[-41.03069,-16.65783],[-41.18,-16.66703],[-41.2321,-16.6973],[-41.25512,-16.72442]]]]}},{"type":"Feature","properties":{"territory_id":"mg-3136009-centro","name":"Centro","municipality_id":"mg-3136009","polling_places":4,"approx":true,"official":false,"method":"voronoi-polling-places","whole_municipality":false,"approx_coords_only":false},"geometry":{"type":"MultiPolygon","coordinates":[[[[-41.18,-16.66703],[-41.03069,-16.65783],[-41.02762,-16.65895],[-41.02323,-16.66112],[-41.01964,-16.65623],[-41.02363,-16.65612],[-41.02498,-16.65578],[-41.02522,-16.65224],[-40.96531,-16.54828],[-40.9662,-16.5468],[-41.0558,-16.56],[-41.0932,-16.6105],[-41.1202,-16.6096],[-41.1519,-16.6507],[-41.18,-16.66703]]]]}},{"type":"Feature","properties":{"territory_id":"mg-3136009-comunidade-marianos","name":"Comunidade Marianos","municipality_id":"mg-3136009","polling_places":1,"approx":true,"official":false,"method":"voronoi-polling-places","whole_municipality":false,"approx_coords_only":false},"geometry":{"type":"MultiPolygon","coordinates":[[[[-41.2775,-17.0325],[-41.2569,-17.0481],[-41.1941,-17.038],[-41.1566,-17.0183],[-41.1224,-16.965],[-41.0937,-16.9444],[-41.0571,-16.9601],[-41.0389,-16.9266],[-41,-16.9303],[-40.99955,-16.92989],[-41.15213,-16.86742],[-41.1885,-16.8979],[-41.2442,-16.9839],[-41.2764,-17.006],[-41.2775,-17.0325]]]]}},{"type":"Feature","properties":{"territory_id":"mg-3136009-distrito-de-giru","name":"Distrito de Giru","municipality_id":"mg-3136009","polling_places":1,"approx":true,"official":false,"method":"voronoi-polling-places","whole_municipality":false,"approx_coords_only":false},"geometry":{"type":"MultiPolygon","coordinates":[[[[-41.2923,-16.7485],[-41.2525,-16.7727],[-41.2242,-16.7691],[-41.2028,-16.8041],[-41.1422,-16.8591],[-41.15213,-16.86742],[-40.99955,-16.92989],[-40.9657,-16.8987],[-40.9648,-16.8686],[-40.9211,-16.8158],[-40.8939,-16.8046],[-40.8478,-16.8658],[-40.8267,-16.8638],[-40.7992,-16.8326],[-40.77403,-16.82484],[-41.01302,-16.77035],[-41.25512,-16.72442],[-41.2608,-16.7311],[-41.2923,-16.7485]]]]}},{"type":"Feature","properties":{"territory_id":"mg-3136009-ipe-i","name":"Ipê I","municipality_id":"mg-3136009","polling_places":1,"approx":true,"official":false,"method":"voronoi-polling-places","whole_municipality":false,"approx_coords_only":false},"geometry":{"type":"MultiPolygon","coordinates":[[[[-41.02323,-16.66112],[-41.01302,-16.77035],[-40.77403,-16.82484],[-40.7567,-16.8195],[-40.7111,-16.8321],[-40.6889,-16.8073],[-40.6974,-16.7613],[-40.7269,-16.7227],[-40.7559,-16.7187],[-40.7892,-16.692],[-40.8258,-16.6836],[-40.815,-16.6465],[-40.8908,-16.6216],[-40.93495,-16.58604],[-41.01964,-16.65623],[-41.02323,-16.66112]]]]}},{"type":"Feature","properties":{"territory_id":"mg-3136009-zona-rural","name":"Zona Rural","municipality_id":"mg-3136009","polling_places":1,"approx":true,"official":false,"method":"voronoi-polling-places","whole_municipality":false,"approx_coords_only":false},"geometry":{"type":"MultiPolygon","coordinates":[[[[-41.02522,-16.65224],[-41.02498,-16.65578],[-41.02363,-16.65612],[-41.01964,-16.65623],[-40.93495,-16.58604],[-40.9499,-16.574],[-40.96531,-16.54828],[-41.02522,-16.65224]]]]}}]}