{"type":"FeatureCollection","features":[{"type":"Feature","properties":{"territory_id":"mg-3136603-carmo-de-uniao","name":"Carmo de Uniao","municipality_id":"mg-3136603","polling_places":1,"approx":true,"official":false,"method":"voronoi-polling-places","whole_municipality":false,"approx_coords_only":false},"geometry":{"type":"MultiPolygon","coordinates":[[[[-43.61629,-19.66646],[-43.54849,-19.66476],[-43.5488,-19.6636],[-43.5417,-19.6239],[-43.54185,-19.61379],[-43.59574,-19.59904],[-43.5986,-19.627],[-43.61629,-19.66646]]]]}},{"type":"Feature","properties":{"territory_id":"mg-3136603-centro","name":"Centro","municipality_id":"mg-3136603","polling_places":1,"approx":true,"official":false,"method":"voronoi-polling-places","whole_municipality":false,"approx_coords_only":false},"geometry":{"type":"MultiPolygon","coordinates":[[[[-43.6289,-19.6946],[-43.61572,-19.70328],[-43.53682,-19.70832],[-43.54849,-19.66476],[-43.61629,-19.66646],[-43.6289,-19.6946]]]]}},{"type":"Feature","properties":{"territory_id":"mg-3136603-nova-aparecida","name":"Nova Aparecida","municipality_id":"mg-3136603","polling_places":1,"approx":true,"official":false,"method":"voronoi-polling-places","whole_municipality":false,"approx_coords_only":false},"geometry":{"type":"MultiPolygon","coordinates":[[[[-43.61572,-19.70328],[-43.5382,-19.7543],[-43.533,-19.7226],[-43.53682,-19.70832],[-43.61572,-19.70328]]]]}},{"type":"Feature","properties":{"territory_id":"mg-3136603-povoado-de-altamira","name":"Povoado de Altamira","municipality_id":"mg-3136603","polling_places":1,"approx":true,"official":false,"method":"voronoi-polling-places","whole_municipality":false,"approx_coords_only":false},"geometry":{"type":"MultiPolygon","coordinates":[[[[-43.59574,-19.59904],[-43.54185,-19.61379],[-43.5429,-19.5405],[-43.546,-19.5113],[-43.5822,-19.5137],[-43.5748,-19.5451],[-43.5936,-19.5781],[-43.59574,-19.59904]]]]}}]}