{"type":"FeatureCollection","features":[{"type":"Feature","properties":{"territory_id":"mg-3136207-aclimacao","name":"Aclimação","municipality_id":"mg-3136207","polling_places":1,"approx":true,"official":false,"method":"voronoi-polling-places","whole_municipality":false,"approx_coords_only":false},"geometry":{"type":"MultiPolygon","coordinates":[[[[-43.19357,-19.82012],[-43.19153,-19.82539],[-43.18432,-19.82333],[-43.18319,-19.81646],[-43.18675,-19.81071],[-43.19357,-19.82012]]]]}},{"type":"Feature","properties":{"territory_id":"mg-3136207-alvorada","name":"Alvorada","municipality_id":"mg-3136207","polling_places":1,"approx":true,"official":false,"method":"voronoi-polling-places","whole_municipality":false,"approx_coords_only":false},"geometry":{"type":"MultiPolygon","coordinates":[[[[-43.18285,-19.81602],[-43.17708,-19.81283],[-43.17775,-19.80993],[-43.18001,-19.80772],[-43.1807,-19.80841],[-43.18285,-19.81602]]]]}},{"type":"Feature","properties":{"territory_id":"mg-3136207-bau","name":"Baú","municipality_id":"mg-3136207","polling_places":1,"approx":true,"official":false,"method":"voronoi-polling-places","whole_municipality":false,"approx_coords_only":false},"geometry":{"type":"MultiPolygon","coordinates":[[[[-43.15934,-19.81715],[-43.15676,-19.82211],[-43.14677,-19.82718],[-43.14215,-19.8074],[-43.15677,-19.80238],[-43.15721,-19.80324],[-43.15934,-19.81715]]]]}},{"type":"Feature","properties":{"territory_id":"mg-3136207-boa-vista","name":"Boa Vista","municipality_id":"mg-3136207","polling_places":1,"approx":true,"official":false,"method":"voronoi-polling-places","whole_municipality":false,"approx_coords_only":false},"geometry":{"type":"MultiPolygon","coordinates":[[[[-43.223,-19.7834],[-43.2049,-19.8173],[-43.21195,-19.83206],[-43.20528,-19.83487],[-43.19527,-19.83068],[-43.19153,-19.82539],[-43.19357,-19.82012],[-43.20889,-19.79019],[-43.21193,-19.78567],[-43.223,-19.7834]]]]}},{"type":"Feature","properties":{"territory_id":"mg-3136207-carneirinhos","name":"Carneirinhos","municipality_id":"mg-3136207","polling_places":3,"approx":true,"official":false,"method":"voronoi-polling-places","whole_municipality":false,"approx_coords_only":false},"geometry":{"type":"MultiPolygon","coordinates":[[[[-43.18001,-19.80772],[-43.17775,-19.80993],[-43.17345,-19.80929],[-43.17074,-19.81385],[-43.15947,-19.80489],[-43.15721,-19.80324],[-43.15677,-19.80238],[-43.17916,-19.79468],[-43.18001,-19.80772]]]]}},{"type":"Feature","properties":{"territory_id":"mg-3136207-centro-industrial","name":"Centro Industrial","municipality_id":"mg-3136207","polling_places":1,"approx":true,"official":false,"method":"voronoi-polling-places","whole_municipality":false,"approx_coords_only":false},"geometry":{"type":"MultiPolygon","coordinates":[[[[-43.14787,-19.84587],[-43.14764,-19.85624],[-43.11005,-19.83891],[-43.0976,-19.82491],[-43.0982,-19.8225],[-43.10685,-19.81953],[-43.13968,-19.83143],[-43.14446,-19.8337],[-43.14787,-19.84587]]]]}},{"type":"Feature","properties":{"territory_id":"mg-3136207-cruzeiro-celeste","name":"Cruzeiro Celeste","municipality_id":"mg-3136207","polling_places":3,"approx":true,"official":false,"method":"voronoi-polling-places","whole_municipality":false,"approx_coords_only":false},"geometry":{"type":"MultiPolygon","coordinates":[[[[-43.1862,-19.83932],[-43.18619,-19.8403],[-43.1816,-19.84768],[-43.17516,-19.84829],[-43.16821,-19.84992],[-43.17424,-19.83549],[-43.17522,-19.83585],[-43.18448,-19.83901],[-43.1862,-19.83932]]]]}},{"type":"Feature","properties":{"territory_id":"mg-3136207-jacui","name":"Jacuí","municipality_id":"mg-3136207","polling_places":1,"approx":true,"official":false,"method":"voronoi-polling-places","whole_municipality":false,"approx_coords_only":false},"geometry":{"type":"MultiPolygon","coordinates":[[[[-43.15339,-19.89094],[-43.1454,-19.8956],[-43.116,-19.87591],[-43.11005,-19.83891],[-43.14764,-19.85624],[-43.15183,-19.86627],[-43.15339,-19.89094]]]]}},{"type":"Feature","properties":{"territory_id":"mg-3136207-jk","name":"Jk","municipality_id":"mg-3136207","polling_places":1,"approx":true,"official":false,"method":"voronoi-polling-places","whole_municipality":false,"approx_coords_only":false},"geometry":{"type":"MultiPolygon","coordinates":[[[[-43.21193,-19.78567],[-43.20889,-19.79019],[-43.18696,-19.80995],[-43.1807,-19.80841],[-43.18001,-19.80772],[-43.17916,-19.79468],[-43.1957,-19.789],[-43.21193,-19.78567]]]]}},{"type":"Feature","properties":{"territory_id":"mg-3136207-laranjeiras","name":"Laranjeiras","municipality_id":"mg-3136207","polling_places":1,"approx":true,"official":false,"method":"voronoi-polling-places","whole_municipality":false,"approx_coords_only":false},"geometry":{"type":"MultiPolygon","coordinates":[[[[-43.16528,-19.82974],[-43.14787,-19.84587],[-43.14446,-19.8337],[-43.14677,-19.82718],[-43.15676,-19.82211],[-43.16528,-19.82974]]]]}},{"type":"Feature","properties":{"territory_id":"mg-3136207-loanda","name":"Loanda","municipality_id":"mg-3136207","polling_places":1,"approx":true,"official":false,"method":"voronoi-polling-places","whole_municipality":false,"approx_coords_only":false},"geometry":{"type":"MultiPolygon","coordinates":[[[[-43.1739,-19.82581],[-43.17259,-19.82817],[-43.16528,-19.82974],[-43.15676,-19.82211],[-43.15934,-19.81715],[-43.17186,-19.82176],[-43.1739,-19.82581]]]]}},{"type":"Feature","properties":{"territory_id":"mg-3136207-lourdes","name":"Lourdes","municipality_id":"mg-3136207","polling_places":1,"approx":true,"official":false,"method":"voronoi-polling-places","whole_municipality":false,"approx_coords_only":false},"geometry":{"type":"MultiPolygon","coordinates":[[[[-43.18432,-19.82333],[-43.1739,-19.82581],[-43.17186,-19.82176],[-43.17188,-19.81639],[-43.17708,-19.81283],[-43.18285,-19.81602],[-43.18319,-19.81646],[-43.18432,-19.82333]]]]}},{"type":"Feature","properties":{"territory_id":"mg-3136207-nossa-senhora-da-conceicao","name":"Nossa Senhora da Conceição","municipality_id":"mg-3136207","polling_places":1,"approx":true,"official":false,"method":"voronoi-polling-places","whole_municipality":false,"approx_coords_only":false},"geometry":{"type":"MultiPolygon","coordinates":[[[[-43.17775,-19.80993],[-43.17708,-19.81283],[-43.17188,-19.81639],[-43.17074,-19.81385],[-43.17345,-19.80929],[-43.17775,-19.80993]]]]}},{"type":"Feature","properties":{"territory_id":"mg-3136207-novo-cruzeiro","name":"Novo Cruzeiro","municipality_id":"mg-3136207","polling_places":1,"approx":true,"official":false,"method":"voronoi-polling-places","whole_municipality":false,"approx_coords_only":false},"geometry":{"type":"MultiPolygon","coordinates":[[[[-43.19897,-19.8635],[-43.19871,-19.86369],[-43.1816,-19.84768],[-43.18619,-19.8403],[-43.19897,-19.8635]]]]}},{"type":"Feature","properties":{"territory_id":"mg-3136207-novo-horizonte","name":"Novo Horizonte","municipality_id":"mg-3136207","polling_places":1,"approx":true,"official":false,"method":"voronoi-polling-places","whole_municipality":false,"approx_coords_only":false},"geometry":{"type":"MultiPolygon","coordinates":[[[[-43.18696,-19.80995],[-43.18675,-19.81071],[-43.18319,-19.81646],[-43.18285,-19.81602],[-43.1807,-19.80841],[-43.18696,-19.80995]]]]}},{"type":"Feature","properties":{"territory_id":"mg-3136207-primeiro-de-maio","name":"Primeiro de Maio","municipality_id":"mg-3136207","polling_places":1,"approx":true,"official":false,"method":"voronoi-polling-places","whole_municipality":false,"approx_coords_only":false},"geometry":{"type":"MultiPolygon","coordinates":[[[[-43.19871,-19.86369],[-43.1931,-19.8678],[-43.15339,-19.89094],[-43.15183,-19.86627],[-43.16821,-19.84992],[-43.17516,-19.84829],[-43.1816,-19.84768],[-43.19871,-19.86369]]]]}},{"type":"Feature","properties":{"territory_id":"mg-3136207-promorar","name":"Promorar","municipality_id":"mg-3136207","polling_places":1,"approx":true,"official":false,"method":"voronoi-polling-places","whole_municipality":false,"approx_coords_only":false},"geometry":{"type":"MultiPolygon","coordinates":[[[[-43.19527,-19.83068],[-43.1862,-19.83932],[-43.18448,-19.83901],[-43.17522,-19.83585],[-43.17424,-19.83549],[-43.17259,-19.82817],[-43.1739,-19.82581],[-43.18432,-19.82333],[-43.19153,-19.82539],[-43.19527,-19.83068]]]]}},{"type":"Feature","properties":{"territory_id":"mg-3136207-santa-barbara","name":"Santa Bárbara","municipality_id":"mg-3136207","polling_places":1,"approx":true,"official":false,"method":"voronoi-polling-places","whole_municipality":false,"approx_coords_only":false},"geometry":{"type":"MultiPolygon","coordinates":[[[[-43.20889,-19.79019],[-43.19357,-19.82012],[-43.18675,-19.81071],[-43.18696,-19.80995],[-43.20889,-19.79019]]]]}},{"type":"Feature","properties":{"territory_id":"mg-3136207-santo-hipolito","name":"Santo Hipólito","municipality_id":"mg-3136207","polling_places":1,"approx":true,"official":false,"method":"voronoi-polling-places","whole_municipality":false,"approx_coords_only":false},"geometry":{"type":"MultiPolygon","coordinates":[[[[-43.20528,-19.83487],[-43.19975,-19.86293],[-43.19897,-19.8635],[-43.18619,-19.8403],[-43.1862,-19.83932],[-43.19527,-19.83068],[-43.20528,-19.83487]]]]}},{"type":"Feature","properties":{"territory_id":"mg-3136207-satelite","name":"Satélite","municipality_id":"mg-3136207","polling_places":1,"approx":true,"official":false,"method":"voronoi-polling-places","whole_municipality":false,"approx_coords_only":false},"geometry":{"type":"MultiPolygon","coordinates":[[[[-43.17188,-19.81639],[-43.17186,-19.82176],[-43.15934,-19.81715],[-43.15721,-19.80324],[-43.15947,-19.80489],[-43.17074,-19.81385],[-43.17188,-19.81639]]]]}},{"type":"Feature","properties":{"territory_id":"mg-3136207-serra-do-egito","name":"Serra do Egito","municipality_id":"mg-3136207","polling_places":1,"approx":true,"official":false,"method":"voronoi-polling-places","whole_municipality":false,"approx_coords_only":false},"geometry":{"type":"MultiPolygon","coordinates":[[[[-43.116,-19.87591],[-43.0894,-19.8581],[-43.0976,-19.82491],[-43.11005,-19.83891],[-43.116,-19.87591]]]]}},{"type":"Feature","properties":{"territory_id":"mg-3136207-tanquinho","name":"Tanquinho","municipality_id":"mg-3136207","polling_places":1,"approx":true,"official":false,"method":"voronoi-polling-places","whole_municipality":false,"approx_coords_only":false},"geometry":{"type":"MultiPolygon","coordinates":[[[[-43.2197,-19.8483],[-43.19975,-19.86293],[-43.20528,-19.83487],[-43.21195,-19.83206],[-43.2197,-19.8483]]]]}},{"type":"Feature","properties":{"territory_id":"mg-3136207-vera-cruz","name":"Vera Cruz","municipality_id":"mg-3136207","polling_places":1,"approx":true,"official":false,"method":"voronoi-polling-places","whole_municipality":false,"approx_coords_only":false},"geometry":{"type":"MultiPolygon","coordinates":[[[[-43.17424,-19.83549],[-43.16821,-19.84992],[-43.15183,-19.86627],[-43.14764,-19.85624],[-43.14787,-19.84587],[-43.16528,-19.82974],[-43.17259,-19.82817],[-43.17424,-19.83549]]]]}},{"type":"Feature","properties":{"territory_id":"mg-3136207-vila-tanque","name":"Vila Tanque","municipality_id":"mg-3136207","polling_places":2,"approx":true,"official":false,"method":"voronoi-polling-places","whole_municipality":false,"approx_coords_only":false},"geometry":{"type":"MultiPolygon","coordinates":[[[[-43.14677,-19.82718],[-43.14446,-19.8337],[-43.13968,-19.83143],[-43.10685,-19.81953],[-43.14215,-19.8074],[-43.14677,-19.82718]]]]}}]}