{"type":"FeatureCollection","features":[{"type":"Feature","properties":{"territory_id":"mg-3136652-bela-vista","name":"Bela Vista","municipality_id":"mg-3136652","polling_places":1,"approx":true,"official":false,"method":"voronoi-polling-places","whole_municipality":false,"approx_coords_only":false},"geometry":{"type":"MultiPolygon","coordinates":[[[[-44.34823,-19.95772],[-44.34585,-19.96154],[-44.31883,-19.96402],[-44.31692,-19.9627],[-44.31367,-19.95519],[-44.34773,-19.95668],[-44.34823,-19.95772]]]]}},{"type":"Feature","properties":{"territory_id":"mg-3136652-boa-vista","name":"Boa Vista","municipality_id":"mg-3136652","polling_places":1,"approx":true,"official":false,"method":"voronoi-polling-places","whole_municipality":false,"approx_coords_only":false},"geometry":{"type":"MultiPolygon","coordinates":[[[[-44.4387,-19.9312],[-44.4285,-19.9557],[-44.40709,-19.96863],[-44.38389,-19.94451],[-44.37611,-19.92479],[-44.37421,-19.91126],[-44.4387,-19.9312]]]]}},{"type":"Feature","properties":{"territory_id":"mg-3136652-canaan","name":"Canaan","municipality_id":"mg-3136652","polling_places":2,"approx":true,"official":false,"method":"voronoi-polling-places","whole_municipality":false,"approx_coords_only":false},"geometry":{"type":"MultiPolygon","coordinates":[[[[-44.36057,-19.96517],[-44.35364,-19.98168],[-44.3455,-19.9824],[-44.34525,-19.98529],[-44.3432,-19.98313],[-44.31883,-19.96402],[-44.34585,-19.96154],[-44.34823,-19.95772],[-44.36057,-19.96517]]]]}},{"type":"Feature","properties":{"territory_id":"mg-3136652-centro","name":"Centro","municipality_id":"mg-3136652","polling_places":1,"approx":true,"official":false,"method":"voronoi-polling-places","whole_municipality":false,"approx_coords_only":false},"geometry":{"type":"MultiPolygon","coordinates":[[[[-44.34984,-19.94689],[-44.34773,-19.95668],[-44.31367,-19.95519],[-44.30922,-19.94779],[-44.34984,-19.94689]]]]}},{"type":"Feature","properties":{"territory_id":"mg-3136652-cidade-nova-i","name":"Cidade Nova I","municipality_id":"mg-3136652","polling_places":1,"approx":true,"official":false,"method":"voronoi-polling-places","whole_municipality":false,"approx_coords_only":false},"geometry":{"type":"MultiPolygon","coordinates":[[[[-44.38389,-19.94451],[-44.36057,-19.96517],[-44.34823,-19.95772],[-44.34773,-19.95668],[-44.34984,-19.94689],[-44.37611,-19.92479],[-44.38389,-19.94451]]]]}},{"type":"Feature","properties":{"territory_id":"mg-3136652-cidade-satelite","name":"Cidade Satelite","municipality_id":"mg-3136652","polling_places":1,"approx":true,"official":false,"method":"voronoi-polling-places","whole_municipality":false,"approx_coords_only":false},"geometry":{"type":"MultiPolygon","coordinates":[[[[-44.37611,-19.92479],[-44.34984,-19.94689],[-44.30922,-19.94779],[-44.30739,-19.94564],[-44.3165,-19.9383],[-44.3368,-19.9398],[-44.3546,-19.9052],[-44.37421,-19.91126],[-44.37611,-19.92479]]]]}},{"type":"Feature","properties":{"territory_id":"mg-3136652-francelinos","name":"Francelinos","municipality_id":"mg-3136652","polling_places":1,"approx":true,"official":false,"method":"voronoi-polling-places","whole_municipality":false,"approx_coords_only":false},"geometry":{"type":"MultiPolygon","coordinates":[[[[-44.29069,-19.9591],[-44.28611,-20.00234],[-44.2722,-20.0049],[-44.2703,-20.0039],[-44.2763,-19.9707],[-44.29069,-19.9591]]]]}},{"type":"Feature","properties":{"territory_id":"mg-3136652-quinta-vale-das-braunas","name":"Quinta Vale das Braunas","municipality_id":"mg-3136652","polling_places":1,"approx":true,"official":false,"method":"voronoi-polling-places","whole_municipality":false,"approx_coords_only":false},"geometry":{"type":"MultiPolygon","coordinates":[[[[-44.34525,-19.98529],[-44.3436,-20.0046],[-44.3217,-19.9958],[-44.30633,-19.99863],[-44.31692,-19.9627],[-44.31883,-19.96402],[-44.3432,-19.98313],[-44.34525,-19.98529]]]]}},{"type":"Feature","properties":{"territory_id":"mg-3136652-samambaia-i","name":"Samambaia I","municipality_id":"mg-3136652","polling_places":1,"approx":true,"official":false,"method":"voronoi-polling-places","whole_municipality":false,"approx_coords_only":false},"geometry":{"type":"MultiPolygon","coordinates":[[[[-44.31692,-19.9627],[-44.30633,-19.99863],[-44.28611,-20.00234],[-44.29069,-19.9591],[-44.30739,-19.94564],[-44.30922,-19.94779],[-44.31367,-19.95519],[-44.31692,-19.9627]]]]}},{"type":"Feature","properties":{"territory_id":"mg-3136652-vila-maria-regina","name":"Vila Maria Regina","municipality_id":"mg-3136652","polling_places":1,"approx":true,"official":false,"method":"voronoi-polling-places","whole_municipality":false,"approx_coords_only":false},"geometry":{"type":"MultiPolygon","coordinates":[[[[-44.40709,-19.96863],[-44.3909,-19.9784],[-44.35364,-19.98168],[-44.36057,-19.96517],[-44.38389,-19.94451],[-44.40709,-19.96863]]]]}}]}