{"type":"FeatureCollection","features":[{"type":"Feature","properties":{"territory_id":"mg-3136405-barreirinho","name":"Barreirinho","municipality_id":"mg-3136405","polling_places":1,"approx":true,"official":false,"method":"voronoi-polling-places","whole_municipality":false,"approx_coords_only":false},"geometry":{"type":"MultiPolygon","coordinates":[[[[-44.11534,-17.59343],[-44.09066,-17.64878],[-43.99394,-17.68999],[-43.9892,-17.6382],[-43.9721,-17.62],[-43.97211,-17.61947],[-44.11534,-17.59343]]]]}},{"type":"Feature","properties":{"territory_id":"mg-3136405-centro","name":"Centro","municipality_id":"mg-3136405","polling_places":2,"approx":true,"official":false,"method":"voronoi-polling-places","whole_municipality":false,"approx_coords_only":false},"geometry":{"type":"MultiPolygon","coordinates":[[[[-44.2979,-17.8109],[-44.2723,-17.8199],[-44.1731,-17.8129],[-44.074,-17.8339],[-44.06679,-17.81377],[-44.0967,-17.75401],[-44.18794,-17.71053],[-44.24921,-17.68058],[-44.2933,-17.7012],[-44.279,-17.7556],[-44.2979,-17.8109]]]]}},{"type":"Feature","properties":{"territory_id":"mg-3136405-zona-rural","name":"Zona Rural","municipality_id":"mg-3136405","polling_places":3,"approx":true,"official":false,"method":"voronoi-polling-places","whole_municipality":false,"approx_coords_only":false},"geometry":{"type":"MultiPolygon","coordinates":[[[[-44.24921,-17.68058],[-44.18794,-17.71053],[-44.0967,-17.75401],[-44.06679,-17.81377],[-44.0553,-17.7817],[-43.9966,-17.719],[-43.99394,-17.68999],[-44.09066,-17.64878],[-44.11534,-17.59343],[-43.97211,-17.61947],[-43.9732,-17.5719],[-43.9564,-17.5553],[-44.0591,-17.4487],[-44.085,-17.4273],[-44.0955,-17.5312],[-44.125,-17.5719],[-44.116,-17.6135],[-44.1595,-17.6555],[-44.1915,-17.6536],[-44.24921,-17.68058]]]]}}]}