{"type":"FeatureCollection","features":[{"type":"Feature","properties":{"territory_id":"mg-3136306-agua-limpa","name":"Água Limpa","municipality_id":"mg-3136306","polling_places":1,"approx":true,"official":false,"method":"voronoi-polling-places","whole_municipality":false,"approx_coords_only":false},"geometry":{"type":"MultiPolygon","coordinates":[[[[-46.16839,-17.72893],[-46.16756,-17.74258],[-46.11432,-17.77606],[-46.11392,-17.77592],[-46.16839,-17.72893]]]]}},{"type":"Feature","properties":{"territory_id":"mg-3136306-alvorada","name":"Alvorada","municipality_id":"mg-3136306","polling_places":2,"approx":true,"official":false,"method":"voronoi-polling-places","whole_municipality":false,"approx_coords_only":false},"geometry":{"type":"MultiPolygon","coordinates":[[[[-46.20252,-17.74701],[-46.18986,-17.7503],[-46.17989,-17.75694],[-46.17802,-17.74888],[-46.17855,-17.74832],[-46.17859,-17.74655],[-46.1837,-17.74219],[-46.19331,-17.74182],[-46.20252,-17.74701]]]]}},{"type":"Feature","properties":{"territory_id":"mg-3136306-caatinga","name":"Caatinga","municipality_id":"mg-3136306","polling_places":1,"approx":true,"official":false,"method":"voronoi-polling-places","whole_municipality":false,"approx_coords_only":false},"geometry":{"type":"MultiPolygon","coordinates":[[[[-46.00505,-17.18609],[-45.99645,-17.28871],[-45.98793,-17.29799],[-45.94758,-17.28998],[-45.74162,-17.24492],[-45.47237,-17.11013],[-45.5293,-17.0985],[-45.5213,-17.0837],[-45.5611,-17.0443],[-45.6146,-17.097],[-45.6624,-17.1127],[-45.7155,-17.1178],[-45.7296,-17.1495],[-45.7687,-17.1758],[-45.8055,-17.145],[-45.8464,-17.1531],[-45.894,-17.1426],[-45.9261,-17.1104],[-45.9759,-17.1772],[-46.00505,-17.18609]]]]}},{"type":"Feature","properties":{"territory_id":"mg-3136306-cana-brava","name":"Cana Brava","municipality_id":"mg-3136306","polling_places":2,"approx":true,"official":false,"method":"voronoi-polling-places","whole_municipality":false,"approx_coords_only":false},"geometry":{"type":"MultiPolygon","coordinates":[[[[-45.99209,-17.45331],[-45.98122,-17.46334],[-45.81834,-17.50746],[-45.79839,-17.42648],[-45.74162,-17.24492],[-45.94758,-17.28998],[-45.98793,-17.29799],[-45.99209,-17.45331]]]]}},{"type":"Feature","properties":{"territory_id":"mg-3136306-centro","name":"Centro","municipality_id":"mg-3136306","polling_places":5,"approx":true,"official":false,"method":"voronoi-polling-places","whole_municipality":false,"approx_coords_only":false},"geometry":{"type":"MultiPolygon","coordinates":[[[[-46.1837,-17.74219],[-46.17859,-17.74655],[-46.17855,-17.74832],[-46.17802,-17.74888],[-46.17179,-17.75014],[-46.17135,-17.74607],[-46.17026,-17.74441],[-46.16756,-17.74258],[-46.16839,-17.72893],[-46.17225,-17.72274],[-46.17564,-17.73599],[-46.17821,-17.73962],[-46.1837,-17.74219]]]]}},{"type":"Feature","properties":{"territory_id":"mg-3136306-cohab","name":"Cohab","municipality_id":"mg-3136306","polling_places":1,"approx":true,"official":false,"method":"voronoi-polling-places","whole_municipality":false,"approx_coords_only":false},"geometry":{"type":"MultiPolygon","coordinates":[[[[-46.1731,-17.71956],[-46.17225,-17.72274],[-46.16839,-17.72893],[-46.11392,-17.77592],[-46.01626,-17.75362],[-46.16782,-17.60012],[-46.1731,-17.71956]]]]}},{"type":"Feature","properties":{"territory_id":"mg-3136306-distrito-de-cana-brava","name":"Distrito de Cana Brava","municipality_id":"mg-3136306","polling_places":1,"approx":true,"official":false,"method":"voronoi-polling-places","whole_municipality":false,"approx_coords_only":false},"geometry":{"type":"MultiPolygon","coordinates":[[[[-45.81834,-17.50746],[-45.80353,-17.51903],[-45.50639,-17.28929],[-45.507,-17.2708],[-45.4864,-17.1816],[-45.4533,-17.1547],[-45.4358,-17.1176],[-45.47237,-17.11013],[-45.74162,-17.24492],[-45.79839,-17.42648],[-45.81834,-17.50746]]]]}},{"type":"Feature","properties":{"territory_id":"mg-3136306-esplanada","name":"Esplanada","municipality_id":"mg-3136306","polling_places":1,"approx":true,"official":false,"method":"voronoi-polling-places","whole_municipality":false,"approx_coords_only":false},"geometry":{"type":"MultiPolygon","coordinates":[[[[-46.19331,-17.74182],[-46.1837,-17.74219],[-46.17821,-17.73962],[-46.17564,-17.73599],[-46.17225,-17.72274],[-46.1731,-17.71956],[-46.19331,-17.74182]]]]}},{"type":"Feature","properties":{"territory_id":"mg-3136306-fruta-danta","name":"Fruta Danta","municipality_id":"mg-3136306","polling_places":1,"approx":true,"official":false,"method":"voronoi-polling-places","whole_municipality":false,"approx_coords_only":false},"geometry":{"type":"MultiPolygon","coordinates":[[[[-46.30606,-17.4605],[-46.19173,-17.54922],[-45.99209,-17.45331],[-45.98793,-17.29799],[-45.99645,-17.28871],[-46.29147,-17.26792],[-46.30606,-17.4605]]]]}},{"type":"Feature","properties":{"territory_id":"mg-3136306-luizlandia-do-oeste","name":"Luizlândia do Oeste","municipality_id":"mg-3136306","polling_places":1,"approx":true,"official":false,"method":"voronoi-polling-places","whole_municipality":false,"approx_coords_only":false},"geometry":{"type":"MultiPolygon","coordinates":[[[[-45.74279,-17.93419],[-45.73792,-18.00939],[-45.65146,-18.0952],[-45.6455,-18.0883],[-45.6326,-18.0582],[-45.6336,-18.0133],[-45.6071,-18.0038],[-45.5836,-17.9421],[-45.5146,-17.8616],[-45.4564,-17.8471],[-45.4664,-17.8314],[-45.45679,-17.81821],[-45.74279,-17.93419]]]]}},{"type":"Feature","properties":{"territory_id":"mg-3136306-malhada-bonita","name":"Malhada Bonita","municipality_id":"mg-3136306","polling_places":1,"approx":true,"official":false,"method":"voronoi-polling-places","whole_municipality":false,"approx_coords_only":false},"geometry":{"type":"MultiPolygon","coordinates":[[[[-45.81017,-17.77793],[-45.75065,-17.92693],[-45.74279,-17.93419],[-45.45679,-17.81821],[-45.4342,-17.7872],[-45.4286,-17.7557],[-45.445,-17.7369],[-45.4118,-17.7063],[-45.4036,-17.6684],[-45.42842,-17.63778],[-45.43228,-17.63791],[-45.81017,-17.77793]]]]}},{"type":"Feature","properties":{"territory_id":"mg-3136306-malhadinha","name":"Malhadinha","municipality_id":"mg-3136306","polling_places":1,"approx":true,"official":false,"method":"voronoi-polling-places","whole_municipality":false,"approx_coords_only":false},"geometry":{"type":"MultiPolygon","coordinates":[[[[-45.85991,-17.73813],[-45.81017,-17.77793],[-45.43228,-17.63791],[-45.77583,-17.57348],[-45.85991,-17.73813]]]]}},{"type":"Feature","properties":{"territory_id":"mg-3136306-mandacaru","name":"Mandacaru","municipality_id":"mg-3136306","polling_places":1,"approx":true,"official":false,"method":"voronoi-polling-places","whole_municipality":false,"approx_coords_only":false},"geometry":{"type":"MultiPolygon","coordinates":[[[[-45.80353,-17.51903],[-45.77583,-17.57348],[-45.43228,-17.63791],[-45.42842,-17.63778],[-45.4554,-17.6045],[-45.4346,-17.5829],[-45.3906,-17.5791],[-45.3845,-17.5214],[-45.4202,-17.4847],[-45.4415,-17.4871],[-45.504,-17.4508],[-45.5174,-17.4221],[-45.553,-17.4081],[-45.5618,-17.3817],[-45.5294,-17.3576],[-45.5053,-17.3226],[-45.50639,-17.28929],[-45.80353,-17.51903]]]]}},{"type":"Feature","properties":{"territory_id":"mg-3136306-mangabeiras","name":"Mangabeiras","municipality_id":"mg-3136306","polling_places":1,"approx":true,"official":false,"method":"voronoi-polling-places","whole_municipality":false,"approx_coords_only":false},"geometry":{"type":"MultiPolygon","coordinates":[[[[-46.17179,-17.75014],[-46.14514,-17.78839],[-46.11432,-17.77606],[-46.16756,-17.74258],[-46.17026,-17.74441],[-46.17135,-17.74607],[-46.17179,-17.75014]]]]}},{"type":"Feature","properties":{"territory_id":"mg-3136306-olhos-dagua","name":"Olhos Dagua","municipality_id":"mg-3136306","polling_places":1,"approx":true,"official":false,"method":"voronoi-polling-places","whole_municipality":false,"approx_coords_only":false},"geometry":{"type":"MultiPolygon","coordinates":[[[[-45.98122,-17.46334],[-45.94589,-17.73837],[-45.85991,-17.73813],[-45.77583,-17.57348],[-45.80353,-17.51903],[-45.81834,-17.50746],[-45.98122,-17.46334]]]]}},{"type":"Feature","properties":{"territory_id":"mg-3136306-papagaio","name":"Papagaio","municipality_id":"mg-3136306","polling_places":1,"approx":true,"official":false,"method":"voronoi-polling-places","whole_municipality":false,"approx_coords_only":false},"geometry":{"type":"MultiPolygon","coordinates":[[[[-46.17989,-17.75694],[-46.15793,-17.79527],[-46.14514,-17.78839],[-46.17179,-17.75014],[-46.17802,-17.74888],[-46.17989,-17.75694]]]]}},{"type":"Feature","properties":{"territory_id":"mg-3136306-perimetro-urbano","name":"Perímetro Urbano","municipality_id":"mg-3136306","polling_places":1,"approx":true,"official":false,"method":"voronoi-polling-places","whole_municipality":false,"approx_coords_only":false},"geometry":{"type":"MultiPolygon","coordinates":[[[[-46.25107,-17.85936],[-46.03564,-17.96973],[-46.03147,-17.96343],[-45.99249,-17.76398],[-46.01626,-17.75362],[-46.11392,-17.77592],[-46.11432,-17.77606],[-46.14514,-17.78839],[-46.15793,-17.79527],[-46.25107,-17.85936]]]]}},{"type":"Feature","properties":{"territory_id":"mg-3136306-primavera","name":"Primavera","municipality_id":"mg-3136306","polling_places":1,"approx":true,"official":false,"method":"voronoi-polling-places","whole_municipality":false,"approx_coords_only":false},"geometry":{"type":"MultiPolygon","coordinates":[[[[-46.29319,-17.83748],[-46.28817,-17.85636],[-46.25107,-17.85936],[-46.15793,-17.79527],[-46.17989,-17.75694],[-46.18986,-17.7503],[-46.20252,-17.74701],[-46.25216,-17.75759],[-46.29319,-17.83748]]]]}},{"type":"Feature","properties":{"territory_id":"mg-3136306-ruralminas-i","name":"Ruralminas I","municipality_id":"mg-3136306","polling_places":1,"approx":true,"official":false,"method":"voronoi-polling-places","whole_municipality":false,"approx_coords_only":false},"geometry":{"type":"MultiPolygon","coordinates":[[[[-46.32895,-17.75683],[-46.3288,-17.7658],[-46.3066,-17.7871],[-46.29319,-17.83748],[-46.25216,-17.75759],[-46.2103,-17.60092],[-46.28011,-17.64678],[-46.32895,-17.75683]]]]}},{"type":"Feature","properties":{"territory_id":"mg-3136306-ruralminas-ii","name":"Ruralminas Ii","municipality_id":"mg-3136306","polling_places":1,"approx":true,"official":false,"method":"voronoi-polling-places","whole_municipality":false,"approx_coords_only":false},"geometry":{"type":"MultiPolygon","coordinates":[[[[-46.48795,-17.53991],[-46.4463,-17.5681],[-46.4297,-17.5954],[-46.3846,-17.6102],[-46.3558,-17.6582],[-46.36005,-17.67686],[-46.28011,-17.64678],[-46.2103,-17.60092],[-46.19024,-17.57038],[-46.19173,-17.54922],[-46.30606,-17.4605],[-46.48795,-17.53991]]]]}},{"type":"Feature","properties":{"territory_id":"mg-3136306-santa-cruz-i","name":"Santa Cruz I","municipality_id":"mg-3136306","polling_places":1,"approx":true,"official":false,"method":"voronoi-polling-places","whole_municipality":false,"approx_coords_only":false},"geometry":{"type":"MultiPolygon","coordinates":[[[[-46.25216,-17.75759],[-46.20252,-17.74701],[-46.19331,-17.74182],[-46.1731,-17.71956],[-46.16782,-17.60012],[-46.19024,-17.57038],[-46.2103,-17.60092],[-46.25216,-17.75759]]]]}},{"type":"Feature","properties":{"territory_id":"mg-3136306-santa-luzia","name":"Santa Luzia","municipality_id":"mg-3136306","polling_places":1,"approx":true,"official":false,"method":"voronoi-polling-places","whole_municipality":false,"approx_coords_only":false},"geometry":{"type":"MultiPolygon","coordinates":[[[[-46.19173,-17.54922],[-46.19024,-17.57038],[-46.16782,-17.60012],[-46.01626,-17.75362],[-45.99249,-17.76398],[-45.94589,-17.73837],[-45.98122,-17.46334],[-45.99209,-17.45331],[-46.19173,-17.54922]]]]}},{"type":"Feature","properties":{"territory_id":"mg-3136306-taua","name":"Tauá","municipality_id":"mg-3136306","polling_places":1,"approx":true,"official":false,"method":"voronoi-polling-places","whole_municipality":false,"approx_coords_only":false},"geometry":{"type":"MultiPolygon","coordinates":[[[[-46.28817,-17.85636],[-46.2876,-17.8585],[-46.2629,-17.8917],[-46.2743,-17.9583],[-46.2749,-18.0153],[-46.242,-18.0583],[-46.2155,-18.0673],[-46.1151,-18.0798],[-46.0778,-18.1022],[-46.073,-18.1371],[-46.05588,-18.15606],[-46.03564,-17.96973],[-46.25107,-17.85936],[-46.28817,-17.85636]]]]}},{"type":"Feature","properties":{"territory_id":"mg-3136306-vargem-bonita-olaria","name":"Vargem Bonita - Olaria","municipality_id":"mg-3136306","polling_places":1,"approx":true,"official":false,"method":"voronoi-polling-places","whole_municipality":false,"approx_coords_only":false},"geometry":{"type":"MultiPolygon","coordinates":[[[[-46.3634,-17.6916],[-46.3293,-17.736],[-46.32895,-17.75683],[-46.28011,-17.64678],[-46.36005,-17.67686],[-46.3634,-17.6916]]]]}},{"type":"Feature","properties":{"territory_id":"mg-3136306-veredas","name":"Veredas","municipality_id":"mg-3136306","polling_places":1,"approx":true,"official":false,"method":"voronoi-polling-places","whole_municipality":false,"approx_coords_only":false},"geometry":{"type":"MultiPolygon","coordinates":[[[[-46.0213,-18.2857],[-46.0072,-18.323],[-45.9079,-18.3104],[-45.8821,-18.2551],[-45.8464,-18.2328],[-45.806,-18.1787],[-45.7541,-18.1686],[-45.69,-18.1398],[-45.65146,-18.0952],[-45.73792,-18.00939],[-46.00536,-18.23438],[-46.0071,-18.2659],[-46.0213,-18.2857]]]]}},{"type":"Feature","properties":{"territory_id":"mg-3136306-vila-almas","name":"Vila Almas","municipality_id":"mg-3136306","polling_places":1,"approx":true,"official":false,"method":"voronoi-polling-places","whole_municipality":false,"approx_coords_only":false},"geometry":{"type":"MultiPolygon","coordinates":[[[[-46.05588,-18.15606],[-46.0042,-18.2133],[-46.00536,-18.23438],[-45.73792,-18.00939],[-45.74279,-17.93419],[-45.75065,-17.92693],[-46.03147,-17.96343],[-46.03564,-17.96973],[-46.05588,-18.15606]]]]}},{"type":"Feature","properties":{"territory_id":"mg-3136306-vila-lajes","name":"Vila Lajes","municipality_id":"mg-3136306","polling_places":1,"approx":true,"official":false,"method":"voronoi-polling-places","whole_municipality":false,"approx_coords_only":false},"geometry":{"type":"MultiPolygon","coordinates":[[[[-46.03147,-17.96343],[-45.75065,-17.92693],[-45.81017,-17.77793],[-45.85991,-17.73813],[-45.94589,-17.73837],[-45.99249,-17.76398],[-46.03147,-17.96343]]]]}},{"type":"Feature","properties":{"territory_id":"mg-3136306-zona-rural","name":"Zona Rural","municipality_id":"mg-3136306","polling_places":2,"approx":true,"official":false,"method":"voronoi-polling-places","whole_municipality":false,"approx_coords_only":false},"geometry":{"type":"MultiPolygon","coordinates":[[[[-46.5508,-17.489],[-46.5153,-17.5214],[-46.48795,-17.53991],[-46.30606,-17.4605],[-46.29147,-17.26792],[-45.99645,-17.28871],[-46.00505,-17.18609],[-46.032,-17.1943],[-46.0601,-17.1875],[-46.0832,-17.145],[-46.1216,-17.1498],[-46.1574,-17.1099],[-46.0902,-17.0536],[-46.1225,-17.0482],[-46.1563,-16.9989],[-46.201,-16.9975],[-46.2051,-16.9625],[-46.2373,-16.9836],[-46.2039,-17.0113],[-46.279,-17.0751],[-46.2718,-17.0991],[-46.2933,-17.1233],[-46.277,-17.1459],[-46.2862,-17.2039],[-46.3077,-17.2126],[-46.3368,-17.1856],[-46.3595,-17.2134],[-46.4201,-17.2594],[-46.4886,-17.2918],[-46.4786,-17.3382],[-46.494,-17.3998],[-46.5423,-17.4186],[-46.5508,-17.489]]]]}}]}