{"type":"FeatureCollection","features":[{"type":"Feature","properties":{"territory_id":"mg-3136504-centro","name":"Centro","municipality_id":"mg-3136504","polling_places":3,"approx":true,"official":false,"method":"voronoi-polling-places","whole_municipality":false,"approx_coords_only":false},"geometry":{"type":"MultiPolygon","coordinates":[[[[-40.26285,-15.96958],[-40.2606,-15.9685],[-40.2294,-15.9677],[-40.1994,-15.9791],[-40.1558,-15.9569],[-40.1142,-15.9554],[-40.1275,-15.9071],[-40.1598,-15.9085],[-40.174,-15.8705],[-40.2069,-15.8545],[-40.23208,-15.80991],[-40.2425,-15.86638],[-40.25385,-15.92779],[-40.26285,-15.96958]]]]}},{"type":"Feature","properties":{"territory_id":"mg-3136504-distrito-do-estrela","name":"Distrito do Estrela","municipality_id":"mg-3136504","polling_places":1,"approx":true,"official":false,"method":"voronoi-polling-places","whole_municipality":false,"approx_coords_only":true},"geometry":{"type":"MultiPolygon","coordinates":[[[[-40.31078,-15.99265],[-40.26285,-15.96958],[-40.25385,-15.92779],[-40.2425,-15.86638],[-40.23208,-15.80991],[-40.2357,-15.8035],[-40.2944,-15.8166],[-40.31078,-15.81695],[-40.31078,-15.99265]]]]}},{"type":"Feature","properties":{"territory_id":"mg-3136504-distrito-do-ribeira-do-capim-acu","name":"Distrito do Ribeira do Capim Açú","municipality_id":"mg-3136504","polling_places":1,"approx":true,"official":false,"method":"voronoi-polling-places","whole_municipality":false,"approx_coords_only":true},"geometry":{"type":"MultiPolygon","coordinates":[[[[-40.5198,-15.7976],[-40.4956,-15.8125],[-40.4746,-15.8519],[-40.4349,-15.8767],[-40.419,-15.9325],[-40.3638,-15.933],[-40.3602,-15.9653],[-40.3113,-15.9929],[-40.31078,-15.99265],[-40.31078,-15.81695],[-40.378,-15.8184],[-40.425,-15.8057],[-40.45,-15.7616],[-40.5198,-15.7976]]]]}}]}