{"type":"FeatureCollection","features":[{"type":"Feature","properties":{"territory_id":"mg-3137700-centro","name":"Centro","municipality_id":"mg-3137700","polling_places":4,"approx":true,"official":false,"method":"voronoi-polling-places","whole_municipality":false,"approx_coords_only":false},"geometry":{"type":"MultiPolygon","coordinates":[[[[-41.65593,-20.12613],[-41.63103,-20.16738],[-41.626,-20.17858],[-41.61093,-20.17117],[-41.61246,-20.16663],[-41.61367,-20.16171],[-41.62465,-20.07719],[-41.63905,-20.08451],[-41.65593,-20.12613]]]]}},{"type":"Feature","properties":{"territory_id":"mg-3137700-distrito-da-prata","name":"Distrito da Prata","municipality_id":"mg-3137700","polling_places":1,"approx":true,"official":false,"method":"voronoi-polling-places","whole_municipality":false,"approx_coords_only":false},"geometry":{"type":"MultiPolygon","coordinates":[[[[-41.60051,-20.06491],[-41.57101,-20.10195],[-41.44827,-20.1308],[-41.4542,-20.1207],[-41.5025,-20.1085],[-41.4989,-20.0757],[-41.538,-20.0589],[-41.5594,-20.0333],[-41.5887,-20.0589],[-41.60051,-20.06491]]]]}},{"type":"Feature","properties":{"territory_id":"mg-3137700-distrito-de-palmeiras","name":"Distrito de Palmeiras","municipality_id":"mg-3137700","polling_places":1,"approx":true,"official":false,"method":"voronoi-polling-places","whole_municipality":false,"approx_coords_only":false},"geometry":{"type":"MultiPolygon","coordinates":[[[[-41.7568,-20.2069],[-41.7253,-20.20693],[-41.72506,-20.20648],[-41.71102,-20.101],[-41.7267,-20.1023],[-41.7448,-20.1327],[-41.7363,-20.1924],[-41.7568,-20.2069]]]]}},{"type":"Feature","properties":{"territory_id":"mg-3137700-povoado-de-areado","name":"Povoado de Areado","municipality_id":"mg-3137700","polling_places":1,"approx":true,"official":false,"method":"voronoi-polling-places","whole_municipality":false,"approx_coords_only":false},"geometry":{"type":"MultiPolygon","coordinates":[[[[-41.7253,-20.20693],[-41.666,-20.207],[-41.64325,-20.20704],[-41.626,-20.17858],[-41.63103,-20.16738],[-41.65593,-20.12613],[-41.72506,-20.20648],[-41.7253,-20.20693]]]]}},{"type":"Feature","properties":{"territory_id":"mg-3137700-povoado-de-corrego-rico","name":"Povoado de Corrego Rico","municipality_id":"mg-3137700","polling_places":1,"approx":true,"official":false,"method":"voronoi-polling-places","whole_municipality":false,"approx_coords_only":false},"geometry":{"type":"MultiPolygon","coordinates":[[[[-41.57389,-20.16299],[-41.55022,-20.20718],[-41.4156,-20.2074],[-41.4119,-20.2061],[-41.4372,-20.192],[-41.4283,-20.1648],[-41.44827,-20.1308],[-41.57101,-20.10195],[-41.57389,-20.16299]]]]}},{"type":"Feature","properties":{"territory_id":"mg-3137700-povoado-de-sao-domingos","name":"Povoado de Sao Domingos","municipality_id":"mg-3137700","polling_places":1,"approx":true,"official":false,"method":"voronoi-polling-places","whole_municipality":false,"approx_coords_only":false},"geometry":{"type":"MultiPolygon","coordinates":[[[[-41.64325,-20.20704],[-41.55022,-20.20718],[-41.57389,-20.16299],[-41.61093,-20.17117],[-41.626,-20.17858],[-41.64325,-20.20704]]]]}},{"type":"Feature","properties":{"territory_id":"mg-3137700-santa-terezinha-empa","name":"Santa Terezinha (empa)","municipality_id":"mg-3137700","polling_places":1,"approx":true,"official":false,"method":"voronoi-polling-places","whole_municipality":false,"approx_coords_only":false},"geometry":{"type":"MultiPolygon","coordinates":[[[[-41.62465,-20.07719],[-41.61367,-20.16171],[-41.61246,-20.16663],[-41.61093,-20.17117],[-41.57389,-20.16299],[-41.57101,-20.10195],[-41.60051,-20.06491],[-41.62465,-20.07719]]]]}},{"type":"Feature","properties":{"territory_id":"mg-3137700-socapo-povoado-de-pedra-bonita","name":"Socapó - Povoado de Pedra Bonita","municipality_id":"mg-3137700","polling_places":1,"approx":true,"official":false,"method":"voronoi-polling-places","whole_municipality":false,"approx_coords_only":false},"geometry":{"type":"MultiPolygon","coordinates":[[[[-41.72506,-20.20648],[-41.65593,-20.12613],[-41.63905,-20.08451],[-41.6638,-20.0971],[-41.71102,-20.101],[-41.72506,-20.20648]]]]}}]}