{"type":"FeatureCollection","features":[{"type":"Feature","properties":{"territory_id":"mg-3137304-centro","name":"Centro","municipality_id":"mg-3137304","polling_places":2,"approx":true,"official":false,"method":"voronoi-polling-places","whole_municipality":true,"approx_coords_only":false},"geometry":{"type":"MultiPolygon","coordinates":[[[[-44.6083,-16.8806],[-44.6625,-16.9283],[-44.6918,-16.93],[-44.7749,-16.9809],[-44.8409,-16.9918],[-44.8037,-17.0254],[-44.8061,-17.0513],[-44.7699,-17.0535],[-44.757,-17.0775],[-44.7115,-17.0874],[-44.7092,-17.1204],[-44.6497,-17.1681],[-44.6091,-17.1032],[-44.5738,-17.0765],[-44.5695,-17.046],[-44.5366,-17.0332],[-44.4807,-16.9948],[-44.5131,-16.9354],[-44.5667,-16.8582],[-44.6083,-16.8806]]]]}}]}