{"type":"FeatureCollection","features":[{"type":"Feature","properties":{"territory_id":"mg-3137205-americo-silva","name":"Americo Silva","municipality_id":"mg-3137205","polling_places":2,"approx":true,"official":false,"method":"voronoi-polling-places","whole_municipality":false,"approx_coords_only":false},"geometry":{"type":"MultiPolygon","coordinates":[[[[-45.6136,-19.9972],[-45.59268,-20.01323],[-45.55328,-20.01934],[-45.54364,-20.01805],[-45.54027,-20.02004],[-45.53364,-20.01585],[-45.54139,-20.00573],[-45.5736,-19.94051],[-45.6136,-19.9972]]]]}},{"type":"Feature","properties":{"territory_id":"mg-3137205-centro","name":"Centro","municipality_id":"mg-3137205","polling_places":3,"approx":true,"official":false,"method":"voronoi-polling-places","whole_municipality":false,"approx_coords_only":false},"geometry":{"type":"MultiPolygon","coordinates":[[[[-45.6034,-20.0723],[-45.60014,-20.07514],[-45.55154,-20.04434],[-45.5426,-20.0311],[-45.53973,-20.02811],[-45.54094,-20.02331],[-45.54027,-20.02004],[-45.54364,-20.01805],[-45.55328,-20.01934],[-45.59268,-20.01323],[-45.5875,-20.0172],[-45.6034,-20.0723]]]]}},{"type":"Feature","properties":{"territory_id":"mg-3137205-chico-miranda","name":"Chico Miranda","municipality_id":"mg-3137205","polling_places":1,"approx":true,"official":false,"method":"voronoi-polling-places","whole_municipality":false,"approx_coords_only":false},"geometry":{"type":"MultiPolygon","coordinates":[[[[-45.53132,-20.03977],[-45.48757,-20.09159],[-45.47309,-20.09898],[-45.45222,-20.03713],[-45.51445,-20.03209],[-45.52983,-20.03693],[-45.53132,-20.03977]]]]}},{"type":"Feature","properties":{"territory_id":"mg-3137205-gomes","name":"Gomes","municipality_id":"mg-3137205","polling_places":1,"approx":true,"official":false,"method":"voronoi-polling-places","whole_municipality":false,"approx_coords_only":false},"geometry":{"type":"MultiPolygon","coordinates":[[[[-45.5761,-19.9007],[-45.5623,-19.9245],[-45.5736,-19.94051],[-45.54139,-20.00573],[-45.53364,-20.01585],[-45.52918,-20.01755],[-45.43644,-19.9544],[-45.438,-19.9407],[-45.496,-19.8929],[-45.5031,-19.854],[-45.505,-19.8496],[-45.5456,-19.856],[-45.5404,-19.8859],[-45.5761,-19.9007]]]]}},{"type":"Feature","properties":{"territory_id":"mg-3137205-marilia","name":"Marilia","municipality_id":"mg-3137205","polling_places":3,"approx":true,"official":false,"method":"voronoi-polling-places","whole_municipality":false,"approx_coords_only":false},"geometry":{"type":"MultiPolygon","coordinates":[[[[-45.54094,-20.02331],[-45.53973,-20.02811],[-45.53197,-20.02741],[-45.52983,-20.03693],[-45.51445,-20.03209],[-45.45222,-20.03713],[-45.42493,-19.97977],[-45.435,-19.9671],[-45.43644,-19.9544],[-45.52918,-20.01755],[-45.53364,-20.01585],[-45.54027,-20.02004],[-45.54094,-20.02331]]]]}},{"type":"Feature","properties":{"territory_id":"mg-3137205-martins-guimaraes","name":"Martins Guimaraes","municipality_id":"mg-3137205","polling_places":1,"approx":true,"official":false,"method":"voronoi-polling-places","whole_municipality":false,"approx_coords_only":false},"geometry":{"type":"MultiPolygon","coordinates":[[[[-45.47309,-20.09898],[-45.4664,-20.1024],[-45.46,-20.1256],[-45.406,-20.1518],[-45.3737,-20.1216],[-45.396,-20.063],[-45.3845,-20.0306],[-45.42493,-19.97977],[-45.45222,-20.03713],[-45.47309,-20.09898]]]]}},{"type":"Feature","properties":{"territory_id":"mg-3137205-santa-helena","name":"Santa Helena","municipality_id":"mg-3137205","polling_places":1,"approx":true,"official":false,"method":"voronoi-polling-places","whole_municipality":false,"approx_coords_only":false},"geometry":{"type":"MultiPolygon","coordinates":[[[[-45.55154,-20.04434],[-45.53132,-20.03977],[-45.52983,-20.03693],[-45.53197,-20.02741],[-45.53973,-20.02811],[-45.5426,-20.0311],[-45.55154,-20.04434]]]]}},{"type":"Feature","properties":{"territory_id":"mg-3137205-sol-nascente","name":"Sol Nascente","municipality_id":"mg-3137205","polling_places":1,"approx":true,"official":false,"method":"voronoi-polling-places","whole_municipality":false,"approx_coords_only":false},"geometry":{"type":"MultiPolygon","coordinates":[[[[-45.60014,-20.07514],[-45.5792,-20.0934],[-45.5261,-20.0719],[-45.48757,-20.09159],[-45.53132,-20.03977],[-45.55154,-20.04434],[-45.60014,-20.07514]]]]}}]}