{"type":"FeatureCollection","features":[{"type":"Feature","properties":{"territory_id":"mg-3137403-cavalhadas","name":"Cavalhadas","municipality_id":"mg-3137403","polling_places":1,"approx":true,"official":false,"method":"voronoi-polling-places","whole_municipality":false,"approx_coords_only":false},"geometry":{"type":"MultiPolygon","coordinates":[[[[-44.1497,-20.90284],[-44.1473,-20.9505],[-44.1343,-21.023],[-44.09081,-20.99882],[-44.06123,-20.94834],[-44.07448,-20.91747],[-44.1178,-20.88259],[-44.1497,-20.90284]]]]}},{"type":"Feature","properties":{"territory_id":"mg-3137403-centro","name":"Centro","municipality_id":"mg-3137403","polling_places":2,"approx":true,"official":false,"method":"voronoi-polling-places","whole_municipality":false,"approx_coords_only":false},"geometry":{"type":"MultiPolygon","coordinates":[[[[-44.1178,-20.88259],[-44.07448,-20.91747],[-44.06123,-20.94834],[-44.02743,-20.8979],[-44.03422,-20.88434],[-44.03945,-20.87337],[-44.04733,-20.8675],[-44.09252,-20.86526],[-44.1178,-20.88259]]]]}},{"type":"Feature","properties":{"territory_id":"mg-3137403-povoado-das-bandeirinhas","name":"Povoado das Bandeirinhas","municipality_id":"mg-3137403","polling_places":1,"approx":true,"official":false,"method":"voronoi-polling-places","whole_municipality":false,"approx_coords_only":false},"geometry":{"type":"MultiPolygon","coordinates":[[[[-44.09081,-20.99882],[-44.0852,-20.9957],[-44.0343,-21.0038],[-44.02068,-20.99862],[-44.00473,-20.93304],[-44.01857,-20.90308],[-44.02743,-20.8979],[-44.06123,-20.94834],[-44.09081,-20.99882]]]]}},{"type":"Feature","properties":{"territory_id":"mg-3137403-povoado-do-arame","name":"Povoado do Arame","municipality_id":"mg-3137403","polling_places":1,"approx":true,"official":false,"method":"voronoi-polling-places","whole_municipality":false,"approx_coords_only":false},"geometry":{"type":"MultiPolygon","coordinates":[[[[-44.02068,-20.99862],[-43.9949,-20.9888],[-43.9689,-20.9743],[-43.96058,-20.96591],[-43.97672,-20.94298],[-44.00473,-20.93304],[-44.02068,-20.99862]]]]}},{"type":"Feature","properties":{"territory_id":"mg-3137403-zona-rural","name":"Zona Rural","municipality_id":"mg-3137403","polling_places":8,"approx":true,"official":false,"method":"voronoi-polling-places","whole_municipality":false,"approx_coords_only":false},"geometry":{"type":"MultiPolygon","coordinates":[[[[-44.202,-20.8637],[-44.1498,-20.9009],[-44.1497,-20.90284],[-44.1178,-20.88259],[-44.09252,-20.86526],[-44.04733,-20.8675],[-44.03945,-20.87337],[-44.03422,-20.88434],[-44.02743,-20.8979],[-44.01857,-20.90308],[-44.00473,-20.93304],[-43.97672,-20.94298],[-43.96058,-20.96591],[-43.9225,-20.9275],[-43.9747,-20.8809],[-44.0058,-20.8234],[-44.0023,-20.8001],[-44.0548,-20.8036],[-44.1497,-20.7651],[-44.1932,-20.7976],[-44.202,-20.8637]]]]}}]}