{"type":"FeatureCollection","features":[{"type":"Feature","properties":{"territory_id":"mg-3137809-centro","name":"Centro","municipality_id":"mg-3137809","polling_places":2,"approx":true,"official":false,"method":"voronoi-polling-places","whole_municipality":false,"approx_coords_only":false},"geometry":{"type":"MultiPolygon","coordinates":[[[[-45.40064,-21.96306],[-45.36317,-22.0046],[-45.36272,-22.00517],[-45.3424,-21.97081],[-45.34739,-21.96977],[-45.37264,-21.95176],[-45.40064,-21.96306]]]]}},{"type":"Feature","properties":{"territory_id":"mg-3137809-rural-capelinha-do-imbirizal","name":"Rural Capelinha do Imbirizal","municipality_id":"mg-3137809","polling_places":1,"approx":true,"official":false,"method":"voronoi-polling-places","whole_municipality":false,"approx_coords_only":false},"geometry":{"type":"MultiPolygon","coordinates":[[[[-45.43186,-21.99583],[-45.38394,-22.03594],[-45.34904,-22.02492],[-45.36272,-22.00517],[-45.36317,-22.0046],[-45.40064,-21.96306],[-45.43,-21.9749],[-45.43186,-21.99583]]]]}},{"type":"Feature","properties":{"territory_id":"mg-3137809-rural-congonhal","name":"Rural Congonhal","municipality_id":"mg-3137809","polling_places":1,"approx":true,"official":false,"method":"voronoi-polling-places","whole_municipality":false,"approx_coords_only":false},"geometry":{"type":"MultiPolygon","coordinates":[[[[-45.4586,-22.0819],[-45.43679,-22.08012],[-45.38394,-22.03594],[-45.43186,-21.99583],[-45.45308,-22.05734],[-45.4514,-22.0621],[-45.4586,-22.0819]]]]}},{"type":"Feature","properties":{"territory_id":"mg-3137809-rural-santa-quiteria","name":"Rural Santa Quitéria","municipality_id":"mg-3137809","polling_places":1,"approx":true,"official":false,"method":"voronoi-polling-places","whole_municipality":false,"approx_coords_only":false},"geometry":{"type":"MultiPolygon","coordinates":[[[[-45.4769,-21.9898],[-45.45308,-22.05734],[-45.43186,-21.99583],[-45.43,-21.9749],[-45.4362,-21.9774],[-45.4769,-21.9898]]]]}},{"type":"Feature","properties":{"territory_id":"mg-3137809-rural-sao-bartolomeu","name":"Rural São Bartolomeu","municipality_id":"mg-3137809","polling_places":1,"approx":true,"official":false,"method":"voronoi-polling-places","whole_municipality":false,"approx_coords_only":false},"geometry":{"type":"MultiPolygon","coordinates":[[[[-45.43679,-22.08012],[-45.3642,-22.0742],[-45.32533,-22.03543],[-45.34904,-22.02492],[-45.38394,-22.03594],[-45.43679,-22.08012]]]]}},{"type":"Feature","properties":{"territory_id":"mg-3137809-silvestrini","name":"Silvestrini","municipality_id":"mg-3137809","polling_places":1,"approx":true,"official":false,"method":"voronoi-polling-places","whole_municipality":false,"approx_coords_only":false},"geometry":{"type":"MultiPolygon","coordinates":[[[[-45.37264,-21.95176],[-45.34739,-21.96977],[-45.3424,-21.97081],[-45.28496,-21.96078],[-45.2704,-21.9487],[-45.2717,-21.9085],[-45.3544,-21.9444],[-45.37264,-21.95176]]]]}},{"type":"Feature","properties":{"territory_id":"mg-3137809-volta-do-lago","name":"Volta do Lago","municipality_id":"mg-3137809","polling_places":1,"approx":true,"official":false,"method":"voronoi-polling-places","whole_municipality":false,"approx_coords_only":false},"geometry":{"type":"MultiPolygon","coordinates":[[[[-45.36272,-22.00517],[-45.34904,-22.02492],[-45.32533,-22.03543],[-45.3242,-22.0343],[-45.3169,-21.9873],[-45.28496,-21.96078],[-45.3424,-21.97081],[-45.36272,-22.00517]]]]}}]}