{"type":"FeatureCollection","features":[{"type":"Feature","properties":{"territory_id":"mg-3137536-centro","name":"Centro","municipality_id":"mg-3137536","polling_places":2,"approx":true,"official":false,"method":"voronoi-polling-places","whole_municipality":false,"approx_coords_only":false},"geometry":{"type":"MultiPolygon","coordinates":[[[[-46.6781,-17.9239],[-46.6698,-17.9467],[-46.6148,-17.9513],[-46.6089,-17.96883],[-46.51456,-17.83481],[-46.35996,-17.6765],[-46.3558,-17.6582],[-46.3846,-17.6102],[-46.4297,-17.5954],[-46.4463,-17.5681],[-46.5153,-17.5214],[-46.5508,-17.489],[-46.5852,-17.5151],[-46.5876,-17.5993],[-46.6118,-17.6537],[-46.6078,-17.7138],[-46.5743,-17.7472],[-46.6198,-17.7962],[-46.6257,-17.8283],[-46.6597,-17.8665],[-46.6781,-17.9239]]]]}},{"type":"Feature","properties":{"territory_id":"mg-3137536-ceu-azul","name":"Céu Azul","municipality_id":"mg-3137536","polling_places":1,"approx":true,"official":false,"method":"voronoi-polling-places","whole_municipality":false,"approx_coords_only":false},"geometry":{"type":"MultiPolygon","coordinates":[[[[-46.6089,-17.96883],[-46.5949,-18.0104],[-46.57,-18.0064],[-46.5715,-17.9671],[-46.5138,-17.9934],[-46.4461,-17.9527],[-46.425,-17.9509],[-46.3881,-17.9105],[-46.4074,-17.8737],[-46.4007,-17.8429],[-46.3605,-17.8445],[-46.3493,-17.8195],[-46.359,-17.7741],[-46.3293,-17.736],[-46.3634,-17.6916],[-46.35996,-17.6765],[-46.51456,-17.83481],[-46.6089,-17.96883]]]]}}]}