{"type":"FeatureCollection","features":[{"type":"Feature","properties":{"territory_id":"mg-3137106-brasil","name":"Brasil","municipality_id":"mg-3137106","polling_places":1,"approx":true,"official":false,"method":"voronoi-polling-places","whole_municipality":false,"approx_coords_only":false},"geometry":{"type":"MultiPolygon","coordinates":[[[[-46.9426,-18.22047],[-46.9202,-18.2635],[-46.8515,-18.3081],[-46.8164,-18.3198],[-46.7859,-18.3012],[-46.7608,-18.3088],[-46.6917,-18.29],[-46.6397,-18.2986],[-46.6005,-18.2657],[-46.59947,-18.25639],[-46.71306,-18.15436],[-46.9426,-18.22047]]]]}},{"type":"Feature","properties":{"territory_id":"mg-3137106-centro","name":"Centro","municipality_id":"mg-3137106","polling_places":1,"approx":true,"official":false,"method":"voronoi-polling-places","whole_municipality":false,"approx_coords_only":false},"geometry":{"type":"MultiPolygon","coordinates":[[[[-46.9522,-18.1743],[-46.9506,-18.2051],[-46.9426,-18.22047],[-46.71306,-18.15436],[-46.8511,-18.02111],[-46.8703,-18.0538],[-46.8915,-18.0712],[-46.9247,-18.0674],[-46.9522,-18.1743]]]]}},{"type":"Feature","properties":{"territory_id":"mg-3137106-zona-rural","name":"Zona Rural","municipality_id":"mg-3137106","polling_places":2,"approx":true,"official":false,"method":"voronoi-polling-places","whole_municipality":false,"approx_coords_only":false},"geometry":{"type":"MultiPolygon","coordinates":[[[[-46.8511,-18.02111],[-46.71306,-18.15436],[-46.59947,-18.25639],[-46.5953,-18.2188],[-46.5781,-18.1826],[-46.5459,-18.1762],[-46.5449,-18.1111],[-46.5534,-18.0671],[-46.5949,-18.0104],[-46.6148,-17.9513],[-46.6698,-17.9467],[-46.6781,-17.9239],[-46.6597,-17.8665],[-46.6257,-17.8283],[-46.6198,-17.7962],[-46.5743,-17.7472],[-46.6128,-17.7394],[-46.6715,-17.7706],[-46.6637,-17.7943],[-46.6869,-17.8357],[-46.7183,-17.8516],[-46.7749,-17.9524],[-46.81,-17.9703],[-46.8397,-18.0017],[-46.8511,-18.02111]]]]}}]}