{"type":"FeatureCollection","features":[{"type":"Feature","properties":{"territory_id":"mg-3137908-centro","name":"Centro","municipality_id":"mg-3137908","polling_places":2,"approx":true,"official":false,"method":"voronoi-polling-places","whole_municipality":true,"approx_coords_only":false},"geometry":{"type":"MultiPolygon","coordinates":[[[[-43.4251,-20.8237],[-43.411,-20.7506],[-43.4364,-20.7158],[-43.4743,-20.738],[-43.4973,-20.7343],[-43.528,-20.7674],[-43.5616,-20.7541],[-43.5527,-20.7789],[-43.5118,-20.8321],[-43.4251,-20.8237]]]]}}]}