{"type":"FeatureCollection","features":[{"type":"Feature","properties":{"territory_id":"mg-3137502-babilonia","name":"Babilônia","municipality_id":"mg-3137502","polling_places":1,"approx":true,"official":false,"method":"voronoi-polling-places","whole_municipality":false,"approx_coords_only":false},"geometry":{"type":"MultiPolygon","coordinates":[[[[-46.46707,-18.85789],[-46.4462,-18.8598],[-46.4028,-18.8806],[-46.3355,-18.8968],[-46.32521,-18.89578],[-46.32737,-18.85374],[-46.39255,-18.78724],[-46.40344,-18.78311],[-46.46707,-18.85789]]]]}},{"type":"Feature","properties":{"territory_id":"mg-3137502-bela-vista","name":"Bela Vista","municipality_id":"mg-3137502","polling_places":1,"approx":true,"official":false,"method":"voronoi-polling-places","whole_municipality":false,"approx_coords_only":false},"geometry":{"type":"MultiPolygon","coordinates":[[[[-46.5032,-18.85406],[-46.5029,-18.8546],[-46.46707,-18.85789],[-46.40344,-18.78311],[-46.40656,-18.7817],[-46.41908,-18.78529],[-46.49409,-18.83336],[-46.5032,-18.85406]]]]}},{"type":"Feature","properties":{"territory_id":"mg-3137502-campo-bonito","name":"Campo Bonito","municipality_id":"mg-3137502","polling_places":1,"approx":true,"official":false,"method":"voronoi-polling-places","whole_municipality":false,"approx_coords_only":false},"geometry":{"type":"MultiPolygon","coordinates":[[[[-46.40467,-18.76715],[-46.39762,-18.7761],[-46.39378,-18.7703],[-46.40467,-18.76715]]]]}},{"type":"Feature","properties":{"territory_id":"mg-3137502-centro","name":"Centro","municipality_id":"mg-3137502","polling_places":2,"approx":true,"official":false,"method":"voronoi-polling-places","whole_municipality":false,"approx_coords_only":false},"geometry":{"type":"MultiPolygon","coordinates":[[[[-46.41908,-18.78529],[-46.40656,-18.7817],[-46.40344,-18.78311],[-46.39255,-18.78724],[-46.39739,-18.77997],[-46.40237,-18.77783],[-46.40547,-18.78],[-46.40784,-18.77327],[-46.41908,-18.78529]]]]}},{"type":"Feature","properties":{"territory_id":"mg-3137502-limeira","name":"Limeira","municipality_id":"mg-3137502","polling_places":1,"approx":true,"official":false,"method":"voronoi-polling-places","whole_municipality":false,"approx_coords_only":false},"geometry":{"type":"MultiPolygon","coordinates":[[[[-46.20383,-18.72028],[-46.19592,-18.82198],[-46.1938,-18.8219],[-46.1787,-18.84],[-46.1281,-18.813],[-46.093,-18.7682],[-46.069,-18.7551],[-46.0625,-18.7192],[-46.0964,-18.7059],[-46.1502,-18.7441],[-46.179,-18.7207],[-46.20383,-18.72028]]]]}},{"type":"Feature","properties":{"territory_id":"mg-3137502-monjolinho-de-minas","name":"Monjolinho de Minas","municipality_id":"mg-3137502","polling_places":1,"approx":true,"official":false,"method":"voronoi-polling-places","whole_municipality":false,"approx_coords_only":false},"geometry":{"type":"MultiPolygon","coordinates":[[[[-46.32737,-18.85374],[-46.32521,-18.89578],[-46.298,-18.8931],[-46.2722,-18.857],[-46.2409,-18.8535],[-46.2401,-18.8237],[-46.19592,-18.82198],[-46.20383,-18.72028],[-46.2794,-18.719],[-46.2897,-18.70615],[-46.323,-18.72834],[-46.32557,-18.75985],[-46.32737,-18.85374]]]]}},{"type":"Feature","properties":{"territory_id":"mg-3137502-novo-horizonte","name":"Novo Horizonte","municipality_id":"mg-3137502","polling_places":1,"approx":true,"official":false,"method":"voronoi-polling-places","whole_municipality":false,"approx_coords_only":false},"geometry":{"type":"MultiPolygon","coordinates":[[[[-46.49409,-18.83336],[-46.41908,-18.78529],[-46.40784,-18.77327],[-46.40622,-18.77077],[-46.40539,-18.76675],[-46.43873,-18.6809],[-46.4396,-18.68111],[-46.49409,-18.83336]]]]}},{"type":"Feature","properties":{"territory_id":"mg-3137502-planalto","name":"Planalto","municipality_id":"mg-3137502","polling_places":1,"approx":true,"official":false,"method":"voronoi-polling-places","whole_municipality":false,"approx_coords_only":false},"geometry":{"type":"MultiPolygon","coordinates":[[[[-46.40622,-18.77077],[-46.40237,-18.77783],[-46.39739,-18.77997],[-46.39762,-18.7761],[-46.40467,-18.76715],[-46.40539,-18.76675],[-46.40622,-18.77077]]]]}},{"type":"Feature","properties":{"territory_id":"mg-3137502-planalto-ii","name":"Planalto Ii","municipality_id":"mg-3137502","polling_places":1,"approx":true,"official":false,"method":"voronoi-polling-places","whole_municipality":false,"approx_coords_only":false},"geometry":{"type":"MultiPolygon","coordinates":[[[[-46.39762,-18.7761],[-46.39739,-18.77997],[-46.39255,-18.78724],[-46.32737,-18.85374],[-46.32557,-18.75985],[-46.39378,-18.7703],[-46.39762,-18.7761]]]]}},{"type":"Feature","properties":{"territory_id":"mg-3137502-santa-cruz","name":"Santa Cruz","municipality_id":"mg-3137502","polling_places":1,"approx":true,"official":false,"method":"voronoi-polling-places","whole_municipality":false,"approx_coords_only":false},"geometry":{"type":"MultiPolygon","coordinates":[[[[-46.43873,-18.6809],[-46.40539,-18.76675],[-46.40467,-18.76715],[-46.39378,-18.7703],[-46.32557,-18.75985],[-46.323,-18.72834],[-46.43396,-18.67848],[-46.4342,-18.6798],[-46.43873,-18.6809]]]]}},{"type":"Feature","properties":{"territory_id":"mg-3137502-sumare","name":"Sumaré","municipality_id":"mg-3137502","polling_places":1,"approx":true,"official":false,"method":"voronoi-polling-places","whole_municipality":false,"approx_coords_only":false},"geometry":{"type":"MultiPolygon","coordinates":[[[[-46.40784,-18.77327],[-46.40547,-18.78],[-46.40237,-18.77783],[-46.40622,-18.77077],[-46.40784,-18.77327]]]]}},{"type":"Feature","properties":{"territory_id":"mg-3137502-zona-rural","name":"Zona Rural","municipality_id":"mg-3137502","polling_places":2,"approx":true,"official":false,"method":"voronoi-polling-places","whole_municipality":false,"approx_coords_only":false},"geometry":{"type":"MultiPolygon","coordinates":[[[[-46.5401,-18.7305],[-46.5181,-18.752],[-46.5285,-18.8088],[-46.5032,-18.85406],[-46.49409,-18.83336],[-46.4396,-18.68111],[-46.4939,-18.6943],[-46.5401,-18.7305]]],[[[-46.43396,-18.67848],[-46.323,-18.72834],[-46.2897,-18.70615],[-46.3,-18.6933],[-46.3137,-18.6452],[-46.398,-18.6251],[-46.4269,-18.64],[-46.43396,-18.67848]]]]}}]}