{"type":"FeatureCollection","features":[{"type":"Feature","properties":{"territory_id":"mg-3137007-centro","name":"Centro","municipality_id":"mg-3137007","polling_places":3,"approx":true,"official":false,"method":"voronoi-polling-places","whole_municipality":false,"approx_coords_only":false},"geometry":{"type":"MultiPolygon","coordinates":[[[[-41.82054,-17.62622],[-41.78482,-17.72616],[-41.7502,-17.723],[-41.72209,-17.70912],[-41.71287,-17.674],[-41.66922,-17.54202],[-41.6828,-17.5238],[-41.70958,-17.50295],[-41.73791,-17.53588],[-41.78051,-17.58417],[-41.82054,-17.62622]]]]}},{"type":"Feature","properties":{"territory_id":"mg-3137007-distrito-de-concordia-do-mucuri","name":"Distrito de Concordia do Mucuri","municipality_id":"mg-3137007","polling_places":1,"approx":true,"official":false,"method":"voronoi-polling-places","whole_municipality":false,"approx_coords_only":false},"geometry":{"type":"MultiPolygon","coordinates":[[[[-42.0437,-17.757],[-42.0287,-17.7708],[-41.9902,-17.7561],[-41.8617,-17.7377],[-41.8399,-17.7494],[-41.7863,-17.7263],[-41.78482,-17.72616],[-41.82054,-17.62622],[-41.93552,-17.58266],[-41.9965,-17.6384],[-41.9844,-17.655],[-42.0018,-17.6951],[-42.0427,-17.7162],[-42.0437,-17.757]]]]}},{"type":"Feature","properties":{"territory_id":"mg-3137007-zona-rural","name":"Zona Rural","municipality_id":"mg-3137007","polling_places":2,"approx":true,"official":false,"method":"voronoi-polling-places","whole_municipality":false,"approx_coords_only":false},"geometry":{"type":"MultiPolygon","coordinates":[[[[-41.93552,-17.58266],[-41.82054,-17.62622],[-41.78051,-17.58417],[-41.73791,-17.53588],[-41.70958,-17.50295],[-41.7352,-17.483],[-41.7539,-17.4421],[-41.7814,-17.4589],[-41.809,-17.4994],[-41.8706,-17.512],[-41.9088,-17.5304],[-41.9302,-17.5778],[-41.93552,-17.58266]]],[[[-41.72209,-17.70912],[-41.6708,-17.6838],[-41.633,-17.6784],[-41.6395,-17.6074],[-41.6503,-17.6021],[-41.6801,-17.595],[-41.6568,-17.5587],[-41.66922,-17.54202],[-41.71287,-17.674],[-41.72209,-17.70912]]]]}}]}