{"type":"FeatureCollection","features":[{"type":"Feature","properties":{"territory_id":"mg-3137601-bela-vista","name":"Bela Vista","municipality_id":"mg-3137601","polling_places":1,"approx":true,"official":false,"method":"voronoi-polling-places","whole_municipality":false,"approx_coords_only":false},"geometry":{"type":"MultiPolygon","coordinates":[[[[-43.90958,-19.6388],[-43.90569,-19.64586],[-43.8983,-19.64341],[-43.90914,-19.63822],[-43.90958,-19.6388]]]]}},{"type":"Feature","properties":{"territory_id":"mg-3137601-brant","name":"Brant","municipality_id":"mg-3137601","polling_places":2,"approx":true,"official":false,"method":"voronoi-polling-places","whole_municipality":false,"approx_coords_only":false},"geometry":{"type":"MultiPolygon","coordinates":[[[[-43.91561,-19.61901],[-43.91212,-19.62413],[-43.90222,-19.62901],[-43.89706,-19.63279],[-43.89658,-19.62395],[-43.89309,-19.61497],[-43.89356,-19.61242],[-43.89394,-19.61176],[-43.90268,-19.61351],[-43.91561,-19.61901]]]]}},{"type":"Feature","properties":{"territory_id":"mg-3137601-campinho","name":"Campinho","municipality_id":"mg-3137601","polling_places":1,"approx":true,"official":false,"method":"voronoi-polling-places","whole_municipality":false,"approx_coords_only":false},"geometry":{"type":"MultiPolygon","coordinates":[[[[-43.9342,-19.54916],[-43.93016,-19.59287],[-43.91589,-19.58552],[-43.90193,-19.5614],[-43.9219,-19.5357],[-43.93259,-19.53679],[-43.9342,-19.54916]]]]}},{"type":"Feature","properties":{"territory_id":"mg-3137601-centro","name":"Centro","municipality_id":"mg-3137601","polling_places":2,"approx":true,"official":false,"method":"voronoi-polling-places","whole_municipality":false,"approx_coords_only":false},"geometry":{"type":"MultiPolygon","coordinates":[[[[-43.89706,-19.63279],[-43.89685,-19.63302],[-43.89566,-19.63378],[-43.89341,-19.63685],[-43.88494,-19.62787],[-43.89064,-19.62164],[-43.89309,-19.61497],[-43.89658,-19.62395],[-43.89706,-19.63279]]]]}},{"type":"Feature","properties":{"territory_id":"mg-3137601-francisco-pereira","name":"Francisco Pereira","municipality_id":"mg-3137601","polling_places":1,"approx":true,"official":false,"method":"voronoi-polling-places","whole_municipality":false,"approx_coords_only":false},"geometry":{"type":"MultiPolygon","coordinates":[[[[-43.88644,-19.6568],[-43.86699,-19.67176],[-43.80856,-19.62685],[-43.80324,-19.61961],[-43.85568,-19.62943],[-43.88644,-19.6568]]]]}},{"type":"Feature","properties":{"territory_id":"mg-3137601-joa","name":"Joa","municipality_id":"mg-3137601","polling_places":1,"approx":true,"official":false,"method":"voronoi-polling-places","whole_municipality":false,"approx_coords_only":false},"geometry":{"type":"MultiPolygon","coordinates":[[[[-43.88927,-19.65616],[-43.88644,-19.6568],[-43.85568,-19.62943],[-43.85862,-19.62935],[-43.86494,-19.6303],[-43.87592,-19.63535],[-43.88236,-19.64195],[-43.88927,-19.65616]]]]}},{"type":"Feature","properties":{"territory_id":"mg-3137601-joana-d-arc","name":"Joana D'arc","municipality_id":"mg-3137601","polling_places":1,"approx":true,"official":false,"method":"voronoi-polling-places","whole_municipality":false,"approx_coords_only":false},"geometry":{"type":"MultiPolygon","coordinates":[[[[-43.90914,-19.63822],[-43.8983,-19.64341],[-43.89477,-19.64433],[-43.89315,-19.63815],[-43.89341,-19.63685],[-43.89566,-19.63378],[-43.89685,-19.63302],[-43.90913,-19.63796],[-43.90914,-19.63822]]]]}},{"type":"Feature","properties":{"territory_id":"mg-3137601-lagoinha-de-fora","name":"Lagoinha de Fora","municipality_id":"mg-3137601","polling_places":1,"approx":true,"official":false,"method":"voronoi-polling-places","whole_municipality":false,"approx_coords_only":false},"geometry":{"type":"MultiPolygon","coordinates":[[[[-43.8722,-19.70433],[-43.8155,-19.7165],[-43.7995,-19.6791],[-43.8171,-19.6385],[-43.80856,-19.62685],[-43.86699,-19.67176],[-43.8694,-19.68002],[-43.8722,-19.70433]]]]}},{"type":"Feature","properties":{"territory_id":"mg-3137601-lapinha","name":"Lapinha","municipality_id":"mg-3137601","polling_places":1,"approx":true,"official":false,"method":"voronoi-polling-places","whole_municipality":false,"approx_coords_only":false},"geometry":{"type":"MultiPolygon","coordinates":[[[[-43.9718,-19.5979],[-43.9687,-19.6064],[-43.9342,-19.54916],[-43.93259,-19.53679],[-43.9602,-19.5396],[-43.9718,-19.5979]]]]}},{"type":"Feature","properties":{"territory_id":"mg-3137601-lundcea","name":"Lundcea","municipality_id":"mg-3137601","polling_places":1,"approx":true,"official":false,"method":"voronoi-polling-places","whole_municipality":false,"approx_coords_only":false},"geometry":{"type":"MultiPolygon","coordinates":[[[[-43.91212,-19.62413],[-43.90913,-19.63796],[-43.89685,-19.63302],[-43.89706,-19.63279],[-43.90222,-19.62901],[-43.91212,-19.62413]]]]}},{"type":"Feature","properties":{"territory_id":"mg-3137601-moradas-da-lapinha","name":"Moradas da Lapinha","municipality_id":"mg-3137601","polling_places":1,"approx":true,"official":false,"method":"voronoi-polling-places","whole_municipality":false,"approx_coords_only":false},"geometry":{"type":"MultiPolygon","coordinates":[[[[-43.93524,-19.60127],[-43.90767,-19.59954],[-43.90133,-19.59218],[-43.91589,-19.58552],[-43.93016,-19.59287],[-43.93524,-19.60127]]]]}},{"type":"Feature","properties":{"territory_id":"mg-3137601-morro-do-cruzeiro","name":"Morro do Cruzeiro","municipality_id":"mg-3137601","polling_places":1,"approx":true,"official":false,"method":"voronoi-polling-places","whole_municipality":false,"approx_coords_only":false},"geometry":{"type":"MultiPolygon","coordinates":[[[[-43.89394,-19.61176],[-43.89356,-19.61242],[-43.85862,-19.62935],[-43.85568,-19.62943],[-43.80324,-19.61961],[-43.7984,-19.613],[-43.8424,-19.579],[-43.86659,-19.57959],[-43.88428,-19.59326],[-43.88441,-19.5935],[-43.89394,-19.61176]]]]}},{"type":"Feature","properties":{"territory_id":"mg-3137601-ovidio-guerra","name":"Ovidio Guerra","municipality_id":"mg-3137601","polling_places":1,"approx":true,"official":false,"method":"voronoi-polling-places","whole_municipality":false,"approx_coords_only":false},"geometry":{"type":"MultiPolygon","coordinates":[[[[-43.96331,-19.62116],[-43.95009,-19.65738],[-43.92052,-19.65057],[-43.90958,-19.6388],[-43.90914,-19.63822],[-43.90913,-19.63796],[-43.91212,-19.62413],[-43.91561,-19.61901],[-43.94426,-19.61269],[-43.96331,-19.62116]]]]}},{"type":"Feature","properties":{"territory_id":"mg-3137601-palmital","name":"Palmital","municipality_id":"mg-3137601","polling_places":1,"approx":true,"official":false,"method":"voronoi-polling-places","whole_municipality":false,"approx_coords_only":false},"geometry":{"type":"MultiPolygon","coordinates":[[[[-43.91589,-19.58552],[-43.90133,-19.59218],[-43.88428,-19.59326],[-43.86659,-19.57959],[-43.8874,-19.5801],[-43.90193,-19.5614],[-43.91589,-19.58552]]]]}},{"type":"Feature","properties":{"territory_id":"mg-3137601-pastinho","name":"Pastinho","municipality_id":"mg-3137601","polling_places":1,"approx":true,"official":false,"method":"voronoi-polling-places","whole_municipality":false,"approx_coords_only":false},"geometry":{"type":"MultiPolygon","coordinates":[[[[-43.89356,-19.61242],[-43.89309,-19.61497],[-43.89064,-19.62164],[-43.88494,-19.62787],[-43.86494,-19.6303],[-43.85862,-19.62935],[-43.89356,-19.61242]]]]}},{"type":"Feature","properties":{"territory_id":"mg-3137601-por-do-sol","name":"Por do Sol","municipality_id":"mg-3137601","polling_places":1,"approx":true,"official":false,"method":"voronoi-polling-places","whole_municipality":false,"approx_coords_only":false},"geometry":{"type":"MultiPolygon","coordinates":[[[[-43.94426,-19.61269],[-43.91561,-19.61901],[-43.90268,-19.61351],[-43.90633,-19.60176],[-43.90767,-19.59954],[-43.93524,-19.60127],[-43.94426,-19.61269]]]]}},{"type":"Feature","properties":{"territory_id":"mg-3137601-residencial-visao","name":"Residencial Visao","municipality_id":"mg-3137601","polling_places":1,"approx":true,"official":false,"method":"voronoi-polling-places","whole_municipality":false,"approx_coords_only":false},"geometry":{"type":"MultiPolygon","coordinates":[[[[-43.91467,-19.68901],[-43.8975,-19.6989],[-43.8722,-19.70433],[-43.8694,-19.68002],[-43.90056,-19.67065],[-43.91467,-19.68901]]]]}},{"type":"Feature","properties":{"territory_id":"mg-3137601-sangradouro","name":"Sangradouro","municipality_id":"mg-3137601","polling_places":1,"approx":true,"official":false,"method":"voronoi-polling-places","whole_municipality":false,"approx_coords_only":false},"geometry":{"type":"MultiPolygon","coordinates":[[[[-43.9687,-19.6064],[-43.96331,-19.62116],[-43.94426,-19.61269],[-43.93524,-19.60127],[-43.93016,-19.59287],[-43.9342,-19.54916],[-43.9687,-19.6064]]]]}},{"type":"Feature","properties":{"territory_id":"mg-3137601-santos-dumont","name":"Santos Dumont","municipality_id":"mg-3137601","polling_places":2,"approx":true,"official":false,"method":"voronoi-polling-places","whole_municipality":false,"approx_coords_only":false},"geometry":{"type":"MultiPolygon","coordinates":[[[[-43.92052,-19.65057],[-43.91704,-19.6513],[-43.91173,-19.6518],[-43.89291,-19.65695],[-43.89159,-19.65598],[-43.89477,-19.64433],[-43.8983,-19.64341],[-43.90569,-19.64586],[-43.90958,-19.6388],[-43.92052,-19.65057]]]]}},{"type":"Feature","properties":{"territory_id":"mg-3137601-varzea","name":"Varzea","municipality_id":"mg-3137601","polling_places":3,"approx":true,"official":false,"method":"voronoi-polling-places","whole_municipality":false,"approx_coords_only":false},"geometry":{"type":"MultiPolygon","coordinates":[[[[-43.89477,-19.64433],[-43.89159,-19.65598],[-43.88927,-19.65616],[-43.88236,-19.64195],[-43.87592,-19.63535],[-43.86494,-19.6303],[-43.88494,-19.62787],[-43.89341,-19.63685],[-43.89315,-19.63815],[-43.89477,-19.64433]]]]}},{"type":"Feature","properties":{"territory_id":"mg-3137601-vila-asas","name":"Vila Asas","municipality_id":"mg-3137601","polling_places":2,"approx":true,"official":false,"method":"voronoi-polling-places","whole_municipality":false,"approx_coords_only":false},"geometry":{"type":"MultiPolygon","coordinates":[[[[-43.95009,-19.65738],[-43.9449,-19.6716],[-43.91467,-19.68901],[-43.90056,-19.67065],[-43.90045,-19.67041],[-43.89291,-19.65695],[-43.91173,-19.6518],[-43.91704,-19.6513],[-43.92052,-19.65057],[-43.95009,-19.65738]]]]}},{"type":"Feature","properties":{"territory_id":"mg-3137601-vila-dos-ipes","name":"Vila dos Ipes","municipality_id":"mg-3137601","polling_places":1,"approx":true,"official":false,"method":"voronoi-polling-places","whole_municipality":false,"approx_coords_only":false},"geometry":{"type":"MultiPolygon","coordinates":[[[[-43.90056,-19.67065],[-43.8694,-19.68002],[-43.86699,-19.67176],[-43.88644,-19.6568],[-43.88927,-19.65616],[-43.89159,-19.65598],[-43.89291,-19.65695],[-43.90045,-19.67041],[-43.90056,-19.67065]]]]}},{"type":"Feature","properties":{"territory_id":"mg-3137601-vila-maria","name":"Vila Maria","municipality_id":"mg-3137601","polling_places":2,"approx":true,"official":false,"method":"voronoi-polling-places","whole_municipality":false,"approx_coords_only":false},"geometry":{"type":"MultiPolygon","coordinates":[[[[-43.90767,-19.59954],[-43.90633,-19.60176],[-43.90268,-19.61351],[-43.89394,-19.61176],[-43.88441,-19.5935],[-43.88428,-19.59326],[-43.90133,-19.59218],[-43.90767,-19.59954]]]]}}]}