{"type":"FeatureCollection","features":[{"type":"Feature","properties":{"territory_id":"mg-3138658-centro","name":"Centro","municipality_id":"mg-3138658","polling_places":2,"approx":true,"official":false,"method":"voronoi-polling-places","whole_municipality":false,"approx_coords_only":false},"geometry":{"type":"MultiPolygon","coordinates":[[[[-44.3643,-15.8923],[-44.3366,-15.9188],[-44.2982,-15.9305],[-44.2289,-15.9058],[-44.2016,-15.9383],[-44.17112,-15.90364],[-44.22538,-15.88331],[-44.30438,-15.90655],[-44.28117,-15.86186],[-44.34653,-15.83183],[-44.3643,-15.8923]]]]}},{"type":"Feature","properties":{"territory_id":"mg-3138658-vila-robin-hood","name":"Vila Robin Hood","municipality_id":"mg-3138658","polling_places":1,"approx":true,"official":false,"method":"voronoi-polling-places","whole_municipality":false,"approx_coords_only":false},"geometry":{"type":"MultiPolygon","coordinates":[[[[-44.30438,-15.90655],[-44.22538,-15.88331],[-44.28117,-15.86186],[-44.30438,-15.90655]]]]}},{"type":"Feature","properties":{"territory_id":"mg-3138658-zona-rural","name":"Zona Rural","municipality_id":"mg-3138658","polling_places":1,"approx":true,"official":false,"method":"voronoi-polling-places","whole_municipality":false,"approx_coords_only":false},"geometry":{"type":"MultiPolygon","coordinates":[[[[-44.34653,-15.83183],[-44.28117,-15.86186],[-44.22538,-15.88331],[-44.17112,-15.90364],[-44.171,-15.9035],[-44.1754,-15.8642],[-44.2029,-15.8286],[-44.2375,-15.7711],[-44.2779,-15.7438],[-44.3017,-15.7882],[-44.2914,-15.8334],[-44.3442,-15.8239],[-44.34653,-15.83183]]]]}}]}