{"type":"FeatureCollection","features":[{"type":"Feature","properties":{"territory_id":"mg-3138302-centro","name":"Centro","municipality_id":"mg-3138302","polling_places":1,"approx":true,"official":false,"method":"voronoi-polling-places","whole_municipality":false,"approx_coords_only":false},"geometry":{"type":"MultiPolygon","coordinates":[[[[-45.09409,-19.69396],[-45.02304,-19.78528],[-45.0145,-19.7817],[-44.9913,-19.7933],[-44.9894,-19.7612],[-44.9638,-19.7529],[-44.9675,-19.7126],[-44.9479,-19.689],[-44.9717,-19.6751],[-44.97437,-19.65939],[-45.09309,-19.66646],[-45.0914,-19.6722],[-45.09409,-19.69396]]]]}},{"type":"Feature","properties":{"territory_id":"mg-3138302-zona-rural","name":"Zona Rural","municipality_id":"mg-3138302","polling_places":2,"approx":true,"official":false,"method":"voronoi-polling-places","whole_municipality":false,"approx_coords_only":false},"geometry":{"type":"MultiPolygon","coordinates":[[[[-45.1282,-19.781],[-45.1103,-19.8059],[-45.0512,-19.7971],[-45.02304,-19.78528],[-45.09409,-19.69396],[-45.1002,-19.7435],[-45.1282,-19.781]]],[[[-45.1079,-19.616],[-45.09309,-19.66646],[-44.97437,-19.65939],[-44.983,-19.6085],[-45.0069,-19.5626],[-45.0042,-19.5302],[-45.0284,-19.5326],[-45.0523,-19.5608],[-45.1013,-19.576],[-45.1079,-19.616]]]]}}]}