{"type":"FeatureCollection","features":[{"type":"Feature","properties":{"territory_id":"mg-3138351-centro","name":"Centro","municipality_id":"mg-3138351","polling_places":1,"approx":true,"official":false,"method":"voronoi-polling-places","whole_municipality":false,"approx_coords_only":false},"geometry":{"type":"MultiPolygon","coordinates":[[[[-42.73681,-17.04961],[-42.73358,-17.09354],[-42.63442,-17.10627],[-42.6276,-17.1039],[-42.63,-17.089],[-42.6812,-17.0446],[-42.7069,-17.0357],[-42.70674,-17.03058],[-42.73659,-17.04902],[-42.73681,-17.04961]]]]}},{"type":"Feature","properties":{"territory_id":"mg-3138351-distrito-acaua-de-minas","name":"Distrito Acauã de Minas","municipality_id":"mg-3138351","polling_places":1,"approx":true,"official":false,"method":"voronoi-polling-places","whole_municipality":false,"approx_coords_only":false},"geometry":{"type":"MultiPolygon","coordinates":[[[[-42.8257,-17.1808],[-42.7644,-17.171],[-42.7416,-17.1356],[-42.73246,-17.13387],[-42.73849,-17.10768],[-42.81666,-17.11368],[-42.8089,-17.1259],[-42.8257,-17.1808]]]]}},{"type":"Feature","properties":{"territory_id":"mg-3138351-distrito-posses","name":"Distrito Posses","municipality_id":"mg-3138351","polling_places":1,"approx":true,"official":false,"method":"voronoi-polling-places","whole_municipality":false,"approx_coords_only":false},"geometry":{"type":"MultiPolygon","coordinates":[[[[-42.8047,-17.07321],[-42.73681,-17.04961],[-42.73659,-17.04902],[-42.7873,-17.00224],[-42.796,-17.0196],[-42.7942,-17.0513],[-42.8047,-17.07321]]]]}},{"type":"Feature","properties":{"territory_id":"mg-3138351-povoado-gouveia","name":"Povoado Gouveia","municipality_id":"mg-3138351","polling_places":1,"approx":true,"official":false,"method":"voronoi-polling-places","whole_municipality":false,"approx_coords_only":false},"geometry":{"type":"MultiPolygon","coordinates":[[[[-42.73849,-17.10768],[-42.73246,-17.13387],[-42.6919,-17.1262],[-42.63442,-17.10627],[-42.73358,-17.09354],[-42.73849,-17.10768]]]]}},{"type":"Feature","properties":{"territory_id":"mg-3138351-povoado-mandassaia","name":"Povoado Mandassaia","municipality_id":"mg-3138351","polling_places":1,"approx":true,"official":false,"method":"voronoi-polling-places","whole_municipality":false,"approx_coords_only":false},"geometry":{"type":"MultiPolygon","coordinates":[[[[-42.7873,-17.00224],[-42.73659,-17.04902],[-42.70674,-17.03058],[-42.7047,-16.9669],[-42.7579,-16.9436],[-42.7873,-17.00224]]]]}},{"type":"Feature","properties":{"territory_id":"mg-3138351-zona-rural","name":"Zona Rural","municipality_id":"mg-3138351","polling_places":1,"approx":true,"official":false,"method":"voronoi-polling-places","whole_municipality":false,"approx_coords_only":false},"geometry":{"type":"MultiPolygon","coordinates":[[[[-42.8209,-17.107],[-42.81666,-17.11368],[-42.73849,-17.10768],[-42.73358,-17.09354],[-42.73681,-17.04961],[-42.8047,-17.07321],[-42.8209,-17.107]]]]}}]}