{"type":"FeatureCollection","features":[{"type":"Feature","properties":{"territory_id":"mg-3138500-centro","name":"Centro","municipality_id":"mg-3138500","polling_places":5,"approx":true,"official":false,"method":"voronoi-polling-places","whole_municipality":true,"approx_coords_only":false},"geometry":{"type":"MultiPolygon","coordinates":[[[[-44.2283,-22.0755],[-44.24,-22.0115],[-44.2566,-21.9754],[-44.2857,-21.9286],[-44.3188,-21.9246],[-44.3266,-21.8699],[-44.3986,-21.8664],[-44.3793,-21.9408],[-44.409,-21.9741],[-44.4081,-22.0176],[-44.4368,-22.0672],[-44.4303,-22.1154],[-44.3488,-22.1062],[-44.3194,-22.1555],[-44.292,-22.1117],[-44.2606,-22.105],[-44.2283,-22.0755]]]]}}]}