{"type":"FeatureCollection","features":[{"type":"Feature","properties":{"territory_id":"mg-3138401-alto-do-cemiterio","name":"Alto do Cemiterio","municipality_id":"mg-3138401","polling_places":1,"approx":true,"official":false,"method":"voronoi-polling-places","whole_municipality":false,"approx_coords_only":false},"geometry":{"type":"MultiPolygon","coordinates":[[[[-42.71866,-21.50631],[-42.65156,-21.52719],[-42.64794,-21.52628],[-42.64274,-21.52122],[-42.64436,-21.51265],[-42.64439,-21.51255],[-42.69908,-21.43827],[-42.70058,-21.43773],[-42.71866,-21.50631]]]]}},{"type":"Feature","properties":{"territory_id":"mg-3138401-arraial-dos-montes","name":"Arraial dos Montes","municipality_id":"mg-3138401","polling_places":1,"approx":true,"official":false,"method":"voronoi-polling-places","whole_municipality":false,"approx_coords_only":false},"geometry":{"type":"MultiPolygon","coordinates":[[[[-42.64794,-21.52628],[-42.64561,-21.52844],[-42.64174,-21.52662],[-42.64191,-21.52268],[-42.64274,-21.52122],[-42.64794,-21.52628]]]]}},{"type":"Feature","properties":{"territory_id":"mg-3138401-bela-vista","name":"Bela Vista","municipality_id":"mg-3138401","polling_places":3,"approx":true,"official":false,"method":"voronoi-polling-places","whole_municipality":false,"approx_coords_only":false},"geometry":{"type":"MultiPolygon","coordinates":[[[[-42.69908,-21.43827],[-42.64439,-21.51255],[-42.64436,-21.51265],[-42.64274,-21.52122],[-42.64191,-21.52268],[-42.63412,-21.52498],[-42.63293,-21.52305],[-42.62639,-21.51803],[-42.61266,-21.5157],[-42.5634,-21.50238],[-42.6066,-21.41788],[-42.6113,-21.4114],[-42.6805,-21.4449],[-42.69908,-21.43827]]]]}},{"type":"Feature","properties":{"territory_id":"mg-3138401-catedral","name":"Catedral","municipality_id":"mg-3138401","polling_places":1,"approx":true,"official":false,"method":"voronoi-polling-places","whole_municipality":false,"approx_coords_only":false},"geometry":{"type":"MultiPolygon","coordinates":[[[[-42.64621,-21.53289],[-42.64093,-21.53415],[-42.64019,-21.53412],[-42.64,-21.53124],[-42.6405,-21.52989],[-42.64621,-21.53289]]]]}},{"type":"Feature","properties":{"territory_id":"mg-3138401-centro","name":"Centro","municipality_id":"mg-3138401","polling_places":8,"approx":true,"official":false,"method":"voronoi-polling-places","whole_municipality":false,"approx_coords_only":false},"geometry":{"type":"MultiPolygon","coordinates":[[[[-42.65756,-21.57348],[-42.638,-21.54164],[-42.63328,-21.5372],[-42.62643,-21.53767],[-42.63125,-21.52879],[-42.63384,-21.52747],[-42.63443,-21.52802],[-42.64041,-21.5292],[-42.6412,-21.5278],[-42.64174,-21.52662],[-42.64561,-21.52844],[-42.64635,-21.53106],[-42.64696,-21.53258],[-42.64685,-21.53303],[-42.64621,-21.53289],[-42.6405,-21.52989],[-42.64,-21.53124],[-42.64019,-21.53412],[-42.63977,-21.53489],[-42.6406,-21.53652],[-42.64713,-21.54008],[-42.65756,-21.57348]]]]}},{"type":"Feature","properties":{"territory_id":"mg-3138401-centro-distrito-de-abaiba","name":"Centro - Distrito de Abaiba","municipality_id":"mg-3138401","polling_places":1,"approx":true,"official":false,"method":"voronoi-polling-places","whole_municipality":false,"approx_coords_only":false},"geometry":{"type":"MultiPolygon","coordinates":[[[[-42.56846,-21.5736],[-42.51171,-21.65657],[-42.5016,-21.6598],[-42.4352,-21.6464],[-42.4106,-21.6015],[-42.4297,-21.5843],[-42.5142,-21.5611],[-42.52565,-21.52413],[-42.54689,-21.52668],[-42.56503,-21.56409],[-42.56846,-21.5736]]]]}},{"type":"Feature","properties":{"territory_id":"mg-3138401-centro-distrito-de-piacatuba","name":"Centro - Distrito de Piacatuba","municipality_id":"mg-3138401","polling_places":1,"approx":true,"official":false,"method":"voronoi-polling-places","whole_municipality":false,"approx_coords_only":false},"geometry":{"type":"MultiPolygon","coordinates":[[[[-42.9097,-21.5159],[-42.8926,-21.5294],[-42.8477,-21.5285],[-42.8657,-21.5846],[-42.831,-21.5438],[-42.81657,-21.56054],[-42.72064,-21.51238],[-42.71866,-21.50631],[-42.70058,-21.43773],[-42.7245,-21.4292],[-42.7825,-21.4607],[-42.7992,-21.4244],[-42.8232,-21.4701],[-42.8856,-21.4835],[-42.9097,-21.5159]]]]}},{"type":"Feature","properties":{"territory_id":"mg-3138401-centro-distrito-de-providencia","name":"Centro - Distrito de Providencia","municipality_id":"mg-3138401","polling_places":1,"approx":true,"official":false,"method":"voronoi-polling-places","whole_municipality":false,"approx_coords_only":false},"geometry":{"type":"MultiPolygon","coordinates":[[[[-42.70237,-21.68409],[-42.7002,-21.6857],[-42.6227,-21.7021],[-42.56317,-21.68213],[-42.62484,-21.60478],[-42.66679,-21.61834],[-42.70237,-21.68409]]]]}},{"type":"Feature","properties":{"territory_id":"mg-3138401-centro-distrito-de-ribeiro-junqueira","name":"Centro - Distrito de Ribeiro Junqueira","municipality_id":"mg-3138401","polling_places":1,"approx":true,"official":false,"method":"voronoi-polling-places","whole_municipality":false,"approx_coords_only":false},"geometry":{"type":"MultiPolygon","coordinates":[[[[-42.6066,-21.41788],[-42.5634,-21.50238],[-42.54689,-21.52668],[-42.52565,-21.52413],[-42.529,-21.5133],[-42.4682,-21.4645],[-42.4525,-21.4384],[-42.4909,-21.3912],[-42.5235,-21.4003],[-42.5322,-21.4357],[-42.5934,-21.4361],[-42.6066,-21.41788]]]]}},{"type":"Feature","properties":{"territory_id":"mg-3138401-centro-distrito-de-sao-martinho","name":"Centro - Distrito de Sao Martinho","municipality_id":"mg-3138401","polling_places":1,"approx":true,"official":false,"method":"voronoi-polling-places","whole_municipality":false,"approx_coords_only":false},"geometry":{"type":"MultiPolygon","coordinates":[[[[-42.62484,-21.60478],[-42.56317,-21.68213],[-42.5589,-21.6807],[-42.5332,-21.6497],[-42.51171,-21.65657],[-42.56846,-21.5736],[-42.62484,-21.60478]]]]}},{"type":"Feature","properties":{"territory_id":"mg-3138401-centro-distrito-de-tebas","name":"Centro - Distrito de Tebas","municipality_id":"mg-3138401","polling_places":1,"approx":true,"official":false,"method":"voronoi-polling-places","whole_municipality":false,"approx_coords_only":false},"geometry":{"type":"MultiPolygon","coordinates":[[[[-42.81657,-21.56054],[-42.791,-21.5902],[-42.7478,-21.624],[-42.7462,-21.651],[-42.7288,-21.6645],[-42.70237,-21.68409],[-42.66679,-21.61834],[-42.67146,-21.60561],[-42.71431,-21.5237],[-42.72064,-21.51238],[-42.81657,-21.56054]]]]}},{"type":"Feature","properties":{"territory_id":"mg-3138401-eldorado","name":"Eldorado","municipality_id":"mg-3138401","polling_places":1,"approx":true,"official":false,"method":"voronoi-polling-places","whole_municipality":false,"approx_coords_only":false},"geometry":{"type":"MultiPolygon","coordinates":[[[[-42.72064,-21.51238],[-42.71431,-21.5237],[-42.64723,-21.53404],[-42.64685,-21.53303],[-42.64696,-21.53258],[-42.65156,-21.52719],[-42.71866,-21.50631],[-42.72064,-21.51238]]]]}},{"type":"Feature","properties":{"territory_id":"mg-3138401-fabrica","name":"Fabrica","municipality_id":"mg-3138401","polling_places":1,"approx":true,"official":false,"method":"voronoi-polling-places","whole_municipality":false,"approx_coords_only":false},"geometry":{"type":"MultiPolygon","coordinates":[[[[-42.64713,-21.54008],[-42.6406,-21.53652],[-42.63977,-21.53489],[-42.64019,-21.53412],[-42.64093,-21.53415],[-42.647,-21.53769],[-42.64713,-21.54008]]]]}},{"type":"Feature","properties":{"territory_id":"mg-3138401-grama","name":"Grama","municipality_id":"mg-3138401","polling_places":1,"approx":true,"official":false,"method":"voronoi-polling-places","whole_municipality":false,"approx_coords_only":false},"geometry":{"type":"MultiPolygon","coordinates":[[[[-42.64723,-21.53404],[-42.647,-21.53769],[-42.64093,-21.53415],[-42.64621,-21.53289],[-42.64685,-21.53303],[-42.64723,-21.53404]]]]}},{"type":"Feature","properties":{"territory_id":"mg-3138401-pedra-pinguda","name":"Pedra Pinguda","municipality_id":"mg-3138401","polling_places":1,"approx":true,"official":false,"method":"voronoi-polling-places","whole_municipality":false,"approx_coords_only":false},"geometry":{"type":"MultiPolygon","coordinates":[[[[-42.67146,-21.60561],[-42.66679,-21.61834],[-42.62484,-21.60478],[-42.56846,-21.5736],[-42.56503,-21.56409],[-42.62643,-21.53767],[-42.63328,-21.5372],[-42.638,-21.54164],[-42.65756,-21.57348],[-42.67146,-21.60561]]]]}},{"type":"Feature","properties":{"territory_id":"mg-3138401-pirineus","name":"Pirineus","municipality_id":"mg-3138401","polling_places":1,"approx":true,"official":false,"method":"voronoi-polling-places","whole_municipality":false,"approx_coords_only":false},"geometry":{"type":"MultiPolygon","coordinates":[[[[-42.64191,-21.52268],[-42.64174,-21.52662],[-42.6412,-21.5278],[-42.64041,-21.5292],[-42.63443,-21.52802],[-42.63384,-21.52747],[-42.63412,-21.52498],[-42.64191,-21.52268]]]]}},{"type":"Feature","properties":{"territory_id":"mg-3138401-quinta-residencia","name":"Quinta Residencia","municipality_id":"mg-3138401","polling_places":1,"approx":true,"official":false,"method":"voronoi-polling-places","whole_municipality":false,"approx_coords_only":false},"geometry":{"type":"MultiPolygon","coordinates":[[[[-42.71431,-21.5237],[-42.67146,-21.60561],[-42.65756,-21.57348],[-42.64713,-21.54008],[-42.647,-21.53769],[-42.64723,-21.53404],[-42.71431,-21.5237]]]]}},{"type":"Feature","properties":{"territory_id":"mg-3138401-sao-cristovao","name":"Sao Cristovao","municipality_id":"mg-3138401","polling_places":1,"approx":true,"official":false,"method":"voronoi-polling-places","whole_municipality":false,"approx_coords_only":false},"geometry":{"type":"MultiPolygon","coordinates":[[[[-42.63412,-21.52498],[-42.63384,-21.52747],[-42.63125,-21.52879],[-42.61266,-21.5157],[-42.62639,-21.51803],[-42.63293,-21.52305],[-42.63412,-21.52498]]]]}},{"type":"Feature","properties":{"territory_id":"mg-3138401-seminario","name":"Seminario","municipality_id":"mg-3138401","polling_places":1,"approx":true,"official":false,"method":"voronoi-polling-places","whole_municipality":false,"approx_coords_only":false},"geometry":{"type":"MultiPolygon","coordinates":[[[[-42.65156,-21.52719],[-42.64696,-21.53258],[-42.64635,-21.53106],[-42.64561,-21.52844],[-42.64794,-21.52628],[-42.65156,-21.52719]]]]}},{"type":"Feature","properties":{"territory_id":"mg-3138401-tres-cruzes","name":"Tres Cruzes","municipality_id":"mg-3138401","polling_places":1,"approx":true,"official":false,"method":"voronoi-polling-places","whole_municipality":false,"approx_coords_only":false},"geometry":{"type":"MultiPolygon","coordinates":[[[[-42.63125,-21.52879],[-42.62643,-21.53767],[-42.56503,-21.56409],[-42.54689,-21.52668],[-42.5634,-21.50238],[-42.61266,-21.5157],[-42.63125,-21.52879]]]]}}]}