{"type":"FeatureCollection","features":[{"type":"Feature","properties":{"territory_id":"mg-3138104-brejo","name":"Brejo","municipality_id":"mg-3138104","polling_places":1,"approx":true,"official":false,"method":"voronoi-polling-places","whole_municipality":false,"approx_coords_only":false},"geometry":{"type":"MultiPolygon","coordinates":[[[[-45.01155,-17.75508],[-44.71048,-17.87847],[-44.63453,-17.81737],[-44.6453,-17.7615],[-44.6478,-17.76],[-44.6481,-17.747],[-44.65896,-17.69068],[-44.7039,-17.6901],[-44.7372,-17.7053],[-44.7523,-17.7573],[-44.8232,-17.7446],[-44.8489,-17.7318],[-44.8791,-17.7436],[-44.9846,-17.7169],[-45.0067,-17.7214],[-45.01155,-17.75508]]]]}},{"type":"Feature","properties":{"territory_id":"mg-3138104-centro","name":"Centro","municipality_id":"mg-3138104","polling_places":2,"approx":true,"official":false,"method":"voronoi-polling-places","whole_municipality":false,"approx_coords_only":false},"geometry":{"type":"MultiPolygon","coordinates":[[[[-44.63403,-17.98955],[-44.61591,-18.0442],[-44.5919,-17.9889],[-44.5439,-17.9837],[-44.5269,-17.9991],[-44.5383,-18.0488],[-44.4836,-18.0745],[-44.4271,-18.0755],[-44.4046,-18.0196],[-44.3866,-17.9344],[-44.3514,-17.9131],[-44.3021,-17.9097],[-44.3061,-17.852],[-44.29946,-17.81871],[-44.57736,-17.83943],[-44.60392,-17.84089],[-44.63403,-17.98955]]]]}},{"type":"Feature","properties":{"territory_id":"mg-3138104-morada-nova","name":"Morada Nova","municipality_id":"mg-3138104","polling_places":1,"approx":true,"official":false,"method":"voronoi-polling-places","whole_municipality":false,"approx_coords_only":false},"geometry":{"type":"MultiPolygon","coordinates":[[[[-45.1198,-17.8145],[-45.1093,-17.8605],[-45.1164,-17.9308],[-45.0993,-17.9631],[-45.0733,-17.9684],[-45.0203,-18.0076],[-45.0099,-18.0602],[-44.9521,-18.0863],[-44.9318,-18.0815],[-44.8741,-18.097],[-44.8476,-18.13],[-44.801,-18.132],[-44.7495,-18.1518],[-44.7336,-18.1395],[-44.7078,-18.0867],[-44.6732,-18.0879],[-44.6209,-18.0557],[-44.61591,-18.0442],[-44.63403,-17.98955],[-44.71048,-17.87847],[-45.01155,-17.75508],[-45.0137,-17.77],[-45.032,-17.7844],[-45.0767,-17.7819],[-45.1198,-17.8145]]]]}},{"type":"Feature","properties":{"territory_id":"mg-3138104-santa-maria","name":"Santa Maria","municipality_id":"mg-3138104","polling_places":1,"approx":true,"official":false,"method":"voronoi-polling-places","whole_municipality":false,"approx_coords_only":false},"geometry":{"type":"MultiPolygon","coordinates":[[[[-44.71048,-17.87847],[-44.63403,-17.98955],[-44.60392,-17.84089],[-44.63453,-17.81737],[-44.71048,-17.87847]]]]}},{"type":"Feature","properties":{"territory_id":"mg-3138104-zona-rural","name":"Zona Rural","municipality_id":"mg-3138104","polling_places":1,"approx":true,"official":false,"method":"voronoi-polling-places","whole_municipality":false,"approx_coords_only":false},"geometry":{"type":"MultiPolygon","coordinates":[[[[-44.65896,-17.69068],[-44.6481,-17.747],[-44.6494,-17.6908],[-44.65896,-17.69068]]],[[[-44.6453,-17.7615],[-44.63453,-17.81737],[-44.60392,-17.84089],[-44.57736,-17.83943],[-44.29946,-17.81871],[-44.2979,-17.8109],[-44.279,-17.7556],[-44.2933,-17.7012],[-44.3602,-17.7031],[-44.3958,-17.692],[-44.4467,-17.6097],[-44.4682,-17.6048],[-44.5276,-17.6004],[-44.5581,-17.619],[-44.5582,-17.6597],[-44.5961,-17.7315],[-44.6097,-17.7829],[-44.6453,-17.7615]]]]}}]}