{"type":"FeatureCollection","features":[{"type":"Feature","properties":{"territory_id":"mg-3138807-campinho","name":"Campinho","municipality_id":"mg-3138807","polling_places":1,"approx":true,"official":false,"method":"voronoi-polling-places","whole_municipality":false,"approx_coords_only":false},"geometry":{"type":"MultiPolygon","coordinates":[[[[-45.9255,-19.7008],[-45.9192,-19.7285],[-45.8782,-19.7637],[-45.8807,-19.7811],[-45.8509,-19.8204],[-45.8089,-19.8462],[-45.81911,-19.88583],[-45.76275,-19.85496],[-45.75063,-19.82032],[-45.7161,-19.69291],[-45.7323,-19.6896],[-45.8132,-19.7051],[-45.8488,-19.6841],[-45.8941,-19.7043],[-45.9255,-19.7008]]]]}},{"type":"Feature","properties":{"territory_id":"mg-3138807-centro","name":"Centro","municipality_id":"mg-3138807","polling_places":5,"approx":true,"official":false,"method":"voronoi-polling-places","whole_municipality":false,"approx_coords_only":false},"geometry":{"type":"MultiPolygon","coordinates":[[[[-45.76275,-19.85496],[-45.6689,-19.86698],[-45.54787,-19.889],[-45.5404,-19.8859],[-45.5456,-19.856],[-45.54439,-19.85581],[-45.67048,-19.79639],[-45.67664,-19.79591],[-45.67974,-19.78375],[-45.68165,-19.78064],[-45.68295,-19.79107],[-45.69023,-19.79732],[-45.69138,-19.79804],[-45.75063,-19.82032],[-45.76275,-19.85496]]]]}},{"type":"Feature","properties":{"territory_id":"mg-3138807-esteios","name":"Esteios","municipality_id":"mg-3138807","polling_places":1,"approx":true,"official":false,"method":"voronoi-polling-places","whole_municipality":false,"approx_coords_only":false},"geometry":{"type":"MultiPolygon","coordinates":[[[[-45.8206,-19.8916],[-45.7976,-19.9147],[-45.7595,-19.9726],[-45.7231,-19.9908],[-45.7062,-20.0175],[-45.6323,-20.0731],[-45.624,-20.0737],[-45.6034,-20.0723],[-45.5875,-20.0172],[-45.6136,-19.9972],[-45.5623,-19.9245],[-45.5761,-19.9007],[-45.54787,-19.889],[-45.6689,-19.86698],[-45.76275,-19.85496],[-45.81911,-19.88583],[-45.8206,-19.8916]]]]}},{"type":"Feature","properties":{"territory_id":"mg-3138807-monsenhor-parreiras","name":"Monsenhor Parreiras","municipality_id":"mg-3138807","polling_places":1,"approx":true,"official":false,"method":"voronoi-polling-places","whole_municipality":false,"approx_coords_only":false},"geometry":{"type":"MultiPolygon","coordinates":[[[[-45.75063,-19.82032],[-45.69138,-19.79804],[-45.69023,-19.79732],[-45.68295,-19.79107],[-45.68165,-19.78064],[-45.69482,-19.69292],[-45.699,-19.6964],[-45.7161,-19.69291],[-45.75063,-19.82032]]]]}},{"type":"Feature","properties":{"territory_id":"mg-3138807-novo-oriente","name":"Novo Oriente","municipality_id":"mg-3138807","polling_places":1,"approx":true,"official":false,"method":"voronoi-polling-places","whole_municipality":false,"approx_coords_only":false},"geometry":{"type":"MultiPolygon","coordinates":[[[[-45.69482,-19.69292],[-45.68165,-19.78064],[-45.67974,-19.78375],[-45.67048,-19.79639],[-45.54439,-19.85581],[-45.505,-19.8496],[-45.4798,-19.8295],[-45.4991,-19.798],[-45.4766,-19.7572],[-45.4819,-19.7305],[-45.51,-19.6984],[-45.5307,-19.7009],[-45.5605,-19.6613],[-45.597,-19.6547],[-45.6362,-19.663],[-45.6613,-19.665],[-45.69482,-19.69292]]]]}},{"type":"Feature","properties":{"territory_id":"mg-3138807-rosario","name":"Rosario","municipality_id":"mg-3138807","polling_places":1,"approx":true,"official":false,"method":"voronoi-polling-places","whole_municipality":false,"approx_coords_only":false},"geometry":{"type":"MultiPolygon","coordinates":[[[[-45.67974,-19.78375],[-45.67664,-19.79591],[-45.67048,-19.79639],[-45.67974,-19.78375]]]]}}]}