{"type":"FeatureCollection","features":[{"type":"Feature","properties":{"territory_id":"mg-3138005-centro","name":"Centro","municipality_id":"mg-3138005","polling_places":6,"approx":true,"official":false,"method":"voronoi-polling-places","whole_municipality":false,"approx_coords_only":false},"geometry":{"type":"MultiPolygon","coordinates":[[[[-42.536,-21.3731],[-42.5235,-21.4003],[-42.4909,-21.3912],[-42.4525,-21.4384],[-42.3918,-21.4455],[-42.3766,-21.4213],[-42.38002,-21.40022],[-42.42274,-21.37069],[-42.47751,-21.33216],[-42.5031,-21.31245],[-42.5293,-21.3369],[-42.536,-21.3731]]]]}},{"type":"Feature","properties":{"territory_id":"mg-3138005-corrego-sao-joao","name":"Córrego São João","municipality_id":"mg-3138005","polling_places":1,"approx":true,"official":false,"method":"voronoi-polling-places","whole_municipality":false,"approx_coords_only":false},"geometry":{"type":"MultiPolygon","coordinates":[[[[-42.5031,-21.31245],[-42.47751,-21.33216],[-42.42274,-21.37069],[-42.38002,-21.40022],[-42.3836,-21.3782],[-42.4155,-21.3488],[-42.40381,-21.31443],[-42.44197,-21.29979],[-42.47839,-21.28609],[-42.5024,-21.3118],[-42.5031,-21.31245]]]]}},{"type":"Feature","properties":{"territory_id":"mg-3138005-sao-joao-da-sapucaia","name":"São João da Sapucaia","municipality_id":"mg-3138005","polling_places":2,"approx":true,"official":false,"method":"voronoi-polling-places","whole_municipality":false,"approx_coords_only":false},"geometry":{"type":"MultiPolygon","coordinates":[[[[-42.47839,-21.28609],[-42.44197,-21.29979],[-42.40381,-21.31443],[-42.3991,-21.3006],[-42.4182,-21.2595],[-42.4629,-21.2695],[-42.47839,-21.28609]]]]}}]}