{"type":"FeatureCollection","features":[{"type":"Feature","properties":{"territory_id":"mg-3138906-centro","name":"Centro","municipality_id":"mg-3138906","polling_places":4,"approx":true,"official":false,"method":"voronoi-polling-places","whole_municipality":true,"approx_coords_only":false},"geometry":{"type":"MultiPolygon","coordinates":[[[[-40.8049,-16.9746],[-40.8084,-17.0024],[-40.7869,-17.0456],[-40.7743,-17.1037],[-40.7987,-17.1365],[-40.7592,-17.1599],[-40.6994,-17.2092],[-40.6334,-17.2047],[-40.6141,-17.1865],[-40.6303,-17.1747],[-40.6636,-17.1142],[-40.648,-17.0742],[-40.665,-17.035],[-40.7197,-16.9586],[-40.8049,-16.9746]]]]}}]}