{"type":"FeatureCollection","features":[{"type":"Feature","properties":{"territory_id":"mg-3138609-barreira","name":"Barreira","municipality_id":"mg-3138609","polling_places":1,"approx":true,"official":false,"method":"voronoi-polling-places","whole_municipality":false,"approx_coords_only":false},"geometry":{"type":"MultiPolygon","coordinates":[[[[-43.81955,-21.80906],[-43.80654,-21.85485],[-43.79793,-21.87103],[-43.79812,-21.85511],[-43.80846,-21.79921],[-43.81955,-21.80906]]]]}},{"type":"Feature","properties":{"territory_id":"mg-3138609-batatal","name":"Batatal","municipality_id":"mg-3138609","polling_places":1,"approx":true,"official":false,"method":"voronoi-polling-places","whole_municipality":false,"approx_coords_only":false},"geometry":{"type":"MultiPolygon","coordinates":[[[[-43.80112,-21.79116],[-43.78576,-21.82356],[-43.76075,-21.86509],[-43.7428,-21.8552],[-43.73019,-21.85491],[-43.78323,-21.74929],[-43.80112,-21.79116]]]]}},{"type":"Feature","properties":{"territory_id":"mg-3138609-capoeirao","name":"Capoeirao","municipality_id":"mg-3138609","polling_places":1,"approx":true,"official":false,"method":"voronoi-polling-places","whole_municipality":false,"approx_coords_only":false},"geometry":{"type":"MultiPolygon","coordinates":[[[[-43.98965,-21.75643],[-43.98665,-21.8604],[-43.978,-21.8621],[-43.9335,-21.8443],[-43.9151,-21.8898],[-43.90644,-21.89652],[-43.90109,-21.86546],[-43.94319,-21.77414],[-43.98965,-21.75643]]]]}},{"type":"Feature","properties":{"territory_id":"mg-3138609-centro","name":"Centro","municipality_id":"mg-3138609","polling_places":2,"approx":true,"official":false,"method":"voronoi-polling-places","whole_municipality":false,"approx_coords_only":false},"geometry":{"type":"MultiPolygon","coordinates":[[[[-43.80846,-21.79921],[-43.79812,-21.85511],[-43.79793,-21.87103],[-43.78145,-21.93727],[-43.781,-21.937],[-43.765,-21.9081],[-43.7782,-21.8747],[-43.76075,-21.86509],[-43.78576,-21.82356],[-43.80112,-21.79116],[-43.80846,-21.79921]]]]}},{"type":"Feature","properties":{"territory_id":"mg-3138609-cruzeiro","name":"Cruzeiro","municipality_id":"mg-3138609","polling_places":2,"approx":true,"official":false,"method":"voronoi-polling-places","whole_municipality":false,"approx_coords_only":false},"geometry":{"type":"MultiPolygon","coordinates":[[[[-43.82919,-21.81582],[-43.82164,-21.84341],[-43.81945,-21.9581],[-43.8147,-21.9573],[-43.78145,-21.93727],[-43.79793,-21.87103],[-43.80654,-21.85485],[-43.81955,-21.80906],[-43.82919,-21.81582]]]]}},{"type":"Feature","properties":{"territory_id":"mg-3138609-distrito-de-conceicao-de-ibitipoca","name":"Distrito de Conceicao de Ibitipoca","municipality_id":"mg-3138609","polling_places":1,"approx":true,"official":false,"method":"voronoi-polling-places","whole_municipality":false,"approx_coords_only":false},"geometry":{"type":"MultiPolygon","coordinates":[[[[-44.03836,-21.71861],[-43.98965,-21.75643],[-43.94319,-21.77414],[-43.87161,-21.73715],[-43.85022,-21.71528],[-43.8724,-21.7101],[-43.873,-21.6788],[-43.8865,-21.6839],[-43.9571,-21.6351],[-43.9939,-21.6894],[-44.0264,-21.7143],[-44.03836,-21.71861]]]]}},{"type":"Feature","properties":{"territory_id":"mg-3138609-distrito-de-sao-domingos-da-bocaina","name":"Distrito de Sao Domingos da Bocaina","municipality_id":"mg-3138609","polling_places":1,"approx":true,"official":false,"method":"voronoi-polling-places","whole_municipality":false,"approx_coords_only":false},"geometry":{"type":"MultiPolygon","coordinates":[[[[-44.0989,-21.876],[-44.0869,-21.8852],[-44.0182,-21.8542],[-43.98665,-21.8604],[-43.98965,-21.75643],[-44.03836,-21.71861],[-44.0713,-21.7305],[-44.0909,-21.7969],[-44.0989,-21.876]]]]}},{"type":"Feature","properties":{"territory_id":"mg-3138609-distrito-de-sao-jose-dos-lopes","name":"Distrito de Sao Jose dos Lopes","municipality_id":"mg-3138609","polling_places":1,"approx":true,"official":false,"method":"voronoi-polling-places","whole_municipality":false,"approx_coords_only":false},"geometry":{"type":"MultiPolygon","coordinates":[[[[-43.94319,-21.77414],[-43.90109,-21.86546],[-43.87001,-21.83346],[-43.87161,-21.73715],[-43.94319,-21.77414]]]]}},{"type":"Feature","properties":{"territory_id":"mg-3138609-laranjeiras","name":"Laranjeiras","municipality_id":"mg-3138609","polling_places":1,"approx":true,"official":false,"method":"voronoi-polling-places","whole_municipality":false,"approx_coords_only":false},"geometry":{"type":"MultiPolygon","coordinates":[[[[-43.87161,-21.73715],[-43.87001,-21.83346],[-43.82919,-21.81582],[-43.81955,-21.80906],[-43.80846,-21.79921],[-43.80112,-21.79116],[-43.78323,-21.74929],[-43.77913,-21.72538],[-43.7891,-21.7132],[-43.8287,-21.7203],[-43.85022,-21.71528],[-43.87161,-21.73715]]]]}},{"type":"Feature","properties":{"territory_id":"mg-3138609-manejo","name":"Manejo","municipality_id":"mg-3138609","polling_places":1,"approx":true,"official":false,"method":"voronoi-polling-places","whole_municipality":false,"approx_coords_only":false},"geometry":{"type":"MultiPolygon","coordinates":[[[[-43.78323,-21.74929],[-43.73019,-21.85491],[-43.68096,-21.85376],[-43.70712,-21.78868],[-43.714,-21.8049],[-43.77913,-21.72538],[-43.78323,-21.74929]]]]}},{"type":"Feature","properties":{"territory_id":"mg-3138609-orvalho","name":"Orvalho","municipality_id":"mg-3138609","polling_places":1,"approx":true,"official":false,"method":"voronoi-polling-places","whole_municipality":false,"approx_coords_only":false},"geometry":{"type":"MultiPolygon","coordinates":[[[[-43.70712,-21.78868],[-43.68096,-21.85376],[-43.6655,-21.8534],[-43.634,-21.8108],[-43.6679,-21.7504],[-43.6953,-21.7608],[-43.70712,-21.78868]]]]}},{"type":"Feature","properties":{"territory_id":"mg-3138609-poco-da-pedra","name":"Poco da Pedra","municipality_id":"mg-3138609","polling_places":1,"approx":true,"official":false,"method":"voronoi-polling-places","whole_municipality":false,"approx_coords_only":false},"geometry":{"type":"MultiPolygon","coordinates":[[[[-43.90644,-21.89652],[-43.8648,-21.9288],[-43.8676,-21.9622],[-43.8601,-21.9649],[-43.81945,-21.9581],[-43.82164,-21.84341],[-43.82919,-21.81582],[-43.87001,-21.83346],[-43.90109,-21.86546],[-43.90644,-21.89652]]]]}}]}