{"type":"FeatureCollection","features":[{"type":"Feature","properties":{"territory_id":"mg-3138625-jardim-humaita","name":"Jardim Humaitá","municipality_id":"mg-3138625","polling_places":1,"approx":true,"official":false,"method":"voronoi-polling-places","whole_municipality":false,"approx_coords_only":false},"geometry":{"type":"MultiPolygon","coordinates":[[[[-50.8754,-19.4228],[-50.8256,-19.4733],[-50.809,-19.4667],[-50.7488,-19.4986],[-50.6922,-19.5742],[-50.61308,-19.59888],[-50.57779,-19.55453],[-50.49853,-19.45494],[-50.5167,-19.4304],[-50.4768,-19.3662],[-50.4681,-19.322],[-50.5147,-19.2737],[-50.5462,-19.245],[-50.5843,-19.2277],[-50.6136,-19.2317],[-50.6481,-19.2145],[-50.7404,-19.2132],[-50.7465,-19.2399],[-50.8171,-19.2893],[-50.828,-19.3108],[-50.8754,-19.4228]]]]}},{"type":"Feature","properties":{"territory_id":"mg-3138625-jardim-paraiso-i-cohab","name":"Jardim Paraíso I - Cohab","municipality_id":"mg-3138625","polling_places":1,"approx":true,"official":false,"method":"voronoi-polling-places","whole_municipality":false,"approx_coords_only":false},"geometry":{"type":"MultiPolygon","coordinates":[[[[-50.61308,-19.59888],[-50.5787,-19.6096],[-50.5175,-19.6132],[-50.4985,-19.5921],[-50.4548,-19.5809],[-50.4677,-19.5386],[-50.4935,-19.5068],[-50.4879,-19.4693],[-50.49853,-19.45494],[-50.57779,-19.55453],[-50.61308,-19.59888]]]]}}]}