{"type":"FeatureCollection","features":[{"type":"Feature","properties":{"territory_id":"mg-3138682-centro","name":"Centro","municipality_id":"mg-3138682","polling_places":1,"approx":true,"official":false,"method":"voronoi-polling-places","whole_municipality":false,"approx_coords_only":true},"geometry":{"type":"MultiPolygon","coordinates":[[[[-44.67735,-16.25225],[-44.6759,-16.3145],[-44.6666,-16.3364],[-44.64346,-16.33155],[-44.60362,-16.27583],[-44.5968,-16.15825],[-44.63062,-16.14911],[-44.67735,-16.25225]]]]}},{"type":"Feature","properties":{"territory_id":"mg-3138682-cidade-nova","name":"Cidade Nova","municipality_id":"mg-3138682","polling_places":1,"approx":true,"official":false,"method":"voronoi-polling-places","whole_municipality":false,"approx_coords_only":false},"geometry":{"type":"MultiPolygon","coordinates":[[[[-44.59636,-16.15825],[-44.57509,-16.15962],[-44.51503,-16.07206],[-44.57604,-16.08189],[-44.59636,-16.15825]]]]}},{"type":"Feature","properties":{"territory_id":"mg-3138682-zona-rural","name":"Zona Rural","municipality_id":"mg-3138682","polling_places":14,"approx":true,"official":false,"method":"voronoi-polling-places","whole_municipality":false,"approx_coords_only":false},"geometry":{"type":"MultiPolygon","coordinates":[[[[-44.7197,-16.1789],[-44.6705,-16.2087],[-44.6775,-16.2457],[-44.67735,-16.25225],[-44.63062,-16.14911],[-44.5968,-16.15825],[-44.60362,-16.27583],[-44.64346,-16.33155],[-44.6165,-16.3259],[-44.5981,-16.3035],[-44.5139,-16.261],[-44.5454,-16.1732],[-44.4928,-16.1532],[-44.4862,-16.1295],[-44.4978,-16.0581],[-44.5078,-16.0709],[-44.51503,-16.07206],[-44.57509,-16.15962],[-44.59636,-16.15825],[-44.57604,-16.08189],[-44.5842,-16.0832],[-44.6596,-16.1339],[-44.7197,-16.1789]]]]}}]}