{"type":"FeatureCollection","features":[{"type":"Feature","properties":{"territory_id":"mg-3138674-centro","name":"Centro","municipality_id":"mg-3138674","polling_places":2,"approx":true,"official":false,"method":"voronoi-polling-places","whole_municipality":true,"approx_coords_only":false},"geometry":{"type":"MultiPolygon","coordinates":[[[[-42.0585,-20.4994],[-42.0241,-20.4738],[-42.006,-20.4412],[-42.0126,-20.4104],[-42.0457,-20.3768],[-42.0887,-20.3604],[-42.1164,-20.3886],[-42.1359,-20.4687],[-42.1345,-20.4936],[-42.0925,-20.4925],[-42.0688,-20.5095],[-42.0585,-20.4994]]]]}}]}