{"type":"FeatureCollection","features":[{"type":"Feature","properties":{"territory_id":"mg-3138708-centro","name":"Centro","municipality_id":"mg-3138708","polling_places":2,"approx":true,"official":false,"method":"voronoi-polling-places","whole_municipality":true,"approx_coords_only":false},"geometry":{"type":"MultiPolygon","coordinates":[[[[-44.7916,-21.5965],[-44.7414,-21.5106],[-44.7633,-21.4778],[-44.8133,-21.4691],[-44.8206,-21.5217],[-44.8705,-21.4981],[-44.8887,-21.469],[-44.9869,-21.4627],[-45.0108,-21.4346],[-45.0609,-21.4087],[-45.0422,-21.4549],[-45.0636,-21.5002],[-45.0544,-21.5574],[-45.0283,-21.5975],[-45.0369,-21.6319],[-44.9651,-21.6294],[-44.9115,-21.642],[-44.8781,-21.6277],[-44.868,-21.6078],[-44.8041,-21.5865],[-44.7916,-21.5965]]]]}}]}