{"type":"FeatureCollection","features":[{"type":"Feature","properties":{"territory_id":"mg-3138203-agua-limpa","name":"Agua Limpa","municipality_id":"mg-3138203","polling_places":1,"approx":true,"official":false,"method":"voronoi-polling-places","whole_municipality":false,"approx_coords_only":false},"geometry":{"type":"MultiPolygon","coordinates":[[[[-45.1768,-21.1817],[-45.1654,-21.2212],[-45.1749,-21.2503],[-45.1521,-21.2723],[-45.1657,-21.3337],[-45.1448,-21.3485],[-45.116,-21.3618],[-45.10959,-21.36949],[-45.01841,-21.25093],[-45.0236,-21.23626],[-45.08054,-21.1782],[-45.1288,-21.1687],[-45.1605,-21.1454],[-45.1768,-21.1817]]]]}},{"type":"Feature","properties":{"territory_id":"mg-3138203-centenario","name":"Centenario","municipality_id":"mg-3138203","polling_places":1,"approx":true,"official":false,"method":"voronoi-polling-places","whole_municipality":false,"approx_coords_only":false},"geometry":{"type":"MultiPolygon","coordinates":[[[[-44.99778,-21.25243],[-44.9934,-21.25254],[-44.98636,-21.2448],[-44.99337,-21.24141],[-44.9972,-21.24443],[-44.99778,-21.25243]]]]}},{"type":"Feature","properties":{"territory_id":"mg-3138203-centro","name":"Centro","municipality_id":"mg-3138203","polling_places":7,"approx":true,"official":false,"method":"voronoi-polling-places","whole_municipality":false,"approx_coords_only":false},"geometry":{"type":"MultiPolygon","coordinates":[[[[-45.07699,-21.1789],[-45.00919,-21.22987],[-45.00008,-21.22827],[-45.00052,-21.23184],[-45.0025,-21.23588],[-45.00416,-21.23714],[-45.00446,-21.23866],[-45.00474,-21.23928],[-45.00846,-21.24211],[-45.00639,-21.25228],[-45.00163,-21.25226],[-44.99869,-21.2528],[-44.99807,-21.25255],[-44.99778,-21.25243],[-44.9972,-21.24443],[-44.99337,-21.24141],[-44.99386,-21.24033],[-44.99413,-21.23563],[-44.99292,-21.23343],[-44.98941,-21.2293],[-44.99886,-21.22647],[-45.00276,-21.21773],[-45.0584,-21.18256],[-45.07699,-21.1789]]]]}},{"type":"Feature","properties":{"territory_id":"mg-3138203-cidade-nova","name":"Cidade Nova","municipality_id":"mg-3138203","polling_places":1,"approx":true,"official":false,"method":"voronoi-polling-places","whole_municipality":false,"approx_coords_only":false},"geometry":{"type":"MultiPolygon","coordinates":[[[[-45.0584,-21.18256],[-45.00276,-21.21773],[-44.95876,-21.2183],[-44.9745,-21.1931],[-44.993,-21.1343],[-45.0447,-21.1453],[-45.0516,-21.1839],[-45.0584,-21.18256]]]]}},{"type":"Feature","properties":{"territory_id":"mg-3138203-cruzeiro-do-sul","name":"Cruzeiro do Sul","municipality_id":"mg-3138203","polling_places":1,"approx":true,"official":false,"method":"voronoi-polling-places","whole_municipality":false,"approx_coords_only":false},"geometry":{"type":"MultiPolygon","coordinates":[[[[-45.01553,-21.29197],[-44.99884,-21.26321],[-44.99869,-21.2528],[-45.00163,-21.25226],[-45.00639,-21.25228],[-45.00835,-21.25398],[-45.01553,-21.29197]]]]}},{"type":"Feature","properties":{"territory_id":"mg-3138203-jardim-campestre-i","name":"Jardim Campestre I","municipality_id":"mg-3138203","polling_places":1,"approx":true,"official":false,"method":"voronoi-polling-places","whole_municipality":false,"approx_coords_only":false},"geometry":{"type":"MultiPolygon","coordinates":[[[[-45.08054,-21.1782],[-45.0236,-21.23626],[-45.00985,-21.2419],[-45.00846,-21.24211],[-45.00474,-21.23928],[-45.00446,-21.23866],[-45.00416,-21.23714],[-45.00919,-21.22987],[-45.07699,-21.1789],[-45.08054,-21.1782]]]]}},{"type":"Feature","properties":{"territory_id":"mg-3138203-jardim-floresta","name":"Jardim Floresta","municipality_id":"mg-3138203","polling_places":2,"approx":true,"official":false,"method":"voronoi-polling-places","whole_municipality":false,"approx_coords_only":false},"geometry":{"type":"MultiPolygon","coordinates":[[[[-44.99884,-21.26321],[-44.99344,-21.26145],[-44.98783,-21.25981],[-44.9934,-21.25254],[-44.99778,-21.25243],[-44.99807,-21.25255],[-44.99869,-21.2528],[-44.99884,-21.26321]]]]}},{"type":"Feature","properties":{"territory_id":"mg-3138203-jardim-gloria","name":"Jardim Gloria","municipality_id":"mg-3138203","polling_places":1,"approx":true,"official":false,"method":"voronoi-polling-places","whole_municipality":false,"approx_coords_only":false},"geometry":{"type":"MultiPolygon","coordinates":[[[[-45.00919,-21.22987],[-45.00416,-21.23714],[-45.0025,-21.23588],[-45.00052,-21.23184],[-45.00008,-21.22827],[-45.00919,-21.22987]]]]}},{"type":"Feature","properties":{"territory_id":"mg-3138203-jardim-vila-rica","name":"Jardim Vila Rica","municipality_id":"mg-3138203","polling_places":1,"approx":true,"official":false,"method":"voronoi-polling-places","whole_municipality":false,"approx_coords_only":false},"geometry":{"type":"MultiPolygon","coordinates":[[[[-44.9934,-21.25254],[-44.98783,-21.25981],[-44.958,-21.27567],[-44.92066,-21.231],[-44.93965,-21.23499],[-44.9457,-21.2392],[-44.94732,-21.2366],[-44.98636,-21.2448],[-44.9934,-21.25254]]]]}},{"type":"Feature","properties":{"territory_id":"mg-3138203-lavrinhas","name":"Lavrinhas","municipality_id":"mg-3138203","polling_places":1,"approx":true,"official":false,"method":"voronoi-polling-places","whole_municipality":false,"approx_coords_only":false},"geometry":{"type":"MultiPolygon","coordinates":[[[[-45.00276,-21.21773],[-44.99886,-21.22647],[-44.98941,-21.2293],[-44.95825,-21.2191],[-44.95876,-21.2183],[-45.00276,-21.21773]]]]}},{"type":"Feature","properties":{"territory_id":"mg-3138203-nova-lavras","name":"Nova Lavras","municipality_id":"mg-3138203","polling_places":1,"approx":true,"official":false,"method":"voronoi-polling-places","whole_municipality":false,"approx_coords_only":false},"geometry":{"type":"MultiPolygon","coordinates":[[[[-44.99413,-21.23563],[-44.99386,-21.24033],[-44.99337,-21.24141],[-44.98636,-21.2448],[-44.94732,-21.2366],[-44.95825,-21.2191],[-44.98941,-21.2293],[-44.99292,-21.23343],[-44.99413,-21.23563]]],[[[-44.93965,-21.23499],[-44.92066,-21.231],[-44.90116,-21.21237],[-44.9072,-21.2124],[-44.93965,-21.23499]]]]}},{"type":"Feature","properties":{"territory_id":"mg-3138203-novo-horizonte","name":"Novo Horizonte","municipality_id":"mg-3138203","polling_places":1,"approx":true,"official":false,"method":"voronoi-polling-places","whole_municipality":false,"approx_coords_only":false},"geometry":{"type":"MultiPolygon","coordinates":[[[[-45.10959,-21.36949],[-45.0851,-21.3989],[-45.04612,-21.37756],[-45.01553,-21.29197],[-45.00835,-21.25398],[-45.01662,-21.25105],[-45.01841,-21.25093],[-45.10959,-21.36949]]]]}},{"type":"Feature","properties":{"territory_id":"mg-3138203-santa-efigenia","name":"Santa Efigenia","municipality_id":"mg-3138203","polling_places":1,"approx":true,"official":false,"method":"voronoi-polling-places","whole_municipality":false,"approx_coords_only":false},"geometry":{"type":"MultiPolygon","coordinates":[[[[-45.04612,-21.37756],[-45.0376,-21.3729],[-45.002,-21.3336],[-44.99259,-21.33613],[-44.958,-21.27567],[-44.98783,-21.25981],[-44.99344,-21.26145],[-44.99884,-21.26321],[-45.01553,-21.29197],[-45.04612,-21.37756]]]]}},{"type":"Feature","properties":{"territory_id":"mg-3138203-serra-azul","name":"Serra Azul","municipality_id":"mg-3138203","polling_places":2,"approx":true,"official":false,"method":"voronoi-polling-places","whole_municipality":false,"approx_coords_only":false},"geometry":{"type":"MultiPolygon","coordinates":[[[[-45.0236,-21.23626],[-45.01841,-21.25093],[-45.01662,-21.25105],[-45.00835,-21.25398],[-45.00639,-21.25228],[-45.00846,-21.24211],[-45.00985,-21.2419],[-45.0236,-21.23626]]]]}},{"type":"Feature","properties":{"territory_id":"mg-3138203-zona-rural","name":"Zona Rural","municipality_id":"mg-3138203","polling_places":1,"approx":true,"official":false,"method":"voronoi-polling-places","whole_municipality":false,"approx_coords_only":false},"geometry":{"type":"MultiPolygon","coordinates":[[[[-44.99259,-21.33613],[-44.9463,-21.3486],[-44.9042,-21.3428],[-44.8821,-21.3118],[-44.8648,-21.2392],[-44.8693,-21.2122],[-44.90116,-21.21237],[-44.92066,-21.231],[-44.958,-21.27567],[-44.99259,-21.33613]]]]}}]}