{"type":"FeatureCollection","features":[{"type":"Feature","properties":{"territory_id":"mg-3139201-bairro-pequi","name":"Bairro Pequi","municipality_id":"mg-3139201","polling_places":1,"approx":true,"official":false,"method":"voronoi-polling-places","whole_municipality":false,"approx_coords_only":false},"geometry":{"type":"MultiPolygon","coordinates":[[[[-42.15343,-17.84091],[-42.08228,-17.84247],[-42.02968,-17.80293],[-42.04085,-17.77595],[-42.15177,-17.81806],[-42.15343,-17.84091]]]]}},{"type":"Feature","properties":{"territory_id":"mg-3139201-bairro-tancredo-neves","name":"Bairro Tancredo Neves","municipality_id":"mg-3139201","polling_places":1,"approx":true,"official":false,"method":"voronoi-polling-places","whole_municipality":false,"approx_coords_only":false},"geometry":{"type":"MultiPolygon","coordinates":[[[[-42.15835,-17.87278],[-42.08208,-17.97248],[-42.051,-17.9523],[-42.0595,-17.9116],[-42.02704,-17.86611],[-42.04355,-17.8609],[-42.07964,-17.85123],[-42.15767,-17.86934],[-42.15835,-17.87278]]]]}},{"type":"Feature","properties":{"territory_id":"mg-3139201-centro","name":"Centro","municipality_id":"mg-3139201","polling_places":5,"approx":true,"official":false,"method":"voronoi-polling-places","whole_municipality":false,"approx_coords_only":false},"geometry":{"type":"MultiPolygon","coordinates":[[[[-42.15767,-17.86934],[-42.07964,-17.85123],[-42.04355,-17.8609],[-42.02704,-17.86611],[-42.0204,-17.8568],[-41.99905,-17.86476],[-42.01193,-17.83903],[-42.02968,-17.80293],[-42.08228,-17.84247],[-42.15343,-17.84091],[-42.15767,-17.86934]]]]}},{"type":"Feature","properties":{"territory_id":"mg-3139201-distrito-de-jaguaritira","name":"Distrito de Jaguaritira","municipality_id":"mg-3139201","polling_places":1,"approx":true,"official":false,"method":"voronoi-polling-places","whole_municipality":false,"approx_coords_only":false},"geometry":{"type":"MultiPolygon","coordinates":[[[[-42.2816,-17.8503],[-42.25432,-17.89589],[-42.15835,-17.87278],[-42.15767,-17.86934],[-42.15343,-17.84091],[-42.15177,-17.81806],[-42.18234,-17.76884],[-42.2143,-17.771],[-42.2667,-17.7883],[-42.2816,-17.8503]]]]}},{"type":"Feature","properties":{"territory_id":"mg-3139201-distrito-junco-de-minas","name":"Distrito Junco de Minas","municipality_id":"mg-3139201","polling_places":1,"approx":true,"official":false,"method":"voronoi-polling-places","whole_municipality":false,"approx_coords_only":false},"geometry":{"type":"MultiPolygon","coordinates":[[[[-42.25432,-17.89589],[-42.2457,-17.9103],[-42.1955,-17.9546],[-42.1837,-17.9931],[-42.1485,-18.0156],[-42.08208,-17.97248],[-42.15835,-17.87278],[-42.25432,-17.89589]]]]}},{"type":"Feature","properties":{"territory_id":"mg-3139201-distrito-santo-antonio-do-mucuri","name":"Distrito Santo Antonio do Mucuri","municipality_id":"mg-3139201","polling_places":1,"approx":true,"official":false,"method":"voronoi-polling-places","whole_municipality":false,"approx_coords_only":false},"geometry":{"type":"MultiPolygon","coordinates":[[[[-42.04085,-17.77595],[-42.02968,-17.80293],[-42.01193,-17.83903],[-41.99905,-17.86476],[-41.9893,-17.8684],[-41.9176,-17.853],[-41.9201,-17.769],[-41.9498,-17.7764],[-41.9902,-17.7561],[-42.0287,-17.7708],[-42.03776,-17.76247],[-42.04085,-17.77595]]]]}},{"type":"Feature","properties":{"territory_id":"mg-3139201-setubal","name":"Setúbal","municipality_id":"mg-3139201","polling_places":1,"approx":true,"official":false,"method":"voronoi-polling-places","whole_municipality":false,"approx_coords_only":false},"geometry":{"type":"MultiPolygon","coordinates":[[[[-42.18234,-17.76884],[-42.15177,-17.81806],[-42.04085,-17.77595],[-42.03776,-17.76247],[-42.0437,-17.757],[-42.0427,-17.7162],[-42.0446,-17.6981],[-42.1163,-17.712],[-42.1443,-17.7018],[-42.1419,-17.7661],[-42.18234,-17.76884]]]]}}]}