{"type":"FeatureCollection","features":[{"type":"Feature","properties":{"territory_id":"mg-3139250-centro","name":"Centro","municipality_id":"mg-3139250","polling_places":1,"approx":true,"official":false,"method":"voronoi-polling-places","whole_municipality":false,"approx_coords_only":false},"geometry":{"type":"MultiPolygon","coordinates":[[[[-42.99184,-15.06685],[-42.97437,-15.07681],[-42.94453,-15.07286],[-42.95465,-15.02059],[-42.96536,-15.02718],[-42.99184,-15.06685]]]]}},{"type":"Feature","properties":{"territory_id":"mg-3139250-distrito-de-barrinha","name":"Distrito de Barrinha","municipality_id":"mg-3139250","polling_places":1,"approx":true,"official":false,"method":"voronoi-polling-places","whole_municipality":false,"approx_coords_only":false},"geometry":{"type":"MultiPolygon","coordinates":[[[[-43.00526,-15.12966],[-42.9882,-15.1354],[-42.95453,-15.12145],[-42.96218,-15.1141],[-43.00526,-15.12966]]]]}},{"type":"Feature","properties":{"territory_id":"mg-3139250-povoado-caraibas","name":"Povoado Caraibas","municipality_id":"mg-3139250","polling_places":1,"approx":true,"official":false,"method":"voronoi-polling-places","whole_municipality":false,"approx_coords_only":false},"geometry":{"type":"MultiPolygon","coordinates":[[[[-42.95358,-15.01982],[-42.90858,-15.04448],[-42.9036,-15.04],[-42.89593,-15.02219],[-42.91383,-14.99288],[-42.93265,-14.98881],[-42.95113,-14.99512],[-42.95358,-15.01982]]]]}},{"type":"Feature","properties":{"territory_id":"mg-3139250-povoado-pedra-redonda","name":"Povoado Pedra Redonda","municipality_id":"mg-3139250","polling_places":1,"approx":true,"official":false,"method":"voronoi-polling-places","whole_municipality":false,"approx_coords_only":false},"geometry":{"type":"MultiPolygon","coordinates":[[[[-42.93265,-14.98881],[-42.91383,-14.99288],[-42.87145,-14.93378],[-42.91416,-14.89828],[-42.93265,-14.98881]]]]}},{"type":"Feature","properties":{"territory_id":"mg-3139250-povoado-riacho-de-areia","name":"Povoado Riacho de Areia","municipality_id":"mg-3139250","polling_places":1,"approx":true,"official":false,"method":"voronoi-polling-places","whole_municipality":false,"approx_coords_only":false},"geometry":{"type":"MultiPolygon","coordinates":[[[[-42.91383,-14.99288],[-42.89593,-15.02219],[-42.8806,-14.9866],[-42.8499,-14.9517],[-42.87145,-14.93378],[-42.91383,-14.99288]]]]}},{"type":"Feature","properties":{"territory_id":"mg-3139250-povoado-sitio","name":"Povoado Sitio","municipality_id":"mg-3139250","polling_places":1,"approx":true,"official":false,"method":"voronoi-polling-places","whole_municipality":false,"approx_coords_only":false},"geometry":{"type":"MultiPolygon","coordinates":[[[[-42.99156,-14.9521],[-42.95113,-14.99512],[-42.93265,-14.98881],[-42.91416,-14.89828],[-42.9193,-14.894],[-42.9566,-14.9346],[-42.984,-14.94],[-42.99156,-14.9521]]]]}},{"type":"Feature","properties":{"territory_id":"mg-3139250-santana","name":"Santana","municipality_id":"mg-3139250","polling_places":1,"approx":true,"official":false,"method":"voronoi-polling-places","whole_municipality":false,"approx_coords_only":false},"geometry":{"type":"MultiPolygon","coordinates":[[[[-42.95465,-15.02059],[-42.94453,-15.07286],[-42.93989,-15.07266],[-42.90858,-15.04448],[-42.95358,-15.01982],[-42.95465,-15.02059]]]]}},{"type":"Feature","properties":{"territory_id":"mg-3139250-zona-rural","name":"Zona Rural","municipality_id":"mg-3139250","polling_places":4,"approx":true,"official":false,"method":"voronoi-polling-places","whole_municipality":false,"approx_coords_only":false},"geometry":{"type":"MultiPolygon","coordinates":[[[[-43.0396,-15.1181],[-43.00526,-15.12966],[-42.96218,-15.1141],[-42.95453,-15.12145],[-42.9479,-15.1187],[-42.9416,-15.0742],[-42.93989,-15.07266],[-42.94453,-15.07286],[-42.97437,-15.07681],[-42.99184,-15.06685],[-42.96536,-15.02718],[-42.95465,-15.02059],[-42.95358,-15.01982],[-42.95113,-14.99512],[-42.99156,-14.9521],[-43.0146,-14.989],[-43.033,-15.0423],[-43.014,-15.0717],[-43.0396,-15.1181]]]]}}]}