{"type":"FeatureCollection","features":[{"type":"Feature","properties":{"territory_id":"mg-3139409-baixada","name":"Baixada","municipality_id":"mg-3139409","polling_places":1,"approx":true,"official":false,"method":"voronoi-polling-places","whole_municipality":false,"approx_coords_only":false},"geometry":{"type":"MultiPolygon","coordinates":[[[[-42.03459,-20.2486],[-42.03062,-20.25352],[-42.02344,-20.25272],[-42.02534,-20.24861],[-42.0284,-20.24751],[-42.03459,-20.2486]]]]}},{"type":"Feature","properties":{"territory_id":"mg-3139409-bom-jardim","name":"Bom Jardim","municipality_id":"mg-3139409","polling_places":1,"approx":true,"official":false,"method":"voronoi-polling-places","whole_municipality":false,"approx_coords_only":false},"geometry":{"type":"MultiPolygon","coordinates":[[[[-42.0477,-20.26852],[-42.04595,-20.31657],[-42.00965,-20.34017],[-42.0082,-20.3387],[-42.0003,-20.3098],[-42.00192,-20.28741],[-42.01228,-20.28112],[-42.04507,-20.26889],[-42.0477,-20.26852]]]]}},{"type":"Feature","properties":{"territory_id":"mg-3139409-bom-jesus-de-realeza","name":"Bom Jesus de Realeza","municipality_id":"mg-3139409","polling_places":1,"approx":true,"official":false,"method":"voronoi-polling-places","whole_municipality":false,"approx_coords_only":false},"geometry":{"type":"MultiPolygon","coordinates":[[[[-42.18785,-20.29312],[-42.1521,-20.2908],[-42.11967,-20.30305],[-42.11393,-20.29275],[-42.13387,-20.28052],[-42.16543,-20.26635],[-42.18785,-20.29312]]]]}},{"type":"Feature","properties":{"territory_id":"mg-3139409-bom-pastor","name":"Bom Pastor","municipality_id":"mg-3139409","polling_places":1,"approx":true,"official":false,"method":"voronoi-polling-places","whole_municipality":false,"approx_coords_only":false},"geometry":{"type":"MultiPolygon","coordinates":[[[[-42.05811,-20.18894],[-42.0284,-20.24751],[-42.02534,-20.24861],[-42.01203,-20.20295],[-42.03758,-20.17726],[-42.05811,-20.18894]]]]}},{"type":"Feature","properties":{"territory_id":"mg-3139409-centro","name":"Centro","municipality_id":"mg-3139409","polling_places":6,"approx":true,"official":false,"method":"voronoi-polling-places","whole_municipality":false,"approx_coords_only":false},"geometry":{"type":"MultiPolygon","coordinates":[[[[-42.03946,-20.2578],[-42.03689,-20.26099],[-42.0335,-20.26247],[-42.02712,-20.26709],[-42.01228,-20.28112],[-42.00192,-20.28741],[-42.003,-20.27233],[-42.02344,-20.25272],[-42.03062,-20.25352],[-42.03235,-20.25504],[-42.03239,-20.25504],[-42.03368,-20.25493],[-42.03402,-20.25483],[-42.0357,-20.25617],[-42.03617,-20.25644],[-42.03946,-20.2578]]]]}},{"type":"Feature","properties":{"territory_id":"mg-3139409-coqueiro","name":"Coqueiro","municipality_id":"mg-3139409","polling_places":1,"approx":true,"official":false,"method":"voronoi-polling-places","whole_municipality":false,"approx_coords_only":false},"geometry":{"type":"MultiPolygon","coordinates":[[[[-42.03898,-20.24772],[-42.03402,-20.25483],[-42.03368,-20.25493],[-42.03239,-20.25504],[-42.03235,-20.25504],[-42.03062,-20.25352],[-42.03459,-20.2486],[-42.03898,-20.24772]]]]}},{"type":"Feature","properties":{"territory_id":"mg-3139409-dom-correa","name":"Dom Corrêa","municipality_id":"mg-3139409","polling_places":1,"approx":true,"official":false,"method":"voronoi-polling-places","whole_municipality":false,"approx_coords_only":false},"geometry":{"type":"MultiPolygon","coordinates":[[[[-42.20591,-20.062],[-42.1554,-20.0701],[-42.13489,-20.05966],[-42.1177,-20.02912],[-42.1256,-20.0191],[-42.1632,-19.9898],[-42.1974,-20.0035],[-42.20591,-20.062]]]]}},{"type":"Feature","properties":{"territory_id":"mg-3139409-engenho-da-serra","name":"Engenho da Serra","municipality_id":"mg-3139409","polling_places":1,"approx":true,"official":false,"method":"voronoi-polling-places","whole_municipality":false,"approx_coords_only":false},"geometry":{"type":"MultiPolygon","coordinates":[[[[-42.02534,-20.24861],[-42.02344,-20.25272],[-42.003,-20.27233],[-42.0052,-20.2419],[-41.98937,-20.22172],[-42.01203,-20.20295],[-42.02534,-20.24861]]]]}},{"type":"Feature","properties":{"territory_id":"mg-3139409-manhuacuzinho","name":"Manhuaçuzinho","municipality_id":"mg-3139409","polling_places":1,"approx":true,"official":false,"method":"voronoi-polling-places","whole_municipality":false,"approx_coords_only":false},"geometry":{"type":"MultiPolygon","coordinates":[[[[-42.17224,-20.16221],[-42.1512,-20.19517],[-42.14981,-20.19711],[-42.128,-20.20522],[-42.08802,-20.20757],[-42.08419,-20.20269],[-42.12569,-20.12716],[-42.14848,-20.13299],[-42.17224,-20.16221]]]]}},{"type":"Feature","properties":{"territory_id":"mg-3139409-palmeiras","name":"Palmeiras","municipality_id":"mg-3139409","polling_places":1,"approx":true,"official":false,"method":"voronoi-polling-places","whole_municipality":false,"approx_coords_only":false},"geometry":{"type":"MultiPolygon","coordinates":[[[[-42.12569,-20.12716],[-42.08419,-20.20269],[-42.05811,-20.18894],[-42.03758,-20.17726],[-42.02541,-20.14938],[-42.0272,-20.1492],[-42.0503,-20.1679],[-42.0821,-20.1494],[-42.0726,-20.1166],[-42.07454,-20.10781],[-42.12324,-20.12243],[-42.12569,-20.12716]]]]}},{"type":"Feature","properties":{"territory_id":"mg-3139409-palmeirinhas","name":"Palmeirinhas","municipality_id":"mg-3139409","polling_places":1,"approx":true,"official":false,"method":"voronoi-polling-places","whole_municipality":false,"approx_coords_only":false},"geometry":{"type":"MultiPolygon","coordinates":[[[[-42.13489,-20.05966],[-42.12324,-20.12243],[-42.07454,-20.10781],[-42.0819,-20.0745],[-42.1177,-20.02912],[-42.13489,-20.05966]]]]}},{"type":"Feature","properties":{"territory_id":"mg-3139409-petrina","name":"Petrina","municipality_id":"mg-3139409","polling_places":1,"approx":true,"official":false,"method":"voronoi-polling-places","whole_municipality":false,"approx_coords_only":false},"geometry":{"type":"MultiPolygon","coordinates":[[[[-42.08805,-20.22897],[-42.03946,-20.2578],[-42.03617,-20.25644],[-42.0357,-20.25617],[-42.03402,-20.25483],[-42.03898,-20.24772],[-42.08775,-20.22486],[-42.08805,-20.22897]]]]}},{"type":"Feature","properties":{"territory_id":"mg-3139409-pinheiro-i","name":"Pinheiro I","municipality_id":"mg-3139409","polling_places":1,"approx":true,"official":false,"method":"voronoi-polling-places","whole_municipality":false,"approx_coords_only":false},"geometry":{"type":"MultiPolygon","coordinates":[[[[-42.08802,-20.20757],[-42.08775,-20.22486],[-42.03898,-20.24772],[-42.03459,-20.2486],[-42.0284,-20.24751],[-42.05811,-20.18894],[-42.08419,-20.20269],[-42.08802,-20.20757]]]]}},{"type":"Feature","properties":{"territory_id":"mg-3139409-ponte-da-aldeia","name":"Ponte da Aldeia","municipality_id":"mg-3139409","polling_places":1,"approx":true,"official":false,"method":"voronoi-polling-places","whole_municipality":false,"approx_coords_only":false},"geometry":{"type":"MultiPolygon","coordinates":[[[[-42.10591,-20.28714],[-42.04595,-20.31657],[-42.0477,-20.26852],[-42.08913,-20.23633],[-42.10591,-20.28714]]]]}},{"type":"Feature","properties":{"territory_id":"mg-3139409-ponte-do-silva","name":"Ponte do Silva","municipality_id":"mg-3139409","polling_places":1,"approx":true,"official":false,"method":"voronoi-polling-places","whole_municipality":false,"approx_coords_only":false},"geometry":{"type":"MultiPolygon","coordinates":[[[[-42.1245,-20.3433],[-42.0887,-20.3604],[-42.0457,-20.3768],[-42.00965,-20.34017],[-42.04595,-20.31657],[-42.10591,-20.28714],[-42.11393,-20.29275],[-42.11967,-20.30305],[-42.1137,-20.3053],[-42.1245,-20.3433]]]]}},{"type":"Feature","properties":{"territory_id":"mg-3139409-realeza","name":"Realeza","municipality_id":"mg-3139409","polling_places":1,"approx":true,"official":false,"method":"voronoi-polling-places","whole_municipality":false,"approx_coords_only":false},"geometry":{"type":"MultiPolygon","coordinates":[[[[-42.17135,-20.25705],[-42.16543,-20.26635],[-42.13387,-20.28052],[-42.15198,-20.23722],[-42.17037,-20.24942],[-42.17135,-20.25705]]]]}},{"type":"Feature","properties":{"territory_id":"mg-3139409-santa-luzia","name":"Santa Luzia","municipality_id":"mg-3139409","polling_places":1,"approx":true,"official":false,"method":"voronoi-polling-places","whole_municipality":false,"approx_coords_only":false},"geometry":{"type":"MultiPolygon","coordinates":[[[[-42.04507,-20.26889],[-42.01228,-20.28112],[-42.02712,-20.26709],[-42.0335,-20.26247],[-42.03689,-20.26099],[-42.04507,-20.26889]]]]}},{"type":"Feature","properties":{"territory_id":"mg-3139409-santo-amaro-de-minas","name":"Santo Amaro de Minas","municipality_id":"mg-3139409","polling_places":2,"approx":true,"official":false,"method":"voronoi-polling-places","whole_municipality":false,"approx_coords_only":false},"geometry":{"type":"MultiPolygon","coordinates":[[[[-42.213,-20.2833],[-42.1968,-20.2937],[-42.18785,-20.29312],[-42.16543,-20.26635],[-42.17135,-20.25705],[-42.17037,-20.24942],[-42.18612,-20.22149],[-42.19969,-20.22086],[-42.213,-20.2833]]]]}},{"type":"Feature","properties":{"territory_id":"mg-3139409-sao-pedro-do-avai","name":"São Pedro do Avaí","municipality_id":"mg-3139409","polling_places":2,"approx":true,"official":false,"method":"voronoi-polling-places","whole_municipality":false,"approx_coords_only":false},"geometry":{"type":"MultiPolygon","coordinates":[[[[-42.2128,-20.1692],[-42.1942,-20.1951],[-42.19969,-20.22086],[-42.18612,-20.22149],[-42.14981,-20.19711],[-42.1512,-20.19517],[-42.17224,-20.16221],[-42.21237,-20.15726],[-42.2128,-20.1692]]]]}},{"type":"Feature","properties":{"territory_id":"mg-3139409-sao-sebastiao-do-sacramento","name":"São Sebastião do Sacramento","municipality_id":"mg-3139409","polling_places":3,"approx":true,"official":false,"method":"voronoi-polling-places","whole_municipality":false,"approx_coords_only":false},"geometry":{"type":"MultiPolygon","coordinates":[[[[-42.21237,-20.15726],[-42.17224,-20.16221],[-42.14848,-20.13299],[-42.12569,-20.12716],[-42.12324,-20.12243],[-42.13489,-20.05966],[-42.1554,-20.0701],[-42.20591,-20.062],[-42.2099,-20.0894],[-42.21237,-20.15726]]]]}},{"type":"Feature","properties":{"territory_id":"mg-3139409-sao-vicente","name":"São Vicente","municipality_id":"mg-3139409","polling_places":1,"approx":true,"official":false,"method":"voronoi-polling-places","whole_municipality":false,"approx_coords_only":false},"geometry":{"type":"MultiPolygon","coordinates":[[[[-42.15198,-20.23722],[-42.13387,-20.28052],[-42.11393,-20.29275],[-42.10591,-20.28714],[-42.08913,-20.23633],[-42.08805,-20.22897],[-42.08775,-20.22486],[-42.08802,-20.20757],[-42.128,-20.20522],[-42.15198,-20.23722]]]]}},{"type":"Feature","properties":{"territory_id":"mg-3139409-todos-os-santos","name":"Todos Os Santos","municipality_id":"mg-3139409","polling_places":1,"approx":true,"official":false,"method":"voronoi-polling-places","whole_municipality":false,"approx_coords_only":false},"geometry":{"type":"MultiPolygon","coordinates":[[[[-42.08913,-20.23633],[-42.0477,-20.26852],[-42.04507,-20.26889],[-42.03689,-20.26099],[-42.03946,-20.2578],[-42.08805,-20.22897],[-42.08913,-20.23633]]]]}},{"type":"Feature","properties":{"territory_id":"mg-3139409-vila-nova","name":"Vila Nova","municipality_id":"mg-3139409","polling_places":1,"approx":true,"official":false,"method":"voronoi-polling-places","whole_municipality":false,"approx_coords_only":false},"geometry":{"type":"MultiPolygon","coordinates":[[[[-42.18612,-20.22149],[-42.17037,-20.24942],[-42.15198,-20.23722],[-42.128,-20.20522],[-42.14981,-20.19711],[-42.18612,-20.22149]]]]}},{"type":"Feature","properties":{"territory_id":"mg-3139409-zona-rural","name":"Zona Rural","municipality_id":"mg-3139409","polling_places":1,"approx":true,"official":false,"method":"voronoi-polling-places","whole_municipality":false,"approx_coords_only":false},"geometry":{"type":"MultiPolygon","coordinates":[[[[-42.03758,-20.17726],[-42.01203,-20.20295],[-41.98937,-20.22172],[-41.9575,-20.1811],[-41.9585,-20.1561],[-42.02541,-20.14938],[-42.03758,-20.17726]]]]}}]}