{"type":"FeatureCollection","features":[{"type":"Feature","properties":{"territory_id":"mg-3139508-centro","name":"Centro","municipality_id":"mg-3139508","polling_places":5,"approx":true,"official":false,"method":"voronoi-polling-places","whole_municipality":false,"approx_coords_only":false},"geometry":{"type":"MultiPolygon","coordinates":[[[[-41.98933,-20.36959],[-41.97874,-20.39811],[-41.96724,-20.39393],[-41.95991,-20.36221],[-41.95887,-20.36101],[-41.95821,-20.36071],[-41.95434,-20.36114],[-41.95448,-20.35982],[-41.95452,-20.35958],[-41.95819,-20.35489],[-41.95601,-20.35269],[-41.9622,-20.33371],[-41.96296,-20.348],[-41.96211,-20.35515],[-41.96582,-20.35814],[-41.96967,-20.36022],[-41.97578,-20.3628],[-41.98933,-20.36959]]]]}},{"type":"Feature","properties":{"territory_id":"mg-3139508-cidade-jardim","name":"Cidade Jardim","municipality_id":"mg-3139508","polling_places":2,"approx":true,"official":false,"method":"voronoi-polling-places","whole_municipality":false,"approx_coords_only":false},"geometry":{"type":"MultiPolygon","coordinates":[[[[-41.96293,-20.32596],[-41.9622,-20.33371],[-41.95601,-20.35269],[-41.95301,-20.35334],[-41.95274,-20.35355],[-41.95069,-20.35384],[-41.94963,-20.34921],[-41.952,-20.34739],[-41.96293,-20.32596]]]]}},{"type":"Feature","properties":{"territory_id":"mg-3139508-isidoro","name":"Isidoro","municipality_id":"mg-3139508","polling_places":1,"approx":true,"official":false,"method":"voronoi-polling-places","whole_municipality":false,"approx_coords_only":false},"geometry":{"type":"MultiPolygon","coordinates":[[[[-41.96724,-20.39393],[-41.9429,-20.3851],[-41.93428,-20.3856],[-41.95434,-20.36114],[-41.95821,-20.36071],[-41.95887,-20.36101],[-41.95991,-20.36221],[-41.96724,-20.39393]]]]}},{"type":"Feature","properties":{"territory_id":"mg-3139508-morada-nova","name":"Morada Nova","municipality_id":"mg-3139508","polling_places":1,"approx":true,"official":false,"method":"voronoi-polling-places","whole_municipality":false,"approx_coords_only":false},"geometry":{"type":"MultiPolygon","coordinates":[[[[-41.96801,-20.30235],[-41.96293,-20.32596],[-41.952,-20.34739],[-41.94963,-20.34921],[-41.9429,-20.35002],[-41.96801,-20.30235]]]]}},{"type":"Feature","properties":{"territory_id":"mg-3139508-nossa-senhora-aparecida","name":"Nossa Senhora Aparecida","municipality_id":"mg-3139508","polling_places":2,"approx":true,"official":false,"method":"voronoi-polling-places","whole_municipality":false,"approx_coords_only":false},"geometry":{"type":"MultiPolygon","coordinates":[[[[-42.00893,-20.33945],[-41.98933,-20.36959],[-41.97578,-20.3628],[-41.96967,-20.36022],[-41.96582,-20.35814],[-41.96211,-20.35515],[-41.96296,-20.348],[-41.9622,-20.33371],[-41.96293,-20.32596],[-41.96801,-20.30235],[-41.96804,-20.30227],[-42.0003,-20.3098],[-42.0082,-20.3387],[-42.00893,-20.33945]]]]}},{"type":"Feature","properties":{"territory_id":"mg-3139508-nossa-senhora-de-lourdes","name":"Nossa Senhora de Lourdes","municipality_id":"mg-3139508","polling_places":1,"approx":true,"official":false,"method":"voronoi-polling-places","whole_municipality":false,"approx_coords_only":false},"geometry":{"type":"MultiPolygon","coordinates":[[[[-41.95069,-20.35384],[-41.94913,-20.35466],[-41.93142,-20.36133],[-41.9429,-20.35002],[-41.94963,-20.34921],[-41.95069,-20.35384]]]]}},{"type":"Feature","properties":{"territory_id":"mg-3139508-sao-roque","name":"São Roque","municipality_id":"mg-3139508","polling_places":2,"approx":true,"official":false,"method":"voronoi-polling-places","whole_municipality":false,"approx_coords_only":false},"geometry":{"type":"MultiPolygon","coordinates":[[[[-41.95452,-20.35958],[-41.95448,-20.35982],[-41.95434,-20.36114],[-41.93428,-20.3856],[-41.9065,-20.3872],[-41.89831,-20.38471],[-41.93142,-20.36133],[-41.94913,-20.35466],[-41.95069,-20.35384],[-41.95274,-20.35355],[-41.95452,-20.35958]]]]}},{"type":"Feature","properties":{"territory_id":"mg-3139508-vidal-soares","name":"Vidal Soares","municipality_id":"mg-3139508","polling_places":1,"approx":true,"official":false,"method":"voronoi-polling-places","whole_municipality":false,"approx_coords_only":false},"geometry":{"type":"MultiPolygon","coordinates":[[[[-41.95819,-20.35489],[-41.95452,-20.35958],[-41.95274,-20.35355],[-41.95301,-20.35334],[-41.95601,-20.35269],[-41.95819,-20.35489]]]]}},{"type":"Feature","properties":{"territory_id":"mg-3139508-vila-rica","name":"Vila Rica","municipality_id":"mg-3139508","polling_places":1,"approx":true,"official":false,"method":"voronoi-polling-places","whole_municipality":false,"approx_coords_only":false},"geometry":{"type":"MultiPolygon","coordinates":[[[[-41.96804,-20.30227],[-41.96801,-20.30235],[-41.9429,-20.35002],[-41.93142,-20.36133],[-41.89831,-20.38471],[-41.89027,-20.38226],[-41.89105,-20.37832],[-41.93191,-20.29385],[-41.96804,-20.30227]]]]}},{"type":"Feature","properties":{"territory_id":"mg-3139508-zona-rural","name":"Zona Rural","municipality_id":"mg-3139508","polling_places":3,"approx":true,"official":false,"method":"voronoi-polling-places","whole_municipality":false,"approx_coords_only":false},"geometry":{"type":"MultiPolygon","coordinates":[[[[-42.0457,-20.3768],[-42.0126,-20.4104],[-41.97874,-20.39811],[-41.98933,-20.36959],[-42.00893,-20.33945],[-42.0457,-20.3768]]],[[[-41.93191,-20.29385],[-41.89105,-20.37832],[-41.89027,-20.38226],[-41.8595,-20.3729],[-41.8221,-20.3109],[-41.851,-20.2962],[-41.8877,-20.3053],[-41.921,-20.2913],[-41.93191,-20.29385]]]]}}]}