{"type":"FeatureCollection","features":[{"type":"Feature","properties":{"territory_id":"mg-3139607-ariranha","name":"Ariranha","municipality_id":"mg-3139607","polling_places":1,"approx":true,"official":false,"method":"voronoi-polling-places","whole_municipality":false,"approx_coords_only":false},"geometry":{"type":"MultiPolygon","coordinates":[[[[-41.25631,-18.68363],[-41.247,-18.7092],[-41.2023,-18.6834],[-41.1398,-18.7164],[-41.09375,-18.75814],[-41.07824,-18.74367],[-41.02989,-18.64942],[-41.0509,-18.6342],[-41.04784,-18.62122],[-41.0821,-18.59984],[-41.25631,-18.68363]]],[[[-41.1468,-18.798],[-41.14212,-18.80327],[-41.13215,-18.79396],[-41.1468,-18.798]]]]}},{"type":"Feature","properties":{"territory_id":"mg-3139607-centro","name":"Centro","municipality_id":"mg-3139607","polling_places":2,"approx":true,"official":false,"method":"voronoi-polling-places","whole_municipality":false,"approx_coords_only":false},"geometry":{"type":"MultiPolygon","coordinates":[[[[-41.02461,-18.83725],[-41.00857,-18.83829],[-40.98021,-18.78459],[-40.96088,-18.77995],[-40.96217,-18.77289],[-40.98225,-18.77684],[-40.98472,-18.77995],[-40.9847,-18.78202],[-41.02461,-18.83725]]]]}},{"type":"Feature","properties":{"territory_id":"mg-3139607-distrito-de-limeira","name":"Distrito de Limeira","municipality_id":"mg-3139607","polling_places":1,"approx":true,"official":false,"method":"voronoi-polling-places","whole_municipality":false,"approx_coords_only":false},"geometry":{"type":"MultiPolygon","coordinates":[[[[-41.2647,-18.6606],[-41.25631,-18.68363],[-41.0821,-18.59984],[-41.09591,-18.52944],[-41.1117,-18.5346],[-41.158,-18.528],[-41.19,-18.5433],[-41.2114,-18.5765],[-41.2248,-18.6538],[-41.2647,-18.6606]]]]}},{"type":"Feature","properties":{"territory_id":"mg-3139607-nazario","name":"Nazário","municipality_id":"mg-3139607","polling_places":1,"approx":true,"official":false,"method":"voronoi-polling-places","whole_municipality":false,"approx_coords_only":false},"geometry":{"type":"MultiPolygon","coordinates":[[[[-41.07824,-18.74367],[-40.99358,-18.74513],[-40.95986,-18.7347],[-40.94103,-18.71567],[-40.9415,-18.6907],[-41.0052,-18.6673],[-41.02989,-18.64942],[-41.07824,-18.74367]]]]}},{"type":"Feature","properties":{"territory_id":"mg-3139607-nicolini","name":"Nicolini","municipality_id":"mg-3139607","polling_places":1,"approx":true,"official":false,"method":"voronoi-polling-places","whole_municipality":false,"approx_coords_only":false},"geometry":{"type":"MultiPolygon","coordinates":[[[[-41.00857,-18.83829],[-40.9639,-18.8412],[-40.94343,-18.83003],[-40.96088,-18.77995],[-40.98021,-18.78459],[-41.00857,-18.83829]]]]}},{"type":"Feature","properties":{"territory_id":"mg-3139607-povoado-do-bananal","name":"Povoado do Bananal","municipality_id":"mg-3139607","polling_places":1,"approx":true,"official":false,"method":"voronoi-polling-places","whole_municipality":false,"approx_coords_only":false},"geometry":{"type":"MultiPolygon","coordinates":[[[[-40.96217,-18.77289],[-40.96088,-18.77995],[-40.94343,-18.83003],[-40.9168,-18.8155],[-40.94,-18.7703],[-40.94103,-18.71567],[-40.95986,-18.7347],[-40.96217,-18.77289]]]]}},{"type":"Feature","properties":{"territory_id":"mg-3139607-santa-rita","name":"Santa Rita","municipality_id":"mg-3139607","polling_places":1,"approx":true,"official":false,"method":"voronoi-polling-places","whole_municipality":false,"approx_coords_only":false},"geometry":{"type":"MultiPolygon","coordinates":[[[[-41.09591,-18.52944],[-41.0821,-18.59984],[-41.04784,-18.62122],[-41.0258,-18.5276],[-41.0609,-18.5379],[-41.0774,-18.5234],[-41.09591,-18.52944]]]]}},{"type":"Feature","properties":{"territory_id":"mg-3139607-santo-antonio","name":"Santo Antônio","municipality_id":"mg-3139607","polling_places":1,"approx":true,"official":false,"method":"voronoi-polling-places","whole_municipality":false,"approx_coords_only":false},"geometry":{"type":"MultiPolygon","coordinates":[[[[-40.99358,-18.74513],[-40.99207,-18.76733],[-40.98225,-18.77684],[-40.96217,-18.77289],[-40.95986,-18.7347],[-40.99358,-18.74513]]]]}},{"type":"Feature","properties":{"territory_id":"mg-3139607-vila-nova","name":"Vila Nova","municipality_id":"mg-3139607","polling_places":3,"approx":true,"official":false,"method":"voronoi-polling-places","whole_municipality":false,"approx_coords_only":false},"geometry":{"type":"MultiPolygon","coordinates":[[[[-41.14212,-18.80327],[-41.1105,-18.8389],[-41.0254,-18.8372],[-41.02461,-18.83725],[-40.9847,-18.78202],[-40.98472,-18.77995],[-40.98225,-18.77684],[-40.99207,-18.76733],[-40.99358,-18.74513],[-41.07824,-18.74367],[-41.09375,-18.75814],[-41.0724,-18.7775],[-41.13215,-18.79396],[-41.14212,-18.80327]]]]}}]}