{"type":"FeatureCollection","features":[{"type":"Feature","properties":{"territory_id":"mg-3139102-brasilinha","name":"Brasilinha","municipality_id":"mg-3139102","polling_places":1,"approx":true,"official":false,"method":"voronoi-polling-places","whole_municipality":false,"approx_coords_only":false},"geometry":{"type":"MultiPolygon","coordinates":[[[[-44.4818,-21.4082],[-44.4549,-21.471],[-44.4563,-21.5183],[-44.43749,-21.52605],[-44.3533,-21.39717],[-44.3642,-21.4085],[-44.4818,-21.4082]]]]}},{"type":"Feature","properties":{"territory_id":"mg-3139102-centro","name":"Centro","municipality_id":"mg-3139102","polling_places":3,"approx":true,"official":false,"method":"voronoi-polling-places","whole_municipality":false,"approx_coords_only":false},"geometry":{"type":"MultiPolygon","coordinates":[[[[-44.38739,-21.58532],[-44.3864,-21.5861],[-44.3285,-21.5971],[-44.2706,-21.5767],[-44.2435,-21.6125],[-44.2208,-21.5668],[-44.2432,-21.4856],[-44.2696,-21.4889],[-44.2758,-21.4504],[-44.2054,-21.4306],[-44.1988,-21.3908],[-44.2176,-21.3752],[-44.2611,-21.3705],[-44.31467,-21.38403],[-44.33127,-21.46477],[-44.3375,-21.49243],[-44.38739,-21.58532]]]]}},{"type":"Feature","properties":{"territory_id":"mg-3139102-cidade-nova","name":"Cidade Nova","municipality_id":"mg-3139102","polling_places":1,"approx":true,"official":false,"method":"voronoi-polling-places","whole_municipality":false,"approx_coords_only":false},"geometry":{"type":"MultiPolygon","coordinates":[[[[-44.43749,-21.52605],[-44.4238,-21.5317],[-44.4263,-21.5548],[-44.38739,-21.58532],[-44.3375,-21.49243],[-44.33127,-21.46477],[-44.31467,-21.38403],[-44.349,-21.3927],[-44.3533,-21.39717],[-44.43749,-21.52605]]]]}}]}