{"type":"FeatureCollection","features":[{"type":"Feature","properties":{"territory_id":"mg-3139300-area-rural","name":"Area Rural","municipality_id":"mg-3139300","polling_places":15,"approx":true,"official":false,"method":"voronoi-polling-places","whole_municipality":false,"approx_coords_only":false},"geometry":{"type":"MultiPolygon","coordinates":[[[[-44.3981,-14.5931],[-44.3686,-14.6045],[-44.3381,-14.6445],[-44.2892,-14.7749],[-44.3239,-14.8031],[-44.2956,-14.82],[-44.2358,-14.7877],[-44.2128,-14.7661],[-44.1642,-14.7728],[-44.1424,-14.799],[-44.0936,-14.8275],[-44.0988,-14.8608],[-44.0644,-14.8945],[-44.0558,-14.9487],[-44.0118,-14.9606],[-44.0065,-14.9787],[-43.9974,-14.9767],[-43.9545,-14.9157],[-43.93695,-14.87838],[-43.95955,-14.86993],[-44.02725,-14.84565],[-44.02934,-14.83413],[-44.00623,-14.76326],[-43.99612,-14.71313],[-43.9911,-14.68366],[-43.87903,-14.55257],[-43.8703,-14.5131],[-43.832,-14.443],[-43.8184,-14.3877],[-43.8697,-14.4083],[-43.9188,-14.5137],[-43.9518,-14.5293],[-44.0114,-14.5358],[-44.0254,-14.4998],[-44.0594,-14.3722],[-44.08003,-14.36973],[-44.12393,-14.61702],[-44.21856,-14.66132],[-44.22687,-14.63116],[-44.24753,-14.54195],[-44.2584,-14.565],[-44.3012,-14.5428],[-44.3206,-14.5485],[-44.3666,-14.5828],[-44.3981,-14.5931]]],[[[-43.94108,-14.75714],[-43.93974,-14.75747],[-43.92967,-14.75771],[-43.928,-14.7522],[-43.93998,-14.75448],[-43.94108,-14.75714]]]]}},{"type":"Feature","properties":{"territory_id":"mg-3139300-arvoredo","name":"Arvoredo","municipality_id":"mg-3139300","polling_places":1,"approx":true,"official":false,"method":"voronoi-polling-places","whole_municipality":false,"approx_coords_only":false},"geometry":{"type":"MultiPolygon","coordinates":[[[[-44.00623,-14.76326],[-43.94241,-14.75839],[-43.94108,-14.75714],[-43.93998,-14.75448],[-43.94004,-14.75256],[-43.99612,-14.71313],[-44.00623,-14.76326]]]]}},{"type":"Feature","properties":{"territory_id":"mg-3139300-boa-vista","name":"Boa Vista","municipality_id":"mg-3139300","polling_places":1,"approx":true,"official":false,"method":"voronoi-polling-places","whole_municipality":false,"approx_coords_only":false},"geometry":{"type":"MultiPolygon","coordinates":[[[[-43.94004,-14.75256],[-43.93998,-14.75448],[-43.928,-14.7522],[-43.9177,-14.7182],[-43.91793,-14.69153],[-43.94004,-14.75256]]]]}},{"type":"Feature","properties":{"territory_id":"mg-3139300-centro","name":"Centro","municipality_id":"mg-3139300","polling_places":3,"approx":true,"official":false,"method":"voronoi-polling-places","whole_municipality":false,"approx_coords_only":false},"geometry":{"type":"MultiPolygon","coordinates":[[[[-43.99612,-14.71313],[-43.94004,-14.75256],[-43.91793,-14.69153],[-43.9182,-14.661],[-43.8812,-14.5624],[-43.87903,-14.55257],[-43.9911,-14.68366],[-43.99612,-14.71313]]],[[[-43.94241,-14.75839],[-43.9416,-14.76001],[-43.93335,-14.76984],[-43.92967,-14.75771],[-43.93974,-14.75747],[-43.94108,-14.75714],[-43.94241,-14.75839]]]]}},{"type":"Feature","properties":{"territory_id":"mg-3139300-nhandutiba","name":"Nhandutiba","municipality_id":"mg-3139300","polling_places":1,"approx":true,"official":false,"method":"voronoi-polling-places","whole_municipality":false,"approx_coords_only":false},"geometry":{"type":"MultiPolygon","coordinates":[[[[-44.24753,-14.54195],[-44.22687,-14.63116],[-44.21856,-14.66132],[-44.12393,-14.61702],[-44.08003,-14.36973],[-44.1161,-14.3654],[-44.1459,-14.4056],[-44.1908,-14.4087],[-44.216,-14.4435],[-44.1947,-14.4672],[-44.2353,-14.516],[-44.24753,-14.54195]]]]}},{"type":"Feature","properties":{"territory_id":"mg-3139300-santo-antonio","name":"Santo Antonio","municipality_id":"mg-3139300","polling_places":1,"approx":true,"official":false,"method":"voronoi-polling-places","whole_municipality":false,"approx_coords_only":false},"geometry":{"type":"MultiPolygon","coordinates":[[[[-44.02934,-14.83413],[-44.02725,-14.84565],[-43.95955,-14.86993],[-43.9416,-14.76001],[-43.94241,-14.75839],[-44.00623,-14.76326],[-44.02934,-14.83413]]]]}},{"type":"Feature","properties":{"territory_id":"mg-3139300-tamua","name":"Tamua","municipality_id":"mg-3139300","polling_places":1,"approx":true,"official":false,"method":"voronoi-polling-places","whole_municipality":false,"approx_coords_only":false},"geometry":{"type":"MultiPolygon","coordinates":[[[[-43.95955,-14.86993],[-43.93695,-14.87838],[-43.9205,-14.8434],[-43.934,-14.772],[-43.93335,-14.76984],[-43.9416,-14.76001],[-43.95955,-14.86993]]]]}}]}