{"type":"FeatureCollection","features":[{"type":"Feature","properties":{"territory_id":"mg-3139805-centro","name":"Centro","municipality_id":"mg-3139805","polling_places":6,"approx":true,"official":false,"method":"voronoi-polling-places","whole_municipality":false,"approx_coords_only":false},"geometry":{"type":"MultiPolygon","coordinates":[[[[-43.03974,-21.89571],[-43.02923,-21.9038],[-43.00005,-21.92791],[-43.0044,-21.86888],[-42.99767,-21.84068],[-43.00732,-21.83955],[-43.00926,-21.84586],[-43.02089,-21.86922],[-43.03974,-21.89571]]]]}},{"type":"Feature","properties":{"territory_id":"mg-3139805-engenho-novo","name":"Engenho Novo","municipality_id":"mg-3139805","polling_places":1,"approx":true,"official":false,"method":"voronoi-polling-places","whole_municipality":false,"approx_coords_only":false},"geometry":{"type":"MultiPolygon","coordinates":[[[[-43.04203,-21.82556],[-43.00732,-21.83955],[-42.99767,-21.84068],[-42.99521,-21.84052],[-42.94925,-21.82637],[-42.9673,-21.8235],[-42.9482,-21.7785],[-42.9608,-21.7332],[-43.0041,-21.7796],[-43.0206,-21.7825],[-43.04203,-21.82556]]]]}},{"type":"Feature","properties":{"territory_id":"mg-3139805-floresta","name":"Floresta","municipality_id":"mg-3139805","polling_places":1,"approx":true,"official":false,"method":"voronoi-polling-places","whole_municipality":false,"approx_coords_only":false},"geometry":{"type":"MultiPolygon","coordinates":[[[[-42.99521,-21.84052],[-42.9863,-21.94155],[-42.98237,-21.94612],[-42.9677,-21.9435],[-42.9549,-21.924],[-42.9361,-21.9114],[-42.9145,-21.8886],[-42.8819,-21.863],[-42.8845,-21.8514],[-42.8815,-21.8318],[-42.8944,-21.8124],[-42.9352,-21.8286],[-42.94925,-21.82637],[-42.99521,-21.84052]]]]}},{"type":"Feature","properties":{"territory_id":"mg-3139805-jardim-guanabara","name":"Jardim Guanabara","municipality_id":"mg-3139805","polling_places":1,"approx":true,"official":false,"method":"voronoi-polling-places","whole_municipality":false,"approx_coords_only":false},"geometry":{"type":"MultiPolygon","coordinates":[[[[-43.0044,-21.86888],[-43.00005,-21.92791],[-42.9863,-21.94155],[-42.99521,-21.84052],[-42.99767,-21.84068],[-43.0044,-21.86888]]]]}},{"type":"Feature","properties":{"territory_id":"mg-3139805-nossa-senhora-das-merces","name":"Nossa Senhora das Mercês","municipality_id":"mg-3139805","polling_places":1,"approx":true,"official":false,"method":"voronoi-polling-places","whole_municipality":false,"approx_coords_only":false},"geometry":{"type":"MultiPolygon","coordinates":[[[[-43.1137,-21.85182],[-43.03974,-21.89571],[-43.02089,-21.86922],[-43.00926,-21.84586],[-43.00732,-21.83955],[-43.04203,-21.82556],[-43.0428,-21.8271],[-43.0612,-21.8232],[-43.1137,-21.85182]]]]}},{"type":"Feature","properties":{"territory_id":"mg-3139805-saudade","name":"Saudade","municipality_id":"mg-3139805","polling_places":1,"approx":true,"official":false,"method":"voronoi-polling-places","whole_municipality":false,"approx_coords_only":false},"geometry":{"type":"MultiPolygon","coordinates":[[[[-43.1476,-21.9168],[-43.1093,-21.9512],[-43.1211,-21.9863],[-43.087,-21.9957],[-43.055,-21.9591],[-42.98237,-21.94612],[-42.9863,-21.94155],[-43.00005,-21.92791],[-43.02923,-21.9038],[-43.03974,-21.89571],[-43.1137,-21.85182],[-43.1243,-21.8576],[-43.1342,-21.8833],[-43.1476,-21.9168]]]]}}]}