{"type":"FeatureCollection","features":[{"type":"Feature","properties":{"territory_id":"mg-3139003-caiana","name":"Caiana","municipality_id":"mg-3139003","polling_places":1,"approx":true,"official":false,"method":"voronoi-polling-places","whole_municipality":false,"approx_coords_only":false},"geometry":{"type":"MultiPolygon","coordinates":[[[[-46.01628,-21.57665],[-45.96411,-21.6462],[-45.92574,-21.63613],[-45.85177,-21.58822],[-45.8531,-21.5865],[-45.905,-21.5521],[-45.9506,-21.5557],[-45.9806,-21.5315],[-46.0016,-21.5759],[-46.01628,-21.57665]]]]}},{"type":"Feature","properties":{"territory_id":"mg-3139003-centro","name":"Centro","municipality_id":"mg-3139003","polling_places":9,"approx":true,"official":false,"method":"voronoi-polling-places","whole_municipality":false,"approx_coords_only":false},"geometry":{"type":"MultiPolygon","coordinates":[[[[-45.96633,-21.65518],[-45.95896,-21.66462],[-45.93687,-21.7089],[-45.92997,-21.69441],[-45.91863,-21.68494],[-45.91588,-21.68405],[-45.87933,-21.74704],[-45.8169,-21.7227],[-45.7959,-21.7307],[-45.8011,-21.7672],[-45.7656,-21.7774],[-45.7875,-21.8229],[-45.7316,-21.8055],[-45.7071,-21.7537],[-45.729,-21.7074],[-45.7804,-21.7048],[-45.7839,-21.6824],[-45.81238,-21.67207],[-45.82136,-21.68819],[-45.91119,-21.67453],[-45.91923,-21.65992],[-45.92574,-21.63613],[-45.96411,-21.6462],[-45.96633,-21.65518]]]]}},{"type":"Feature","properties":{"territory_id":"mg-3139003-da-conceicao","name":"Da Conceição","municipality_id":"mg-3139003","polling_places":1,"approx":true,"official":false,"method":"voronoi-polling-places","whole_municipality":false,"approx_coords_only":false},"geometry":{"type":"MultiPolygon","coordinates":[[[[-46.02105,-21.71711],[-45.9859,-21.6964],[-45.93536,-21.71807],[-45.93687,-21.7089],[-45.95896,-21.66462],[-45.96633,-21.65518],[-46.02105,-21.71711]]]]}},{"type":"Feature","properties":{"territory_id":"mg-3139003-jardim-das-oliveiras-i","name":"Jardim das Oliveiras I","municipality_id":"mg-3139003","polling_places":1,"approx":true,"official":false,"method":"voronoi-polling-places","whole_municipality":false,"approx_coords_only":false},"geometry":{"type":"MultiPolygon","coordinates":[[[[-45.93687,-21.7089],[-45.93536,-21.71807],[-45.9283,-21.7211],[-45.8972,-21.7775],[-45.8841,-21.7489],[-45.87933,-21.74704],[-45.91588,-21.68405],[-45.91863,-21.68494],[-45.92997,-21.69441],[-45.93687,-21.7089]]]]}},{"type":"Feature","properties":{"territory_id":"mg-3139003-santa-luiza","name":"Santa Luíza","municipality_id":"mg-3139003","polling_places":1,"approx":true,"official":false,"method":"voronoi-polling-places","whole_municipality":false,"approx_coords_only":false},"geometry":{"type":"MultiPolygon","coordinates":[[[[-45.92574,-21.63613],[-45.91923,-21.65992],[-45.91119,-21.67453],[-45.82136,-21.68819],[-45.81238,-21.67207],[-45.817,-21.6704],[-45.8229,-21.6256],[-45.85177,-21.58822],[-45.92574,-21.63613]]]]}},{"type":"Feature","properties":{"territory_id":"mg-3139003-sao-luiz","name":"São Luiz","municipality_id":"mg-3139003","polling_places":1,"approx":true,"official":false,"method":"voronoi-polling-places","whole_municipality":false,"approx_coords_only":false},"geometry":{"type":"MultiPolygon","coordinates":[[[[-46.1125,-21.6147],[-46.084,-21.6525],[-46.1078,-21.7051],[-46.06,-21.7228],[-46.0234,-21.7185],[-46.02105,-21.71711],[-45.96633,-21.65518],[-45.96411,-21.6462],[-46.01628,-21.57665],[-46.0565,-21.5787],[-46.1125,-21.6147]]]]}}]}