{"type":"FeatureCollection","features":[{"type":"Feature","properties":{"territory_id":"mg-3139706-centro","name":"Centro","municipality_id":"mg-3139706","polling_places":2,"approx":true,"official":false,"method":"voronoi-polling-places","whole_municipality":false,"approx_coords_only":false},"geometry":{"type":"MultiPolygon","coordinates":[[[[-44.72826,-19.48813],[-44.72018,-19.50462],[-44.71381,-19.52037],[-44.68255,-19.55306],[-44.6506,-19.5564],[-44.6073,-19.5275],[-44.5579,-19.5367],[-44.5791,-19.5075],[-44.5541,-19.4307],[-44.5722,-19.4407],[-44.6106,-19.4256],[-44.6381,-19.4396],[-44.66,-19.415],[-44.7075,-19.4292],[-44.7134,-19.471],[-44.72826,-19.48813]]]]}},{"type":"Feature","properties":{"territory_id":"mg-3139706-sao-geraldo-catita","name":"Sao Geraldo - Catita","municipality_id":"mg-3139706","polling_places":1,"approx":true,"official":false,"method":"voronoi-polling-places","whole_municipality":false,"approx_coords_only":false},"geometry":{"type":"MultiPolygon","coordinates":[[[[-44.7792,-19.5027],[-44.7755,-19.5406],[-44.7508,-19.5693],[-44.7538,-19.59781],[-44.71381,-19.52037],[-44.72018,-19.50462],[-44.72826,-19.48813],[-44.7383,-19.4997],[-44.7792,-19.5027]]]]}},{"type":"Feature","properties":{"territory_id":"mg-3139706-zona-rural","name":"Zona Rural","municipality_id":"mg-3139706","polling_places":1,"approx":true,"official":false,"method":"voronoi-polling-places","whole_municipality":false,"approx_coords_only":false},"geometry":{"type":"MultiPolygon","coordinates":[[[[-44.7547,-19.6063],[-44.7253,-19.6137],[-44.7219,-19.5705],[-44.6831,-19.553],[-44.68255,-19.55306],[-44.71381,-19.52037],[-44.7538,-19.59781],[-44.7547,-19.6063]]]]}}]}