{"type":"FeatureCollection","features":[{"type":"Feature","properties":{"territory_id":"mg-3139904-centro","name":"Centro","municipality_id":"mg-3139904","polling_places":2,"approx":true,"official":false,"method":"voronoi-polling-places","whole_municipality":false,"approx_coords_only":false},"geometry":{"type":"MultiPolygon","coordinates":[[[[-45.42739,-22.32037],[-45.3882,-22.35033],[-45.37518,-22.31393],[-45.35489,-22.2651],[-45.3744,-22.2696],[-45.4165,-22.3177],[-45.42739,-22.32037]]]]}},{"type":"Feature","properties":{"territory_id":"mg-3139904-ilha","name":"Ilha","municipality_id":"mg-3139904","polling_places":1,"approx":true,"official":false,"method":"voronoi-polling-places","whole_municipality":false,"approx_coords_only":false},"geometry":{"type":"MultiPolygon","coordinates":[[[[-45.4496,-22.3258],[-45.4458,-22.3546],[-45.4234,-22.3785],[-45.37998,-22.35797],[-45.3882,-22.35033],[-45.42739,-22.32037],[-45.4496,-22.3258]]]]}},{"type":"Feature","properties":{"territory_id":"mg-3139904-mata-do-izidoro","name":"Mata do Izidoro","municipality_id":"mg-3139904","polling_places":1,"approx":true,"official":false,"method":"voronoi-polling-places","whole_municipality":false,"approx_coords_only":false},"geometry":{"type":"MultiPolygon","coordinates":[[[[-45.31933,-22.34592],[-45.2893,-22.3553],[-45.261,-22.3764],[-45.22743,-22.37055],[-45.25891,-22.30466],[-45.26512,-22.3042],[-45.31573,-22.34063],[-45.31933,-22.34592]]]]}},{"type":"Feature","properties":{"territory_id":"mg-3139904-pintos-negreiros","name":"Pintos Negreiros","municipality_id":"mg-3139904","polling_places":1,"approx":true,"official":false,"method":"voronoi-polling-places","whole_municipality":false,"approx_coords_only":false},"geometry":{"type":"MultiPolygon","coordinates":[[[[-45.25891,-22.30466],[-45.22743,-22.37055],[-45.2231,-22.3698],[-45.1989,-22.3118],[-45.1741,-22.2882],[-45.2194,-22.269],[-45.2435,-22.282],[-45.2556,-22.3049],[-45.25891,-22.30466]]]]}},{"type":"Feature","properties":{"territory_id":"mg-3139904-posses","name":"Posses","municipality_id":"mg-3139904","polling_places":1,"approx":true,"official":false,"method":"voronoi-polling-places","whole_municipality":false,"approx_coords_only":false},"geometry":{"type":"MultiPolygon","coordinates":[[[[-45.35344,-22.34542],[-45.3405,-22.3393],[-45.31933,-22.34592],[-45.31573,-22.34063],[-45.31876,-22.30027],[-45.3252,-22.2998],[-45.3328,-22.26],[-45.33696,-22.26096],[-45.35344,-22.34542]]]]}},{"type":"Feature","properties":{"territory_id":"mg-3139904-sao-joao","name":"São João","municipality_id":"mg-3139904","polling_places":1,"approx":true,"official":false,"method":"voronoi-polling-places","whole_municipality":false,"approx_coords_only":true},"geometry":{"type":"MultiPolygon","coordinates":[[[[-45.31876,-22.30027],[-45.31573,-22.34063],[-45.26512,-22.3042],[-45.31876,-22.30027]]]]}},{"type":"Feature","properties":{"territory_id":"mg-3139904-vila-de-lourdes","name":"Vila de Lourdes","municipality_id":"mg-3139904","polling_places":1,"approx":true,"official":false,"method":"voronoi-polling-places","whole_municipality":false,"approx_coords_only":false},"geometry":{"type":"MultiPolygon","coordinates":[[[[-45.3882,-22.35033],[-45.37998,-22.35797],[-45.35344,-22.34542],[-45.33696,-22.26096],[-45.35489,-22.2651],[-45.37518,-22.31393],[-45.3882,-22.35033]]]]}}]}