{"type":"FeatureCollection","features":[{"type":"Feature","properties":{"territory_id":"mg-3140407-cata-dos-marins","name":"Cata dos Marins","municipality_id":"mg-3140407","polling_places":1,"approx":true,"official":false,"method":"voronoi-polling-places","whole_municipality":false,"approx_coords_only":false},"geometry":{"type":"MultiPolygon","coordinates":[[[[-45.18573,-22.49994],[-45.1668,-22.5307],[-45.1244,-22.4972],[-45.1028,-22.4899],[-45.0982,-22.4594],[-45.13171,-22.4447],[-45.17798,-22.47276],[-45.18573,-22.49994]]]]}},{"type":"Feature","properties":{"territory_id":"mg-3140407-centro","name":"Centro","municipality_id":"mg-3140407","polling_places":1,"approx":true,"official":false,"method":"voronoi-polling-places","whole_municipality":false,"approx_coords_only":false},"geometry":{"type":"MultiPolygon","coordinates":[[[[-45.18887,-22.41222],[-45.17798,-22.47276],[-45.13171,-22.4447],[-45.1609,-22.4319],[-45.17,-22.4006],[-45.18887,-22.41222]]]]}},{"type":"Feature","properties":{"territory_id":"mg-3140407-cubatao","name":"Cubatão","municipality_id":"mg-3140407","polling_places":1,"approx":true,"official":false,"method":"voronoi-polling-places","whole_municipality":false,"approx_coords_only":false},"geometry":{"type":"MultiPolygon","coordinates":[[[[-45.2456,-22.474],[-45.198,-22.48],[-45.18573,-22.49994],[-45.17798,-22.47276],[-45.18887,-22.41222],[-45.2398,-22.4436],[-45.2456,-22.474]]]]}}]}