{"type":"FeatureCollection","features":[{"type":"Feature","properties":{"territory_id":"mg-3140704-alto-da-boa-vista","name":"Alto da Boa Vista","municipality_id":"mg-3140704","polling_places":1,"approx":true,"official":false,"method":"voronoi-polling-places","whole_municipality":false,"approx_coords_only":false},"geometry":{"type":"MultiPolygon","coordinates":[[[[-44.43536,-20.14289],[-44.4047,-20.1276],[-44.3792,-20.12441],[-44.41108,-20.06627],[-44.41723,-20.08297],[-44.43536,-20.14289]]]]}},{"type":"Feature","properties":{"territory_id":"mg-3140704-centro-azurita","name":"Centro - Azurita","municipality_id":"mg-3140704","polling_places":2,"approx":true,"official":false,"method":"voronoi-polling-places","whole_municipality":false,"approx_coords_only":false},"geometry":{"type":"MultiPolygon","coordinates":[[[[-44.5213,-19.97834],[-44.5163,-19.981],[-44.4987,-20.0133],[-44.50056,-20.07139],[-44.44413,-20.04601],[-44.44846,-20.01205],[-44.45225,-20.00119],[-44.46407,-19.98954],[-44.48319,-19.96879],[-44.5213,-19.97834]]]]}},{"type":"Feature","properties":{"territory_id":"mg-3140704-centro-mateus-leme","name":"Centro - Mateus Leme","municipality_id":"mg-3140704","polling_places":2,"approx":true,"official":false,"method":"voronoi-polling-places","whole_municipality":false,"approx_coords_only":false},"geometry":{"type":"MultiPolygon","coordinates":[[[[-44.43734,-19.98322],[-44.43087,-19.99183],[-44.42733,-19.99345],[-44.42713,-19.99303],[-44.41693,-19.97849],[-44.41881,-19.96155],[-44.42821,-19.95587],[-44.4347,-19.97662],[-44.43734,-19.98322]]]]}},{"type":"Feature","properties":{"territory_id":"mg-3140704-centro-serra-azul","name":"Centro - Serra Azul","municipality_id":"mg-3140704","polling_places":1,"approx":true,"official":false,"method":"voronoi-polling-places","whole_municipality":false,"approx_coords_only":false},"geometry":{"type":"MultiPolygon","coordinates":[[[[-44.46939,-20.11475],[-44.445,-20.1477],[-44.43536,-20.14289],[-44.41723,-20.08297],[-44.46939,-20.11475]]]]}},{"type":"Feature","properties":{"territory_id":"mg-3140704-concenza","name":"Concenza","municipality_id":"mg-3140704","polling_places":1,"approx":true,"official":false,"method":"voronoi-polling-places","whole_municipality":false,"approx_coords_only":false},"geometry":{"type":"MultiPolygon","coordinates":[[[[-44.45002,-19.99893],[-44.43087,-19.99183],[-44.43734,-19.98322],[-44.45002,-19.99893]]]]}},{"type":"Feature","properties":{"territory_id":"mg-3140704-estancias-champagnat","name":"Estancias Champagnat","municipality_id":"mg-3140704","polling_places":1,"approx":true,"official":false,"method":"voronoi-polling-places","whole_municipality":false,"approx_coords_only":false},"geometry":{"type":"MultiPolygon","coordinates":[[[[-44.45225,-20.00119],[-44.44846,-20.01205],[-44.42693,-19.99583],[-44.42733,-19.99345],[-44.43087,-19.99183],[-44.45002,-19.99893],[-44.45225,-20.00119]]]]}},{"type":"Feature","properties":{"territory_id":"mg-3140704-imperatriz","name":"Imperatriz","municipality_id":"mg-3140704","polling_places":1,"approx":true,"official":false,"method":"voronoi-polling-places","whole_municipality":false,"approx_coords_only":false},"geometry":{"type":"MultiPolygon","coordinates":[[[[-44.44846,-20.01205],[-44.44413,-20.04601],[-44.41343,-20.04812],[-44.38614,-20.03342],[-44.40264,-20.01096],[-44.42693,-19.99583],[-44.44846,-20.01205]]]]}},{"type":"Feature","properties":{"territory_id":"mg-3140704-residencial-serra-verde","name":"Residencial Serra Verde","municipality_id":"mg-3140704","polling_places":1,"approx":true,"official":false,"method":"voronoi-polling-places","whole_municipality":false,"approx_coords_only":false},"geometry":{"type":"MultiPolygon","coordinates":[[[[-44.48319,-19.96879],[-44.46407,-19.98954],[-44.45225,-20.00119],[-44.45002,-19.99893],[-44.43734,-19.98322],[-44.4347,-19.97662],[-44.42821,-19.95587],[-44.4285,-19.9557],[-44.4387,-19.9312],[-44.44045,-19.93055],[-44.48319,-19.96879]]]]}},{"type":"Feature","properties":{"territory_id":"mg-3140704-serra-azul","name":"Serra Azul","municipality_id":"mg-3140704","polling_places":1,"approx":true,"official":false,"method":"voronoi-polling-places","whole_municipality":false,"approx_coords_only":false},"geometry":{"type":"MultiPolygon","coordinates":[[[[-44.5006,-20.0726],[-44.46939,-20.11475],[-44.41723,-20.08297],[-44.41108,-20.06627],[-44.41343,-20.04812],[-44.44413,-20.04601],[-44.50056,-20.07139],[-44.5006,-20.0726]]]]}},{"type":"Feature","properties":{"territory_id":"mg-3140704-sitio-novo","name":"Sitio Novo","municipality_id":"mg-3140704","polling_places":1,"approx":true,"official":false,"method":"voronoi-polling-places","whole_municipality":false,"approx_coords_only":false},"geometry":{"type":"MultiPolygon","coordinates":[[[[-44.5419,-19.9674],[-44.5213,-19.97834],[-44.48319,-19.96879],[-44.44045,-19.93055],[-44.4795,-19.9161],[-44.5271,-19.9531],[-44.5419,-19.9674]]]]}},{"type":"Feature","properties":{"territory_id":"mg-3140704-vale-dos-aracas-i-i-i","name":"Vale dos Araças I I I","municipality_id":"mg-3140704","polling_places":1,"approx":true,"official":false,"method":"voronoi-polling-places","whole_municipality":false,"approx_coords_only":false},"geometry":{"type":"MultiPolygon","coordinates":[[[[-44.42733,-19.99345],[-44.42693,-19.99583],[-44.40264,-20.01096],[-44.41693,-19.97849],[-44.42713,-19.99303],[-44.42733,-19.99345]]]]}},{"type":"Feature","properties":{"territory_id":"mg-3140704-varginha","name":"Varginha","municipality_id":"mg-3140704","polling_places":1,"approx":true,"official":false,"method":"voronoi-polling-places","whole_municipality":false,"approx_coords_only":false},"geometry":{"type":"MultiPolygon","coordinates":[[[[-44.41343,-20.04812],[-44.41108,-20.06627],[-44.3792,-20.12441],[-44.3544,-20.1213],[-44.3756,-20.0722],[-44.35542,-20.02958],[-44.36869,-20.02982],[-44.38614,-20.03342],[-44.41343,-20.04812]]]]}},{"type":"Feature","properties":{"territory_id":"mg-3140704-vila-suzana","name":"Vila Suzana","municipality_id":"mg-3140704","polling_places":2,"approx":true,"official":false,"method":"voronoi-polling-places","whole_municipality":false,"approx_coords_only":false},"geometry":{"type":"MultiPolygon","coordinates":[[[[-44.41881,-19.96155],[-44.41693,-19.97849],[-44.40264,-20.01096],[-44.38614,-20.03342],[-44.36869,-20.02982],[-44.35542,-20.02958],[-44.3436,-20.0046],[-44.3455,-19.9824],[-44.3909,-19.9784],[-44.41881,-19.96155]]]]}}]}