{"type":"FeatureCollection","features":[{"type":"Feature","properties":{"territory_id":"mg-3140001-aguas-claras","name":"Aguas Claras","municipality_id":"mg-3140001","polling_places":1,"approx":true,"official":false,"method":"voronoi-polling-places","whole_municipality":false,"approx_coords_only":false},"geometry":{"type":"MultiPolygon","coordinates":[[[[-43.27305,-20.20186],[-43.25404,-20.28454],[-43.22652,-20.29018],[-43.19751,-20.25618],[-43.19484,-20.24243],[-43.26832,-20.19878],[-43.27305,-20.20186]]]]}},{"type":"Feature","properties":{"territory_id":"mg-3140001-bandeirantes","name":"Bandeirantes","municipality_id":"mg-3140001","polling_places":1,"approx":true,"official":false,"method":"voronoi-polling-places","whole_municipality":false,"approx_coords_only":false},"geometry":{"type":"MultiPolygon","coordinates":[[[[-43.41895,-20.38037],[-43.4164,-20.38018],[-43.41342,-20.37813],[-43.41768,-20.37592],[-43.41895,-20.38037]]]]}},{"type":"Feature","properties":{"territory_id":"mg-3140001-barro-branco","name":"Barro Branco","municipality_id":"mg-3140001","polling_places":1,"approx":true,"official":false,"method":"voronoi-polling-places","whole_municipality":false,"approx_coords_only":false},"geometry":{"type":"MultiPolygon","coordinates":[[[[-43.34544,-20.43855],[-43.28808,-20.49067],[-43.2686,-20.4511],[-43.23272,-20.45343],[-43.31211,-20.4015],[-43.34544,-20.43855]]]]}},{"type":"Feature","properties":{"territory_id":"mg-3140001-barroca","name":"Barroca","municipality_id":"mg-3140001","polling_places":1,"approx":true,"official":false,"method":"voronoi-polling-places","whole_municipality":false,"approx_coords_only":false},"geometry":{"type":"MultiPolygon","coordinates":[[[[-43.41452,-20.35239],[-43.41285,-20.35928],[-43.39419,-20.37357],[-43.39379,-20.37374],[-43.38799,-20.37527],[-43.381,-20.37656],[-43.36411,-20.35245],[-43.41452,-20.35239]]]]}},{"type":"Feature","properties":{"territory_id":"mg-3140001-bento-rodrigues","name":"Bento Rodrigues","municipality_id":"mg-3140001","polling_places":1,"approx":true,"official":false,"method":"voronoi-polling-places","whole_municipality":false,"approx_coords_only":false},"geometry":{"type":"MultiPolygon","coordinates":[[[[-43.46859,-20.22913],[-43.4527,-20.3037],[-43.46372,-20.32738],[-43.42391,-20.31916],[-43.40565,-20.30424],[-43.46513,-20.23016],[-43.46859,-20.22913]]]]}},{"type":"Feature","properties":{"territory_id":"mg-3140001-cabanas","name":"Cabanas","municipality_id":"mg-3140001","polling_places":2,"approx":true,"official":false,"method":"voronoi-polling-places","whole_municipality":false,"approx_coords_only":false},"geometry":{"type":"MultiPolygon","coordinates":[[[[-43.43222,-20.38713],[-43.43168,-20.39084],[-43.42448,-20.3924],[-43.38587,-20.41178],[-43.38584,-20.40752],[-43.40973,-20.39356],[-43.41729,-20.387],[-43.42745,-20.3854],[-43.43222,-20.38713]]]]}},{"type":"Feature","properties":{"territory_id":"mg-3140001-cachoeira-do-brumado","name":"Cachoeira do Brumado","municipality_id":"mg-3140001","polling_places":1,"approx":true,"official":false,"method":"voronoi-polling-places","whole_municipality":false,"approx_coords_only":false},"geometry":{"type":"MultiPolygon","coordinates":[[[[-43.31211,-20.4015],[-43.23272,-20.45343],[-43.2193,-20.4543],[-43.21927,-20.45427],[-43.21064,-20.42568],[-43.24722,-20.3642],[-43.25981,-20.35795],[-43.31203,-20.38446],[-43.31211,-20.4015]]]]}},{"type":"Feature","properties":{"territory_id":"mg-3140001-camargos","name":"Camargos","municipality_id":"mg-3140001","polling_places":1,"approx":true,"official":false,"method":"voronoi-polling-places","whole_municipality":false,"approx_coords_only":false},"geometry":{"type":"MultiPolygon","coordinates":[[[[-43.46513,-20.23016],[-43.40565,-20.30424],[-43.35862,-20.30694],[-43.35305,-20.29961],[-43.3449,-20.21135],[-43.46513,-20.23016]]]]}},{"type":"Feature","properties":{"territory_id":"mg-3140001-campinas","name":"Campinas","municipality_id":"mg-3140001","polling_places":1,"approx":true,"official":false,"method":"voronoi-polling-places","whole_municipality":false,"approx_coords_only":false},"geometry":{"type":"MultiPolygon","coordinates":[[[[-43.19751,-20.25618],[-43.17489,-20.27776],[-43.1458,-20.2333],[-43.14998,-20.21951],[-43.19484,-20.24243],[-43.19751,-20.25618]]]]}},{"type":"Feature","properties":{"territory_id":"mg-3140001-centro","name":"Centro","municipality_id":"mg-3140001","polling_places":7,"approx":true,"official":false,"method":"voronoi-polling-places","whole_municipality":false,"approx_coords_only":false},"geometry":{"type":"MultiPolygon","coordinates":[[[[-43.42745,-20.3854],[-43.41729,-20.387],[-43.41485,-20.38399],[-43.38799,-20.37527],[-43.39379,-20.37374],[-43.39419,-20.37357],[-43.40451,-20.37183],[-43.42054,-20.36542],[-43.42187,-20.36569],[-43.4224,-20.36714],[-43.42304,-20.36831],[-43.4228,-20.36886],[-43.42073,-20.37417],[-43.4248,-20.3829],[-43.42745,-20.3854]],[[-43.41895,-20.38037],[-43.41768,-20.37592],[-43.41342,-20.37813],[-43.4164,-20.38018],[-43.41895,-20.38037]]]]}},{"type":"Feature","properties":{"territory_id":"mg-3140001-claudio-manoel","name":"Claudio Manoel","municipality_id":"mg-3140001","polling_places":1,"approx":true,"official":false,"method":"voronoi-polling-places","whole_municipality":false,"approx_coords_only":false},"geometry":{"type":"MultiPolygon","coordinates":[[[[-43.26832,-20.19878],[-43.19484,-20.24243],[-43.14998,-20.21951],[-43.1628,-20.1772],[-43.1923,-20.1743],[-43.2275,-20.2017],[-43.2533,-20.189],[-43.26832,-20.19878]]]]}},{"type":"Feature","properties":{"territory_id":"mg-3140001-constantino","name":"Constantino","municipality_id":"mg-3140001","polling_places":1,"approx":true,"official":false,"method":"voronoi-polling-places","whole_municipality":false,"approx_coords_only":false},"geometry":{"type":"MultiPolygon","coordinates":[[[[-43.21927,-20.45427],[-43.1936,-20.4272],[-43.1553,-20.46],[-43.1248,-20.4487],[-43.1229,-20.4301],[-43.1684,-20.4001],[-43.16698,-20.38825],[-43.21064,-20.42568],[-43.21927,-20.45427]]]]}},{"type":"Feature","properties":{"territory_id":"mg-3140001-cuiaba","name":"Cuiaba","municipality_id":"mg-3140001","polling_places":1,"approx":true,"official":false,"method":"voronoi-polling-places","whole_municipality":false,"approx_coords_only":false},"geometry":{"type":"MultiPolygon","coordinates":[[[[-43.20767,-20.30882],[-43.20521,-20.32673],[-43.18094,-20.34699],[-43.15558,-20.31567],[-43.17409,-20.29524],[-43.20767,-20.30882]]]]}},{"type":"Feature","properties":{"territory_id":"mg-3140001-furquim","name":"Furquim","municipality_id":"mg-3140001","polling_places":1,"approx":true,"official":false,"method":"voronoi-polling-places","whole_municipality":false,"approx_coords_only":false},"geometry":{"type":"MultiPolygon","coordinates":[[[[-43.24722,-20.3642],[-43.21064,-20.42568],[-43.16698,-20.38825],[-43.16621,-20.38188],[-43.18094,-20.34699],[-43.20521,-20.32673],[-43.24722,-20.3642]]]]}},{"type":"Feature","properties":{"territory_id":"mg-3140001-goiabeiras","name":"Goiabeiras","municipality_id":"mg-3140001","polling_places":1,"approx":true,"official":false,"method":"voronoi-polling-places","whole_municipality":false,"approx_coords_only":false},"geometry":{"type":"MultiPolygon","coordinates":[[[[-43.18094,-20.34699],[-43.16621,-20.38188],[-43.1639,-20.3626],[-43.1329,-20.3407],[-43.15558,-20.31567],[-43.18094,-20.34699]]]]}},{"type":"Feature","properties":{"territory_id":"mg-3140001-mainart","name":"Mainart","municipality_id":"mg-3140001","polling_places":1,"approx":true,"official":false,"method":"voronoi-polling-places","whole_municipality":false,"approx_coords_only":false},"geometry":{"type":"MultiPolygon","coordinates":[[[[-43.40899,-20.46762],[-43.33203,-20.52499],[-43.291,-20.4966],[-43.28808,-20.49067],[-43.34544,-20.43855],[-43.38532,-20.44538],[-43.40899,-20.46762]]]]}},{"type":"Feature","properties":{"territory_id":"mg-3140001-monsenhor-horta","name":"Monsenhor Horta","municipality_id":"mg-3140001","polling_places":1,"approx":true,"official":false,"method":"voronoi-polling-places","whole_municipality":false,"approx_coords_only":false},"geometry":{"type":"MultiPolygon","coordinates":[[[[-43.33147,-20.36251],[-43.31203,-20.38446],[-43.25981,-20.35795],[-43.27094,-20.32199],[-43.33147,-20.36251]]]]}},{"type":"Feature","properties":{"territory_id":"mg-3140001-morro-santana","name":"Morro Santana","municipality_id":"mg-3140001","polling_places":1,"approx":true,"official":false,"method":"voronoi-polling-places","whole_municipality":false,"approx_coords_only":false},"geometry":{"type":"MultiPolygon","coordinates":[[[[-43.47241,-20.36796],[-43.45657,-20.37005],[-43.42866,-20.35439],[-43.42326,-20.34394],[-43.42391,-20.31916],[-43.46372,-20.32738],[-43.4723,-20.3458],[-43.47241,-20.36796]]]]}},{"type":"Feature","properties":{"territory_id":"mg-3140001-novo-paracatu-de-baixo","name":"Novo Paracatu de Baixo","municipality_id":"mg-3140001","polling_places":1,"approx":true,"official":false,"method":"voronoi-polling-places","whole_municipality":false,"approx_coords_only":false},"geometry":{"type":"MultiPolygon","coordinates":[[[[-43.27362,-20.3055],[-43.27094,-20.32199],[-43.25981,-20.35795],[-43.24722,-20.3642],[-43.20521,-20.32673],[-43.20767,-20.30882],[-43.22652,-20.29018],[-43.25404,-20.28454],[-43.27362,-20.3055]]]]}},{"type":"Feature","properties":{"territory_id":"mg-3140001-padre-viegas","name":"Padre Viegas","municipality_id":"mg-3140001","polling_places":1,"approx":true,"official":false,"method":"voronoi-polling-places","whole_municipality":false,"approx_coords_only":false},"geometry":{"type":"MultiPolygon","coordinates":[[[[-43.38587,-20.41178],[-43.38532,-20.44538],[-43.34544,-20.43855],[-43.31211,-20.4015],[-43.31203,-20.38446],[-43.33147,-20.36251],[-43.35496,-20.34176],[-43.36411,-20.35245],[-43.381,-20.37656],[-43.38584,-20.40752],[-43.38587,-20.41178]]]]}},{"type":"Feature","properties":{"territory_id":"mg-3140001-paracatu","name":"Paracatu","municipality_id":"mg-3140001","polling_places":1,"approx":true,"official":false,"method":"voronoi-polling-places","whole_municipality":false,"approx_coords_only":true},"geometry":{"type":"MultiPolygon","coordinates":[[[[-43.35862,-20.30694],[-43.35496,-20.34176],[-43.33147,-20.36251],[-43.27094,-20.32199],[-43.27362,-20.3055],[-43.35305,-20.29961],[-43.35862,-20.30694]]]]}},{"type":"Feature","properties":{"territory_id":"mg-3140001-passagem-de-mariana","name":"Passagem de Mariana","municipality_id":"mg-3140001","polling_places":1,"approx":true,"official":false,"method":"voronoi-polling-places","whole_municipality":false,"approx_coords_only":false},"geometry":{"type":"MultiPolygon","coordinates":[[[[-43.4959,-20.4442],[-43.44215,-20.47985],[-43.43483,-20.4761],[-43.43168,-20.39084],[-43.43222,-20.38713],[-43.44109,-20.37814],[-43.45657,-20.37005],[-43.47241,-20.36796],[-43.4726,-20.4044],[-43.4959,-20.4442]]]]}},{"type":"Feature","properties":{"territory_id":"mg-3140001-pedras","name":"Pedras","municipality_id":"mg-3140001","polling_places":1,"approx":true,"official":false,"method":"voronoi-polling-places","whole_municipality":false,"approx_coords_only":false},"geometry":{"type":"MultiPolygon","coordinates":[[[[-43.22652,-20.29018],[-43.20767,-20.30882],[-43.17409,-20.29524],[-43.1812,-20.2874],[-43.17489,-20.27776],[-43.19751,-20.25618],[-43.22652,-20.29018]]]]}},{"type":"Feature","properties":{"territory_id":"mg-3140001-ponte-do-gama","name":"Ponte do Gama","municipality_id":"mg-3140001","polling_places":1,"approx":true,"official":false,"method":"voronoi-polling-places","whole_municipality":false,"approx_coords_only":false},"geometry":{"type":"MultiPolygon","coordinates":[[[[-43.35305,-20.29961],[-43.27362,-20.3055],[-43.25404,-20.28454],[-43.27305,-20.20186],[-43.292,-20.2142],[-43.33766,-20.20164],[-43.3449,-20.21135],[-43.35305,-20.29961]]]]}},{"type":"Feature","properties":{"territory_id":"mg-3140001-rosario","name":"Rosario","municipality_id":"mg-3140001","polling_places":1,"approx":true,"official":false,"method":"voronoi-polling-places","whole_municipality":false,"approx_coords_only":false},"geometry":{"type":"MultiPolygon","coordinates":[[[[-43.45657,-20.37005],[-43.44109,-20.37814],[-43.42304,-20.36831],[-43.4224,-20.36714],[-43.42187,-20.36569],[-43.42866,-20.35439],[-43.45657,-20.37005]]]]}},{"type":"Feature","properties":{"territory_id":"mg-3140001-santa-rita-de-cassia","name":"Santa Rita de Cassia","municipality_id":"mg-3140001","polling_places":1,"approx":true,"official":false,"method":"voronoi-polling-places","whole_municipality":false,"approx_coords_only":false},"geometry":{"type":"MultiPolygon","coordinates":[[[[-43.43483,-20.4761],[-43.40899,-20.46762],[-43.38532,-20.44538],[-43.38587,-20.41178],[-43.42448,-20.3924],[-43.43168,-20.39084],[-43.43483,-20.4761]]]]}},{"type":"Feature","properties":{"territory_id":"mg-3140001-santa-rita-durao","name":"Santa Rita Durão","municipality_id":"mg-3140001","polling_places":1,"approx":true,"official":false,"method":"voronoi-polling-places","whole_municipality":false,"approx_coords_only":false},"geometry":{"type":"MultiPolygon","coordinates":[[[[-43.5337,-20.1609],[-43.4973,-20.173],[-43.4999,-20.2154],[-43.4689,-20.2277],[-43.46859,-20.22913],[-43.46513,-20.23016],[-43.3449,-20.21135],[-43.33766,-20.20164],[-43.3556,-20.1967],[-43.3451,-20.1397],[-43.404,-20.143],[-43.4224,-20.1216],[-43.4583,-20.1436],[-43.5109,-20.1286],[-43.5337,-20.1609]]]]}},{"type":"Feature","properties":{"territory_id":"mg-3140001-santo-antonio","name":"Santo Antonio","municipality_id":"mg-3140001","polling_places":1,"approx":true,"official":false,"method":"voronoi-polling-places","whole_municipality":false,"approx_coords_only":false},"geometry":{"type":"MultiPolygon","coordinates":[[[[-43.44109,-20.37814],[-43.43222,-20.38713],[-43.42745,-20.3854],[-43.4248,-20.3829],[-43.42073,-20.37417],[-43.4228,-20.36886],[-43.42304,-20.36831],[-43.44109,-20.37814]]]]}},{"type":"Feature","properties":{"territory_id":"mg-3140001-sao-cristovao","name":"Sao Cristovao","municipality_id":"mg-3140001","polling_places":1,"approx":true,"official":false,"method":"voronoi-polling-places","whole_municipality":false,"approx_coords_only":false},"geometry":{"type":"MultiPolygon","coordinates":[[[[-43.42866,-20.35439],[-43.42187,-20.36569],[-43.42054,-20.36542],[-43.41285,-20.35928],[-43.41452,-20.35239],[-43.42326,-20.34394],[-43.42866,-20.35439]]]]}},{"type":"Feature","properties":{"territory_id":"mg-3140001-sao-jose-chacara","name":"Sao Jose Chacara","municipality_id":"mg-3140001","polling_places":1,"approx":true,"official":false,"method":"voronoi-polling-places","whole_municipality":false,"approx_coords_only":false},"geometry":{"type":"MultiPolygon","coordinates":[[[[-43.41729,-20.387],[-43.40973,-20.39356],[-43.38584,-20.40752],[-43.381,-20.37656],[-43.38799,-20.37527],[-43.41485,-20.38399],[-43.41729,-20.387]]]]}},{"type":"Feature","properties":{"territory_id":"mg-3140001-sao-sebastiao-colina","name":"Sao Sebastiao Colina","municipality_id":"mg-3140001","polling_places":2,"approx":true,"official":false,"method":"voronoi-polling-places","whole_municipality":false,"approx_coords_only":false},"geometry":{"type":"MultiPolygon","coordinates":[[[[-43.42391,-20.31916],[-43.42326,-20.34394],[-43.41452,-20.35239],[-43.36411,-20.35245],[-43.35496,-20.34176],[-43.35862,-20.30694],[-43.40565,-20.30424],[-43.42391,-20.31916]]],[[[-43.42054,-20.36542],[-43.40451,-20.37183],[-43.39419,-20.37357],[-43.41285,-20.35928],[-43.42054,-20.36542]]]]}},{"type":"Feature","properties":{"territory_id":"mg-3140001-vargem","name":"Vargem","municipality_id":"mg-3140001","polling_places":1,"approx":true,"official":false,"method":"voronoi-polling-places","whole_municipality":false,"approx_coords_only":false},"geometry":{"type":"MultiPolygon","coordinates":[[[[-43.44215,-20.47985],[-43.4276,-20.4895],[-43.4302,-20.5196],[-43.4033,-20.547],[-43.3673,-20.5494],[-43.33203,-20.52499],[-43.40899,-20.46762],[-43.43483,-20.4761],[-43.44215,-20.47985]]]]}}]}