{"type":"FeatureCollection","features":[{"type":"Feature","properties":{"territory_id":"mg-3140902-centro","name":"Centro","municipality_id":"mg-3140902","polling_places":3,"approx":true,"official":false,"method":"voronoi-polling-places","whole_municipality":false,"approx_coords_only":false},"geometry":{"type":"MultiPolygon","coordinates":[[[[-42.36906,-20.25537],[-42.34882,-20.27955],[-42.34474,-20.28601],[-42.32411,-20.3433],[-42.27771,-20.36179],[-42.277,-20.3426],[-42.2063,-20.3241],[-42.1968,-20.2937],[-42.213,-20.2833],[-42.2505,-20.2739],[-42.2526,-20.2472],[-42.315,-20.202],[-42.3212,-20.2332],[-42.3665,-20.2515],[-42.36906,-20.25537]]]]}},{"type":"Feature","properties":{"territory_id":"mg-3140902-palhada","name":"Palhada","municipality_id":"mg-3140902","polling_places":1,"approx":true,"official":false,"method":"voronoi-polling-places","whole_municipality":false,"approx_coords_only":false},"geometry":{"type":"MultiPolygon","coordinates":[[[[-42.40935,-20.31634],[-42.32411,-20.3433],[-42.34474,-20.28601],[-42.34882,-20.27955],[-42.36906,-20.25537],[-42.40935,-20.31634]]]]}},{"type":"Feature","properties":{"territory_id":"mg-3140902-zona-rural","name":"Zona Rural","municipality_id":"mg-3140902","polling_places":1,"approx":true,"official":false,"method":"voronoi-polling-places","whole_municipality":false,"approx_coords_only":false},"geometry":{"type":"MultiPolygon","coordinates":[[[[-42.4152,-20.35],[-42.3641,-20.4046],[-42.3451,-20.3947],[-42.3217,-20.37],[-42.2779,-20.3668],[-42.27771,-20.36179],[-42.32411,-20.3433],[-42.40935,-20.31634],[-42.4111,-20.319],[-42.4152,-20.35]]]]}}]}