{"type":"FeatureCollection","features":[{"type":"Feature","properties":{"territory_id":"mg-3140555-centro","name":"Centro","municipality_id":"mg-3140555","polling_places":1,"approx":true,"official":false,"method":"voronoi-polling-places","whole_municipality":false,"approx_coords_only":false},"geometry":{"type":"MultiPolygon","coordinates":[[[[-40.8168,-15.6476],[-40.80573,-15.70596],[-40.73156,-15.6852],[-40.70668,-15.66965],[-40.7438,-15.684],[-40.7803,-15.6802],[-40.8168,-15.6476]]]]}},{"type":"Feature","properties":{"territory_id":"mg-3140555-novo-horizonte","name":"Novo Horizonte","municipality_id":"mg-3140555","polling_places":1,"approx":true,"official":false,"method":"voronoi-polling-places","whole_municipality":false,"approx_coords_only":false},"geometry":{"type":"MultiPolygon","coordinates":[[[[-40.80573,-15.70596],[-40.8044,-15.713],[-40.77366,-15.73455],[-40.73156,-15.6852],[-40.80573,-15.70596]]]]}},{"type":"Feature","properties":{"territory_id":"mg-3140555-planalto","name":"Planalto","municipality_id":"mg-3140555","polling_places":1,"approx":true,"official":false,"method":"voronoi-polling-places","whole_municipality":false,"approx_coords_only":false},"geometry":{"type":"MultiPolygon","coordinates":[[[[-40.77366,-15.73455],[-40.7626,-15.7423],[-40.7239,-15.8058],[-40.7199,-15.8286],[-40.6365,-15.8672],[-40.6449,-15.7289],[-40.6814,-15.6997],[-40.7006,-15.6673],[-40.70668,-15.66965],[-40.73156,-15.6852],[-40.77366,-15.73455]]]]}}]}