{"type":"FeatureCollection","features":[{"type":"Feature","properties":{"territory_id":"mg-3140308-cava-grande","name":"Cava Grande","municipality_id":"mg-3140308","polling_places":1,"approx":true,"official":false,"method":"voronoi-polling-places","whole_municipality":false,"approx_coords_only":false},"geometry":{"type":"MultiPolygon","coordinates":[[[[-42.67411,-19.67761],[-42.66457,-19.69077],[-42.48237,-19.73382],[-42.4837,-19.7267],[-42.5015,-19.6805],[-42.4843,-19.6404],[-42.4953,-19.5747],[-42.5236,-19.5567],[-42.5655,-19.5862],[-42.5731,-19.6134],[-42.6378,-19.5918],[-42.6525,-19.6036],[-42.625,-19.6417],[-42.6616,-19.6761],[-42.67411,-19.67761]]]]}},{"type":"Feature","properties":{"territory_id":"mg-3140308-centro","name":"Centro","municipality_id":"mg-3140308","polling_places":2,"approx":true,"official":false,"method":"voronoi-polling-places","whole_municipality":false,"approx_coords_only":false},"geometry":{"type":"MultiPolygon","coordinates":[[[[-42.8121,-19.7529],[-42.8061,-19.7849],[-42.7774,-19.7948],[-42.7388,-19.7927],[-42.7214,-19.7583],[-42.70831,-19.76512],[-42.66457,-19.69077],[-42.67411,-19.67761],[-42.723,-19.6835],[-42.7914,-19.7011],[-42.7973,-19.7129],[-42.8121,-19.7529]]]]}},{"type":"Feature","properties":{"territory_id":"mg-3140308-zona-rural","name":"Zona Rural","municipality_id":"mg-3140308","polling_places":1,"approx":true,"official":false,"method":"voronoi-polling-places","whole_municipality":false,"approx_coords_only":false},"geometry":{"type":"MultiPolygon","coordinates":[[[[-42.70831,-19.76512],[-42.6627,-19.7889],[-42.5298,-19.8088],[-42.4881,-19.7828],[-42.479,-19.7519],[-42.48237,-19.73382],[-42.66457,-19.69077],[-42.70831,-19.76512]]]]}}]}