{"type":"FeatureCollection","features":[{"type":"Feature","properties":{"territory_id":"mg-3140530-centro","name":"Centro","municipality_id":"mg-3140530","polling_places":2,"approx":true,"official":false,"method":"voronoi-polling-places","whole_municipality":false,"approx_coords_only":false},"geometry":{"type":"MultiPolygon","coordinates":[[[[-41.8975,-20.2271],[-41.8955,-20.24309],[-41.88583,-20.25226],[-41.85976,-20.29688],[-41.84079,-20.27134],[-41.85003,-20.26065],[-41.86801,-20.23468],[-41.88497,-20.21216],[-41.8975,-20.2271]]]]}},{"type":"Feature","properties":{"territory_id":"mg-3140530-distrito-de-pinheiros-de-minas","name":"Distrito de Pinheiros de Minas","municipality_id":"mg-3140530","polling_places":2,"approx":true,"official":false,"method":"voronoi-polling-places","whole_municipality":false,"approx_coords_only":false},"geometry":{"type":"MultiPolygon","coordinates":[[[[-41.88497,-20.21216],[-41.86801,-20.23468],[-41.85003,-20.26065],[-41.84079,-20.27134],[-41.79413,-20.24912],[-41.8203,-20.2341],[-41.8155,-20.2094],[-41.8731,-20.198],[-41.88497,-20.21216]]]]}},{"type":"Feature","properties":{"territory_id":"mg-3140530-vila-sao-vicente","name":"Vila São Vicente","municipality_id":"mg-3140530","polling_places":1,"approx":true,"official":false,"method":"voronoi-polling-places","whole_municipality":false,"approx_coords_only":false},"geometry":{"type":"MultiPolygon","coordinates":[[[[-41.8955,-20.24309],[-41.8877,-20.3053],[-41.86075,-20.29862],[-41.85976,-20.29688],[-41.88583,-20.25226],[-41.8955,-20.24309]]]]}},{"type":"Feature","properties":{"territory_id":"mg-3140530-zona-rural","name":"Zona Rural","municipality_id":"mg-3140530","polling_places":1,"approx":true,"official":false,"method":"voronoi-polling-places","whole_municipality":false,"approx_coords_only":false},"geometry":{"type":"MultiPolygon","coordinates":[[[[-41.86075,-20.29862],[-41.851,-20.2962],[-41.8221,-20.3109],[-41.7821,-20.2945],[-41.775,-20.2601],[-41.79413,-20.24912],[-41.84079,-20.27134],[-41.85976,-20.29688],[-41.86075,-20.29862]]]]}}]}