{"type":"FeatureCollection","features":[{"type":"Feature","properties":{"territory_id":"mg-3140159-bom-jardim","name":"Bom Jardim","municipality_id":"mg-3140159","polling_places":1,"approx":true,"official":false,"method":"voronoi-polling-places","whole_municipality":false,"approx_coords_only":false},"geometry":{"type":"MultiPolygon","coordinates":[[[[-44.17122,-20.06614],[-44.14194,-20.07176],[-44.1516,-20.0569],[-44.16875,-20.05052],[-44.17122,-20.06614]]]]}},{"type":"Feature","properties":{"territory_id":"mg-3140159-centro","name":"Centro","municipality_id":"mg-3140159","polling_places":1,"approx":true,"official":false,"method":"voronoi-polling-places","whole_municipality":false,"approx_coords_only":false},"geometry":{"type":"MultiPolygon","coordinates":[[[[-44.19839,-20.05861],[-44.19364,-20.07275],[-44.18327,-20.07782],[-44.1821,-20.07585],[-44.18707,-20.05784],[-44.19345,-20.0502],[-44.1963,-20.0512],[-44.19839,-20.05861]]]]}},{"type":"Feature","properties":{"territory_id":"mg-3140159-estancia-verde-tangara","name":"Estancia Verde ( Tangara )","municipality_id":"mg-3140159","polling_places":1,"approx":true,"official":false,"method":"voronoi-polling-places","whole_municipality":false,"approx_coords_only":false},"geometry":{"type":"MultiPolygon","coordinates":[[[[-44.18327,-20.07782],[-44.18103,-20.10002],[-44.1243,-20.0989],[-44.14194,-20.07176],[-44.17122,-20.06614],[-44.1821,-20.07585],[-44.18327,-20.07782]]]]}},{"type":"Feature","properties":{"territory_id":"mg-3140159-fecho-do-funil","name":"Fecho do Funil","municipality_id":"mg-3140159","polling_places":1,"approx":true,"official":false,"method":"voronoi-polling-places","whole_municipality":false,"approx_coords_only":false},"geometry":{"type":"MultiPolygon","coordinates":[[[[-44.2102,-20.1006],[-44.18103,-20.10002],[-44.18327,-20.07782],[-44.19364,-20.07275],[-44.20213,-20.07193],[-44.2102,-20.1006]]]]}},{"type":"Feature","properties":{"territory_id":"mg-3140159-jardim-primavera","name":"Jardim Primavera","municipality_id":"mg-3140159","polling_places":1,"approx":true,"official":false,"method":"voronoi-polling-places","whole_municipality":false,"approx_coords_only":false},"geometry":{"type":"MultiPolygon","coordinates":[[[[-44.18707,-20.05784],[-44.1821,-20.07585],[-44.17122,-20.06614],[-44.16875,-20.05052],[-44.17725,-20.04737],[-44.18707,-20.05784]]]]}},{"type":"Feature","properties":{"territory_id":"mg-3140159-reta-do-jacare","name":"Reta do Jacare","municipality_id":"mg-3140159","polling_places":1,"approx":true,"official":false,"method":"voronoi-polling-places","whole_municipality":false,"approx_coords_only":false},"geometry":{"type":"MultiPolygon","coordinates":[[[[-44.20213,-20.07193],[-44.19364,-20.07275],[-44.19839,-20.05861],[-44.20213,-20.07193]]]]}},{"type":"Feature","properties":{"territory_id":"mg-3140159-sao-tarcisio","name":"Sao Tarcisio","municipality_id":"mg-3140159","polling_places":1,"approx":true,"official":false,"method":"voronoi-polling-places","whole_municipality":false,"approx_coords_only":false},"geometry":{"type":"MultiPolygon","coordinates":[[[[-44.19345,-20.0502],[-44.18707,-20.05784],[-44.17725,-20.04737],[-44.1812,-20.0459],[-44.19345,-20.0502]]]]}}]}