{"type":"FeatureCollection","features":[{"type":"Feature","properties":{"territory_id":"mg-3140852-area-rural","name":"Area Rural","municipality_id":"mg-3140852","polling_places":3,"approx":true,"official":false,"method":"voronoi-polling-places","whole_municipality":false,"approx_coords_only":false},"geometry":{"type":"MultiPolygon","coordinates":[[[[-43.92507,-14.85312],[-43.92112,-14.85716],[-43.91704,-14.85813],[-43.92338,-14.84953],[-43.92507,-14.85312]]],[[[-43.59403,-15.05379],[-43.5901,-15.0547],[-43.5844,-15.0127],[-43.5368,-15.0231],[-43.5593,-14.9698],[-43.5252,-14.9773],[-43.5383,-14.9568],[-43.4975,-14.9338],[-43.4952,-14.8825],[-43.531,-14.8154],[-43.5416,-14.7791],[-43.5863,-14.7501],[-43.59229,-14.75215],[-43.59403,-15.05379]]]]}},{"type":"Feature","properties":{"territory_id":"mg-3140852-centro","name":"Centro","municipality_id":"mg-3140852","polling_places":3,"approx":true,"official":false,"method":"voronoi-polling-places","whole_municipality":false,"approx_coords_only":false},"geometry":{"type":"MultiPolygon","coordinates":[[[[-44.0181,-15.0142],[-44.0157,-15.059],[-43.7912,-15.1121],[-43.6598,-15.1133],[-43.6135,-15.0942],[-43.6259,-15.0464],[-43.59403,-15.05379],[-43.59229,-14.75215],[-43.615,-14.7599],[-43.7122,-14.7153],[-43.74216,-14.70569],[-43.81528,-14.95363],[-43.91704,-14.85813],[-43.92112,-14.85716],[-43.92507,-14.85312],[-43.9545,-14.9157],[-43.9974,-14.9767],[-44.0181,-15.0142]]]]}},{"type":"Feature","properties":{"territory_id":"mg-3140852-gameleira","name":"Gameleira","municipality_id":"mg-3140852","polling_places":1,"approx":true,"official":false,"method":"voronoi-polling-places","whole_municipality":false,"approx_coords_only":false},"geometry":{"type":"MultiPolygon","coordinates":[[[[-43.934,-14.772],[-43.9205,-14.8434],[-43.92338,-14.84953],[-43.91704,-14.85813],[-43.81528,-14.95363],[-43.74216,-14.70569],[-43.8469,-14.6721],[-43.8746,-14.6368],[-43.8812,-14.5624],[-43.9182,-14.661],[-43.9177,-14.7182],[-43.934,-14.772]]]]}}]}