{"type":"FeatureCollection","features":[{"type":"Feature","properties":{"territory_id":"mg-3140803-cedofeita","name":"Cedofeita","municipality_id":"mg-3140803","polling_places":1,"approx":true,"official":false,"method":"voronoi-polling-places","whole_municipality":false,"approx_coords_only":false},"geometry":{"type":"MultiPolygon","coordinates":[[[[-43.38262,-21.83322],[-43.33213,-21.85245],[-43.3289,-21.85285],[-43.30885,-21.85312],[-43.29847,-21.85171],[-43.24621,-21.84137],[-43.2521,-21.8283],[-43.3079,-21.8256],[-43.3348,-21.8095],[-43.3825,-21.8329],[-43.38262,-21.83322]]]]}},{"type":"Feature","properties":{"territory_id":"mg-3140803-centro","name":"Centro","municipality_id":"mg-3140803","polling_places":4,"approx":true,"official":false,"method":"voronoi-polling-places","whole_municipality":false,"approx_coords_only":false},"geometry":{"type":"MultiPolygon","coordinates":[[[[-43.3289,-21.85285],[-43.3168,-21.86973],[-43.31583,-21.86979],[-43.3139,-21.87155],[-43.31372,-21.87161],[-43.31077,-21.87399],[-43.30519,-21.87471],[-43.23138,-21.87189],[-43.237,-21.8618],[-43.24621,-21.84137],[-43.29847,-21.85171],[-43.30885,-21.85312],[-43.3289,-21.85285]]],[[[-43.3248,-21.87564],[-43.3189,-21.8737],[-43.31861,-21.87083],[-43.3245,-21.87039],[-43.3248,-21.87564]]]]}},{"type":"Feature","properties":{"territory_id":"mg-3140803-maria-celia","name":"Maria Célia","municipality_id":"mg-3140803","polling_places":1,"approx":true,"official":false,"method":"voronoi-polling-places","whole_municipality":false,"approx_coords_only":false},"geometry":{"type":"MultiPolygon","coordinates":[[[[-43.32729,-21.88355],[-43.31715,-21.8789],[-43.31728,-21.87545],[-43.3189,-21.8737],[-43.3248,-21.87564],[-43.32729,-21.88355]]]]}},{"type":"Feature","properties":{"territory_id":"mg-3140803-monte-alegre","name":"Monte Alegre","municipality_id":"mg-3140803","polling_places":3,"approx":true,"official":false,"method":"voronoi-polling-places","whole_municipality":false,"approx_coords_only":false},"geometry":{"type":"MultiPolygon","coordinates":[[[[-43.3189,-21.8737],[-43.31728,-21.87545],[-43.31715,-21.8789],[-43.31561,-21.87909],[-43.31333,-21.88113],[-43.30519,-21.87471],[-43.31077,-21.87399],[-43.31372,-21.87161],[-43.3139,-21.87155],[-43.31583,-21.86979],[-43.3168,-21.86973],[-43.31861,-21.87083],[-43.3189,-21.8737]]]]}},{"type":"Feature","properties":{"territory_id":"mg-3140803-nossa-senhora-da-penha","name":"Nossa Senhora da Penha","municipality_id":"mg-3140803","polling_places":1,"approx":true,"official":false,"method":"voronoi-polling-places","whole_municipality":false,"approx_coords_only":false},"geometry":{"type":"MultiPolygon","coordinates":[[[[-43.3925,-21.8599],[-43.38665,-21.87169],[-43.33162,-21.88874],[-43.32729,-21.88355],[-43.3248,-21.87564],[-43.3245,-21.87039],[-43.33213,-21.85245],[-43.38262,-21.83322],[-43.3925,-21.8599]]]]}},{"type":"Feature","properties":{"territory_id":"mg-3140803-nova-cidade","name":"Nova Cidade","municipality_id":"mg-3140803","polling_places":1,"approx":true,"official":false,"method":"voronoi-polling-places","whole_municipality":false,"approx_coords_only":false},"geometry":{"type":"MultiPolygon","coordinates":[[[[-43.31333,-21.88113],[-43.29706,-21.91374],[-43.2682,-21.9012],[-43.2543,-21.9302],[-43.2218,-21.8891],[-43.23138,-21.87189],[-43.30519,-21.87471],[-43.31333,-21.88113]]]]}},{"type":"Feature","properties":{"territory_id":"mg-3140803-parque-dos-sabias","name":"Parque dos Sabiás","municipality_id":"mg-3140803","polling_places":1,"approx":true,"official":false,"method":"voronoi-polling-places","whole_municipality":false,"approx_coords_only":false},"geometry":{"type":"MultiPolygon","coordinates":[[[[-43.33213,-21.85245],[-43.3245,-21.87039],[-43.31861,-21.87083],[-43.3168,-21.86973],[-43.3289,-21.85285],[-43.33213,-21.85245]]]]}},{"type":"Feature","properties":{"territory_id":"mg-3140803-vila-esperanca","name":"Vila Esperança","municipality_id":"mg-3140803","polling_places":1,"approx":true,"official":false,"method":"voronoi-polling-places","whole_municipality":false,"approx_coords_only":false},"geometry":{"type":"MultiPolygon","coordinates":[[[[-43.38665,-21.87169],[-43.3746,-21.896],[-43.3458,-21.9161],[-43.308,-21.9185],[-43.30542,-21.91738],[-43.33162,-21.88874],[-43.38665,-21.87169]]]]}},{"type":"Feature","properties":{"territory_id":"mg-3140803-vila-sao-damiao","name":"Vila São Damião","municipality_id":"mg-3140803","polling_places":1,"approx":true,"official":false,"method":"voronoi-polling-places","whole_municipality":false,"approx_coords_only":false},"geometry":{"type":"MultiPolygon","coordinates":[[[[-43.33162,-21.88874],[-43.30542,-21.91738],[-43.29706,-21.91374],[-43.31333,-21.88113],[-43.31561,-21.87909],[-43.31715,-21.8789],[-43.32729,-21.88355],[-43.33162,-21.88874]]]]}}]}