{"type":"FeatureCollection","features":[{"type":"Feature","properties":{"territory_id":"mg-3140100-centro","name":"Centro","municipality_id":"mg-3140100","polling_places":1,"approx":true,"official":false,"method":"voronoi-polling-places","whole_municipality":false,"approx_coords_only":false},"geometry":{"type":"MultiPolygon","coordinates":[[[[-42.07885,-18.55739],[-42.0491,-18.5836],[-42.008,-18.5525],[-41.972,-18.5343],[-42.0222,-18.5187],[-42.044,-18.4702],[-42.0276,-18.4546],[-42.0531,-18.4183],[-42.07885,-18.42352],[-42.07885,-18.55739]]]]}},{"type":"Feature","properties":{"territory_id":"mg-3140100-zona-rural","name":"Zona Rural","municipality_id":"mg-3140100","polling_places":1,"approx":true,"official":false,"method":"voronoi-polling-places","whole_municipality":false,"approx_coords_only":false},"geometry":{"type":"MultiPolygon","coordinates":[[[[-42.1399,-18.4676],[-42.1131,-18.4924],[-42.1367,-18.5241],[-42.0911,-18.5466],[-42.07885,-18.55739],[-42.07885,-18.42352],[-42.1,-18.4278],[-42.1376,-18.4284],[-42.1399,-18.4676]]]]}}]}