{"type":"FeatureCollection","features":[{"type":"Feature","properties":{"territory_id":"mg-3140605-bufao-povoado","name":"Bufao - Povoado","municipality_id":"mg-3140605","polling_places":1,"approx":true,"official":false,"method":"voronoi-polling-places","whole_municipality":false,"approx_coords_only":false},"geometry":{"type":"MultiPolygon","coordinates":[[[[-43.02498,-18.39663],[-42.98556,-18.45029],[-42.956,-18.4364],[-42.9306,-18.4388],[-42.9158,-18.3943],[-42.8829,-18.3885],[-42.8694,-18.3643],[-43.0033,-18.3944],[-43.02498,-18.39663]]]]}},{"type":"Feature","properties":{"territory_id":"mg-3140605-centro","name":"Centro","municipality_id":"mg-3140605","polling_places":2,"approx":true,"official":false,"method":"voronoi-polling-places","whole_municipality":false,"approx_coords_only":false},"geometry":{"type":"MultiPolygon","coordinates":[[[[-43.1689,-18.526],[-43.1532,-18.5544],[-43.1129,-18.5508],[-43.0754,-18.5667],[-43.038,-18.5051],[-43.0145,-18.4912],[-42.9958,-18.4551],[-42.98556,-18.45029],[-43.02498,-18.39663],[-43.0666,-18.4009],[-43.1126,-18.4295],[-43.1016,-18.4684],[-43.1678,-18.4821],[-43.1689,-18.526]]]]}}]}