{"type":"FeatureCollection","features":[{"type":"Feature","properties":{"territory_id":"mg-3140506-centro","name":"Centro","municipality_id":"mg-3140506","polling_places":1,"approx":true,"official":false,"method":"voronoi-polling-places","whole_municipality":false,"approx_coords_only":false},"geometry":{"type":"MultiPolygon","coordinates":[[[[-45.25729,-19.32638],[-45.2399,-19.3354],[-45.17908,-19.3606],[-45.12532,-19.31058],[-45.25729,-19.32638]]]]}},{"type":"Feature","properties":{"territory_id":"mg-3140506-distrito-de-albert-isaacson","name":"Distrito de Albert Isaacson","municipality_id":"mg-3140506","polling_places":1,"approx":true,"official":false,"method":"voronoi-polling-places","whole_municipality":false,"approx_coords_only":false},"geometry":{"type":"MultiPolygon","coordinates":[[[[-45.10114,-19.45309],[-45.05438,-19.56145],[-45.0523,-19.5608],[-45.0284,-19.5326],[-45.0042,-19.5302],[-45.0118,-19.4764],[-44.9935,-19.4422],[-45.0385,-19.4087],[-45.04825,-19.39253],[-45.10114,-19.45309]]]]}},{"type":"Feature","properties":{"territory_id":"mg-3140506-distrito-de-buriti-grande","name":"Distrito de Buriti Grande","municipality_id":"mg-3140506","polling_places":1,"approx":true,"official":false,"method":"voronoi-polling-places","whole_municipality":false,"approx_coords_only":false},"geometry":{"type":"MultiPolygon","coordinates":[[[[-45.4049,-19.4916],[-45.3908,-19.5016],[-45.3722,-19.5245],[-45.3212,-19.5356],[-45.2829,-19.5274],[-45.21408,-19.54475],[-45.21091,-19.52343],[-45.24263,-19.43188],[-45.28087,-19.41039],[-45.33697,-19.37937],[-45.3639,-19.3989],[-45.3768,-19.4425],[-45.4049,-19.4916]]]]}},{"type":"Feature","properties":{"territory_id":"mg-3140506-distrito-de-ibitira","name":"Distrito de Ibitira","municipality_id":"mg-3140506","polling_places":1,"approx":true,"official":false,"method":"voronoi-polling-places","whole_municipality":false,"approx_coords_only":false},"geometry":{"type":"MultiPolygon","coordinates":[[[[-45.24263,-19.43188],[-45.21091,-19.52343],[-45.10114,-19.45309],[-45.04825,-19.39253],[-45.0605,-19.3722],[-45.0623,-19.3115],[-45.10268,-19.29149],[-45.12532,-19.31058],[-45.17908,-19.3606],[-45.24263,-19.43188]]]]}},{"type":"Feature","properties":{"territory_id":"mg-3140506-povoado-de-boa-vista","name":"Povoado de Boa Vista","municipality_id":"mg-3140506","polling_places":1,"approx":true,"official":false,"method":"voronoi-polling-places","whole_municipality":false,"approx_coords_only":false},"geometry":{"type":"MultiPolygon","coordinates":[[[[-45.21408,-19.54475],[-45.1972,-19.549],[-45.116,-19.5344],[-45.1013,-19.576],[-45.05438,-19.56145],[-45.10114,-19.45309],[-45.21091,-19.52343],[-45.21408,-19.54475]]]]}},{"type":"Feature","properties":{"territory_id":"mg-3140506-residencial-alto-sao-francisco","name":"Residencial Alto São Francisco","municipality_id":"mg-3140506","polling_places":1,"approx":true,"official":false,"method":"voronoi-polling-places","whole_municipality":false,"approx_coords_only":false},"geometry":{"type":"MultiPolygon","coordinates":[[[[-45.31813,-19.31443],[-45.25729,-19.32638],[-45.12532,-19.31058],[-45.10268,-19.29149],[-45.1299,-19.278],[-45.1393,-19.2105],[-45.188,-19.2378],[-45.2111,-19.2206],[-45.2357,-19.269],[-45.295,-19.2814],[-45.3123,-19.3136],[-45.31813,-19.31443]]]]}},{"type":"Feature","properties":{"territory_id":"mg-3140506-sao-geraldo","name":"São Geraldo","municipality_id":"mg-3140506","polling_places":2,"approx":true,"official":false,"method":"voronoi-polling-places","whole_municipality":false,"approx_coords_only":false},"geometry":{"type":"MultiPolygon","coordinates":[[[[-45.3387,-19.3445],[-45.3257,-19.3712],[-45.33697,-19.37937],[-45.28087,-19.41039],[-45.24263,-19.43188],[-45.17908,-19.3606],[-45.2399,-19.3354],[-45.25729,-19.32638],[-45.31813,-19.31443],[-45.3347,-19.3168],[-45.3387,-19.3445]]]]}}]}