{"type":"FeatureCollection","features":[{"type":"Feature","properties":{"territory_id":"mg-3140209-centro","name":"Centro","municipality_id":"mg-3140209","polling_places":1,"approx":true,"official":false,"method":"voronoi-polling-places","whole_municipality":true,"approx_coords_only":false},"geometry":{"type":"MultiPolygon","coordinates":[[[[-43.0201,-21.6986],[-43.0131,-21.7154],[-42.963,-21.7088],[-42.9608,-21.7332],[-42.9064,-21.7278],[-42.8993,-21.6928],[-42.9133,-21.664],[-42.9582,-21.6699],[-42.9813,-21.6498],[-43.0291,-21.6757],[-43.0201,-21.6986]]]]}}]}