{"type":"FeatureCollection","features":[{"type":"Feature","properties":{"territory_id":"mg-3141306-centro","name":"Centro","municipality_id":"mg-3141306","polling_places":2,"approx":true,"official":false,"method":"voronoi-polling-places","whole_municipality":false,"approx_coords_only":false},"geometry":{"type":"MultiPolygon","coordinates":[[[[-46.3875,-19.95051],[-46.24949,-20.05507],[-46.17046,-20.11608],[-46.1597,-20.1119],[-46.1128,-20.0624],[-46.1553,-19.9975],[-46.1165,-19.9601],[-46.1421,-19.9569],[-46.2223,-19.8997],[-46.2365,-19.9202],[-46.2757,-19.9131],[-46.3109,-19.8627],[-46.3586,-19.8747],[-46.38411,-19.8718],[-46.3875,-19.95051]]]]}},{"type":"Feature","properties":{"territory_id":"mg-3141306-paiol-queimado","name":"Paiol Queimado","municipality_id":"mg-3141306","polling_places":1,"approx":true,"official":false,"method":"voronoi-polling-places","whole_municipality":false,"approx_coords_only":false},"geometry":{"type":"MultiPolygon","coordinates":[[[[-46.6286,-19.9414],[-46.6261,-19.9939],[-46.5816,-20.0124],[-46.499,-20.0047],[-46.4885,-19.9763],[-46.4506,-19.9749],[-46.40883,-19.99808],[-46.3875,-19.95051],[-46.38411,-19.8718],[-46.4254,-19.8671],[-46.4572,-19.8841],[-46.5158,-19.8588],[-46.5861,-19.8983],[-46.6006,-19.9268],[-46.6286,-19.9414]]]]}},{"type":"Feature","properties":{"territory_id":"mg-3141306-zona-rural","name":"Zona Rural","municipality_id":"mg-3141306","polling_places":1,"approx":true,"official":false,"method":"voronoi-polling-places","whole_municipality":false,"approx_coords_only":false},"geometry":{"type":"MultiPolygon","coordinates":[[[[-46.40883,-19.99808],[-46.405,-20.0002],[-46.3588,-20.0579],[-46.3097,-20.1398],[-46.2756,-20.1421],[-46.2257,-20.1846],[-46.2156,-20.1336],[-46.17046,-20.11608],[-46.24949,-20.05507],[-46.3875,-19.95051],[-46.40883,-19.99808]]]]}}]}