{"type":"FeatureCollection","features":[{"type":"Feature","properties":{"territory_id":"mg-3141108-aracas","name":"Araçás","municipality_id":"mg-3141108","polling_places":1,"approx":true,"official":false,"method":"voronoi-polling-places","whole_municipality":false,"approx_coords_only":false},"geometry":{"type":"MultiPolygon","coordinates":[[[[-44.1091,-19.5209],[-44.10708,-19.54098],[-44.0977,-19.52568],[-44.10737,-19.51764],[-44.1091,-19.5209]]]]}},{"type":"Feature","properties":{"territory_id":"mg-3141108-bom-jesus","name":"Bom Jesus","municipality_id":"mg-3141108","polling_places":1,"approx":true,"official":false,"method":"voronoi-polling-places","whole_municipality":false,"approx_coords_only":false},"geometry":{"type":"MultiPolygon","coordinates":[[[[-44.07012,-19.57255],[-44.06933,-19.58403],[-44.06125,-19.5756],[-44.04918,-19.54767],[-44.05263,-19.54187],[-44.05613,-19.54349],[-44.06497,-19.55833],[-44.07012,-19.57255]]]]}},{"type":"Feature","properties":{"territory_id":"mg-3141108-centro","name":"Centro","municipality_id":"mg-3141108","polling_places":2,"approx":true,"official":false,"method":"voronoi-polling-places","whole_municipality":false,"approx_coords_only":false},"geometry":{"type":"MultiPolygon","coordinates":[[[[-44.08769,-19.56354],[-44.08522,-19.56292],[-44.07907,-19.56306],[-44.06818,-19.54614],[-44.06898,-19.54615],[-44.07592,-19.5489],[-44.08151,-19.55033],[-44.08647,-19.55313],[-44.08769,-19.56354]]]]}},{"type":"Feature","properties":{"territory_id":"mg-3141108-cruzeiro","name":"Cruzeiro","municipality_id":"mg-3141108","polling_places":2,"approx":true,"official":false,"method":"voronoi-polling-places","whole_municipality":false,"approx_coords_only":false},"geometry":{"type":"MultiPolygon","coordinates":[[[[-44.09855,-19.55128],[-44.09643,-19.55133],[-44.08647,-19.55313],[-44.08151,-19.55033],[-44.08812,-19.54636],[-44.09135,-19.53791],[-44.09855,-19.55128]]]]}},{"type":"Feature","properties":{"territory_id":"mg-3141108-distrito-industrial","name":"Distrito Industrial","municipality_id":"mg-3141108","polling_places":1,"approx":true,"official":false,"method":"voronoi-polling-places","whole_municipality":false,"approx_coords_only":false},"geometry":{"type":"MultiPolygon","coordinates":[[[[-44.06125,-19.5756],[-44.0486,-19.5624],[-44.03889,-19.55874],[-44.04918,-19.54767],[-44.06125,-19.5756]]]]}},{"type":"Feature","properties":{"territory_id":"mg-3141108-estacao","name":"Estação","municipality_id":"mg-3141108","polling_places":1,"approx":true,"official":false,"method":"voronoi-polling-places","whole_municipality":false,"approx_coords_only":false},"geometry":{"type":"MultiPolygon","coordinates":[[[[-44.14593,-19.60147],[-44.13794,-19.61047],[-44.08769,-19.56354],[-44.08647,-19.55313],[-44.09643,-19.55133],[-44.09855,-19.55128],[-44.10565,-19.55516],[-44.1055,-19.5567],[-44.1204,-19.5908],[-44.14593,-19.60147]]]]}},{"type":"Feature","properties":{"territory_id":"mg-3141108-floresta","name":"Floresta","municipality_id":"mg-3141108","polling_places":1,"approx":true,"official":false,"method":"voronoi-polling-places","whole_municipality":false,"approx_coords_only":false},"geometry":{"type":"MultiPolygon","coordinates":[[[[-44.11047,-19.61727],[-44.0991,-19.6151],[-44.06933,-19.58403],[-44.07012,-19.57255],[-44.07576,-19.56668],[-44.07728,-19.56643],[-44.11047,-19.61727]]]]}},{"type":"Feature","properties":{"territory_id":"mg-3141108-florestal","name":"Florestal","municipality_id":"mg-3141108","polling_places":1,"approx":true,"official":false,"method":"voronoi-polling-places","whole_municipality":false,"approx_coords_only":false},"geometry":{"type":"MultiPolygon","coordinates":[[[[-44.07907,-19.56306],[-44.07728,-19.56643],[-44.07576,-19.56668],[-44.06497,-19.55833],[-44.05613,-19.54349],[-44.06818,-19.54614],[-44.07907,-19.56306]]]]}},{"type":"Feature","properties":{"territory_id":"mg-3141108-mocambeiro","name":"Mocambeiro","municipality_id":"mg-3141108","polling_places":1,"approx":true,"official":false,"method":"voronoi-polling-places","whole_municipality":false,"approx_coords_only":false},"geometry":{"type":"MultiPolygon","coordinates":[[[[-44.05263,-19.54187],[-44.04918,-19.54767],[-44.03889,-19.55874],[-43.9883,-19.5397],[-43.9842,-19.5147],[-43.9501,-19.4867],[-43.9469,-19.4315],[-43.9896,-19.4043],[-44.0036,-19.4441],[-44.01426,-19.43819],[-44.04515,-19.50224],[-44.05263,-19.54187]]]]}},{"type":"Feature","properties":{"territory_id":"mg-3141108-progresso","name":"Progresso","municipality_id":"mg-3141108","polling_places":1,"approx":true,"official":false,"method":"voronoi-polling-places","whole_municipality":false,"approx_coords_only":false},"geometry":{"type":"MultiPolygon","coordinates":[[[[-44.13794,-19.61047],[-44.13,-19.62131],[-44.1295,-19.6209],[-44.11047,-19.61727],[-44.07728,-19.56643],[-44.07907,-19.56306],[-44.08522,-19.56292],[-44.08769,-19.56354],[-44.13794,-19.61047]]]]}},{"type":"Feature","properties":{"territory_id":"mg-3141108-quinta-das-fazendinhas","name":"Quinta das Fazendinhas","municipality_id":"mg-3141108","polling_places":1,"approx":true,"official":false,"method":"voronoi-polling-places","whole_municipality":false,"approx_coords_only":false},"geometry":{"type":"MultiPolygon","coordinates":[[[[-44.10737,-19.51764],[-44.0977,-19.52568],[-44.09672,-19.52589],[-44.08619,-19.52185],[-44.04515,-19.50224],[-44.01426,-19.43819],[-44.0391,-19.4244],[-44.044,-19.4624],[-44.0823,-19.4703],[-44.10737,-19.51764]]]]}},{"type":"Feature","properties":{"territory_id":"mg-3141108-sao-cristovao","name":"São Cristóvão","municipality_id":"mg-3141108","polling_places":1,"approx":true,"official":false,"method":"voronoi-polling-places","whole_municipality":false,"approx_coords_only":false},"geometry":{"type":"MultiPolygon","coordinates":[[[[-44.09135,-19.53791],[-44.08812,-19.54636],[-44.08151,-19.55033],[-44.07592,-19.5489],[-44.06898,-19.54615],[-44.07995,-19.54102],[-44.09121,-19.5374],[-44.09135,-19.53791]]]]}},{"type":"Feature","properties":{"territory_id":"mg-3141108-sao-miguel","name":"São Miguel","municipality_id":"mg-3141108","polling_places":2,"approx":true,"official":false,"method":"voronoi-polling-places","whole_municipality":false,"approx_coords_only":false},"geometry":{"type":"MultiPolygon","coordinates":[[[[-44.09672,-19.52589],[-44.09121,-19.5374],[-44.07995,-19.54102],[-44.06898,-19.54615],[-44.06818,-19.54614],[-44.05613,-19.54349],[-44.05263,-19.54187],[-44.04515,-19.50224],[-44.08619,-19.52185],[-44.09672,-19.52589]]]]}},{"type":"Feature","properties":{"territory_id":"mg-3141108-sao-pedro","name":"São Pedro","municipality_id":"mg-3141108","polling_places":1,"approx":true,"official":false,"method":"voronoi-polling-places","whole_municipality":false,"approx_coords_only":false},"geometry":{"type":"MultiPolygon","coordinates":[[[[-44.07576,-19.56668],[-44.07012,-19.57255],[-44.06497,-19.55833],[-44.07576,-19.56668]]]]}},{"type":"Feature","properties":{"territory_id":"mg-3141108-vale-das-roseiras","name":"Vale das Roseiras","municipality_id":"mg-3141108","polling_places":1,"approx":true,"official":false,"method":"voronoi-polling-places","whole_municipality":false,"approx_coords_only":false},"geometry":{"type":"MultiPolygon","coordinates":[[[[-44.1981,-19.642],[-44.1949,-19.6627],[-44.1769,-19.6602],[-44.13,-19.62131],[-44.13794,-19.61047],[-44.14593,-19.60147],[-44.1876,-19.6189],[-44.1981,-19.642]]]]}},{"type":"Feature","properties":{"territory_id":"mg-3141108-vista-alegre","name":"Vista Alegre","municipality_id":"mg-3141108","polling_places":1,"approx":true,"official":false,"method":"voronoi-polling-places","whole_municipality":false,"approx_coords_only":false},"geometry":{"type":"MultiPolygon","coordinates":[[[[-44.10708,-19.54098],[-44.10565,-19.55516],[-44.09855,-19.55128],[-44.09135,-19.53791],[-44.09121,-19.5374],[-44.09672,-19.52589],[-44.0977,-19.52568],[-44.10708,-19.54098]]]]}}]}