{"type":"FeatureCollection","features":[{"type":"Feature","properties":{"territory_id":"mg-3141405-bela-vista","name":"Bela Vista","municipality_id":"mg-3141405","polling_places":1,"approx":true,"official":false,"method":"voronoi-polling-places","whole_municipality":false,"approx_coords_only":false},"geometry":{"type":"MultiPolygon","coordinates":[[[[-41.5601,-16.18832],[-41.54666,-16.33169],[-41.52419,-16.34709],[-41.48459,-16.23488],[-41.48258,-16.22406],[-41.48297,-16.2232],[-41.5601,-16.18832]]]]}},{"type":"Feature","properties":{"territory_id":"mg-3141405-centro","name":"Centro","municipality_id":"mg-3141405","polling_places":4,"approx":true,"official":false,"method":"voronoi-polling-places","whole_municipality":false,"approx_coords_only":false},"geometry":{"type":"MultiPolygon","coordinates":[[[[-41.52419,-16.34709],[-41.44006,-16.40855],[-41.4121,-16.4011],[-41.3933,-16.3683],[-41.3027,-16.333],[-41.3064,-16.2873],[-41.281,-16.2727],[-41.3084,-16.242],[-41.2804,-16.1772],[-41.2971,-16.1712],[-41.3289,-16.1313],[-41.3653,-16.1459],[-41.38881,-16.12983],[-41.46992,-16.21368],[-41.47598,-16.22475],[-41.48105,-16.22494],[-41.4788,-16.22764],[-41.47877,-16.22803],[-41.48459,-16.23488],[-41.52419,-16.34709]]]]}},{"type":"Feature","properties":{"territory_id":"mg-3141405-cidade-jardim","name":"Cidade Jardim","municipality_id":"mg-3141405","polling_places":1,"approx":true,"official":false,"method":"voronoi-polling-places","whole_municipality":false,"approx_coords_only":false},"geometry":{"type":"MultiPolygon","coordinates":[[[[-41.57721,-16.07767],[-41.5601,-16.18832],[-41.48297,-16.2232],[-41.46992,-16.21368],[-41.38881,-16.12983],[-41.4364,-16.0973],[-41.4192,-16.0791],[-41.4278,-16.0484],[-41.4574,-16.0474],[-41.4813,-16.0623],[-41.4774,-16.0917],[-41.5417,-16.1085],[-41.5458,-16.0657],[-41.57721,-16.07767]]]]}},{"type":"Feature","properties":{"territory_id":"mg-3141405-general-dutra","name":"General Dutra","municipality_id":"mg-3141405","polling_places":1,"approx":true,"official":false,"method":"voronoi-polling-places","whole_municipality":false,"approx_coords_only":false},"geometry":{"type":"MultiPolygon","coordinates":[[[[-41.6959,-16.1649],[-41.6915,-16.2044],[-41.6515,-16.2111],[-41.6296,-16.2301],[-41.6391,-16.3279],[-41.63784,-16.33349],[-41.54666,-16.33169],[-41.5601,-16.18832],[-41.57721,-16.07767],[-41.5941,-16.0841],[-41.618,-16.08],[-41.6818,-16.1109],[-41.6959,-16.1649]]]]}},{"type":"Feature","properties":{"territory_id":"mg-3141405-sao-geraldo","name":"São Geraldo","municipality_id":"mg-3141405","polling_places":1,"approx":true,"official":false,"method":"voronoi-polling-places","whole_municipality":false,"approx_coords_only":false},"geometry":{"type":"MultiPolygon","coordinates":[[[[-41.48459,-16.23488],[-41.47877,-16.22803],[-41.4788,-16.22764],[-41.48105,-16.22494],[-41.48258,-16.22406],[-41.48459,-16.23488]]]]}},{"type":"Feature","properties":{"territory_id":"mg-3141405-saudade","name":"Saudade","municipality_id":"mg-3141405","polling_places":1,"approx":true,"official":false,"method":"voronoi-polling-places","whole_municipality":false,"approx_coords_only":false},"geometry":{"type":"MultiPolygon","coordinates":[[[[-41.48297,-16.2232],[-41.48258,-16.22406],[-41.48105,-16.22494],[-41.47598,-16.22475],[-41.46992,-16.21368],[-41.48297,-16.2232]]]]}},{"type":"Feature","properties":{"territory_id":"mg-3141405-tuparece","name":"Tuparecê","municipality_id":"mg-3141405","polling_places":1,"approx":true,"official":false,"method":"voronoi-polling-places","whole_municipality":false,"approx_coords_only":false},"geometry":{"type":"MultiPolygon","coordinates":[[[[-41.7229,-16.4256],[-41.7027,-16.4524],[-41.7125,-16.506],[-41.6984,-16.5454],[-41.6517,-16.5729],[-41.6581,-16.5235],[-41.682,-16.4974],[-41.6171,-16.4533],[-41.589,-16.4562],[-41.5594,-16.4269],[-41.4867,-16.4659],[-41.4512,-16.454],[-41.4624,-16.4145],[-41.44006,-16.40855],[-41.52419,-16.34709],[-41.54666,-16.33169],[-41.63784,-16.33349],[-41.6269,-16.3822],[-41.6691,-16.3742],[-41.7229,-16.4256]]]]}}]}