{"type":"FeatureCollection","features":[{"type":"Feature","properties":{"territory_id":"mg-3141009-alto-sao-joao","name":"Alto Sao Joao","municipality_id":"mg-3141009","polling_places":1,"approx":true,"official":false,"method":"voronoi-polling-places","whole_municipality":false,"approx_coords_only":false},"geometry":{"type":"MultiPolygon","coordinates":[[[[-42.90433,-15.38058],[-42.89569,-15.42666],[-42.84506,-15.45545],[-42.86598,-15.3998],[-42.90433,-15.38058]]]]}},{"type":"Feature","properties":{"territory_id":"mg-3141009-centro","name":"Centro","municipality_id":"mg-3141009","polling_places":2,"approx":true,"official":false,"method":"voronoi-polling-places","whole_municipality":false,"approx_coords_only":false},"geometry":{"type":"MultiPolygon","coordinates":[[[[-42.87615,-15.34937],[-42.86363,-15.39689],[-42.86598,-15.3998],[-42.84506,-15.45545],[-42.84294,-15.45691],[-42.83628,-15.38916],[-42.83135,-15.36547],[-42.87615,-15.34937]]]]}},{"type":"Feature","properties":{"territory_id":"mg-3141009-cristino-i","name":"Cristino I","municipality_id":"mg-3141009","polling_places":1,"approx":true,"official":false,"method":"voronoi-polling-places","whole_municipality":false,"approx_coords_only":false},"geometry":{"type":"MultiPolygon","coordinates":[[[[-43.0396,-15.4057],[-43.0198,-15.3997],[-42.9797,-15.433],[-42.9512,-15.434],[-42.94089,-15.45021],[-42.89569,-15.42666],[-42.90433,-15.38058],[-42.90802,-15.3685],[-42.94142,-15.36348],[-42.9385,-15.3685],[-42.9859,-15.3876],[-43.0158,-15.3584],[-43.0396,-15.4057]]]]}},{"type":"Feature","properties":{"territory_id":"mg-3141009-ingazeira","name":"Ingazeira","municipality_id":"mg-3141009","polling_places":1,"approx":true,"official":false,"method":"voronoi-polling-places","whole_municipality":false,"approx_coords_only":false},"geometry":{"type":"MultiPolygon","coordinates":[[[[-42.9626,-15.3271],[-42.94142,-15.36348],[-42.90802,-15.3685],[-42.87723,-15.34893],[-42.87553,-15.3193],[-42.8786,-15.319],[-42.9074,-15.3042],[-42.934,-15.3265],[-42.9626,-15.3271]]]]}},{"type":"Feature","properties":{"territory_id":"mg-3141009-melancias","name":"Melancias","municipality_id":"mg-3141009","polling_places":1,"approx":true,"official":false,"method":"voronoi-polling-places","whole_municipality":false,"approx_coords_only":false},"geometry":{"type":"MultiPolygon","coordinates":[[[[-42.84294,-15.45691],[-42.78666,-15.54491],[-42.7903,-15.5176],[-42.7824,-15.4847],[-42.7441,-15.4639],[-42.7551,-15.3984],[-42.7656,-15.3829],[-42.7654,-15.3681],[-42.78804,-15.35281],[-42.83135,-15.36547],[-42.83628,-15.38916],[-42.84294,-15.45691]]]]}},{"type":"Feature","properties":{"territory_id":"mg-3141009-sao-joao-do-bonito","name":"Sao Joao do Bonito","municipality_id":"mg-3141009","polling_places":1,"approx":true,"official":false,"method":"voronoi-polling-places","whole_municipality":false,"approx_coords_only":false},"geometry":{"type":"MultiPolygon","coordinates":[[[[-42.87723,-15.34893],[-42.87615,-15.34937],[-42.83135,-15.36547],[-42.78804,-15.35281],[-42.8313,-15.3236],[-42.87553,-15.3193],[-42.87723,-15.34893]]]]}},{"type":"Feature","properties":{"territory_id":"mg-3141009-sao-tiago","name":"Sao Tiago","municipality_id":"mg-3141009","polling_places":1,"approx":true,"official":false,"method":"voronoi-polling-places","whole_municipality":false,"approx_coords_only":false},"geometry":{"type":"MultiPolygon","coordinates":[[[[-42.90802,-15.3685],[-42.90433,-15.38058],[-42.86598,-15.3998],[-42.86363,-15.39689],[-42.87615,-15.34937],[-42.87723,-15.34893],[-42.90802,-15.3685]]]]}},{"type":"Feature","properties":{"territory_id":"mg-3141009-zona-rural","name":"Zona Rural","municipality_id":"mg-3141009","polling_places":1,"approx":true,"official":false,"method":"voronoi-polling-places","whole_municipality":false,"approx_coords_only":false},"geometry":{"type":"MultiPolygon","coordinates":[[[[-42.94089,-15.45021],[-42.9122,-15.4953],[-42.882,-15.5225],[-42.8348,-15.5349],[-42.8129,-15.5576],[-42.804,-15.6057],[-42.7823,-15.5777],[-42.78666,-15.54491],[-42.84294,-15.45691],[-42.84506,-15.45545],[-42.89569,-15.42666],[-42.94089,-15.45021]]]]}}]}