{"type":"FeatureCollection","features":[{"type":"Feature","properties":{"territory_id":"mg-3141900-centro","name":"Centro","municipality_id":"mg-3141900","polling_places":1,"approx":true,"official":false,"method":"voronoi-polling-places","whole_municipality":false,"approx_coords_only":true},"geometry":{"type":"MultiPolygon","coordinates":[[[[-44.7031,-21.7148],[-44.6916,-21.7433],[-44.6458,-21.7741],[-44.62232,-21.75714],[-44.60393,-21.60848],[-44.6456,-21.6209],[-44.6762,-21.6403],[-44.6807,-21.6743],[-44.7031,-21.7148]]]]}},{"type":"Feature","properties":{"territory_id":"mg-3141900-vila-vassalo","name":"Vila Vassalo","municipality_id":"mg-3141900","polling_places":1,"approx":true,"official":false,"method":"voronoi-polling-places","whole_municipality":false,"approx_coords_only":false},"geometry":{"type":"MultiPolygon","coordinates":[[[[-44.62232,-21.75714],[-44.6134,-21.7507],[-44.5813,-21.7514],[-44.5703,-21.6545],[-44.5154,-21.618],[-44.4966,-21.5765],[-44.60393,-21.60848],[-44.62232,-21.75714]]]]}}]}