{"type":"FeatureCollection","features":[{"type":"Feature","properties":{"territory_id":"mg-3141207-centro","name":"Centro","municipality_id":"mg-3141207","polling_places":2,"approx":false,"official":true,"method":"official-ibge-cd2022","whole_municipality":false,"approx_coords_only":false,"official_name":"Centro","official_code":"3141207002","match":"direct"},"geometry":{"type":"MultiPolygon","coordinates":[[[[-45.9741,-19.22883],[-45.97412,-19.22865],[-45.97426,-19.22844],[-45.97445,-19.22821],[-45.97513,-19.22714],[-45.97536,-19.22667],[-45.97553,-19.22616],[-45.97555,-19.22597],[-45.97549,-19.2257],[-45.97525,-19.22516],[-45.97526,-19.22515],[-45.97497,-19.22464],[-45.97459,-19.22409],[-45.97473,-19.22385],[-45.97516,-19.22398],[-45.97542,-19.22367],[-45.97643,-19.22225],[-45.97624,-19.22214],[-45.97175,-19.2191],[-45.97175,-19.21984],[-45.97171,-19.22025],[-45.97133,-19.22139],[-45.97209,-19.22163],[-45.97184,-19.22231],[-45.97134,-19.22382],[-45.97222,-19.22409],[-45.97127,-19.22723],[-45.97347,-19.22882],[-45.97409,-19.22888],[-45.9741,-19.22883]]],[[[-45.96927,-19.22237],[-45.96938,-19.22199],[-45.96975,-19.22093],[-45.97048,-19.22114],[-45.97061,-19.22077],[-45.97078,-19.22041],[-45.97055,-19.22041],[-45.97034,-19.22038],[-45.97008,-19.22029],[-45.96968,-19.22021],[-45.96933,-19.22007],[-45.96898,-19.21998],[-45.9688,-19.21993],[-45.96862,-19.21982],[-45.96814,-19.21968],[-45.96764,-19.2195],[-45.96733,-19.21948],[-45.96709,-19.21942],[-45.96696,-19.21936],[-45.96682,-19.21924],[-45.96664,-19.21914],[-45.96646,-19.21897],[-45.96641,-19.21867],[-45.9664,-19.21822],[-45.96623,-19.21824],[-45.96611,-19.21836],[-45.96592,-19.21848],[-45.96556,-19.21858],[-45.96551,-19.21868],[-45.96509,-19.21984],[-45.96469,-19.221],[-45.96693,-19.22171],[-45.96668,-19.22244],[-45.96903,-19.22312],[-45.96927,-19.22237]]]]}},{"type":"Feature","properties":{"territory_id":"mg-3141207-zona-rural","name":"Zona Rural","municipality_id":"mg-3141207","polling_places":1,"approx":true,"official":false,"method":"voronoi-polling-places","whole_municipality":false,"approx_coords_only":false},"geometry":{"type":"MultiPolygon","coordinates":[[[[-46.1099,-19.1969],[-46.0664,-19.2191],[-46.002,-19.2665],[-45.931,-19.2885],[-45.9216,-19.2162],[-45.8339,-19.1797],[-45.8759,-19.1545],[-45.9328,-19.1566],[-45.9837,-19.189],[-46.0018,-19.1794],[-46.0558,-19.079],[-46.0886,-19.1076],[-46.0818,-19.1295],[-46.1099,-19.1969]],[[-45.97643,-19.22225],[-45.97624,-19.22214],[-45.97175,-19.2191],[-45.97175,-19.21984],[-45.97171,-19.22025],[-45.97133,-19.22139],[-45.97209,-19.22163],[-45.97184,-19.22231],[-45.97134,-19.22382],[-45.97222,-19.22409],[-45.97127,-19.22723],[-45.97347,-19.22882],[-45.97409,-19.22888],[-45.9741,-19.22883],[-45.97412,-19.22865],[-45.97426,-19.22844],[-45.97445,-19.22821],[-45.97513,-19.22714],[-45.97536,-19.22667],[-45.97553,-19.22616],[-45.97555,-19.22597],[-45.97549,-19.2257],[-45.97525,-19.22516],[-45.97526,-19.22515],[-45.97497,-19.22464],[-45.97459,-19.22409],[-45.97473,-19.22385],[-45.97516,-19.22398],[-45.97542,-19.22367],[-45.97643,-19.22225]],[[-45.97078,-19.22041],[-45.97055,-19.22041],[-45.97034,-19.22038],[-45.97008,-19.22029],[-45.96968,-19.22021],[-45.96933,-19.22007],[-45.96898,-19.21998],[-45.9688,-19.21993],[-45.96862,-19.21982],[-45.96814,-19.21968],[-45.96764,-19.2195],[-45.96733,-19.21948],[-45.96709,-19.21942],[-45.96696,-19.21936],[-45.96682,-19.21924],[-45.96664,-19.21914],[-45.96646,-19.21897],[-45.96641,-19.21867],[-45.9664,-19.21822],[-45.96623,-19.21824],[-45.96611,-19.21836],[-45.96592,-19.21848],[-45.96556,-19.21858],[-45.96551,-19.21868],[-45.96509,-19.21984],[-45.96469,-19.221],[-45.96693,-19.22171],[-45.96668,-19.22244],[-45.96903,-19.22312],[-45.96927,-19.22237],[-45.96938,-19.22199],[-45.96975,-19.22093],[-45.97048,-19.22114],[-45.97061,-19.22077],[-45.97078,-19.22041]]]]}}]}