{"type":"FeatureCollection","features":[{"type":"Feature","properties":{"territory_id":"mg-3141801-bairro-centro","name":"Bairro Centro","municipality_id":"mg-3141801","polling_places":2,"approx":true,"official":false,"method":"voronoi-polling-places","whole_municipality":false,"approx_coords_only":false},"geometry":{"type":"MultiPolygon","coordinates":[[[[-42.69215,-17.22473],[-42.59681,-17.22009],[-42.59285,-17.21833],[-42.59927,-17.12307],[-42.6276,-17.1039],[-42.6919,-17.1262],[-42.659,-17.1627],[-42.6906,-17.2014],[-42.69215,-17.22473]]],[[[-42.59088,-17.21762],[-42.58974,-17.21845],[-42.58811,-17.21826],[-42.58317,-17.21621],[-42.55942,-17.17074],[-42.5595,-17.1708],[-42.58747,-17.13494],[-42.59088,-17.21762]]]]}},{"type":"Feature","properties":{"territory_id":"mg-3141801-bairro-saudade","name":"Bairro Saudade","municipality_id":"mg-3141801","polling_places":2,"approx":true,"official":false,"method":"voronoi-polling-places","whole_municipality":false,"approx_coords_only":false},"geometry":{"type":"MultiPolygon","coordinates":[[[[-42.59088,-17.2225],[-42.58693,-17.23169],[-42.58614,-17.32614],[-42.54617,-17.31621],[-42.49026,-17.26784],[-42.45993,-17.16195],[-42.4729,-17.1486],[-42.5271,-17.1463],[-42.55942,-17.17074],[-42.58317,-17.21621],[-42.58811,-17.21826],[-42.59088,-17.2225]]]]}},{"type":"Feature","properties":{"territory_id":"mg-3141801-distrito-baixa-quente","name":"Distrito Baixa Quente","municipality_id":"mg-3141801","polling_places":1,"approx":true,"official":false,"method":"voronoi-polling-places","whole_municipality":false,"approx_coords_only":false},"geometry":{"type":"MultiPolygon","coordinates":[[[[-42.3831,-17.38379],[-42.35545,-17.48229],[-42.31178,-17.4138],[-42.33109,-17.36325],[-42.3831,-17.38379]]]]}},{"type":"Feature","properties":{"territory_id":"mg-3141801-distrito-cruzinha","name":"Distrito Cruzinha","municipality_id":"mg-3141801","polling_places":1,"approx":true,"official":false,"method":"voronoi-polling-places","whole_municipality":false,"approx_coords_only":false},"geometry":{"type":"MultiPolygon","coordinates":[[[[-42.38399,-17.32823],[-42.37017,-17.32814],[-42.29987,-17.27374],[-42.3238,-17.2342],[-42.36872,-17.26536],[-42.38399,-17.32823]]]]}},{"type":"Feature","properties":{"territory_id":"mg-3141801-distrito-lagoa-grande","name":"Distrito Lagoa Grande","municipality_id":"mg-3141801","polling_places":1,"approx":true,"official":false,"method":"voronoi-polling-places","whole_municipality":false,"approx_coords_only":false},"geometry":{"type":"MultiPolygon","coordinates":[[[[-42.66714,-17.35208],[-42.6554,-17.3633],[-42.6098,-17.3827],[-42.6019,-17.3419],[-42.5739,-17.3457],[-42.5831,-17.417],[-42.56782,-17.45926],[-42.46688,-17.43271],[-42.46772,-17.42862],[-42.54617,-17.31621],[-42.58614,-17.32614],[-42.66714,-17.35208]]]]}},{"type":"Feature","properties":{"territory_id":"mg-3141801-distrito-ribeirao-da-folha","name":"Distrito Ribeirão da Folha","municipality_id":"mg-3141801","polling_places":1,"approx":true,"official":false,"method":"voronoi-polling-places","whole_municipality":false,"approx_coords_only":false},"geometry":{"type":"MultiPolygon","coordinates":[[[[-42.258,-17.56057],[-42.2527,-17.5544],[-42.258,-17.53932],[-42.258,-17.56057]]],[[[-42.258,-17.52773],[-42.2196,-17.4591],[-42.19327,-17.44388],[-42.258,-17.39661],[-42.258,-17.52773]]]]}},{"type":"Feature","properties":{"territory_id":"mg-3141801-povoado-de-cansancao","name":"Povoado de Cansancao","municipality_id":"mg-3141801","polling_places":1,"approx":true,"official":false,"method":"voronoi-polling-places","whole_municipality":false,"approx_coords_only":false},"geometry":{"type":"MultiPolygon","coordinates":[[[[-42.49026,-17.26784],[-42.40851,-17.33243],[-42.3999,-17.33422],[-42.38399,-17.32823],[-42.36872,-17.26536],[-42.3695,-17.2659],[-42.3869,-17.2236],[-42.4223,-17.2007],[-42.45993,-17.16195],[-42.49026,-17.26784]]]]}},{"type":"Feature","properties":{"territory_id":"mg-3141801-povoado-ribeirao-dos-santos","name":"Povoado Ribeirão dos Santos","municipality_id":"mg-3141801","polling_places":1,"approx":true,"official":false,"method":"voronoi-polling-places","whole_municipality":false,"approx_coords_only":false},"geometry":{"type":"MultiPolygon","coordinates":[[[[-42.54617,-17.31621],[-42.46772,-17.42862],[-42.40851,-17.33243],[-42.49026,-17.26784],[-42.54617,-17.31621]]]]}},{"type":"Feature","properties":{"territory_id":"mg-3141801-zona-rural","name":"Zona Rural","municipality_id":"mg-3141801","polling_places":16,"approx":true,"official":false,"method":"voronoi-polling-places","whole_municipality":false,"approx_coords_only":false},"geometry":{"type":"MultiPolygon","coordinates":[[[[-42.6986,-17.322],[-42.66714,-17.35208],[-42.58614,-17.32614],[-42.58693,-17.23169],[-42.59088,-17.2225],[-42.58811,-17.21826],[-42.58974,-17.21845],[-42.59088,-17.21762],[-42.58747,-17.13494],[-42.5939,-17.1267],[-42.59927,-17.12307],[-42.59285,-17.21833],[-42.59681,-17.22009],[-42.69215,-17.22473],[-42.6986,-17.322]]],[[[-42.56782,-17.45926],[-42.5587,-17.4845],[-42.518,-17.5211],[-42.4631,-17.5489],[-42.4428,-17.5762],[-42.4165,-17.5787],[-42.3701,-17.6096],[-42.2882,-17.5957],[-42.258,-17.56057],[-42.258,-17.53932],[-42.2605,-17.5322],[-42.258,-17.52773],[-42.258,-17.39661],[-42.19327,-17.44388],[-42.1902,-17.4421],[-42.177,-17.4161],[-42.0883,-17.3766],[-42.1038,-17.3544],[-42.1141,-17.3454],[-42.1754,-17.3669],[-42.2002,-17.3212],[-42.293,-17.2851],[-42.29987,-17.27374],[-42.37017,-17.32814],[-42.38399,-17.32823],[-42.3999,-17.33422],[-42.40851,-17.33243],[-42.46772,-17.42862],[-42.46688,-17.43271],[-42.56782,-17.45926]],[[-42.3831,-17.38379],[-42.33109,-17.36325],[-42.31178,-17.4138],[-42.35545,-17.48229],[-42.3831,-17.38379]]]]}}]}