{"type":"FeatureCollection","features":[{"type":"Feature","properties":{"territory_id":"mg-3141603-carangola","name":"Carangola","municipality_id":"mg-3141603","polling_places":1,"approx":true,"official":false,"method":"voronoi-polling-places","whole_municipality":false,"approx_coords_only":false},"geometry":{"type":"MultiPolygon","coordinates":[[[[-43.39407,-21.15537],[-43.33652,-21.19336],[-43.31342,-21.2048],[-43.25094,-21.22076],[-43.2448,-21.2109],[-43.2758,-21.1908],[-43.2532,-21.1612],[-43.2543,-21.1053],[-43.2397,-21.0877],[-43.2434,-21.0835],[-43.2717,-21.0583],[-43.3528,-21.0927],[-43.3639,-21.1518],[-43.39407,-21.15537]]]]}},{"type":"Feature","properties":{"territory_id":"mg-3141603-centro","name":"Centro","municipality_id":"mg-3141603","polling_places":2,"approx":true,"official":false,"method":"voronoi-polling-places","whole_municipality":false,"approx_coords_only":false},"geometry":{"type":"MultiPolygon","coordinates":[[[[-43.42614,-21.16746],[-43.34796,-21.19761],[-43.34459,-21.19934],[-43.33785,-21.20251],[-43.31342,-21.2048],[-43.33652,-21.19336],[-43.39407,-21.15537],[-43.4172,-21.1581],[-43.42614,-21.16746]]]]}},{"type":"Feature","properties":{"territory_id":"mg-3141603-sao-geraldo","name":"Sao Geraldo","municipality_id":"mg-3141603","polling_places":1,"approx":true,"official":false,"method":"voronoi-polling-places","whole_municipality":false,"approx_coords_only":false},"geometry":{"type":"MultiPolygon","coordinates":[[[[-43.41848,-21.25309],[-43.3927,-21.2558],[-43.3717,-21.2847],[-43.3242,-21.2965],[-43.2684,-21.2784],[-43.2697,-21.2509],[-43.25094,-21.22076],[-43.31342,-21.2048],[-43.33785,-21.20251],[-43.34603,-21.20719],[-43.41848,-21.25309]]]]}},{"type":"Feature","properties":{"territory_id":"mg-3141603-sao-miguel","name":"Sao Miguel","municipality_id":"mg-3141603","polling_places":2,"approx":true,"official":false,"method":"voronoi-polling-places","whole_municipality":false,"approx_coords_only":false},"geometry":{"type":"MultiPolygon","coordinates":[[[[-43.4514,-21.1939],[-43.4412,-21.2507],[-43.41848,-21.25309],[-43.34603,-21.20719],[-43.33785,-21.20251],[-43.34459,-21.19934],[-43.34796,-21.19761],[-43.42614,-21.16746],[-43.4514,-21.1939]]]]}}]}