{"type":"FeatureCollection","features":[{"type":"Feature","properties":{"territory_id":"mg-3141504-baixa-dos-oliveiras","name":"Baixa dos Oliveiras","municipality_id":"mg-3141504","polling_places":1,"approx":true,"official":false,"method":"voronoi-polling-places","whole_municipality":false,"approx_coords_only":false},"geometry":{"type":"MultiPolygon","coordinates":[[[[-41.39679,-18.5981],[-41.39281,-18.60386],[-41.28271,-18.62887],[-41.305,-18.5896],[-41.2887,-18.5618],[-41.2946,-18.5154],[-41.3206,-18.5051],[-41.3649,-18.4989],[-41.3559,-18.517],[-41.3837,-18.588],[-41.39679,-18.5981]]]]}},{"type":"Feature","properties":{"territory_id":"mg-3141504-centro","name":"Centro","municipality_id":"mg-3141504","polling_places":5,"approx":true,"official":false,"method":"voronoi-polling-places","whole_municipality":false,"approx_coords_only":false},"geometry":{"type":"MultiPolygon","coordinates":[[[[-41.4904,-18.6372],[-41.4424,-18.6985],[-41.3778,-18.7012],[-41.3257,-18.716],[-41.247,-18.7092],[-41.2647,-18.6606],[-41.28271,-18.62887],[-41.39281,-18.60386],[-41.39679,-18.5981],[-41.4266,-18.6211],[-41.4904,-18.6372]]]]}}]}