{"type":"FeatureCollection","features":[{"type":"Feature","properties":{"territory_id":"mg-3141702-centro","name":"Centro","municipality_id":"mg-3141702","polling_places":2,"approx":true,"official":false,"method":"voronoi-polling-places","whole_municipality":false,"approx_coords_only":false},"geometry":{"type":"MultiPolygon","coordinates":[[[[-42.66327,-19.2399],[-42.56917,-19.30626],[-42.555,-19.2964],[-42.5514,-19.2543],[-42.52104,-19.19414],[-42.65163,-19.20388],[-42.6592,-19.2343],[-42.66327,-19.2399]]]]}},{"type":"Feature","properties":{"territory_id":"mg-3141702-povoado-barra-grande","name":"Povoado Barra Grande","municipality_id":"mg-3141702","polling_places":1,"approx":true,"official":false,"method":"voronoi-polling-places","whole_municipality":false,"approx_coords_only":false},"geometry":{"type":"MultiPolygon","coordinates":[[[[-42.6976,-19.3538],[-42.6852,-19.3682],[-42.6776,-19.3817],[-42.56917,-19.30626],[-42.66327,-19.2399],[-42.687,-19.2725],[-42.6792,-19.2941],[-42.6976,-19.3538]]]]}},{"type":"Feature","properties":{"territory_id":"mg-3141702-povoado-do-burrinho","name":"Povoado do Burrinho","municipality_id":"mg-3141702","polling_places":1,"approx":true,"official":false,"method":"voronoi-polling-places","whole_municipality":false,"approx_coords_only":false},"geometry":{"type":"MultiPolygon","coordinates":[[[[-42.65163,-19.20388],[-42.52104,-19.19414],[-42.5192,-19.1905],[-42.5189,-19.1574],[-42.5702,-19.1676],[-42.6228,-19.1188],[-42.6219,-19.1476],[-42.6467,-19.1841],[-42.65163,-19.20388]]]]}}]}