{"type":"FeatureCollection","features":[{"type":"Feature","properties":{"territory_id":"mg-3142601-centro","name":"Centro","municipality_id":"mg-3142601","polling_places":2,"approx":true,"official":false,"method":"voronoi-polling-places","whole_municipality":false,"approx_coords_only":false},"geometry":{"type":"MultiPolygon","coordinates":[[[[-45.5588,-21.71408],[-45.54549,-21.75583],[-45.53957,-21.79154],[-45.5167,-21.7949],[-45.4933,-21.8131],[-45.4566,-21.7942],[-45.3928,-21.7447],[-45.3794,-21.7114],[-45.4037,-21.6826],[-45.4169,-21.6675],[-45.4618,-21.658],[-45.5287,-21.6891],[-45.5588,-21.71408]]]]}},{"type":"Feature","properties":{"territory_id":"mg-3142601-santa-cruz","name":"Santa Cruz","municipality_id":"mg-3142601","polling_places":1,"approx":true,"official":false,"method":"voronoi-polling-places","whole_municipality":false,"approx_coords_only":false},"geometry":{"type":"MultiPolygon","coordinates":[[[[-45.5799,-21.7316],[-45.5683,-21.7505],[-45.5562,-21.7891],[-45.53957,-21.79154],[-45.54549,-21.75583],[-45.5588,-21.71408],[-45.5799,-21.7316]]]]}}]}