{"type":"FeatureCollection","features":[{"type":"Feature","properties":{"territory_id":"mg-3142700-capitania","name":"Capitânia","municipality_id":"mg-3142700","polling_places":2,"approx":true,"official":false,"method":"voronoi-polling-places","whole_municipality":false,"approx_coords_only":false},"geometry":{"type":"MultiPolygon","coordinates":[[[[-44.56227,-14.47021],[-44.56159,-14.47131],[-44.48868,-14.44206],[-44.47529,-14.43656],[-44.42794,-14.41959],[-44.42905,-14.38057],[-44.501,-14.36595],[-44.51419,-14.38883],[-44.56227,-14.47021]]]]}},{"type":"Feature","properties":{"territory_id":"mg-3142700-centro","name":"Centro","municipality_id":"mg-3142700","polling_places":3,"approx":true,"official":false,"method":"voronoi-polling-places","whole_municipality":false,"approx_coords_only":false},"geometry":{"type":"MultiPolygon","coordinates":[[[[-44.42905,-14.38057],[-44.42794,-14.41959],[-44.41738,-14.46319],[-44.39911,-14.468],[-44.34748,-14.48445],[-44.36616,-14.42601],[-44.36882,-14.42204],[-44.36884,-14.41868],[-44.3607,-14.42203],[-44.31594,-14.43149],[-44.3246,-14.3852],[-44.2639,-14.3233],[-44.2347,-14.3085],[-44.29452,-14.25454],[-44.40093,-14.3577],[-44.42905,-14.38057]]]]}},{"type":"Feature","properties":{"territory_id":"mg-3142700-grota-do-sal","name":"Grota do Sal","municipality_id":"mg-3142700","polling_places":1,"approx":true,"official":false,"method":"voronoi-polling-places","whole_municipality":false,"approx_coords_only":false},"geometry":{"type":"MultiPolygon","coordinates":[[[[-44.56159,-14.47131],[-44.55564,-14.48435],[-44.50514,-14.55849],[-44.42533,-14.47179],[-44.48868,-14.44206],[-44.56159,-14.47131]]]]}},{"type":"Feature","properties":{"territory_id":"mg-3142700-guarabira","name":"Guarabira","municipality_id":"mg-3142700","polling_places":1,"approx":true,"official":false,"method":"voronoi-polling-places","whole_municipality":false,"approx_coords_only":false},"geometry":{"type":"MultiPolygon","coordinates":[[[[-44.36616,-14.42601],[-44.34748,-14.48445],[-44.32859,-14.4914],[-44.3118,-14.4536],[-44.31594,-14.43149],[-44.3607,-14.42203],[-44.36616,-14.42601]]]]}},{"type":"Feature","properties":{"territory_id":"mg-3142700-pitarana","name":"Pitarana","municipality_id":"mg-3142700","polling_places":1,"approx":true,"official":false,"method":"voronoi-polling-places","whole_municipality":false,"approx_coords_only":false},"geometry":{"type":"MultiPolygon","coordinates":[[[[-44.52473,-14.32741],[-44.501,-14.36595],[-44.42905,-14.38057],[-44.40093,-14.3577],[-44.29452,-14.25454],[-44.296,-14.2532],[-44.3406,-14.2494],[-44.3616,-14.2728],[-44.4118,-14.2816],[-44.4883,-14.3286],[-44.5108,-14.3227],[-44.52473,-14.32741]]]]}},{"type":"Feature","properties":{"territory_id":"mg-3142700-povoado-de-canabrava","name":"Povoado de Canabrava","municipality_id":"mg-3142700","polling_places":1,"approx":true,"official":false,"method":"voronoi-polling-places","whole_municipality":false,"approx_coords_only":false},"geometry":{"type":"MultiPolygon","coordinates":[[[[-44.59678,-14.36615],[-44.56629,-14.46815],[-44.56227,-14.47021],[-44.51419,-14.38883],[-44.501,-14.36595],[-44.52473,-14.32741],[-44.5661,-14.3414],[-44.59678,-14.36615]]]]}},{"type":"Feature","properties":{"territory_id":"mg-3142700-sao-sebastiao-de-pocoes","name":"São Sebastião de Poções","municipality_id":"mg-3142700","polling_places":1,"approx":true,"official":false,"method":"voronoi-polling-places","whole_municipality":false,"approx_coords_only":false},"geometry":{"type":"MultiPolygon","coordinates":[[[[-44.50514,-14.55849],[-44.49443,-14.64476],[-44.4663,-14.6343],[-44.4455,-14.6382],[-44.3981,-14.5931],[-44.3666,-14.5828],[-44.3206,-14.5485],[-44.3373,-14.511],[-44.32859,-14.4914],[-44.34748,-14.48445],[-44.39911,-14.468],[-44.41738,-14.46319],[-44.42533,-14.47179],[-44.50514,-14.55849]]]]}},{"type":"Feature","properties":{"territory_id":"mg-3142700-vila-novo-horizonte","name":"Vila Novo Horizonte","municipality_id":"mg-3142700","polling_places":1,"approx":true,"official":false,"method":"voronoi-polling-places","whole_municipality":false,"approx_coords_only":false},"geometry":{"type":"MultiPolygon","coordinates":[[[[-44.751,-14.5441],[-44.7342,-14.5665],[-44.73952,-14.61308],[-44.55564,-14.48435],[-44.56159,-14.47131],[-44.56227,-14.47021],[-44.56629,-14.46815],[-44.71694,-14.44596],[-44.7414,-14.4671],[-44.7305,-14.5002],[-44.751,-14.5441]]]]}},{"type":"Feature","properties":{"territory_id":"mg-3142700-zona-rural","name":"Zona Rural","municipality_id":"mg-3142700","polling_places":4,"approx":true,"official":false,"method":"voronoi-polling-places","whole_municipality":false,"approx_coords_only":false},"geometry":{"type":"MultiPolygon","coordinates":[[[[-44.7409,-14.6252],[-44.6889,-14.6256],[-44.6358,-14.6218],[-44.5862,-14.666],[-44.5574,-14.6642],[-44.5283,-14.7034],[-44.5099,-14.6771],[-44.5233,-14.6555],[-44.49443,-14.64476],[-44.50514,-14.55849],[-44.55564,-14.48435],[-44.73952,-14.61308],[-44.7409,-14.6252]]],[[[-44.71694,-14.44596],[-44.56629,-14.46815],[-44.59678,-14.36615],[-44.5992,-14.3681],[-44.6589,-14.3958],[-44.71694,-14.44596]]],[[[-44.48868,-14.44206],[-44.42533,-14.47179],[-44.41738,-14.46319],[-44.42794,-14.41959],[-44.47529,-14.43656],[-44.48868,-14.44206]]],[[[-44.36884,-14.41868],[-44.36882,-14.42204],[-44.36616,-14.42601],[-44.3607,-14.42203],[-44.36884,-14.41868]]]]}}]}