{"type":"FeatureCollection","features":[{"type":"Feature","properties":{"territory_id":"mg-3142205-bela-vista","name":"Bela Vista","municipality_id":"mg-3142205","polling_places":1,"approx":true,"official":false,"method":"voronoi-polling-places","whole_municipality":false,"approx_coords_only":false},"geometry":{"type":"MultiPolygon","coordinates":[[[[-42.67611,-21.21998],[-42.6623,-21.2198],[-42.62044,-21.23058],[-42.61536,-21.20415],[-42.6153,-21.19995],[-42.61552,-21.19442],[-42.64821,-21.17211],[-42.67611,-21.21998]]]]}},{"type":"Feature","properties":{"territory_id":"mg-3142205-centro","name":"Centro","municipality_id":"mg-3142205","polling_places":3,"approx":true,"official":false,"method":"voronoi-polling-places","whole_municipality":false,"approx_coords_only":false},"geometry":{"type":"MultiPolygon","coordinates":[[[[-42.62044,-21.23058],[-42.6126,-21.2326],[-42.5917,-21.2154],[-42.5568,-21.2228],[-42.5288,-21.2027],[-42.52446,-21.18342],[-42.61058,-21.19521],[-42.61061,-21.1952],[-42.61552,-21.19442],[-42.6153,-21.19995],[-42.61536,-21.20415],[-42.62044,-21.23058]]]]}},{"type":"Feature","properties":{"territory_id":"mg-3142205-distrito-de-dores-da-vitoria","name":"Distrito de Dores da Vitoria","municipality_id":"mg-3142205","polling_places":1,"approx":true,"official":false,"method":"voronoi-polling-places","whole_municipality":false,"approx_coords_only":false},"geometry":{"type":"MultiPolygon","coordinates":[[[[-42.66468,-21.08942],[-42.63557,-21.14443],[-42.53401,-21.1652],[-42.5521,-21.1542],[-42.5232,-21.1324],[-42.50565,-21.08969],[-42.66029,-21.08393],[-42.66468,-21.08942]]]]}},{"type":"Feature","properties":{"territory_id":"mg-3142205-distrito-de-santo-antonio-do-rio-preto","name":"Distrito de Santo Antônio do Rio Preto","municipality_id":"mg-3142205","polling_places":1,"approx":true,"official":false,"method":"voronoi-polling-places","whole_municipality":false,"approx_coords_only":false},"geometry":{"type":"MultiPolygon","coordinates":[[[[-42.66029,-21.08393],[-42.50565,-21.08969],[-42.5052,-21.0886],[-42.5534,-21.0688],[-42.5466,-21.044],[-42.6255,-21.0766],[-42.6553,-21.0777],[-42.66029,-21.08393]]]]}},{"type":"Feature","properties":{"territory_id":"mg-3142205-distrito-de-sao-jose-do-alegre","name":"Distrito de São José do Alegre","municipality_id":"mg-3142205","polling_places":1,"approx":true,"official":false,"method":"voronoi-polling-places","whole_municipality":false,"approx_coords_only":false},"geometry":{"type":"MultiPolygon","coordinates":[[[[-42.7529,-21.2033],[-42.7229,-21.2206],[-42.67611,-21.21998],[-42.64821,-21.17211],[-42.63557,-21.14443],[-42.66468,-21.08942],[-42.7067,-21.1419],[-42.7529,-21.2033]]]]}},{"type":"Feature","properties":{"territory_id":"mg-3142205-vila-duarte","name":"Vila Duarte","municipality_id":"mg-3142205","polling_places":2,"approx":true,"official":false,"method":"voronoi-polling-places","whole_municipality":false,"approx_coords_only":false},"geometry":{"type":"MultiPolygon","coordinates":[[[[-42.64821,-21.17211],[-42.61552,-21.19442],[-42.61061,-21.1952],[-42.61058,-21.19521],[-42.52446,-21.18342],[-42.522,-21.1725],[-42.53401,-21.1652],[-42.63557,-21.14443],[-42.64821,-21.17211]]]]}}]}