{"type":"FeatureCollection","features":[{"type":"Feature","properties":{"territory_id":"mg-3142007-bela-vista","name":"Bela Vista","municipality_id":"mg-3142007","polling_places":1,"approx":true,"official":false,"method":"voronoi-polling-places","whole_municipality":false,"approx_coords_only":false},"geometry":{"type":"MultiPolygon","coordinates":[[[[-44.23167,-16.21699],[-44.16182,-16.25283],[-44.0839,-16.19452],[-44.1007,-16.191],[-44.1043,-16.18393],[-44.23167,-16.21699]]]]}},{"type":"Feature","properties":{"territory_id":"mg-3142007-centro","name":"Centro","municipality_id":"mg-3142007","polling_places":2,"approx":true,"official":false,"method":"voronoi-polling-places","whole_municipality":false,"approx_coords_only":false},"geometry":{"type":"MultiPolygon","coordinates":[[[[-44.19211,-16.33809],[-44.15106,-16.37176],[-44.1182,-16.3771],[-44.0504,-16.4249],[-44.0613,-16.3818],[-44.0457,-16.2965],[-43.9806,-16.2347],[-43.9926,-16.2085],[-43.9901,-16.1631],[-44.0521,-16.1798],[-44.0554,-16.2005],[-44.0839,-16.19452],[-44.16182,-16.25283],[-44.16305,-16.25493],[-44.16278,-16.25649],[-44.19211,-16.33809]]]]}},{"type":"Feature","properties":{"territory_id":"mg-3142007-muquem","name":"Muquém","municipality_id":"mg-3142007","polling_places":1,"approx":true,"official":false,"method":"voronoi-polling-places","whole_municipality":false,"approx_coords_only":false},"geometry":{"type":"MultiPolygon","coordinates":[[[[-44.26055,-16.22141],[-44.25693,-16.22285],[-44.23167,-16.21699],[-44.1043,-16.18393],[-44.1235,-16.1462],[-44.1607,-16.1389],[-44.1923,-16.11907],[-44.26055,-16.22141]]]]}},{"type":"Feature","properties":{"territory_id":"mg-3142007-riachao","name":"Riachão","municipality_id":"mg-3142007","polling_places":1,"approx":true,"official":false,"method":"voronoi-polling-places","whole_municipality":false,"approx_coords_only":false},"geometry":{"type":"MultiPolygon","coordinates":[[[[-44.30838,-16.36233],[-44.2829,-16.3909],[-44.2109,-16.3905],[-44.1619,-16.37],[-44.15106,-16.37176],[-44.19211,-16.33809],[-44.20342,-16.32938],[-44.30838,-16.36233]]]]}},{"type":"Feature","properties":{"territory_id":"mg-3142007-riacho-das-pedras","name":"Riacho das Pedras","municipality_id":"mg-3142007","polling_places":1,"approx":true,"official":false,"method":"voronoi-polling-places","whole_municipality":false,"approx_coords_only":false},"geometry":{"type":"MultiPolygon","coordinates":[[[[-44.3093,-16.3613],[-44.30838,-16.36233],[-44.20342,-16.32938],[-44.23776,-16.2631],[-44.25309,-16.2362],[-44.2541,-16.2778],[-44.3093,-16.3613]]]]}},{"type":"Feature","properties":{"territory_id":"mg-3142007-sao-bento","name":"São Bento","municipality_id":"mg-3142007","polling_places":1,"approx":true,"official":false,"method":"voronoi-polling-places","whole_municipality":false,"approx_coords_only":false},"geometry":{"type":"MultiPolygon","coordinates":[[[[-44.2929,-16.1724],[-44.2786,-16.2142],[-44.26055,-16.22141],[-44.1923,-16.11907],[-44.2356,-16.0919],[-44.2692,-16.1263],[-44.2929,-16.1724]]]]}},{"type":"Feature","properties":{"territory_id":"mg-3142007-sao-jose","name":"São José","municipality_id":"mg-3142007","polling_places":2,"approx":true,"official":false,"method":"voronoi-polling-places","whole_municipality":false,"approx_coords_only":false},"geometry":{"type":"MultiPolygon","coordinates":[[[[-44.25693,-16.22285],[-44.2528,-16.2245],[-44.25309,-16.2362],[-44.23776,-16.2631],[-44.20342,-16.32938],[-44.19211,-16.33809],[-44.16278,-16.25649],[-44.16305,-16.25493],[-44.16182,-16.25283],[-44.23167,-16.21699],[-44.25693,-16.22285]]]]}}]}