{"type":"FeatureCollection","features":[{"type":"Feature","properties":{"territory_id":"mg-3142106-centro","name":"Centro","municipality_id":"mg-3142106","polling_places":4,"approx":true,"official":false,"method":"voronoi-polling-places","whole_municipality":false,"approx_coords_only":false},"geometry":{"type":"MultiPolygon","coordinates":[[[[-42.37886,-20.85709],[-42.37497,-20.87068],[-42.37241,-20.88204],[-42.35827,-20.95658],[-42.3481,-20.9588],[-42.3229,-20.9038],[-42.2666,-20.8615],[-42.2598,-20.8421],[-42.3019,-20.8617],[-42.32467,-20.84347],[-42.37886,-20.85709]]]]}},{"type":"Feature","properties":{"territory_id":"mg-3142106-monte-alverne","name":"Monte Alverne","municipality_id":"mg-3142106","polling_places":1,"approx":true,"official":false,"method":"voronoi-polling-places","whole_municipality":false,"approx_coords_only":false},"geometry":{"type":"MultiPolygon","coordinates":[[[[-42.48766,-20.81352],[-42.41378,-20.83954],[-42.3859,-20.76142],[-42.3909,-20.7581],[-42.4171,-20.7688],[-42.471,-20.75],[-42.4792,-20.7602],[-42.48766,-20.81352]]]]}},{"type":"Feature","properties":{"territory_id":"mg-3142106-santa-barbara","name":"Santa Bárbara","municipality_id":"mg-3142106","polling_places":1,"approx":true,"official":false,"method":"voronoi-polling-places","whole_municipality":false,"approx_coords_only":false},"geometry":{"type":"MultiPolygon","coordinates":[[[[-42.41378,-20.83954],[-42.41101,-20.84491],[-42.37886,-20.85709],[-42.32467,-20.84347],[-42.3521,-20.8215],[-42.3614,-20.7777],[-42.3859,-20.76142],[-42.41378,-20.83954]]]]}},{"type":"Feature","properties":{"territory_id":"mg-3142106-serrania","name":"Serrania","municipality_id":"mg-3142106","polling_places":1,"approx":true,"official":false,"method":"voronoi-polling-places","whole_municipality":false,"approx_coords_only":false},"geometry":{"type":"MultiPolygon","coordinates":[[[[-42.514,-20.867],[-42.4411,-20.8758],[-42.4348,-20.89318],[-42.41101,-20.84491],[-42.41378,-20.83954],[-42.48766,-20.81352],[-42.4902,-20.8295],[-42.514,-20.867]]]]}},{"type":"Feature","properties":{"territory_id":"mg-3142106-varginha","name":"Varginha","municipality_id":"mg-3142106","polling_places":1,"approx":true,"official":false,"method":"voronoi-polling-places","whole_municipality":false,"approx_coords_only":false},"geometry":{"type":"MultiPolygon","coordinates":[[[[-42.4348,-20.89318],[-42.4164,-20.9439],[-42.35827,-20.95658],[-42.37241,-20.88204],[-42.37497,-20.87068],[-42.37886,-20.85709],[-42.41101,-20.84491],[-42.4348,-20.89318]]]]}}]}