{"type":"FeatureCollection","features":[{"type":"Feature","properties":{"territory_id":"mg-3142502-centro","name":"Centro","municipality_id":"mg-3142502","polling_places":1,"approx":true,"official":false,"method":"voronoi-polling-places","whole_municipality":false,"approx_coords_only":false},"geometry":{"type":"MultiPolygon","coordinates":[[[[-44.1955,-18.2703],[-44.1573,-18.3031],[-44.1714,-18.3478],[-44.1566,-18.3839],[-44.12032,-18.39837],[-44.07048,-18.33971],[-44.12845,-18.22534],[-44.1641,-18.2467],[-44.1953,-18.2462],[-44.1955,-18.2703]]]]}},{"type":"Feature","properties":{"territory_id":"mg-3142502-rodeador","name":"Rodeador","municipality_id":"mg-3142502","polling_places":1,"approx":true,"official":false,"method":"voronoi-polling-places","whole_municipality":false,"approx_coords_only":false},"geometry":{"type":"MultiPolygon","coordinates":[[[[-44.12845,-18.22534],[-44.07048,-18.33971],[-43.99038,-18.3364],[-44.0008,-18.289],[-44.0549,-18.2748],[-44.0884,-18.2204],[-44.1202,-18.2204],[-44.12845,-18.22534]]]]}},{"type":"Feature","properties":{"territory_id":"mg-3142502-zona-rural","name":"Zona Rural","municipality_id":"mg-3142502","polling_places":2,"approx":true,"official":false,"method":"voronoi-polling-places","whole_municipality":false,"approx_coords_only":false},"geometry":{"type":"MultiPolygon","coordinates":[[[[-44.12032,-18.39837],[-44.1092,-18.4028],[-44.1005,-18.4369],[-44.0221,-18.4446],[-44.0073,-18.4723],[-44.0506,-18.5069],[-44.0781,-18.5575],[-44.0685,-18.5675],[-44.0131,-18.541],[-43.987,-18.5466],[-43.8686,-18.4819],[-43.8607,-18.4439],[-43.8254,-18.399],[-43.8586,-18.3686],[-43.8785,-18.3628],[-43.9303,-18.3775],[-43.9884,-18.3454],[-43.99038,-18.3364],[-44.07048,-18.33971],[-44.12032,-18.39837]]]]}}]}