{"type":"FeatureCollection","features":[{"type":"Feature","properties":{"territory_id":"mg-3142304-azevedo","name":"Azevedo","municipality_id":"mg-3142304","polling_places":1,"approx":true,"official":false,"method":"voronoi-polling-places","whole_municipality":false,"approx_coords_only":false},"geometry":{"type":"MultiPolygon","coordinates":[[[[-43.98489,-20.35711],[-43.97086,-20.3889],[-43.9271,-20.4049],[-43.9302,-20.3824],[-43.9501,-20.2793],[-43.95209,-20.27657],[-43.98031,-20.29479],[-43.98489,-20.35711]]]]}},{"type":"Feature","properties":{"territory_id":"mg-3142304-centro","name":"Centro","municipality_id":"mg-3142304","polling_places":2,"approx":true,"official":false,"method":"voronoi-polling-places","whole_municipality":false,"approx_coords_only":false},"geometry":{"type":"MultiPolygon","coordinates":[[[[-44.0817,-20.3087],[-44.0694,-20.3521],[-44.06107,-20.35803],[-44.05201,-20.33471],[-44.0359,-20.31727],[-44.04466,-20.30348],[-44.0546,-20.3138],[-44.0817,-20.3087]]]]}},{"type":"Feature","properties":{"territory_id":"mg-3142304-pedra-vermelha","name":"Pedra Vermelha","municipality_id":"mg-3142304","polling_places":1,"approx":true,"official":false,"method":"voronoi-polling-places","whole_municipality":false,"approx_coords_only":false},"geometry":{"type":"MultiPolygon","coordinates":[[[[-44.0219,-20.32947],[-43.98489,-20.35711],[-43.98031,-20.29479],[-43.99777,-20.29043],[-44.0219,-20.32947]]]]}},{"type":"Feature","properties":{"territory_id":"mg-3142304-pessegueiro","name":"Pessegueiro","municipality_id":"mg-3142304","polling_places":1,"approx":true,"official":false,"method":"voronoi-polling-places","whole_municipality":false,"approx_coords_only":false},"geometry":{"type":"MultiPolygon","coordinates":[[[[-44.06107,-20.35803],[-44.05608,-20.36159],[-44.02682,-20.32772],[-44.0359,-20.31727],[-44.05201,-20.33471],[-44.06107,-20.35803]]]]}},{"type":"Feature","properties":{"territory_id":"mg-3142304-porto-alegre","name":"Porto Alegre","municipality_id":"mg-3142304","polling_places":1,"approx":true,"official":false,"method":"voronoi-polling-places","whole_municipality":false,"approx_coords_only":false},"geometry":{"type":"MultiPolygon","coordinates":[[[[-44.05608,-20.36159],[-44.0253,-20.3835],[-43.999,-20.3786],[-43.97086,-20.3889],[-43.98489,-20.35711],[-44.0219,-20.32947],[-44.02682,-20.32772],[-44.05608,-20.36159]]]]}},{"type":"Feature","properties":{"territory_id":"mg-3142304-povoado-de-coco","name":"Povoado de Coco","municipality_id":"mg-3142304","polling_places":1,"approx":true,"official":false,"method":"voronoi-polling-places","whole_municipality":false,"approx_coords_only":false},"geometry":{"type":"MultiPolygon","coordinates":[[[[-44.04466,-20.30348],[-44.0359,-20.31727],[-44.02682,-20.32772],[-44.0219,-20.32947],[-43.99777,-20.29043],[-44.02003,-20.27791],[-44.04466,-20.30348]]]]}},{"type":"Feature","properties":{"territory_id":"mg-3142304-povoado-de-sao-caetano","name":"Povoado de São Caetano","municipality_id":"mg-3142304","polling_places":1,"approx":true,"official":false,"method":"voronoi-polling-places","whole_municipality":false,"approx_coords_only":false},"geometry":{"type":"MultiPolygon","coordinates":[[[[-44.02003,-20.27791],[-43.99777,-20.29043],[-43.98031,-20.29479],[-43.95209,-20.27657],[-43.9646,-20.2594],[-43.9971,-20.2541],[-44.02003,-20.27791]]]]}}]}