{"type":"FeatureCollection","features":[{"type":"Feature","properties":{"territory_id":"mg-3142403-alvorada","name":"Alvorada","municipality_id":"mg-3142403","polling_places":1,"approx":true,"official":false,"method":"voronoi-polling-places","whole_municipality":false,"approx_coords_only":false},"geometry":{"type":"MultiPolygon","coordinates":[[[[-45.4991,-19.798],[-45.48935,-19.81391],[-45.41723,-19.8434],[-45.40726,-19.82727],[-45.38502,-19.78083],[-45.4031,-19.7653],[-45.4604,-19.7755],[-45.4766,-19.7572],[-45.4991,-19.798]]]]}},{"type":"Feature","properties":{"territory_id":"mg-3142403-centro","name":"Centro","municipality_id":"mg-3142403","polling_places":2,"approx":true,"official":false,"method":"voronoi-polling-places","whole_municipality":false,"approx_coords_only":false},"geometry":{"type":"MultiPolygon","coordinates":[[[[-45.41723,-19.8434],[-45.41719,-19.84351],[-45.41082,-19.857],[-45.40418,-19.87657],[-45.3835,-19.8846],[-45.38114,-19.88911],[-45.34938,-19.85706],[-45.3644,-19.8499],[-45.362,-19.8006],[-45.38502,-19.78083],[-45.40726,-19.82727],[-45.41723,-19.8434]]]]}},{"type":"Feature","properties":{"territory_id":"mg-3142403-chapada","name":"Chapada","municipality_id":"mg-3142403","polling_places":1,"approx":true,"official":false,"method":"voronoi-polling-places","whole_municipality":false,"approx_coords_only":false},"geometry":{"type":"MultiPolygon","coordinates":[[[[-45.38114,-19.88911],[-45.3668,-19.9166],[-45.3074,-19.9352],[-45.2897,-19.9138],[-45.3302,-19.8662],[-45.34938,-19.85706],[-45.38114,-19.88911]]]]}},{"type":"Feature","properties":{"territory_id":"mg-3142403-ipiranga","name":"Ipiranga","municipality_id":"mg-3142403","polling_places":2,"approx":true,"official":false,"method":"voronoi-polling-places","whole_municipality":false,"approx_coords_only":false},"geometry":{"type":"MultiPolygon","coordinates":[[[[-45.505,-19.8496],[-45.5031,-19.854],[-45.4703,-19.8703],[-45.4185,-19.871],[-45.40418,-19.87657],[-45.41082,-19.857],[-45.41719,-19.84351],[-45.41723,-19.8434],[-45.48935,-19.81391],[-45.4798,-19.8295],[-45.505,-19.8496]]]]}}]}