{"type":"FeatureCollection","features":[{"type":"Feature","properties":{"territory_id":"mg-3142809-centro","name":"Centro","municipality_id":"mg-3142809","polling_places":9,"approx":true,"official":false,"method":"voronoi-polling-places","whole_municipality":false,"approx_coords_only":false},"geometry":{"type":"MultiPolygon","coordinates":[[[[-49.2659,-18.8996],[-49.2595,-18.9404],[-49.2257,-18.9358],[-49.1516,-18.9437],[-49.1417,-18.9589],[-49.0745,-18.9785],[-49.063,-19.002],[-48.9976,-19.0511],[-48.9825,-19.0515],[-48.8236,-19.1034],[-48.7603,-19.0757],[-48.7064,-19.0741],[-48.6762,-19.0186],[-48.6426,-18.9874],[-48.6314,-18.9541],[-48.5718,-18.9944],[-48.5384,-18.967],[-48.5213,-18.9044],[-48.5528,-18.8931],[-48.6012,-18.8395],[-48.5811,-18.7976],[-48.6267,-18.7618],[-48.6667,-18.7622],[-48.7316,-18.7317],[-48.78243,-18.70111],[-48.87743,-18.86519],[-48.88709,-18.8668],[-49.16017,-18.83374],[-49.211,-18.8622],[-49.23358,-18.8687],[-49.25526,-18.88],[-49.2659,-18.8996]],[[-48.88119,-18.87996],[-48.8797,-18.87968],[-48.87989,-18.87747],[-48.87992,-18.87743],[-48.87941,-18.87737],[-48.87855,-18.87731],[-48.87862,-18.87694],[-48.87923,-18.87697],[-48.87943,-18.87687],[-48.87954,-18.87665],[-48.87959,-18.87639],[-48.87818,-18.87646],[-48.8773,-18.87643],[-48.87633,-18.87628],[-48.8758,-18.87607],[-48.87522,-18.8758],[-48.87486,-18.8756],[-48.87434,-18.8752],[-48.87385,-18.87662],[-48.87363,-18.87714],[-48.87349,-18.87738],[-48.87427,-18.87783],[-48.87423,-18.87788],[-48.87406,-18.87803],[-48.87468,-18.87872],[-48.87516,-18.87881],[-48.87313,-18.88119],[-48.87503,-18.88153],[-48.87445,-18.88239],[-48.87596,-18.88332],[-48.87761,-18.88069],[-48.88107,-18.8812],[-48.88119,-18.87996]]]]}},{"type":"Feature","properties":{"territory_id":"mg-3142809-flamengo","name":"Flamengo","municipality_id":"mg-3142809","polling_places":3,"approx":false,"official":true,"method":"official-ibge-cd2022","whole_municipality":false,"approx_coords_only":false,"official_name":"Flamengo","official_code":"3142809005","match":"direct"},"geometry":{"type":"MultiPolygon","coordinates":[[[[-48.87516,-18.87881],[-48.87313,-18.88119],[-48.87503,-18.88153],[-48.87445,-18.88239],[-48.87596,-18.88332],[-48.87761,-18.88069],[-48.88107,-18.8812],[-48.88119,-18.87996],[-48.8797,-18.87968],[-48.87989,-18.87747],[-48.87992,-18.87743],[-48.87941,-18.87737],[-48.87855,-18.87731],[-48.87862,-18.87694],[-48.87923,-18.87697],[-48.87943,-18.87687],[-48.87954,-18.87665],[-48.87959,-18.87639],[-48.87818,-18.87646],[-48.8773,-18.87643],[-48.87633,-18.87628],[-48.8758,-18.87607],[-48.87522,-18.8758],[-48.87486,-18.8756],[-48.87434,-18.8752],[-48.87385,-18.87662],[-48.87363,-18.87714],[-48.87349,-18.87738],[-48.87427,-18.87783],[-48.87423,-18.87788],[-48.87406,-18.87803],[-48.87468,-18.87872],[-48.87516,-18.87881]]]]}},{"type":"Feature","properties":{"territory_id":"mg-3142809-jardim-eldorado","name":"Jardim Eldorado","municipality_id":"mg-3142809","polling_places":1,"approx":true,"official":false,"method":"voronoi-polling-places","whole_municipality":false,"approx_coords_only":false},"geometry":{"type":"MultiPolygon","coordinates":[[[[-49.16017,-18.83374],[-48.88709,-18.8668],[-48.87743,-18.86519],[-48.78243,-18.70111],[-48.8042,-18.688],[-48.8323,-18.6942],[-48.83854,-18.65508],[-49.05481,-18.77291],[-49.0508,-18.7881],[-49.09013,-18.79216],[-49.09397,-18.79425],[-49.1236,-18.8315],[-49.1567,-18.8318],[-49.16017,-18.83374]]]]}},{"type":"Feature","properties":{"territory_id":"mg-3142809-povoado-dos-garcias","name":"Povoado dos Garcias","municipality_id":"mg-3142809","polling_places":1,"approx":true,"official":false,"method":"voronoi-polling-places","whole_municipality":false,"approx_coords_only":false},"geometry":{"type":"MultiPolygon","coordinates":[[[[-49.25526,-18.88],[-49.23358,-18.8687],[-49.252,-18.874],[-49.25526,-18.88]]],[[[-49.1519,-18.5557],[-49.113,-18.5886],[-49.0893,-18.6411],[-49.0394,-18.6762],[-49.0419,-18.7191],[-49.0603,-18.7521],[-49.05481,-18.77291],[-48.83854,-18.65508],[-48.8395,-18.6491],[-48.8293,-18.6059],[-48.9157,-18.5892],[-48.932,-18.5563],[-49.0047,-18.537],[-49.0283,-18.5246],[-49.0794,-18.545],[-49.1146,-18.5311],[-49.1519,-18.5557]]],[[[-49.09397,-18.79425],[-49.09013,-18.79216],[-49.0925,-18.7924],[-49.09397,-18.79425]]]]}}]}