{"type":"FeatureCollection","features":[{"type":"Feature","properties":{"territory_id":"mg-3142254-area-rural","name":"Area Rural","municipality_id":"mg-3142254","polling_places":4,"approx":true,"official":false,"method":"voronoi-polling-places","whole_municipality":false,"approx_coords_only":false},"geometry":{"type":"MultiPolygon","coordinates":[[[[-44.5298,-14.861],[-44.4837,-14.9071],[-44.3804,-14.849],[-44.2956,-14.82],[-44.3239,-14.8031],[-44.2892,-14.7749],[-44.28977,-14.77337],[-44.35486,-14.79719],[-44.37821,-14.82504],[-44.49077,-14.71674],[-44.38675,-14.70293],[-44.36729,-14.67672],[-44.36371,-14.66924],[-44.42615,-14.61979],[-44.4455,-14.6382],[-44.4663,-14.6343],[-44.5233,-14.6555],[-44.5099,-14.6771],[-44.5283,-14.7034],[-44.5164,-14.7146],[-44.5295,-14.8164],[-44.5298,-14.861]]]]}},{"type":"Feature","properties":{"territory_id":"mg-3142254-brejao","name":"Brejao","municipality_id":"mg-3142254","polling_places":1,"approx":true,"official":false,"method":"voronoi-polling-places","whole_municipality":false,"approx_coords_only":false},"geometry":{"type":"MultiPolygon","coordinates":[[[[-44.42615,-14.61979],[-44.36371,-14.66924],[-44.33506,-14.6526],[-44.3381,-14.6445],[-44.3686,-14.6045],[-44.3981,-14.5931],[-44.42615,-14.61979]]]]}},{"type":"Feature","properties":{"territory_id":"mg-3142254-centro","name":"Centro","municipality_id":"mg-3142254","polling_places":3,"approx":true,"official":false,"method":"voronoi-polling-places","whole_municipality":false,"approx_coords_only":false},"geometry":{"type":"MultiPolygon","coordinates":[[[[-44.49077,-14.71674],[-44.37821,-14.82504],[-44.35486,-14.79719],[-44.28977,-14.77337],[-44.33506,-14.6526],[-44.36371,-14.66924],[-44.36729,-14.67672],[-44.38675,-14.70293],[-44.49077,-14.71674]]]]}}]}