{"type":"FeatureCollection","features":[{"type":"Feature","properties":{"territory_id":"mg-3142908-alvorada","name":"Alvorada","municipality_id":"mg-3142908","polling_places":1,"approx":true,"official":false,"method":"voronoi-polling-places","whole_municipality":false,"approx_coords_only":false},"geometry":{"type":"MultiPolygon","coordinates":[[[[-42.87432,-15.15479],[-42.86883,-15.16069],[-42.8641,-15.15599],[-42.86714,-15.15302],[-42.87079,-15.15383],[-42.87432,-15.15479]]]]}},{"type":"Feature","properties":{"territory_id":"mg-3142908-baixao","name":"Baixao","municipality_id":"mg-3142908","polling_places":1,"approx":true,"official":false,"method":"voronoi-polling-places","whole_municipality":false,"approx_coords_only":false},"geometry":{"type":"MultiPolygon","coordinates":[[[[-42.8888,-15.08946],[-42.87809,-15.09932],[-42.85086,-15.1207],[-42.80311,-15.15174],[-42.78028,-15.16323],[-42.7778,-15.1598],[-42.8089,-15.07943],[-42.86832,-15.06822],[-42.8888,-15.08946]]]]}},{"type":"Feature","properties":{"territory_id":"mg-3142908-barreirinho","name":"Barreirinho","municipality_id":"mg-3142908","polling_places":1,"approx":true,"official":false,"method":"voronoi-polling-places","whole_municipality":false,"approx_coords_only":false},"geometry":{"type":"MultiPolygon","coordinates":[[[[-43.0409,-15.16374],[-43.01961,-15.20686],[-42.94236,-15.19511],[-42.93539,-15.17938],[-42.97572,-15.13023],[-42.9882,-15.1354],[-43.0396,-15.1181],[-43.0409,-15.16374]]]]}},{"type":"Feature","properties":{"territory_id":"mg-3142908-barreiro-da-raposa","name":"Barreiro da Raposa","municipality_id":"mg-3142908","polling_places":1,"approx":true,"official":false,"method":"voronoi-polling-places","whole_municipality":false,"approx_coords_only":false},"geometry":{"type":"MultiPolygon","coordinates":[[[[-42.94236,-15.19511],[-42.93333,-15.20807],[-42.87108,-15.23226],[-42.87293,-15.17861],[-42.87585,-15.17658],[-42.91502,-15.16429],[-42.92114,-15.16327],[-42.93539,-15.17938],[-42.94236,-15.19511]]]]}},{"type":"Feature","properties":{"territory_id":"mg-3142908-cana-brava","name":"Cana Brava","municipality_id":"mg-3142908","polling_places":2,"approx":true,"official":false,"method":"voronoi-polling-places","whole_municipality":false,"approx_coords_only":false},"geometry":{"type":"MultiPolygon","coordinates":[[[[-43.02889,-15.23312],[-43.02617,-15.23863],[-43.01211,-15.2535],[-42.97421,-15.29375],[-42.9378,-15.27701],[-42.93582,-15.24562],[-42.93333,-15.20807],[-42.94236,-15.19511],[-43.01961,-15.20686],[-43.02889,-15.23312]]]]}},{"type":"Feature","properties":{"territory_id":"mg-3142908-centro","name":"Centro","municipality_id":"mg-3142908","polling_places":1,"approx":true,"official":false,"method":"voronoi-polling-places","whole_municipality":false,"approx_coords_only":false},"geometry":{"type":"MultiPolygon","coordinates":[[[[-42.88108,-15.15437],[-42.87518,-15.1545],[-42.87327,-15.15226],[-42.87091,-15.14915],[-42.87325,-15.14699],[-42.88108,-15.15437]]]]}},{"type":"Feature","properties":{"territory_id":"mg-3142908-cipoal","name":"Cipoal","municipality_id":"mg-3142908","polling_places":1,"approx":true,"official":false,"method":"voronoi-polling-places","whole_municipality":false,"approx_coords_only":false},"geometry":{"type":"MultiPolygon","coordinates":[[[[-42.88738,-15.31449],[-42.8786,-15.319],[-42.85228,-15.32156],[-42.80269,-15.2523],[-42.81002,-15.24189],[-42.8591,-15.24166],[-42.867,-15.25114],[-42.88738,-15.31449]]]]}},{"type":"Feature","properties":{"territory_id":"mg-3142908-dourados","name":"Dourados","municipality_id":"mg-3142908","polling_places":1,"approx":true,"official":false,"method":"voronoi-polling-places","whole_municipality":false,"approx_coords_only":false},"geometry":{"type":"MultiPolygon","coordinates":[[[[-42.94028,-15.07301],[-42.90614,-15.09259],[-42.8888,-15.08946],[-42.86832,-15.06822],[-42.85867,-15.03845],[-42.9036,-15.04],[-42.94028,-15.07301]]]]}},{"type":"Feature","properties":{"territory_id":"mg-3142908-furadinho","name":"Furadinho","municipality_id":"mg-3142908","polling_places":1,"approx":true,"official":false,"method":"voronoi-polling-places","whole_municipality":false,"approx_coords_only":false},"geometry":{"type":"MultiPolygon","coordinates":[[[[-42.97572,-15.13023],[-42.93539,-15.17938],[-42.92114,-15.16327],[-42.90614,-15.09259],[-42.94028,-15.07301],[-42.9416,-15.0742],[-42.9479,-15.1187],[-42.97572,-15.13023]]]]}},{"type":"Feature","properties":{"territory_id":"mg-3142908-icarai","name":"Icarai","municipality_id":"mg-3142908","polling_places":1,"approx":true,"official":false,"method":"voronoi-polling-places","whole_municipality":false,"approx_coords_only":false},"geometry":{"type":"MultiPolygon","coordinates":[[[[-42.86844,-15.15005],[-42.86714,-15.15302],[-42.8641,-15.15599],[-42.80311,-15.15174],[-42.85086,-15.1207],[-42.86844,-15.15005]]]]}},{"type":"Feature","properties":{"territory_id":"mg-3142908-landim","name":"Landim","municipality_id":"mg-3142908","polling_places":1,"approx":true,"official":false,"method":"voronoi-polling-places","whole_municipality":false,"approx_coords_only":false},"geometry":{"type":"MultiPolygon","coordinates":[[[[-42.87518,-15.1545],[-42.87432,-15.15479],[-42.87079,-15.15383],[-42.87169,-15.15226],[-42.87327,-15.15226],[-42.87518,-15.1545]]]]}},{"type":"Feature","properties":{"territory_id":"mg-3142908-lingua-d-agua","name":"Lingua D'agua","municipality_id":"mg-3142908","polling_places":1,"approx":true,"official":false,"method":"voronoi-polling-places","whole_municipality":false,"approx_coords_only":false},"geometry":{"type":"MultiPolygon","coordinates":[[[[-43.1756,-15.24949],[-43.167,-15.2565],[-43.1062,-15.268],[-43.08172,-15.29863],[-43.05246,-15.24184],[-43.17001,-15.23487],[-43.1756,-15.24949]]]]}},{"type":"Feature","properties":{"territory_id":"mg-3142908-maxixeiro","name":"Maxixeiro","municipality_id":"mg-3142908","polling_places":1,"approx":true,"official":false,"method":"voronoi-polling-places","whole_municipality":false,"approx_coords_only":false},"geometry":{"type":"MultiPolygon","coordinates":[[[[-43.08172,-15.29863],[-43.0748,-15.3073],[-43.04261,-15.32182],[-43.02617,-15.23863],[-43.02889,-15.23312],[-43.05246,-15.24184],[-43.08172,-15.29863]]]]}},{"type":"Feature","properties":{"territory_id":"mg-3142908-moreira","name":"Moreira","municipality_id":"mg-3142908","polling_places":1,"approx":true,"official":false,"method":"voronoi-polling-places","whole_municipality":false,"approx_coords_only":false},"geometry":{"type":"MultiPolygon","coordinates":[[[[-42.87585,-15.17658],[-42.87293,-15.17861],[-42.78387,-15.16821],[-42.78028,-15.16323],[-42.80311,-15.15174],[-42.8641,-15.15599],[-42.86883,-15.16069],[-42.87585,-15.17658]]]]}},{"type":"Feature","properties":{"territory_id":"mg-3142908-novo-riachinho","name":"Novo Riachinho","municipality_id":"mg-3142908","polling_places":1,"approx":true,"official":false,"method":"voronoi-polling-places","whole_municipality":false,"approx_coords_only":false},"geometry":{"type":"MultiPolygon","coordinates":[[[[-43.04261,-15.32182],[-43.0218,-15.3312],[-42.9888,-15.3184],[-42.97909,-15.32163],[-42.97421,-15.29375],[-43.01211,-15.2535],[-43.02617,-15.23863],[-43.04261,-15.32182]]]]}},{"type":"Feature","properties":{"territory_id":"mg-3142908-pacui","name":"Pacui","municipality_id":"mg-3142908","polling_places":1,"approx":true,"official":false,"method":"voronoi-polling-places","whole_municipality":false,"approx_coords_only":false},"geometry":{"type":"MultiPolygon","coordinates":[[[[-43.2695,-15.1503],[-43.2643,-15.2038],[-43.2468,-15.2568],[-43.1951,-15.2336],[-43.1756,-15.24949],[-43.17001,-15.23487],[-43.17433,-15.14801],[-43.2226,-15.1594],[-43.2695,-15.1503]]]]}},{"type":"Feature","properties":{"territory_id":"mg-3142908-pajeu","name":"Pajeu","municipality_id":"mg-3142908","polling_places":1,"approx":true,"official":false,"method":"voronoi-polling-places","whole_municipality":false,"approx_coords_only":false},"geometry":{"type":"MultiPolygon","coordinates":[[[[-42.93188,-15.27943],[-42.9082,-15.30487],[-42.9074,-15.3042],[-42.88738,-15.31449],[-42.867,-15.25114],[-42.93188,-15.27943]]]]}},{"type":"Feature","properties":{"territory_id":"mg-3142908-pedreira","name":"Pedreira","municipality_id":"mg-3142908","polling_places":1,"approx":true,"official":false,"method":"voronoi-polling-places","whole_municipality":false,"approx_coords_only":false},"geometry":{"type":"MultiPolygon","coordinates":[[[[-42.97909,-15.32163],[-42.9626,-15.3271],[-42.934,-15.3265],[-42.9082,-15.30487],[-42.93188,-15.27943],[-42.9378,-15.27701],[-42.97421,-15.29375],[-42.97909,-15.32163]]]]}},{"type":"Feature","properties":{"territory_id":"mg-3142908-pernambuco","name":"Pernambuco","municipality_id":"mg-3142908","polling_places":1,"approx":true,"official":false,"method":"voronoi-polling-places","whole_municipality":false,"approx_coords_only":false},"geometry":{"type":"MultiPolygon","coordinates":[[[[-42.87809,-15.09932],[-42.87325,-15.14699],[-42.87091,-15.14915],[-42.87008,-15.14947],[-42.86844,-15.15005],[-42.85086,-15.1207],[-42.87809,-15.09932]]]]}},{"type":"Feature","properties":{"territory_id":"mg-3142908-pocoes","name":"Pocoes","municipality_id":"mg-3142908","polling_places":1,"approx":true,"official":false,"method":"voronoi-polling-places","whole_municipality":false,"approx_coords_only":false},"geometry":{"type":"MultiPolygon","coordinates":[[[[-42.87327,-15.15226],[-42.87169,-15.15226],[-42.87008,-15.14947],[-42.87091,-15.14915],[-42.87327,-15.15226]]]]}},{"type":"Feature","properties":{"territory_id":"mg-3142908-rebentao","name":"Rebentao","municipality_id":"mg-3142908","polling_places":1,"approx":true,"official":false,"method":"voronoi-polling-places","whole_municipality":false,"approx_coords_only":false},"geometry":{"type":"MultiPolygon","coordinates":[[[[-42.9378,-15.27701],[-42.93188,-15.27943],[-42.867,-15.25114],[-42.8591,-15.24166],[-42.87108,-15.23226],[-42.93333,-15.20807],[-42.93582,-15.24562],[-42.9378,-15.27701]]]]}},{"type":"Feature","properties":{"territory_id":"mg-3142908-riacho-seco","name":"Riacho Seco","municipality_id":"mg-3142908","polling_places":1,"approx":true,"official":false,"method":"voronoi-polling-places","whole_municipality":false,"approx_coords_only":false},"geometry":{"type":"MultiPolygon","coordinates":[[[[-42.87293,-15.17861],[-42.87108,-15.23226],[-42.8591,-15.24166],[-42.81002,-15.24189],[-42.8105,-15.2412],[-42.8025,-15.194],[-42.78387,-15.16821],[-42.87293,-15.17861]]]]}},{"type":"Feature","properties":{"territory_id":"mg-3142908-rio-das-gramas","name":"Rio das Gramas","municipality_id":"mg-3142908","polling_places":1,"approx":true,"official":false,"method":"voronoi-polling-places","whole_municipality":false,"approx_coords_only":false},"geometry":{"type":"MultiPolygon","coordinates":[[[[-42.85228,-15.32156],[-42.8313,-15.3236],[-42.7654,-15.3681],[-42.7656,-15.3829],[-42.7551,-15.3984],[-42.7555,-15.3972],[-42.7628,-15.3467],[-42.7901,-15.2702],[-42.80269,-15.2523],[-42.85228,-15.32156]]]]}},{"type":"Feature","properties":{"territory_id":"mg-3142908-sao-geraldo","name":"Sao Geraldo","municipality_id":"mg-3142908","polling_places":1,"approx":true,"official":false,"method":"voronoi-polling-places","whole_municipality":false,"approx_coords_only":false},"geometry":{"type":"MultiPolygon","coordinates":[[[[-42.91502,-15.16429],[-42.87585,-15.17658],[-42.86883,-15.16069],[-42.87432,-15.15479],[-42.87518,-15.1545],[-42.88108,-15.15437],[-42.91502,-15.16429]]]]}},{"type":"Feature","properties":{"territory_id":"mg-3142908-sao-jose","name":"Sao Jose","municipality_id":"mg-3142908","polling_places":1,"approx":true,"official":false,"method":"voronoi-polling-places","whole_municipality":false,"approx_coords_only":false},"geometry":{"type":"MultiPolygon","coordinates":[[[[-42.92114,-15.16327],[-42.91502,-15.16429],[-42.88108,-15.15437],[-42.87325,-15.14699],[-42.87809,-15.09932],[-42.8888,-15.08946],[-42.90614,-15.09259],[-42.92114,-15.16327]]]]}},{"type":"Feature","properties":{"territory_id":"mg-3142908-sao-pedro","name":"Sao Pedro","municipality_id":"mg-3142908","polling_places":1,"approx":true,"official":false,"method":"voronoi-polling-places","whole_municipality":false,"approx_coords_only":false},"geometry":{"type":"MultiPolygon","coordinates":[[[[-42.86832,-15.06822],[-42.8089,-15.07943],[-42.8252,-15.0373],[-42.85867,-15.03845],[-42.86832,-15.06822]]]]}},{"type":"Feature","properties":{"territory_id":"mg-3142908-sao-sebastiao","name":"Sao Sebastiao","municipality_id":"mg-3142908","polling_places":1,"approx":true,"official":false,"method":"voronoi-polling-places","whole_municipality":false,"approx_coords_only":false},"geometry":{"type":"MultiPolygon","coordinates":[[[[-42.87169,-15.15226],[-42.87079,-15.15383],[-42.86714,-15.15302],[-42.86844,-15.15005],[-42.87008,-15.14947],[-42.87169,-15.15226]]]]}},{"type":"Feature","properties":{"territory_id":"mg-3142908-soco-velho","name":"Soco Velho","municipality_id":"mg-3142908","polling_places":1,"approx":true,"official":false,"method":"voronoi-polling-places","whole_municipality":false,"approx_coords_only":false},"geometry":{"type":"MultiPolygon","coordinates":[[[[-43.17433,-15.14801],[-43.17001,-15.23487],[-43.05246,-15.24184],[-43.02889,-15.23312],[-43.01961,-15.20686],[-43.0409,-15.16374],[-43.041,-15.1673],[-43.1018,-15.1856],[-43.1415,-15.1706],[-43.1658,-15.146],[-43.17433,-15.14801]]]]}}]}