{"type":"FeatureCollection","features":[{"type":"Feature","properties":{"territory_id":"mg-3143450-centro","name":"Centro","municipality_id":"mg-3143450","polling_places":1,"approx":true,"official":false,"method":"voronoi-polling-places","whole_municipality":false,"approx_coords_only":false},"geometry":{"type":"MultiPolygon","coordinates":[[[[-42.54703,-15.16964],[-42.46216,-15.17554],[-42.47828,-15.01433],[-42.479,-15.0142],[-42.49125,-15.00375],[-42.52051,-15.04646],[-42.54703,-15.16964]]]]}},{"type":"Feature","properties":{"territory_id":"mg-3143450-planalto","name":"Planalto","municipality_id":"mg-3143450","polling_places":1,"approx":true,"official":false,"method":"voronoi-polling-places","whole_municipality":false,"approx_coords_only":false},"geometry":{"type":"MultiPolygon","coordinates":[[[[-42.54709,-15.16982],[-42.50246,-15.21758],[-42.45462,-15.21083],[-42.46216,-15.17554],[-42.54703,-15.16964],[-42.54709,-15.16982]]]]}},{"type":"Feature","properties":{"territory_id":"mg-3143450-zona-rural","name":"Zona Rural","municipality_id":"mg-3143450","polling_places":11,"approx":true,"official":false,"method":"voronoi-polling-places","whole_municipality":false,"approx_coords_only":false},"geometry":{"type":"MultiPolygon","coordinates":[[[[-42.6565,-15.037],[-42.6421,-15.0532],[-42.644,-15.1139],[-42.6561,-15.1679],[-42.617,-15.1927],[-42.6182,-15.2444],[-42.5672,-15.2389],[-42.5202,-15.3218],[-42.5168,-15.429],[-42.4386,-15.4192],[-42.407,-15.3895],[-42.3788,-15.3431],[-42.3491,-15.3148],[-42.3514,-15.2828],[-42.3367,-15.2016],[-42.2725,-15.1922],[-42.2567,-15.1609],[-42.2656,-15.125],[-42.2776,-15.1137],[-42.3237,-15.0936],[-42.3549,-15.0982],[-42.3719,-15.0736],[-42.4011,-15.0772],[-42.4429,-15.0613],[-42.4436,-15.0206],[-42.47828,-15.01433],[-42.46216,-15.17554],[-42.45462,-15.21083],[-42.50246,-15.21758],[-42.54709,-15.16982],[-42.54703,-15.16964],[-42.52051,-15.04646],[-42.49125,-15.00375],[-42.5157,-14.9829],[-42.5679,-15.0241],[-42.5991,-15.064],[-42.6565,-15.037]]]]}}]}