{"type":"FeatureCollection","features":[{"type":"Feature","properties":{"territory_id":"mg-3143203-centro","name":"Centro","municipality_id":"mg-3143203","polling_places":3,"approx":true,"official":false,"method":"voronoi-polling-places","whole_municipality":false,"approx_coords_only":false},"geometry":{"type":"MultiPolygon","coordinates":[[[[-47.1185,-21.1859],[-47.0919,-21.22059],[-46.97493,-21.25562],[-46.87771,-21.28903],[-46.8648,-21.2584],[-46.83721,-21.21527],[-46.97489,-21.18909],[-46.98405,-21.12679],[-47.1176,-21.1532],[-47.1185,-21.1859]]]]}},{"type":"Feature","properties":{"territory_id":"mg-3143203-chacara-do-trevo","name":"Chacara do Trevo","municipality_id":"mg-3143203","polling_places":1,"approx":true,"official":false,"method":"voronoi-polling-places","whole_municipality":false,"approx_coords_only":false},"geometry":{"type":"MultiPolygon","coordinates":[[[[-47.0919,-21.22059],[-47.0761,-21.2412],[-47.0442,-21.2674],[-47.0165,-21.3424],[-46.9967,-21.3573],[-46.9673,-21.2819],[-46.9427,-21.2913],[-46.8785,-21.2909],[-46.87771,-21.28903],[-46.97493,-21.25562],[-47.0919,-21.22059]]]]}},{"type":"Feature","properties":{"territory_id":"mg-3143203-jardim-santa-herminia","name":"Jardim Santa Herminia","municipality_id":"mg-3143203","polling_places":1,"approx":true,"official":false,"method":"voronoi-polling-places","whole_municipality":false,"approx_coords_only":false},"geometry":{"type":"MultiPolygon","coordinates":[[[[-46.98405,-21.12679],[-46.97489,-21.18909],[-46.83721,-21.21527],[-46.8121,-21.176],[-46.7854,-21.1519],[-46.812,-21.0846],[-46.8359,-21.0879],[-46.8679,-21.0524],[-46.8919,-21.0654],[-46.9354,-21.0619],[-46.9626,-21.0873],[-46.9826,-21.1265],[-46.98405,-21.12679]]]]}}]}