{"type":"FeatureCollection","features":[{"type":"Feature","properties":{"territory_id":"mg-3143005-centro","name":"Centro","municipality_id":"mg-3143005","polling_places":3,"approx":true,"official":false,"method":"voronoi-polling-places","whole_municipality":false,"approx_coords_only":false},"geometry":{"type":"MultiPolygon","coordinates":[[[[-46.4455,-21.3897],[-46.4124,-21.3977],[-46.38478,-21.38775],[-46.2921,-21.32304],[-46.29404,-21.32098],[-46.3011,-21.31248],[-46.40903,-21.29429],[-46.4455,-21.3897]]]]}},{"type":"Feature","properties":{"territory_id":"mg-3143005-jureia","name":"Juréia","municipality_id":"mg-3143005","polling_places":1,"approx":true,"official":false,"method":"voronoi-polling-places","whole_municipality":false,"approx_coords_only":false},"geometry":{"type":"MultiPolygon","coordinates":[[[[-46.4155,-21.195],[-46.4115,-21.2472],[-46.4009,-21.273],[-46.40903,-21.29429],[-46.3011,-21.31248],[-46.35915,-21.18172],[-46.4155,-21.195]]]]}},{"type":"Feature","properties":{"territory_id":"mg-3143005-posses-da-serra-zona-rural","name":"Posses da Serra Zona Rural","municipality_id":"mg-3143005","polling_places":1,"approx":true,"official":false,"method":"voronoi-polling-places","whole_municipality":false,"approx_coords_only":false},"geometry":{"type":"MultiPolygon","coordinates":[[[[-46.38478,-21.38775],[-46.3577,-21.378],[-46.3388,-21.4171],[-46.3064,-21.4141],[-46.2828,-21.4317],[-46.2404,-21.4217],[-46.2064,-21.3561],[-46.21988,-21.3442],[-46.2921,-21.32304],[-46.38478,-21.38775]]]]}},{"type":"Feature","properties":{"territory_id":"mg-3143005-santa-cruz-da-aparecida","name":"Santa Cruz da Aparecida","municipality_id":"mg-3143005","polling_places":1,"approx":true,"official":false,"method":"voronoi-polling-places","whole_municipality":false,"approx_coords_only":false},"geometry":{"type":"MultiPolygon","coordinates":[[[[-46.35915,-21.18172],[-46.3011,-21.31248],[-46.29404,-21.32098],[-46.2921,-21.32304],[-46.21988,-21.3442],[-46.2422,-21.3245],[-46.2405,-21.2566],[-46.2598,-21.2567],[-46.2929,-21.2177],[-46.3339,-21.2031],[-46.3493,-21.1794],[-46.35915,-21.18172]]]]}}]}