{"type":"FeatureCollection","features":[{"type":"Feature","properties":{"territory_id":"mg-3143906-aeroporto","name":"Aeroporto","municipality_id":"mg-3143906","polling_places":1,"approx":true,"official":false,"method":"voronoi-polling-places","whole_municipality":false,"approx_coords_only":false},"geometry":{"type":"MultiPolygon","coordinates":[[[[-42.41138,-21.08723],[-42.39569,-21.13139],[-42.38678,-21.1278],[-42.38645,-21.12694],[-42.38587,-21.12429],[-42.40639,-21.0804],[-42.4097,-21.08098],[-42.41138,-21.08723]]]]}},{"type":"Feature","properties":{"territory_id":"mg-3143906-barra","name":"Barra","municipality_id":"mg-3143906","polling_places":5,"approx":true,"official":false,"method":"voronoi-polling-places","whole_municipality":false,"approx_coords_only":false},"geometry":{"type":"MultiPolygon","coordinates":[[[[-42.38678,-21.1278],[-42.38481,-21.13197],[-42.38484,-21.13396],[-42.38346,-21.13914],[-42.37895,-21.13431],[-42.37967,-21.1311],[-42.37938,-21.13074],[-42.37532,-21.13077],[-42.37396,-21.12819],[-42.37409,-21.1263],[-42.37321,-21.12119],[-42.38095,-21.12413],[-42.38587,-21.12429],[-42.38645,-21.12694],[-42.38678,-21.1278]]]]}},{"type":"Feature","properties":{"territory_id":"mg-3143906-belisario","name":"Belisário","municipality_id":"mg-3143906","polling_places":1,"approx":true,"official":false,"method":"voronoi-polling-places","whole_municipality":false,"approx_coords_only":false},"geometry":{"type":"MultiPolygon","coordinates":[[[[-42.5661,-20.9221],[-42.4976,-20.9442],[-42.4894,-20.9582],[-42.4271,-20.9557],[-42.42408,-20.97615],[-42.40104,-20.94725],[-42.4164,-20.9439],[-42.4411,-20.8758],[-42.514,-20.867],[-42.5661,-20.9221]]]]}},{"type":"Feature","properties":{"territory_id":"mg-3143906-boa-familia","name":"Boa Família","municipality_id":"mg-3143906","polling_places":1,"approx":true,"official":false,"method":"voronoi-polling-places","whole_municipality":false,"approx_coords_only":false},"geometry":{"type":"MultiPolygon","coordinates":[[[[-42.54005,-21.16153],[-42.522,-21.1725],[-42.5288,-21.2027],[-42.5329,-21.2301],[-42.47799,-21.26101],[-42.48194,-21.17759],[-42.54005,-21.16153]]]]}},{"type":"Feature","properties":{"territory_id":"mg-3143906-bom-jesus-da-cachoeira","name":"Bom Jesus da Cachoeira","municipality_id":"mg-3143906","polling_places":1,"approx":true,"official":false,"method":"voronoi-polling-places","whole_municipality":false,"approx_coords_only":false},"geometry":{"type":"MultiPolygon","coordinates":[[[[-42.4702,-21.26539],[-42.4629,-21.2695],[-42.4182,-21.2595],[-42.3991,-21.3006],[-42.3638,-21.3064],[-42.3314,-21.2721],[-42.363,-21.2176],[-42.34747,-21.21441],[-42.39185,-21.2013],[-42.4702,-21.26539]]]]}},{"type":"Feature","properties":{"territory_id":"mg-3143906-capetinga","name":"Capetinga","municipality_id":"mg-3143906","polling_places":1,"approx":true,"official":false,"method":"voronoi-polling-places","whole_municipality":false,"approx_coords_only":false},"geometry":{"type":"MultiPolygon","coordinates":[[[[-42.47357,-21.01139],[-42.45363,-21.05878],[-42.4097,-21.08098],[-42.40639,-21.0804],[-42.36497,-21.06756],[-42.35618,-21.04264],[-42.42365,-20.98247],[-42.4612,-21.0138],[-42.47357,-21.01139]]]]}},{"type":"Feature","properties":{"territory_id":"mg-3143906-cardoso-de-melo","name":"Cardoso de Melo","municipality_id":"mg-3143906","polling_places":1,"approx":true,"official":false,"method":"voronoi-polling-places","whole_municipality":false,"approx_coords_only":false},"geometry":{"type":"MultiPolygon","coordinates":[[[[-42.42219,-21.11347],[-42.40049,-21.1348],[-42.39596,-21.13237],[-42.39569,-21.13139],[-42.41138,-21.08723],[-42.42219,-21.11347]]]]}},{"type":"Feature","properties":{"territory_id":"mg-3143906-centro","name":"Centro","municipality_id":"mg-3143906","polling_places":5,"approx":true,"official":false,"method":"voronoi-polling-places","whole_municipality":false,"approx_coords_only":false},"geometry":{"type":"MultiPolygon","coordinates":[[[[-42.37409,-21.1263],[-42.37396,-21.12819],[-42.37,-21.1311],[-42.36927,-21.13459],[-42.36938,-21.13484],[-42.36897,-21.13838],[-42.36487,-21.13842],[-42.36242,-21.13299],[-42.36223,-21.13288],[-42.36429,-21.1291],[-42.36531,-21.1258],[-42.36592,-21.12533],[-42.37004,-21.11688],[-42.37321,-21.12119],[-42.37409,-21.1263]]]]}},{"type":"Feature","properties":{"territory_id":"mg-3143906-ceramica","name":"Cerâmica","municipality_id":"mg-3143906","polling_places":1,"approx":true,"official":false,"method":"voronoi-polling-places","whole_municipality":false,"approx_coords_only":false},"geometry":{"type":"MultiPolygon","coordinates":[[[[-42.37532,-21.13077],[-42.37513,-21.13222],[-42.37298,-21.13398],[-42.36938,-21.13484],[-42.36927,-21.13459],[-42.37,-21.1311],[-42.37396,-21.12819],[-42.37532,-21.13077]]]]}},{"type":"Feature","properties":{"territory_id":"mg-3143906-chacara-dr-brum","name":"Chácara Dr. Brum","municipality_id":"mg-3143906","polling_places":1,"approx":true,"official":false,"method":"voronoi-polling-places","whole_municipality":false,"approx_coords_only":false},"geometry":{"type":"MultiPolygon","coordinates":[[[[-42.36531,-21.1258],[-42.36429,-21.1291],[-42.36223,-21.13288],[-42.3602,-21.13295],[-42.35969,-21.13225],[-42.35846,-21.1274],[-42.36531,-21.1258]]]]}},{"type":"Feature","properties":{"territory_id":"mg-3143906-dornelas","name":"Dornelas","municipality_id":"mg-3143906","polling_places":2,"approx":true,"official":false,"method":"voronoi-polling-places","whole_municipality":false,"approx_coords_only":false},"geometry":{"type":"MultiPolygon","coordinates":[[[[-42.39596,-21.13237],[-42.3943,-21.13443],[-42.38586,-21.15072],[-42.38405,-21.14731],[-42.38346,-21.13914],[-42.38484,-21.13396],[-42.38481,-21.13197],[-42.38678,-21.1278],[-42.39569,-21.13139],[-42.39596,-21.13237]]]]}},{"type":"Feature","properties":{"territory_id":"mg-3143906-encoberta","name":"Encoberta","municipality_id":"mg-3143906","polling_places":1,"approx":true,"official":false,"method":"voronoi-polling-places","whole_municipality":false,"approx_coords_only":false},"geometry":{"type":"MultiPolygon","coordinates":[[[[-42.35351,-21.1335],[-42.34204,-21.14806],[-42.34831,-21.13132],[-42.3503,-21.13031],[-42.35225,-21.13057],[-42.35351,-21.1335]]]]}},{"type":"Feature","properties":{"territory_id":"mg-3143906-gaspar","name":"Gaspar","municipality_id":"mg-3143906","polling_places":1,"approx":true,"official":false,"method":"voronoi-polling-places","whole_municipality":false,"approx_coords_only":false},"geometry":{"type":"MultiPolygon","coordinates":[[[[-42.40639,-21.0804],[-42.38587,-21.12429],[-42.38095,-21.12413],[-42.37321,-21.12119],[-42.37004,-21.11688],[-42.36199,-21.0716],[-42.36497,-21.06756],[-42.40639,-21.0804]]]]}},{"type":"Feature","properties":{"territory_id":"mg-3143906-inconfidencia-i","name":"Inconfidência I","municipality_id":"mg-3143906","polling_places":1,"approx":true,"official":false,"method":"voronoi-polling-places","whole_municipality":false,"approx_coords_only":false},"geometry":{"type":"MultiPolygon","coordinates":[[[[-42.3505,-21.12742],[-42.3503,-21.13031],[-42.34831,-21.13132],[-42.32658,-21.09955],[-42.34313,-21.08876],[-42.34871,-21.10646],[-42.3505,-21.12742]]]]}},{"type":"Feature","properties":{"territory_id":"mg-3143906-itamuri","name":"Itamuri","municipality_id":"mg-3143906","polling_places":1,"approx":true,"official":false,"method":"voronoi-polling-places","whole_municipality":false,"approx_coords_only":false},"geometry":{"type":"MultiPolygon","coordinates":[[[[-42.42408,-20.97615],[-42.4232,-20.9821],[-42.42365,-20.98247],[-42.35618,-21.04264],[-42.30138,-20.99786],[-42.3481,-20.9588],[-42.40104,-20.94725],[-42.42408,-20.97615]]]]}},{"type":"Feature","properties":{"territory_id":"mg-3143906-joanopolis","name":"Joanópolis","municipality_id":"mg-3143906","polling_places":1,"approx":true,"official":false,"method":"voronoi-polling-places","whole_municipality":false,"approx_coords_only":false},"geometry":{"type":"MultiPolygon","coordinates":[[[[-42.42525,-21.17069],[-42.39489,-21.19712],[-42.38586,-21.15072],[-42.3943,-21.13443],[-42.39596,-21.13237],[-42.40049,-21.1348],[-42.42525,-21.17069]]]]}},{"type":"Feature","properties":{"territory_id":"mg-3143906-joao-xxiii","name":"João Xxiii","municipality_id":"mg-3143906","polling_places":1,"approx":true,"official":false,"method":"voronoi-polling-places","whole_municipality":false,"approx_coords_only":false},"geometry":{"type":"MultiPolygon","coordinates":[[[[-42.39489,-21.19712],[-42.39185,-21.2013],[-42.34747,-21.21441],[-42.33849,-21.21256],[-42.36976,-21.13958],[-42.37569,-21.14107],[-42.38405,-21.14731],[-42.38586,-21.15072],[-42.39489,-21.19712]]]]}},{"type":"Feature","properties":{"territory_id":"mg-3143906-macuco","name":"Macuco","municipality_id":"mg-3143906","polling_places":1,"approx":true,"official":false,"method":"voronoi-polling-places","whole_municipality":false,"approx_coords_only":false},"geometry":{"type":"MultiPolygon","coordinates":[[[[-42.5521,-21.1542],[-42.54005,-21.16153],[-42.48194,-21.17759],[-42.44779,-21.157],[-42.48323,-21.1036],[-42.51386,-21.10967],[-42.5232,-21.1324],[-42.5521,-21.1542]]]]}},{"type":"Feature","properties":{"territory_id":"mg-3143906-padre-tiago","name":"Padre Tiago","municipality_id":"mg-3143906","polling_places":1,"approx":true,"official":false,"method":"voronoi-polling-places","whole_municipality":false,"approx_coords_only":false},"geometry":{"type":"MultiPolygon","coordinates":[[[[-42.34831,-21.13132],[-42.34204,-21.14806],[-42.32085,-21.18999],[-42.2988,-21.1226],[-42.29828,-21.1154],[-42.32658,-21.09955],[-42.34831,-21.13132]]]]}},{"type":"Feature","properties":{"territory_id":"mg-3143906-pirapanema","name":"Pirapanema","municipality_id":"mg-3143906","polling_places":1,"approx":true,"official":false,"method":"voronoi-polling-places","whole_municipality":false,"approx_coords_only":false},"geometry":{"type":"MultiPolygon","coordinates":[[[[-42.5534,-21.0688],[-42.5052,-21.0886],[-42.51386,-21.10967],[-42.48323,-21.1036],[-42.45363,-21.05878],[-42.47357,-21.01139],[-42.5151,-21.0033],[-42.5466,-21.044],[-42.5534,-21.0688]]]]}},{"type":"Feature","properties":{"territory_id":"mg-3143906-planalto","name":"Planalto","municipality_id":"mg-3143906","polling_places":1,"approx":true,"official":false,"method":"voronoi-polling-places","whole_municipality":false,"approx_coords_only":false},"geometry":{"type":"MultiPolygon","coordinates":[[[[-42.38405,-21.14731],[-42.37569,-21.14107],[-42.37563,-21.13706],[-42.37692,-21.13426],[-42.37895,-21.13431],[-42.38346,-21.13914],[-42.38405,-21.14731]]]]}},{"type":"Feature","properties":{"territory_id":"mg-3143906-porto","name":"Porto","municipality_id":"mg-3143906","polling_places":2,"approx":true,"official":false,"method":"voronoi-polling-places","whole_municipality":false,"approx_coords_only":false},"geometry":{"type":"MultiPolygon","coordinates":[[[[-42.35673,-21.12623],[-42.35492,-21.12835],[-42.35486,-21.12843],[-42.35428,-21.12919],[-42.35225,-21.13057],[-42.3503,-21.13031],[-42.3505,-21.12742],[-42.34871,-21.10646],[-42.35673,-21.12623]]]]}},{"type":"Feature","properties":{"territory_id":"mg-3143906-safira","name":"Safira","municipality_id":"mg-3143906","polling_places":3,"approx":true,"official":false,"method":"voronoi-polling-places","whole_municipality":false,"approx_coords_only":false},"geometry":{"type":"MultiPolygon","coordinates":[[[[-42.37967,-21.1311],[-42.37895,-21.13431],[-42.37692,-21.13426],[-42.37563,-21.13706],[-42.37569,-21.14107],[-42.36976,-21.13958],[-42.36897,-21.13838],[-42.36938,-21.13484],[-42.37298,-21.13398],[-42.37513,-21.13222],[-42.37532,-21.13077],[-42.37938,-21.13074],[-42.37967,-21.1311]]]]}},{"type":"Feature","properties":{"territory_id":"mg-3143906-santa-terezinha","name":"Santa Terezinha","municipality_id":"mg-3143906","polling_places":3,"approx":true,"official":false,"method":"voronoi-polling-places","whole_municipality":false,"approx_coords_only":false},"geometry":{"type":"MultiPolygon","coordinates":[[[[-42.35969,-21.13225],[-42.35673,-21.13229],[-42.35576,-21.13237],[-42.35436,-21.13352],[-42.35351,-21.1335],[-42.35225,-21.13057],[-42.35428,-21.12919],[-42.35486,-21.12843],[-42.35492,-21.12835],[-42.35673,-21.12623],[-42.35846,-21.1274],[-42.35969,-21.13225]]]]}},{"type":"Feature","properties":{"territory_id":"mg-3143906-santana","name":"Santana","municipality_id":"mg-3143906","polling_places":1,"approx":true,"official":false,"method":"voronoi-polling-places","whole_municipality":false,"approx_coords_only":false},"geometry":{"type":"MultiPolygon","coordinates":[[[[-42.44593,-21.1571],[-42.42525,-21.17069],[-42.40049,-21.1348],[-42.42219,-21.11347],[-42.44593,-21.1571]]]]}},{"type":"Feature","properties":{"territory_id":"mg-3143906-sao-cristovao","name":"São Cristóvão","municipality_id":"mg-3143906","polling_places":2,"approx":true,"official":false,"method":"voronoi-polling-places","whole_municipality":false,"approx_coords_only":false},"geometry":{"type":"MultiPolygon","coordinates":[[[[-42.3602,-21.13295],[-42.35946,-21.13463],[-42.35706,-21.13629],[-42.32328,-21.19742],[-42.32085,-21.18999],[-42.34204,-21.14806],[-42.35351,-21.1335],[-42.35436,-21.13352],[-42.35576,-21.13237],[-42.35673,-21.13229],[-42.35969,-21.13225],[-42.3602,-21.13295]]]]}},{"type":"Feature","properties":{"territory_id":"mg-3143906-sao-fernando","name":"São Fernando","municipality_id":"mg-3143906","polling_places":1,"approx":true,"official":false,"method":"voronoi-polling-places","whole_municipality":false,"approx_coords_only":false},"geometry":{"type":"MultiPolygon","coordinates":[[[[-42.48194,-21.17759],[-42.47799,-21.26101],[-42.4702,-21.26539],[-42.39185,-21.2013],[-42.39489,-21.19712],[-42.42525,-21.17069],[-42.44593,-21.1571],[-42.44779,-21.157],[-42.48194,-21.17759]]]]}},{"type":"Feature","properties":{"territory_id":"mg-3143906-sao-francisco","name":"São Francisco","municipality_id":"mg-3143906","polling_places":2,"approx":true,"official":false,"method":"voronoi-polling-places","whole_municipality":false,"approx_coords_only":false},"geometry":{"type":"MultiPolygon","coordinates":[[[[-42.36487,-21.13842],[-42.36213,-21.13985],[-42.3243,-21.20051],[-42.32328,-21.19742],[-42.35706,-21.13629],[-42.35946,-21.13463],[-42.3602,-21.13295],[-42.36223,-21.13288],[-42.36242,-21.13299],[-42.36487,-21.13842]]]]}},{"type":"Feature","properties":{"territory_id":"mg-3143906-sao-gotardo","name":"São Gotardo","municipality_id":"mg-3143906","polling_places":1,"approx":true,"official":false,"method":"voronoi-polling-places","whole_municipality":false,"approx_coords_only":false},"geometry":{"type":"MultiPolygon","coordinates":[[[[-42.36976,-21.13958],[-42.33849,-21.21256],[-42.3275,-21.2103],[-42.3243,-21.20051],[-42.36213,-21.13985],[-42.36487,-21.13842],[-42.36897,-21.13838],[-42.36976,-21.13958]]]]}},{"type":"Feature","properties":{"territory_id":"mg-3143906-sao-joao-do-gloria","name":"São João do Glória","municipality_id":"mg-3143906","polling_places":1,"approx":true,"official":false,"method":"voronoi-polling-places","whole_municipality":false,"approx_coords_only":false},"geometry":{"type":"MultiPolygon","coordinates":[[[[-42.36497,-21.06756],[-42.36199,-21.0716],[-42.34313,-21.08876],[-42.32658,-21.09955],[-42.29828,-21.1154],[-42.2963,-21.088],[-42.2539,-21.0511],[-42.3026,-21.0184],[-42.2987,-21.0001],[-42.30138,-20.99786],[-42.35618,-21.04264],[-42.36497,-21.06756]]]]}},{"type":"Feature","properties":{"territory_id":"mg-3143906-sao-pedro","name":"São Pedro","municipality_id":"mg-3143906","polling_places":1,"approx":true,"official":false,"method":"voronoi-polling-places","whole_municipality":false,"approx_coords_only":false},"geometry":{"type":"MultiPolygon","coordinates":[[[[-42.37004,-21.11688],[-42.36592,-21.12533],[-42.36531,-21.1258],[-42.35846,-21.1274],[-42.35673,-21.12623],[-42.34871,-21.10646],[-42.34313,-21.08876],[-42.36199,-21.0716],[-42.37004,-21.11688]]]]}},{"type":"Feature","properties":{"territory_id":"mg-3143906-vermelho","name":"Vermelho","municipality_id":"mg-3143906","polling_places":1,"approx":true,"official":false,"method":"voronoi-polling-places","whole_municipality":false,"approx_coords_only":false},"geometry":{"type":"MultiPolygon","coordinates":[[[[-42.48323,-21.1036],[-42.44779,-21.157],[-42.44593,-21.1571],[-42.42219,-21.11347],[-42.41138,-21.08723],[-42.4097,-21.08098],[-42.45363,-21.05878],[-42.48323,-21.1036]]]]}}]}