{"type":"FeatureCollection","features":[{"type":"Feature","properties":{"territory_id":"mg-3143500-cacimbas","name":"Cacimbas","municipality_id":"mg-3143500","polling_places":1,"approx":true,"official":false,"method":"voronoi-polling-places","whole_municipality":false,"approx_coords_only":false},"geometry":{"type":"MultiPolygon","coordinates":[[[[-45.6391,-18.665],[-45.59703,-18.66724],[-45.6387,-18.65309],[-45.6391,-18.665]]],[[[-45.46221,-18.71392],[-45.4531,-18.731],[-45.4059,-18.7352],[-45.38773,-18.75394],[-45.38846,-18.74021],[-45.46221,-18.71392]]],[[[-45.4616,-18.8735],[-45.4222,-18.8704],[-45.38081,-18.88405],[-45.38668,-18.77359],[-45.4128,-18.8215],[-45.4502,-18.8473],[-45.4616,-18.8735]]]]}},{"type":"Feature","properties":{"territory_id":"mg-3143500-centro","name":"Centro","municipality_id":"mg-3143500","polling_places":3,"approx":true,"official":false,"method":"voronoi-polling-places","whole_municipality":false,"approx_coords_only":false},"geometry":{"type":"MultiPolygon","coordinates":[[[[-45.6387,-18.65309],[-45.59703,-18.66724],[-45.5658,-18.6689],[-45.4684,-18.7023],[-45.46221,-18.71392],[-45.38846,-18.74021],[-45.2982,-18.72497],[-45.21879,-18.68061],[-45.2457,-18.6359],[-45.2375,-18.5934],[-45.2203,-18.542],[-45.295,-18.4915],[-45.33329,-18.47994],[-45.6206,-18.58101],[-45.6372,-18.609],[-45.6387,-18.65309]]]]}},{"type":"Feature","properties":{"territory_id":"mg-3143500-frei-orlando","name":"Frei Orlando","municipality_id":"mg-3143500","polling_places":1,"approx":true,"official":false,"method":"voronoi-polling-places","whole_municipality":false,"approx_coords_only":false},"geometry":{"type":"MultiPolygon","coordinates":[[[[-45.2982,-18.72497],[-45.26425,-18.87994],[-45.2613,-18.8785],[-45.1843,-18.8755],[-45.1627,-18.8581],[-45.1859,-18.8095],[-45.2021,-18.7817],[-45.1896,-18.7291],[-45.21879,-18.68061],[-45.2982,-18.72497]]]]}},{"type":"Feature","properties":{"territory_id":"mg-3143500-tracadal","name":"Traçadal","municipality_id":"mg-3143500","polling_places":1,"approx":true,"official":false,"method":"voronoi-polling-places","whole_municipality":false,"approx_coords_only":false},"geometry":{"type":"MultiPolygon","coordinates":[[[[-45.6448,-18.482],[-45.6225,-18.522],[-45.6155,-18.5724],[-45.6206,-18.58101],[-45.33329,-18.47994],[-45.3523,-18.4742],[-45.3582,-18.447],[-45.3035,-18.4126],[-45.2837,-18.3535],[-45.3159,-18.3088],[-45.287,-18.27],[-45.2631,-18.2603],[-45.2673,-18.2209],[-45.3186,-18.2207],[-45.3441,-18.259],[-45.407,-18.3174],[-45.5082,-18.3163],[-45.5738,-18.3572],[-45.5765,-18.3714],[-45.6283,-18.4184],[-45.6448,-18.482]]]]}},{"type":"Feature","properties":{"territory_id":"mg-3143500-vau-das-flores","name":"Vau das Flores","municipality_id":"mg-3143500","polling_places":1,"approx":true,"official":false,"method":"voronoi-polling-places","whole_municipality":false,"approx_coords_only":false},"geometry":{"type":"MultiPolygon","coordinates":[[[[-45.38846,-18.74021],[-45.38773,-18.75394],[-45.3802,-18.7617],[-45.38668,-18.77359],[-45.38081,-18.88405],[-45.3164,-18.9053],[-45.26425,-18.87994],[-45.2982,-18.72497],[-45.38846,-18.74021]]]]}}]}