{"type":"FeatureCollection","features":[{"type":"Feature","properties":{"territory_id":"mg-3143807-centro","name":"Centro","municipality_id":"mg-3143807","polling_places":2,"approx":true,"official":false,"method":"voronoi-polling-places","whole_municipality":false,"approx_coords_only":false},"geometry":{"type":"MultiPolygon","coordinates":[[[[-46.4243,-22.5994],[-46.3931,-22.663],[-46.351,-22.6686],[-46.32364,-22.68356],[-46.28535,-22.58722],[-46.2962,-22.5787],[-46.3656,-22.602],[-46.3916,-22.5825],[-46.4243,-22.5994]]]]}},{"type":"Feature","properties":{"territory_id":"mg-3143807-ribeirao-fundo","name":"Ribeirao Fundo","municipality_id":"mg-3143807","polling_places":1,"approx":true,"official":false,"method":"voronoi-polling-places","whole_municipality":false,"approx_coords_only":false},"geometry":{"type":"MultiPolygon","coordinates":[[[[-46.32364,-22.68356],[-46.3082,-22.692],[-46.2874,-22.6923],[-46.1585,-22.6156],[-46.2766,-22.5941],[-46.28535,-22.58722],[-46.32364,-22.68356]]]]}}]}