{"type":"FeatureCollection","features":[{"type":"Feature","properties":{"territory_id":"mg-3143302-acacias","name":"Acácias","municipality_id":"mg-3143302","polling_places":1,"approx":true,"official":false,"method":"voronoi-polling-places","whole_municipality":false,"approx_coords_only":false},"geometry":{"type":"MultiPolygon","coordinates":[[[[-43.82462,-16.73032],[-43.7958,-16.74368],[-43.8176,-16.71869],[-43.82177,-16.71696],[-43.82462,-16.73032]]]]}},{"type":"Feature","properties":{"territory_id":"mg-3143302-alterosa","name":"Alterosa","municipality_id":"mg-3143302","polling_places":1,"approx":true,"official":false,"method":"voronoi-polling-places","whole_municipality":false,"approx_coords_only":false},"geometry":{"type":"MultiPolygon","coordinates":[[[[-43.86729,-16.78712],[-43.86048,-16.79516],[-43.85276,-16.76637],[-43.85288,-16.76627],[-43.85984,-16.76596],[-43.86161,-16.76647],[-43.86729,-16.78712]]]]}},{"type":"Feature","properties":{"territory_id":"mg-3143302-alto-sao-joao","name":"Alto São João","municipality_id":"mg-3143302","polling_places":2,"approx":true,"official":false,"method":"voronoi-polling-places","whole_municipality":false,"approx_coords_only":false},"geometry":{"type":"MultiPolygon","coordinates":[[[[-43.86094,-16.71474],[-43.8596,-16.71567],[-43.85224,-16.71916],[-43.85152,-16.71884],[-43.84947,-16.7181],[-43.85068,-16.71066],[-43.85387,-16.70962],[-43.85421,-16.7096],[-43.85657,-16.711],[-43.85902,-16.71226],[-43.86094,-16.71474]]]]}},{"type":"Feature","properties":{"territory_id":"mg-3143302-aparecida-do-mundo-novo","name":"Aparecida do Mundo Novo","municipality_id":"mg-3143302","polling_places":1,"approx":true,"official":false,"method":"voronoi-polling-places","whole_municipality":false,"approx_coords_only":false},"geometry":{"type":"MultiPolygon","coordinates":[[[[-43.9926,-16.2085],[-43.98413,-16.227],[-43.96934,-16.22936],[-43.86564,-16.11147],[-43.8906,-16.1125],[-43.9691,-16.0867],[-43.9901,-16.1631],[-43.9926,-16.2085]]]]}},{"type":"Feature","properties":{"territory_id":"mg-3143302-augusta-mota","name":"Augusta Mota","municipality_id":"mg-3143302","polling_places":1,"approx":true,"official":false,"method":"voronoi-polling-places","whole_municipality":false,"approx_coords_only":false},"geometry":{"type":"MultiPolygon","coordinates":[[[[-43.9422,-16.73656],[-43.88057,-16.75406],[-43.87994,-16.75361],[-43.87991,-16.74664],[-43.90974,-16.7351],[-43.91254,-16.73446],[-43.9422,-16.73656]]]]}},{"type":"Feature","properties":{"territory_id":"mg-3143302-c-h-ciro-dos-anjos","name":"C. H. Ciro dos Anjos","municipality_id":"mg-3143302","polling_places":1,"approx":true,"official":false,"method":"voronoi-polling-places","whole_municipality":false,"approx_coords_only":false},"geometry":{"type":"MultiPolygon","coordinates":[[[[-43.87529,-16.75352],[-43.87291,-16.75782],[-43.87074,-16.76074],[-43.86457,-16.75559],[-43.8651,-16.75099],[-43.87084,-16.74954],[-43.87529,-16.75352]]]]}},{"type":"Feature","properties":{"territory_id":"mg-3143302-camilo-prates","name":"Camilo Prates","municipality_id":"mg-3143302","polling_places":1,"approx":true,"official":false,"method":"voronoi-polling-places","whole_municipality":false,"approx_coords_only":false},"geometry":{"type":"MultiPolygon","coordinates":[[[[-43.83258,-16.73323],[-43.82608,-16.74125],[-43.78007,-16.75397],[-43.7958,-16.74368],[-43.82462,-16.73032],[-43.8257,-16.7302],[-43.8316,-16.73204],[-43.83258,-16.73323]]]]}},{"type":"Feature","properties":{"territory_id":"mg-3143302-candida-camara","name":"Cândida Câmara","municipality_id":"mg-3143302","polling_places":1,"approx":true,"official":false,"method":"voronoi-polling-places","whole_municipality":false,"approx_coords_only":false},"geometry":{"type":"MultiPolygon","coordinates":[[[[-43.91254,-16.73446],[-43.90974,-16.7351],[-43.87718,-16.73916],[-43.87636,-16.73704],[-43.88123,-16.73062],[-43.89067,-16.72783],[-43.91254,-16.73446]]]]}},{"type":"Feature","properties":{"territory_id":"mg-3143302-canelas","name":"Canelas","municipality_id":"mg-3143302","polling_places":1,"approx":true,"official":false,"method":"voronoi-polling-places","whole_municipality":false,"approx_coords_only":false},"geometry":{"type":"MultiPolygon","coordinates":[[[[-43.87361,-16.74336],[-43.87084,-16.74954],[-43.8651,-16.75099],[-43.86378,-16.74972],[-43.86259,-16.74353],[-43.8688,-16.74054],[-43.87361,-16.74336]]]]}},{"type":"Feature","properties":{"territory_id":"mg-3143302-centro","name":"Centro","municipality_id":"mg-3143302","polling_places":4,"approx":true,"official":false,"method":"voronoi-polling-places","whole_municipality":false,"approx_coords_only":false},"geometry":{"type":"MultiPolygon","coordinates":[[[[-43.87312,-16.72325],[-43.87149,-16.72595],[-43.87109,-16.72851],[-43.86849,-16.72947],[-43.86635,-16.72747],[-43.86332,-16.72802],[-43.86122,-16.7268],[-43.86114,-16.72364],[-43.86315,-16.72097],[-43.86316,-16.71603],[-43.86903,-16.71843],[-43.87075,-16.722],[-43.87312,-16.72325]]]]}},{"type":"Feature","properties":{"territory_id":"mg-3143302-cidade-industrial","name":"Cidade Industrial","municipality_id":"mg-3143302","polling_places":1,"approx":true,"official":false,"method":"voronoi-polling-places","whole_municipality":false,"approx_coords_only":false},"geometry":{"type":"MultiPolygon","coordinates":[[[[-43.86737,-16.67506],[-43.86073,-16.68438],[-43.85815,-16.68646],[-43.85745,-16.6868],[-43.85707,-16.68678],[-43.84325,-16.68106],[-43.84021,-16.67465],[-43.83996,-16.6738],[-43.849,-16.66879],[-43.86737,-16.67506]]]]}},{"type":"Feature","properties":{"territory_id":"mg-3143302-cintra","name":"Cintra","municipality_id":"mg-3143302","polling_places":1,"approx":true,"official":false,"method":"voronoi-polling-places","whole_municipality":false,"approx_coords_only":false},"geometry":{"type":"MultiPolygon","coordinates":[[[[-43.85581,-16.72867],[-43.85007,-16.73251],[-43.84854,-16.73112],[-43.84785,-16.72899],[-43.85021,-16.72648],[-43.85396,-16.72522],[-43.85581,-16.72867]]]]}},{"type":"Feature","properties":{"territory_id":"mg-3143302-conjunto-chiquinho-guimaraes","name":"Conjunto Chiquinho Guimarães","municipality_id":"mg-3143302","polling_places":1,"approx":true,"official":false,"method":"voronoi-polling-places","whole_municipality":false,"approx_coords_only":false},"geometry":{"type":"MultiPolygon","coordinates":[[[[-43.881,-16.76068],[-43.87133,-16.76377],[-43.87074,-16.76074],[-43.87291,-16.75782],[-43.881,-16.76068]]]]}},{"type":"Feature","properties":{"territory_id":"mg-3143302-conjunto-jose-correia-machado","name":"Conjunto José Correia Machado","municipality_id":"mg-3143302","polling_places":1,"approx":true,"official":false,"method":"voronoi-polling-places","whole_municipality":false,"approx_coords_only":false},"geometry":{"type":"MultiPolygon","coordinates":[[[[-43.87493,-16.78054],[-43.86729,-16.78712],[-43.86161,-16.76647],[-43.864,-16.76454],[-43.87106,-16.76482],[-43.87493,-16.78054]]]]}},{"type":"Feature","properties":{"territory_id":"mg-3143302-cristo-rei","name":"Cristo Rei","municipality_id":"mg-3143302","polling_places":1,"approx":true,"official":false,"method":"voronoi-polling-places","whole_municipality":false,"approx_coords_only":false},"geometry":{"type":"MultiPolygon","coordinates":[[[[-43.8651,-16.75099],[-43.86457,-16.75559],[-43.8619,-16.7579],[-43.86031,-16.7583],[-43.85592,-16.75834],[-43.85342,-16.75472],[-43.85659,-16.75041],[-43.86378,-16.74972],[-43.8651,-16.75099]]]]}},{"type":"Feature","properties":{"territory_id":"mg-3143302-delfino-magalhaes","name":"Delfino Magalhães","municipality_id":"mg-3143302","polling_places":3,"approx":true,"official":false,"method":"voronoi-polling-places","whole_municipality":false,"approx_coords_only":false},"geometry":{"type":"MultiPolygon","coordinates":[[[[-43.84497,-16.74045],[-43.84246,-16.74177],[-43.84166,-16.74204],[-43.83575,-16.74489],[-43.83455,-16.74363],[-43.83373,-16.74076],[-43.83378,-16.73955],[-43.83288,-16.73354],[-43.83993,-16.73352],[-43.84245,-16.7356],[-43.84271,-16.73646],[-43.84497,-16.74045]]]]}},{"type":"Feature","properties":{"territory_id":"mg-3143302-distrito-de-nova-esperanca","name":"Distrito de Nova Esperança","municipality_id":"mg-3143302","polling_places":1,"approx":true,"official":false,"method":"voronoi-polling-places","whole_municipality":false,"approx_coords_only":false},"geometry":{"type":"MultiPolygon","coordinates":[[[[-44.00055,-16.54499],[-43.89464,-16.61056],[-43.89554,-16.57552],[-43.97423,-16.51957],[-44.00055,-16.54499]]]]}},{"type":"Feature","properties":{"territory_id":"mg-3143302-distrito-industrial","name":"Distrito Industrial","municipality_id":"mg-3143302","polling_places":1,"approx":true,"official":false,"method":"voronoi-polling-places","whole_municipality":false,"approx_coords_only":false},"geometry":{"type":"MultiPolygon","coordinates":[[[[-43.89708,-16.63314],[-43.87538,-16.66502],[-43.86737,-16.67506],[-43.849,-16.66879],[-43.89708,-16.63314]]]]}},{"type":"Feature","properties":{"territory_id":"mg-3143302-doutor-joao-alves","name":"Doutor João Alves","municipality_id":"mg-3143302","polling_places":1,"approx":true,"official":false,"method":"voronoi-polling-places","whole_municipality":false,"approx_coords_only":false},"geometry":{"type":"MultiPolygon","coordinates":[[[[-43.85659,-16.75041],[-43.85342,-16.75472],[-43.8533,-16.7547],[-43.84893,-16.7521],[-43.84829,-16.74602],[-43.84941,-16.74327],[-43.85375,-16.7447],[-43.85659,-16.75041]]]]}},{"type":"Feature","properties":{"territory_id":"mg-3143302-edgar-pereira","name":"Edgar Pereira","municipality_id":"mg-3143302","polling_places":3,"approx":true,"official":false,"method":"voronoi-polling-places","whole_municipality":false,"approx_coords_only":false},"geometry":{"type":"MultiPolygon","coordinates":[[[[-43.868,-16.70691],[-43.867,-16.71098],[-43.86368,-16.71498],[-43.863,-16.71559],[-43.86094,-16.71474],[-43.85902,-16.71226],[-43.85657,-16.711],[-43.85421,-16.7096],[-43.85611,-16.70462],[-43.85845,-16.70149],[-43.85946,-16.69685],[-43.86529,-16.70217],[-43.86665,-16.70565],[-43.868,-16.70691]]]]}},{"type":"Feature","properties":{"territory_id":"mg-3143302-esplanada","name":"Esplanada","municipality_id":"mg-3143302","polling_places":1,"approx":true,"official":false,"method":"voronoi-polling-places","whole_municipality":false,"approx_coords_only":false},"geometry":{"type":"MultiPolygon","coordinates":[[[[-43.84535,-16.71924],[-43.84342,-16.72093],[-43.83761,-16.72168],[-43.83555,-16.71944],[-43.83833,-16.70677],[-43.83998,-16.70628],[-43.84535,-16.71924]]]]}},{"type":"Feature","properties":{"territory_id":"mg-3143302-independencia","name":"Independencia","municipality_id":"mg-3143302","polling_places":2,"approx":true,"official":false,"method":"voronoi-polling-places","whole_municipality":false,"approx_coords_only":false},"geometry":{"type":"MultiPolygon","coordinates":[[[[-43.82457,-16.70473],[-43.82435,-16.71388],[-43.82177,-16.71696],[-43.8176,-16.71869],[-43.7958,-16.74368],[-43.78007,-16.75397],[-43.77894,-16.75463],[-43.77874,-16.7542],[-43.8048,-16.7074],[-43.80794,-16.707],[-43.81757,-16.70378],[-43.82457,-16.70473]]]]}},{"type":"Feature","properties":{"territory_id":"mg-3143302-interlagos","name":"Interlagos","municipality_id":"mg-3143302","polling_places":2,"approx":true,"official":false,"method":"voronoi-polling-places","whole_municipality":false,"approx_coords_only":false},"geometry":{"type":"MultiPolygon","coordinates":[[[[-43.83833,-16.70677],[-43.83555,-16.71944],[-43.83034,-16.71928],[-43.8257,-16.7302],[-43.82462,-16.73032],[-43.82177,-16.71696],[-43.82435,-16.71388],[-43.82457,-16.70473],[-43.82498,-16.70447],[-43.83833,-16.70677]]]]}},{"type":"Feature","properties":{"territory_id":"mg-3143302-j-k","name":"J K","municipality_id":"mg-3143302","polling_places":1,"approx":true,"official":false,"method":"voronoi-polling-places","whole_municipality":false,"approx_coords_only":false},"geometry":{"type":"MultiPolygon","coordinates":[[[[-43.85707,-16.68678],[-43.84751,-16.6999],[-43.84257,-16.70365],[-43.8413,-16.70449],[-43.83767,-16.68794],[-43.84325,-16.68106],[-43.85707,-16.68678]]]]}},{"type":"Feature","properties":{"territory_id":"mg-3143302-jaragua-i","name":"Jaragua I","municipality_id":"mg-3143302","polling_places":1,"approx":true,"official":false,"method":"voronoi-polling-places","whole_municipality":false,"approx_coords_only":false},"geometry":{"type":"MultiPolygon","coordinates":[[[[-43.82924,-16.69162],[-43.82583,-16.70104],[-43.8107,-16.68004],[-43.82137,-16.68484],[-43.82924,-16.69162]]]]}},{"type":"Feature","properties":{"territory_id":"mg-3143302-jardim-brasil","name":"Jardim Brasil","municipality_id":"mg-3143302","polling_places":1,"approx":true,"official":false,"method":"voronoi-polling-places","whole_municipality":false,"approx_coords_only":false},"geometry":{"type":"MultiPolygon","coordinates":[[[[-43.87,-16.69959],[-43.86529,-16.70217],[-43.85946,-16.69685],[-43.85911,-16.69554],[-43.85745,-16.6868],[-43.85815,-16.68646],[-43.86991,-16.69648],[-43.87,-16.69959]]]]}},{"type":"Feature","properties":{"territory_id":"mg-3143302-jardim-eldorado","name":"Jardim Eldorado","municipality_id":"mg-3143302","polling_places":3,"approx":true,"official":false,"method":"voronoi-polling-places","whole_municipality":false,"approx_coords_only":false},"geometry":{"type":"MultiPolygon","coordinates":[[[[-43.94231,-16.68708],[-43.9046,-16.69597],[-43.88879,-16.69518],[-43.87921,-16.69599],[-43.87867,-16.69577],[-43.87215,-16.68936],[-43.86073,-16.68438],[-43.86737,-16.67506],[-43.87538,-16.66502],[-43.89708,-16.63314],[-43.89998,-16.6295],[-43.93804,-16.65188],[-43.93966,-16.66523],[-43.94231,-16.68708]]]]}},{"type":"Feature","properties":{"territory_id":"mg-3143302-jardim-olimpico","name":"Jardim Olímpico","municipality_id":"mg-3143302","polling_places":1,"approx":true,"official":false,"method":"voronoi-polling-places","whole_municipality":false,"approx_coords_only":false},"geometry":{"type":"MultiPolygon","coordinates":[[[[-43.83734,-16.75159],[-43.8372,-16.75254],[-43.82385,-16.76265],[-43.79431,-16.75838],[-43.83455,-16.74363],[-43.83575,-16.74489],[-43.83734,-16.75159]]]]}},{"type":"Feature","properties":{"territory_id":"mg-3143302-jardim-panorama","name":"Jardim Panorama","municipality_id":"mg-3143302","polling_places":1,"approx":true,"official":false,"method":"voronoi-polling-places","whole_municipality":false,"approx_coords_only":false},"geometry":{"type":"MultiPolygon","coordinates":[[[[-43.90149,-16.69784],[-43.88177,-16.7194],[-43.87862,-16.71129],[-43.87898,-16.71036],[-43.90149,-16.69784]]]]}},{"type":"Feature","properties":{"territory_id":"mg-3143302-jardim-primavera","name":"Jardim Primavera","municipality_id":"mg-3143302","polling_places":1,"approx":true,"official":false,"method":"voronoi-polling-places","whole_municipality":false,"approx_coords_only":false},"geometry":{"type":"MultiPolygon","coordinates":[[[[-43.81757,-16.70378],[-43.80794,-16.707],[-43.8048,-16.7074],[-43.78333,-16.6637],[-43.78789,-16.6583],[-43.81031,-16.67984],[-43.81757,-16.70378]]]]}},{"type":"Feature","properties":{"territory_id":"mg-3143302-jardim-sao-luiz","name":"Jardim São Luiz","municipality_id":"mg-3143302","polling_places":3,"approx":true,"official":false,"method":"voronoi-polling-places","whole_municipality":false,"approx_coords_only":false},"geometry":{"type":"MultiPolygon","coordinates":[[[[-43.89067,-16.72783],[-43.88123,-16.73062],[-43.87728,-16.73031],[-43.87406,-16.73427],[-43.87376,-16.73415],[-43.87183,-16.72913],[-43.8761,-16.72859],[-43.87713,-16.72313],[-43.88242,-16.72254],[-43.89067,-16.72783]]]]}},{"type":"Feature","properties":{"territory_id":"mg-3143302-joao-botelho","name":"João Botelho","municipality_id":"mg-3143302","polling_places":1,"approx":true,"official":false,"method":"voronoi-polling-places","whole_municipality":false,"approx_coords_only":false},"geometry":{"type":"MultiPolygon","coordinates":[[[[-43.86248,-16.74344],[-43.85783,-16.74295],[-43.85632,-16.73575],[-43.85746,-16.73511],[-43.86149,-16.7357],[-43.86248,-16.74344]]]]}},{"type":"Feature","properties":{"territory_id":"mg-3143302-lourdes","name":"Lourdes","municipality_id":"mg-3143302","polling_places":2,"approx":true,"official":false,"method":"voronoi-polling-places","whole_municipality":false,"approx_coords_only":false},"geometry":{"type":"MultiPolygon","coordinates":[[[[-43.85462,-16.72363],[-43.85396,-16.72522],[-43.85021,-16.72648],[-43.84785,-16.72899],[-43.84579,-16.72793],[-43.84342,-16.72093],[-43.84535,-16.71924],[-43.84749,-16.71899],[-43.84947,-16.7181],[-43.85152,-16.71884],[-43.85224,-16.71916],[-43.85462,-16.72363]]]]}},{"type":"Feature","properties":{"territory_id":"mg-3143302-major-prates","name":"Major Prates","municipality_id":"mg-3143302","polling_places":1,"approx":true,"official":false,"method":"voronoi-polling-places","whole_municipality":false,"approx_coords_only":false},"geometry":{"type":"MultiPolygon","coordinates":[[[[-43.90974,-16.7351],[-43.87991,-16.74664],[-43.87516,-16.7427],[-43.87718,-16.73916],[-43.90974,-16.7351]]]]}},{"type":"Feature","properties":{"territory_id":"mg-3143302-maracana","name":"Maracanã","municipality_id":"mg-3143302","polling_places":3,"approx":true,"official":false,"method":"voronoi-polling-places","whole_municipality":false,"approx_coords_only":false},"geometry":{"type":"MultiPolygon","coordinates":[[[[-43.894,-16.77465],[-43.87493,-16.78054],[-43.87106,-16.76482],[-43.864,-16.76454],[-43.86161,-16.76647],[-43.85984,-16.76596],[-43.86031,-16.7583],[-43.8619,-16.7579],[-43.86457,-16.75559],[-43.87074,-16.76074],[-43.87133,-16.76377],[-43.881,-16.76068],[-43.8814,-16.76059],[-43.894,-16.77465]]]]}},{"type":"Feature","properties":{"territory_id":"mg-3143302-melo","name":"Melo","municipality_id":"mg-3143302","polling_places":1,"approx":true,"official":false,"method":"voronoi-polling-places","whole_municipality":false,"approx_coords_only":false},"geometry":{"type":"MultiPolygon","coordinates":[[[[-43.87713,-16.72313],[-43.8761,-16.72859],[-43.87183,-16.72913],[-43.87109,-16.72851],[-43.87149,-16.72595],[-43.87312,-16.72325],[-43.87505,-16.72251],[-43.87713,-16.72313]]]]}},{"type":"Feature","properties":{"territory_id":"mg-3143302-miralta","name":"Miralta","municipality_id":"mg-3143302","polling_places":1,"approx":true,"official":false,"method":"voronoi-polling-places","whole_municipality":false,"approx_coords_only":false},"geometry":{"type":"MultiPolygon","coordinates":[[[[-43.97423,-16.51957],[-43.89554,-16.57552],[-43.89059,-16.57036],[-43.91766,-16.48063],[-43.93724,-16.47104],[-43.97047,-16.51057],[-43.9695,-16.515],[-43.97423,-16.51957]]]]}},{"type":"Feature","properties":{"territory_id":"mg-3143302-morada-do-parque","name":"Morada do Parque","municipality_id":"mg-3143302","polling_places":1,"approx":true,"official":false,"method":"voronoi-polling-places","whole_municipality":false,"approx_coords_only":false},"geometry":{"type":"MultiPolygon","coordinates":[[[[-43.94777,-16.73653],[-43.93981,-16.77416],[-43.894,-16.77465],[-43.8814,-16.76059],[-43.88057,-16.75406],[-43.9422,-16.73656],[-43.94777,-16.73653]]]]}},{"type":"Feature","properties":{"territory_id":"mg-3143302-morada-do-sol","name":"Morada do Sol","municipality_id":"mg-3143302","polling_places":1,"approx":true,"official":false,"method":"voronoi-polling-places","whole_municipality":false,"approx_coords_only":false},"geometry":{"type":"MultiPolygon","coordinates":[[[[-43.88123,-16.73062],[-43.87636,-16.73704],[-43.87406,-16.73427],[-43.87728,-16.73031],[-43.88123,-16.73062]]]]}},{"type":"Feature","properties":{"territory_id":"mg-3143302-morrinhos","name":"Morrinhos","municipality_id":"mg-3143302","polling_places":2,"approx":true,"official":false,"method":"voronoi-polling-places","whole_municipality":false,"approx_coords_only":false},"geometry":{"type":"MultiPolygon","coordinates":[[[[-43.86849,-16.72947],[-43.86621,-16.73418],[-43.86472,-16.73413],[-43.86306,-16.73467],[-43.85989,-16.72823],[-43.86122,-16.7268],[-43.86332,-16.72802],[-43.86635,-16.72747],[-43.86849,-16.72947]]]]}},{"type":"Feature","properties":{"territory_id":"mg-3143302-nossa-senhora-das-gracas","name":"Nossa Senhora das Graças","municipality_id":"mg-3143302","polling_places":1,"approx":true,"official":false,"method":"voronoi-polling-places","whole_municipality":false,"approx_coords_only":false},"geometry":{"type":"MultiPolygon","coordinates":[[[[-43.86031,-16.7583],[-43.85984,-16.76596],[-43.85288,-16.76627],[-43.85592,-16.75834],[-43.86031,-16.7583]]]]}},{"type":"Feature","properties":{"territory_id":"mg-3143302-nossa-senhora-de-fatima","name":"Nossa Senhora de Fátima","municipality_id":"mg-3143302","polling_places":1,"approx":true,"official":false,"method":"voronoi-polling-places","whole_municipality":false,"approx_coords_only":false},"geometry":{"type":"MultiPolygon","coordinates":[[[[-43.85192,-16.73629],[-43.84884,-16.74187],[-43.84497,-16.74045],[-43.84271,-16.73646],[-43.84245,-16.7356],[-43.84854,-16.73112],[-43.85007,-16.73251],[-43.85192,-16.73629]]]]}},{"type":"Feature","properties":{"territory_id":"mg-3143302-pedra-preta","name":"Pedra Preta","municipality_id":"mg-3143302","polling_places":1,"approx":true,"official":false,"method":"voronoi-polling-places","whole_municipality":false,"approx_coords_only":false},"geometry":{"type":"MultiPolygon","coordinates":[[[[-44.2109,-16.3905],[-44.182,-16.4208],[-44.1448,-16.4386],[-44.13924,-16.44915],[-44.10595,-16.38574],[-44.1182,-16.3771],[-44.1619,-16.37],[-44.2109,-16.3905]]]]}},{"type":"Feature","properties":{"territory_id":"mg-3143302-planalto","name":"Planalto","municipality_id":"mg-3143302","polling_places":1,"approx":true,"official":false,"method":"voronoi-polling-places","whole_municipality":false,"approx_coords_only":false},"geometry":{"type":"MultiPolygon","coordinates":[[[[-43.8413,-16.70449],[-43.84062,-16.70582],[-43.83998,-16.70628],[-43.83833,-16.70677],[-43.82498,-16.70447],[-43.82583,-16.70104],[-43.82924,-16.69162],[-43.83767,-16.68794],[-43.8413,-16.70449]]]]}},{"type":"Feature","properties":{"territory_id":"mg-3143302-renascenca","name":"Renascenca","municipality_id":"mg-3143302","polling_places":2,"approx":true,"official":false,"method":"voronoi-polling-places","whole_municipality":false,"approx_coords_only":false},"geometry":{"type":"MultiPolygon","coordinates":[[[[-43.85946,-16.69685],[-43.85845,-16.70149],[-43.85611,-16.70462],[-43.85232,-16.70317],[-43.85178,-16.70323],[-43.84751,-16.6999],[-43.85707,-16.68678],[-43.85745,-16.6868],[-43.85911,-16.69554],[-43.85946,-16.69685]]]]}},{"type":"Feature","properties":{"territory_id":"mg-3143302-residencial-vitoria","name":"Residencial Vitória","municipality_id":"mg-3143302","polling_places":1,"approx":true,"official":false,"method":"voronoi-polling-places","whole_municipality":false,"approx_coords_only":false},"geometry":{"type":"MultiPolygon","coordinates":[[[[-43.89998,-16.6295],[-43.89708,-16.63314],[-43.849,-16.66879],[-43.83996,-16.6738],[-43.81841,-16.64369],[-43.84251,-16.62176],[-43.8943,-16.62316],[-43.89998,-16.6295]]]]}},{"type":"Feature","properties":{"territory_id":"mg-3143302-roxo-verde","name":"Roxo Verde","municipality_id":"mg-3143302","polling_places":1,"approx":true,"official":false,"method":"voronoi-polling-places","whole_municipality":false,"approx_coords_only":false},"geometry":{"type":"MultiPolygon","coordinates":[[[[-43.86122,-16.7268],[-43.85989,-16.72823],[-43.85716,-16.72948],[-43.85581,-16.72867],[-43.85396,-16.72522],[-43.85462,-16.72363],[-43.85577,-16.72338],[-43.86114,-16.72364],[-43.86122,-16.7268]]]]}},{"type":"Feature","properties":{"territory_id":"mg-3143302-santa-lucia","name":"Santa Lucia","municipality_id":"mg-3143302","polling_places":3,"approx":true,"official":false,"method":"voronoi-polling-places","whole_municipality":false,"approx_coords_only":false},"geometry":{"type":"MultiPolygon","coordinates":[[[[-43.84854,-16.73112],[-43.84245,-16.7356],[-43.83993,-16.73352],[-43.83288,-16.73354],[-43.83258,-16.73323],[-43.8316,-16.73204],[-43.83712,-16.72434],[-43.83761,-16.72168],[-43.84342,-16.72093],[-43.84579,-16.72793],[-43.84785,-16.72899],[-43.84854,-16.73112]]]]}},{"type":"Feature","properties":{"territory_id":"mg-3143302-santa-rita","name":"Santa Rita","municipality_id":"mg-3143302","polling_places":2,"approx":true,"official":false,"method":"voronoi-polling-places","whole_municipality":false,"approx_coords_only":false},"geometry":{"type":"MultiPolygon","coordinates":[[[[-43.86306,-16.73467],[-43.86149,-16.7357],[-43.85746,-16.73511],[-43.85632,-16.73575],[-43.85192,-16.73629],[-43.85007,-16.73251],[-43.85581,-16.72867],[-43.85716,-16.72948],[-43.85989,-16.72823],[-43.86306,-16.73467]]]]}},{"type":"Feature","properties":{"territory_id":"mg-3143302-santo-amaro","name":"Santo Amaro","municipality_id":"mg-3143302","polling_places":1,"approx":true,"official":false,"method":"voronoi-polling-places","whole_municipality":false,"approx_coords_only":false},"geometry":{"type":"MultiPolygon","coordinates":[[[[-43.86048,-16.79516],[-43.84909,-16.81658],[-43.83641,-16.77192],[-43.84554,-16.76515],[-43.85276,-16.76637],[-43.86048,-16.79516]]]]}},{"type":"Feature","properties":{"territory_id":"mg-3143302-santo-antonio","name":"Santo Antônio","municipality_id":"mg-3143302","polling_places":2,"approx":true,"official":false,"method":"voronoi-polling-places","whole_municipality":false,"approx_coords_only":false},"geometry":{"type":"MultiPolygon","coordinates":[[[[-43.84941,-16.74327],[-43.84829,-16.74602],[-43.84235,-16.74837],[-43.83734,-16.75159],[-43.83575,-16.74489],[-43.84166,-16.74204],[-43.84246,-16.74177],[-43.84497,-16.74045],[-43.84884,-16.74187],[-43.84941,-16.74327]]]]}},{"type":"Feature","properties":{"territory_id":"mg-3143302-santo-expedito","name":"Santo Expedito","municipality_id":"mg-3143302","polling_places":2,"approx":true,"official":false,"method":"voronoi-polling-places","whole_municipality":false,"approx_coords_only":false},"geometry":{"type":"MultiPolygon","coordinates":[[[[-43.87718,-16.73916],[-43.87516,-16.7427],[-43.87361,-16.74336],[-43.8688,-16.74054],[-43.86801,-16.73563],[-43.87376,-16.73415],[-43.87406,-16.73427],[-43.87636,-16.73704],[-43.87718,-16.73916]]]]}},{"type":"Feature","properties":{"territory_id":"mg-3143302-santo-inacio","name":"Santo Inácio","municipality_id":"mg-3143302","polling_places":1,"approx":true,"official":false,"method":"voronoi-polling-places","whole_municipality":false,"approx_coords_only":false},"geometry":{"type":"MultiPolygon","coordinates":[[[[-43.85592,-16.75834],[-43.85288,-16.76627],[-43.85276,-16.76637],[-43.84554,-16.76515],[-43.84535,-16.7617],[-43.8533,-16.7547],[-43.85342,-16.75472],[-43.85592,-16.75834]]]]}},{"type":"Feature","properties":{"territory_id":"mg-3143302-santos-reis","name":"Santos Reis","municipality_id":"mg-3143302","polling_places":2,"approx":true,"official":false,"method":"voronoi-polling-places","whole_municipality":false,"approx_coords_only":false},"geometry":{"type":"MultiPolygon","coordinates":[[[[-43.87921,-16.69599],[-43.87326,-16.70322],[-43.87297,-16.70539],[-43.868,-16.70691],[-43.86665,-16.70565],[-43.86529,-16.70217],[-43.87,-16.69959],[-43.86991,-16.69648],[-43.87867,-16.69577],[-43.87921,-16.69599]]]]}},{"type":"Feature","properties":{"territory_id":"mg-3143302-sao-geraldo","name":"São Geraldo","municipality_id":"mg-3143302","polling_places":1,"approx":true,"official":false,"method":"voronoi-polling-places","whole_municipality":false,"approx_coords_only":false},"geometry":{"type":"MultiPolygon","coordinates":[[[[-43.8814,-16.76059],[-43.881,-16.76068],[-43.87291,-16.75782],[-43.87529,-16.75352],[-43.87994,-16.75361],[-43.88057,-16.75406],[-43.8814,-16.76059]]]]}},{"type":"Feature","properties":{"territory_id":"mg-3143302-sao-geraldo-ii","name":"São Geraldo Ii","municipality_id":"mg-3143302","polling_places":1,"approx":true,"official":false,"method":"voronoi-polling-places","whole_municipality":false,"approx_coords_only":false},"geometry":{"type":"MultiPolygon","coordinates":[[[[-43.94065,-16.78211],[-43.89592,-16.83891],[-43.8468,-16.82671],[-43.84909,-16.81658],[-43.86048,-16.79516],[-43.86729,-16.78712],[-43.87493,-16.78054],[-43.894,-16.77465],[-43.93981,-16.77416],[-43.94065,-16.78211]]]]}},{"type":"Feature","properties":{"territory_id":"mg-3143302-sao-jose","name":"Sao Jose","municipality_id":"mg-3143302","polling_places":2,"approx":true,"official":false,"method":"voronoi-polling-places","whole_municipality":false,"approx_coords_only":false},"geometry":{"type":"MultiPolygon","coordinates":[[[[-43.86316,-16.71603],[-43.86315,-16.72097],[-43.86114,-16.72364],[-43.85577,-16.72338],[-43.85462,-16.72363],[-43.85224,-16.71916],[-43.8596,-16.71567],[-43.86094,-16.71474],[-43.863,-16.71559],[-43.86316,-16.71603]]]]}},{"type":"Feature","properties":{"territory_id":"mg-3143302-sao-judas-tadeu-ii","name":"São Judas Tadeu Ii","municipality_id":"mg-3143302","polling_places":1,"approx":true,"official":false,"method":"voronoi-polling-places","whole_municipality":false,"approx_coords_only":false},"geometry":{"type":"MultiPolygon","coordinates":[[[[-43.86378,-16.74972],[-43.85659,-16.75041],[-43.85375,-16.7447],[-43.85783,-16.74295],[-43.86248,-16.74344],[-43.86259,-16.74353],[-43.86378,-16.74972]]]]}},{"type":"Feature","properties":{"territory_id":"mg-3143302-sao-pedro-da-garca","name":"Sao Pedro da Garca","municipality_id":"mg-3143302","polling_places":1,"approx":true,"official":false,"method":"voronoi-polling-places","whole_municipality":false,"approx_coords_only":false},"geometry":{"type":"MultiPolygon","coordinates":[[[[-43.96934,-16.22936],[-43.92165,-16.25623],[-43.87647,-16.25364],[-43.77337,-16.19129],[-43.7663,-16.1461],[-43.7851,-16.1261],[-43.7656,-16.0892],[-43.8255,-16.0912],[-43.852,-16.1109],[-43.86564,-16.11147],[-43.96934,-16.22936]]]]}},{"type":"Feature","properties":{"territory_id":"mg-3143302-sumare","name":"Sumaré","municipality_id":"mg-3143302","polling_places":1,"approx":true,"official":false,"method":"voronoi-polling-places","whole_municipality":false,"approx_coords_only":false},"geometry":{"type":"MultiPolygon","coordinates":[[[[-43.85783,-16.74295],[-43.85375,-16.7447],[-43.84941,-16.74327],[-43.84884,-16.74187],[-43.85192,-16.73629],[-43.85632,-16.73575],[-43.85783,-16.74295]]]]}},{"type":"Feature","properties":{"territory_id":"mg-3143302-todos-os-santos","name":"Todos Os Santos","municipality_id":"mg-3143302","polling_places":3,"approx":true,"official":false,"method":"voronoi-polling-places","whole_municipality":false,"approx_coords_only":false},"geometry":{"type":"MultiPolygon","coordinates":[[[[-43.87898,-16.71036],[-43.87862,-16.71129],[-43.87516,-16.71371],[-43.867,-16.71098],[-43.868,-16.70691],[-43.87297,-16.70539],[-43.87898,-16.71036]]],[[[-43.87505,-16.72251],[-43.87312,-16.72325],[-43.87075,-16.722],[-43.86903,-16.71843],[-43.86316,-16.71603],[-43.863,-16.71559],[-43.86368,-16.71498],[-43.87421,-16.71535],[-43.87379,-16.71677],[-43.87505,-16.72251]]]]}},{"type":"Feature","properties":{"territory_id":"mg-3143302-vargem-grande-ii","name":"Vargem Grande Ii","municipality_id":"mg-3143302","polling_places":1,"approx":true,"official":false,"method":"voronoi-polling-places","whole_municipality":false,"approx_coords_only":false},"geometry":{"type":"MultiPolygon","coordinates":[[[[-43.87994,-16.75361],[-43.87529,-16.75352],[-43.87084,-16.74954],[-43.87361,-16.74336],[-43.87516,-16.7427],[-43.87991,-16.74664],[-43.87994,-16.75361]]]]}},{"type":"Feature","properties":{"territory_id":"mg-3143302-vera-cruz","name":"Vera Cruz","municipality_id":"mg-3143302","polling_places":1,"approx":true,"official":false,"method":"voronoi-polling-places","whole_municipality":false,"approx_coords_only":false},"geometry":{"type":"MultiPolygon","coordinates":[[[[-43.85068,-16.71066],[-43.84947,-16.7181],[-43.84749,-16.71899],[-43.84535,-16.71924],[-43.83998,-16.70628],[-43.84062,-16.70582],[-43.85068,-16.71066]]]]}},{"type":"Feature","properties":{"territory_id":"mg-3143302-vila-analia","name":"Vila Anália","municipality_id":"mg-3143302","polling_places":2,"approx":true,"official":false,"method":"voronoi-polling-places","whole_municipality":false,"approx_coords_only":false},"geometry":{"type":"MultiPolygon","coordinates":[[[[-43.83455,-16.74363],[-43.79431,-16.75838],[-43.77933,-16.75733],[-43.77894,-16.75463],[-43.78007,-16.75397],[-43.82608,-16.74125],[-43.83258,-16.73323],[-43.83288,-16.73354],[-43.83378,-16.73955],[-43.83373,-16.74076],[-43.83455,-16.74363]]]]}},{"type":"Feature","properties":{"territory_id":"mg-3143302-vila-atlantida","name":"Vila Atlântida","municipality_id":"mg-3143302","polling_places":1,"approx":true,"official":false,"method":"voronoi-polling-places","whole_municipality":false,"approx_coords_only":false},"geometry":{"type":"MultiPolygon","coordinates":[[[[-43.9046,-16.69597],[-43.90149,-16.69784],[-43.87898,-16.71036],[-43.87297,-16.70539],[-43.87326,-16.70322],[-43.87921,-16.69599],[-43.88879,-16.69518],[-43.9046,-16.69597]]]]}},{"type":"Feature","properties":{"territory_id":"mg-3143302-vila-aurea","name":"Vila Áurea","municipality_id":"mg-3143302","polling_places":1,"approx":true,"official":false,"method":"voronoi-polling-places","whole_municipality":false,"approx_coords_only":false},"geometry":{"type":"MultiPolygon","coordinates":[[[[-43.87867,-16.69577],[-43.86991,-16.69648],[-43.85815,-16.68646],[-43.86073,-16.68438],[-43.87215,-16.68936],[-43.87867,-16.69577]]]]}},{"type":"Feature","properties":{"territory_id":"mg-3143302-vila-castelo-branco","name":"Vila Castelo Branco","municipality_id":"mg-3143302","polling_places":1,"approx":true,"official":false,"method":"voronoi-polling-places","whole_municipality":false,"approx_coords_only":false},"geometry":{"type":"MultiPolygon","coordinates":[[[[-43.82583,-16.70104],[-43.82498,-16.70447],[-43.82457,-16.70473],[-43.81757,-16.70378],[-43.81031,-16.67984],[-43.8107,-16.68004],[-43.82583,-16.70104]]]]}},{"type":"Feature","properties":{"territory_id":"mg-3143302-vila-exposicao","name":"Vila Exposicao","municipality_id":"mg-3143302","polling_places":3,"approx":true,"official":false,"method":"voronoi-polling-places","whole_municipality":false,"approx_coords_only":false},"geometry":{"type":"MultiPolygon","coordinates":[[[[-43.85611,-16.70462],[-43.85421,-16.7096],[-43.85387,-16.70962],[-43.85068,-16.71066],[-43.84062,-16.70582],[-43.8413,-16.70449],[-43.84257,-16.70365],[-43.84751,-16.6999],[-43.85178,-16.70323],[-43.85232,-16.70317],[-43.85611,-16.70462]]]]}},{"type":"Feature","properties":{"territory_id":"mg-3143302-vila-guilhermina","name":"Vila Guilhermina","municipality_id":"mg-3143302","polling_places":2,"approx":true,"official":false,"method":"voronoi-polling-places","whole_municipality":false,"approx_coords_only":false},"geometry":{"type":"MultiPolygon","coordinates":[[[[-43.87376,-16.73415],[-43.86801,-16.73563],[-43.8688,-16.74054],[-43.86259,-16.74353],[-43.86248,-16.74344],[-43.86149,-16.7357],[-43.86306,-16.73467],[-43.86472,-16.73413],[-43.86621,-16.73418],[-43.86849,-16.72947],[-43.87109,-16.72851],[-43.87183,-16.72913],[-43.87376,-16.73415]]]]}},{"type":"Feature","properties":{"territory_id":"mg-3143302-vila-mauriceia","name":"Vila Mauricéia","municipality_id":"mg-3143302","polling_places":1,"approx":true,"official":false,"method":"voronoi-polling-places","whole_municipality":false,"approx_coords_only":false},"geometry":{"type":"MultiPolygon","coordinates":[[[[-43.88242,-16.72254],[-43.87713,-16.72313],[-43.87505,-16.72251],[-43.87379,-16.71677],[-43.87421,-16.71535],[-43.87516,-16.71371],[-43.87862,-16.71129],[-43.88177,-16.7194],[-43.88242,-16.72254]]]]}},{"type":"Feature","properties":{"territory_id":"mg-3143302-vila-nova-de-minas","name":"Vila Nova de Minas","municipality_id":"mg-3143302","polling_places":1,"approx":true,"official":false,"method":"voronoi-polling-places","whole_municipality":false,"approx_coords_only":false},"geometry":{"type":"MultiPolygon","coordinates":[[[[-43.93724,-16.47104],[-43.91766,-16.48063],[-43.86515,-16.50574],[-43.84567,-16.45192],[-43.84911,-16.43595],[-43.93704,-16.46899],[-43.93724,-16.47104]]]]}},{"type":"Feature","properties":{"territory_id":"mg-3143302-vila-sion","name":"Vila Sion","municipality_id":"mg-3143302","polling_places":1,"approx":true,"official":false,"method":"voronoi-polling-places","whole_municipality":false,"approx_coords_only":false},"geometry":{"type":"MultiPolygon","coordinates":[[[[-43.84554,-16.76515],[-43.83641,-16.77192],[-43.82385,-16.76265],[-43.8372,-16.75254],[-43.84266,-16.75532],[-43.84535,-16.7617],[-43.84554,-16.76515]]]]}},{"type":"Feature","properties":{"territory_id":"mg-3143302-vila-telma","name":"Vila Telma","municipality_id":"mg-3143302","polling_places":1,"approx":true,"official":false,"method":"voronoi-polling-places","whole_municipality":false,"approx_coords_only":false},"geometry":{"type":"MultiPolygon","coordinates":[[[[-43.8533,-16.7547],[-43.84535,-16.7617],[-43.84266,-16.75532],[-43.84893,-16.7521],[-43.8533,-16.7547]]]]}},{"type":"Feature","properties":{"territory_id":"mg-3143302-village-do-lago","name":"Village do Lago","municipality_id":"mg-3143302","polling_places":1,"approx":true,"official":false,"method":"voronoi-polling-places","whole_municipality":false,"approx_coords_only":false},"geometry":{"type":"MultiPolygon","coordinates":[[[[-43.84325,-16.68106],[-43.83767,-16.68794],[-43.82924,-16.69162],[-43.82137,-16.68484],[-43.84021,-16.67465],[-43.84325,-16.68106]]]]}},{"type":"Feature","properties":{"territory_id":"mg-3143302-village-do-lago-ii","name":"Village do Lago Ii","municipality_id":"mg-3143302","polling_places":1,"approx":true,"official":false,"method":"voronoi-polling-places","whole_municipality":false,"approx_coords_only":false},"geometry":{"type":"MultiPolygon","coordinates":[[[[-43.84021,-16.67465],[-43.82137,-16.68484],[-43.8107,-16.68004],[-43.81031,-16.67984],[-43.78789,-16.6583],[-43.78988,-16.654],[-43.81841,-16.64369],[-43.83996,-16.6738],[-43.84021,-16.67465]]]]}},{"type":"Feature","properties":{"territory_id":"mg-3143302-zona-rural","name":"Zona Rural","municipality_id":"mg-3143302","polling_places":55,"approx":true,"official":false,"method":"voronoi-polling-places","whole_municipality":false,"approx_coords_only":false},"geometry":{"type":"MultiPolygon","coordinates":[[[[-44.196,-17.073],[-44.1955,-17.1038],[-44.1269,-17.1092],[-44.1057,-17.1458],[-44.0202,-17.1131],[-44.0164,-17.0519],[-43.9845,-17.0397],[-43.9537,-16.9926],[-43.9201,-16.9653],[-43.8901,-16.9694],[-43.8694,-16.9207],[-43.808,-16.9068],[-43.7209,-16.9033],[-43.7014,-16.851],[-43.6744,-16.8088],[-43.6978,-16.7752],[-43.6678,-16.7251],[-43.7037,-16.6914],[-43.7018,-16.6736],[-43.7497,-16.5785],[-43.7406,-16.5441],[-43.7616,-16.5336],[-43.7586,-16.5012],[-43.7364,-16.4839],[-43.7468,-16.4052],[-43.7851,-16.3587],[-43.7942,-16.299],[-43.7789,-16.2822],[-43.7966,-16.2341],[-43.7739,-16.1947],[-43.77337,-16.19129],[-43.87647,-16.25364],[-43.92165,-16.25623],[-43.96934,-16.22936],[-43.98413,-16.227],[-43.9806,-16.2347],[-44.0457,-16.2965],[-44.0613,-16.3818],[-44.0504,-16.4249],[-44.10595,-16.38574],[-44.13924,-16.44915],[-44.1332,-16.4606],[-44.1012,-16.4661],[-44.0652,-16.4905],[-44.0186,-16.4469],[-43.979,-16.4717],[-43.97047,-16.51057],[-43.93724,-16.47104],[-43.93704,-16.46899],[-43.84911,-16.43595],[-43.84567,-16.45192],[-43.86515,-16.50574],[-43.91766,-16.48063],[-43.89059,-16.57036],[-43.89554,-16.57552],[-43.89464,-16.61056],[-44.00055,-16.54499],[-44.0048,-16.5491],[-44.0233,-16.5929],[-44.0531,-16.6182],[-44.1083,-16.611],[-44.1069,-16.6438],[-44.1266,-16.6711],[-44.146,-16.7262],[-44.1097,-16.7476],[-44.0725,-16.7994],[-44.1301,-16.8214],[-44.12,-16.8799],[-44.133,-16.8923],[-44.1324,-16.964],[-44.1604,-16.9996],[-44.1646,-17.0345],[-44.196,-17.073]],[[-43.94777,-16.73653],[-43.9422,-16.73656],[-43.91254,-16.73446],[-43.89067,-16.72783],[-43.88242,-16.72254],[-43.88177,-16.7194],[-43.90149,-16.69784],[-43.9046,-16.69597],[-43.94231,-16.68708],[-43.93966,-16.66523],[-43.93804,-16.65188],[-43.89998,-16.6295],[-43.8943,-16.62316],[-43.84251,-16.62176],[-43.81841,-16.64369],[-43.78988,-16.654],[-43.78789,-16.6583],[-43.78333,-16.6637],[-43.8048,-16.7074],[-43.77874,-16.7542],[-43.77894,-16.75463],[-43.77933,-16.75733],[-43.79431,-16.75838],[-43.82385,-16.76265],[-43.83641,-16.77192],[-43.84909,-16.81658],[-43.8468,-16.82671],[-43.89592,-16.83891],[-43.94065,-16.78211],[-43.93981,-16.77416],[-43.94777,-16.73653]]],[[[-43.87516,-16.71371],[-43.87421,-16.71535],[-43.86368,-16.71498],[-43.867,-16.71098],[-43.87516,-16.71371]]],[[[-43.84893,-16.7521],[-43.84266,-16.75532],[-43.8372,-16.75254],[-43.83734,-16.75159],[-43.84235,-16.74837],[-43.84829,-16.74602],[-43.84893,-16.7521]]],[[[-43.83761,-16.72168],[-43.83712,-16.72434],[-43.8316,-16.73204],[-43.8257,-16.7302],[-43.83034,-16.71928],[-43.83555,-16.71944],[-43.83761,-16.72168]]]]}}]}