{"type":"FeatureCollection","features":[{"type":"Feature","properties":{"territory_id":"mg-3143153-centro","name":"Centro","municipality_id":"mg-3143153","polling_places":3,"approx":true,"official":false,"method":"voronoi-polling-places","whole_municipality":true,"approx_coords_only":false},"geometry":{"type":"MultiPolygon","coordinates":[[[[-41.2764,-17.006],[-41.2442,-16.9839],[-41.1885,-16.8979],[-41.1422,-16.8591],[-41.2028,-16.8041],[-41.2242,-16.7691],[-41.2525,-16.7727],[-41.2923,-16.7485],[-41.3191,-16.7487],[-41.3267,-16.7792],[-41.3013,-16.819],[-41.3702,-16.8834],[-41.3557,-16.9251],[-41.3267,-16.9389],[-41.326,-16.9778],[-41.2764,-17.006]]]]}}]}