{"type":"FeatureCollection","features":[{"type":"Feature","properties":{"territory_id":"mg-3143609-campo-alegre","name":"Campo Alegre","municipality_id":"mg-3143609","polling_places":1,"approx":true,"official":false,"method":"voronoi-polling-places","whole_municipality":false,"approx_coords_only":false},"geometry":{"type":"MultiPolygon","coordinates":[[[[-44.68183,-18.7265],[-44.6689,-18.7364],[-44.6317,-18.7357],[-44.6088,-18.7035],[-44.5489,-18.658],[-44.4627,-18.6455],[-44.49104,-18.63049],[-44.66821,-18.60692],[-44.68183,-18.7265]]]]}},{"type":"Feature","properties":{"territory_id":"mg-3143609-centro","name":"Centro","municipality_id":"mg-3143609","polling_places":3,"approx":true,"official":false,"method":"voronoi-polling-places","whole_municipality":false,"approx_coords_only":false},"geometry":{"type":"MultiPolygon","coordinates":[[[[-44.69428,-18.57865],[-44.66821,-18.60692],[-44.49104,-18.63049],[-44.5167,-18.6169],[-44.5406,-18.5668],[-44.5881,-18.5201],[-44.6322,-18.5278],[-44.6884,-18.5557],[-44.69428,-18.57865]]]]}},{"type":"Feature","properties":{"territory_id":"mg-3143609-riachinho","name":"Riachinho","municipality_id":"mg-3143609","polling_places":1,"approx":true,"official":false,"method":"voronoi-polling-places","whole_municipality":false,"approx_coords_only":false},"geometry":{"type":"MultiPolygon","coordinates":[[[[-44.8219,-18.6583],[-44.8037,-18.6879],[-44.7551,-18.7244],[-44.7107,-18.7044],[-44.68183,-18.7265],[-44.66821,-18.60692],[-44.69428,-18.57865],[-44.7064,-18.626],[-44.7477,-18.6777],[-44.8219,-18.6583]]]]}}]}