{"type":"FeatureCollection","features":[{"type":"Feature","properties":{"territory_id":"mg-3143104-bairro-boa-vista","name":"Bairro Boa Vista","municipality_id":"mg-3143104","polling_places":3,"approx":true,"official":false,"method":"voronoi-polling-places","whole_municipality":false,"approx_coords_only":false},"geometry":{"type":"MultiPolygon","coordinates":[[[[-47.50748,-18.72239],[-47.50159,-18.72747],[-47.5008,-18.72743],[-47.49976,-18.72642],[-47.4962,-18.72716],[-47.49464,-18.72775],[-47.49138,-18.72827],[-47.49069,-18.72811],[-47.47047,-18.70761],[-47.49609,-18.71454],[-47.49931,-18.71527],[-47.50432,-18.71474],[-47.50748,-18.72239]]]]}},{"type":"Feature","properties":{"territory_id":"mg-3143104-bairro-catulina","name":"Bairro Catulina","municipality_id":"mg-3143104","polling_places":1,"approx":true,"official":false,"method":"voronoi-polling-places","whole_municipality":false,"approx_coords_only":false},"geometry":{"type":"MultiPolygon","coordinates":[[[[-47.6198,-18.7463],[-47.61177,-18.78957],[-47.51941,-18.73569],[-47.50748,-18.72239],[-47.50432,-18.71474],[-47.59468,-18.64479],[-47.6089,-18.6756],[-47.5826,-18.7201],[-47.6198,-18.7463]]]]}},{"type":"Feature","properties":{"territory_id":"mg-3143104-bairro-do-carmo","name":"Bairro do Carmo","municipality_id":"mg-3143104","polling_places":1,"approx":true,"official":false,"method":"voronoi-polling-places","whole_municipality":false,"approx_coords_only":false},"geometry":{"type":"MultiPolygon","coordinates":[[[[-47.51941,-18.73569],[-47.51167,-18.73378],[-47.50159,-18.72747],[-47.50748,-18.72239],[-47.51941,-18.73569]]]]}},{"type":"Feature","properties":{"territory_id":"mg-3143104-bairro-langoni","name":"Bairro Langoni","municipality_id":"mg-3143104","polling_places":1,"approx":true,"official":false,"method":"voronoi-polling-places","whole_municipality":false,"approx_coords_only":false},"geometry":{"type":"MultiPolygon","coordinates":[[[[-47.51167,-18.73378],[-47.49941,-18.73386],[-47.49951,-18.73205],[-47.5008,-18.72743],[-47.50159,-18.72747],[-47.51167,-18.73378]]]]}},{"type":"Feature","properties":{"territory_id":"mg-3143104-bairro-santa-rita","name":"Bairro Santa Rita","municipality_id":"mg-3143104","polling_places":1,"approx":true,"official":false,"method":"voronoi-polling-places","whole_municipality":false,"approx_coords_only":false},"geometry":{"type":"MultiPolygon","coordinates":[[[[-47.7138,-18.4914],[-47.6661,-18.5166],[-47.6643,-18.5368],[-47.6297,-18.5385],[-47.6307,-18.569],[-47.5825,-18.6184],[-47.59468,-18.64479],[-47.50432,-18.71474],[-47.49931,-18.71527],[-47.49609,-18.71454],[-47.47047,-18.70761],[-47.35611,-18.64973],[-47.34466,-18.63082],[-47.3319,-18.5884],[-47.3412,-18.5606],[-47.3721,-18.5362],[-47.4151,-18.5323],[-47.4503,-18.5121],[-47.4534,-18.4673],[-47.4878,-18.5139],[-47.5569,-18.5218],[-47.5863,-18.5052],[-47.5851,-18.4827],[-47.6249,-18.4766],[-47.6801,-18.453],[-47.7116,-18.457],[-47.7138,-18.4914]]]]}},{"type":"Feature","properties":{"territory_id":"mg-3143104-bairro-tamboril","name":"Bairro Tamboril","municipality_id":"mg-3143104","polling_places":1,"approx":true,"official":false,"method":"voronoi-polling-places","whole_municipality":false,"approx_coords_only":false},"geometry":{"type":"MultiPolygon","coordinates":[[[[-47.49821,-18.73495],[-47.49679,-18.73869],[-47.49062,-18.72919],[-47.49069,-18.72811],[-47.49138,-18.72827],[-47.49821,-18.73495]]]]}},{"type":"Feature","properties":{"territory_id":"mg-3143104-bairro-triangulo","name":"Bairro Triângulo","municipality_id":"mg-3143104","polling_places":1,"approx":true,"official":false,"method":"voronoi-polling-places","whole_municipality":false,"approx_coords_only":false},"geometry":{"type":"MultiPolygon","coordinates":[[[[-47.61177,-18.78957],[-47.6103,-18.7975],[-47.6032,-18.8172],[-47.55248,-18.82537],[-47.4951,-18.74374],[-47.49679,-18.73869],[-47.49821,-18.73495],[-47.49941,-18.73386],[-47.51167,-18.73378],[-47.51941,-18.73569],[-47.61177,-18.78957]]]]}},{"type":"Feature","properties":{"territory_id":"mg-3143104-centro","name":"Centro","municipality_id":"mg-3143104","polling_places":2,"approx":true,"official":false,"method":"voronoi-polling-places","whole_municipality":false,"approx_coords_only":false},"geometry":{"type":"MultiPolygon","coordinates":[[[[-47.5008,-18.72743],[-47.49951,-18.73205],[-47.49941,-18.73386],[-47.49821,-18.73495],[-47.49138,-18.72827],[-47.49464,-18.72775],[-47.4962,-18.72716],[-47.49976,-18.72642],[-47.5008,-18.72743]]]]}},{"type":"Feature","properties":{"territory_id":"mg-3143104-povoado-de-celso-bueno","name":"Povoado de Celso Bueno","municipality_id":"mg-3143104","polling_places":1,"approx":true,"official":false,"method":"voronoi-polling-places","whole_municipality":false,"approx_coords_only":false},"geometry":{"type":"MultiPolygon","coordinates":[[[[-47.4934,-18.9632],[-47.4578,-18.9777],[-47.4069,-18.9606],[-47.3395,-18.9594],[-47.3133,-18.9322],[-47.2792,-18.927],[-47.28544,-18.90188],[-47.43272,-18.82728],[-47.45307,-18.83848],[-47.4507,-18.8703],[-47.4288,-18.8989],[-47.4762,-18.9147],[-47.4934,-18.9632]]]]}},{"type":"Feature","properties":{"territory_id":"mg-3143104-povoado-de-goncalves","name":"Povoado de Gonçalves","municipality_id":"mg-3143104","polling_places":1,"approx":true,"official":false,"method":"voronoi-polling-places","whole_municipality":false,"approx_coords_only":false},"geometry":{"type":"MultiPolygon","coordinates":[[[[-47.43272,-18.82728],[-47.28544,-18.90188],[-47.3057,-18.82038],[-47.41101,-18.77243],[-47.43272,-18.82728]]]]}},{"type":"Feature","properties":{"territory_id":"mg-3143104-residencial-bela-suica","name":"Residencial Bela Suiça","municipality_id":"mg-3143104","polling_places":1,"approx":true,"official":false,"method":"voronoi-polling-places","whole_municipality":false,"approx_coords_only":false},"geometry":{"type":"MultiPolygon","coordinates":[[[[-47.55248,-18.82537],[-47.5517,-18.8255],[-47.5028,-18.8161],[-47.4537,-18.83],[-47.45307,-18.83848],[-47.43272,-18.82728],[-47.41101,-18.77243],[-47.39721,-18.73583],[-47.48935,-18.7409],[-47.4951,-18.74374],[-47.55248,-18.82537]]]]}},{"type":"Feature","properties":{"territory_id":"mg-3143104-vila-nova","name":"Vila Nova","municipality_id":"mg-3143104","polling_places":2,"approx":true,"official":false,"method":"voronoi-polling-places","whole_municipality":false,"approx_coords_only":false},"geometry":{"type":"MultiPolygon","coordinates":[[[[-47.49679,-18.73869],[-47.4951,-18.74374],[-47.48935,-18.7409],[-47.39721,-18.73583],[-47.35611,-18.64973],[-47.47047,-18.70761],[-47.49069,-18.72811],[-47.49062,-18.72919],[-47.49679,-18.73869]]]]}},{"type":"Feature","properties":{"territory_id":"mg-3143104-zona-rural","name":"Zona Rural","municipality_id":"mg-3143104","polling_places":1,"approx":true,"official":false,"method":"voronoi-polling-places","whole_municipality":false,"approx_coords_only":false},"geometry":{"type":"MultiPolygon","coordinates":[[[[-47.41101,-18.77243],[-47.3057,-18.82038],[-47.3146,-18.7846],[-47.2775,-18.7268],[-47.3392,-18.6792],[-47.3485,-18.6436],[-47.34466,-18.63082],[-47.35611,-18.64973],[-47.39721,-18.73583],[-47.41101,-18.77243]]]]}}]}