{"type":"FeatureCollection","features":[{"type":"Feature","properties":{"territory_id":"mg-3143401-centro","name":"Centro","municipality_id":"mg-3143401","polling_places":1,"approx":true,"official":false,"method":"voronoi-polling-places","whole_municipality":false,"approx_coords_only":false},"geometry":{"type":"MultiPolygon","coordinates":[[[[-46.58042,-22.43277],[-46.5596,-22.44598],[-46.55661,-22.44637],[-46.57409,-22.42769],[-46.58042,-22.43277]]],[[[-46.55433,-22.4488],[-46.5542,-22.4494],[-46.55313,-22.45008],[-46.55433,-22.4488]]]]}},{"type":"Feature","properties":{"territory_id":"mg-3143401-colinas","name":"Colinas","municipality_id":"mg-3143401","polling_places":1,"approx":true,"official":false,"method":"voronoi-polling-places","whole_municipality":false,"approx_coords_only":false},"geometry":{"type":"MultiPolygon","coordinates":[[[[-46.57409,-22.42769],[-46.55661,-22.44637],[-46.5548,-22.4466],[-46.55433,-22.4488],[-46.55313,-22.45008],[-46.50307,-22.48953],[-46.5456,-22.3764],[-46.57409,-22.42769]]]]}},{"type":"Feature","properties":{"territory_id":"mg-3143401-magioli","name":"Magioli","municipality_id":"mg-3143401","polling_places":1,"approx":true,"official":false,"method":"voronoi-polling-places","whole_municipality":false,"approx_coords_only":false},"geometry":{"type":"MultiPolygon","coordinates":[[[[-46.6665,-22.4151],[-46.6163,-22.4386],[-46.60832,-22.43964],[-46.58042,-22.43277],[-46.57409,-22.42769],[-46.5456,-22.3764],[-46.55087,-22.35536],[-46.5697,-22.3801],[-46.6113,-22.3857],[-46.6609,-22.366],[-46.6665,-22.4151]]]]}},{"type":"Feature","properties":{"territory_id":"mg-3143401-mococa","name":"Mococa","municipality_id":"mg-3143401","polling_places":1,"approx":true,"official":false,"method":"voronoi-polling-places","whole_municipality":false,"approx_coords_only":false},"geometry":{"type":"MultiPolygon","coordinates":[[[[-46.55087,-22.35536],[-46.5456,-22.3764],[-46.50307,-22.48953],[-46.49377,-22.50981],[-46.4565,-22.5217],[-46.4309,-22.457],[-46.4232,-22.3993],[-46.4429,-22.3466],[-46.5062,-22.3409],[-46.5455,-22.3483],[-46.55087,-22.35536]]]]}},{"type":"Feature","properties":{"territory_id":"mg-3143401-tijuco-preto","name":"Tijuco Preto","municipality_id":"mg-3143401","polling_places":1,"approx":true,"official":false,"method":"voronoi-polling-places","whole_municipality":false,"approx_coords_only":false},"geometry":{"type":"MultiPolygon","coordinates":[[[[-46.60832,-22.43964],[-46.5596,-22.44598],[-46.58042,-22.43277],[-46.60832,-22.43964]]],[[[-46.5542,-22.4494],[-46.5499,-22.4695],[-46.5421,-22.4944],[-46.49377,-22.50981],[-46.50307,-22.48953],[-46.55313,-22.45008],[-46.5542,-22.4494]]]]}}]}