{"type":"FeatureCollection","features":[{"type":"Feature","properties":{"territory_id":"mg-3143708-centro","name":"Centro","municipality_id":"mg-3143708","polling_places":3,"approx":true,"official":false,"method":"voronoi-polling-places","whole_municipality":false,"approx_coords_only":false},"geometry":{"type":"MultiPolygon","coordinates":[[[[-43.42707,-19.13852],[-43.41819,-19.18084],[-43.41495,-19.19802],[-43.40338,-19.27512],[-43.3748,-19.26572],[-43.35425,-19.23177],[-43.29394,-19.15028],[-43.3441,-19.099],[-43.3745,-19.14],[-43.42707,-19.13852]]]]}},{"type":"Feature","properties":{"territory_id":"mg-3143708-povoado-de-areias","name":"Povoado de Areias","municipality_id":"mg-3143708","polling_places":1,"approx":true,"official":false,"method":"voronoi-polling-places","whole_municipality":false,"approx_coords_only":false},"geometry":{"type":"MultiPolygon","coordinates":[[[[-43.45293,-19.33391],[-43.3833,-19.3364],[-43.3509,-19.3259],[-43.30277,-19.28971],[-43.3748,-19.26572],[-43.40338,-19.27512],[-43.45293,-19.33391]]]]}},{"type":"Feature","properties":{"territory_id":"mg-3143708-povoado-de-carioca","name":"Povoado de Carioca","municipality_id":"mg-3143708","polling_places":1,"approx":true,"official":false,"method":"voronoi-polling-places","whole_municipality":false,"approx_coords_only":false},"geometry":{"type":"MultiPolygon","coordinates":[[[[-43.4607,-19.33364],[-43.45293,-19.33391],[-43.40338,-19.27512],[-43.41495,-19.19802],[-43.41819,-19.18084],[-43.42707,-19.13852],[-43.44137,-19.13812],[-43.4607,-19.33364]]]]}},{"type":"Feature","properties":{"territory_id":"mg-3143708-povoado-de-lapinha","name":"Povoado de Lapinha","municipality_id":"mg-3143708","polling_places":1,"approx":true,"official":false,"method":"voronoi-polling-places","whole_municipality":false,"approx_coords_only":false},"geometry":{"type":"MultiPolygon","coordinates":[[[[-43.5359,-19.2617],[-43.5181,-19.3161],[-43.5093,-19.3319],[-43.4607,-19.33364],[-43.44137,-19.13812],[-43.4563,-19.1377],[-43.4656,-19.1689],[-43.5075,-19.1683],[-43.5011,-19.2242],[-43.5359,-19.2617]]]]}},{"type":"Feature","properties":{"territory_id":"mg-3143708-povoado-de-ponte-cimento","name":"Povoado de Ponte Cimento","municipality_id":"mg-3143708","polling_places":1,"approx":true,"official":false,"method":"voronoi-polling-places","whole_municipality":false,"approx_coords_only":false},"geometry":{"type":"MultiPolygon","coordinates":[[[[-43.3748,-19.26572],[-43.30277,-19.28971],[-43.2985,-19.2865],[-43.307,-19.2277],[-43.2726,-19.1721],[-43.29394,-19.15028],[-43.35425,-19.23177],[-43.3748,-19.26572]]]]}}]}