{"type":"FeatureCollection","features":[{"type":"Feature","properties":{"territory_id":"mg-3144300-centro","name":"Centro","municipality_id":"mg-3144300","polling_places":8,"approx":false,"official":true,"method":"official-ibge-cd2022","whole_municipality":false,"approx_coords_only":false,"official_name":"Centro","official_code":"3144300001","match":"direct"},"geometry":{"type":"MultiPolygon","coordinates":[[[[-40.34968,-17.84568],[-40.35024,-17.84527],[-40.35071,-17.84583],[-40.35083,-17.84594],[-40.35092,-17.84601],[-40.35099,-17.84604],[-40.35116,-17.84604],[-40.35129,-17.84597],[-40.35191,-17.84429],[-40.35239,-17.84352],[-40.35278,-17.84306],[-40.3536,-17.84277],[-40.35459,-17.8428],[-40.35549,-17.84302],[-40.35932,-17.8441],[-40.3619,-17.84549],[-40.36222,-17.84416],[-40.3623,-17.84392],[-40.36232,-17.84365],[-40.36229,-17.84355],[-40.36127,-17.84335],[-40.3611,-17.84333],[-40.36098,-17.84325],[-40.3603,-17.84314],[-40.35951,-17.84303],[-40.3594,-17.84308],[-40.35946,-17.84299],[-40.35948,-17.8429],[-40.35944,-17.84281],[-40.35936,-17.84271],[-40.3591,-17.84243],[-40.35906,-17.84231],[-40.35904,-17.84208],[-40.35847,-17.84188],[-40.35827,-17.84184],[-40.35709,-17.84151],[-40.3569,-17.84148],[-40.35709,-17.84084],[-40.35742,-17.83956],[-40.35773,-17.83851],[-40.35627,-17.8381],[-40.35602,-17.83801],[-40.35544,-17.83749],[-40.35494,-17.837],[-40.35438,-17.83726],[-40.35401,-17.83662],[-40.35292,-17.83712],[-40.35211,-17.83747],[-40.35154,-17.83691],[-40.35096,-17.83636],[-40.35045,-17.83653],[-40.35002,-17.83702],[-40.34985,-17.83713],[-40.34996,-17.83692],[-40.35019,-17.83617],[-40.35027,-17.8358],[-40.35022,-17.83555],[-40.34963,-17.83572],[-40.34911,-17.83583],[-40.34792,-17.8363],[-40.34738,-17.83582],[-40.34623,-17.83525],[-40.34552,-17.83668],[-40.34351,-17.83693],[-40.34065,-17.83785],[-40.34081,-17.83839],[-40.3409,-17.83878],[-40.34165,-17.83968],[-40.34107,-17.84017],[-40.34044,-17.84062],[-40.33982,-17.84111],[-40.34063,-17.84206],[-40.34083,-17.84236],[-40.34165,-17.84328],[-40.34327,-17.84529],[-40.34414,-17.84623],[-40.34536,-17.8453],[-40.34601,-17.8462],[-40.34661,-17.84692],[-40.34717,-17.84756],[-40.34845,-17.84662],[-40.3491,-17.84612],[-40.34968,-17.84568]]]]}},{"type":"Feature","properties":{"territory_id":"mg-3144300-espirito-santo","name":"Espírito Santo","municipality_id":"mg-3144300","polling_places":1,"approx":true,"official":false,"method":"voronoi-polling-places","whole_municipality":false,"approx_coords_only":false},"geometry":{"type":"MultiPolygon","coordinates":[[[[-40.37392,-17.85349],[-40.34147,-17.87078],[-40.33628,-17.84971],[-40.33636,-17.84928],[-40.33621,-17.84916],[-40.33608,-17.8489],[-40.33606,-17.8488],[-40.33604,-17.84847],[-40.33626,-17.84791],[-40.33584,-17.8479],[-40.3341,-17.84085],[-40.3345,-17.84078],[-40.33449,-17.84113],[-40.33454,-17.84162],[-40.33452,-17.84183],[-40.33456,-17.84222],[-40.33464,-17.84269],[-40.33507,-17.84235],[-40.33595,-17.84158],[-40.33613,-17.84193],[-40.33625,-17.84206],[-40.3361,-17.84287],[-40.33658,-17.84336],[-40.33664,-17.84345],[-40.33676,-17.84333],[-40.33688,-17.84328],[-40.33766,-17.8427],[-40.33807,-17.84234],[-40.33861,-17.84198],[-40.33918,-17.84155],[-40.33982,-17.84111],[-40.34063,-17.84206],[-40.34083,-17.84236],[-40.34165,-17.84328],[-40.34327,-17.84529],[-40.34414,-17.84623],[-40.34536,-17.8453],[-40.34601,-17.8462],[-40.34661,-17.84692],[-40.34717,-17.84756],[-40.34845,-17.84662],[-40.3491,-17.84612],[-40.34968,-17.84568],[-40.35024,-17.84527],[-40.35071,-17.84583],[-40.35083,-17.84594],[-40.35092,-17.84601],[-40.35099,-17.84604],[-40.35116,-17.84604],[-40.35129,-17.84597],[-40.35191,-17.84429],[-40.35239,-17.84352],[-40.35278,-17.84306],[-40.3536,-17.84277],[-40.35459,-17.8428],[-40.35549,-17.84302],[-40.35545,-17.84368],[-40.35423,-17.8458],[-40.35371,-17.84641],[-40.35249,-17.84766],[-40.35204,-17.84801],[-40.35191,-17.84809],[-40.35143,-17.84833],[-40.35128,-17.84842],[-40.35114,-17.84855],[-40.35085,-17.84892],[-40.35076,-17.84902],[-40.35077,-17.8492],[-40.35069,-17.8494],[-40.3505,-17.8497],[-40.35017,-17.85012],[-40.34977,-17.85054],[-40.34961,-17.85067],[-40.34937,-17.85073],[-40.34916,-17.85075],[-40.34871,-17.85088],[-40.34749,-17.85142],[-40.34714,-17.85167],[-40.34711,-17.85181],[-40.34696,-17.85204],[-40.34689,-17.85224],[-40.34688,-17.85235],[-40.34689,-17.85254],[-40.34702,-17.85308],[-40.34713,-17.85337],[-40.34784,-17.85347],[-40.34801,-17.85251],[-40.35356,-17.85085],[-40.35434,-17.85015],[-40.35596,-17.85178],[-40.35683,-17.85112],[-40.35732,-17.85159],[-40.35793,-17.85116],[-40.35879,-17.85209],[-40.35918,-17.85182],[-40.35992,-17.85259],[-40.3612,-17.85138],[-40.3651,-17.84813],[-40.36762,-17.84793],[-40.36796,-17.84783],[-40.37392,-17.85349]]],[[[-40.36232,-17.84375],[-40.3623,-17.84392],[-40.36232,-17.84365],[-40.36232,-17.84375]]],[[[-40.35833,-17.83867],[-40.35773,-17.83851],[-40.35627,-17.8381],[-40.35833,-17.83866],[-40.35833,-17.83867]]],[[[-40.35397,-17.83452],[-40.35359,-17.83476],[-40.35318,-17.83431],[-40.35311,-17.83428],[-40.35286,-17.83424],[-40.35272,-17.83419],[-40.35257,-17.83413],[-40.35244,-17.83433],[-40.35204,-17.83446],[-40.35091,-17.83487],[-40.35018,-17.83519],[-40.35022,-17.83555],[-40.34963,-17.83572],[-40.34911,-17.83583],[-40.34792,-17.8363],[-40.34738,-17.83582],[-40.34623,-17.83525],[-40.34552,-17.83668],[-40.34351,-17.83693],[-40.34065,-17.83785],[-40.33756,-17.83854],[-40.33386,-17.83885],[-40.33361,-17.83888],[-40.32597,-17.80788],[-40.35397,-17.83452]]]]}},{"type":"Feature","properties":{"territory_id":"mg-3144300-israel-pinheiro","name":"Israel Pinheiro","municipality_id":"mg-3144300","polling_places":1,"approx":false,"official":true,"method":"official-ibge-cd2022","whole_municipality":false,"approx_coords_only":false,"official_name":"Israel Pinheiro","official_code":"3144300017","match":"direct"},"geometry":{"type":"MultiPolygon","coordinates":[[[[-40.36942,-17.83352],[-40.37109,-17.83163],[-40.37096,-17.83139],[-40.37048,-17.83095],[-40.36922,-17.82973],[-40.36898,-17.82951],[-40.368,-17.82875],[-40.36743,-17.82906],[-40.36674,-17.82936],[-40.36577,-17.82974],[-40.3655,-17.82979],[-40.36475,-17.82836],[-40.36344,-17.82897],[-40.3627,-17.82611],[-40.36266,-17.82582],[-40.36262,-17.82537],[-40.35922,-17.82557],[-40.35854,-17.82614],[-40.3589,-17.82877],[-40.35956,-17.8316],[-40.35995,-17.8316],[-40.36044,-17.83157],[-40.36134,-17.83142],[-40.36179,-17.83129],[-40.3622,-17.83114],[-40.36236,-17.83113],[-40.36279,-17.83105],[-40.36323,-17.83092],[-40.36343,-17.83089],[-40.36359,-17.83091],[-40.3637,-17.83104],[-40.36379,-17.83117],[-40.36394,-17.83277],[-40.3644,-17.83688],[-40.36447,-17.83749],[-40.36455,-17.83792],[-40.36456,-17.83855],[-40.36466,-17.83922],[-40.36485,-17.83978],[-40.36486,-17.84005],[-40.36474,-17.84028],[-40.3685,-17.84085],[-40.36894,-17.84124],[-40.36969,-17.84044],[-40.36997,-17.83999],[-40.37022,-17.83945],[-40.37015,-17.83861],[-40.36979,-17.83767],[-40.36955,-17.83651],[-40.36962,-17.83585],[-40.36961,-17.83512],[-40.36958,-17.8348],[-40.36944,-17.83386],[-40.36942,-17.83352]]]]}},{"type":"Feature","properties":{"territory_id":"mg-3144300-laticinios","name":"Laticínios","municipality_id":"mg-3144300","polling_places":1,"approx":false,"official":true,"method":"official-ibge-cd2022","whole_municipality":false,"approx_coords_only":false,"official_name":"Laticínios","official_code":"3144300002","match":"direct"},"geometry":{"type":"MultiPolygon","coordinates":[[[[-40.33807,-17.84234],[-40.33861,-17.84198],[-40.33918,-17.84155],[-40.33982,-17.84111],[-40.34044,-17.84062],[-40.34107,-17.84017],[-40.34165,-17.83968],[-40.3409,-17.83878],[-40.34081,-17.83839],[-40.34065,-17.83785],[-40.33756,-17.83854],[-40.33386,-17.83885],[-40.32996,-17.83945],[-40.32608,-17.84037],[-40.32439,-17.84079],[-40.32345,-17.84116],[-40.32135,-17.84399],[-40.32904,-17.84421],[-40.32987,-17.84161],[-40.3345,-17.84078],[-40.33449,-17.84113],[-40.33454,-17.84162],[-40.33452,-17.84183],[-40.33456,-17.84222],[-40.33464,-17.84269],[-40.33507,-17.84235],[-40.33595,-17.84158],[-40.33613,-17.84193],[-40.33625,-17.84206],[-40.3361,-17.84287],[-40.33658,-17.84336],[-40.33664,-17.84345],[-40.33676,-17.84333],[-40.33688,-17.84328],[-40.33766,-17.8427],[-40.33807,-17.84234]]]]}},{"type":"Feature","properties":{"territory_id":"mg-3144300-nacoes-unidas","name":"Nações Unidas","municipality_id":"mg-3144300","polling_places":1,"approx":true,"official":false,"method":"voronoi-polling-places","whole_municipality":false,"approx_coords_only":false},"geometry":{"type":"MultiPolygon","coordinates":[[[[-40.34147,-17.87078],[-40.29452,-17.95096],[-40.2554,-17.9718],[-40.2224,-17.9804],[-40.2268,-17.9583],[-40.2635,-17.922],[-40.2119,-17.8949],[-40.2945,-17.8539],[-40.3155,-17.8038],[-40.3056,-17.7796],[-40.30579,-17.7789],[-40.32597,-17.80788],[-40.33361,-17.83888],[-40.32996,-17.83945],[-40.32608,-17.84037],[-40.32439,-17.84079],[-40.32345,-17.84116],[-40.32135,-17.84399],[-40.32904,-17.84421],[-40.32987,-17.84161],[-40.3341,-17.84085],[-40.33584,-17.8479],[-40.33544,-17.8479],[-40.33529,-17.84809],[-40.33499,-17.84822],[-40.33394,-17.84821],[-40.33392,-17.84904],[-40.33353,-17.84987],[-40.33317,-17.85028],[-40.33261,-17.85046],[-40.33146,-17.85025],[-40.33064,-17.85001],[-40.32939,-17.8494],[-40.32855,-17.84925],[-40.32775,-17.84953],[-40.32743,-17.84989],[-40.32748,-17.85168],[-40.32512,-17.85348],[-40.32617,-17.85598],[-40.32505,-17.86172],[-40.32902,-17.85985],[-40.32949,-17.86084],[-40.33103,-17.86017],[-40.33172,-17.85812],[-40.3308,-17.85628],[-40.33396,-17.85641],[-40.3377,-17.8566],[-40.33598,-17.85302],[-40.33589,-17.85306],[-40.33588,-17.85204],[-40.33617,-17.85031],[-40.33628,-17.84971],[-40.34147,-17.87078]]],[[[-40.33608,-17.8489],[-40.33606,-17.84886],[-40.33606,-17.8488],[-40.33608,-17.8489]]]]}},{"type":"Feature","properties":{"territory_id":"mg-3144300-nossa-senhora-de-fatima","name":"Nossa Senhora de Fátima","municipality_id":"mg-3144300","polling_places":1,"approx":false,"official":true,"method":"official-ibge-cd2022","whole_municipality":false,"approx_coords_only":false,"official_name":"Nossa Senhora de Fátima","official_code":"3144300016","match":"direct"},"geometry":{"type":"MultiPolygon","coordinates":[[[[-40.37712,-17.84524],[-40.37785,-17.84504],[-40.38005,-17.84461],[-40.3812,-17.84385],[-40.38155,-17.84369],[-40.38279,-17.84294],[-40.3836,-17.84236],[-40.38436,-17.84176],[-40.38559,-17.84084],[-40.38634,-17.84009],[-40.38685,-17.83942],[-40.38749,-17.83825],[-40.38908,-17.83604],[-40.39048,-17.83563],[-40.39153,-17.83519],[-40.39324,-17.83427],[-40.39298,-17.8336],[-40.39263,-17.83299],[-40.39033,-17.83419],[-40.38903,-17.83481],[-40.38801,-17.8352],[-40.3873,-17.83554],[-40.38611,-17.8366],[-40.38319,-17.83785],[-40.3772,-17.84082],[-40.36962,-17.84285],[-40.36929,-17.84299],[-40.36818,-17.84333],[-40.36786,-17.84325],[-40.36774,-17.84343],[-40.36765,-17.84364],[-40.36764,-17.84373],[-40.36762,-17.84793],[-40.37712,-17.84524]]]]}},{"type":"Feature","properties":{"territory_id":"mg-3144300-romilda-ruas","name":"Romilda Ruas","municipality_id":"mg-3144300","polling_places":1,"approx":false,"official":true,"method":"official-ibge-cd2022","whole_municipality":false,"approx_coords_only":false,"official_name":"Romilda Ruas","official_code":"3144300015","match":"direct"},"geometry":{"type":"MultiPolygon","coordinates":[[[[-40.36764,-17.84373],[-40.36765,-17.84364],[-40.36774,-17.84343],[-40.36786,-17.84325],[-40.36818,-17.84333],[-40.36929,-17.84299],[-40.36962,-17.84285],[-40.36894,-17.84124],[-40.3685,-17.84085],[-40.36474,-17.84028],[-40.36419,-17.84085],[-40.3638,-17.84138],[-40.36366,-17.84163],[-40.36357,-17.84186],[-40.36349,-17.84193],[-40.36328,-17.84229],[-40.36302,-17.84264],[-40.36269,-17.84315],[-40.36251,-17.84338],[-40.36242,-17.84348],[-40.36229,-17.84355],[-40.36232,-17.84365],[-40.36232,-17.84375],[-40.3623,-17.84392],[-40.36222,-17.84416],[-40.3619,-17.84549],[-40.3651,-17.84813],[-40.36762,-17.84793],[-40.36763,-17.84437],[-40.36764,-17.84373]]]]}},{"type":"Feature","properties":{"territory_id":"mg-3144300-stella-matutina","name":"Stella Matutina","municipality_id":"mg-3144300","polling_places":1,"approx":false,"official":true,"method":"official-ibge-cd2022","whole_municipality":false,"approx_coords_only":false,"official_name":"Stella Matutina","official_code":"3144300006","match":"direct"},"geometry":{"type":"MultiPolygon","coordinates":[[[[-40.3645,-17.8377],[-40.36447,-17.83749],[-40.36422,-17.83751],[-40.36423,-17.83771],[-40.36418,-17.83796],[-40.3641,-17.83819],[-40.36393,-17.83849],[-40.36362,-17.83876],[-40.36317,-17.83893],[-40.36289,-17.83892],[-40.36265,-17.83887],[-40.3626,-17.83825],[-40.36043,-17.83605],[-40.35912,-17.83721],[-40.35921,-17.83737],[-40.35889,-17.83769],[-40.35884,-17.83782],[-40.35885,-17.83793],[-40.35883,-17.83799],[-40.35869,-17.83826],[-40.35853,-17.83872],[-40.35773,-17.83851],[-40.35742,-17.83956],[-40.35709,-17.84084],[-40.3569,-17.84148],[-40.35709,-17.84151],[-40.35827,-17.84184],[-40.35847,-17.84188],[-40.35904,-17.84208],[-40.35906,-17.84231],[-40.3591,-17.84243],[-40.35936,-17.84271],[-40.35944,-17.84281],[-40.35948,-17.8429],[-40.35946,-17.84299],[-40.3594,-17.84308],[-40.35951,-17.84303],[-40.3603,-17.84314],[-40.36098,-17.84325],[-40.3611,-17.84333],[-40.36127,-17.84335],[-40.36229,-17.84355],[-40.36242,-17.84348],[-40.36251,-17.84338],[-40.36269,-17.84315],[-40.36302,-17.84264],[-40.36328,-17.84229],[-40.36349,-17.84193],[-40.36357,-17.84186],[-40.36366,-17.84163],[-40.3638,-17.84138],[-40.36419,-17.84085],[-40.36474,-17.84028],[-40.36486,-17.84005],[-40.36485,-17.83978],[-40.36466,-17.83922],[-40.36456,-17.83855],[-40.36455,-17.83792],[-40.3645,-17.8377]]]]}},{"type":"Feature","properties":{"territory_id":"mg-3144300-udr","name":"Udr","municipality_id":"mg-3144300","polling_places":1,"approx":true,"official":false,"method":"voronoi-polling-places","whole_municipality":false,"approx_coords_only":false},"geometry":{"type":"MultiPolygon","coordinates":[[[[-40.6214,-17.599],[-40.5905,-17.6656],[-40.6139,-17.7189],[-40.5584,-17.7377],[-40.5323,-17.7748],[-40.5493,-17.8109],[-40.5967,-17.8151],[-40.59931,-17.82102],[-40.56677,-17.90088],[-40.37392,-17.85349],[-40.36796,-17.84783],[-40.37712,-17.84524],[-40.37785,-17.84504],[-40.38005,-17.84461],[-40.3812,-17.84385],[-40.38155,-17.84369],[-40.38279,-17.84294],[-40.3836,-17.84236],[-40.38436,-17.84176],[-40.38559,-17.84084],[-40.38634,-17.84009],[-40.38685,-17.83942],[-40.38749,-17.83825],[-40.38908,-17.83604],[-40.39048,-17.83563],[-40.39153,-17.83519],[-40.39324,-17.83427],[-40.39298,-17.8336],[-40.39263,-17.83299],[-40.39033,-17.83419],[-40.38903,-17.83481],[-40.38801,-17.8352],[-40.3873,-17.83554],[-40.38611,-17.8366],[-40.38319,-17.83785],[-40.3772,-17.84082],[-40.36962,-17.84285],[-40.36894,-17.84124],[-40.36969,-17.84044],[-40.36997,-17.83999],[-40.37022,-17.83945],[-40.37015,-17.83861],[-40.36979,-17.83767],[-40.36955,-17.83651],[-40.36962,-17.83585],[-40.36961,-17.83512],[-40.36958,-17.8348],[-40.36944,-17.83386],[-40.36942,-17.83352],[-40.37109,-17.83163],[-40.37096,-17.83139],[-40.37048,-17.83095],[-40.36922,-17.82973],[-40.36898,-17.82951],[-40.368,-17.82875],[-40.36743,-17.82906],[-40.36674,-17.82936],[-40.36577,-17.82974],[-40.3655,-17.82979],[-40.36475,-17.82836],[-40.36344,-17.82897],[-40.3627,-17.82611],[-40.36266,-17.82582],[-40.36262,-17.82537],[-40.35922,-17.82557],[-40.35854,-17.82614],[-40.3589,-17.82877],[-40.35956,-17.8316],[-40.35995,-17.8316],[-40.36044,-17.83157],[-40.36134,-17.83142],[-40.36179,-17.83129],[-40.3622,-17.83114],[-40.36236,-17.83113],[-40.36279,-17.83105],[-40.36323,-17.83092],[-40.36343,-17.83089],[-40.36359,-17.83091],[-40.3637,-17.83104],[-40.36379,-17.83117],[-40.36394,-17.83277],[-40.3644,-17.83688],[-40.36447,-17.83749],[-40.36422,-17.83751],[-40.36423,-17.83771],[-40.36418,-17.83796],[-40.3641,-17.83819],[-40.36393,-17.83849],[-40.36362,-17.83876],[-40.36317,-17.83893],[-40.36289,-17.83892],[-40.36265,-17.83887],[-40.3626,-17.83825],[-40.36043,-17.83605],[-40.35587,-17.83415],[-40.35577,-17.83419],[-40.35566,-17.83419],[-40.35499,-17.83393],[-40.35486,-17.83391],[-40.35474,-17.83392],[-40.35466,-17.83401],[-40.35458,-17.83413],[-40.35397,-17.83452],[-40.32597,-17.80788],[-40.30579,-17.7789],[-40.3318,-17.6855],[-40.347,-17.6638],[-40.3441,-17.6156],[-40.4182,-17.5991],[-40.4138,-17.5742],[-40.4592,-17.5695],[-40.4891,-17.5198],[-40.483,-17.4885],[-40.5195,-17.4474],[-40.5524,-17.4765],[-40.5447,-17.5007],[-40.5796,-17.5438],[-40.6191,-17.5752],[-40.6214,-17.599]]],[[[-40.36764,-17.84373],[-40.36762,-17.8475],[-40.36763,-17.84437],[-40.36764,-17.84373]]],[[[-40.36455,-17.83792],[-40.3645,-17.8377],[-40.36447,-17.83749],[-40.36455,-17.83792]]],[[[-40.35853,-17.83872],[-40.35833,-17.83867],[-40.35833,-17.83866],[-40.35853,-17.83872]]]]}},{"type":"Feature","properties":{"territory_id":"mg-3144300-vila-esperanca","name":"Vila Esperança","municipality_id":"mg-3144300","polling_places":1,"approx":false,"official":true,"method":"official-ibge-cd2022","whole_municipality":false,"approx_coords_only":false,"official_name":"Vila Esperança","official_code":"3144300014","match":"direct"},"geometry":{"type":"MultiPolygon","coordinates":[[[[-40.35085,-17.84892],[-40.35076,-17.84902],[-40.35077,-17.8492],[-40.35069,-17.8494],[-40.3505,-17.8497],[-40.35017,-17.85012],[-40.34977,-17.85054],[-40.34961,-17.85067],[-40.34937,-17.85073],[-40.34916,-17.85075],[-40.34871,-17.85088],[-40.34749,-17.85142],[-40.34714,-17.85167],[-40.34711,-17.85181],[-40.34696,-17.85204],[-40.34689,-17.85224],[-40.34688,-17.85235],[-40.34689,-17.85254],[-40.34702,-17.85308],[-40.34713,-17.85337],[-40.34784,-17.85347],[-40.34801,-17.85251],[-40.35356,-17.85085],[-40.35434,-17.85015],[-40.35596,-17.85178],[-40.35683,-17.85112],[-40.35732,-17.85159],[-40.35793,-17.85116],[-40.35879,-17.85209],[-40.35918,-17.85182],[-40.35992,-17.85259],[-40.3612,-17.85138],[-40.3651,-17.84813],[-40.3619,-17.84549],[-40.35932,-17.8441],[-40.35549,-17.84302],[-40.35545,-17.84368],[-40.35423,-17.8458],[-40.35371,-17.84641],[-40.35249,-17.84766],[-40.35204,-17.84801],[-40.35191,-17.84809],[-40.35143,-17.84833],[-40.35128,-17.84842],[-40.35114,-17.84855],[-40.35085,-17.84892]]]]}},{"type":"Feature","properties":{"territory_id":"mg-3144300-vila-gabriel-passos","name":"Vila Gabriel Passos","municipality_id":"mg-3144300","polling_places":1,"approx":true,"official":false,"method":"voronoi-polling-places","whole_municipality":false,"approx_coords_only":false},"geometry":{"type":"MultiPolygon","coordinates":[[[[-40.56677,-17.90088],[-40.56271,-17.91584],[-40.5168,-17.8944],[-40.4627,-17.9282],[-40.3684,-17.9229],[-40.3455,-17.9238],[-40.29452,-17.95096],[-40.34147,-17.87078],[-40.37392,-17.85349],[-40.56677,-17.90088]]]]}},{"type":"Feature","properties":{"territory_id":"mg-3144300-vila-nova","name":"Vila Nova","municipality_id":"mg-3144300","polling_places":1,"approx":false,"official":true,"method":"official-ibge-cd2022","whole_municipality":false,"approx_coords_only":false,"official_name":"Vila Nova","official_code":"3144300011","match":"direct"},"geometry":{"type":"MultiPolygon","coordinates":[[[[-40.3308,-17.85628],[-40.33396,-17.85641],[-40.3377,-17.8566],[-40.33598,-17.85302],[-40.33589,-17.85306],[-40.33588,-17.85204],[-40.33617,-17.85031],[-40.33636,-17.84928],[-40.33621,-17.84916],[-40.33606,-17.84886],[-40.33604,-17.84847],[-40.33626,-17.84791],[-40.33544,-17.8479],[-40.33529,-17.84809],[-40.33499,-17.84822],[-40.33394,-17.84821],[-40.33392,-17.84904],[-40.33353,-17.84987],[-40.33317,-17.85028],[-40.33261,-17.85046],[-40.33146,-17.85025],[-40.33064,-17.85001],[-40.32939,-17.8494],[-40.32855,-17.84925],[-40.32775,-17.84953],[-40.32743,-17.84989],[-40.32748,-17.85168],[-40.32512,-17.85348],[-40.32617,-17.85598],[-40.32505,-17.86172],[-40.32902,-17.85985],[-40.32949,-17.86084],[-40.33103,-17.86017],[-40.33172,-17.85812],[-40.3308,-17.85628]]]]}},{"type":"Feature","properties":{"territory_id":"mg-3144300-vila-operaria","name":"Vila Operária","municipality_id":"mg-3144300","polling_places":1,"approx":false,"official":true,"method":"official-ibge-cd2022","whole_municipality":false,"approx_coords_only":false,"official_name":"Vila Operária","official_code":"3144300007","match":"direct"},"geometry":{"type":"MultiPolygon","coordinates":[[[[-40.35257,-17.83413],[-40.35244,-17.83433],[-40.35204,-17.83446],[-40.35091,-17.83487],[-40.35018,-17.83519],[-40.35022,-17.83555],[-40.35027,-17.8358],[-40.35019,-17.83617],[-40.34996,-17.83692],[-40.34985,-17.83713],[-40.35002,-17.83702],[-40.35045,-17.83653],[-40.35096,-17.83636],[-40.35154,-17.83691],[-40.35211,-17.83747],[-40.35292,-17.83712],[-40.35401,-17.83662],[-40.35438,-17.83726],[-40.35494,-17.837],[-40.35544,-17.83749],[-40.35602,-17.83801],[-40.35627,-17.8381],[-40.35853,-17.83872],[-40.35869,-17.83826],[-40.35883,-17.83799],[-40.35885,-17.83793],[-40.35884,-17.83782],[-40.35889,-17.83769],[-40.35921,-17.83737],[-40.35912,-17.83721],[-40.36043,-17.83605],[-40.35587,-17.83415],[-40.35577,-17.83419],[-40.35566,-17.83419],[-40.35499,-17.83393],[-40.35486,-17.83391],[-40.35474,-17.83392],[-40.35466,-17.83401],[-40.35458,-17.83413],[-40.35359,-17.83476],[-40.35318,-17.83431],[-40.35311,-17.83428],[-40.35286,-17.83424],[-40.35272,-17.83419],[-40.35257,-17.83413]]]]}},{"type":"Feature","properties":{"territory_id":"mg-3144300-vila-pereira","name":"Vila Pereira","municipality_id":"mg-3144300","polling_places":1,"approx":true,"official":false,"method":"voronoi-polling-places","whole_municipality":false,"approx_coords_only":false},"geometry":{"type":"MultiPolygon","coordinates":[[[[-40.7985,-17.9569],[-40.7528,-18.0096],[-40.7258,-18.0012],[-40.7037,-18.0237],[-40.662,-18.0127],[-40.6262,-17.9911],[-40.6095,-17.9377],[-40.56271,-17.91584],[-40.56677,-17.90088],[-40.59931,-17.82102],[-40.6061,-17.8364],[-40.6558,-17.8646],[-40.7354,-17.8762],[-40.785,-17.9211],[-40.7985,-17.9569]]]]}}]}