{"type":"FeatureCollection","features":[{"type":"Feature","properties":{"territory_id":"mg-3144359-centro","name":"Centro","municipality_id":"mg-3144359","polling_places":1,"approx":true,"official":false,"method":"voronoi-polling-places","whole_municipality":true,"approx_coords_only":false},"geometry":{"type":"MultiPolygon","coordinates":[[[[-42.3532,-19.224],[-42.3163,-19.2381],[-42.2535,-19.1873],[-42.26,-19.153],[-42.3498,-19.1121],[-42.3529,-19.1469],[-42.3996,-19.1868],[-42.3532,-19.224]]]]}}]}