{"type":"FeatureCollection","features":[{"type":"Feature","properties":{"territory_id":"mg-3144805-alphaville","name":"Alphaville","municipality_id":"mg-3144805","polling_places":1,"approx":true,"official":false,"method":"voronoi-polling-places","whole_municipality":false,"approx_coords_only":false},"geometry":{"type":"MultiPolygon","coordinates":[[[[-43.97842,-20.12954],[-43.9725,-20.1768],[-43.97321,-20.1859],[-43.8923,-20.21017],[-43.8541,-20.1976],[-43.8732,-20.1629],[-43.86832,-20.15716],[-43.96191,-20.12655],[-43.97842,-20.12954]]]]}},{"type":"Feature","properties":{"territory_id":"mg-3144805-balneario-agua-limpa","name":"Balneário Água Limpa","municipality_id":"mg-3144805","polling_places":1,"approx":true,"official":false,"method":"voronoi-polling-places","whole_municipality":false,"approx_coords_only":false},"geometry":{"type":"MultiPolygon","coordinates":[[[[-43.9761,-20.2227],[-43.9379,-20.2079],[-43.9076,-20.2152],[-43.8923,-20.21017],[-43.97321,-20.1859],[-43.9761,-20.2227]]]]}},{"type":"Feature","properties":{"territory_id":"mg-3144805-bela-fama","name":"Bela Fama","municipality_id":"mg-3144805","polling_places":1,"approx":true,"official":false,"method":"voronoi-polling-places","whole_municipality":false,"approx_coords_only":false},"geometry":{"type":"MultiPolygon","coordinates":[[[[-43.84928,-20.02971],[-43.81676,-20.00155],[-43.82953,-19.99448],[-43.84051,-19.99982],[-43.84928,-20.02971]]]]}},{"type":"Feature","properties":{"territory_id":"mg-3144805-boa-vista","name":"Boa Vista","municipality_id":"mg-3144805","polling_places":1,"approx":true,"official":false,"method":"voronoi-polling-places","whole_municipality":false,"approx_coords_only":false},"geometry":{"type":"MultiPolygon","coordinates":[[[[-43.88846,-19.94043],[-43.85707,-19.97995],[-43.85101,-19.97777],[-43.85314,-19.92766],[-43.8701,-19.9279],[-43.88846,-19.94043]]]]}},{"type":"Feature","properties":{"territory_id":"mg-3144805-bonfim","name":"Bonfim","municipality_id":"mg-3144805","polling_places":1,"approx":true,"official":false,"method":"voronoi-polling-places","whole_municipality":false,"approx_coords_only":false},"geometry":{"type":"MultiPolygon","coordinates":[[[[-43.84898,-19.98913],[-43.84875,-19.99128],[-43.84152,-19.98977],[-43.84531,-19.98676],[-43.84582,-19.98687],[-43.84898,-19.98913]]]]}},{"type":"Feature","properties":{"territory_id":"mg-3144805-cabeceiras","name":"Cabeceiras","municipality_id":"mg-3144805","polling_places":3,"approx":true,"official":false,"method":"voronoi-polling-places","whole_municipality":false,"approx_coords_only":false},"geometry":{"type":"MultiPolygon","coordinates":[[[[-43.90168,-19.94945],[-43.87389,-20.00649],[-43.87113,-20.00731],[-43.86731,-19.99926],[-43.86262,-19.99204],[-43.86318,-19.98986],[-43.86364,-19.98773],[-43.86716,-19.98123],[-43.87477,-19.97233],[-43.894,-19.94421],[-43.90168,-19.94945]]]]}},{"type":"Feature","properties":{"territory_id":"mg-3144805-campo-do-pires","name":"Campo do Pires","municipality_id":"mg-3144805","polling_places":1,"approx":true,"official":false,"method":"voronoi-polling-places","whole_municipality":false,"approx_coords_only":false},"geometry":{"type":"MultiPolygon","coordinates":[[[[-43.86357,-20.01541],[-43.85323,-20.03472],[-43.84928,-20.02971],[-43.84051,-19.99982],[-43.84394,-19.99917],[-43.85127,-20.00292],[-43.86357,-20.01541]]]]}},{"type":"Feature","properties":{"territory_id":"mg-3144805-centro","name":"Centro","municipality_id":"mg-3144805","polling_places":10,"approx":true,"official":false,"method":"voronoi-polling-places","whole_municipality":false,"approx_coords_only":false},"geometry":{"type":"MultiPolygon","coordinates":[[[[-43.85716,-19.98195],[-43.85539,-19.98529],[-43.85463,-19.98531],[-43.85388,-19.98525],[-43.85263,-19.98417],[-43.8484,-19.98376],[-43.84903,-19.98673],[-43.84955,-19.98779],[-43.84898,-19.98913],[-43.84582,-19.98687],[-43.84531,-19.98676],[-43.84152,-19.98977],[-43.83177,-19.99054],[-43.8331,-19.9853],[-43.83442,-19.97461],[-43.84699,-19.98012],[-43.8498,-19.97896],[-43.85101,-19.97777],[-43.85707,-19.97995],[-43.85716,-19.98195]]]]}},{"type":"Feature","properties":{"territory_id":"mg-3144805-chacara-bom-retiro","name":"Chacara Bom Retiro","municipality_id":"mg-3144805","polling_places":1,"approx":true,"official":false,"method":"voronoi-polling-places","whole_municipality":false,"approx_coords_only":false},"geometry":{"type":"MultiPolygon","coordinates":[[[[-43.86829,-20.00992],[-43.86357,-20.01541],[-43.85127,-20.00292],[-43.85178,-19.99505],[-43.85264,-19.99515],[-43.86829,-20.00992]]]]}},{"type":"Feature","properties":{"territory_id":"mg-3144805-chacara-dos-cristais","name":"Chacara dos Cristais","municipality_id":"mg-3144805","polling_places":1,"approx":true,"official":false,"method":"voronoi-polling-places","whole_municipality":false,"approx_coords_only":false},"geometry":{"type":"MultiPolygon","coordinates":[[[[-43.87113,-20.00731],[-43.86829,-20.00992],[-43.85264,-19.99515],[-43.85927,-19.99078],[-43.86262,-19.99204],[-43.86731,-19.99926],[-43.87113,-20.00731]]]]}},{"type":"Feature","properties":{"territory_id":"mg-3144805-cristais","name":"Cristais","municipality_id":"mg-3144805","polling_places":2,"approx":true,"official":false,"method":"voronoi-polling-places","whole_municipality":false,"approx_coords_only":false},"geometry":{"type":"MultiPolygon","coordinates":[[[[-43.85927,-19.99078],[-43.85264,-19.99515],[-43.85178,-19.99505],[-43.84939,-19.99367],[-43.8492,-19.99208],[-43.84875,-19.99128],[-43.84898,-19.98913],[-43.84955,-19.98779],[-43.85388,-19.98525],[-43.85463,-19.98531],[-43.85164,-19.99098],[-43.85776,-19.98941],[-43.85927,-19.99078]]]]}},{"type":"Feature","properties":{"territory_id":"mg-3144805-cruzeiro","name":"Cruzeiro","municipality_id":"mg-3144805","polling_places":1,"approx":true,"official":false,"method":"voronoi-polling-places","whole_municipality":false,"approx_coords_only":false},"geometry":{"type":"MultiPolygon","coordinates":[[[[-43.84939,-19.99367],[-43.84394,-19.99917],[-43.84051,-19.99982],[-43.82953,-19.99448],[-43.83177,-19.99054],[-43.84152,-19.98977],[-43.84875,-19.99128],[-43.8492,-19.99208],[-43.84939,-19.99367]]]]}},{"type":"Feature","properties":{"territory_id":"mg-3144805-galo-novo","name":"Galo Novo","municipality_id":"mg-3144805","polling_places":1,"approx":true,"official":false,"method":"voronoi-polling-places","whole_municipality":false,"approx_coords_only":false},"geometry":{"type":"MultiPolygon","coordinates":[[[[-43.83442,-19.97461],[-43.8331,-19.9853],[-43.83177,-19.99054],[-43.82953,-19.99448],[-43.81676,-20.00155],[-43.81143,-20.00187],[-43.83279,-19.96662],[-43.83442,-19.97461]]]]}},{"type":"Feature","properties":{"territory_id":"mg-3144805-honorio-bicalho","name":"Honorio Bicalho","municipality_id":"mg-3144805","polling_places":1,"approx":true,"official":false,"method":"voronoi-polling-places","whole_municipality":false,"approx_coords_only":false},"geometry":{"type":"MultiPolygon","coordinates":[[[[-43.85323,-20.03472],[-43.85298,-20.04253],[-43.79732,-20.02478],[-43.7976,-20.0247],[-43.81143,-20.00187],[-43.81676,-20.00155],[-43.84928,-20.02971],[-43.85323,-20.03472]]]]}},{"type":"Feature","properties":{"territory_id":"mg-3144805-jardim-canada","name":"Jardim Canada","municipality_id":"mg-3144805","polling_places":4,"approx":true,"official":false,"method":"voronoi-polling-places","whole_municipality":false,"approx_coords_only":false},"geometry":{"type":"MultiPolygon","coordinates":[[[[-44.0011,-20.0567],[-43.98378,-20.092],[-43.96876,-20.07403],[-43.95855,-20.0684],[-43.95717,-20.05866],[-43.95275,-20.03238],[-43.95394,-20.02882],[-43.954,-20.02855],[-43.97669,-20.01556],[-43.9934,-20.0337],[-44.0011,-20.0567]]]]}},{"type":"Feature","properties":{"territory_id":"mg-3144805-jardim-das-americas","name":"Jardim das Americas","municipality_id":"mg-3144805","polling_places":1,"approx":true,"official":false,"method":"voronoi-polling-places","whole_municipality":false,"approx_coords_only":false},"geometry":{"type":"MultiPolygon","coordinates":[[[[-43.85776,-19.98941],[-43.85164,-19.99098],[-43.85463,-19.98531],[-43.85539,-19.98529],[-43.85776,-19.98941]]]]}},{"type":"Feature","properties":{"territory_id":"mg-3144805-jardins-de-petropolis","name":"Jardins de Petropolis","municipality_id":"mg-3144805","polling_places":1,"approx":true,"official":false,"method":"voronoi-polling-places","whole_municipality":false,"approx_coords_only":false},"geometry":{"type":"MultiPolygon","coordinates":[[[[-43.90517,-20.01621],[-43.86721,-20.08673],[-43.85298,-20.04253],[-43.85323,-20.03472],[-43.86357,-20.01541],[-43.86829,-20.00992],[-43.87113,-20.00731],[-43.87389,-20.00649],[-43.90517,-20.01621]]]]}},{"type":"Feature","properties":{"territory_id":"mg-3144805-jose-de-almeida","name":"Jose de Almeida","municipality_id":"mg-3144805","polling_places":1,"approx":true,"official":false,"method":"voronoi-polling-places","whole_municipality":false,"approx_coords_only":false},"geometry":{"type":"MultiPolygon","coordinates":[[[[-43.91184,-20.01273],[-43.90517,-20.01621],[-43.87389,-20.00649],[-43.90168,-19.94945],[-43.90394,-19.951],[-43.91184,-20.01273]]]]}},{"type":"Feature","properties":{"territory_id":"mg-3144805-mingu","name":"Mingu","municipality_id":"mg-3144805","polling_places":1,"approx":true,"official":false,"method":"voronoi-polling-places","whole_municipality":false,"approx_coords_only":false},"geometry":{"type":"MultiPolygon","coordinates":[[[[-43.85314,-19.92766],[-43.85101,-19.97777],[-43.8498,-19.97896],[-43.84699,-19.98012],[-43.83442,-19.97461],[-43.83279,-19.96662],[-43.8388,-19.9567],[-43.8342,-19.9274],[-43.85314,-19.92766]]]]}},{"type":"Feature","properties":{"territory_id":"mg-3144805-morro-do-chapeu","name":"Morro do Chapeu","municipality_id":"mg-3144805","polling_places":1,"approx":true,"official":false,"method":"voronoi-polling-places","whole_municipality":false,"approx_coords_only":false},"geometry":{"type":"MultiPolygon","coordinates":[[[[-43.96191,-20.12655],[-43.86832,-20.15716],[-43.8522,-20.1382],[-43.85058,-20.12286],[-43.86735,-20.08997],[-43.88839,-20.08279],[-43.94656,-20.08717],[-43.96191,-20.12655]]]]}},{"type":"Feature","properties":{"territory_id":"mg-3144805-olaria","name":"Olaria","municipality_id":"mg-3144805","polling_places":1,"approx":true,"official":false,"method":"voronoi-polling-places","whole_municipality":false,"approx_coords_only":false},"geometry":{"type":"MultiPolygon","coordinates":[[[[-43.894,-19.94421],[-43.87477,-19.97233],[-43.86716,-19.98123],[-43.8595,-19.9828],[-43.85716,-19.98195],[-43.85707,-19.97995],[-43.88846,-19.94043],[-43.894,-19.94421]]]]}},{"type":"Feature","properties":{"territory_id":"mg-3144805-pasargada","name":"Pasargada","municipality_id":"mg-3144805","polling_places":1,"approx":true,"official":false,"method":"voronoi-polling-places","whole_municipality":false,"approx_coords_only":false},"geometry":{"type":"MultiPolygon","coordinates":[[[[-43.95855,-20.0684],[-43.94656,-20.08717],[-43.88839,-20.08279],[-43.95275,-20.03238],[-43.95717,-20.05866],[-43.95855,-20.0684]]]]}},{"type":"Feature","properties":{"territory_id":"mg-3144805-retiro","name":"Retiro","municipality_id":"mg-3144805","polling_places":2,"approx":true,"official":false,"method":"voronoi-polling-places","whole_municipality":false,"approx_coords_only":false},"geometry":{"type":"MultiPolygon","coordinates":[[[[-43.86716,-19.98123],[-43.86364,-19.98773],[-43.86318,-19.98986],[-43.86262,-19.99204],[-43.85927,-19.99078],[-43.85776,-19.98941],[-43.85539,-19.98529],[-43.85716,-19.98195],[-43.8595,-19.9828],[-43.86716,-19.98123]]]]}},{"type":"Feature","properties":{"territory_id":"mg-3144805-rua-nova","name":"Rua Nova","municipality_id":"mg-3144805","polling_places":1,"approx":true,"official":false,"method":"voronoi-polling-places","whole_municipality":false,"approx_coords_only":false},"geometry":{"type":"MultiPolygon","coordinates":[[[[-43.85388,-19.98525],[-43.84955,-19.98779],[-43.84903,-19.98673],[-43.8484,-19.98376],[-43.85263,-19.98417],[-43.85388,-19.98525]]]]}},{"type":"Feature","properties":{"territory_id":"mg-3144805-santa-rita","name":"Santa Rita","municipality_id":"mg-3144805","polling_places":1,"approx":true,"official":false,"method":"voronoi-polling-places","whole_municipality":false,"approx_coords_only":false},"geometry":{"type":"MultiPolygon","coordinates":[[[[-43.86735,-20.08997],[-43.85058,-20.12286],[-43.8478,-20.0965],[-43.8159,-20.0531],[-43.783,-20.029],[-43.79732,-20.02478],[-43.85298,-20.04253],[-43.86721,-20.08673],[-43.86735,-20.08997]]]]}},{"type":"Feature","properties":{"territory_id":"mg-3144805-sao-sebastiao-das-aguas-claras","name":"Sao Sebastiao das Aguas Claras","municipality_id":"mg-3144805","polling_places":1,"approx":true,"official":false,"method":"voronoi-polling-places","whole_municipality":false,"approx_coords_only":false},"geometry":{"type":"MultiPolygon","coordinates":[[[[-43.954,-20.02855],[-43.95394,-20.02882],[-43.95275,-20.03238],[-43.88839,-20.08279],[-43.86735,-20.08997],[-43.86721,-20.08673],[-43.90517,-20.01621],[-43.91184,-20.01273],[-43.95155,-20.02693],[-43.954,-20.02855]]]]}},{"type":"Feature","properties":{"territory_id":"mg-3144805-vale-do-sol","name":"Vale do Sol","municipality_id":"mg-3144805","polling_places":1,"approx":true,"official":false,"method":"voronoi-polling-places","whole_municipality":false,"approx_coords_only":false},"geometry":{"type":"MultiPolygon","coordinates":[[[[-43.98378,-20.092],[-43.9829,-20.0938],[-43.97842,-20.12954],[-43.96191,-20.12655],[-43.94656,-20.08717],[-43.95855,-20.0684],[-43.96876,-20.07403],[-43.98378,-20.092]]]]}},{"type":"Feature","properties":{"territory_id":"mg-3144805-vale-dos-cristais","name":"Vale dos Cristais","municipality_id":"mg-3144805","polling_places":1,"approx":true,"official":false,"method":"voronoi-polling-places","whole_municipality":false,"approx_coords_only":false},"geometry":{"type":"MultiPolygon","coordinates":[[[[-43.95155,-20.02693],[-43.91184,-20.01273],[-43.90394,-19.951],[-43.93195,-19.97011],[-43.95155,-20.02693]]]]}},{"type":"Feature","properties":{"territory_id":"mg-3144805-vila-da-serra","name":"Vila da Serra","municipality_id":"mg-3144805","polling_places":1,"approx":true,"official":false,"method":"voronoi-polling-places","whole_municipality":false,"approx_coords_only":false},"geometry":{"type":"MultiPolygon","coordinates":[[[[-43.97669,-20.01556],[-43.954,-20.02855],[-43.95155,-20.02693],[-43.93195,-19.97011],[-43.9397,-19.9754],[-43.97669,-20.01556]]]]}},{"type":"Feature","properties":{"territory_id":"mg-3144805-vila-sao-luiz","name":"Vila Sao Luiz","municipality_id":"mg-3144805","polling_places":1,"approx":true,"official":false,"method":"voronoi-polling-places","whole_municipality":false,"approx_coords_only":false},"geometry":{"type":"MultiPolygon","coordinates":[[[[-43.85178,-19.99505],[-43.85127,-20.00292],[-43.84394,-19.99917],[-43.84939,-19.99367],[-43.85178,-19.99505]]]]}}]}