{"type":"FeatureCollection","features":[{"type":"Feature","properties":{"territory_id":"mg-3144904-centro","name":"Centro","municipality_id":"mg-3144904","polling_places":4,"approx":true,"official":false,"method":"voronoi-polling-places","whole_municipality":false,"approx_coords_only":false},"geometry":{"type":"MultiPolygon","coordinates":[[[[-41.54618,-18.38974],[-41.5425,-18.48681],[-41.52039,-18.49801],[-41.47649,-18.52075],[-41.4599,-18.5141],[-41.4269,-18.4449],[-41.4413,-18.4178],[-41.43801,-18.40403],[-41.46951,-18.38764],[-41.51528,-18.3637],[-41.5188,-18.3651],[-41.54618,-18.38974]]]]}},{"type":"Feature","properties":{"territory_id":"mg-3144904-zona-rural","name":"Zona Rural","municipality_id":"mg-3144904","polling_places":3,"approx":true,"official":false,"method":"voronoi-polling-places","whole_municipality":false,"approx_coords_only":false},"geometry":{"type":"MultiPolygon","coordinates":[[[[-41.629,-18.4333],[-41.6284,-18.5254],[-41.5833,-18.535],[-41.5733,-18.573],[-41.5397,-18.5815],[-41.5118,-18.5349],[-41.47649,-18.52075],[-41.52039,-18.49801],[-41.5425,-18.48681],[-41.54618,-18.38974],[-41.5628,-18.4047],[-41.629,-18.4333]]],[[[-41.51528,-18.3637],[-41.46951,-18.38764],[-41.43801,-18.40403],[-41.4149,-18.3073],[-41.428,-18.2965],[-41.4298,-18.3102],[-41.4858,-18.352],[-41.51528,-18.3637]]]]}}]}