{"type":"FeatureCollection","features":[{"type":"Feature","properties":{"territory_id":"mg-3144508-bela-vista","name":"Bela Vista","municipality_id":"mg-3144508","polling_places":1,"approx":true,"official":false,"method":"voronoi-polling-places","whole_municipality":false,"approx_coords_only":false},"geometry":{"type":"MultiPolygon","coordinates":[[[[-44.7329,-21.2116],[-44.6904,-21.2176],[-44.6573,-21.275],[-44.63741,-21.2861],[-44.6177,-21.21905],[-44.65494,-21.10061],[-44.7108,-21.1369],[-44.7073,-21.1956],[-44.7329,-21.2116]]]]}},{"type":"Feature","properties":{"territory_id":"mg-3144508-centro","name":"Centro","municipality_id":"mg-3144508","polling_places":2,"approx":true,"official":false,"method":"voronoi-polling-places","whole_municipality":false,"approx_coords_only":false},"geometry":{"type":"MultiPolygon","coordinates":[[[[-44.65494,-21.10061],[-44.6177,-21.21905],[-44.63741,-21.2861],[-44.5987,-21.3077],[-44.59991,-21.32039],[-44.54996,-21.22824],[-44.5718,-21.2069],[-44.5651,-21.1785],[-44.5805,-21.1028],[-44.6213,-21.0958],[-44.6343,-21.0872],[-44.65494,-21.10061]]]]}},{"type":"Feature","properties":{"territory_id":"mg-3144508-povoado-jaguara","name":"Povoado Jaguara","municipality_id":"mg-3144508","polling_places":1,"approx":true,"official":false,"method":"voronoi-polling-places","whole_municipality":false,"approx_coords_only":false},"geometry":{"type":"MultiPolygon","coordinates":[[[[-44.6024,-21.3466],[-44.5748,-21.3093],[-44.5075,-21.2795],[-44.466,-21.231],[-44.5367,-21.2412],[-44.54996,-21.22824],[-44.59991,-21.32039],[-44.6024,-21.3466]]]]}}]}