{"type":"FeatureCollection","features":[{"type":"Feature","properties":{"territory_id":"mg-3144706-centenario","name":"Centenário","municipality_id":"mg-3144706","polling_places":1,"approx":false,"official":true,"method":"official-ibge-cd2022","whole_municipality":false,"approx_coords_only":false,"official_name":"Centenário","official_code":"3144706010","match":"direct"},"geometry":{"type":"MultiPolygon","coordinates":[[[[-43.03493,-19.76997],[-43.03466,-19.77003],[-43.03492,-19.76834],[-43.03403,-19.76824],[-43.03318,-19.76782],[-43.0327,-19.76729],[-43.03299,-19.76665],[-43.03258,-19.76654],[-43.03239,-19.76652],[-43.03213,-19.76655],[-43.03195,-19.7666],[-43.03185,-19.76669],[-43.03179,-19.76679],[-43.03159,-19.76745],[-43.03149,-19.76786],[-43.03148,-19.76838],[-43.03153,-19.76854],[-43.03155,-19.76868],[-43.03141,-19.76904],[-43.03123,-19.76935],[-43.03111,-19.76947],[-43.03088,-19.76962],[-43.03038,-19.76977],[-43.02989,-19.76987],[-43.03025,-19.77108],[-43.02925,-19.77128],[-43.02938,-19.77169],[-43.03026,-19.77151],[-43.03044,-19.77231],[-43.03173,-19.77205],[-43.03169,-19.7718],[-43.03349,-19.77184],[-43.03399,-19.77243],[-43.03403,-19.77476],[-43.03562,-19.77476],[-43.03573,-19.77475],[-43.03583,-19.77482],[-43.03597,-19.77482],[-43.0362,-19.77487],[-43.03659,-19.77482],[-43.03668,-19.77487],[-43.03684,-19.77502],[-43.03698,-19.77508],[-43.03713,-19.77506],[-43.03754,-19.77475],[-43.03779,-19.77474],[-43.03814,-19.77486],[-43.03832,-19.77487],[-43.0384,-19.77494],[-43.03846,-19.77505],[-43.0386,-19.77511],[-43.03887,-19.77537],[-43.03894,-19.77541],[-43.03976,-19.7765],[-43.03989,-19.77647],[-43.03997,-19.77653],[-43.04028,-19.77657],[-43.04055,-19.77644],[-43.04097,-19.77637],[-43.04136,-19.77643],[-43.04159,-19.77657],[-43.04224,-19.77667],[-43.04281,-19.77666],[-43.04309,-19.77658],[-43.04328,-19.77657],[-43.0434,-19.77637],[-43.04342,-19.77626],[-43.0434,-19.7761],[-43.04341,-19.77598],[-43.04315,-19.77595],[-43.04248,-19.77602],[-43.04186,-19.77612],[-43.04172,-19.77613],[-43.04166,-19.77611],[-43.04112,-19.77578],[-43.04097,-19.77558],[-43.03996,-19.77635],[-43.03863,-19.77479],[-43.03823,-19.77429],[-43.03821,-19.77417],[-43.03825,-19.77405],[-43.03834,-19.77388],[-43.03853,-19.77372],[-43.03846,-19.77362],[-43.03846,-19.7735],[-43.03886,-19.77312],[-43.03906,-19.7733],[-43.03976,-19.7741],[-43.04006,-19.77389],[-43.04019,-19.77374],[-43.04072,-19.77336],[-43.04032,-19.77287],[-43.04086,-19.7726],[-43.04119,-19.77226],[-43.04149,-19.77182],[-43.04137,-19.77165],[-43.04132,-19.77161],[-43.04117,-19.77141],[-43.04109,-19.77126],[-43.04099,-19.77114],[-43.04089,-19.77108],[-43.0408,-19.77106],[-43.04002,-19.77113],[-43.0396,-19.7711],[-43.03926,-19.77111],[-43.03908,-19.77114],[-43.0389,-19.77115],[-43.03874,-19.7711],[-43.03861,-19.77103],[-43.03836,-19.77085],[-43.03796,-19.77063],[-43.03709,-19.77006],[-43.03682,-19.76993],[-43.03623,-19.76979],[-43.03572,-19.76975],[-43.03553,-19.76976],[-43.0352,-19.76984],[-43.03493,-19.76997]]]]}},{"type":"Feature","properties":{"territory_id":"mg-3144706-centro","name":"Centro","municipality_id":"mg-3144706","polling_places":1,"approx":false,"official":true,"method":"official-ibge-cd2022","whole_municipality":false,"approx_coords_only":false,"official_name":"Centro","official_code":"3144706001","match":"direct"},"geometry":{"type":"MultiPolygon","coordinates":[[[[-43.03253,-19.76259],[-43.03265,-19.76258],[-43.03283,-19.76261],[-43.03236,-19.76282],[-43.03175,-19.76281],[-43.03106,-19.76266],[-43.03093,-19.76323],[-43.03078,-19.76323],[-43.03027,-19.76341],[-43.02955,-19.76343],[-43.02951,-19.76342],[-43.02865,-19.76376],[-43.02918,-19.7649],[-43.03076,-19.76397],[-43.03234,-19.76361],[-43.03303,-19.76368],[-43.03399,-19.76406],[-43.03423,-19.76429],[-43.03434,-19.76475],[-43.03414,-19.76538],[-43.03374,-19.76578],[-43.03324,-19.76625],[-43.03299,-19.76665],[-43.03353,-19.76677],[-43.03406,-19.76691],[-43.03389,-19.76709],[-43.03386,-19.76717],[-43.03428,-19.76728],[-43.0346,-19.76726],[-43.03519,-19.76687],[-43.03542,-19.76711],[-43.03567,-19.76714],[-43.03588,-19.76719],[-43.036,-19.76684],[-43.03593,-19.76676],[-43.03579,-19.76652],[-43.03576,-19.76635],[-43.03577,-19.7661],[-43.03581,-19.76606],[-43.03588,-19.76585],[-43.03595,-19.76555],[-43.03591,-19.76547],[-43.03587,-19.76542],[-43.03596,-19.76508],[-43.03601,-19.76472],[-43.03598,-19.76445],[-43.03592,-19.76417],[-43.03582,-19.7639],[-43.0358,-19.76378],[-43.0357,-19.76357],[-43.03561,-19.76344],[-43.03544,-19.76328],[-43.03529,-19.76318],[-43.03497,-19.763],[-43.03466,-19.76288],[-43.03306,-19.76241],[-43.03293,-19.76239],[-43.03277,-19.76241],[-43.03266,-19.76244],[-43.03253,-19.76259]]]]}},{"type":"Feature","properties":{"territory_id":"mg-3144706-colina","name":"Colina","municipality_id":"mg-3144706","polling_places":1,"approx":false,"official":true,"method":"official-ibge-cd2022","whole_municipality":false,"approx_coords_only":false,"official_name":"Colina","official_code":"3144706005","match":"direct"},"geometry":{"type":"MultiPolygon","coordinates":[[[[-43.03202,-19.76025],[-43.03348,-19.75852],[-43.03463,-19.75813],[-43.03374,-19.75571],[-43.03287,-19.75551],[-43.03179,-19.75577],[-43.03163,-19.75584],[-43.03138,-19.75599],[-43.03128,-19.75612],[-43.03124,-19.75629],[-43.03113,-19.75661],[-43.03099,-19.75722],[-43.03092,-19.75738],[-43.02974,-19.75906],[-43.02968,-19.75917],[-43.02968,-19.7593],[-43.02972,-19.75945],[-43.03066,-19.76047],[-43.03111,-19.76078],[-43.03187,-19.76075],[-43.03202,-19.76025]]]]}},{"type":"Feature","properties":{"territory_id":"mg-3144706-desembargador-drumond","name":"Desembargador Drumond","municipality_id":"mg-3144706","polling_places":1,"approx":true,"official":false,"method":"voronoi-polling-places","whole_municipality":false,"approx_coords_only":false},"geometry":{"type":"MultiPolygon","coordinates":[[[[-43.1101,-19.7267],[-43.0816,-19.7497],[-43.08965,-19.78456],[-43.04556,-19.76911],[-43.04549,-19.76805],[-43.04527,-19.76711],[-43.04469,-19.76604],[-43.04429,-19.76582],[-43.04314,-19.76559],[-43.04241,-19.76572],[-43.0417,-19.76655],[-43.04165,-19.76744],[-43.04153,-19.7677],[-43.03591,-19.76573],[-43.03595,-19.76555],[-43.03591,-19.76547],[-43.03587,-19.76542],[-43.03753,-19.76584],[-43.03761,-19.76594],[-43.03805,-19.76593],[-43.03822,-19.76597],[-43.03846,-19.7661],[-43.0388,-19.7662],[-43.03895,-19.76619],[-43.03913,-19.76616],[-43.03931,-19.7661],[-43.03943,-19.76602],[-43.03963,-19.76583],[-43.03986,-19.76551],[-43.04002,-19.76525],[-43.04005,-19.7651],[-43.03994,-19.76485],[-43.03992,-19.76459],[-43.03994,-19.76446],[-43.0401,-19.76427],[-43.04015,-19.76417],[-43.04038,-19.76395],[-43.04055,-19.76389],[-43.04113,-19.76293],[-43.04131,-19.76286],[-43.04161,-19.76284],[-43.0417,-19.76278],[-43.04174,-19.76264],[-43.04182,-19.76254],[-43.04205,-19.76236],[-43.04298,-19.76208],[-43.04346,-19.76189],[-43.0436,-19.76181],[-43.04394,-19.76174],[-43.04362,-19.76167],[-43.0432,-19.76163],[-43.04289,-19.76156],[-43.04244,-19.76155],[-43.04209,-19.76158],[-43.04168,-19.76173],[-43.04151,-19.76182],[-43.04036,-19.76257],[-43.04003,-19.76272],[-43.03973,-19.7628],[-43.03934,-19.76285],[-43.03916,-19.76284],[-43.03878,-19.7628],[-43.03847,-19.76273],[-43.03813,-19.76251],[-43.03786,-19.76231],[-43.03563,-19.76036],[-43.03531,-19.76009],[-43.03486,-19.75986],[-43.03455,-19.7598],[-43.03427,-19.75979],[-43.03395,-19.75985],[-43.03375,-19.75993],[-43.03345,-19.76013],[-43.03245,-19.76098],[-43.0323,-19.76109],[-43.03212,-19.76117],[-43.03186,-19.76126],[-43.03152,-19.76124],[-43.03119,-19.76114],[-43.03023,-19.76052],[-43.02956,-19.75996],[-43.02889,-19.75924],[-43.02889,-19.75939],[-43.029,-19.75984],[-43.02899,-19.76004],[-43.02917,-19.76038],[-43.0298,-19.76086],[-43.03026,-19.76126],[-43.03074,-19.76206],[-43.03158,-19.76236],[-43.03199,-19.76254],[-43.03214,-19.76259],[-43.03215,-19.76263],[-43.03181,-19.7627],[-43.03015,-19.76223],[-43.02923,-19.76205],[-43.02863,-19.76187],[-43.02853,-19.76196],[-43.02835,-19.76193],[-43.02806,-19.76193],[-43.02788,-19.76197],[-43.02761,-19.76211],[-43.02747,-19.76221],[-43.02683,-19.76255],[-42.91477,-19.72327],[-42.9171,-19.7136],[-42.9502,-19.7141],[-42.9841,-19.6362],[-43.0023,-19.6288],[-43.0064,-19.5779],[-43.0445,-19.5648],[-43.0574,-19.5778],[-43.062,-19.6266],[-43.0828,-19.6531],[-43.1101,-19.7267]],[[-43.03463,-19.75813],[-43.03374,-19.75571],[-43.03287,-19.75551],[-43.03179,-19.75577],[-43.03163,-19.75584],[-43.03138,-19.75599],[-43.03128,-19.75612],[-43.03124,-19.75629],[-43.03113,-19.75661],[-43.03099,-19.75722],[-43.03092,-19.75738],[-43.02974,-19.75906],[-43.02968,-19.75917],[-43.02968,-19.7593],[-43.02972,-19.75945],[-43.03066,-19.76047],[-43.03111,-19.76078],[-43.03187,-19.76075],[-43.03202,-19.76025],[-43.03348,-19.75852],[-43.03463,-19.75813]]],[[[-43.03434,-19.76475],[-43.03422,-19.76514],[-43.03083,-19.76395],[-43.03234,-19.76361],[-43.03303,-19.76368],[-43.03399,-19.76406],[-43.03423,-19.76429],[-43.03434,-19.76475]]],[[[-43.03265,-19.76258],[-43.03232,-19.76262],[-43.03253,-19.76259],[-43.03265,-19.76258]]]]}},{"type":"Feature","properties":{"territory_id":"mg-3144706-estacao","name":"Estação","municipality_id":"mg-3144706","polling_places":1,"approx":false,"official":true,"method":"official-ibge-cd2022","whole_municipality":false,"approx_coords_only":false,"official_name":"Estação","official_code":"3144706002","match":"direct"},"geometry":{"type":"MultiPolygon","coordinates":[[[[-43.02761,-19.76211],[-43.02747,-19.76221],[-43.02632,-19.76282],[-43.02594,-19.7632],[-43.02593,-19.76339],[-43.02582,-19.76355],[-43.02562,-19.7638],[-43.02485,-19.76553],[-43.0237,-19.76775],[-43.02316,-19.76907],[-43.02373,-19.76953],[-43.02432,-19.76804],[-43.026,-19.76636],[-43.02762,-19.76573],[-43.02918,-19.7649],[-43.02865,-19.76376],[-43.02951,-19.76342],[-43.02955,-19.76343],[-43.03027,-19.76341],[-43.03078,-19.76323],[-43.03093,-19.76323],[-43.03106,-19.76266],[-43.03175,-19.76281],[-43.03236,-19.76282],[-43.03283,-19.76261],[-43.03265,-19.76258],[-43.03232,-19.76262],[-43.03214,-19.76259],[-43.03215,-19.76263],[-43.03181,-19.7627],[-43.03015,-19.76223],[-43.02923,-19.76205],[-43.02863,-19.76187],[-43.02853,-19.76196],[-43.02835,-19.76193],[-43.02806,-19.76193],[-43.02788,-19.76197],[-43.02761,-19.76211]]]]}},{"type":"Feature","properties":{"territory_id":"mg-3144706-santa-maria","name":"Santa Maria","municipality_id":"mg-3144706","polling_places":1,"approx":false,"official":true,"method":"official-ibge-cd2022","whole_municipality":false,"approx_coords_only":false,"official_name":"Santa Maria","official_code":"3144706014","match":"direct"},"geometry":{"type":"MultiPolygon","coordinates":[[[[-43.03492,-19.76834],[-43.03466,-19.77003],[-43.03493,-19.76997],[-43.0352,-19.76984],[-43.03541,-19.76979],[-43.03553,-19.76976],[-43.03572,-19.76975],[-43.03623,-19.76979],[-43.03682,-19.76993],[-43.03709,-19.77006],[-43.03796,-19.77063],[-43.03836,-19.77085],[-43.03861,-19.77103],[-43.03874,-19.7711],[-43.0389,-19.77115],[-43.03908,-19.77114],[-43.03926,-19.77111],[-43.0396,-19.7711],[-43.04002,-19.77113],[-43.0408,-19.77106],[-43.04089,-19.77108],[-43.04099,-19.77114],[-43.04109,-19.77126],[-43.04117,-19.77141],[-43.04132,-19.77161],[-43.04137,-19.77165],[-43.04149,-19.77182],[-43.04119,-19.77226],[-43.04086,-19.7726],[-43.04032,-19.77287],[-43.04072,-19.77336],[-43.04019,-19.77374],[-43.04006,-19.77389],[-43.03976,-19.7741],[-43.03906,-19.7733],[-43.03886,-19.77312],[-43.03846,-19.7735],[-43.03846,-19.77362],[-43.03853,-19.77372],[-43.03834,-19.77388],[-43.03825,-19.77405],[-43.03821,-19.77417],[-43.03823,-19.77429],[-43.03863,-19.77479],[-43.03996,-19.77635],[-43.04097,-19.77558],[-43.04112,-19.77578],[-43.04166,-19.77611],[-43.04172,-19.77613],[-43.04186,-19.77612],[-43.04248,-19.77602],[-43.04315,-19.77595],[-43.04341,-19.77598],[-43.0434,-19.7761],[-43.04342,-19.77626],[-43.0434,-19.77637],[-43.04328,-19.77657],[-43.04336,-19.77658],[-43.04345,-19.7765],[-43.04364,-19.77649],[-43.04376,-19.77646],[-43.04383,-19.77639],[-43.0439,-19.77634],[-43.04409,-19.77629],[-43.04413,-19.77626],[-43.04428,-19.77623],[-43.04438,-19.77623],[-43.04447,-19.77633],[-43.04447,-19.77639],[-43.04444,-19.77646],[-43.04445,-19.7765],[-43.04448,-19.77654],[-43.04475,-19.77631],[-43.04494,-19.77608],[-43.04518,-19.7756],[-43.0453,-19.77529],[-43.04541,-19.77476],[-43.04506,-19.77461],[-43.04442,-19.77389],[-43.0443,-19.77317],[-43.04454,-19.77254],[-43.04524,-19.77202],[-43.04565,-19.77118],[-43.04563,-19.77022],[-43.04549,-19.76805],[-43.04527,-19.76711],[-43.04469,-19.76604],[-43.04429,-19.76582],[-43.04314,-19.76559],[-43.04241,-19.76572],[-43.0417,-19.76655],[-43.04165,-19.76744],[-43.04125,-19.76832],[-43.0405,-19.76879],[-43.03936,-19.76885],[-43.03825,-19.76853],[-43.03647,-19.7685],[-43.03492,-19.76834]]]]}},{"type":"Feature","properties":{"territory_id":"mg-3144706-serra","name":"Serra","municipality_id":"mg-3144706","polling_places":2,"approx":false,"official":true,"method":"official-ibge-cd2022","whole_municipality":false,"approx_coords_only":false,"official_name":"Serra","official_code":"3144706006","match":"direct"},"geometry":{"type":"MultiPolygon","coordinates":[[[[-43.03214,-19.76259],[-43.03232,-19.76262],[-43.03253,-19.76259],[-43.03266,-19.76244],[-43.03277,-19.76241],[-43.03293,-19.76239],[-43.03306,-19.76241],[-43.03466,-19.76288],[-43.03497,-19.763],[-43.03529,-19.76318],[-43.03544,-19.76328],[-43.03561,-19.76344],[-43.0357,-19.76357],[-43.0358,-19.76378],[-43.03582,-19.7639],[-43.03592,-19.76417],[-43.03598,-19.76445],[-43.03601,-19.76472],[-43.03596,-19.76508],[-43.03587,-19.76542],[-43.03753,-19.76584],[-43.03761,-19.76594],[-43.03805,-19.76593],[-43.03822,-19.76597],[-43.03846,-19.7661],[-43.0388,-19.7662],[-43.03895,-19.76619],[-43.03913,-19.76616],[-43.03931,-19.7661],[-43.03943,-19.76602],[-43.03963,-19.76583],[-43.03986,-19.76551],[-43.04002,-19.76525],[-43.04005,-19.7651],[-43.03994,-19.76485],[-43.03992,-19.76459],[-43.03994,-19.76446],[-43.0401,-19.76427],[-43.04015,-19.76417],[-43.04038,-19.76395],[-43.04055,-19.76389],[-43.04113,-19.76293],[-43.04131,-19.76286],[-43.04161,-19.76284],[-43.0417,-19.76278],[-43.04174,-19.76264],[-43.04182,-19.76254],[-43.04205,-19.76236],[-43.04298,-19.76208],[-43.04346,-19.76189],[-43.0436,-19.76181],[-43.04394,-19.76174],[-43.04362,-19.76167],[-43.0432,-19.76163],[-43.04289,-19.76156],[-43.04244,-19.76155],[-43.04209,-19.76158],[-43.04168,-19.76173],[-43.04151,-19.76182],[-43.04036,-19.76257],[-43.04003,-19.76272],[-43.03973,-19.7628],[-43.03934,-19.76285],[-43.03916,-19.76284],[-43.03878,-19.7628],[-43.03847,-19.76273],[-43.03813,-19.76251],[-43.03786,-19.76231],[-43.03563,-19.76036],[-43.03531,-19.76009],[-43.03486,-19.75986],[-43.03455,-19.7598],[-43.03427,-19.75979],[-43.03395,-19.75985],[-43.03375,-19.75993],[-43.03345,-19.76013],[-43.03245,-19.76098],[-43.0323,-19.76109],[-43.03212,-19.76117],[-43.03186,-19.76126],[-43.03152,-19.76124],[-43.03119,-19.76114],[-43.03023,-19.76052],[-43.02956,-19.75996],[-43.02889,-19.75924],[-43.02889,-19.75939],[-43.029,-19.75984],[-43.02899,-19.76004],[-43.02917,-19.76038],[-43.0298,-19.76086],[-43.03026,-19.76126],[-43.03074,-19.76206],[-43.03158,-19.76236],[-43.03199,-19.76254],[-43.03214,-19.76259]]]]}},{"type":"Feature","properties":{"territory_id":"mg-3144706-vila-santa-rosa","name":"Vila Santa Rosa","municipality_id":"mg-3144706","polling_places":1,"approx":true,"official":false,"method":"voronoi-polling-places","whole_municipality":false,"approx_coords_only":false},"geometry":{"type":"MultiPolygon","coordinates":[[[[-43.091,-19.7904],[-43.0569,-19.8214],[-43.0092,-19.8277],[-42.9795,-19.8153],[-42.9208,-19.8105],[-42.9084,-19.7497],[-42.91477,-19.72327],[-43.02683,-19.76255],[-43.02632,-19.76282],[-43.02594,-19.7632],[-43.02593,-19.76339],[-43.02582,-19.76355],[-43.02562,-19.7638],[-43.02485,-19.76553],[-43.0237,-19.76775],[-43.02316,-19.76907],[-43.02373,-19.76953],[-43.02432,-19.76804],[-43.026,-19.76636],[-43.02762,-19.76573],[-43.02918,-19.7649],[-43.03076,-19.76397],[-43.03083,-19.76395],[-43.03422,-19.76514],[-43.03414,-19.76538],[-43.03374,-19.76578],[-43.03324,-19.76625],[-43.03299,-19.76665],[-43.03258,-19.76654],[-43.03239,-19.76652],[-43.03213,-19.76655],[-43.03195,-19.7666],[-43.03185,-19.76669],[-43.03179,-19.76679],[-43.03159,-19.76745],[-43.03149,-19.76786],[-43.03148,-19.76838],[-43.03153,-19.76854],[-43.03155,-19.76868],[-43.03141,-19.76904],[-43.03123,-19.76935],[-43.03111,-19.76947],[-43.03088,-19.76962],[-43.03038,-19.76977],[-43.02989,-19.76987],[-43.03025,-19.77108],[-43.02925,-19.77128],[-43.02938,-19.77169],[-43.03026,-19.77151],[-43.03044,-19.77231],[-43.03173,-19.77205],[-43.03169,-19.7718],[-43.03349,-19.77184],[-43.03399,-19.77243],[-43.03403,-19.77476],[-43.03562,-19.77476],[-43.03573,-19.77475],[-43.03583,-19.77482],[-43.03597,-19.77482],[-43.0362,-19.77487],[-43.03659,-19.77482],[-43.03668,-19.77487],[-43.03684,-19.77502],[-43.03698,-19.77508],[-43.03713,-19.77506],[-43.03754,-19.77475],[-43.03779,-19.77474],[-43.03814,-19.77486],[-43.03832,-19.77487],[-43.0384,-19.77494],[-43.03846,-19.77505],[-43.0386,-19.77511],[-43.03887,-19.77537],[-43.03894,-19.77541],[-43.03976,-19.7765],[-43.03989,-19.77647],[-43.03997,-19.77653],[-43.04028,-19.77657],[-43.04055,-19.77644],[-43.04097,-19.77637],[-43.04136,-19.77643],[-43.04159,-19.77657],[-43.04224,-19.77667],[-43.04281,-19.77666],[-43.04309,-19.77658],[-43.04328,-19.77657],[-43.04336,-19.77658],[-43.04345,-19.7765],[-43.04364,-19.77649],[-43.04376,-19.77646],[-43.04383,-19.77639],[-43.0439,-19.77634],[-43.04409,-19.77629],[-43.04413,-19.77626],[-43.04428,-19.77623],[-43.04438,-19.77623],[-43.04447,-19.77633],[-43.04447,-19.77639],[-43.04444,-19.77646],[-43.04445,-19.7765],[-43.04448,-19.77654],[-43.04475,-19.77631],[-43.04494,-19.77608],[-43.04518,-19.7756],[-43.0453,-19.77529],[-43.04541,-19.77476],[-43.04506,-19.77461],[-43.04442,-19.77389],[-43.0443,-19.77317],[-43.04454,-19.77254],[-43.04524,-19.77202],[-43.04565,-19.77118],[-43.04563,-19.77022],[-43.04556,-19.76911],[-43.08965,-19.78456],[-43.091,-19.7904]]],[[[-43.04153,-19.7677],[-43.04125,-19.76832],[-43.0405,-19.76879],[-43.03936,-19.76885],[-43.03825,-19.76853],[-43.03647,-19.7685],[-43.03492,-19.76834],[-43.03403,-19.76824],[-43.03318,-19.76782],[-43.0327,-19.76729],[-43.03299,-19.76665],[-43.03353,-19.76677],[-43.03406,-19.76691],[-43.03389,-19.76709],[-43.03386,-19.76717],[-43.03428,-19.76728],[-43.0346,-19.76726],[-43.03519,-19.76687],[-43.03542,-19.76711],[-43.03567,-19.76714],[-43.03588,-19.76719],[-43.036,-19.76684],[-43.03593,-19.76676],[-43.03579,-19.76652],[-43.03576,-19.76635],[-43.03577,-19.7661],[-43.03581,-19.76606],[-43.03588,-19.76585],[-43.03591,-19.76573],[-43.04153,-19.7677]]],[[[-43.03553,-19.76976],[-43.0352,-19.76984],[-43.03541,-19.76979],[-43.03553,-19.76976]]]]}}]}