{"type":"FeatureCollection","features":[{"type":"Feature","properties":{"territory_id":"mg-3144375-centro","name":"Centro","municipality_id":"mg-3144375","polling_places":1,"approx":true,"official":false,"method":"voronoi-polling-places","whole_municipality":false,"approx_coords_only":false},"geometry":{"type":"MultiPolygon","coordinates":[[[[-46.5664,-16.5641],[-46.56018,-16.60362],[-46.38666,-16.58988],[-46.3899,-16.5862],[-46.3836,-16.5],[-46.41013,-16.46946],[-46.56073,-16.53317],[-46.5664,-16.5641]]]]}},{"type":"Feature","properties":{"territory_id":"mg-3144375-zona-rural","name":"Zona Rural","municipality_id":"mg-3144375","polling_places":2,"approx":true,"official":false,"method":"voronoi-polling-places","whole_municipality":false,"approx_coords_only":false},"geometry":{"type":"MultiPolygon","coordinates":[[[[-46.56073,-16.53317],[-46.41013,-16.46946],[-46.4591,-16.4131],[-46.4939,-16.4069],[-46.5133,-16.3823],[-46.5581,-16.3738],[-46.5338,-16.4484],[-46.5389,-16.4989],[-46.5573,-16.5145],[-46.56073,-16.53317]]],[[[-46.56018,-16.60362],[-46.5556,-16.6327],[-46.5049,-16.6518],[-46.4879,-16.7028],[-46.4674,-16.7013],[-46.4084,-16.6604],[-46.3736,-16.6047],[-46.38666,-16.58988],[-46.56018,-16.60362]]]]}}]}