{"type":"FeatureCollection","features":[{"type":"Feature","properties":{"territory_id":"mg-3144003-alto-de-santa-rita","name":"Alto de Santa Rita","municipality_id":"mg-3144003","polling_places":1,"approx":true,"official":false,"method":"voronoi-polling-places","whole_municipality":false,"approx_coords_only":false},"geometry":{"type":"MultiPolygon","coordinates":[[[[-41.6486,-19.9731],[-41.5932,-20.0019],[-41.57713,-19.99992],[-41.60234,-19.93872],[-41.6218,-19.9641],[-41.6486,-19.9731]]]]}},{"type":"Feature","properties":{"territory_id":"mg-3144003-cantinho-do-ceu","name":"Cantinho do Céu","municipality_id":"mg-3144003","polling_places":1,"approx":true,"official":false,"method":"voronoi-polling-places","whole_municipality":false,"approx_coords_only":false},"geometry":{"type":"MultiPolygon","coordinates":[[[[-41.51887,-19.83521],[-41.51005,-19.84601],[-41.47034,-19.86423],[-41.44113,-19.81831],[-41.43852,-19.76754],[-41.44812,-19.76465],[-41.51887,-19.83521]]]]}},{"type":"Feature","properties":{"territory_id":"mg-3144003-centro","name":"Centro","municipality_id":"mg-3144003","polling_places":5,"approx":true,"official":false,"method":"voronoi-polling-places","whole_municipality":false,"approx_coords_only":false},"geometry":{"type":"MultiPolygon","coordinates":[[[[-41.5909,-19.8073],[-41.58931,-19.81122],[-41.51887,-19.83521],[-41.44812,-19.76465],[-41.46114,-19.73762],[-41.51126,-19.71308],[-41.5158,-19.7178],[-41.5558,-19.7298],[-41.555,-19.7554],[-41.5806,-19.7733],[-41.5909,-19.8073]]],[[[-41.47034,-19.86423],[-41.42934,-19.88693],[-41.41099,-19.87078],[-41.37912,-19.84434],[-41.39361,-19.81624],[-41.41487,-19.77237],[-41.43852,-19.76754],[-41.44113,-19.81831],[-41.47034,-19.86423]]],[[[-41.34382,-19.96983],[-41.31138,-19.97925],[-41.3118,-19.9724],[-41.2979,-19.9376],[-41.287,-19.8627],[-41.32466,-19.83905],[-41.33946,-19.84492],[-41.34382,-19.96983]]]]}},{"type":"Feature","properties":{"territory_id":"mg-3144003-corrego-barra-longa","name":"Corrego Barra Longa","municipality_id":"mg-3144003","polling_places":1,"approx":true,"official":false,"method":"voronoi-polling-places","whole_municipality":false,"approx_coords_only":false},"geometry":{"type":"MultiPolygon","coordinates":[[[[-41.41487,-19.77237],[-41.39361,-19.81624],[-41.37912,-19.84434],[-41.33946,-19.84492],[-41.32466,-19.83905],[-41.337,-19.8313],[-41.3294,-19.8167],[-41.3588,-19.7623],[-41.3886,-19.75088],[-41.41487,-19.77237]]]]}},{"type":"Feature","properties":{"territory_id":"mg-3144003-corrego-sao-roque","name":"Corrego Sao Roque","municipality_id":"mg-3144003","polling_places":1,"approx":true,"official":false,"method":"voronoi-polling-places","whole_municipality":false,"approx_coords_only":false},"geometry":{"type":"MultiPolygon","coordinates":[[[[-41.55815,-20.0348],[-41.54223,-20.05384],[-41.44234,-19.95474],[-41.52191,-19.94014],[-41.55815,-20.0348]]]]}},{"type":"Feature","properties":{"territory_id":"mg-3144003-distrito-de-centenario","name":"Distrito de Centenario","municipality_id":"mg-3144003","polling_places":1,"approx":true,"official":false,"method":"voronoi-polling-places","whole_municipality":false,"approx_coords_only":false},"geometry":{"type":"MultiPolygon","coordinates":[[[[-41.51126,-19.71308],[-41.46114,-19.73762],[-41.43412,-19.69352],[-41.4953,-19.6965],[-41.51126,-19.71308]]]]}},{"type":"Feature","properties":{"territory_id":"mg-3144003-distrito-de-humaita","name":"Distrito de Humaita","municipality_id":"mg-3144003","polling_places":1,"approx":true,"official":false,"method":"voronoi-polling-places","whole_municipality":false,"approx_coords_only":false},"geometry":{"type":"MultiPolygon","coordinates":[[[[-41.41963,-20.06885],[-41.36054,-20.09434],[-41.3441,-20.09786],[-41.3327,-20.0577],[-41.3091,-20.0164],[-41.31138,-19.97925],[-41.34382,-19.96983],[-41.39872,-19.97487],[-41.41963,-20.06885]]]]}},{"type":"Feature","properties":{"territory_id":"mg-3144003-distrito-de-imbirucu","name":"Distrito de Imbirucu","municipality_id":"mg-3144003","polling_places":2,"approx":true,"official":false,"method":"voronoi-polling-places","whole_municipality":false,"approx_coords_only":false},"geometry":{"type":"MultiPolygon","coordinates":[[[[-41.49542,-20.11029],[-41.4542,-20.1207],[-41.4283,-20.1648],[-41.4372,-20.192],[-41.4119,-20.2061],[-41.3824,-20.1891],[-41.3558,-20.1391],[-41.3441,-20.09786],[-41.36054,-20.09434],[-41.41963,-20.06885],[-41.49542,-20.11029]]]]}},{"type":"Feature","properties":{"territory_id":"mg-3144003-distrito-de-ocidente","name":"Distrito de Ocidente","municipality_id":"mg-3144003","polling_places":1,"approx":true,"official":false,"method":"voronoi-polling-places","whole_municipality":false,"approx_coords_only":false},"geometry":{"type":"MultiPolygon","coordinates":[[[[-41.54223,-20.05384],[-41.538,-20.0589],[-41.4989,-20.0757],[-41.5025,-20.1085],[-41.49542,-20.11029],[-41.41963,-20.06885],[-41.39872,-19.97487],[-41.42523,-19.9507],[-41.44234,-19.95474],[-41.54223,-20.05384]]]]}},{"type":"Feature","properties":{"territory_id":"mg-3144003-distrito-de-roseiral","name":"Distrito de Roseiral","municipality_id":"mg-3144003","polling_places":1,"approx":true,"official":false,"method":"voronoi-polling-places","whole_municipality":false,"approx_coords_only":false},"geometry":{"type":"MultiPolygon","coordinates":[[[[-41.42934,-19.88693],[-41.42523,-19.9507],[-41.39872,-19.97487],[-41.34382,-19.96983],[-41.33946,-19.84492],[-41.37912,-19.84434],[-41.41099,-19.87078],[-41.42934,-19.88693]]]]}},{"type":"Feature","properties":{"territory_id":"mg-3144003-povoado-lajinha-de-mutum","name":"Povoado Lajinha de Mutum","municipality_id":"mg-3144003","polling_places":1,"approx":true,"official":false,"method":"voronoi-polling-places","whole_municipality":false,"approx_coords_only":false},"geometry":{"type":"MultiPolygon","coordinates":[[[[-41.46114,-19.73762],[-41.44812,-19.76465],[-41.43852,-19.76754],[-41.41487,-19.77237],[-41.3886,-19.75088],[-41.393,-19.7492],[-41.3807,-19.7125],[-41.3865,-19.6583],[-41.4276,-19.6932],[-41.43412,-19.69352],[-41.46114,-19.73762]]]]}},{"type":"Feature","properties":{"territory_id":"mg-3144003-povoado-santa-maria","name":"Povoado Santa Maria","municipality_id":"mg-3144003","polling_places":1,"approx":true,"official":false,"method":"voronoi-polling-places","whole_municipality":false,"approx_coords_only":false},"geometry":{"type":"MultiPolygon","coordinates":[[[[-41.6057,-19.893],[-41.60181,-19.91744],[-41.52389,-19.93661],[-41.51005,-19.84601],[-41.51887,-19.83521],[-41.58931,-19.81122],[-41.5739,-19.8491],[-41.6057,-19.893]]]]}},{"type":"Feature","properties":{"territory_id":"mg-3144003-povoado-santa-rita","name":"Povoado Santa Rita","municipality_id":"mg-3144003","polling_places":1,"approx":true,"official":false,"method":"voronoi-polling-places","whole_municipality":false,"approx_coords_only":false},"geometry":{"type":"MultiPolygon","coordinates":[[[[-41.60234,-19.93872],[-41.57713,-19.99992],[-41.5478,-19.9963],[-41.5594,-20.0333],[-41.55815,-20.0348],[-41.52191,-19.94014],[-41.52389,-19.93661],[-41.60181,-19.91744],[-41.5991,-19.9345],[-41.60234,-19.93872]]]]}},{"type":"Feature","properties":{"territory_id":"mg-3144003-zona-rural","name":"Zona Rural","municipality_id":"mg-3144003","polling_places":1,"approx":true,"official":false,"method":"voronoi-polling-places","whole_municipality":false,"approx_coords_only":false},"geometry":{"type":"MultiPolygon","coordinates":[[[[-41.52389,-19.93661],[-41.52191,-19.94014],[-41.44234,-19.95474],[-41.42523,-19.9507],[-41.42934,-19.88693],[-41.47034,-19.86423],[-41.51005,-19.84601],[-41.52389,-19.93661]]]]}}]}