{"type":"FeatureCollection","features":[{"type":"Feature","properties":{"territory_id":"mg-3144672-centro","name":"Centro","municipality_id":"mg-3144672","polling_places":1,"approx":true,"official":false,"method":"voronoi-polling-places","whole_municipality":false,"approx_coords_only":false},"geometry":{"type":"MultiPolygon","coordinates":[[[[-41.1876,-18.5016],[-41.158,-18.528],[-41.1117,-18.5346],[-41.0774,-18.5234],[-41.0609,-18.5379],[-41.05175,-18.53521],[-41.06214,-18.48388],[-41.06856,-18.45222],[-41.1818,-18.4396],[-41.1831,-18.4424],[-41.1876,-18.5016]]]]}},{"type":"Feature","properties":{"territory_id":"mg-3144672-povoado-de-santo-antonio","name":"Povoado de Santo Antônio","municipality_id":"mg-3144672","polling_places":1,"approx":true,"official":false,"method":"voronoi-polling-places","whole_municipality":false,"approx_coords_only":false},"geometry":{"type":"MultiPolygon","coordinates":[[[[-41.06856,-18.45222],[-41.06214,-18.48388],[-41.05175,-18.53521],[-41.0258,-18.5276],[-41.023,-18.4573],[-41.06856,-18.45222]]]]}}]}