{"type":"FeatureCollection","features":[{"type":"Feature","properties":{"territory_id":"mg-3144656-centro","name":"Centro","municipality_id":"mg-3144656","polling_places":2,"approx":true,"official":false,"method":"voronoi-polling-places","whole_municipality":false,"approx_coords_only":false},"geometry":{"type":"MultiPolygon","coordinates":[[[[-41.77346,-15.32297],[-41.75216,-15.32282],[-41.73618,-15.33972],[-41.71022,-15.34074],[-41.74752,-15.28359],[-41.75561,-15.28464],[-41.76796,-15.28449],[-41.77346,-15.32297]]]]}},{"type":"Feature","properties":{"territory_id":"mg-3144656-lagoa-nova","name":"Lagoa Nova","municipality_id":"mg-3144656","polling_places":1,"approx":true,"official":false,"method":"voronoi-polling-places","whole_municipality":false,"approx_coords_only":false},"geometry":{"type":"MultiPolygon","coordinates":[[[[-41.77828,-15.33471],[-41.77164,-15.34802],[-41.73618,-15.33972],[-41.75216,-15.32282],[-41.77346,-15.32297],[-41.77828,-15.33471]]]]}},{"type":"Feature","properties":{"territory_id":"mg-3144656-povoado-de-vereda-do-paraiso","name":"Povoado de Vereda do Paraiso","municipality_id":"mg-3144656","polling_places":1,"approx":true,"official":false,"method":"voronoi-polling-places","whole_municipality":false,"approx_coords_only":false},"geometry":{"type":"MultiPolygon","coordinates":[[[[-41.54711,-15.51885],[-41.5282,-15.5179],[-41.5026,-15.5265],[-41.4468,-15.4873],[-41.4207,-15.4823],[-41.3643,-15.493],[-41.4561,-15.4103],[-41.53741,-15.33742],[-41.54557,-15.34431],[-41.54711,-15.51885]]]]}},{"type":"Feature","properties":{"territory_id":"mg-3144656-zona-rural","name":"Zona Rural","municipality_id":"mg-3144656","polling_places":18,"approx":true,"official":false,"method":"voronoi-polling-places","whole_municipality":false,"approx_coords_only":false},"geometry":{"type":"MultiPolygon","coordinates":[[[[-41.8803,-15.3635],[-41.8442,-15.4128],[-41.8156,-15.4067],[-41.7403,-15.4444],[-41.7403,-15.4841],[-41.7044,-15.5089],[-41.6778,-15.5054],[-41.5879,-15.5209],[-41.54711,-15.51885],[-41.54557,-15.34431],[-41.53741,-15.33742],[-41.7599,-15.138],[-41.8023,-15.1003],[-41.7843,-15.1343],[-41.7997,-15.2042],[-41.7788,-15.2176],[-41.7771,-15.2505],[-41.8319,-15.2484],[-41.8514,-15.3075],[-41.8497,-15.3325],[-41.8803,-15.3635]],[[-41.77828,-15.33471],[-41.77346,-15.32297],[-41.76796,-15.28449],[-41.75561,-15.28464],[-41.74752,-15.28359],[-41.71022,-15.34074],[-41.73618,-15.33972],[-41.77164,-15.34802],[-41.77828,-15.33471]]]]}}]}