{"type":"FeatureCollection","features":[{"type":"Feature","properties":{"territory_id":"mg-3144607-centro","name":"Centro","municipality_id":"mg-3144607","polling_places":5,"approx":true,"official":false,"method":"voronoi-polling-places","whole_municipality":false,"approx_coords_only":false},"geometry":{"type":"MultiPolygon","coordinates":[[[[-45.29507,-21.25733],[-45.28927,-21.27608],[-45.28342,-21.29936],[-45.26927,-21.37638],[-45.23422,-21.37304],[-45.22756,-21.24085],[-45.23071,-21.2372],[-45.23258,-21.23457],[-45.23314,-21.23436],[-45.23782,-21.22322],[-45.22907,-21.16599],[-45.24929,-21.15466],[-45.29507,-21.25733]]]]}},{"type":"Feature","properties":{"territory_id":"mg-3144607-cohab","name":"Cohab","municipality_id":"mg-3144607","polling_places":1,"approx":true,"official":false,"method":"voronoi-polling-places","whole_municipality":false,"approx_coords_only":false},"geometry":{"type":"MultiPolygon","coordinates":[[[[-45.23422,-21.37304],[-45.2275,-21.3724],[-45.2019,-21.3555],[-45.1448,-21.3485],[-45.1657,-21.3337],[-45.1521,-21.2723],[-45.1749,-21.2503],[-45.1654,-21.2212],[-45.1751,-21.18758],[-45.17984,-21.18615],[-45.21462,-21.22294],[-45.22756,-21.24085],[-45.23422,-21.37304]]]]}},{"type":"Feature","properties":{"territory_id":"mg-3144607-congonhal","name":"Congonhal","municipality_id":"mg-3144607","polling_places":1,"approx":true,"official":false,"method":"voronoi-polling-places","whole_municipality":false,"approx_coords_only":false},"geometry":{"type":"MultiPolygon","coordinates":[[[[-45.25878,-21.1409],[-45.24929,-21.15466],[-45.22907,-21.16599],[-45.17984,-21.18615],[-45.1751,-21.18758],[-45.1768,-21.1817],[-45.1605,-21.1454],[-45.1525,-21.1276],[-45.1891,-21.0878],[-45.2164,-21.0978],[-45.2051,-21.137],[-45.2562,-21.13069],[-45.25878,-21.1409]]]]}},{"type":"Feature","properties":{"territory_id":"mg-3144607-lagoinha","name":"Lagoinha","municipality_id":"mg-3144607","polling_places":1,"approx":true,"official":false,"method":"voronoi-polling-places","whole_municipality":false,"approx_coords_only":false},"geometry":{"type":"MultiPolygon","coordinates":[[[[-45.23782,-21.22322],[-45.23314,-21.23436],[-45.23258,-21.23457],[-45.21462,-21.22294],[-45.17984,-21.18615],[-45.22907,-21.16599],[-45.23782,-21.22322]]]]}},{"type":"Feature","properties":{"territory_id":"mg-3144607-marciolandia","name":"Marciolândia","municipality_id":"mg-3144607","polling_places":1,"approx":true,"official":false,"method":"voronoi-polling-places","whole_municipality":false,"approx_coords_only":false},"geometry":{"type":"MultiPolygon","coordinates":[[[[-45.23258,-21.23457],[-45.23071,-21.2372],[-45.22756,-21.24085],[-45.21462,-21.22294],[-45.23258,-21.23457]]]]}},{"type":"Feature","properties":{"territory_id":"mg-3144607-nazare-de-minas","name":"Nazaré de Minas","municipality_id":"mg-3144607","polling_places":1,"approx":true,"official":false,"method":"voronoi-polling-places","whole_municipality":false,"approx_coords_only":false},"geometry":{"type":"MultiPolygon","coordinates":[[[[-45.3421,-21.0687],[-45.3392,-21.1295],[-45.33016,-21.14529],[-45.25878,-21.1409],[-45.2562,-21.13069],[-45.278,-21.128],[-45.2676,-21.0894],[-45.2821,-21.0461],[-45.3421,-21.0687]]]]}},{"type":"Feature","properties":{"territory_id":"mg-3144607-santo-antonio-do-cruzeiro","name":"Santo Antonio do Cruzeiro","municipality_id":"mg-3144607","polling_places":1,"approx":true,"official":false,"method":"voronoi-polling-places","whole_municipality":false,"approx_coords_only":false},"geometry":{"type":"MultiPolygon","coordinates":[[[[-45.36024,-21.20693],[-45.29507,-21.25733],[-45.24929,-21.15466],[-45.25878,-21.1409],[-45.33016,-21.14529],[-45.3115,-21.1779],[-45.3489,-21.189],[-45.36024,-21.20693]]]]}},{"type":"Feature","properties":{"territory_id":"mg-3144607-zona-rural","name":"Zona Rural","municipality_id":"mg-3144607","polling_places":1,"approx":true,"official":false,"method":"voronoi-polling-places","whole_municipality":false,"approx_coords_only":false},"geometry":{"type":"MultiPolygon","coordinates":[[[[-45.3929,-21.2914],[-45.3778,-21.3105],[-45.3266,-21.3286],[-45.2745,-21.3605],[-45.2726,-21.3767],[-45.26927,-21.37638],[-45.28342,-21.29936],[-45.28927,-21.27608],[-45.29507,-21.25733],[-45.36024,-21.20693],[-45.3855,-21.2469],[-45.3929,-21.2914]]]]}}]}