{"type":"FeatureCollection","features":[{"type":"Feature","properties":{"territory_id":"mg-3144102-alto-do-anjo","name":"Alto do Anjo","municipality_id":"mg-3144102","polling_places":1,"approx":true,"official":false,"method":"voronoi-polling-places","whole_municipality":false,"approx_coords_only":false},"geometry":{"type":"MultiPolygon","coordinates":[[[[-46.64327,-21.38657],[-46.6161,-21.4303],[-46.5765,-21.427],[-46.5191,-21.449],[-46.5089,-21.4891],[-46.4691,-21.487],[-46.4803,-21.4445],[-46.45977,-21.41217],[-46.52518,-21.37547],[-46.64327,-21.38657]]]]}},{"type":"Feature","properties":{"territory_id":"mg-3144102-brejo-alegre","name":"Brejo Alegre","municipality_id":"mg-3144102","polling_places":1,"approx":true,"official":false,"method":"voronoi-polling-places","whole_municipality":false,"approx_coords_only":false},"geometry":{"type":"MultiPolygon","coordinates":[[[[-46.6476,-21.3796],[-46.64327,-21.38657],[-46.52518,-21.37547],[-46.52546,-21.37021],[-46.52627,-21.36784],[-46.52846,-21.36468],[-46.60519,-21.33159],[-46.6476,-21.3796]]]]}},{"type":"Feature","properties":{"territory_id":"mg-3144102-centro","name":"Centro","municipality_id":"mg-3144102","polling_places":3,"approx":true,"official":false,"method":"voronoi-polling-places","whole_municipality":false,"approx_coords_only":false},"geometry":{"type":"MultiPolygon","coordinates":[[[[-46.52846,-21.36468],[-46.52627,-21.36784],[-46.52546,-21.37021],[-46.52518,-21.37547],[-46.45977,-21.41217],[-46.4455,-21.3897],[-46.43093,-21.35158],[-46.52846,-21.36468]]]]}},{"type":"Feature","properties":{"territory_id":"mg-3144102-cohab","name":"Cohab","municipality_id":"mg-3144102","polling_places":1,"approx":true,"official":false,"method":"voronoi-polling-places","whole_municipality":false,"approx_coords_only":false},"geometry":{"type":"MultiPolygon","coordinates":[[[[-46.6121,-21.2919],[-46.6006,-21.3264],[-46.60519,-21.33159],[-46.52846,-21.36468],[-46.43093,-21.35158],[-46.4009,-21.273],[-46.4115,-21.2472],[-46.4939,-21.237],[-46.5457,-21.2704],[-46.5721,-21.3073],[-46.6121,-21.2919]]]]}}]}