{"type":"FeatureCollection","features":[{"type":"Feature","properties":{"territory_id":"mg-3144201-centro","name":"Centro","municipality_id":"mg-3144201","polling_places":1,"approx":true,"official":false,"method":"voronoi-polling-places","whole_municipality":false,"approx_coords_only":false},"geometry":{"type":"MultiPolygon","coordinates":[[[[-42.2766,-18.4876],[-42.23944,-18.50799],[-42.13962,-18.46285],[-42.1376,-18.4284],[-42.1,-18.4278],[-42.124,-18.3939],[-42.2031,-18.411],[-42.2684,-18.4295],[-42.2766,-18.4876]]]]}},{"type":"Feature","properties":{"territory_id":"mg-3144201-zona-rural","name":"Zona Rural","municipality_id":"mg-3144201","polling_places":1,"approx":true,"official":false,"method":"voronoi-polling-places","whole_municipality":false,"approx_coords_only":false},"geometry":{"type":"MultiPolygon","coordinates":[[[[-42.23944,-18.50799],[-42.2354,-18.5102],[-42.2313,-18.5356],[-42.2244,-18.5604],[-42.1632,-18.565],[-42.1458,-18.5476],[-42.0911,-18.5466],[-42.1367,-18.5241],[-42.1131,-18.4924],[-42.1399,-18.4676],[-42.13962,-18.46285],[-42.23944,-18.50799]]]]}}]}