{"type":"FeatureCollection","features":[{"type":"Feature","properties":{"territory_id":"mg-3145877-centro","name":"Centro","municipality_id":"mg-3145877","polling_places":2,"approx":true,"official":false,"method":"voronoi-polling-places","whole_municipality":false,"approx_coords_only":false},"geometry":{"type":"MultiPolygon","coordinates":[[[[-42.2517,-20.49883],[-42.19817,-20.55934],[-42.1956,-20.5525],[-42.167,-20.5265],[-42.1563,-20.4677],[-42.1882,-20.4339],[-42.2142,-20.4678],[-42.2426,-20.4811],[-42.2517,-20.49883]]]]}},{"type":"Feature","properties":{"territory_id":"mg-3145877-indaia","name":"Indaia","municipality_id":"mg-3145877","polling_places":1,"approx":true,"official":false,"method":"voronoi-polling-places","whole_municipality":false,"approx_coords_only":false},"geometry":{"type":"MultiPolygon","coordinates":[[[[-42.2769,-20.5479],[-42.238,-20.5656],[-42.2108,-20.593],[-42.19817,-20.55934],[-42.2517,-20.49883],[-42.2769,-20.5479]]]]}}]}