{"type":"FeatureCollection","features":[{"type":"Feature","properties":{"territory_id":"mg-3145901-belvedere","name":"Belvedere","municipality_id":"mg-3145901","polling_places":1,"approx":true,"official":false,"method":"voronoi-polling-places","whole_municipality":false,"approx_coords_only":false},"geometry":{"type":"MultiPolygon","coordinates":[[[[-43.6957,-20.5361],[-43.69121,-20.55135],[-43.66336,-20.53104],[-43.6636,-20.53074],[-43.68842,-20.52648],[-43.69061,-20.52906],[-43.6957,-20.5361]]]]}},{"type":"Feature","properties":{"territory_id":"mg-3145901-centro","name":"Centro","municipality_id":"mg-3145901","polling_places":5,"approx":true,"official":false,"method":"voronoi-polling-places","whole_municipality":false,"approx_coords_only":false},"geometry":{"type":"MultiPolygon","coordinates":[[[[-43.7663,-20.4996],[-43.7446,-20.51],[-43.73477,-20.52227],[-43.71916,-20.52166],[-43.71743,-20.51175],[-43.72213,-20.46122],[-43.748,-20.4605],[-43.7663,-20.4996]]],[[[-43.70429,-20.52654],[-43.6957,-20.5361],[-43.69061,-20.52906],[-43.68842,-20.52648],[-43.6636,-20.53074],[-43.6656,-20.52657],[-43.67687,-20.51754],[-43.6901,-20.51917],[-43.69435,-20.51525],[-43.69755,-20.51856],[-43.70062,-20.52352],[-43.70429,-20.52654]]]]}},{"type":"Feature","properties":{"territory_id":"mg-3145901-luzia-augusta","name":"Luzia Augusta","municipality_id":"mg-3145901","polling_places":1,"approx":true,"official":false,"method":"voronoi-polling-places","whole_municipality":false,"approx_coords_only":false},"geometry":{"type":"MultiPolygon","coordinates":[[[[-43.69435,-20.51525],[-43.6901,-20.51917],[-43.67687,-20.51754],[-43.69213,-20.4958],[-43.69435,-20.51525]]]]}},{"type":"Feature","properties":{"territory_id":"mg-3145901-minas-talco","name":"Minas Talco","municipality_id":"mg-3145901","polling_places":1,"approx":true,"official":false,"method":"voronoi-polling-places","whole_municipality":false,"approx_coords_only":false},"geometry":{"type":"MultiPolygon","coordinates":[[[[-43.71916,-20.52166],[-43.71472,-20.52377],[-43.71136,-20.52374],[-43.70976,-20.51318],[-43.71743,-20.51175],[-43.71916,-20.52166]]]]}},{"type":"Feature","properties":{"territory_id":"mg-3145901-pioneiros","name":"Pioneiros","municipality_id":"mg-3145901","polling_places":3,"approx":true,"official":false,"method":"voronoi-polling-places","whole_municipality":false,"approx_coords_only":false},"geometry":{"type":"MultiPolygon","coordinates":[[[[-43.72213,-20.46122],[-43.71743,-20.51175],[-43.70976,-20.51318],[-43.71136,-20.52374],[-43.70899,-20.52451],[-43.70431,-20.51411],[-43.70531,-20.50547],[-43.6973,-20.47496],[-43.70013,-20.44684],[-43.7122,-20.4615],[-43.72213,-20.46122]]]]}},{"type":"Feature","properties":{"territory_id":"mg-3145901-primeiro-de-maio","name":"Primeiro de Maio","municipality_id":"mg-3145901","polling_places":2,"approx":true,"official":false,"method":"voronoi-polling-places","whole_municipality":false,"approx_coords_only":false},"geometry":{"type":"MultiPolygon","coordinates":[[[[-43.7998,-20.538],[-43.7457,-20.5988],[-43.72986,-20.5934],[-43.71734,-20.55897],[-43.7336,-20.5642],[-43.7998,-20.538]]],[[[-43.73477,-20.52227],[-43.71359,-20.54867],[-43.70552,-20.52646],[-43.70899,-20.52451],[-43.71136,-20.52374],[-43.71472,-20.52377],[-43.71916,-20.52166],[-43.73477,-20.52227]]]]}},{"type":"Feature","properties":{"territory_id":"mg-3145901-sao-francisco","name":"São Francisco","municipality_id":"mg-3145901","polling_places":1,"approx":true,"official":false,"method":"voronoi-polling-places","whole_municipality":false,"approx_coords_only":false},"geometry":{"type":"MultiPolygon","coordinates":[[[[-43.72986,-20.5934],[-43.7143,-20.5881],[-43.71195,-20.59031],[-43.69121,-20.55135],[-43.6957,-20.5361],[-43.70429,-20.52654],[-43.70552,-20.52646],[-43.71359,-20.54867],[-43.7078,-20.5559],[-43.71734,-20.55897],[-43.72986,-20.5934]]]]}},{"type":"Feature","properties":{"territory_id":"mg-3145901-siderurgia","name":"Siderurgia","municipality_id":"mg-3145901","polling_places":2,"approx":true,"official":false,"method":"voronoi-polling-places","whole_municipality":false,"approx_coords_only":false},"geometry":{"type":"MultiPolygon","coordinates":[[[[-43.70899,-20.52451],[-43.70552,-20.52646],[-43.70429,-20.52654],[-43.70062,-20.52352],[-43.69755,-20.51856],[-43.69435,-20.51525],[-43.69213,-20.4958],[-43.6973,-20.47496],[-43.70531,-20.50547],[-43.70431,-20.51411],[-43.70899,-20.52451]]]]}},{"type":"Feature","properties":{"territory_id":"mg-3145901-zona-rural","name":"Zona Rural","municipality_id":"mg-3145901","polling_places":6,"approx":true,"official":false,"method":"voronoi-polling-places","whole_municipality":false,"approx_coords_only":false},"geometry":{"type":"MultiPolygon","coordinates":[[[[-43.71195,-20.59031],[-43.6788,-20.6215],[-43.6533,-20.5933],[-43.6013,-20.5841],[-43.5976,-20.5406],[-43.5801,-20.5084],[-43.6617,-20.4334],[-43.6875,-20.4315],[-43.70013,-20.44684],[-43.6973,-20.47496],[-43.69213,-20.4958],[-43.67687,-20.51754],[-43.6656,-20.52657],[-43.6636,-20.53074],[-43.66336,-20.53104],[-43.69121,-20.55135],[-43.71195,-20.59031]]]]}}]}