{"type":"FeatureCollection","features":[{"type":"Feature","properties":{"territory_id":"mg-3145109-centro","name":"Centro","municipality_id":"mg-3145109","polling_places":4,"approx":true,"official":false,"method":"voronoi-polling-places","whole_municipality":false,"approx_coords_only":false},"geometry":{"type":"MultiPolygon","coordinates":[[[[-46.552,-21.0858],[-46.5393,-21.1376],[-46.5506,-21.1506],[-46.4603,-21.1723],[-46.4253,-21.1704],[-46.4155,-21.195],[-46.3493,-21.1794],[-46.3323,-21.18195],[-46.46161,-21.07729],[-46.47684,-21.0635],[-46.5268,-21.0715],[-46.552,-21.0858]]]]}},{"type":"Feature","properties":{"territory_id":"mg-3145109-dist-de-petunia","name":"Dist. de Petunia","municipality_id":"mg-3145109","polling_places":1,"approx":true,"official":false,"method":"voronoi-polling-places","whole_municipality":false,"approx_coords_only":false},"geometry":{"type":"MultiPolygon","coordinates":[[[[-46.4628,-20.9946],[-46.4257,-21.0263],[-46.4387,-21.0574],[-46.44191,-21.05791],[-46.34691,-21.06467],[-46.3503,-21.0132],[-46.3583,-20.9896],[-46.4122,-20.962],[-46.4574,-20.9737],[-46.4628,-20.9946]]]]}},{"type":"Feature","properties":{"territory_id":"mg-3145109-lavapes","name":"Lavapes","municipality_id":"mg-3145109","polling_places":1,"approx":true,"official":false,"method":"voronoi-polling-places","whole_municipality":false,"approx_coords_only":false},"geometry":{"type":"MultiPolygon","coordinates":[[[[-46.47684,-21.0635],[-46.46161,-21.07729],[-46.3323,-21.18195],[-46.32,-21.1838],[-46.2923,-21.1533],[-46.2951,-21.1083],[-46.3261,-21.1059],[-46.3467,-21.0678],[-46.34691,-21.06467],[-46.44191,-21.05791],[-46.47684,-21.0635]]]]}}]}