{"type":"FeatureCollection","features":[{"type":"Feature","properties":{"territory_id":"mg-3145372-bitu","name":"Bitu","municipality_id":"mg-3145372","polling_places":1,"approx":true,"official":false,"method":"voronoi-polling-places","whole_municipality":false,"approx_coords_only":false},"geometry":{"type":"MultiPolygon","coordinates":[[[[-42.42394,-15.9227],[-42.37479,-15.95365],[-42.3683,-15.9244],[-42.3981,-15.9019],[-42.42394,-15.9227]]]]}},{"type":"Feature","properties":{"territory_id":"mg-3145372-centro","name":"Centro","municipality_id":"mg-3145372","polling_places":1,"approx":true,"official":false,"method":"voronoi-polling-places","whole_municipality":false,"approx_coords_only":false},"geometry":{"type":"MultiPolygon","coordinates":[[[[-42.4813,-16.0615],[-42.4244,-16.0798],[-42.3996,-16.0642],[-42.3537,-16.0596],[-42.3202,-16.1067],[-42.2985,-16.1027],[-42.28573,-16.04367],[-42.4668,-16.01054],[-42.4813,-16.0615]]]]}},{"type":"Feature","properties":{"territory_id":"mg-3145372-zona-rural","name":"Zona Rural","municipality_id":"mg-3145372","polling_places":6,"approx":true,"official":false,"method":"voronoi-polling-places","whole_municipality":false,"approx_coords_only":false},"geometry":{"type":"MultiPolygon","coordinates":[[[[-42.5271,-15.9932],[-42.4724,-15.9778],[-42.4636,-15.9993],[-42.4668,-16.01054],[-42.28573,-16.04367],[-42.2855,-16.0426],[-42.3168,-16.0299],[-42.3275,-15.9925],[-42.3664,-15.9948],[-42.3789,-15.9722],[-42.37479,-15.95365],[-42.42394,-15.9227],[-42.4719,-15.9613],[-42.5164,-15.9598],[-42.5271,-15.9932]]]]}}]}