{"type":"FeatureCollection","features":[{"type":"Feature","properties":{"territory_id":"mg-3145703-centro","name":"Centro","municipality_id":"mg-3145703","polling_places":4,"approx":true,"official":false,"method":"voronoi-polling-places","whole_municipality":false,"approx_coords_only":false},"geometry":{"type":"MultiPolygon","coordinates":[[[[-43.49035,-21.28813],[-43.48604,-21.32007],[-43.47988,-21.36979],[-43.4698,-21.3715],[-43.4239,-21.3367],[-43.4377,-21.3084],[-43.4663,-21.3092],[-43.4767,-21.2806],[-43.49035,-21.28813]]]]}},{"type":"Feature","properties":{"territory_id":"mg-3145703-zona-rural","name":"Zona Rural","municipality_id":"mg-3145703","polling_places":2,"approx":true,"official":false,"method":"voronoi-polling-places","whole_municipality":false,"approx_coords_only":false},"geometry":{"type":"MultiPolygon","coordinates":[[[[-43.6311,-21.3757],[-43.5571,-21.3567],[-43.47988,-21.36979],[-43.48604,-21.32007],[-43.49035,-21.28813],[-43.5376,-21.3142],[-43.5808,-21.3188],[-43.6201,-21.3503],[-43.6311,-21.3757]]]]}}]}