{"type":"FeatureCollection","features":[{"type":"Feature","properties":{"territory_id":"mg-3145851-centro","name":"Centro","municipality_id":"mg-3145851","polling_places":1,"approx":true,"official":false,"method":"voronoi-polling-places","whole_municipality":false,"approx_coords_only":false},"geometry":{"type":"MultiPolygon","coordinates":[[[[-42.8406,-20.4877],[-42.80984,-20.4717],[-42.8039,-20.43259],[-42.79356,-20.3645],[-42.8036,-20.3629],[-42.8406,-20.4877]]]]}},{"type":"Feature","properties":{"territory_id":"mg-3145851-sao-jose","name":"São José","municipality_id":"mg-3145851","polling_places":1,"approx":true,"official":false,"method":"voronoi-polling-places","whole_municipality":false,"approx_coords_only":false},"geometry":{"type":"MultiPolygon","coordinates":[[[[-42.80984,-20.4717],[-42.7737,-20.4529],[-42.7574,-20.4557],[-42.7458,-20.3975],[-42.7873,-20.3655],[-42.79356,-20.3645],[-42.8039,-20.43259],[-42.80984,-20.4717]]]]}}]}