{"type":"FeatureCollection","features":[{"type":"Feature","properties":{"territory_id":"mg-3145307-anastacio-roque","name":"Anastacio Roque","municipality_id":"mg-3145307","polling_places":1,"approx":true,"official":false,"method":"voronoi-polling-places","whole_municipality":false,"approx_coords_only":false},"geometry":{"type":"MultiPolygon","coordinates":[[[[-41.87855,-17.46772],[-41.87716,-17.47012],[-41.87401,-17.47418],[-41.8146,-17.50055],[-41.809,-17.4994],[-41.80524,-17.49388],[-41.86097,-17.43726],[-41.87855,-17.46772]]]]}},{"type":"Feature","properties":{"territory_id":"mg-3145307-centro","name":"Centro","municipality_id":"mg-3145307","polling_places":1,"approx":true,"official":false,"method":"voronoi-polling-places","whole_municipality":false,"approx_coords_only":false},"geometry":{"type":"MultiPolygon","coordinates":[[[[-41.91923,-17.52597],[-41.91425,-17.54246],[-41.9088,-17.5304],[-41.8706,-17.512],[-41.8146,-17.50055],[-41.87401,-17.47418],[-41.8833,-17.47069],[-41.88624,-17.47109],[-41.91923,-17.52597]]]]}},{"type":"Feature","properties":{"territory_id":"mg-3145307-comunidade-de-canoas","name":"Comunidade de Canoas","municipality_id":"mg-3145307","polling_places":1,"approx":true,"official":false,"method":"voronoi-polling-places","whole_municipality":false,"approx_coords_only":false},"geometry":{"type":"MultiPolygon","coordinates":[[[[-41.87916,-17.46772],[-41.87716,-17.47012],[-41.87855,-17.46772],[-41.87916,-17.46772]]]]}},{"type":"Feature","properties":{"territory_id":"mg-3145307-distrito-de-novilhona","name":"Distrito de Novilhona","municipality_id":"mg-3145307","polling_places":5,"approx":true,"official":false,"method":"voronoi-polling-places","whole_municipality":false,"approx_coords_only":false},"geometry":{"type":"MultiPolygon","coordinates":[[[[-42.1902,-17.4421],[-42.17921,-17.46747],[-42.05973,-17.5266],[-42.04851,-17.55316],[-42.03039,-17.52771],[-41.95893,-17.42883],[-41.959,-17.42431],[-42.01756,-17.3935],[-42.03842,-17.38238],[-42.08288,-17.38071],[-42.08994,-17.37733],[-42.177,-17.4161],[-42.1902,-17.4421]]]]}},{"type":"Feature","properties":{"territory_id":"mg-3145307-distrito-de-santa-cruz","name":"Distrito de Santa Cruz","municipality_id":"mg-3145307","polling_places":1,"approx":true,"official":false,"method":"voronoi-polling-places","whole_municipality":false,"approx_coords_only":false},"geometry":{"type":"MultiPolygon","coordinates":[[[[-41.89795,-17.39534],[-41.86709,-17.43102],[-41.86097,-17.43726],[-41.80524,-17.49388],[-41.7814,-17.4589],[-41.7539,-17.4421],[-41.7643,-17.4046],[-41.74437,-17.37356],[-41.75338,-17.37212],[-41.89795,-17.39534]]]]}},{"type":"Feature","properties":{"territory_id":"mg-3145307-povoado-de-lambari","name":"Povoado de Lambari","municipality_id":"mg-3145307","polling_places":1,"approx":true,"official":false,"method":"voronoi-polling-places","whole_municipality":false,"approx_coords_only":false},"geometry":{"type":"MultiPolygon","coordinates":[[[[-41.91148,-17.39946],[-41.88624,-17.47109],[-41.8833,-17.47069],[-41.88067,-17.46639],[-41.86709,-17.43102],[-41.89795,-17.39534],[-41.9022,-17.39381],[-41.91148,-17.39946]]]]}},{"type":"Feature","properties":{"territory_id":"mg-3145307-povoado-de-queixada","name":"Povoado de Queixada","municipality_id":"mg-3145307","polling_places":2,"approx":true,"official":false,"method":"voronoi-polling-places","whole_municipality":false,"approx_coords_only":false},"geometry":{"type":"MultiPolygon","coordinates":[[[[-42.1149,-17.3162],[-42.1038,-17.3544],[-42.0883,-17.3766],[-42.08994,-17.37733],[-42.08288,-17.38071],[-42.03842,-17.38238],[-41.97518,-17.30304],[-41.95965,-17.28829],[-41.9994,-17.21627],[-42.0882,-17.25753],[-42.1149,-17.3162]]]]}},{"type":"Feature","properties":{"territory_id":"mg-3145307-povoado-de-santa-barbara","name":"Povoado de Santa Barbara","municipality_id":"mg-3145307","polling_places":1,"approx":true,"official":false,"method":"voronoi-polling-places","whole_municipality":false,"approx_coords_only":false},"geometry":{"type":"MultiPolygon","coordinates":[[[[-42.17921,-17.46747],[-42.1672,-17.4952],[-42.1326,-17.5291],[-42.1225,-17.5852],[-42.0743,-17.6069],[-42.04527,-17.61122],[-42.04851,-17.55316],[-42.05973,-17.5266],[-42.17921,-17.46747]]]]}},{"type":"Feature","properties":{"territory_id":"mg-3145307-povoado-do-capao","name":"Povoado do Capao","municipality_id":"mg-3145307","polling_places":1,"approx":true,"official":false,"method":"voronoi-polling-places","whole_municipality":false,"approx_coords_only":false},"geometry":{"type":"MultiPolygon","coordinates":[[[[-42.0882,-17.25753],[-41.9994,-17.21627],[-41.98809,-17.18985],[-42.0635,-17.1834],[-42.0798,-17.2121],[-42.0794,-17.2382],[-42.0882,-17.25753]]],[[[-41.9649,-17.0852],[-41.95624,-17.11542],[-41.94535,-17.08997],[-41.9649,-17.0852]]]]}},{"type":"Feature","properties":{"territory_id":"mg-3145307-povoado-do-lufa","name":"Povoado do Lufa","municipality_id":"mg-3145307","polling_places":1,"approx":true,"official":false,"method":"voronoi-polling-places","whole_municipality":false,"approx_coords_only":false},"geometry":{"type":"MultiPolygon","coordinates":[[[[-41.9994,-17.21627],[-41.95965,-17.28829],[-41.89687,-17.30211],[-41.8833,-17.2908],[-41.80894,-17.14659],[-41.8682,-17.1088],[-41.94535,-17.08997],[-41.95624,-17.11542],[-41.9543,-17.1222],[-41.9513,-17.193],[-41.98809,-17.18985],[-41.9994,-17.21627]]]]}},{"type":"Feature","properties":{"territory_id":"mg-3145307-sao-francisco","name":"São Francisco","municipality_id":"mg-3145307","polling_places":1,"approx":true,"official":false,"method":"voronoi-polling-places","whole_municipality":false,"approx_coords_only":false},"geometry":{"type":"MultiPolygon","coordinates":[[[[-41.959,-17.42431],[-41.95893,-17.42883],[-41.91923,-17.52597],[-41.88624,-17.47109],[-41.91148,-17.39946],[-41.959,-17.42431]]]]}},{"type":"Feature","properties":{"territory_id":"mg-3145307-zona-rural","name":"Zona Rural","municipality_id":"mg-3145307","polling_places":7,"approx":true,"official":false,"method":"voronoi-polling-places","whole_municipality":false,"approx_coords_only":false},"geometry":{"type":"MultiPolygon","coordinates":[[[[-42.04851,-17.55316],[-42.04527,-17.61122],[-42.0165,-17.6155],[-41.9844,-17.655],[-41.9965,-17.6384],[-41.9302,-17.5778],[-41.91425,-17.54246],[-41.91923,-17.52597],[-41.95893,-17.42883],[-42.03039,-17.52771],[-42.04851,-17.55316]]],[[[-42.03842,-17.38238],[-42.01756,-17.3935],[-41.959,-17.42431],[-41.91148,-17.39946],[-41.9022,-17.39381],[-41.89795,-17.39534],[-41.75338,-17.37212],[-41.74437,-17.37356],[-41.7331,-17.356],[-41.7492,-17.3438],[-41.7601,-17.2874],[-41.7941,-17.2457],[-41.8254,-17.229],[-41.8162,-17.199],[-41.7857,-17.1614],[-41.80894,-17.14659],[-41.8833,-17.2908],[-41.89687,-17.30211],[-41.95965,-17.28829],[-41.97518,-17.30304],[-42.03842,-17.38238]]],[[[-41.8833,-17.47069],[-41.87401,-17.47418],[-41.87716,-17.47012],[-41.87916,-17.46772],[-41.87855,-17.46772],[-41.86097,-17.43726],[-41.86709,-17.43102],[-41.88067,-17.46639],[-41.8833,-17.47069]]]]}}]}