{"type":"FeatureCollection","features":[{"type":"Feature","properties":{"territory_id":"mg-3145802-centro","name":"Centro","municipality_id":"mg-3145802","polling_places":2,"approx":true,"official":false,"method":"voronoi-polling-places","whole_municipality":false,"approx_coords_only":false},"geometry":{"type":"MultiPolygon","coordinates":[[[[-44.8385,-19.7353],[-44.8206,-19.7628],[-44.7805,-19.7716],[-44.77698,-19.77272],[-44.76127,-19.73968],[-44.76527,-19.72344],[-44.79088,-19.66478],[-44.8146,-19.6643],[-44.8137,-19.7072],[-44.8385,-19.7353]]]]}},{"type":"Feature","properties":{"territory_id":"mg-3145802-distrito-de-capoeira-grande","name":"Distrito de Capoeira Grande","municipality_id":"mg-3145802","polling_places":1,"approx":true,"official":false,"method":"voronoi-polling-places","whole_municipality":false,"approx_coords_only":false},"geometry":{"type":"MultiPolygon","coordinates":[[[[-44.77698,-19.77272],[-44.7238,-19.7896],[-44.6983,-19.7834],[-44.6886,-19.76895],[-44.70459,-19.74051],[-44.76127,-19.73968],[-44.77698,-19.77272]]]]}},{"type":"Feature","properties":{"territory_id":"mg-3145802-povoado-da-serra-dos-ferreira","name":"Povoado da Serra dos Ferreira","municipality_id":"mg-3145802","polling_places":1,"approx":true,"official":false,"method":"voronoi-polling-places","whole_municipality":false,"approx_coords_only":false},"geometry":{"type":"MultiPolygon","coordinates":[[[[-44.76527,-19.72344],[-44.76127,-19.73968],[-44.70459,-19.74051],[-44.68579,-19.68638],[-44.73351,-19.70863],[-44.76527,-19.72344]]]]}},{"type":"Feature","properties":{"territory_id":"mg-3145802-povoado-de-colonia-raul-soares","name":"Povoado de Colônia Raul Soares","municipality_id":"mg-3145802","polling_places":1,"approx":true,"official":false,"method":"voronoi-polling-places","whole_municipality":false,"approx_coords_only":true},"geometry":{"type":"MultiPolygon","coordinates":[[[[-44.73351,-19.70863],[-44.68579,-19.68638],[-44.6711,-19.65714],[-44.6993,-19.6442],[-44.7253,-19.6137],[-44.73351,-19.61163],[-44.73351,-19.70863]]]]}},{"type":"Feature","properties":{"territory_id":"mg-3145802-povoado-de-jaguara","name":"Povoado de Jaguara","municipality_id":"mg-3145802","polling_places":1,"approx":true,"official":false,"method":"voronoi-polling-places","whole_municipality":false,"approx_coords_only":false},"geometry":{"type":"MultiPolygon","coordinates":[[[[-44.70459,-19.74051],[-44.6886,-19.76895],[-44.6701,-19.7414],[-44.6373,-19.7289],[-44.641,-19.7116],[-44.6664,-19.6593],[-44.6711,-19.65714],[-44.68579,-19.68638],[-44.70459,-19.74051]]]]}},{"type":"Feature","properties":{"territory_id":"mg-3145802-rio-do-peixe-zona-rural","name":"Rio do Peixe Zona Rural","municipality_id":"mg-3145802","polling_places":1,"approx":true,"official":false,"method":"voronoi-polling-places","whole_municipality":false,"approx_coords_only":true},"geometry":{"type":"MultiPolygon","coordinates":[[[[-44.79088,-19.66478],[-44.76527,-19.72344],[-44.73351,-19.70863],[-44.73351,-19.61163],[-44.7547,-19.6063],[-44.768,-19.6265],[-44.75,-19.6656],[-44.79088,-19.66478]]]]}}]}