{"type":"FeatureCollection","features":[{"type":"Feature","properties":{"territory_id":"mg-3145208-areias","name":"Areias","municipality_id":"mg-3145208","polling_places":1,"approx":true,"official":false,"method":"voronoi-polling-places","whole_municipality":false,"approx_coords_only":false},"geometry":{"type":"MultiPolygon","coordinates":[[[[-45.06447,-19.79908],[-45.02595,-19.83304],[-44.99636,-19.81686],[-44.98537,-19.79379],[-44.9913,-19.7933],[-45.0145,-19.7817],[-45.0512,-19.7971],[-45.06447,-19.79908]]]]}},{"type":"Feature","properties":{"territory_id":"mg-3145208-barretos","name":"Barretos","municipality_id":"mg-3145208","polling_places":1,"approx":true,"official":false,"method":"voronoi-polling-places","whole_municipality":false,"approx_coords_only":false},"geometry":{"type":"MultiPolygon","coordinates":[[[[-45.00099,-19.91529],[-44.9982,-19.9192],[-44.9648,-19.9348],[-44.94311,-19.93847],[-44.94419,-19.91307],[-44.96463,-19.90063],[-44.98332,-19.90469],[-45.00099,-19.91529]]]]}},{"type":"Feature","properties":{"territory_id":"mg-3145208-boa-vista","name":"Boa Vista","municipality_id":"mg-3145208","polling_places":1,"approx":true,"official":false,"method":"voronoi-polling-places","whole_municipality":false,"approx_coords_only":false},"geometry":{"type":"MultiPolygon","coordinates":[[[[-44.99636,-19.81686],[-44.98392,-19.83309],[-44.97695,-19.839],[-44.95667,-19.85045],[-44.95306,-19.8519],[-44.92536,-19.84598],[-44.89051,-19.81141],[-44.9269,-19.7757],[-44.9514,-19.7966],[-44.98537,-19.79379],[-44.99636,-19.81686]]]]}},{"type":"Feature","properties":{"territory_id":"mg-3145208-capao","name":"Capão","municipality_id":"mg-3145208","polling_places":1,"approx":true,"official":false,"method":"voronoi-polling-places","whole_municipality":false,"approx_coords_only":false},"geometry":{"type":"MultiPolygon","coordinates":[[[[-44.94257,-19.88574],[-44.93962,-19.90662],[-44.9135,-19.89673],[-44.92728,-19.86975],[-44.94257,-19.88574]]]]}},{"type":"Feature","properties":{"territory_id":"mg-3145208-centro","name":"Centro","municipality_id":"mg-3145208","polling_places":4,"approx":true,"official":false,"method":"voronoi-polling-places","whole_municipality":false,"approx_coords_only":false},"geometry":{"type":"MultiPolygon","coordinates":[[[[-45.1243,-19.831],[-45.0801,-19.8305],[-45.0693,-19.8645],[-45.04622,-19.86864],[-45.02626,-19.83397],[-45.02595,-19.83304],[-45.06447,-19.79908],[-45.1103,-19.8059],[-45.1243,-19.831]]],[[[-44.9905,-19.88159],[-44.9826,-19.8806],[-44.98103,-19.87851],[-44.97919,-19.87798],[-44.97733,-19.87275],[-44.98492,-19.86753],[-44.98832,-19.86813],[-44.98795,-19.87118],[-44.98943,-19.87735],[-44.9905,-19.88159]]]]}},{"type":"Feature","properties":{"territory_id":"mg-3145208-cidade-nova-i","name":"Cidade Nova I","municipality_id":"mg-3145208","polling_places":1,"approx":true,"official":false,"method":"voronoi-polling-places","whole_municipality":false,"approx_coords_only":false},"geometry":{"type":"MultiPolygon","coordinates":[[[[-44.96463,-19.90063],[-44.94419,-19.91307],[-44.93962,-19.90662],[-44.94257,-19.88574],[-44.95317,-19.88319],[-44.96034,-19.88639],[-44.96084,-19.88721],[-44.96463,-19.90063]]]]}},{"type":"Feature","properties":{"territory_id":"mg-3145208-concesso-elias","name":"Concesso Elias","municipality_id":"mg-3145208","polling_places":1,"approx":true,"official":false,"method":"voronoi-polling-places","whole_municipality":false,"approx_coords_only":false},"geometry":{"type":"MultiPolygon","coordinates":[[[[-44.99136,-19.86634],[-44.98832,-19.86813],[-44.98492,-19.86753],[-44.98043,-19.86387],[-44.97695,-19.839],[-44.98392,-19.83309],[-44.99136,-19.86634]]]]}},{"type":"Feature","properties":{"territory_id":"mg-3145208-fausto-pinto-da-fonseca-i","name":"Fausto Pinto da Fonseca I","municipality_id":"mg-3145208","polling_places":1,"approx":true,"official":false,"method":"voronoi-polling-places","whole_municipality":false,"approx_coords_only":false},"geometry":{"type":"MultiPolygon","coordinates":[[[[-45.01573,-19.89462],[-45.00542,-19.90908],[-44.991,-19.88214],[-44.99829,-19.87158],[-45.01573,-19.89462]]]]}},{"type":"Feature","properties":{"territory_id":"mg-3145208-frei-paulo","name":"Frei Paulo","municipality_id":"mg-3145208","polling_places":1,"approx":true,"official":false,"method":"voronoi-polling-places","whole_municipality":false,"approx_coords_only":false},"geometry":{"type":"MultiPolygon","coordinates":[[[[-44.99829,-19.87158],[-44.991,-19.88214],[-44.9905,-19.88159],[-44.98943,-19.87735],[-44.98795,-19.87118],[-44.98832,-19.86813],[-44.99136,-19.86634],[-44.99628,-19.86683],[-44.99781,-19.87041],[-44.99829,-19.87158]]]]}},{"type":"Feature","properties":{"territory_id":"mg-3145208-gamas","name":"Gamas","municipality_id":"mg-3145208","polling_places":1,"approx":true,"official":false,"method":"voronoi-polling-places","whole_municipality":false,"approx_coords_only":false},"geometry":{"type":"MultiPolygon","coordinates":[[[[-44.92728,-19.86975],[-44.9135,-19.89673],[-44.8853,-19.90835],[-44.8761,-19.8732],[-44.8929,-19.8555],[-44.8846,-19.8172],[-44.89051,-19.81141],[-44.92536,-19.84598],[-44.92728,-19.86975]]]]}},{"type":"Feature","properties":{"territory_id":"mg-3145208-itapoa","name":"Itapoã","municipality_id":"mg-3145208","polling_places":1,"approx":true,"official":false,"method":"voronoi-polling-places","whole_municipality":false,"approx_coords_only":false},"geometry":{"type":"MultiPolygon","coordinates":[[[[-44.97593,-19.86483],[-44.97267,-19.87149],[-44.96757,-19.87277],[-44.95451,-19.85581],[-44.95306,-19.8519],[-44.95667,-19.85045],[-44.97593,-19.86483]]]]}},{"type":"Feature","properties":{"territory_id":"mg-3145208-jeferson-batista-de-freitas","name":"Jeferson Batista de Freitas","municipality_id":"mg-3145208","polling_places":1,"approx":true,"official":false,"method":"voronoi-polling-places","whole_municipality":false,"approx_coords_only":false},"geometry":{"type":"MultiPolygon","coordinates":[[[[-45.04622,-19.86864],[-45.0325,-19.8711],[-45.0256,-19.88078],[-45.00928,-19.87142],[-44.99871,-19.86511],[-45.02626,-19.83397],[-45.04622,-19.86864]]]]}},{"type":"Feature","properties":{"territory_id":"mg-3145208-marisa","name":"Marisa","municipality_id":"mg-3145208","polling_places":1,"approx":true,"official":false,"method":"voronoi-polling-places","whole_municipality":false,"approx_coords_only":false},"geometry":{"type":"MultiPolygon","coordinates":[[[[-45.00542,-19.90908],[-45.00099,-19.91529],[-44.98332,-19.90469],[-44.97947,-19.89093],[-44.9826,-19.8806],[-44.9905,-19.88159],[-44.991,-19.88214],[-45.00542,-19.90908]]]]}},{"type":"Feature","properties":{"territory_id":"mg-3145208-moreiras","name":"Moreiras","municipality_id":"mg-3145208","polling_places":1,"approx":true,"official":false,"method":"voronoi-polling-places","whole_municipality":false,"approx_coords_only":false},"geometry":{"type":"MultiPolygon","coordinates":[[[[-44.95451,-19.85581],[-44.95317,-19.88319],[-44.94257,-19.88574],[-44.92728,-19.86975],[-44.92536,-19.84598],[-44.95306,-19.8519],[-44.95451,-19.85581]]]]}},{"type":"Feature","properties":{"territory_id":"mg-3145208-novo-horizonte","name":"Novo Horizonte","municipality_id":"mg-3145208","polling_places":1,"approx":true,"official":false,"method":"voronoi-polling-places","whole_municipality":false,"approx_coords_only":false},"geometry":{"type":"MultiPolygon","coordinates":[[[[-45.02626,-19.83397],[-44.99871,-19.86511],[-44.99628,-19.86683],[-44.99136,-19.86634],[-44.98392,-19.83309],[-44.99636,-19.81686],[-45.02595,-19.83304],[-45.02626,-19.83397]]]]}},{"type":"Feature","properties":{"territory_id":"mg-3145208-planalto","name":"Planalto","municipality_id":"mg-3145208","polling_places":2,"approx":true,"official":false,"method":"voronoi-polling-places","whole_municipality":false,"approx_coords_only":false},"geometry":{"type":"MultiPolygon","coordinates":[[[[-44.98492,-19.86753],[-44.97733,-19.87275],[-44.97267,-19.87149],[-44.97593,-19.86483],[-44.95667,-19.85045],[-44.97695,-19.839],[-44.98043,-19.86387],[-44.98492,-19.86753]]]]}},{"type":"Feature","properties":{"territory_id":"mg-3145208-ripas","name":"Ripas","municipality_id":"mg-3145208","polling_places":1,"approx":true,"official":false,"method":"voronoi-polling-places","whole_municipality":false,"approx_coords_only":false},"geometry":{"type":"MultiPolygon","coordinates":[[[[-44.94419,-19.91307],[-44.94311,-19.93847],[-44.9193,-19.9425],[-44.8879,-19.9183],[-44.8853,-19.90835],[-44.9135,-19.89673],[-44.93962,-19.90662],[-44.94419,-19.91307]]]]}},{"type":"Feature","properties":{"territory_id":"mg-3145208-romeu-duarte","name":"Romeu Duarte","municipality_id":"mg-3145208","polling_places":2,"approx":true,"official":false,"method":"voronoi-polling-places","whole_municipality":false,"approx_coords_only":false},"geometry":{"type":"MultiPolygon","coordinates":[[[[-45.0256,-19.88078],[-45.01573,-19.89462],[-44.99829,-19.87158],[-44.99781,-19.87041],[-44.99628,-19.86683],[-44.99871,-19.86511],[-45.00928,-19.87142],[-45.0256,-19.88078]]]]}},{"type":"Feature","properties":{"territory_id":"mg-3145208-santa-cruz","name":"Santa Cruz","municipality_id":"mg-3145208","polling_places":1,"approx":true,"official":false,"method":"voronoi-polling-places","whole_municipality":false,"approx_coords_only":false},"geometry":{"type":"MultiPolygon","coordinates":[[[[-44.98332,-19.90469],[-44.96463,-19.90063],[-44.96084,-19.88721],[-44.97464,-19.88374],[-44.97947,-19.89093],[-44.98332,-19.90469]]]]}},{"type":"Feature","properties":{"territory_id":"mg-3145208-santa-luzia","name":"Santa Luzia","municipality_id":"mg-3145208","polling_places":1,"approx":true,"official":false,"method":"voronoi-polling-places","whole_municipality":false,"approx_coords_only":false},"geometry":{"type":"MultiPolygon","coordinates":[[[[-44.97919,-19.87798],[-44.97475,-19.88127],[-44.96745,-19.87446],[-44.96757,-19.87277],[-44.97267,-19.87149],[-44.97733,-19.87275],[-44.97919,-19.87798]]]]}},{"type":"Feature","properties":{"territory_id":"mg-3145208-sao-geraldo","name":"São Geraldo","municipality_id":"mg-3145208","polling_places":1,"approx":true,"official":false,"method":"voronoi-polling-places","whole_municipality":false,"approx_coords_only":false},"geometry":{"type":"MultiPolygon","coordinates":[[[[-44.97475,-19.88127],[-44.97464,-19.88374],[-44.96084,-19.88721],[-44.96034,-19.88639],[-44.96745,-19.87446],[-44.97475,-19.88127]]]]}},{"type":"Feature","properties":{"territory_id":"mg-3145208-sao-jose","name":"São José","municipality_id":"mg-3145208","polling_places":1,"approx":true,"official":false,"method":"voronoi-polling-places","whole_municipality":false,"approx_coords_only":false},"geometry":{"type":"MultiPolygon","coordinates":[[[[-44.96757,-19.87277],[-44.96745,-19.87446],[-44.96034,-19.88639],[-44.95317,-19.88319],[-44.95451,-19.85581],[-44.96757,-19.87277]]]]}},{"type":"Feature","properties":{"territory_id":"mg-3145208-vila-operaria","name":"Vila Operária","municipality_id":"mg-3145208","polling_places":1,"approx":true,"official":false,"method":"voronoi-polling-places","whole_municipality":false,"approx_coords_only":false},"geometry":{"type":"MultiPolygon","coordinates":[[[[-44.9826,-19.8806],[-44.97947,-19.89093],[-44.97464,-19.88374],[-44.97475,-19.88127],[-44.97919,-19.87798],[-44.98103,-19.87851],[-44.9826,-19.8806]]]]}}]}