{"type":"FeatureCollection","features":[{"type":"Feature","properties":{"territory_id":"mg-3145406-centro","name":"Centro","municipality_id":"mg-3145406","polling_places":2,"approx":true,"official":false,"method":"voronoi-polling-places","whole_municipality":false,"approx_coords_only":false},"geometry":{"type":"MultiPolygon","coordinates":[[[[-43.98338,-21.86104],[-43.9706,-21.90333],[-43.9531,-21.962],[-43.9024,-21.9733],[-43.8676,-21.9622],[-43.8648,-21.9288],[-43.9151,-21.8898],[-43.9335,-21.8443],[-43.978,-21.8621],[-43.98338,-21.86104]]]]}},{"type":"Feature","properties":{"territory_id":"mg-3145406-olaria","name":"Olaria","municipality_id":"mg-3145406","polling_places":1,"approx":true,"official":false,"method":"voronoi-polling-places","whole_municipality":false,"approx_coords_only":false},"geometry":{"type":"MultiPolygon","coordinates":[[[[-44.0869,-21.8852],[-44.0681,-21.9253],[-44.0311,-21.9103],[-43.9769,-21.9567],[-43.9531,-21.962],[-43.9706,-21.90333],[-43.98338,-21.86104],[-44.0182,-21.8542],[-44.0869,-21.8852]]]]}}]}