{"type":"FeatureCollection","features":[{"type":"Feature","properties":{"territory_id":"mg-3145059-california","name":"California","municipality_id":"mg-3145059","polling_places":2,"approx":true,"official":false,"method":"voronoi-polling-places","whole_municipality":false,"approx_coords_only":false},"geometry":{"type":"MultiPolygon","coordinates":[[[[-43.317,-15.7809],[-43.31006,-15.79153],[-43.30108,-15.79851],[-43.29262,-15.81821],[-43.2889,-15.8239],[-43.2623,-15.8285],[-43.25789,-15.81583],[-43.27496,-15.80189],[-43.31121,-15.76793],[-43.317,-15.7809]]]]}},{"type":"Feature","properties":{"territory_id":"mg-3145059-centro","name":"Centro","municipality_id":"mg-3145059","polling_places":1,"approx":true,"official":false,"method":"voronoi-polling-places","whole_municipality":false,"approx_coords_only":false},"geometry":{"type":"MultiPolygon","coordinates":[[[[-43.31006,-15.79153],[-43.29262,-15.81821],[-43.30108,-15.79851],[-43.31006,-15.79153]]]]}},{"type":"Feature","properties":{"territory_id":"mg-3145059-colonizacao-i-col-paraguacu","name":"Colonização I ( Col. Paraguaçu )","municipality_id":"mg-3145059","polling_places":1,"approx":true,"official":false,"method":"voronoi-polling-places","whole_municipality":false,"approx_coords_only":false},"geometry":{"type":"MultiPolygon","coordinates":[[[[-43.3013,-15.6684],[-43.30106,-15.67207],[-43.26075,-15.66906],[-43.2726,-15.6543],[-43.2772,-15.606],[-43.3013,-15.6684]]]]}},{"type":"Feature","properties":{"territory_id":"mg-3145059-colonizacao-ii-vila-floresta","name":"Colonização Ii (vila Floresta)","municipality_id":"mg-3145059","polling_places":1,"approx":true,"official":false,"method":"voronoi-polling-places","whole_municipality":false,"approx_coords_only":false},"geometry":{"type":"MultiPolygon","coordinates":[[[[-43.31121,-15.76793],[-43.27496,-15.80189],[-43.25789,-15.81583],[-43.24193,-15.76997],[-43.29248,-15.73814],[-43.29783,-15.73797],[-43.31121,-15.76793]]]]}},{"type":"Feature","properties":{"territory_id":"mg-3145059-colonizacao-iii-vila-calumbi","name":"Colonização Iii ( Vila Calumbí )","municipality_id":"mg-3145059","polling_places":1,"approx":true,"official":false,"method":"voronoi-polling-places","whole_municipality":false,"approx_coords_only":false},"geometry":{"type":"MultiPolygon","coordinates":[[[[-43.30106,-15.67207],[-43.2969,-15.7359],[-43.29783,-15.73797],[-43.29248,-15.73814],[-43.24073,-15.694],[-43.26075,-15.66906],[-43.30106,-15.67207]]]]}},{"type":"Feature","properties":{"territory_id":"mg-3145059-comunidade-furado-de-oliveira","name":"Comunidade Furado de Oliveira","municipality_id":"mg-3145059","polling_places":1,"approx":true,"official":false,"method":"voronoi-polling-places","whole_municipality":false,"approx_coords_only":false},"geometry":{"type":"MultiPolygon","coordinates":[[[[-43.29248,-15.73814],[-43.24193,-15.76997],[-43.2323,-15.7423],[-43.2347,-15.7015],[-43.24073,-15.694],[-43.29248,-15.73814]]]]}}]}