{"type":"FeatureCollection","features":[{"type":"Feature","properties":{"territory_id":"mg-3145356-americaninha","name":"Americaninha","municipality_id":"mg-3145356","polling_places":1,"approx":true,"official":false,"method":"voronoi-polling-places","whole_municipality":false,"approx_coords_only":false},"geometry":{"type":"MultiPolygon","coordinates":[[[[-41.32929,-17.0912],[-41.17362,-17.19727],[-41.1641,-17.1893],[-41.1539,-17.1297],[-41.1261,-17.1249],[-41.1211,-17.1143],[-41.1601,-17.0429],[-41.1941,-17.038],[-41.2569,-17.0481],[-41.2775,-17.0325],[-41.3241,-17.0601],[-41.32929,-17.0912]]]]}},{"type":"Feature","properties":{"territory_id":"mg-3145356-cidade-jardim","name":"Cidade Jardim","municipality_id":"mg-3145356","polling_places":1,"approx":true,"official":false,"method":"voronoi-polling-places","whole_municipality":false,"approx_coords_only":false},"geometry":{"type":"MultiPolygon","coordinates":[[[[-41.3514,-17.3467],[-41.324,-17.3368],[-41.2645,-17.3491],[-41.2377,-17.3934],[-41.2286,-17.4348],[-41.22758,-17.43516],[-41.20597,-17.36019],[-41.2106,-17.30789],[-41.33381,-17.32513],[-41.3514,-17.3467]]]]}},{"type":"Feature","properties":{"territory_id":"mg-3145356-corrego-de-americana","name":"Córrego de Americana","municipality_id":"mg-3145356","polling_places":1,"approx":true,"official":false,"method":"voronoi-polling-places","whole_municipality":false,"approx_coords_only":false},"geometry":{"type":"MultiPolygon","coordinates":[[[[-41.3411,-17.2161],[-41.3183,-17.2781],[-41.3227,-17.3115],[-41.33381,-17.32513],[-41.2106,-17.30789],[-41.16631,-17.29241],[-41.1798,-17.2812],[-41.184,-17.2469],[-41.2053,-17.2238],[-41.17362,-17.19727],[-41.32929,-17.0912],[-41.3386,-17.147],[-41.3411,-17.2161]]]]}},{"type":"Feature","properties":{"territory_id":"mg-3145356-frei-gonzaga","name":"Frei Gonzaga","municipality_id":"mg-3145356","polling_places":1,"approx":true,"official":false,"method":"voronoi-polling-places","whole_municipality":false,"approx_coords_only":false},"geometry":{"type":"MultiPolygon","coordinates":[[[[-41.2106,-17.30789],[-41.20597,-17.36019],[-41.19713,-17.44581],[-41.192,-17.4476],[-41.1586,-17.4294],[-41.1513,-17.4017],[-41.0756,-17.379],[-41.0715,-17.3471],[-41.1065,-17.3184],[-41.1526,-17.3038],[-41.16631,-17.29241],[-41.2106,-17.30789]]]]}},{"type":"Feature","properties":{"territory_id":"mg-3145356-novo-oriente-de-minas","name":"Novo Oriente de Minas","municipality_id":"mg-3145356","polling_places":1,"approx":true,"official":false,"method":"voronoi-polling-places","whole_municipality":false,"approx_coords_only":false},"geometry":{"type":"MultiPolygon","coordinates":[[[[-41.22758,-17.43516],[-41.19713,-17.44581],[-41.20597,-17.36019],[-41.22758,-17.43516]]]]}}]}