{"type":"FeatureCollection","features":[{"type":"Feature","properties":{"territory_id":"mg-3145455-centro","name":"Centro","municipality_id":"mg-3145455","polling_places":1,"approx":true,"official":false,"method":"voronoi-polling-places","whole_municipality":false,"approx_coords_only":false},"geometry":{"type":"MultiPolygon","coordinates":[[[[-43.57905,-17.40536],[-43.56698,-17.40951],[-43.56715,-17.40445],[-43.56924,-17.40009],[-43.57905,-17.40536]]]]}},{"type":"Feature","properties":{"territory_id":"mg-3145455-felicidade","name":"Felicidade","municipality_id":"mg-3145455","polling_places":1,"approx":true,"official":false,"method":"voronoi-polling-places","whole_municipality":false,"approx_coords_only":false},"geometry":{"type":"MultiPolygon","coordinates":[[[[-43.58153,-17.33129],[-43.56924,-17.40009],[-43.56715,-17.40445],[-43.46664,-17.26891],[-43.47326,-17.26801],[-43.58153,-17.33129]]]]}},{"type":"Feature","properties":{"territory_id":"mg-3145455-zona-rural","name":"Zona Rural","municipality_id":"mg-3145455","polling_places":7,"approx":true,"official":false,"method":"voronoi-polling-places","whole_municipality":false,"approx_coords_only":false},"geometry":{"type":"MultiPolygon","coordinates":[[[[-43.8148,-17.3333],[-43.7758,-17.37],[-43.7332,-17.3698],[-43.7188,-17.4189],[-43.7559,-17.4862],[-43.7737,-17.5465],[-43.7768,-17.6795],[-43.7522,-17.7053],[-43.7721,-17.7401],[-43.756,-17.7664],[-43.7808,-17.7928],[-43.7557,-17.8226],[-43.7754,-17.8367],[-43.7506,-17.8901],[-43.6964,-17.8768],[-43.6771,-17.8311],[-43.6071,-17.7499],[-43.6027,-17.6707],[-43.6111,-17.6294],[-43.5678,-17.6108],[-43.5807,-17.5829],[-43.5493,-17.5398],[-43.5031,-17.56],[-43.4364,-17.5307],[-43.371,-17.5225],[-43.319,-17.4731],[-43.2799,-17.3957],[-43.2954,-17.3797],[-43.3238,-17.3672],[-43.3335,-17.3374],[-43.3702,-17.2944],[-43.4157,-17.2758],[-43.46664,-17.26891],[-43.56715,-17.40445],[-43.56698,-17.40951],[-43.57905,-17.40536],[-43.56924,-17.40009],[-43.58153,-17.33129],[-43.47326,-17.26801],[-43.4992,-17.2645],[-43.5424,-17.2333],[-43.5759,-17.2743],[-43.626,-17.2572],[-43.6687,-17.209],[-43.7304,-17.2164],[-43.811,-17.2723],[-43.8148,-17.3333]]]]}}]}