{"type":"FeatureCollection","features":[{"type":"Feature","properties":{"territory_id":"mg-3145604-antonio-laranjo","name":"Antônio Laranjo","municipality_id":"mg-3145604","polling_places":1,"approx":true,"official":false,"method":"voronoi-polling-places","whole_municipality":false,"approx_coords_only":false},"geometry":{"type":"MultiPolygon","coordinates":[[[[-44.91656,-20.74947],[-44.9036,-20.7578],[-44.9056,-20.7946],[-44.87862,-20.8053],[-44.83639,-20.70129],[-44.84115,-20.69467],[-44.91656,-20.74947]]]]}},{"type":"Feature","properties":{"territory_id":"mg-3145604-aparecida","name":"Aparecida","municipality_id":"mg-3145604","polling_places":1,"approx":true,"official":false,"method":"voronoi-polling-places","whole_municipality":false,"approx_coords_only":false},"geometry":{"type":"MultiPolygon","coordinates":[[[[-44.87862,-20.8053],[-44.8718,-20.808],[-44.84252,-20.85422],[-44.82104,-20.71147],[-44.82434,-20.70611],[-44.82701,-20.70277],[-44.82704,-20.70275],[-44.83585,-20.70104],[-44.83639,-20.70129],[-44.87862,-20.8053]]]]}},{"type":"Feature","properties":{"territory_id":"mg-3145604-cabrais","name":"Cabrais","municipality_id":"mg-3145604","polling_places":1,"approx":true,"official":false,"method":"voronoi-polling-places","whole_municipality":false,"approx_coords_only":false},"geometry":{"type":"MultiPolygon","coordinates":[[[[-44.84252,-20.85422],[-44.8362,-20.8642],[-44.805,-20.8976],[-44.7805,-20.9028],[-44.7555,-20.8746],[-44.73538,-20.89025],[-44.70445,-20.77617],[-44.75525,-20.69678],[-44.81576,-20.70576],[-44.82025,-20.71026],[-44.82104,-20.71147],[-44.84252,-20.85422]]]]}},{"type":"Feature","properties":{"territory_id":"mg-3145604-centro","name":"Centro","municipality_id":"mg-3145604","polling_places":9,"approx":true,"official":false,"method":"voronoi-polling-places","whole_municipality":false,"approx_coords_only":false},"geometry":{"type":"MultiPolygon","coordinates":[[[[-44.83585,-20.70104],[-44.82704,-20.70275],[-44.82701,-20.70277],[-44.82434,-20.70611],[-44.82104,-20.71147],[-44.82025,-20.71026],[-44.82032,-20.70371],[-44.82089,-20.70008],[-44.8228,-20.69885],[-44.82365,-20.69748],[-44.82353,-20.69528],[-44.81218,-20.68296],[-44.82956,-20.69137],[-44.83185,-20.69169],[-44.83208,-20.6964],[-44.83585,-20.70104]]]]}},{"type":"Feature","properties":{"territory_id":"mg-3145604-cristo-redentor","name":"Cristo Redentor","municipality_id":"mg-3145604","polling_places":1,"approx":true,"official":false,"method":"voronoi-polling-places","whole_municipality":false,"approx_coords_only":false},"geometry":{"type":"MultiPolygon","coordinates":[[[[-44.85746,-20.64463],[-44.84292,-20.68008],[-44.83185,-20.69169],[-44.82956,-20.69137],[-44.81218,-20.68296],[-44.80995,-20.68119],[-44.78357,-20.64625],[-44.7847,-20.64295],[-44.80328,-20.61853],[-44.8227,-20.6397],[-44.85746,-20.64463]]]]}},{"type":"Feature","properties":{"territory_id":"mg-3145604-dom-bosco","name":"Dom Bosco","municipality_id":"mg-3145604","polling_places":1,"approx":true,"official":false,"method":"voronoi-polling-places","whole_municipality":false,"approx_coords_only":false},"geometry":{"type":"MultiPolygon","coordinates":[[[[-44.84292,-20.68008],[-44.84115,-20.69467],[-44.83639,-20.70129],[-44.83585,-20.70104],[-44.83208,-20.6964],[-44.83185,-20.69169],[-44.84292,-20.68008]]]]}},{"type":"Feature","properties":{"territory_id":"mg-3145604-martins","name":"Martins","municipality_id":"mg-3145604","polling_places":1,"approx":true,"official":false,"method":"voronoi-polling-places","whole_municipality":false,"approx_coords_only":false},"geometry":{"type":"MultiPolygon","coordinates":[[[[-44.9412,-20.633],[-44.9285,-20.6624],[-44.9383,-20.7355],[-44.91656,-20.74947],[-44.84115,-20.69467],[-44.84292,-20.68008],[-44.85746,-20.64463],[-44.8925,-20.6496],[-44.9412,-20.633]]]]}},{"type":"Feature","properties":{"territory_id":"mg-3145604-morro-do-ferro","name":"Morro do Ferro","municipality_id":"mg-3145604","polling_places":1,"approx":true,"official":false,"method":"voronoi-polling-places","whole_municipality":false,"approx_coords_only":false},"geometry":{"type":"MultiPolygon","coordinates":[[[[-44.73538,-20.89025],[-44.7339,-20.8914],[-44.7091,-20.8489],[-44.6411,-20.8563],[-44.6108,-20.8116],[-44.5685,-20.8047],[-44.5151,-20.834],[-44.4751,-20.7933],[-44.4477,-20.7863],[-44.5057,-20.7452],[-44.5486,-20.7445],[-44.57,-20.728],[-44.5894,-20.6454],[-44.6167,-20.6771],[-44.6178,-20.7101],[-44.64533,-20.70551],[-44.70445,-20.77617],[-44.73538,-20.89025]]]]}},{"type":"Feature","properties":{"territory_id":"mg-3145604-sao-sebastiao","name":"São Sebastião","municipality_id":"mg-3145604","polling_places":4,"approx":true,"official":false,"method":"voronoi-polling-places","whole_municipality":false,"approx_coords_only":false},"geometry":{"type":"MultiPolygon","coordinates":[[[[-44.82365,-20.69748],[-44.8228,-20.69885],[-44.82089,-20.70008],[-44.82032,-20.70371],[-44.82025,-20.71026],[-44.81576,-20.70576],[-44.75525,-20.69678],[-44.78357,-20.64625],[-44.80995,-20.68119],[-44.81218,-20.68296],[-44.82353,-20.69528],[-44.82365,-20.69748]]]]}},{"type":"Feature","properties":{"territory_id":"mg-3145604-zona-rural","name":"Zona Rural","municipality_id":"mg-3145604","polling_places":2,"approx":true,"official":false,"method":"voronoi-polling-places","whole_municipality":false,"approx_coords_only":false},"geometry":{"type":"MultiPolygon","coordinates":[[[[-44.80328,-20.61853],[-44.7847,-20.64295],[-44.78357,-20.64625],[-44.75525,-20.69678],[-44.70445,-20.77617],[-44.64533,-20.70551],[-44.6622,-20.7027],[-44.6912,-20.6753],[-44.6845,-20.6495],[-44.7236,-20.6159],[-44.7524,-20.6094],[-44.7907,-20.6048],[-44.80328,-20.61853]]]]}}]}