{"type":"FeatureCollection","features":[{"type":"Feature","properties":{"territory_id":"mg-3145000-centro","name":"Centro","municipality_id":"mg-3145000","polling_places":1,"approx":false,"official":true,"method":"official-ibge-cd2022","whole_municipality":false,"approx_coords_only":false,"official_name":"Centro","official_code":"3145000003","match":"direct"},"geometry":{"type":"MultiPolygon","coordinates":[[[[-47.67358,-19.17089],[-47.67415,-19.17054],[-47.67477,-19.17009],[-47.67599,-19.16904],[-47.67503,-19.16807],[-47.67217,-19.16511],[-47.67124,-19.16594],[-47.67099,-19.16614],[-47.6707,-19.1663],[-47.67038,-19.1664],[-47.66995,-19.16649],[-47.66868,-19.16658],[-47.66884,-19.1686],[-47.66888,-19.16926],[-47.6691,-19.17191],[-47.67037,-19.17181],[-47.67121,-19.1717],[-47.67202,-19.17151],[-47.67285,-19.17122],[-47.6733,-19.17102],[-47.67358,-19.17089]]]]}},{"type":"Feature","properties":{"territory_id":"mg-3145000-medalha-milagrosa","name":"Medalha Milagrosa","municipality_id":"mg-3145000","polling_places":2,"approx":true,"official":false,"method":"voronoi-polling-places","whole_municipality":false,"approx_coords_only":false},"geometry":{"type":"MultiPolygon","coordinates":[[[[-47.8526,-19.0939],[-47.85215,-19.09546],[-47.6501,-19.20488],[-47.6397,-19.1965],[-47.6436,-19.1595],[-47.6177,-19.1505],[-47.5703,-19.106],[-47.595,-19.0451],[-47.573,-19.0129],[-47.6061,-19.0162],[-47.6705,-18.9416],[-47.7088,-18.9228],[-47.6662,-18.999],[-47.6704,-19.0353],[-47.6938,-19.0542],[-47.7347,-19.0514],[-47.7655,-19.0298],[-47.8006,-19.0385],[-47.8194,-19.0892],[-47.8526,-19.0939]],[[-47.67599,-19.16904],[-47.67503,-19.16807],[-47.67217,-19.16511],[-47.67124,-19.16594],[-47.67099,-19.16614],[-47.6707,-19.1663],[-47.67038,-19.1664],[-47.66995,-19.16649],[-47.66868,-19.16658],[-47.66884,-19.1686],[-47.66888,-19.16926],[-47.6691,-19.17191],[-47.67037,-19.17181],[-47.67121,-19.1717],[-47.67202,-19.17151],[-47.67285,-19.17122],[-47.6733,-19.17102],[-47.67358,-19.17089],[-47.67415,-19.17054],[-47.67477,-19.17009],[-47.67599,-19.16904]],[[-47.66883,-19.16852],[-47.66868,-19.16658],[-47.6674,-19.16665],[-47.66484,-19.16683],[-47.66499,-19.1688],[-47.6663,-19.16869],[-47.66883,-19.16852]]]]}},{"type":"Feature","properties":{"territory_id":"mg-3145000-residencial-parque-das-arvores","name":"Residencial Parque das Arvores","municipality_id":"mg-3145000","polling_places":1,"approx":true,"official":false,"method":"voronoi-polling-places","whole_municipality":false,"approx_coords_only":false},"geometry":{"type":"MultiPolygon","coordinates":[[[[-47.85215,-19.09546],[-47.8345,-19.1564],[-47.8093,-19.1785],[-47.8069,-19.2237],[-47.7879,-19.2541],[-47.7991,-19.3071],[-47.7962,-19.38],[-47.78473,-19.40374],[-47.64666,-19.36848],[-47.6411,-19.3517],[-47.6369,-19.2777],[-47.6556,-19.2093],[-47.6501,-19.20488],[-47.85215,-19.09546]]]]}},{"type":"Feature","properties":{"territory_id":"mg-3145000-sao-joao","name":"Sao Joao","municipality_id":"mg-3145000","polling_places":1,"approx":false,"official":true,"method":"official-ibge-cd2022","whole_municipality":false,"approx_coords_only":false,"official_name":"São João","official_code":"3145000002","match":"direct"},"geometry":{"type":"MultiPolygon","coordinates":[[[[-47.66484,-19.16683],[-47.66499,-19.1688],[-47.6663,-19.16869],[-47.66883,-19.16852],[-47.66868,-19.16658],[-47.6674,-19.16665],[-47.66484,-19.16683]]]]}},{"type":"Feature","properties":{"territory_id":"mg-3145000-zona-rural","name":"Zona Rural","municipality_id":"mg-3145000","polling_places":1,"approx":true,"official":false,"method":"voronoi-polling-places","whole_municipality":false,"approx_coords_only":false},"geometry":{"type":"MultiPolygon","coordinates":[[[[-47.7859,-19.4391],[-47.765,-19.5212],[-47.686,-19.5671],[-47.615,-19.5653],[-47.5976,-19.5374],[-47.6304,-19.4901],[-47.6197,-19.4277],[-47.6505,-19.3801],[-47.64666,-19.36848],[-47.78473,-19.40374],[-47.7763,-19.4212],[-47.7859,-19.4391]]]]}}]}