{"type":"FeatureCollection","features":[{"type":"Feature","properties":{"territory_id":"mg-3146552-centro","name":"Centro","municipality_id":"mg-3146552","polling_places":1,"approx":true,"official":false,"method":"voronoi-polling-places","whole_municipality":false,"approx_coords_only":false},"geometry":{"type":"MultiPolygon","coordinates":[[[[-43.11392,-15.61043],[-43.0662,-15.6074],[-43.022,-15.5406],[-43.00765,-15.53488],[-43.02004,-15.51715],[-43.06981,-15.5333],[-43.11392,-15.61043]]]]}},{"type":"Feature","properties":{"territory_id":"mg-3146552-taperinha","name":"Taperinha","municipality_id":"mg-3146552","polling_places":1,"approx":true,"official":false,"method":"voronoi-polling-places","whole_municipality":false,"approx_coords_only":false},"geometry":{"type":"MultiPolygon","coordinates":[[[[-43.31942,-15.2757],[-43.3115,-15.3271],[-43.2622,-15.3305],[-43.2515,-15.3757],[-43.2546,-15.4291],[-43.23865,-15.48934],[-43.14364,-15.37979],[-43.2068,-15.3234],[-43.2059,-15.2795],[-43.21059,-15.2769],[-43.31942,-15.2757]]]]}},{"type":"Feature","properties":{"territory_id":"mg-3146552-vila-nova","name":"Vila Nova","municipality_id":"mg-3146552","polling_places":2,"approx":true,"official":false,"method":"voronoi-polling-places","whole_municipality":false,"approx_coords_only":false},"geometry":{"type":"MultiPolygon","coordinates":[[[[-43.23865,-15.48934],[-43.2348,-15.5039],[-43.1832,-15.5526],[-43.1888,-15.5745],[-43.1292,-15.6114],[-43.11392,-15.61043],[-43.06981,-15.5333],[-43.02004,-15.51715],[-43.07362,-15.43306],[-43.0797,-15.4496],[-43.1089,-15.4108],[-43.14364,-15.37979],[-43.23865,-15.48934]]]]}},{"type":"Feature","properties":{"territory_id":"mg-3146552-zona-rural","name":"Zona Rural","municipality_id":"mg-3146552","polling_places":2,"approx":true,"official":false,"method":"voronoi-polling-places","whole_municipality":false,"approx_coords_only":false},"geometry":{"type":"MultiPolygon","coordinates":[[[[-43.3305,-15.1063],[-43.3165,-15.1556],[-43.3094,-15.2366],[-43.3228,-15.2538],[-43.31942,-15.2757],[-43.21059,-15.2769],[-43.2468,-15.2568],[-43.2643,-15.2038],[-43.2695,-15.1503],[-43.2727,-15.125],[-43.3119,-15.0837],[-43.3305,-15.1063]]],[[[-43.07362,-15.43306],[-43.02004,-15.51715],[-43.00765,-15.53488],[-42.9741,-15.5215],[-42.9148,-15.5134],[-42.9122,-15.4953],[-42.9512,-15.434],[-42.9797,-15.433],[-43.0198,-15.3997],[-43.0396,-15.4057],[-43.0639,-15.4066],[-43.07362,-15.43306]]]]}}]}