{"type":"FeatureCollection","features":[{"type":"Feature","properties":{"territory_id":"mg-3146404-centro","name":"Centro","municipality_id":"mg-3146404","polling_places":6,"approx":true,"official":false,"method":"voronoi-polling-places","whole_municipality":false,"approx_coords_only":false},"geometry":{"type":"MultiPolygon","coordinates":[[[[-45.6994,-18.9847],[-45.6597,-19.0105],[-45.645,-18.9576],[-45.6198,-18.9446],[-45.5682,-18.9612],[-45.5499,-18.9901],[-45.4652,-19.0137],[-45.43966,-19.01375],[-45.47323,-18.88965],[-45.47728,-18.86735],[-45.47958,-18.85384],[-45.4905,-18.8419],[-45.5317,-18.8547],[-45.5811,-18.8149],[-45.637,-18.7919],[-45.6454,-18.8365],[-45.6692,-18.8452],[-45.6994,-18.9847]]]]}},{"type":"Feature","properties":{"territory_id":"mg-3146404-distrito","name":"Distrito","municipality_id":"mg-3146404","polling_places":1,"approx":true,"official":false,"method":"voronoi-polling-places","whole_municipality":false,"approx_coords_only":false},"geometry":{"type":"MultiPolygon","coordinates":[[[[-45.47958,-18.85384],[-45.47728,-18.86735],[-45.47323,-18.88965],[-45.43966,-19.01375],[-45.4147,-19.0138],[-45.3651,-18.9814],[-45.3432,-18.9847],[-45.3007,-18.9499],[-45.2385,-18.913],[-45.2074,-18.9326],[-45.1844,-18.876],[-45.1843,-18.8755],[-45.2613,-18.8785],[-45.3164,-18.9053],[-45.4222,-18.8704],[-45.4616,-18.8735],[-45.47958,-18.85384]]]]}}]}