{"type":"FeatureCollection","features":[{"type":"Feature","properties":{"territory_id":"mg-3146503-alvorada","name":"Alvorada","municipality_id":"mg-3146503","polling_places":1,"approx":false,"official":true,"method":"official-ibge-cd2022","whole_municipality":false,"approx_coords_only":false,"official_name":"Alvorada","official_code":"3146503011","match":"direct"},"geometry":{"type":"MultiPolygon","coordinates":[[[[-45.67739,-20.38291],[-45.67695,-20.38262],[-45.67379,-20.38087],[-45.67083,-20.37947],[-45.67005,-20.37847],[-45.66955,-20.37713],[-45.66918,-20.37745],[-45.66916,-20.37749],[-45.66167,-20.38267],[-45.66123,-20.38282],[-45.66409,-20.38378],[-45.67325,-20.38678],[-45.67483,-20.38894],[-45.6788,-20.38444],[-45.67806,-20.38334],[-45.67781,-20.38318],[-45.67739,-20.38291]]]]}},{"type":"Feature","properties":{"territory_id":"mg-3146503-capoeirao-zona-rural","name":"Capoeirao (zona Rural)","municipality_id":"mg-3146503","polling_places":1,"approx":true,"official":false,"method":"voronoi-polling-places","whole_municipality":false,"approx_coords_only":false},"geometry":{"type":"MultiPolygon","coordinates":[[[[-45.8203,-20.2888],[-45.8011,-20.3081],[-45.81973,-20.33281],[-45.56631,-20.40517],[-45.556,-20.3852],[-45.5832,-20.3751],[-45.5969,-20.3251],[-45.6606,-20.2966],[-45.6938,-20.2882],[-45.759,-20.3031],[-45.8203,-20.2888]],[[-45.66496,-20.36514],[-45.66299,-20.36506],[-45.66282,-20.36515],[-45.66223,-20.36574],[-45.66143,-20.36685],[-45.66135,-20.36826],[-45.66111,-20.36936],[-45.66087,-20.37067],[-45.66065,-20.37181],[-45.6606,-20.372],[-45.66048,-20.37195],[-45.66017,-20.37269],[-45.66028,-20.37333],[-45.66045,-20.37396],[-45.66209,-20.37378],[-45.66243,-20.37372],[-45.66256,-20.3736],[-45.66297,-20.37315],[-45.66315,-20.37287],[-45.66343,-20.37222],[-45.66353,-20.37181],[-45.66468,-20.36913],[-45.66496,-20.36514]]]]}},{"type":"Feature","properties":{"territory_id":"mg-3146503-centro","name":"Centro","municipality_id":"mg-3146503","polling_places":3,"approx":false,"official":true,"method":"official-ibge-cd2022","whole_municipality":false,"approx_coords_only":false,"official_name":"Centro","official_code":"3146503001","match":"direct"},"geometry":{"type":"MultiPolygon","coordinates":[[[[-45.66209,-20.37378],[-45.66243,-20.37372],[-45.66256,-20.3736],[-45.66297,-20.37315],[-45.66315,-20.37287],[-45.66343,-20.37222],[-45.66353,-20.37181],[-45.66468,-20.36913],[-45.66496,-20.36514],[-45.66299,-20.36506],[-45.66282,-20.36515],[-45.66223,-20.36574],[-45.66143,-20.36685],[-45.66135,-20.36826],[-45.66111,-20.36936],[-45.66087,-20.37067],[-45.66065,-20.37181],[-45.6606,-20.372],[-45.66048,-20.37195],[-45.66017,-20.37269],[-45.66028,-20.37333],[-45.66045,-20.37396],[-45.66209,-20.37378]]]]}},{"type":"Feature","properties":{"territory_id":"mg-3146503-vila-costina","name":"Vila Costina","municipality_id":"mg-3146503","polling_places":1,"approx":true,"official":false,"method":"voronoi-polling-places","whole_municipality":false,"approx_coords_only":false},"geometry":{"type":"MultiPolygon","coordinates":[[[[-45.8346,-20.3583],[-45.7863,-20.4233],[-45.7453,-20.4388],[-45.7504,-20.4666],[-45.7158,-20.5077],[-45.6693,-20.4388],[-45.6476,-20.4629],[-45.6064,-20.4785],[-45.5883,-20.4673],[-45.586,-20.4433],[-45.56631,-20.40517],[-45.81973,-20.33281],[-45.8345,-20.3524],[-45.8346,-20.3583]],[[-45.6788,-20.38444],[-45.67806,-20.38334],[-45.67781,-20.38318],[-45.67739,-20.38291],[-45.67695,-20.38262],[-45.67379,-20.38087],[-45.67083,-20.37947],[-45.67005,-20.37847],[-45.66955,-20.37713],[-45.66918,-20.37745],[-45.66916,-20.37749],[-45.66167,-20.38267],[-45.66123,-20.38282],[-45.66409,-20.38378],[-45.67325,-20.38678],[-45.67483,-20.38894],[-45.6788,-20.38444]]]]}}]}