{"type":"FeatureCollection","features":[{"type":"Feature","properties":{"territory_id":"mg-3146255-centro","name":"Centro","municipality_id":"mg-3146255","polling_places":1,"approx":true,"official":false,"method":"voronoi-polling-places","whole_municipality":false,"approx_coords_only":false},"geometry":{"type":"MultiPolygon","coordinates":[[[[-42.59108,-16.35646],[-42.48108,-16.36652],[-42.4928,-16.308],[-42.50721,-16.27425],[-42.59108,-16.35646]]]]}},{"type":"Feature","properties":{"territory_id":"mg-3146255-zona-rural","name":"Zona Rural","municipality_id":"mg-3146255","polling_places":7,"approx":true,"official":false,"method":"voronoi-polling-places","whole_municipality":false,"approx_coords_only":false},"geometry":{"type":"MultiPolygon","coordinates":[[[[-42.7235,-16.2163],[-42.723,-16.2587],[-42.6952,-16.2843],[-42.6407,-16.2638],[-42.6148,-16.2922],[-42.6555,-16.4021],[-42.6312,-16.4167],[-42.6131,-16.3794],[-42.5855,-16.4129],[-42.5328,-16.4301],[-42.5133,-16.4558],[-42.4774,-16.4393],[-42.47,-16.4219],[-42.48108,-16.36652],[-42.59108,-16.35646],[-42.50721,-16.27425],[-42.5109,-16.2656],[-42.5434,-16.2401],[-42.5443,-16.2101],[-42.6257,-16.1618],[-42.6997,-16.1724],[-42.7235,-16.2163]]]]}}]}