{"type":"FeatureCollection","features":[{"type":"Feature","properties":{"territory_id":"mg-3146206-ana-rosa-ferreira","name":"Ana Rosa Ferreira","municipality_id":"mg-3146206","polling_places":2,"approx":true,"official":false,"method":"voronoi-polling-places","whole_municipality":false,"approx_coords_only":false},"geometry":{"type":"MultiPolygon","coordinates":[[[[-41.31219,-18.10492],[-41.2996,-18.1143],[-41.2625,-18.1099],[-41.2169,-18.077],[-41.2194,-18.0532],[-41.23056,-18.03529],[-41.25334,-18.05518],[-41.31219,-18.10492]]]]}},{"type":"Feature","properties":{"territory_id":"mg-3146206-centro","name":"Centro","municipality_id":"mg-3146206","polling_places":1,"approx":true,"official":false,"method":"voronoi-polling-places","whole_municipality":false,"approx_coords_only":false},"geometry":{"type":"MultiPolygon","coordinates":[[[[-41.3733,-18.1026],[-41.3298,-18.0918],[-41.31219,-18.10492],[-41.25334,-18.05518],[-41.23056,-18.03529],[-41.2535,-17.9985],[-41.2521,-17.9542],[-41.2781,-17.9836],[-41.33,-17.9934],[-41.3439,-18.0243],[-41.3692,-18.0317],[-41.3716,-18.062],[-41.3733,-18.1026]]]]}}]}