{"type":"FeatureCollection","features":[{"type":"Feature","properties":{"territory_id":"mg-3146107-alto-da-cruz","name":"Alto da Cruz","municipality_id":"mg-3146107","polling_places":1,"approx":true,"official":false,"method":"voronoi-polling-places","whole_municipality":false,"approx_coords_only":false},"geometry":{"type":"MultiPolygon","coordinates":[[[[-43.49746,-20.39205],[-43.49696,-20.39441],[-43.49551,-20.39651],[-43.49037,-20.38569],[-43.4957,-20.38223],[-43.49746,-20.39205]]]]}},{"type":"Feature","properties":{"territory_id":"mg-3146107-antonio-dias","name":"Antonio Dias","municipality_id":"mg-3146107","polling_places":1,"approx":true,"official":false,"method":"voronoi-polling-places","whole_municipality":false,"approx_coords_only":false},"geometry":{"type":"MultiPolygon","coordinates":[[[[-43.50186,-20.38818],[-43.49746,-20.39205],[-43.4957,-20.38223],[-43.49638,-20.38113],[-43.50186,-20.38818]]]]}},{"type":"Feature","properties":{"territory_id":"mg-3146107-arrozal-dist-cachoeira-do-campo","name":"Arrozal - Dist. Cachoeira do Campo","municipality_id":"mg-3146107","polling_places":1,"approx":true,"official":false,"method":"voronoi-polling-places","whole_municipality":false,"approx_coords_only":false},"geometry":{"type":"MultiPolygon","coordinates":[[[[-43.67024,-20.41848],[-43.62973,-20.40464],[-43.6219,-20.37092],[-43.64521,-20.35951],[-43.65301,-20.37016],[-43.66988,-20.39657],[-43.67024,-20.41848]]]]}},{"type":"Feature","properties":{"territory_id":"mg-3146107-bandeiras","name":"Bandeiras","municipality_id":"mg-3146107","polling_places":1,"approx":true,"official":false,"method":"voronoi-polling-places","whole_municipality":false,"approx_coords_only":false},"geometry":{"type":"MultiPolygon","coordinates":[[[[-43.59599,-20.53764],[-43.52962,-20.53175],[-43.52669,-20.5087],[-43.5368,-20.50351],[-43.58561,-20.50334],[-43.5801,-20.5084],[-43.59599,-20.53764]]]]}},{"type":"Feature","properties":{"territory_id":"mg-3146107-barra","name":"Barra","municipality_id":"mg-3146107","polling_places":1,"approx":true,"official":false,"method":"voronoi-polling-places","whole_municipality":false,"approx_coords_only":false},"geometry":{"type":"MultiPolygon","coordinates":[[[[-43.50699,-20.39167],[-43.49696,-20.39441],[-43.49746,-20.39205],[-43.50186,-20.38818],[-43.50467,-20.38811],[-43.5051,-20.3883],[-43.50699,-20.39167]]]]}},{"type":"Feature","properties":{"territory_id":"mg-3146107-bauxita","name":"Bauxita","municipality_id":"mg-3146107","polling_places":2,"approx":true,"official":false,"method":"voronoi-polling-places","whole_municipality":false,"approx_coords_only":false},"geometry":{"type":"MultiPolygon","coordinates":[[[[-43.53982,-20.43415],[-43.53604,-20.4362],[-43.50794,-20.44058],[-43.50751,-20.43747],[-43.50218,-20.40274],[-43.50408,-20.40102],[-43.51054,-20.39997],[-43.51334,-20.39879],[-43.53982,-20.43415]]]]}},{"type":"Feature","properties":{"territory_id":"mg-3146107-bocaina-dist-rodrigo-silva","name":"Bocaina - Dist. Rodrigo Silva","municipality_id":"mg-3146107","polling_places":1,"approx":true,"official":false,"method":"voronoi-polling-places","whole_municipality":false,"approx_coords_only":false},"geometry":{"type":"MultiPolygon","coordinates":[[[[-43.62973,-20.40464],[-43.5735,-20.39954],[-43.57453,-20.36728],[-43.6219,-20.37092],[-43.62973,-20.40464]]]]}},{"type":"Feature","properties":{"territory_id":"mg-3146107-cabecas","name":"Cabeças","municipality_id":"mg-3146107","polling_places":2,"approx":true,"official":false,"method":"voronoi-polling-places","whole_municipality":false,"approx_coords_only":false},"geometry":{"type":"MultiPolygon","coordinates":[[[[-43.52411,-20.38871],[-43.51792,-20.38937],[-43.51593,-20.38971],[-43.50918,-20.38111],[-43.50845,-20.37839],[-43.50941,-20.37643],[-43.51412,-20.37806],[-43.52272,-20.37987],[-43.52411,-20.38871]]]]}},{"type":"Feature","properties":{"territory_id":"mg-3146107-caminho-da-fabrica","name":"Caminho da Fabrica","municipality_id":"mg-3146107","polling_places":1,"approx":true,"official":false,"method":"voronoi-polling-places","whole_municipality":false,"approx_coords_only":false},"geometry":{"type":"MultiPolygon","coordinates":[[[[-43.49551,-20.39651],[-43.49547,-20.39663],[-43.4726,-20.40358],[-43.47257,-20.3994],[-43.48892,-20.38591],[-43.49037,-20.38569],[-43.49551,-20.39651]]]]}},{"type":"Feature","properties":{"territory_id":"mg-3146107-canavial","name":"Canavial","municipality_id":"mg-3146107","polling_places":1,"approx":true,"official":false,"method":"voronoi-polling-places","whole_municipality":false,"approx_coords_only":false},"geometry":{"type":"MultiPolygon","coordinates":[[[[-43.53008,-20.56744],[-43.4692,-20.53315],[-43.46898,-20.49593],[-43.52669,-20.5087],[-43.52962,-20.53175],[-43.53008,-20.56744]]]]}},{"type":"Feature","properties":{"territory_id":"mg-3146107-catete-santo-antonio-do-leite","name":"Catete - Santo Antonio do Leite","municipality_id":"mg-3146107","polling_places":1,"approx":true,"official":false,"method":"voronoi-polling-places","whole_municipality":false,"approx_coords_only":false},"geometry":{"type":"MultiPolygon","coordinates":[[[[-43.75321,-20.39327],[-43.70304,-20.45037],[-43.6875,-20.4315],[-43.67704,-20.43227],[-43.67024,-20.41848],[-43.66988,-20.39657],[-43.6708,-20.39516],[-43.7064,-20.3645],[-43.7523,-20.39129],[-43.75321,-20.39327]]]]}},{"type":"Feature","properties":{"territory_id":"mg-3146107-centro","name":"Centro","municipality_id":"mg-3146107","polling_places":2,"approx":true,"official":false,"method":"voronoi-polling-places","whole_municipality":false,"approx_coords_only":false},"geometry":{"type":"MultiPolygon","coordinates":[[[[-43.50918,-20.38111],[-43.5051,-20.3883],[-43.50467,-20.38811],[-43.49972,-20.38069],[-43.50342,-20.37994],[-43.50845,-20.37839],[-43.50918,-20.38111]]]]}},{"type":"Feature","properties":{"territory_id":"mg-3146107-chapada","name":"Chapada","municipality_id":"mg-3146107","polling_places":1,"approx":true,"official":false,"method":"voronoi-polling-places","whole_municipality":false,"approx_coords_only":false},"geometry":{"type":"MultiPolygon","coordinates":[[[[-43.60828,-20.4825],[-43.58561,-20.50334],[-43.5368,-20.50351],[-43.53604,-20.4362],[-43.53982,-20.43415],[-43.5622,-20.42469],[-43.60828,-20.4825]]]]}},{"type":"Feature","properties":{"territory_id":"mg-3146107-coelhos-dist-amarantina","name":"Coelhos - Dist. Amarantina","municipality_id":"mg-3146107","polling_places":1,"approx":true,"official":false,"method":"voronoi-polling-places","whole_municipality":false,"approx_coords_only":false},"geometry":{"type":"MultiPolygon","coordinates":[[[[-43.75895,-20.30173],[-43.75238,-20.30786],[-43.69386,-20.29773],[-43.69961,-20.25634],[-43.7517,-20.2685],[-43.75895,-20.30173]]]]}},{"type":"Feature","properties":{"territory_id":"mg-3146107-distrito-amarantina","name":"Distrito Amarantina","municipality_id":"mg-3146107","polling_places":1,"approx":true,"official":false,"method":"voronoi-polling-places","whole_municipality":false,"approx_coords_only":false},"geometry":{"type":"MultiPolygon","coordinates":[[[[-43.75238,-20.30786],[-43.73991,-20.32975],[-43.70685,-20.33877],[-43.69274,-20.33459],[-43.67445,-20.31462],[-43.69386,-20.29773],[-43.75238,-20.30786]]]]}},{"type":"Feature","properties":{"territory_id":"mg-3146107-distrito-antonio-pereira","name":"Distrito Antonio Pereira","municipality_id":"mg-3146107","polling_places":1,"approx":true,"official":false,"method":"voronoi-polling-places","whole_municipality":false,"approx_coords_only":false},"geometry":{"type":"MultiPolygon","coordinates":[[[[-43.53753,-20.26028],[-43.53258,-20.28809],[-43.52566,-20.32321],[-43.50983,-20.33041],[-43.48284,-20.33756],[-43.46896,-20.33862],[-43.46313,-20.3261],[-43.53445,-20.16787],[-43.53753,-20.26028]]]]}},{"type":"Feature","properties":{"territory_id":"mg-3146107-distrito-cachoeira-do-campo","name":"Distrito Cachoeira do Campo","municipality_id":"mg-3146107","polling_places":4,"approx":true,"official":false,"method":"voronoi-polling-places","whole_municipality":false,"approx_coords_only":false},"geometry":{"type":"MultiPolygon","coordinates":[[[[-43.69961,-20.25634],[-43.69386,-20.29773],[-43.67445,-20.31462],[-43.69274,-20.33459],[-43.68432,-20.3494],[-43.6708,-20.39516],[-43.66988,-20.39657],[-43.65301,-20.37016],[-43.64521,-20.35951],[-43.64476,-20.35687],[-43.64909,-20.33895],[-43.65094,-20.3257],[-43.67163,-20.31423],[-43.65783,-20.28103],[-43.69276,-20.25256],[-43.6986,-20.2561],[-43.69961,-20.25634]]]]}},{"type":"Feature","properties":{"territory_id":"mg-3146107-distrito-engenheiro-correia","name":"Distrito Engenheiro Correia","municipality_id":"mg-3146107","polling_places":1,"approx":true,"official":false,"method":"voronoi-polling-places","whole_municipality":false,"approx_coords_only":false},"geometry":{"type":"MultiPolygon","coordinates":[[[[-43.9302,-20.3824],[-43.9297,-20.38601],[-43.75321,-20.39327],[-43.7523,-20.39129],[-43.73991,-20.32975],[-43.75238,-20.30786],[-43.75895,-20.30173],[-43.7599,-20.3061],[-43.7977,-20.3219],[-43.8029,-20.3518],[-43.8381,-20.386],[-43.9302,-20.3824]]]]}},{"type":"Feature","properties":{"territory_id":"mg-3146107-distrito-glaura","name":"Distrito Glaura","municipality_id":"mg-3146107","polling_places":1,"approx":true,"official":false,"method":"voronoi-polling-places","whole_municipality":false,"approx_coords_only":false},"geometry":{"type":"MultiPolygon","coordinates":[[[[-43.67163,-20.31423],[-43.65094,-20.3257],[-43.61773,-20.31227],[-43.62391,-20.26572],[-43.65783,-20.28103],[-43.67163,-20.31423]]]]}},{"type":"Feature","properties":{"territory_id":"mg-3146107-distrito-lavras-novas","name":"Distrito Lavras Novas","municipality_id":"mg-3146107","polling_places":1,"approx":true,"official":false,"method":"voronoi-polling-places","whole_municipality":false,"approx_coords_only":false},"geometry":{"type":"MultiPolygon","coordinates":[[[[-43.5368,-20.50351],[-43.52669,-20.5087],[-43.46898,-20.49593],[-43.45349,-20.47233],[-43.49219,-20.44666],[-43.50794,-20.44058],[-43.53604,-20.4362],[-43.5368,-20.50351]]]]}},{"type":"Feature","properties":{"territory_id":"mg-3146107-distrito-miguel-burnier","name":"Distrito Miguel Burnier","municipality_id":"mg-3146107","polling_places":1,"approx":true,"official":false,"method":"voronoi-polling-places","whole_municipality":false,"approx_coords_only":false},"geometry":{"type":"MultiPolygon","coordinates":[[[[-43.9297,-20.38601],[-43.9271,-20.4049],[-43.9155,-20.4264],[-43.8875,-20.4197],[-43.7979,-20.4575],[-43.8021,-20.5029],[-43.7663,-20.4996],[-43.748,-20.4605],[-43.7122,-20.4615],[-43.70304,-20.45037],[-43.75321,-20.39327],[-43.9297,-20.38601]]]]}},{"type":"Feature","properties":{"territory_id":"mg-3146107-distrito-rodrigo-silva","name":"Distrito Rodrigo Silva","municipality_id":"mg-3146107","polling_places":1,"approx":true,"official":false,"method":"voronoi-polling-places","whole_municipality":false,"approx_coords_only":false},"geometry":{"type":"MultiPolygon","coordinates":[[[[-43.67704,-20.43227],[-43.6617,-20.4334],[-43.60828,-20.4825],[-43.5622,-20.42469],[-43.56461,-20.41611],[-43.5735,-20.39954],[-43.62973,-20.40464],[-43.67024,-20.41848],[-43.67704,-20.43227]]]]}},{"type":"Feature","properties":{"territory_id":"mg-3146107-distrito-santa-rita-de-ouro-preto","name":"Distrito Santa Rita de Ouro Preto","municipality_id":"mg-3146107","polling_places":2,"approx":true,"official":false,"method":"voronoi-polling-places","whole_municipality":false,"approx_coords_only":false},"geometry":{"type":"MultiPolygon","coordinates":[[[[-43.6013,-20.5841],[-43.5647,-20.6058],[-43.54652,-20.59962],[-43.53008,-20.56744],[-43.52962,-20.53175],[-43.59599,-20.53764],[-43.5976,-20.5406],[-43.6013,-20.5841]]],[[[-43.46267,-20.57582],[-43.43636,-20.61143],[-43.40908,-20.55826],[-43.45874,-20.55644],[-43.46267,-20.57582]]]]}},{"type":"Feature","properties":{"territory_id":"mg-3146107-distrito-santo-antonio-do-leite","name":"Distrito Santo Antonio do Leite","municipality_id":"mg-3146107","polling_places":1,"approx":true,"official":false,"method":"voronoi-polling-places","whole_municipality":false,"approx_coords_only":false},"geometry":{"type":"MultiPolygon","coordinates":[[[[-43.7523,-20.39129],[-43.7064,-20.3645],[-43.70685,-20.33877],[-43.73991,-20.32975],[-43.7523,-20.39129]]]]}},{"type":"Feature","properties":{"territory_id":"mg-3146107-distrito-santo-antonio-do-salto","name":"Distrito Santo Antonio do Salto","municipality_id":"mg-3146107","polling_places":1,"approx":true,"official":false,"method":"voronoi-polling-places","whole_municipality":false,"approx_coords_only":false},"geometry":{"type":"MultiPolygon","coordinates":[[[[-43.50467,-20.38811],[-43.50186,-20.38818],[-43.49638,-20.38113],[-43.49652,-20.38074],[-43.49972,-20.38069],[-43.50467,-20.38811]]]]}},{"type":"Feature","properties":{"territory_id":"mg-3146107-distrito-sao-bartolomeu","name":"Distrito São Bartolomeu","municipality_id":"mg-3146107","polling_places":2,"approx":true,"official":false,"method":"voronoi-polling-places","whole_municipality":false,"approx_coords_only":false},"geometry":{"type":"MultiPolygon","coordinates":[[[[-43.60743,-20.3184],[-43.60237,-20.32695],[-43.59471,-20.34099],[-43.57319,-20.36123],[-43.53626,-20.33378],[-43.52566,-20.32321],[-43.53258,-20.28809],[-43.53753,-20.26028],[-43.60743,-20.3184]]]]}},{"type":"Feature","properties":{"territory_id":"mg-3146107-maciel","name":"Maciel","municipality_id":"mg-3146107","polling_places":1,"approx":true,"official":false,"method":"voronoi-polling-places","whole_municipality":false,"approx_coords_only":false},"geometry":{"type":"MultiPolygon","coordinates":[[[[-43.62391,-20.26572],[-43.61773,-20.31227],[-43.60743,-20.3184],[-43.53753,-20.26028],[-43.53445,-20.16787],[-43.5344,-20.16321],[-43.5477,-20.2073],[-43.5832,-20.2175],[-43.59552,-20.20914],[-43.62391,-20.26572]]]]}},{"type":"Feature","properties":{"territory_id":"mg-3146107-mata-dos-palmitos-dist-santa-rita","name":"Mata dos Palmitos - Dist. Santa Rita","municipality_id":"mg-3146107","polling_places":1,"approx":true,"official":false,"method":"voronoi-polling-places","whole_municipality":false,"approx_coords_only":false},"geometry":{"type":"MultiPolygon","coordinates":[[[[-43.54652,-20.59962],[-43.5335,-20.5952],[-43.51933,-20.60704],[-43.46267,-20.57582],[-43.45874,-20.55644],[-43.4692,-20.53315],[-43.53008,-20.56744],[-43.54652,-20.59962]]]]}},{"type":"Feature","properties":{"territory_id":"mg-3146107-morro-do-cruzeiro","name":"Morro do Cruzeiro","municipality_id":"mg-3146107","polling_places":2,"approx":true,"official":false,"method":"voronoi-polling-places","whole_municipality":false,"approx_coords_only":false},"geometry":{"type":"MultiPolygon","coordinates":[[[[-43.51334,-20.39879],[-43.51054,-20.39997],[-43.50408,-20.40102],[-43.50218,-20.40274],[-43.49547,-20.39663],[-43.49551,-20.39651],[-43.49696,-20.39441],[-43.50699,-20.39167],[-43.50822,-20.39243],[-43.51296,-20.3922],[-43.51334,-20.39879]]]]}},{"type":"Feature","properties":{"territory_id":"mg-3146107-morro-santana","name":"Morro Santana","municipality_id":"mg-3146107","polling_places":2,"approx":true,"official":false,"method":"voronoi-polling-places","whole_municipality":false,"approx_coords_only":false},"geometry":{"type":"MultiPolygon","coordinates":[[[[-43.49652,-20.38074],[-43.49638,-20.38113],[-43.4957,-20.38223],[-43.49037,-20.38569],[-43.48892,-20.38591],[-43.4868,-20.3821],[-43.47245,-20.37421],[-43.4723,-20.3458],[-43.46896,-20.33862],[-43.48284,-20.33756],[-43.49318,-20.3734],[-43.49652,-20.38074]]]]}},{"type":"Feature","properties":{"territory_id":"mg-3146107-morro-sao-sebastiao","name":"Morro Sao Sebastiao","municipality_id":"mg-3146107","polling_places":1,"approx":true,"official":false,"method":"voronoi-polling-places","whole_municipality":false,"approx_coords_only":false},"geometry":{"type":"MultiPolygon","coordinates":[[[[-43.50983,-20.33041],[-43.50941,-20.37643],[-43.50845,-20.37839],[-43.50342,-20.37994],[-43.49972,-20.38069],[-43.49652,-20.38074],[-43.49318,-20.3734],[-43.48284,-20.33756],[-43.50983,-20.33041]]]]}},{"type":"Feature","properties":{"territory_id":"mg-3146107-motta","name":"Motta","municipality_id":"mg-3146107","polling_places":1,"approx":true,"official":false,"method":"voronoi-polling-places","whole_municipality":false,"approx_coords_only":false},"geometry":{"type":"MultiPolygon","coordinates":[[[[-43.70685,-20.33877],[-43.7064,-20.3645],[-43.6708,-20.39516],[-43.68432,-20.3494],[-43.69274,-20.33459],[-43.70685,-20.33877]]]]}},{"type":"Feature","properties":{"territory_id":"mg-3146107-novo-horizonte","name":"Novo Horizonte","municipality_id":"mg-3146107","polling_places":1,"approx":true,"official":false,"method":"voronoi-polling-places","whole_municipality":false,"approx_coords_only":false},"geometry":{"type":"MultiPolygon","coordinates":[[[[-43.50794,-20.44058],[-43.49219,-20.44666],[-43.4959,-20.4442],[-43.4726,-20.4044],[-43.4726,-20.40358],[-43.49547,-20.39663],[-43.50218,-20.40274],[-43.50751,-20.43747],[-43.50794,-20.44058]]]]}},{"type":"Feature","properties":{"territory_id":"mg-3146107-piedade","name":"Piedade","municipality_id":"mg-3146107","polling_places":1,"approx":true,"official":false,"method":"voronoi-polling-places","whole_municipality":false,"approx_coords_only":false},"geometry":{"type":"MultiPolygon","coordinates":[[[[-43.48892,-20.38591],[-43.47257,-20.3994],[-43.47245,-20.37421],[-43.4868,-20.3821],[-43.48892,-20.38591]]]]}},{"type":"Feature","properties":{"territory_id":"mg-3146107-piedade-santa-rita-de-ouro-preto","name":"Piedade - Santa Rita de Ouro Preto","municipality_id":"mg-3146107","polling_places":1,"approx":true,"official":false,"method":"voronoi-polling-places","whole_municipality":false,"approx_coords_only":false},"geometry":{"type":"MultiPolygon","coordinates":[[[[-43.51933,-20.60704],[-43.5006,-20.6227],[-43.4585,-20.6323],[-43.4425,-20.6234],[-43.43636,-20.61143],[-43.46267,-20.57582],[-43.51933,-20.60704]]]]}},{"type":"Feature","properties":{"territory_id":"mg-3146107-pilar","name":"Pilar","municipality_id":"mg-3146107","polling_places":1,"approx":true,"official":false,"method":"voronoi-polling-places","whole_municipality":false,"approx_coords_only":false},"geometry":{"type":"MultiPolygon","coordinates":[[[[-43.51593,-20.38971],[-43.51296,-20.3922],[-43.50822,-20.39243],[-43.50699,-20.39167],[-43.5051,-20.3883],[-43.50918,-20.38111],[-43.51593,-20.38971]]]]}},{"type":"Feature","properties":{"territory_id":"mg-3146107-sao-cristovao","name":"Sao Cristovao","municipality_id":"mg-3146107","polling_places":1,"approx":true,"official":false,"method":"voronoi-polling-places","whole_municipality":false,"approx_coords_only":false},"geometry":{"type":"MultiPolygon","coordinates":[[[[-43.53626,-20.33378],[-43.52272,-20.37987],[-43.51412,-20.37806],[-43.50941,-20.37643],[-43.50983,-20.33041],[-43.52566,-20.32321],[-43.53626,-20.33378]]]]}},{"type":"Feature","properties":{"territory_id":"mg-3146107-saramenha","name":"Saramenha","municipality_id":"mg-3146107","polling_places":2,"approx":true,"official":false,"method":"voronoi-polling-places","whole_municipality":false,"approx_coords_only":false},"geometry":{"type":"MultiPolygon","coordinates":[[[[-43.57453,-20.36728],[-43.5735,-20.39954],[-43.56461,-20.41611],[-43.5622,-20.42469],[-43.53982,-20.43415],[-43.51334,-20.39879],[-43.51296,-20.3922],[-43.51593,-20.38971],[-43.51792,-20.38937],[-43.52411,-20.38871],[-43.52272,-20.37987],[-43.53626,-20.33378],[-43.57319,-20.36123],[-43.57453,-20.36728]]]]}},{"type":"Feature","properties":{"territory_id":"mg-3146107-serra-do-siqueira-dist-cachoeira-do-campo","name":"Serra do Siqueira - Dist. Cachoeira do Campo","municipality_id":"mg-3146107","polling_places":1,"approx":true,"official":false,"method":"voronoi-polling-places","whole_municipality":false,"approx_coords_only":false},"geometry":{"type":"MultiPolygon","coordinates":[[[[-43.64521,-20.35951],[-43.6219,-20.37092],[-43.57453,-20.36728],[-43.57319,-20.36123],[-43.59471,-20.34099],[-43.64476,-20.35687],[-43.64521,-20.35951]]]]}},{"type":"Feature","properties":{"territory_id":"mg-3146107-serra-dos-cardosos-dist-santa-rita","name":"Serra dos Cardosos - Dist. Santa Rita","municipality_id":"mg-3146107","polling_places":1,"approx":true,"official":false,"method":"voronoi-polling-places","whole_municipality":false,"approx_coords_only":false},"geometry":{"type":"MultiPolygon","coordinates":[[[[-43.4692,-20.53315],[-43.45874,-20.55644],[-43.40908,-20.55826],[-43.4033,-20.547],[-43.4302,-20.5196],[-43.4276,-20.4895],[-43.45349,-20.47233],[-43.46898,-20.49593],[-43.4692,-20.53315]]]]}},{"type":"Feature","properties":{"territory_id":"mg-3146107-soares-glaura","name":"Soares Glaura","municipality_id":"mg-3146107","polling_places":1,"approx":true,"official":false,"method":"voronoi-polling-places","whole_municipality":false,"approx_coords_only":false},"geometry":{"type":"MultiPolygon","coordinates":[[[[-43.69276,-20.25256],[-43.65783,-20.28103],[-43.62391,-20.26572],[-43.59552,-20.20914],[-43.6183,-20.1937],[-43.6183,-20.2074],[-43.69276,-20.25256]]]]}},{"type":"Feature","properties":{"territory_id":"mg-3146107-tabuoes-de-baixo","name":"Tabuoes de Baixo","municipality_id":"mg-3146107","polling_places":1,"approx":true,"official":false,"method":"voronoi-polling-places","whole_municipality":false,"approx_coords_only":false},"geometry":{"type":"MultiPolygon","coordinates":[[[[-43.65094,-20.3257],[-43.64909,-20.33895],[-43.64476,-20.35687],[-43.59471,-20.34099],[-43.60237,-20.32695],[-43.60743,-20.3184],[-43.61773,-20.31227],[-43.65094,-20.3257]]]]}},{"type":"Feature","properties":{"territory_id":"mg-3146107-vila-samarco","name":"Vila Samarco","municipality_id":"mg-3146107","polling_places":1,"approx":true,"official":false,"method":"voronoi-polling-places","whole_municipality":false,"approx_coords_only":false},"geometry":{"type":"MultiPolygon","coordinates":[[[[-43.53445,-20.16787],[-43.46313,-20.3261],[-43.4527,-20.3037],[-43.4689,-20.2277],[-43.4999,-20.2154],[-43.4973,-20.173],[-43.5337,-20.1609],[-43.5344,-20.16321],[-43.53445,-20.16787]]]]}}]}