{"type":"FeatureCollection","features":[{"type":"Feature","properties":{"territory_id":"mg-3146701-centro","name":"Centro","municipality_id":"mg-3146701","polling_places":4,"approx":true,"official":false,"method":"voronoi-polling-places","whole_municipality":false,"approx_coords_only":false},"geometry":{"type":"MultiPolygon","coordinates":[[[[-42.4155,-21.3488],[-42.3836,-21.3782],[-42.38319,-21.38073],[-42.31245,-21.42756],[-42.29816,-21.43342],[-42.31536,-21.37691],[-42.31297,-21.37378],[-42.27145,-21.40735],[-42.23,-21.3665],[-42.2356,-21.3429],[-42.2548,-21.35],[-42.3638,-21.3064],[-42.3991,-21.3006],[-42.4155,-21.3488]]]]}},{"type":"Feature","properties":{"territory_id":"mg-3146701-cisneiros","name":"Cisneiros","municipality_id":"mg-3146701","polling_places":1,"approx":true,"official":false,"method":"voronoi-polling-places","whole_municipality":false,"approx_coords_only":false},"geometry":{"type":"MultiPolygon","coordinates":[[[[-42.3918,-21.4455],[-42.37791,-21.46321],[-42.31245,-21.42756],[-42.38319,-21.38073],[-42.3766,-21.4213],[-42.3918,-21.4455]]]]}},{"type":"Feature","properties":{"territory_id":"mg-3146701-itapirucu","name":"Itapiruçu","municipality_id":"mg-3146701","polling_places":1,"approx":true,"official":false,"method":"voronoi-polling-places","whole_municipality":false,"approx_coords_only":false},"geometry":{"type":"MultiPolygon","coordinates":[[[[-42.37791,-21.46321],[-42.3485,-21.5007],[-42.3666,-21.5331],[-42.346,-21.5827],[-42.2856,-21.5281],[-42.2574,-21.4823],[-42.2921,-21.4592],[-42.28228,-21.44055],[-42.29816,-21.43342],[-42.31245,-21.42756],[-42.37791,-21.46321]]]]}},{"type":"Feature","properties":{"territory_id":"mg-3146701-parque-das-palmeiras","name":"Parque das Palmeiras","municipality_id":"mg-3146701","polling_places":1,"approx":true,"official":false,"method":"voronoi-polling-places","whole_municipality":false,"approx_coords_only":false},"geometry":{"type":"MultiPolygon","coordinates":[[[[-42.31536,-21.37691],[-42.29816,-21.43342],[-42.28228,-21.44055],[-42.2754,-21.4275],[-42.2782,-21.414],[-42.27145,-21.40735],[-42.31297,-21.37378],[-42.31536,-21.37691]]]]}}]}