{"type":"FeatureCollection","features":[{"type":"Feature","properties":{"territory_id":"mg-3146305-barra-nova-ii","name":"Barra Nova Ii","municipality_id":"mg-3146305","polling_places":1,"approx":true,"official":false,"method":"voronoi-polling-places","whole_municipality":false,"approx_coords_only":false},"geometry":{"type":"MultiPolygon","coordinates":[[[[-41.54901,-17.02673],[-41.5434,-17.02807],[-41.53225,-17.02626],[-41.44621,-17.00365],[-41.4548,-16.9463],[-41.4874,-16.9244],[-41.5339,-16.949],[-41.53756,-16.94383],[-41.54901,-17.02673]]]]}},{"type":"Feature","properties":{"territory_id":"mg-3146305-bela-vista","name":"Bela Vista","municipality_id":"mg-3146305","polling_places":1,"approx":true,"official":false,"method":"voronoi-polling-places","whole_municipality":false,"approx_coords_only":false},"geometry":{"type":"MultiPolygon","coordinates":[[[[-41.48385,-17.06956],[-41.48326,-17.07312],[-41.48105,-17.07564],[-41.44596,-17.08878],[-41.44391,-17.04642],[-41.48385,-17.06956]]]]}},{"type":"Feature","properties":{"territory_id":"mg-3146305-cabeceira-do-choro","name":"Cabeceira do Choro","municipality_id":"mg-3146305","polling_places":1,"approx":true,"official":false,"method":"voronoi-polling-places","whole_municipality":false,"approx_coords_only":false},"geometry":{"type":"MultiPolygon","coordinates":[[[[-41.6285,-17.09155],[-41.61026,-17.16563],[-41.5975,-17.1576],[-41.6023,-17.1387],[-41.57292,-17.11963],[-41.57914,-17.10171],[-41.6285,-17.09155]]]]}},{"type":"Feature","properties":{"territory_id":"mg-3146305-centro","name":"Centro","municipality_id":"mg-3146305","polling_places":4,"approx":true,"official":false,"method":"voronoi-polling-places","whole_municipality":false,"approx_coords_only":false},"geometry":{"type":"MultiPolygon","coordinates":[[[[-41.53225,-17.02626],[-41.49034,-17.06964],[-41.48759,-17.07017],[-41.48385,-17.06956],[-41.44391,-17.04642],[-41.44187,-17.03261],[-41.44621,-17.00365],[-41.53225,-17.02626]]],[[[-41.48923,-17.0799],[-41.48736,-17.08225],[-41.4858,-17.0811],[-41.44598,-17.11592],[-41.44596,-17.08878],[-41.48105,-17.07564],[-41.48326,-17.07312],[-41.48448,-17.07552],[-41.48617,-17.07479],[-41.48715,-17.07627],[-41.48923,-17.0799]]]]}},{"type":"Feature","properties":{"territory_id":"mg-3146305-corrego-do-bengo","name":"Corrego do Bengo","municipality_id":"mg-3146305","polling_places":1,"approx":true,"official":false,"method":"voronoi-polling-places","whole_municipality":false,"approx_coords_only":false},"geometry":{"type":"MultiPolygon","coordinates":[[[[-41.44598,-17.11592],[-41.4348,-17.1257],[-41.4164,-17.1275],[-41.3847,-17.0498],[-41.3999,-17.0319],[-41.4416,-17.0344],[-41.44187,-17.03261],[-41.44391,-17.04642],[-41.44596,-17.08878],[-41.44598,-17.11592]]]]}},{"type":"Feature","properties":{"territory_id":"mg-3146305-corrego-gameleira","name":"Corrego Gameleira","municipality_id":"mg-3146305","polling_places":1,"approx":true,"official":false,"method":"voronoi-polling-places","whole_municipality":false,"approx_coords_only":false},"geometry":{"type":"MultiPolygon","coordinates":[[[[-41.67427,-16.98981],[-41.55114,-17.02718],[-41.54901,-17.02673],[-41.53756,-16.94383],[-41.5557,-16.9182],[-41.5965,-16.9195],[-41.6274,-16.9449],[-41.674,-16.9871],[-41.67427,-16.98981]]]]}},{"type":"Feature","properties":{"territory_id":"mg-3146305-cruzeta","name":"Cruzeta","municipality_id":"mg-3146305","polling_places":1,"approx":true,"official":false,"method":"voronoi-polling-places","whole_municipality":false,"approx_coords_only":false},"geometry":{"type":"MultiPolygon","coordinates":[[[[-41.48787,-17.07503],[-41.48715,-17.07627],[-41.48617,-17.07479],[-41.48674,-17.07308],[-41.48787,-17.07503]]]]}},{"type":"Feature","properties":{"territory_id":"mg-3146305-duas-barras","name":"Duas Barras","municipality_id":"mg-3146305","polling_places":1,"approx":true,"official":false,"method":"voronoi-polling-places","whole_municipality":false,"approx_coords_only":false},"geometry":{"type":"MultiPolygon","coordinates":[[[[-41.49134,-17.07503],[-41.48787,-17.07503],[-41.48674,-17.07308],[-41.48759,-17.07017],[-41.49034,-17.06964],[-41.49134,-17.07503]]]]}},{"type":"Feature","properties":{"territory_id":"mg-3146305-lajinha","name":"Lajinha","municipality_id":"mg-3146305","polling_places":1,"approx":true,"official":false,"method":"voronoi-polling-places","whole_municipality":false,"approx_coords_only":false},"geometry":{"type":"MultiPolygon","coordinates":[[[[-41.57914,-17.10171],[-41.57292,-17.11963],[-41.5533,-17.1069],[-41.5246,-17.1099],[-41.51393,-17.10198],[-41.51936,-17.0811],[-41.5434,-17.02807],[-41.54901,-17.02673],[-41.55114,-17.02718],[-41.57914,-17.10171]]]]}},{"type":"Feature","properties":{"territory_id":"mg-3146305-padre-paraiso","name":"Padre Paraiso","municipality_id":"mg-3146305","polling_places":1,"approx":true,"official":false,"method":"voronoi-polling-places","whole_municipality":false,"approx_coords_only":false},"geometry":{"type":"MultiPolygon","coordinates":[[[[-41.6787,-17.0347],[-41.6536,-17.0716],[-41.65624,-17.07773],[-41.6285,-17.09155],[-41.57914,-17.10171],[-41.55114,-17.02718],[-41.67427,-16.98981],[-41.6787,-17.0347]]]]}},{"type":"Feature","properties":{"territory_id":"mg-3146305-pantanal","name":"Pantanal","municipality_id":"mg-3146305","polling_places":1,"approx":true,"official":false,"method":"voronoi-polling-places","whole_municipality":false,"approx_coords_only":false},"geometry":{"type":"MultiPolygon","coordinates":[[[[-41.51936,-17.0811],[-41.51393,-17.10198],[-41.48736,-17.08225],[-41.48923,-17.0799],[-41.49194,-17.07785],[-41.51936,-17.0811]]]]}},{"type":"Feature","properties":{"territory_id":"mg-3146305-sao-joanico","name":"Sao Joanico","municipality_id":"mg-3146305","polling_places":1,"approx":true,"official":false,"method":"voronoi-polling-places","whole_municipality":false,"approx_coords_only":false},"geometry":{"type":"MultiPolygon","coordinates":[[[[-41.6689,-17.1072],[-41.6556,-17.1219],[-41.6498,-17.1905],[-41.61026,-17.16563],[-41.6285,-17.09155],[-41.65624,-17.07773],[-41.6689,-17.1072]]]]}},{"type":"Feature","properties":{"territory_id":"mg-3146305-vila-dos-posseiros","name":"Vila dos Posseiros","municipality_id":"mg-3146305","polling_places":1,"approx":true,"official":false,"method":"voronoi-polling-places","whole_municipality":false,"approx_coords_only":false},"geometry":{"type":"MultiPolygon","coordinates":[[[[-41.48759,-17.07017],[-41.48674,-17.07308],[-41.48617,-17.07479],[-41.48448,-17.07552],[-41.48326,-17.07312],[-41.48385,-17.06956],[-41.48759,-17.07017]]]]}},{"type":"Feature","properties":{"territory_id":"mg-3146305-vila-vieira","name":"Vila Vieira","municipality_id":"mg-3146305","polling_places":1,"approx":true,"official":false,"method":"voronoi-polling-places","whole_municipality":false,"approx_coords_only":false},"geometry":{"type":"MultiPolygon","coordinates":[[[[-41.5434,-17.02807],[-41.51936,-17.0811],[-41.49194,-17.07785],[-41.49134,-17.07503],[-41.49034,-17.06964],[-41.53225,-17.02626],[-41.5434,-17.02807]]]]}},{"type":"Feature","properties":{"territory_id":"mg-3146305-z-rural","name":"Z Rural","municipality_id":"mg-3146305","polling_places":1,"approx":true,"official":false,"method":"voronoi-polling-places","whole_municipality":false,"approx_coords_only":false},"geometry":{"type":"MultiPolygon","coordinates":[[[[-41.49194,-17.07785],[-41.48923,-17.0799],[-41.48715,-17.07627],[-41.48787,-17.07503],[-41.49134,-17.07503],[-41.49194,-17.07785]]]]}}]}