{"type":"FeatureCollection","features":[{"type":"Feature","properties":{"territory_id":"mg-3146008-bela-vista","name":"Bela Vista","municipality_id":"mg-3146008","polling_places":1,"approx":true,"official":false,"method":"voronoi-polling-places","whole_municipality":false,"approx_coords_only":false},"geometry":{"type":"MultiPolygon","coordinates":[[[[-46.49535,-22.34188],[-46.4429,-22.3466],[-46.43435,-22.36946],[-46.37549,-22.33758],[-46.37814,-22.28336],[-46.38675,-22.26458],[-46.38927,-22.2628],[-46.49535,-22.34188]]]]}},{"type":"Feature","properties":{"territory_id":"mg-3146008-centro","name":"Centro","municipality_id":"mg-3146008","polling_places":3,"approx":true,"official":false,"method":"voronoi-polling-places","whole_municipality":false,"approx_coords_only":false},"geometry":{"type":"MultiPolygon","coordinates":[[[[-46.38675,-22.26458],[-46.37814,-22.28336],[-46.3736,-22.28484],[-46.35047,-22.32603],[-46.33816,-22.32086],[-46.3389,-22.308],[-46.2998,-22.2831],[-46.29739,-22.28251],[-46.3848,-22.26547],[-46.38675,-22.26458]]]]}},{"type":"Feature","properties":{"territory_id":"mg-3146008-crisolia","name":"Crisólia","municipality_id":"mg-3146008","polling_places":1,"approx":true,"official":false,"method":"voronoi-polling-places","whole_municipality":false,"approx_coords_only":false},"geometry":{"type":"MultiPolygon","coordinates":[[[[-46.5293,-22.2999],[-46.5062,-22.3409],[-46.49535,-22.34188],[-46.38927,-22.2628],[-46.35666,-22.1575],[-46.3847,-22.1658],[-46.4302,-22.1484],[-46.4895,-22.1839],[-46.5055,-22.2081],[-46.4843,-22.2612],[-46.5259,-22.2763],[-46.5293,-22.2999]]]]}},{"type":"Feature","properties":{"territory_id":"mg-3146008-jardim-centenario","name":"Jardim Centenário","municipality_id":"mg-3146008","polling_places":1,"approx":true,"official":false,"method":"voronoi-polling-places","whole_municipality":false,"approx_coords_only":false},"geometry":{"type":"MultiPolygon","coordinates":[[[[-46.38927,-22.2628],[-46.38675,-22.26458],[-46.3848,-22.26547],[-46.29739,-22.28251],[-46.2353,-22.2673],[-46.2296,-22.2434],[-46.2628,-22.224],[-46.2375,-22.181],[-46.252,-22.1454],[-46.2551,-22.1459],[-46.2789,-22.1345],[-46.35666,-22.1575],[-46.38927,-22.2628]]]]}},{"type":"Feature","properties":{"territory_id":"mg-3146008-jardim-dos-ipes","name":"Jardim dos Ipês","municipality_id":"mg-3146008","polling_places":1,"approx":true,"official":false,"method":"voronoi-polling-places","whole_municipality":false,"approx_coords_only":false},"geometry":{"type":"MultiPolygon","coordinates":[[[[-46.37814,-22.28336],[-46.37549,-22.33758],[-46.35047,-22.32603],[-46.3736,-22.28484],[-46.37814,-22.28336]]]]}},{"type":"Feature","properties":{"territory_id":"mg-3146008-pinhalzinho-dos-goes","name":"Pinhalzinho dos Goes","municipality_id":"mg-3146008","polling_places":1,"approx":true,"official":false,"method":"voronoi-polling-places","whole_municipality":false,"approx_coords_only":false},"geometry":{"type":"MultiPolygon","coordinates":[[[[-46.43435,-22.36946],[-46.4232,-22.3993],[-46.3343,-22.3876],[-46.33816,-22.32086],[-46.35047,-22.32603],[-46.37549,-22.33758],[-46.43435,-22.36946]]]]}}]}