{"type":"FeatureCollection","features":[{"type":"Feature","properties":{"territory_id":"mg-3146750-centro","name":"Centro","municipality_id":"mg-3146750","polling_places":3,"approx":true,"official":false,"method":"voronoi-polling-places","whole_municipality":true,"approx_coords_only":false},"geometry":{"type":"MultiPolygon","coordinates":[[[[-40.4626,-16.687],[-40.4359,-16.7375],[-40.459,-16.775],[-40.4837,-16.7848],[-40.4664,-16.8371],[-40.4336,-16.8874],[-40.4077,-16.8987],[-40.4013,-16.8902],[-40.3649,-16.8746],[-40.3315,-16.908],[-40.2816,-16.9012],[-40.2508,-16.8312],[-40.2691,-16.7958],[-40.3236,-16.8013],[-40.3329,-16.7695],[-40.3098,-16.7333],[-40.307,-16.6968],[-40.3132,-16.6786],[-40.3286,-16.6514],[-40.356,-16.6526],[-40.3885,-16.6796],[-40.4048,-16.6664],[-40.4626,-16.687]]]]}}]}