{"type":"FeatureCollection","features":[{"type":"Feature","properties":{"territory_id":"mg-3146909-centro","name":"Centro","municipality_id":"mg-3146909","polling_places":2,"approx":true,"official":false,"method":"voronoi-polling-places","whole_municipality":false,"approx_coords_only":false},"geometry":{"type":"MultiPolygon","coordinates":[[[[-44.81627,-19.43119],[-44.75462,-19.5009],[-44.7383,-19.4997],[-44.7134,-19.471],[-44.70911,-19.44062],[-44.75103,-19.44626],[-44.78203,-19.43415],[-44.81508,-19.42791],[-44.81627,-19.43119]]],[[[-44.64206,-19.43515],[-44.6381,-19.4396],[-44.62834,-19.43463],[-44.64206,-19.43515]]],[[[-44.59119,-19.43323],[-44.5722,-19.4407],[-44.5563,-19.43192],[-44.59119,-19.43323]]]]}},{"type":"Feature","properties":{"territory_id":"mg-3146909-nossa-senhora-aparecida","name":"Nossa Senhora Aparecida","municipality_id":"mg-3146909","polling_places":1,"approx":true,"official":false,"method":"voronoi-polling-places","whole_municipality":false,"approx_coords_only":false},"geometry":{"type":"MultiPolygon","coordinates":[[[[-44.81508,-19.42791],[-44.78203,-19.43415],[-44.70844,-19.43585],[-44.7075,-19.4292],[-44.66,-19.415],[-44.64206,-19.43515],[-44.62834,-19.43463],[-44.6106,-19.4256],[-44.59119,-19.43323],[-44.5563,-19.43192],[-44.5541,-19.4307],[-44.5501,-19.4264],[-44.5285,-19.3683],[-44.5656,-19.343],[-44.6271,-19.2427],[-44.6517,-19.2267],[-44.6942,-19.2061],[-44.7517,-19.3548],[-44.7964,-19.3768],[-44.81508,-19.42791]]]]}},{"type":"Feature","properties":{"territory_id":"mg-3146909-nossa-senhora-de-lourdes","name":"Nossa Senhora de Lourdes","municipality_id":"mg-3146909","polling_places":1,"approx":true,"official":false,"method":"voronoi-polling-places","whole_municipality":false,"approx_coords_only":false},"geometry":{"type":"MultiPolygon","coordinates":[[[[-44.78203,-19.43415],[-44.75103,-19.44626],[-44.70911,-19.44062],[-44.70844,-19.43585],[-44.78203,-19.43415]]]]}},{"type":"Feature","properties":{"territory_id":"mg-3146909-povoado-da-vargem-grande","name":"Povoado da Vargem Grande","municipality_id":"mg-3146909","polling_places":1,"approx":true,"official":false,"method":"voronoi-polling-places","whole_municipality":false,"approx_coords_only":false},"geometry":{"type":"MultiPolygon","coordinates":[[[[-44.8768,-19.4778],[-44.8361,-19.489],[-44.811,-19.535],[-44.7755,-19.5406],[-44.7792,-19.5027],[-44.75462,-19.5009],[-44.81627,-19.43119],[-44.8173,-19.434],[-44.8768,-19.4778]]]]}}]}