{"type":"FeatureCollection","features":[{"type":"Feature","properties":{"territory_id":"mg-3146602-centro","name":"Centro","municipality_id":"mg-3146602","polling_places":2,"approx":true,"official":false,"method":"voronoi-polling-places","whole_municipality":true,"approx_coords_only":false},"geometry":{"type":"MultiPolygon","coordinates":[[[[-43.3717,-21.2847],[-43.3927,-21.2558],[-43.4412,-21.2507],[-43.4767,-21.2806],[-43.4663,-21.3092],[-43.4377,-21.3084],[-43.4239,-21.3367],[-43.3717,-21.2847]]]]}}]}