{"type":"FeatureCollection","features":[{"type":"Feature","properties":{"territory_id":"mg-3147709-cachoeira-dos-forros","name":"Cachoeira dos Forros","municipality_id":"mg-3147709","polling_places":1,"approx":true,"official":false,"method":"voronoi-polling-places","whole_municipality":false,"approx_coords_only":false},"geometry":{"type":"MultiPolygon","coordinates":[[[[-44.55913,-20.53189],[-44.50878,-20.58612],[-44.47557,-20.57968],[-44.5057,-20.5448],[-44.544,-20.5156],[-44.55913,-20.53189]]]]}},{"type":"Feature","properties":{"territory_id":"mg-3147709-calafate","name":"Calafate","municipality_id":"mg-3147709","polling_places":2,"approx":true,"official":false,"method":"voronoi-polling-places","whole_municipality":false,"approx_coords_only":false},"geometry":{"type":"MultiPolygon","coordinates":[[[[-44.5735,-20.63692],[-44.54418,-20.65669],[-44.53133,-20.66577],[-44.51177,-20.65531],[-44.50345,-20.64979],[-44.49334,-20.64155],[-44.49001,-20.63673],[-44.44478,-20.58045],[-44.4689,-20.5874],[-44.47557,-20.57968],[-44.50878,-20.58612],[-44.5735,-20.63692]]]]}},{"type":"Feature","properties":{"territory_id":"mg-3147709-centro","name":"Centro","municipality_id":"mg-3147709","polling_places":6,"approx":true,"official":false,"method":"voronoi-polling-places","whole_municipality":false,"approx_coords_only":false},"geometry":{"type":"MultiPolygon","coordinates":[[[[-44.53133,-20.66577],[-44.4318,-20.76884],[-44.4294,-20.7662],[-44.4213,-20.7125],[-44.3942,-20.6909],[-44.4029,-20.6674],[-44.3606,-20.6373],[-44.3572,-20.6081],[-44.3949,-20.5985],[-44.4068,-20.5695],[-44.44478,-20.58045],[-44.49001,-20.63673],[-44.49334,-20.64155],[-44.50345,-20.64979],[-44.51177,-20.65531],[-44.53133,-20.66577]]]]}},{"type":"Feature","properties":{"territory_id":"mg-3147709-vau","name":"Vau","municipality_id":"mg-3147709","polling_places":1,"approx":true,"official":false,"method":"voronoi-polling-places","whole_municipality":false,"approx_coords_only":false},"geometry":{"type":"MultiPolygon","coordinates":[[[[-44.5906,-20.63902],[-44.5894,-20.6454],[-44.57,-20.728],[-44.5486,-20.7445],[-44.5057,-20.7452],[-44.4477,-20.7863],[-44.4318,-20.76884],[-44.53133,-20.66577],[-44.54418,-20.65669],[-44.5735,-20.63692],[-44.5906,-20.63902]]]]}},{"type":"Feature","properties":{"territory_id":"mg-3147709-zona-rural","name":"Zona Rural","municipality_id":"mg-3147709","polling_places":1,"approx":true,"official":false,"method":"voronoi-polling-places","whole_municipality":false,"approx_coords_only":false},"geometry":{"type":"MultiPolygon","coordinates":[[[[-44.5995,-20.5918],[-44.5906,-20.63902],[-44.5735,-20.63692],[-44.50878,-20.58612],[-44.55913,-20.53189],[-44.5728,-20.5466],[-44.5691,-20.5678],[-44.5995,-20.5918]]]]}}]}