{"type":"FeatureCollection","features":[{"type":"Feature","properties":{"territory_id":"mg-3147006-alto-do-acude","name":"Alto do Açude","municipality_id":"mg-3147006","polling_places":1,"approx":true,"official":false,"method":"voronoi-polling-places","whole_municipality":false,"approx_coords_only":false},"geometry":{"type":"MultiPolygon","coordinates":[[[[-46.86605,-17.2111],[-46.86466,-17.21383],[-46.85094,-17.21976],[-46.84138,-17.2217],[-46.85891,-17.18473],[-46.86605,-17.2111]]]]}},{"type":"Feature","properties":{"territory_id":"mg-3147006-alto-do-corrego","name":"Alto do Córrego","municipality_id":"mg-3147006","polling_places":1,"approx":true,"official":false,"method":"voronoi-polling-places","whole_municipality":false,"approx_coords_only":false},"geometry":{"type":"MultiPolygon","coordinates":[[[[-46.87091,-17.22772],[-46.87039,-17.23127],[-46.86708,-17.22811],[-46.86599,-17.22621],[-46.86723,-17.22037],[-46.86997,-17.22165],[-46.87091,-17.22772]]]]}},{"type":"Feature","properties":{"territory_id":"mg-3147006-amoreiras-ii","name":"Amoreiras Ii","municipality_id":"mg-3147006","polling_places":1,"approx":true,"official":false,"method":"voronoi-polling-places","whole_municipality":false,"approx_coords_only":false},"geometry":{"type":"MultiPolygon","coordinates":[[[[-47.12946,-16.93747],[-46.87404,-17.21149],[-46.87008,-17.21226],[-46.86605,-17.2111],[-46.85891,-17.18473],[-46.86518,-17.11487],[-47.12946,-16.93747]]]]}},{"type":"Feature","properties":{"territory_id":"mg-3147006-arraial-d-angola","name":"Arraial D'angola","municipality_id":"mg-3147006","polling_places":1,"approx":true,"official":false,"method":"voronoi-polling-places","whole_municipality":false,"approx_coords_only":false},"geometry":{"type":"MultiPolygon","coordinates":[[[[-46.88248,-17.22299],[-46.88141,-17.22891],[-46.87393,-17.2302],[-46.87641,-17.22182],[-46.87713,-17.22121],[-46.88248,-17.22299]]]]}},{"type":"Feature","properties":{"territory_id":"mg-3147006-bela-vista","name":"Bela Vista","municipality_id":"mg-3147006","polling_places":1,"approx":true,"official":false,"method":"voronoi-polling-places","whole_municipality":false,"approx_coords_only":false},"geometry":{"type":"MultiPolygon","coordinates":[[[[-47.18013,-16.90292],[-47.17195,-16.91887],[-46.88087,-17.21374],[-46.87949,-17.21394],[-46.87404,-17.21149],[-47.12946,-16.93747],[-47.18013,-16.90292]]]]}},{"type":"Feature","properties":{"territory_id":"mg-3147006-centro","name":"Centro","municipality_id":"mg-3147006","polling_places":6,"approx":true,"official":false,"method":"voronoi-polling-places","whole_municipality":false,"approx_coords_only":false},"geometry":{"type":"MultiPolygon","coordinates":[[[[-46.88361,-17.22219],[-46.88248,-17.22299],[-46.87713,-17.22121],[-46.87641,-17.22182],[-46.87393,-17.2302],[-46.87115,-17.23158],[-46.87048,-17.23145],[-46.87039,-17.23127],[-46.87091,-17.22772],[-46.86997,-17.22165],[-46.86723,-17.22037],[-46.8652,-17.21677],[-46.86466,-17.21383],[-46.86605,-17.2111],[-46.87008,-17.21226],[-46.87404,-17.21149],[-46.87949,-17.21394],[-46.88087,-17.21374],[-46.88361,-17.22219]]]]}},{"type":"Feature","properties":{"territory_id":"mg-3147006-chapadinha","name":"Chapadinha","municipality_id":"mg-3147006","polling_places":1,"approx":true,"official":false,"method":"voronoi-polling-places","whole_municipality":false,"approx_coords_only":false},"geometry":{"type":"MultiPolygon","coordinates":[[[[-46.87554,-17.23973],[-46.84388,-17.60874],[-46.797,-17.5927],[-46.7793,-17.6114],[-46.736,-17.6183],[-46.6739,-17.5713],[-46.6647,-17.5379],[-46.6101,-17.5117],[-46.5852,-17.5151],[-46.57497,-17.50734],[-46.87048,-17.23145],[-46.87115,-17.23158],[-46.87427,-17.23553],[-46.87554,-17.23973]]]]}},{"type":"Feature","properties":{"territory_id":"mg-3147006-jardim-primavera","name":"Jardim Primavera","municipality_id":"mg-3147006","polling_places":1,"approx":true,"official":false,"method":"voronoi-polling-places","whole_municipality":false,"approx_coords_only":false},"geometry":{"type":"MultiPolygon","coordinates":[[[[-46.86708,-17.22811],[-46.8584,-17.22961],[-46.862,-17.22485],[-46.86599,-17.22621],[-46.86708,-17.22811]]]]}},{"type":"Feature","properties":{"territory_id":"mg-3147006-jk","name":"Jk","municipality_id":"mg-3147006","polling_places":2,"approx":true,"official":false,"method":"voronoi-polling-places","whole_municipality":false,"approx_coords_only":false},"geometry":{"type":"MultiPolygon","coordinates":[[[[-46.86723,-17.22037],[-46.86599,-17.22621],[-46.862,-17.22485],[-46.86158,-17.22368],[-46.85094,-17.21976],[-46.86466,-17.21383],[-46.8652,-17.21677],[-46.86723,-17.22037]]]]}},{"type":"Feature","properties":{"territory_id":"mg-3147006-lagoa-de-santo-antonio","name":"Lagoa de Santo Antônio","municipality_id":"mg-3147006","polling_places":1,"approx":true,"official":false,"method":"voronoi-polling-places","whole_municipality":false,"approx_coords_only":false},"geometry":{"type":"MultiPolygon","coordinates":[[[[-47.28633,-17.12707],[-46.88361,-17.22219],[-46.88087,-17.21374],[-47.17195,-16.91887],[-47.1545,-16.9529],[-47.1295,-16.9752],[-47.1466,-17.0323],[-47.1781,-17.0408],[-47.1981,-17.0723],[-47.2252,-17.0775],[-47.2775,-17.111],[-47.28633,-17.12707]]]]}},{"type":"Feature","properties":{"territory_id":"mg-3147006-lavrado","name":"Lavrado","municipality_id":"mg-3147006","polling_places":1,"approx":true,"official":false,"method":"voronoi-polling-places","whole_municipality":false,"approx_coords_only":false},"geometry":{"type":"MultiPolygon","coordinates":[[[[-47.35357,-17.18637],[-46.88349,-17.23191],[-46.88141,-17.22891],[-46.88248,-17.22299],[-46.88361,-17.22219],[-47.28633,-17.12707],[-47.2931,-17.1394],[-47.3485,-17.1762],[-47.35357,-17.18637]]]]}},{"type":"Feature","properties":{"territory_id":"mg-3147006-nossa-senhora-de-fatima","name":"Nossa Senhora de Fátima","municipality_id":"mg-3147006","polling_places":1,"approx":true,"official":false,"method":"voronoi-polling-places","whole_municipality":false,"approx_coords_only":false},"geometry":{"type":"MultiPolygon","coordinates":[[[[-46.862,-17.22485],[-46.8584,-17.22961],[-46.70489,-17.34856],[-46.84138,-17.2217],[-46.85094,-17.21976],[-46.86158,-17.22368],[-46.862,-17.22485]]]]}},{"type":"Feature","properties":{"territory_id":"mg-3147006-paracatuzinho","name":"Paracatuzinho","municipality_id":"mg-3147006","polling_places":4,"approx":true,"official":false,"method":"voronoi-polling-places","whole_municipality":false,"approx_coords_only":false},"geometry":{"type":"MultiPolygon","coordinates":[[[[-47.05883,-17.57951],[-47.056,-17.5817],[-47.005,-17.5675],[-47.0018,-17.5403],[-46.9446,-17.4738],[-46.9042,-17.464],[-46.8676,-17.5017],[-46.9015,-17.5379],[-46.8791,-17.5968],[-46.8581,-17.6136],[-46.84388,-17.60874],[-46.87554,-17.23973],[-46.87427,-17.23553],[-46.87115,-17.23158],[-46.87393,-17.2302],[-46.88141,-17.22891],[-46.88349,-17.23191],[-46.88288,-17.23459],[-46.8831,-17.23643],[-47.05883,-17.57951]]]]}},{"type":"Feature","properties":{"territory_id":"mg-3147006-sao-sebastiao","name":"São Sebastião","municipality_id":"mg-3147006","polling_places":1,"approx":true,"official":false,"method":"voronoi-polling-places","whole_municipality":false,"approx_coords_only":false},"geometry":{"type":"MultiPolygon","coordinates":[[[[-46.86518,-17.11487],[-46.85891,-17.18473],[-46.84138,-17.2217],[-46.70489,-17.34856],[-46.5506,-17.48731],[-46.5423,-17.4186],[-46.494,-17.3998],[-46.4786,-17.3382],[-46.4886,-17.2918],[-46.48697,-17.29103],[-46.49663,-17.27029],[-46.86518,-17.11487]]]]}},{"type":"Feature","properties":{"territory_id":"mg-3147006-vila-mariana","name":"Vila Mariana","municipality_id":"mg-3147006","polling_places":1,"approx":true,"official":false,"method":"voronoi-polling-places","whole_municipality":false,"approx_coords_only":false},"geometry":{"type":"MultiPolygon","coordinates":[[[[-46.87048,-17.23145],[-46.57497,-17.50734],[-46.5508,-17.489],[-46.5506,-17.48731],[-46.70489,-17.34856],[-46.8584,-17.22961],[-46.86708,-17.22811],[-46.87039,-17.23127],[-46.87048,-17.23145]]]]}},{"type":"Feature","properties":{"territory_id":"mg-3147006-vila-sao-joao-evangelista-bom-pastor","name":"Vila São João Evangelista (bom Pastor)","municipality_id":"mg-3147006","polling_places":1,"approx":true,"official":false,"method":"voronoi-polling-places","whole_municipality":false,"approx_coords_only":false},"geometry":{"type":"MultiPolygon","coordinates":[[[[-47.5366,-17.4571],[-47.5133,-17.4632],[-47.5089,-17.5012],[-47.4669,-17.534],[-47.4004,-17.5118],[-47.3747,-17.5235],[-47.3254,-17.5238],[-47.3131,-17.5434],[-47.2861,-17.4868],[-47.2631,-17.4783],[-47.2382,-17.5112],[-47.2102,-17.4918],[-47.151,-17.4977],[-47.13,-17.5493],[-47.1063,-17.5428],[-47.05883,-17.57951],[-46.8831,-17.23643],[-46.88288,-17.23459],[-46.88349,-17.23191],[-47.35357,-17.18637],[-47.3842,-17.2478],[-47.4111,-17.2492],[-47.4379,-17.3179],[-47.4868,-17.3495],[-47.5108,-17.3261],[-47.5246,-17.4119],[-47.5366,-17.4571]]]]}},{"type":"Feature","properties":{"territory_id":"mg-3147006-zona-rural","name":"Zona Rural","municipality_id":"mg-3147006","polling_places":2,"approx":true,"official":false,"method":"voronoi-polling-places","whole_municipality":false,"approx_coords_only":false},"geometry":{"type":"MultiPolygon","coordinates":[[[[-47.2365,-16.7553],[-47.2197,-16.7781],[-47.2064,-16.8384],[-47.2084,-16.8747],[-47.1807,-16.9018],[-47.18013,-16.90292],[-47.12946,-16.93747],[-46.86518,-17.11487],[-46.49663,-17.27029],[-46.48697,-17.29103],[-46.4201,-17.2594],[-46.3595,-17.2134],[-46.3368,-17.1856],[-46.3077,-17.2126],[-46.2862,-17.2039],[-46.277,-17.1459],[-46.2933,-17.1233],[-46.2718,-17.0991],[-46.279,-17.0751],[-46.2039,-17.0113],[-46.2373,-16.9836],[-46.2787,-16.9577],[-46.344,-16.9503],[-46.3652,-16.925],[-46.4211,-16.8925],[-46.4395,-16.9023],[-46.5221,-16.8833],[-46.562,-16.8817],[-46.6236,-16.8344],[-46.6543,-16.7939],[-46.6789,-16.7955],[-46.7413,-16.8638],[-46.7628,-16.8586],[-46.853,-16.9032],[-46.8688,-16.875],[-46.9194,-16.8438],[-46.9152,-16.8043],[-46.9411,-16.7721],[-46.9348,-16.698],[-46.9528,-16.6656],[-46.9793,-16.6636],[-46.9998,-16.6031],[-47.0239,-16.5972],[-47.0606,-16.6151],[-47.0823,-16.6415],[-47.1287,-16.6625],[-47.21,-16.7357],[-47.2257,-16.7205],[-47.2365,-16.7553]]]]}}]}