{"type":"FeatureCollection","features":[{"type":"Feature","properties":{"territory_id":"mg-3147204-biquinha","name":"Biquinha","municipality_id":"mg-3147204","polling_places":1,"approx":true,"official":false,"method":"voronoi-polling-places","whole_municipality":false,"approx_coords_only":false},"geometry":{"type":"MultiPolygon","coordinates":[[[[-45.80625,-21.61735],[-45.73652,-21.60809],[-45.73767,-21.55276],[-45.7411,-21.54509],[-45.80625,-21.61735]]]]}},{"type":"Feature","properties":{"territory_id":"mg-3147204-centro","name":"Centro","municipality_id":"mg-3147204","polling_places":3,"approx":true,"official":false,"method":"voronoi-polling-places","whole_municipality":false,"approx_coords_only":false},"geometry":{"type":"MultiPolygon","coordinates":[[[[-45.7411,-21.54509],[-45.73767,-21.55276],[-45.73652,-21.60809],[-45.70642,-21.60517],[-45.73496,-21.55071],[-45.73501,-21.54607],[-45.664,-21.58776],[-45.664,-21.4593],[-45.6953,-21.4369],[-45.73411,-21.42901],[-45.73902,-21.54137],[-45.7411,-21.54509]]]]}},{"type":"Feature","properties":{"territory_id":"mg-3147204-guaipava","name":"Guaipava","municipality_id":"mg-3147204","polling_places":1,"approx":true,"official":false,"method":"voronoi-polling-places","whole_municipality":false,"approx_coords_only":false},"geometry":{"type":"MultiPolygon","coordinates":[[[[-45.82621,-21.62131],[-45.8229,-21.6256],[-45.817,-21.6704],[-45.7839,-21.6824],[-45.7804,-21.7048],[-45.729,-21.7074],[-45.7051,-21.678],[-45.6793,-21.6456],[-45.6919,-21.6273],[-45.67049,-21.60251],[-45.70642,-21.60517],[-45.73652,-21.60809],[-45.80625,-21.61735],[-45.82621,-21.62131]]]]}},{"type":"Feature","properties":{"territory_id":"mg-3147204-nova-paraguacu","name":"Nova Paraguacu","municipality_id":"mg-3147204","polling_places":1,"approx":true,"official":false,"method":"voronoi-polling-places","whole_municipality":false,"approx_coords_only":false},"geometry":{"type":"MultiPolygon","coordinates":[[[[-45.8557,-21.5181],[-45.8531,-21.5865],[-45.82621,-21.62131],[-45.80625,-21.61735],[-45.7411,-21.54509],[-45.73902,-21.54137],[-45.73411,-21.42901],[-45.7642,-21.4229],[-45.8138,-21.5326],[-45.8557,-21.5181]]]]}},{"type":"Feature","properties":{"territory_id":"mg-3147204-vila-sinara","name":"Vila Sinara","municipality_id":"mg-3147204","polling_places":1,"approx":true,"official":false,"method":"voronoi-polling-places","whole_municipality":false,"approx_coords_only":false},"geometry":{"type":"MultiPolygon","coordinates":[[[[-45.73501,-21.54607],[-45.73496,-21.55071],[-45.70642,-21.60517],[-45.67049,-21.60251],[-45.664,-21.595],[-45.664,-21.58776],[-45.73501,-21.54607]]]]}}]}