{"type":"FeatureCollection","features":[{"type":"Feature","properties":{"territory_id":"mg-3147303-alto-da-gloria","name":"Alto da Gloria","municipality_id":"mg-3147303","polling_places":1,"approx":true,"official":false,"method":"voronoi-polling-places","whole_municipality":false,"approx_coords_only":false},"geometry":{"type":"MultiPolygon","coordinates":[[[[-45.88672,-22.56072],[-45.83754,-22.62763],[-45.8095,-22.6113],[-45.747,-22.6249],[-45.73,-22.6187],[-45.72695,-22.58851],[-45.78059,-22.55539],[-45.87618,-22.53622],[-45.88672,-22.56072]]]]}},{"type":"Feature","properties":{"territory_id":"mg-3147303-centro","name":"Centro","municipality_id":"mg-3147303","polling_places":4,"approx":true,"official":false,"method":"voronoi-polling-places","whole_municipality":false,"approx_coords_only":false},"geometry":{"type":"MultiPolygon","coordinates":[[[[-45.8833,-22.5003],[-45.8708,-22.5237],[-45.87618,-22.53622],[-45.78059,-22.55539],[-45.72695,-22.58851],[-45.7268,-22.587],[-45.6787,-22.5733],[-45.7001,-22.4994],[-45.7786,-22.4697],[-45.785,-22.4883],[-45.8265,-22.5091],[-45.8536,-22.4888],[-45.8833,-22.5003]]]]}},{"type":"Feature","properties":{"territory_id":"mg-3147303-distrito-de-costas","name":"Distrito de Costas","municipality_id":"mg-3147303","polling_places":1,"approx":true,"official":false,"method":"voronoi-polling-places","whole_municipality":false,"approx_coords_only":false},"geometry":{"type":"MultiPolygon","coordinates":[[[[-45.9615,-22.6138],[-45.9363,-22.6514],[-45.959,-22.6908],[-45.9491,-22.6943],[-45.8857,-22.676],[-45.8789,-22.6153],[-45.8392,-22.6286],[-45.83754,-22.62763],[-45.88672,-22.56072],[-45.9043,-22.6016],[-45.9515,-22.5876],[-45.9615,-22.6138]]]]}}]}