{"type":"FeatureCollection","features":[{"type":"Feature","properties":{"territory_id":"mg-3147907-canjeranus","name":"Canjeranus","municipality_id":"mg-3147907","polling_places":3,"approx":false,"official":true,"method":"official-ibge-cd2022","whole_municipality":false,"approx_coords_only":false,"official_name":"Canjeranus","official_code":"3147907005","match":"direct"},"geometry":{"type":"MultiPolygon","coordinates":[[[[-46.60524,-20.71021],[-46.60474,-20.71064],[-46.60428,-20.71108],[-46.60328,-20.71201],[-46.60318,-20.71207],[-46.6031,-20.71221],[-46.603,-20.71232],[-46.60147,-20.71365],[-46.60341,-20.71552],[-46.60423,-20.71635],[-46.60514,-20.71724],[-46.60659,-20.71554],[-46.60743,-20.71459],[-46.60758,-20.71475],[-46.60771,-20.71481],[-46.6086,-20.71495],[-46.60873,-20.7143],[-46.60892,-20.71372],[-46.60915,-20.71258],[-46.60965,-20.71032],[-46.60966,-20.71004],[-46.60964,-20.70987],[-46.60959,-20.70952],[-46.60951,-20.70926],[-46.60882,-20.70963],[-46.60803,-20.71009],[-46.6073,-20.70927],[-46.60696,-20.70891],[-46.60677,-20.70875],[-46.60618,-20.70928],[-46.6057,-20.70974],[-46.60524,-20.71021]]]]}},{"type":"Feature","properties":{"territory_id":"mg-3147907-centro","name":"Centro","municipality_id":"mg-3147907","polling_places":5,"approx":false,"official":true,"method":"official-ibge-cd2022","whole_municipality":false,"approx_coords_only":false,"official_name":"Centro","official_code":"3147907001","match":"direct"},"geometry":{"type":"MultiPolygon","coordinates":[[[[-46.60501,-20.72312],[-46.60558,-20.72404],[-46.60588,-20.72466],[-46.60661,-20.72601],[-46.60746,-20.72628],[-46.60928,-20.72682],[-46.61108,-20.72732],[-46.61112,-20.72728],[-46.61112,-20.72725],[-46.61149,-20.7264],[-46.61155,-20.72634],[-46.61192,-20.72553],[-46.61223,-20.72491],[-46.61236,-20.72482],[-46.61272,-20.72403],[-46.61286,-20.72367],[-46.61325,-20.72226],[-46.6133,-20.72219],[-46.61331,-20.72214],[-46.61327,-20.72173],[-46.61326,-20.72152],[-46.61331,-20.72129],[-46.61362,-20.72044],[-46.61365,-20.72024],[-46.61366,-20.72003],[-46.6136,-20.71983],[-46.6135,-20.71974],[-46.61312,-20.71951],[-46.61297,-20.71937],[-46.61291,-20.71923],[-46.61284,-20.71897],[-46.61284,-20.71884],[-46.61287,-20.71876],[-46.61303,-20.71813],[-46.61309,-20.71778],[-46.61305,-20.71648],[-46.61307,-20.71569],[-46.61302,-20.71547],[-46.6129,-20.71531],[-46.61229,-20.7146],[-46.61209,-20.71446],[-46.61195,-20.71439],[-46.6109,-20.71409],[-46.61016,-20.7141],[-46.60967,-20.71403],[-46.60913,-20.71392],[-46.60899,-20.71386],[-46.60892,-20.71372],[-46.60873,-20.7143],[-46.6086,-20.71495],[-46.60771,-20.71481],[-46.60758,-20.71475],[-46.60743,-20.71459],[-46.60659,-20.71554],[-46.60514,-20.71724],[-46.60658,-20.71866],[-46.60411,-20.71976],[-46.6038,-20.72112],[-46.60429,-20.72196],[-46.60484,-20.72283],[-46.60501,-20.72312]]]]}},{"type":"Feature","properties":{"territory_id":"mg-3147907-cohab-iv","name":"Cohab Iv","municipality_id":"mg-3147907","polling_places":1,"approx":true,"official":false,"method":"voronoi-polling-places","whole_municipality":false,"approx_coords_only":false},"geometry":{"type":"MultiPolygon","coordinates":[[[[-46.85898,-20.49368],[-46.8531,-20.5324],[-46.8156,-20.535],[-46.85898,-20.49368]]],[[[-46.8424,-20.6017],[-46.8318,-20.6308],[-46.8108,-20.6688],[-46.7656,-20.6742],[-46.7266,-20.7294],[-46.7308,-20.7663],[-46.70373,-20.813],[-46.62653,-20.74164],[-46.6227,-20.73244],[-46.62373,-20.7308],[-46.62419,-20.73052],[-46.62521,-20.73167],[-46.62544,-20.73203],[-46.62629,-20.73359],[-46.62658,-20.73399],[-46.62702,-20.73439],[-46.62747,-20.73473],[-46.62826,-20.73527],[-46.63098,-20.73702],[-46.631,-20.73709],[-46.63052,-20.73719],[-46.63034,-20.73729],[-46.63254,-20.73783],[-46.63493,-20.73843],[-46.63582,-20.73856],[-46.63658,-20.73858],[-46.63875,-20.73858],[-46.64176,-20.73748],[-46.64879,-20.7375],[-46.64509,-20.73124],[-46.64506,-20.73113],[-46.64617,-20.72839],[-46.64632,-20.7277],[-46.64645,-20.7268],[-46.64604,-20.72398],[-46.64598,-20.72368],[-46.6459,-20.72343],[-46.64536,-20.72228],[-46.6453,-20.72216],[-46.64425,-20.72154],[-46.64337,-20.7215],[-46.64298,-20.72166],[-46.64211,-20.7219],[-46.64104,-20.72228],[-46.64031,-20.72248],[-46.63986,-20.72253],[-46.63936,-20.72263],[-46.63818,-20.72275],[-46.63762,-20.72274],[-46.63482,-20.7224],[-46.63443,-20.72238],[-46.63344,-20.72256],[-46.63296,-20.72267],[-46.63252,-20.72266],[-46.63199,-20.72257],[-46.6317,-20.72249],[-46.63142,-20.72237],[-46.63118,-20.72222],[-46.63095,-20.72202],[-46.63063,-20.7217],[-46.63051,-20.72166],[-46.6303,-20.72162],[-46.62997,-20.7215],[-46.62988,-20.72137],[-46.62985,-20.72117],[-46.62984,-20.72099],[-46.63031,-20.72024],[-46.63047,-20.72024],[-46.63066,-20.72018],[-46.63048,-20.71997],[-46.64374,-20.69868],[-46.80756,-20.54264],[-46.8058,-20.5598],[-46.8424,-20.6017]]]]}},{"type":"Feature","properties":{"territory_id":"mg-3147907-coimbras","name":"Coimbras","municipality_id":"mg-3147907","polling_places":3,"approx":false,"official":true,"method":"official-ibge-cd2022","whole_municipality":false,"approx_coords_only":false,"official_name":"Coimbras","official_code":"3147907015","match":"direct"},"geometry":{"type":"MultiPolygon","coordinates":[[[[-46.61442,-20.70433],[-46.61454,-20.70406],[-46.61476,-20.70347],[-46.6151,-20.70276],[-46.6155,-20.70186],[-46.61611,-20.70038],[-46.6162,-20.70009],[-46.61625,-20.69987],[-46.61633,-20.69915],[-46.61644,-20.69792],[-46.61651,-20.6975],[-46.61693,-20.69572],[-46.61706,-20.69465],[-46.61719,-20.69317],[-46.61722,-20.6924],[-46.61726,-20.69195],[-46.61736,-20.69115],[-46.6174,-20.69101],[-46.61756,-20.69073],[-46.61768,-20.69057],[-46.61792,-20.69035],[-46.61877,-20.68971],[-46.61886,-20.6896],[-46.61877,-20.68953],[-46.61854,-20.6893],[-46.61848,-20.68917],[-46.61839,-20.68903],[-46.61829,-20.68894],[-46.61829,-20.68862],[-46.61833,-20.68856],[-46.61845,-20.68852],[-46.61865,-20.68852],[-46.61869,-20.68866],[-46.61877,-20.68866],[-46.61884,-20.6886],[-46.61888,-20.6885],[-46.61882,-20.68839],[-46.61873,-20.68831],[-46.61863,-20.68818],[-46.61875,-20.68803],[-46.61894,-20.68792],[-46.61879,-20.68765],[-46.61875,-20.68746],[-46.61882,-20.68729],[-46.61892,-20.68723],[-46.61894,-20.68712],[-46.6188,-20.6871],[-46.6188,-20.68701],[-46.61886,-20.68691],[-46.61894,-20.68686],[-46.61896,-20.68672],[-46.61882,-20.6867],[-46.61875,-20.68663],[-46.61875,-20.68625],[-46.61882,-20.68597],[-46.61853,-20.68611],[-46.61831,-20.68628],[-46.6182,-20.68642],[-46.61814,-20.6866],[-46.61801,-20.68677],[-46.6179,-20.68679],[-46.61757,-20.68677],[-46.6174,-20.68671],[-46.61728,-20.68656],[-46.61722,-20.68647],[-46.6171,-20.68631],[-46.61697,-20.68608],[-46.61694,-20.68605],[-46.6169,-20.68579],[-46.61653,-20.6857],[-46.6164,-20.68569],[-46.61623,-20.68573],[-46.6161,-20.6858],[-46.61595,-20.68585],[-46.6159,-20.6859],[-46.61579,-20.68613],[-46.61585,-20.6863],[-46.61597,-20.68645],[-46.61606,-20.68662],[-46.61611,-20.68684],[-46.61603,-20.68694],[-46.61605,-20.68704],[-46.61597,-20.6873],[-46.61597,-20.68754],[-46.61602,-20.68773],[-46.61602,-20.68791],[-46.61598,-20.68804],[-46.61599,-20.68817],[-46.61578,-20.6885],[-46.61557,-20.68859],[-46.6155,-20.68864],[-46.61529,-20.68872],[-46.61523,-20.6887],[-46.6151,-20.6887],[-46.61496,-20.68876],[-46.61487,-20.68876],[-46.61455,-20.68914],[-46.61451,-20.68934],[-46.61438,-20.68948],[-46.61434,-20.68967],[-46.61424,-20.68979],[-46.61399,-20.68995],[-46.6137,-20.69008],[-46.61365,-20.69013],[-46.61329,-20.69031],[-46.61274,-20.69048],[-46.61219,-20.69038],[-46.61178,-20.69037],[-46.61169,-20.69042],[-46.6115,-20.69041],[-46.61144,-20.69031],[-46.6114,-20.69018],[-46.61124,-20.69018],[-46.6112,-20.6902],[-46.61114,-20.69026],[-46.61112,-20.69032],[-46.61112,-20.69043],[-46.61102,-20.69062],[-46.611,-20.69063],[-46.61101,-20.69073],[-46.61108,-20.69087],[-46.61095,-20.69096],[-46.61083,-20.69101],[-46.61069,-20.69112],[-46.61051,-20.69092],[-46.61044,-20.6908],[-46.61034,-20.69077],[-46.61029,-20.69078],[-46.61025,-20.69084],[-46.61022,-20.69097],[-46.61002,-20.69127],[-46.61007,-20.69131],[-46.61013,-20.69143],[-46.6101,-20.69166],[-46.60999,-20.69176],[-46.61,-20.69193],[-46.60999,-20.69201],[-46.61003,-20.69214],[-46.61002,-20.69217],[-46.61009,-20.69227],[-46.60986,-20.69235],[-46.60974,-20.69228],[-46.6096,-20.69223],[-46.60945,-20.69222],[-46.60932,-20.69228],[-46.60914,-20.69249],[-46.60905,-20.69254],[-46.60896,-20.69268],[-46.60898,-20.69278],[-46.60898,-20.69304],[-46.60893,-20.69307],[-46.60885,-20.6932],[-46.60889,-20.69343],[-46.60894,-20.69345],[-46.60902,-20.69345],[-46.60907,-20.69351],[-46.60908,-20.69375],[-46.60911,-20.69378],[-46.60913,-20.69394],[-46.6091,-20.69402],[-46.60905,-20.69407],[-46.60893,-20.69412],[-46.60886,-20.69421],[-46.60885,-20.6942],[-46.60876,-20.69429],[-46.6085,-20.69433],[-46.60837,-20.69429],[-46.60825,-20.69416],[-46.60819,-20.69413],[-46.60813,-20.69413],[-46.60811,-20.69409],[-46.60801,-20.69407],[-46.60793,-20.694],[-46.60786,-20.694],[-46.60777,-20.69403],[-46.60776,-20.69407],[-46.60768,-20.6941],[-46.60752,-20.69405],[-46.60731,-20.69404],[-46.60733,-20.6941],[-46.60736,-20.69414],[-46.60735,-20.6942],[-46.60728,-20.69422],[-46.60715,-20.6942],[-46.60716,-20.69439],[-46.6072,-20.69448],[-46.6072,-20.69459],[-46.60725,-20.69466],[-46.60721,-20.69471],[-46.60717,-20.69474],[-46.6072,-20.6948],[-46.60722,-20.69498],[-46.60722,-20.69509],[-46.60718,-20.6952],[-46.60716,-20.69536],[-46.60716,-20.69544],[-46.60718,-20.69545],[-46.6072,-20.69556],[-46.60719,-20.69562],[-46.6071,-20.69566],[-46.60708,-20.69565],[-46.60691,-20.69565],[-46.60681,-20.69571],[-46.60674,-20.69578],[-46.60678,-20.69585],[-46.60677,-20.69594],[-46.60673,-20.69597],[-46.60671,-20.69603],[-46.6068,-20.69599],[-46.60686,-20.69603],[-46.60691,-20.6961],[-46.60696,-20.69622],[-46.607,-20.69625],[-46.60702,-20.69624],[-46.60709,-20.69626],[-46.60714,-20.69631],[-46.60716,-20.69635],[-46.60725,-20.6964],[-46.6073,-20.69641],[-46.60747,-20.69633],[-46.6075,-20.69628],[-46.60765,-20.69625],[-46.60768,-20.69625],[-46.60775,-20.69637],[-46.60774,-20.6964],[-46.6077,-20.69642],[-46.60761,-20.69652],[-46.60756,-20.69661],[-46.60741,-20.69662],[-46.60736,-20.69664],[-46.60729,-20.69665],[-46.60726,-20.69668],[-46.60711,-20.69669],[-46.60706,-20.69675],[-46.607,-20.69677],[-46.60697,-20.69686],[-46.60688,-20.69699],[-46.60674,-20.69706],[-46.60645,-20.69705],[-46.60642,-20.69709],[-46.60641,-20.69719],[-46.60629,-20.69724],[-46.60629,-20.69733],[-46.60627,-20.69739],[-46.60629,-20.69746],[-46.60626,-20.6975],[-46.60626,-20.6976],[-46.60623,-20.6976],[-46.6062,-20.69767],[-46.6062,-20.69782],[-46.60627,-20.69788],[-46.60641,-20.69795],[-46.60654,-20.69798],[-46.60664,-20.69796],[-46.60675,-20.69801],[-46.60676,-20.69805],[-46.60683,-20.69814],[-46.60685,-20.6982],[-46.60684,-20.69849],[-46.60679,-20.69859],[-46.60681,-20.69865],[-46.60697,-20.69877],[-46.60706,-20.69887],[-46.60709,-20.69895],[-46.60704,-20.69905],[-46.60691,-20.69911],[-46.60678,-20.69914],[-46.60665,-20.69914],[-46.60636,-20.69907],[-46.60627,-20.69921],[-46.6061,-20.69937],[-46.60631,-20.69947],[-46.60647,-20.69946],[-46.60676,-20.69949],[-46.60693,-20.69958],[-46.60741,-20.69991],[-46.60765,-20.70005],[-46.60788,-20.70035],[-46.60794,-20.70041],[-46.60802,-20.70042],[-46.60803,-20.70051],[-46.60788,-20.70068],[-46.60785,-20.70077],[-46.60777,-20.70083],[-46.60763,-20.701],[-46.60755,-20.70105],[-46.60754,-20.70114],[-46.60762,-20.70178],[-46.60788,-20.70234],[-46.60801,-20.7023],[-46.60815,-20.70197],[-46.60835,-20.702],[-46.60856,-20.70214],[-46.60873,-20.7024],[-46.60874,-20.70271],[-46.60867,-20.70285],[-46.60856,-20.70295],[-46.60819,-20.70315],[-46.60812,-20.70323],[-46.60739,-20.70358],[-46.60706,-20.70386],[-46.60702,-20.70406],[-46.60735,-20.70453],[-46.60745,-20.70471],[-46.60759,-20.70483],[-46.60782,-20.70535],[-46.60793,-20.70554],[-46.60802,-20.70573],[-46.6083,-20.70611],[-46.6085,-20.70647],[-46.60859,-20.7067],[-46.60868,-20.70712],[-46.60902,-20.70802],[-46.60913,-20.70826],[-46.60936,-20.70892],[-46.60951,-20.70926],[-46.61114,-20.70814],[-46.61237,-20.70958],[-46.61244,-20.70939],[-46.61252,-20.70926],[-46.61331,-20.70869],[-46.61349,-20.70778],[-46.61383,-20.70584],[-46.61403,-20.70515],[-46.61442,-20.70433]]]]}},{"type":"Feature","properties":{"territory_id":"mg-3147907-jardim-aclimacao","name":"Jardim Aclimacao","municipality_id":"mg-3147907","polling_places":2,"approx":true,"official":false,"method":"voronoi-polling-places","whole_municipality":false,"approx_coords_only":false},"geometry":{"type":"MultiPolygon","coordinates":[[[[-46.7056,-20.8407],[-46.6723,-20.8682],[-46.6732,-20.898],[-46.6388,-20.9041],[-46.6482,-20.9343],[-46.6135,-20.9709],[-46.5872,-20.9785],[-46.5314,-20.9677],[-46.5282,-20.9306],[-46.5038,-20.9252],[-46.469,-20.8855],[-46.4394,-20.8137],[-46.4122,-20.8064],[-46.4107,-20.78897],[-46.58246,-20.74196],[-46.5982,-20.74392],[-46.59844,-20.74396],[-46.60426,-20.74348],[-46.60453,-20.74393],[-46.60528,-20.74459],[-46.6055,-20.74482],[-46.60565,-20.74502],[-46.60577,-20.7453],[-46.60578,-20.74543],[-46.60621,-20.74706],[-46.60631,-20.74757],[-46.60637,-20.74807],[-46.60667,-20.7492],[-46.6067,-20.74957],[-46.60673,-20.75035],[-46.60673,-20.75099],[-46.60665,-20.75209],[-46.60631,-20.75323],[-46.60611,-20.75341],[-46.60523,-20.75404],[-46.60248,-20.75594],[-46.60194,-20.75638],[-46.60178,-20.7566],[-46.60168,-20.75686],[-46.60179,-20.75718],[-46.60169,-20.76153],[-46.60335,-20.76118],[-46.60347,-20.76118],[-46.60366,-20.76123],[-46.60414,-20.76128],[-46.60419,-20.76129],[-46.60419,-20.76131],[-46.60429,-20.76129],[-46.60432,-20.76126],[-46.60461,-20.76109],[-46.60482,-20.76105],[-46.60526,-20.76102],[-46.6053,-20.76095],[-46.60546,-20.7608],[-46.60568,-20.76083],[-46.60588,-20.7609],[-46.60602,-20.76091],[-46.60605,-20.76092],[-46.6063,-20.76092],[-46.60663,-20.76058],[-46.60677,-20.7603],[-46.60413,-20.75763],[-46.60591,-20.75641],[-46.60689,-20.75778],[-46.60793,-20.75709],[-46.60858,-20.75667],[-46.60886,-20.75662],[-46.60788,-20.75509],[-46.60802,-20.75496],[-46.609,-20.75415],[-46.6098,-20.7536],[-46.60937,-20.75308],[-46.60959,-20.75292],[-46.60976,-20.75291],[-46.60983,-20.75288],[-46.60894,-20.75173],[-46.60867,-20.75178],[-46.60895,-20.75088],[-46.60923,-20.75003],[-46.60923,-20.74999],[-46.60989,-20.74788],[-46.60839,-20.74722],[-46.60882,-20.74584],[-46.60924,-20.74475],[-46.6145,-20.74697],[-46.61467,-20.74697],[-46.61457,-20.74681],[-46.61453,-20.74662],[-46.61451,-20.74615],[-46.61452,-20.74598],[-46.61456,-20.74573],[-46.6145,-20.74548],[-46.61455,-20.74545],[-46.61455,-20.74537],[-46.61461,-20.7453],[-46.61464,-20.74501],[-46.61463,-20.74494],[-46.61464,-20.74444],[-46.61467,-20.74438],[-46.61463,-20.74427],[-46.61461,-20.74412],[-46.61454,-20.74401],[-46.61449,-20.74387],[-46.61449,-20.74367],[-46.6146,-20.74359],[-46.61466,-20.74351],[-46.61474,-20.74331],[-46.61483,-20.74308],[-46.61489,-20.74304],[-46.61492,-20.74292],[-46.61505,-20.74284],[-46.61507,-20.74271],[-46.61519,-20.74258],[-46.62653,-20.74164],[-46.70373,-20.813],[-46.6955,-20.8272],[-46.7056,-20.8407]]]]}},{"type":"Feature","properties":{"territory_id":"mg-3147907-jardim-bela-vista","name":"Jardim Bela Vista","municipality_id":"mg-3147907","polling_places":2,"approx":true,"official":false,"method":"voronoi-polling-places","whole_municipality":false,"approx_coords_only":false},"geometry":{"type":"MultiPolygon","coordinates":[[[[-46.61314,-20.71648],[-46.61305,-20.71648],[-46.61306,-20.71625],[-46.61314,-20.71648]]],[[[-46.61262,-20.71498],[-46.61229,-20.7146],[-46.61209,-20.71446],[-46.61195,-20.71439],[-46.6109,-20.71409],[-46.61016,-20.7141],[-46.60967,-20.71403],[-46.60913,-20.71392],[-46.60899,-20.71386],[-46.60892,-20.71372],[-46.60915,-20.71258],[-46.6094,-20.71142],[-46.61168,-20.71227],[-46.61262,-20.71498]]],[[[-46.60658,-20.71866],[-46.60423,-20.71635],[-46.60514,-20.71724],[-46.60658,-20.71866]]],[[[-46.60548,-20.70996],[-46.60524,-20.71021],[-46.60474,-20.71064],[-46.60428,-20.71108],[-46.60328,-20.71201],[-46.60318,-20.71207],[-46.6031,-20.71221],[-46.603,-20.71232],[-46.60147,-20.71365],[-46.60341,-20.71552],[-46.60423,-20.71635],[-46.60241,-20.71855],[-46.60228,-20.7184],[-46.60159,-20.71777],[-46.59987,-20.71938],[-46.59787,-20.72123],[-46.59852,-20.72178],[-46.5986,-20.72194],[-46.59885,-20.72218],[-46.5991,-20.72248],[-46.59999,-20.72398],[-46.60001,-20.72401],[-46.59977,-20.72407],[-46.58868,-20.71037],[-46.59193,-20.71041],[-46.603,-20.70903],[-46.60548,-20.70996]]],[[[-46.60481,-20.72279],[-46.6048,-20.72279],[-46.60429,-20.72196],[-46.60481,-20.72279]]]]}},{"type":"Feature","properties":{"territory_id":"mg-3147907-jardim-belo-horizonte","name":"Jardim Belo Horizonte","municipality_id":"mg-3147907","polling_places":2,"approx":true,"official":false,"method":"voronoi-polling-places","whole_municipality":false,"approx_coords_only":false},"geometry":{"type":"MultiPolygon","coordinates":[[[[-46.62653,-20.74164],[-46.61519,-20.74258],[-46.61522,-20.74255],[-46.61516,-20.7424],[-46.61508,-20.74233],[-46.6151,-20.74207],[-46.61519,-20.74199],[-46.61523,-20.74191],[-46.61528,-20.74186],[-46.61527,-20.74171],[-46.61531,-20.74162],[-46.61542,-20.7415],[-46.61551,-20.74143],[-46.61551,-20.74139],[-46.61561,-20.74132],[-46.61563,-20.74115],[-46.61588,-20.74078],[-46.61586,-20.74071],[-46.61588,-20.74067],[-46.616,-20.74056],[-46.61607,-20.74044],[-46.61621,-20.74025],[-46.61642,-20.73939],[-46.61841,-20.73902],[-46.62038,-20.73867],[-46.62029,-20.7382],[-46.62007,-20.73789],[-46.62004,-20.73715],[-46.62,-20.7369],[-46.61977,-20.7361],[-46.61961,-20.73574],[-46.61923,-20.73517],[-46.619,-20.73491],[-46.61868,-20.7346],[-46.61871,-20.73411],[-46.61851,-20.73359],[-46.6184,-20.73332],[-46.61918,-20.73343],[-46.62093,-20.73251],[-46.62093,-20.73247],[-46.62213,-20.73175],[-46.6227,-20.73244],[-46.62653,-20.74164]]],[[[-46.6176,-20.73834],[-46.61759,-20.73822],[-46.61759,-20.73804],[-46.6176,-20.73834]]],[[[-46.61414,-20.72487],[-46.61414,-20.72486],[-46.61412,-20.7246],[-46.61414,-20.72487]]],[[[-46.61167,-20.74022],[-46.61121,-20.74031],[-46.60808,-20.74084],[-46.61167,-20.74022]]],[[[-46.61108,-20.72732],[-46.61107,-20.72737],[-46.61101,-20.72744],[-46.61032,-20.72893],[-46.61042,-20.72896],[-46.61032,-20.72911],[-46.60884,-20.73071],[-46.60734,-20.73247],[-46.60698,-20.73293],[-46.6057,-20.73438],[-46.60555,-20.73449],[-46.60529,-20.73455],[-46.60508,-20.73453],[-46.60414,-20.73423],[-46.60403,-20.73431],[-46.60386,-20.73434],[-46.60382,-20.73441],[-46.60284,-20.73738],[-46.60265,-20.73789],[-46.60206,-20.73969],[-46.60197,-20.73988],[-46.60184,-20.74001],[-46.60167,-20.74008],[-46.60156,-20.74019],[-46.60156,-20.74037],[-46.60166,-20.7405],[-46.60199,-20.7406],[-46.60187,-20.74072],[-46.6018,-20.74085],[-46.6013,-20.74237],[-46.602,-20.74259],[-46.60267,-20.74275],[-46.60334,-20.74294],[-46.60394,-20.74319],[-46.60409,-20.74318],[-46.60426,-20.74348],[-46.59844,-20.74396],[-46.5982,-20.74392],[-46.58246,-20.74196],[-46.59977,-20.72407],[-46.60001,-20.72401],[-46.60073,-20.72527],[-46.60218,-20.72492],[-46.60353,-20.72452],[-46.60558,-20.72404],[-46.60588,-20.72466],[-46.60661,-20.72601],[-46.60746,-20.72628],[-46.60928,-20.72682],[-46.61108,-20.72732]]],[[[-46.60501,-20.72312],[-46.6048,-20.72279],[-46.60481,-20.72279],[-46.60484,-20.72283],[-46.60501,-20.72312]]]]}},{"type":"Feature","properties":{"territory_id":"mg-3147907-jardim-dos-ipes","name":"Jardim dos Ipes","municipality_id":"mg-3147907","polling_places":1,"approx":true,"official":false,"method":"voronoi-polling-places","whole_municipality":false,"approx_coords_only":false},"geometry":{"type":"MultiPolygon","coordinates":[[[[-46.8626,-20.4698],[-46.85898,-20.49368],[-46.8156,-20.535],[-46.8083,-20.5355],[-46.80756,-20.54264],[-46.64374,-20.69868],[-46.62458,-20.70994],[-46.62457,-20.70992],[-46.62422,-20.70941],[-46.62386,-20.70899],[-46.62343,-20.70857],[-46.62314,-20.70835],[-46.62251,-20.70797],[-46.62229,-20.7078],[-46.62217,-20.70768],[-46.62209,-20.70752],[-46.62167,-20.70769],[-46.62137,-20.70793],[-46.62126,-20.70806],[-46.6212,-20.70832],[-46.62107,-20.7091],[-46.62074,-20.70973],[-46.61987,-20.71033],[-46.61951,-20.71055],[-46.61889,-20.71088],[-46.61873,-20.71098],[-46.6185,-20.71118],[-46.61639,-20.71275],[-46.61647,-20.71319],[-46.61646,-20.71362],[-46.61641,-20.71371],[-46.61636,-20.71389],[-46.61629,-20.71405],[-46.61586,-20.71479],[-46.61571,-20.71516],[-46.61344,-20.71649],[-46.61314,-20.71648],[-46.61306,-20.71625],[-46.61307,-20.71569],[-46.61302,-20.71547],[-46.6129,-20.71531],[-46.61262,-20.71498],[-46.61168,-20.71227],[-46.61187,-20.70899],[-46.61237,-20.70958],[-46.61244,-20.70939],[-46.61252,-20.70926],[-46.61331,-20.70869],[-46.61349,-20.70778],[-46.61383,-20.70584],[-46.61403,-20.70515],[-46.61442,-20.70433],[-46.61454,-20.70406],[-46.61476,-20.70347],[-46.6151,-20.70276],[-46.6155,-20.70186],[-46.61611,-20.70038],[-46.6162,-20.70009],[-46.61625,-20.69987],[-46.61633,-20.69915],[-46.61644,-20.69792],[-46.61651,-20.6975],[-46.61693,-20.69572],[-46.61706,-20.69465],[-46.61719,-20.69317],[-46.61722,-20.6924],[-46.61726,-20.69195],[-46.61736,-20.69115],[-46.6174,-20.69101],[-46.61756,-20.69073],[-46.61768,-20.69057],[-46.61792,-20.69035],[-46.61877,-20.68971],[-46.61886,-20.6896],[-46.61877,-20.68953],[-46.61854,-20.6893],[-46.61848,-20.68917],[-46.61839,-20.68903],[-46.61829,-20.68894],[-46.61829,-20.68862],[-46.61833,-20.68856],[-46.61845,-20.68852],[-46.61865,-20.68852],[-46.61869,-20.68866],[-46.61877,-20.68866],[-46.61884,-20.6886],[-46.61888,-20.6885],[-46.61882,-20.68839],[-46.61873,-20.68831],[-46.61863,-20.68818],[-46.61875,-20.68803],[-46.61894,-20.68792],[-46.61879,-20.68765],[-46.61875,-20.68746],[-46.61882,-20.68729],[-46.61892,-20.68723],[-46.61894,-20.68712],[-46.6188,-20.6871],[-46.6188,-20.68701],[-46.61886,-20.68691],[-46.61894,-20.68686],[-46.61896,-20.68672],[-46.61882,-20.6867],[-46.61875,-20.68663],[-46.61875,-20.68625],[-46.61882,-20.68597],[-46.61853,-20.68611],[-46.61831,-20.68628],[-46.6182,-20.68642],[-46.61814,-20.6866],[-46.61801,-20.68677],[-46.6179,-20.68679],[-46.61757,-20.68677],[-46.6174,-20.68671],[-46.61728,-20.68656],[-46.61722,-20.68647],[-46.6171,-20.68631],[-46.61697,-20.68608],[-46.61694,-20.68605],[-46.6169,-20.68579],[-46.61653,-20.6857],[-46.6164,-20.68569],[-46.61623,-20.68573],[-46.6161,-20.6858],[-46.61595,-20.68585],[-46.6159,-20.6859],[-46.61579,-20.68613],[-46.61585,-20.6863],[-46.61597,-20.68645],[-46.61606,-20.68662],[-46.61611,-20.68684],[-46.61603,-20.68694],[-46.61605,-20.68704],[-46.61597,-20.6873],[-46.61597,-20.68754],[-46.61602,-20.68773],[-46.61602,-20.68791],[-46.61598,-20.68804],[-46.61599,-20.68817],[-46.61578,-20.6885],[-46.61557,-20.68859],[-46.6155,-20.68864],[-46.61529,-20.68872],[-46.61523,-20.6887],[-46.6151,-20.6887],[-46.61496,-20.68876],[-46.61487,-20.68876],[-46.61455,-20.68914],[-46.61451,-20.68934],[-46.61438,-20.68948],[-46.61434,-20.68967],[-46.61424,-20.68979],[-46.61399,-20.68995],[-46.6137,-20.69008],[-46.61365,-20.69013],[-46.61329,-20.69031],[-46.61296,-20.69042],[-46.62106,-20.55292],[-46.6575,-20.5336],[-46.6945,-20.4982],[-46.778,-20.485],[-46.8197,-20.4619],[-46.8626,-20.4698]]]]}},{"type":"Feature","properties":{"territory_id":"mg-3147907-jardim-harmonia","name":"Jardim Harmonia","municipality_id":"mg-3147907","polling_places":2,"approx":true,"official":false,"method":"voronoi-polling-places","whole_municipality":false,"approx_coords_only":false},"geometry":{"type":"MultiPolygon","coordinates":[[[[-46.62106,-20.55292],[-46.61296,-20.69042],[-46.61274,-20.69048],[-46.61219,-20.69038],[-46.61178,-20.69037],[-46.61169,-20.69042],[-46.6115,-20.69041],[-46.61144,-20.69031],[-46.6114,-20.69018],[-46.61124,-20.69018],[-46.6112,-20.6902],[-46.61114,-20.69026],[-46.61112,-20.69032],[-46.61112,-20.69043],[-46.61102,-20.69062],[-46.611,-20.69063],[-46.61101,-20.69073],[-46.61108,-20.69087],[-46.61095,-20.69096],[-46.61083,-20.69101],[-46.61069,-20.69112],[-46.61051,-20.69092],[-46.61044,-20.6908],[-46.61034,-20.69077],[-46.61029,-20.69078],[-46.61025,-20.69084],[-46.61022,-20.69097],[-46.61002,-20.69127],[-46.61007,-20.69131],[-46.61013,-20.69143],[-46.6101,-20.69166],[-46.60999,-20.69176],[-46.61,-20.69193],[-46.60999,-20.69201],[-46.61003,-20.69214],[-46.61002,-20.69217],[-46.61009,-20.69227],[-46.60986,-20.69235],[-46.60974,-20.69228],[-46.6096,-20.69223],[-46.60945,-20.69222],[-46.60932,-20.69228],[-46.60914,-20.69249],[-46.60905,-20.69254],[-46.60896,-20.69268],[-46.60898,-20.69278],[-46.60898,-20.69304],[-46.60893,-20.69307],[-46.60885,-20.6932],[-46.60889,-20.69343],[-46.60894,-20.69345],[-46.60902,-20.69345],[-46.60907,-20.69351],[-46.60908,-20.69375],[-46.60911,-20.69378],[-46.60913,-20.69394],[-46.6091,-20.69402],[-46.60905,-20.69407],[-46.60893,-20.69412],[-46.60886,-20.69421],[-46.60885,-20.6942],[-46.60876,-20.69429],[-46.6085,-20.69433],[-46.60837,-20.69429],[-46.60825,-20.69416],[-46.60819,-20.69413],[-46.60813,-20.69413],[-46.60811,-20.69409],[-46.60801,-20.69407],[-46.60793,-20.694],[-46.60786,-20.694],[-46.60777,-20.69403],[-46.60776,-20.69407],[-46.60768,-20.6941],[-46.60752,-20.69405],[-46.60731,-20.69404],[-46.60733,-20.6941],[-46.60736,-20.69414],[-46.60735,-20.6942],[-46.60728,-20.69422],[-46.60715,-20.6942],[-46.60716,-20.69439],[-46.6072,-20.69448],[-46.6072,-20.69459],[-46.60725,-20.69466],[-46.60721,-20.69471],[-46.60717,-20.69474],[-46.6072,-20.6948],[-46.60722,-20.69498],[-46.60722,-20.69509],[-46.60718,-20.6952],[-46.60716,-20.69536],[-46.60716,-20.69544],[-46.60718,-20.69545],[-46.6072,-20.69556],[-46.60719,-20.69562],[-46.6071,-20.69566],[-46.60708,-20.69565],[-46.60691,-20.69565],[-46.60681,-20.69571],[-46.60674,-20.69578],[-46.60678,-20.69585],[-46.60677,-20.69594],[-46.60673,-20.69597],[-46.60671,-20.69603],[-46.6068,-20.69599],[-46.60686,-20.69603],[-46.60691,-20.6961],[-46.60696,-20.69622],[-46.607,-20.69625],[-46.60702,-20.69624],[-46.60709,-20.69626],[-46.60714,-20.69631],[-46.60716,-20.69635],[-46.60725,-20.6964],[-46.6073,-20.69641],[-46.60747,-20.69633],[-46.6075,-20.69628],[-46.60765,-20.69625],[-46.60768,-20.69625],[-46.60775,-20.69637],[-46.60774,-20.6964],[-46.6077,-20.69642],[-46.60761,-20.69652],[-46.60756,-20.69661],[-46.60741,-20.69662],[-46.60736,-20.69664],[-46.60729,-20.69665],[-46.60726,-20.69668],[-46.60711,-20.69669],[-46.60706,-20.69675],[-46.607,-20.69677],[-46.60697,-20.69686],[-46.60688,-20.69699],[-46.60674,-20.69706],[-46.60645,-20.69705],[-46.60642,-20.69709],[-46.60641,-20.69719],[-46.60629,-20.69724],[-46.60629,-20.69733],[-46.60627,-20.69739],[-46.60629,-20.69746],[-46.60626,-20.6975],[-46.60626,-20.6976],[-46.60623,-20.6976],[-46.6062,-20.69767],[-46.6062,-20.69782],[-46.60627,-20.69788],[-46.60641,-20.69795],[-46.60654,-20.69798],[-46.60664,-20.69796],[-46.60675,-20.69801],[-46.60676,-20.69805],[-46.60683,-20.69814],[-46.60685,-20.6982],[-46.60684,-20.69849],[-46.60679,-20.69859],[-46.60681,-20.69865],[-46.60697,-20.69877],[-46.60706,-20.69887],[-46.60709,-20.69895],[-46.60704,-20.69905],[-46.60691,-20.69911],[-46.60678,-20.69914],[-46.60665,-20.69914],[-46.60636,-20.69907],[-46.60627,-20.69921],[-46.6061,-20.69937],[-46.60631,-20.69947],[-46.60647,-20.69946],[-46.60676,-20.69949],[-46.60693,-20.69958],[-46.60741,-20.69991],[-46.60765,-20.70005],[-46.60788,-20.70035],[-46.60794,-20.70041],[-46.60802,-20.70042],[-46.60803,-20.70051],[-46.60788,-20.70068],[-46.60785,-20.70077],[-46.60777,-20.70083],[-46.60763,-20.701],[-46.60755,-20.70105],[-46.60754,-20.70114],[-46.60762,-20.70178],[-46.60788,-20.70234],[-46.60801,-20.7023],[-46.60815,-20.70197],[-46.60835,-20.702],[-46.60856,-20.70214],[-46.60873,-20.7024],[-46.60874,-20.70271],[-46.60867,-20.70285],[-46.60856,-20.70295],[-46.60819,-20.70315],[-46.60812,-20.70323],[-46.60739,-20.70358],[-46.60706,-20.70386],[-46.60702,-20.70406],[-46.60735,-20.70453],[-46.60745,-20.70471],[-46.60759,-20.70483],[-46.60782,-20.70535],[-46.60793,-20.70554],[-46.60802,-20.70573],[-46.6083,-20.70611],[-46.6085,-20.70647],[-46.60859,-20.7067],[-46.60868,-20.70712],[-46.60902,-20.70802],[-46.60913,-20.70826],[-46.60936,-20.70892],[-46.60951,-20.70926],[-46.60882,-20.70963],[-46.60803,-20.71009],[-46.6073,-20.70927],[-46.60696,-20.70891],[-46.60677,-20.70875],[-46.60618,-20.70928],[-46.6057,-20.70974],[-46.60548,-20.70996],[-46.603,-20.70903],[-46.59193,-20.71041],[-46.58868,-20.71037],[-46.49486,-20.65992],[-46.5264,-20.6603],[-46.5861,-20.6392],[-46.5945,-20.567],[-46.62106,-20.55292]]],[[[-46.61187,-20.70899],[-46.61168,-20.71227],[-46.6094,-20.71142],[-46.60965,-20.71032],[-46.60966,-20.71004],[-46.60964,-20.70987],[-46.60959,-20.70952],[-46.60951,-20.70926],[-46.61114,-20.70814],[-46.61187,-20.70899]]]]}},{"type":"Feature","properties":{"territory_id":"mg-3147907-muarama","name":"Muarama","municipality_id":"mg-3147907","polling_places":1,"approx":false,"official":true,"method":"official-ibge-cd2022","whole_municipality":false,"approx_coords_only":false,"official_name":"Muarama","official_code":"3147907009","match":"direct"},"geometry":{"type":"MultiPolygon","coordinates":[[[[-46.61414,-20.72486],[-46.61412,-20.7246],[-46.61413,-20.72433],[-46.61444,-20.72331],[-46.6146,-20.72283],[-46.61467,-20.72255],[-46.61427,-20.72235],[-46.61331,-20.72214],[-46.6133,-20.72219],[-46.61325,-20.72226],[-46.61286,-20.72367],[-46.61272,-20.72403],[-46.61236,-20.72482],[-46.61223,-20.72491],[-46.61192,-20.72553],[-46.61155,-20.72634],[-46.61149,-20.7264],[-46.61112,-20.72725],[-46.61112,-20.72728],[-46.61108,-20.72732],[-46.61107,-20.72737],[-46.61101,-20.72744],[-46.61032,-20.72893],[-46.61042,-20.72896],[-46.61032,-20.72911],[-46.60884,-20.73071],[-46.60734,-20.73247],[-46.60698,-20.73293],[-46.60942,-20.73498],[-46.61032,-20.73581],[-46.61083,-20.73635],[-46.61138,-20.7368],[-46.61182,-20.73728],[-46.6151,-20.73963],[-46.61841,-20.73902],[-46.61807,-20.73872],[-46.61797,-20.73865],[-46.61778,-20.73843],[-46.61764,-20.73837],[-46.6176,-20.73834],[-46.61759,-20.73822],[-46.61759,-20.73804],[-46.61763,-20.73795],[-46.61767,-20.73793],[-46.61773,-20.73805],[-46.6178,-20.73805],[-46.61781,-20.73808],[-46.61788,-20.73814],[-46.61796,-20.73816],[-46.61802,-20.73819],[-46.61809,-20.7382],[-46.61828,-20.73819],[-46.61839,-20.73809],[-46.61841,-20.738],[-46.61837,-20.7379],[-46.61837,-20.73786],[-46.61831,-20.73786],[-46.61821,-20.73778],[-46.61815,-20.73768],[-46.61808,-20.73768],[-46.61804,-20.73766],[-46.61801,-20.7375],[-46.61792,-20.73738],[-46.61791,-20.73724],[-46.61794,-20.73711],[-46.61788,-20.73702],[-46.61795,-20.73694],[-46.61796,-20.7369],[-46.61793,-20.73686],[-46.61784,-20.7369],[-46.61776,-20.7369],[-46.61772,-20.73687],[-46.61767,-20.73678],[-46.61761,-20.73674],[-46.61752,-20.73671],[-46.61749,-20.73667],[-46.61748,-20.73664],[-46.61721,-20.73639],[-46.61709,-20.73623],[-46.61705,-20.73609],[-46.61705,-20.73592],[-46.6172,-20.7356],[-46.6172,-20.73547],[-46.61716,-20.73521],[-46.61706,-20.73507],[-46.61695,-20.73494],[-46.61688,-20.73481],[-46.6168,-20.73478],[-46.61662,-20.73462],[-46.61662,-20.73453],[-46.61658,-20.73452],[-46.61655,-20.73447],[-46.61656,-20.73435],[-46.61662,-20.73431],[-46.61665,-20.73424],[-46.61664,-20.73415],[-46.61668,-20.73403],[-46.61668,-20.73398],[-46.61662,-20.73388],[-46.61661,-20.73382],[-46.61667,-20.73363],[-46.61677,-20.73355],[-46.61667,-20.73323],[-46.61666,-20.73298],[-46.61675,-20.73295],[-46.61682,-20.73288],[-46.61684,-20.73284],[-46.61685,-20.7327],[-46.61682,-20.73261],[-46.61675,-20.73255],[-46.61665,-20.73251],[-46.61656,-20.73253],[-46.61646,-20.73256],[-46.61628,-20.73193],[-46.6161,-20.73181],[-46.61581,-20.7311],[-46.61578,-20.73069],[-46.61578,-20.73015],[-46.61593,-20.72857],[-46.61589,-20.72796],[-46.61581,-20.7274],[-46.61575,-20.72716],[-46.61552,-20.7266],[-46.61544,-20.72648],[-46.61529,-20.72634],[-46.61518,-20.72621],[-46.61475,-20.72581],[-46.6144,-20.72544],[-46.61433,-20.72532],[-46.61426,-20.72516],[-46.61414,-20.72487],[-46.61414,-20.72486]]]]}},{"type":"Feature","properties":{"territory_id":"mg-3147907-nossa-senhora-aparecida","name":"Nossa Senhora Aparecida","municipality_id":"mg-3147907","polling_places":1,"approx":false,"official":true,"method":"official-ibge-cd2022","whole_municipality":false,"approx_coords_only":false,"official_name":"Nossa Senhora Aparecida","official_code":"3147907022","match":"direct"},"geometry":{"type":"MultiPolygon","coordinates":[[[[-46.60793,-20.75709],[-46.60858,-20.75667],[-46.60886,-20.75662],[-46.60788,-20.75509],[-46.60802,-20.75496],[-46.609,-20.75415],[-46.6098,-20.7536],[-46.60937,-20.75308],[-46.60959,-20.75292],[-46.60976,-20.75291],[-46.60983,-20.75288],[-46.60894,-20.75173],[-46.60867,-20.75178],[-46.60895,-20.75088],[-46.60923,-20.75003],[-46.60923,-20.74999],[-46.60989,-20.74788],[-46.60839,-20.74722],[-46.60882,-20.74584],[-46.60924,-20.74475],[-46.6145,-20.74697],[-46.61467,-20.74697],[-46.61457,-20.74681],[-46.61453,-20.74662],[-46.61451,-20.74615],[-46.61452,-20.74598],[-46.61456,-20.74573],[-46.6145,-20.74548],[-46.61455,-20.74545],[-46.61455,-20.74537],[-46.61461,-20.7453],[-46.61464,-20.74501],[-46.61463,-20.74494],[-46.61464,-20.74444],[-46.61467,-20.74438],[-46.61463,-20.74427],[-46.61461,-20.74412],[-46.61454,-20.74401],[-46.61449,-20.74387],[-46.61449,-20.74367],[-46.6146,-20.74359],[-46.61466,-20.74351],[-46.61474,-20.74331],[-46.61483,-20.74308],[-46.61489,-20.74304],[-46.61492,-20.74292],[-46.61505,-20.74284],[-46.61507,-20.74271],[-46.61522,-20.74255],[-46.61516,-20.7424],[-46.61508,-20.74233],[-46.6151,-20.74207],[-46.61519,-20.74199],[-46.61523,-20.74191],[-46.61528,-20.74186],[-46.61527,-20.74171],[-46.61531,-20.74162],[-46.61542,-20.7415],[-46.61551,-20.74143],[-46.61551,-20.74139],[-46.61561,-20.74132],[-46.61563,-20.74115],[-46.61588,-20.74078],[-46.61586,-20.74071],[-46.61588,-20.74067],[-46.616,-20.74056],[-46.61607,-20.74044],[-46.61621,-20.74025],[-46.61642,-20.73938],[-46.6151,-20.73963],[-46.61202,-20.74015],[-46.61121,-20.74031],[-46.60808,-20.74084],[-46.6076,-20.74095],[-46.60741,-20.74097],[-46.60671,-20.74101],[-46.60562,-20.74103],[-46.60502,-20.74096],[-46.60384,-20.74072],[-46.6023,-20.74035],[-46.60156,-20.74019],[-46.60156,-20.74037],[-46.60166,-20.7405],[-46.60199,-20.7406],[-46.60187,-20.74072],[-46.6018,-20.74085],[-46.6013,-20.74237],[-46.602,-20.74259],[-46.60267,-20.74275],[-46.60334,-20.74294],[-46.60394,-20.74319],[-46.60409,-20.74318],[-46.60453,-20.74393],[-46.60528,-20.74459],[-46.6055,-20.74482],[-46.60565,-20.74502],[-46.60577,-20.7453],[-46.60578,-20.74543],[-46.60621,-20.74706],[-46.60631,-20.74757],[-46.60637,-20.74807],[-46.60667,-20.7492],[-46.6067,-20.74957],[-46.60673,-20.75035],[-46.60673,-20.75099],[-46.60665,-20.75209],[-46.60631,-20.75323],[-46.60611,-20.75341],[-46.60523,-20.75404],[-46.60248,-20.75594],[-46.60194,-20.75638],[-46.60178,-20.7566],[-46.60168,-20.75686],[-46.60179,-20.75718],[-46.60169,-20.76153],[-46.60335,-20.76118],[-46.60347,-20.76118],[-46.60366,-20.76123],[-46.60414,-20.76128],[-46.60419,-20.76129],[-46.60419,-20.76131],[-46.60429,-20.76129],[-46.60432,-20.76126],[-46.60461,-20.76109],[-46.60482,-20.76105],[-46.60526,-20.76102],[-46.6053,-20.76095],[-46.60546,-20.7608],[-46.60568,-20.76083],[-46.60588,-20.7609],[-46.60602,-20.76091],[-46.60605,-20.76092],[-46.6063,-20.76092],[-46.60663,-20.76058],[-46.60677,-20.7603],[-46.60413,-20.75763],[-46.60591,-20.75641],[-46.60689,-20.75778],[-46.60793,-20.75709]]]]}},{"type":"Feature","properties":{"territory_id":"mg-3147907-nossa-senhora-das-gracas","name":"Nossa Senhora das Gracas","municipality_id":"mg-3147907","polling_places":1,"approx":false,"official":true,"method":"official-ibge-cd2022","whole_municipality":false,"approx_coords_only":false,"official_name":"Nossa Senhora das Graças","official_code":"3147907008","match":"direct"},"geometry":{"type":"MultiPolygon","coordinates":[[[[-46.60671,-20.74101],[-46.60741,-20.74097],[-46.6076,-20.74095],[-46.60808,-20.74084],[-46.6151,-20.73963],[-46.61182,-20.73728],[-46.61138,-20.7368],[-46.61083,-20.73635],[-46.61032,-20.73581],[-46.60942,-20.73498],[-46.60698,-20.73293],[-46.6057,-20.73438],[-46.60555,-20.73449],[-46.60529,-20.73455],[-46.60508,-20.73453],[-46.60414,-20.73423],[-46.60403,-20.73431],[-46.60386,-20.73434],[-46.60382,-20.73441],[-46.60284,-20.73738],[-46.60265,-20.73789],[-46.60206,-20.73969],[-46.60197,-20.73988],[-46.60184,-20.74001],[-46.60167,-20.74008],[-46.60156,-20.74019],[-46.6023,-20.74035],[-46.60384,-20.74072],[-46.60502,-20.74096],[-46.60562,-20.74103],[-46.60671,-20.74101]]]]}},{"type":"Feature","properties":{"territory_id":"mg-3147907-parque-casarao","name":"Parque Casarao","municipality_id":"mg-3147907","polling_places":1,"approx":true,"official":false,"method":"voronoi-polling-places","whole_municipality":false,"approx_coords_only":false},"geometry":{"type":"MultiPolygon","coordinates":[[[[-46.59977,-20.72407],[-46.58246,-20.74196],[-46.4107,-20.78897],[-46.4063,-20.7379],[-46.3808,-20.6929],[-46.399,-20.6738],[-46.4358,-20.6913],[-46.4685,-20.6596],[-46.49486,-20.65992],[-46.58868,-20.71037],[-46.59977,-20.72407]]]]}},{"type":"Feature","properties":{"territory_id":"mg-3147907-penha","name":"Penha","municipality_id":"mg-3147907","polling_places":3,"approx":false,"official":true,"method":"official-ibge-cd2022","whole_municipality":false,"approx_coords_only":false,"official_name":"Penha","official_code":"3147907003","match":"direct"},"geometry":{"type":"MultiPolygon","coordinates":[[[[-46.61499,-20.71654],[-46.61305,-20.71648],[-46.61309,-20.71778],[-46.61365,-20.71819],[-46.61377,-20.71813],[-46.61406,-20.7183],[-46.61441,-20.71843],[-46.61485,-20.71854],[-46.61516,-20.71857],[-46.61565,-20.71866],[-46.61577,-20.7188],[-46.61587,-20.71886],[-46.616,-20.71889],[-46.61607,-20.71889],[-46.61612,-20.71905],[-46.61629,-20.71906],[-46.61641,-20.71911],[-46.61642,-20.71914],[-46.61648,-20.71918],[-46.61652,-20.71925],[-46.6166,-20.71929],[-46.61677,-20.71943],[-46.61702,-20.71953],[-46.61715,-20.71953],[-46.61721,-20.71948],[-46.61731,-20.71949],[-46.61745,-20.71954],[-46.61756,-20.7196],[-46.6176,-20.71965],[-46.61772,-20.71966],[-46.61789,-20.71974],[-46.61805,-20.7198],[-46.61812,-20.71987],[-46.61813,-20.71991],[-46.61836,-20.72005],[-46.61848,-20.7202],[-46.61863,-20.72031],[-46.61874,-20.72037],[-46.61918,-20.72085],[-46.61924,-20.72089],[-46.61927,-20.72089],[-46.61939,-20.721],[-46.61954,-20.72111],[-46.61963,-20.72114],[-46.61976,-20.72124],[-46.61984,-20.72133],[-46.62008,-20.72146],[-46.6202,-20.72147],[-46.62034,-20.72152],[-46.62069,-20.7215],[-46.62079,-20.72154],[-46.62085,-20.72155],[-46.621,-20.72153],[-46.6212,-20.7214],[-46.62142,-20.7215],[-46.62174,-20.72153],[-46.62184,-20.7215],[-46.62226,-20.72151],[-46.62235,-20.72156],[-46.62244,-20.72169],[-46.62251,-20.72174],[-46.62259,-20.72177],[-46.62277,-20.72178],[-46.62291,-20.72185],[-46.623,-20.72193],[-46.62309,-20.72222],[-46.62311,-20.72259],[-46.62309,-20.72271],[-46.62306,-20.72275],[-46.62306,-20.72284],[-46.62318,-20.72299],[-46.62334,-20.72306],[-46.62351,-20.72309],[-46.62372,-20.72327],[-46.62382,-20.72339],[-46.62397,-20.72362],[-46.62407,-20.72371],[-46.6241,-20.72376],[-46.62421,-20.72384],[-46.62424,-20.72389],[-46.62429,-20.72393],[-46.62432,-20.72412],[-46.62464,-20.72442],[-46.62477,-20.7245],[-46.62497,-20.72459],[-46.62505,-20.72461],[-46.62514,-20.72466],[-46.6254,-20.72489],[-46.62542,-20.72499],[-46.62566,-20.72511],[-46.62571,-20.72505],[-46.62578,-20.72512],[-46.62591,-20.7252],[-46.62611,-20.72523],[-46.62645,-20.72552],[-46.62645,-20.72564],[-46.62656,-20.7258],[-46.62657,-20.72587],[-46.62667,-20.72598],[-46.62675,-20.72597],[-46.62689,-20.72599],[-46.62702,-20.72597],[-46.62713,-20.72599],[-46.62732,-20.72623],[-46.62756,-20.72634],[-46.62757,-20.72644],[-46.62773,-20.72661],[-46.62791,-20.72669],[-46.6281,-20.72689],[-46.62856,-20.727],[-46.62876,-20.72708],[-46.62885,-20.72716],[-46.62886,-20.72725],[-46.62884,-20.72727],[-46.62895,-20.72738],[-46.62917,-20.72752],[-46.62935,-20.72766],[-46.62942,-20.72778],[-46.62978,-20.72805],[-46.62999,-20.72808],[-46.63018,-20.72815],[-46.63026,-20.72824],[-46.63043,-20.72837],[-46.63076,-20.72852],[-46.63101,-20.72855],[-46.63117,-20.72859],[-46.63128,-20.72859],[-46.63155,-20.72873],[-46.63169,-20.72875],[-46.63175,-20.72869],[-46.63175,-20.72847],[-46.63185,-20.72842],[-46.63188,-20.72833],[-46.63193,-20.7283],[-46.63199,-20.72829],[-46.63212,-20.7283],[-46.63227,-20.72819],[-46.63229,-20.72799],[-46.63246,-20.72779],[-46.63246,-20.72763],[-46.63248,-20.72758],[-46.63274,-20.72756],[-46.63277,-20.72752],[-46.63282,-20.72751],[-46.63287,-20.72752],[-46.63296,-20.72748],[-46.63301,-20.72743],[-46.63313,-20.72737],[-46.63322,-20.72728],[-46.63327,-20.72725],[-46.63343,-20.72708],[-46.63357,-20.72708],[-46.63381,-20.72714],[-46.63397,-20.72716],[-46.63407,-20.72725],[-46.63421,-20.72722],[-46.63484,-20.72695],[-46.63502,-20.72694],[-46.6352,-20.72687],[-46.63537,-20.72674],[-46.6354,-20.72669],[-46.6356,-20.72648],[-46.6357,-20.72625],[-46.6357,-20.72614],[-46.63573,-20.72609],[-46.63583,-20.72603],[-46.63619,-20.726],[-46.63634,-20.726],[-46.63648,-20.72613],[-46.63662,-20.72617],[-46.63681,-20.72626],[-46.63708,-20.72636],[-46.63715,-20.72642],[-46.63725,-20.72646],[-46.63731,-20.72647],[-46.63739,-20.72645],[-46.63745,-20.72642],[-46.63754,-20.72635],[-46.63773,-20.72642],[-46.63777,-20.72642],[-46.63785,-20.72634],[-46.63789,-20.72634],[-46.63809,-20.72643],[-46.63825,-20.72656],[-46.63841,-20.72661],[-46.63859,-20.72671],[-46.63862,-20.72674],[-46.63865,-20.72674],[-46.63878,-20.72663],[-46.63891,-20.72656],[-46.63898,-20.72656],[-46.6391,-20.72664],[-46.63915,-20.7266],[-46.63924,-20.72647],[-46.63927,-20.72646],[-46.63934,-20.72648],[-46.6395,-20.72664],[-46.63956,-20.72659],[-46.63957,-20.7264],[-46.63949,-20.72631],[-46.63948,-20.72628],[-46.63953,-20.72617],[-46.63973,-20.72598],[-46.63981,-20.72596],[-46.63997,-20.72602],[-46.64002,-20.72602],[-46.64017,-20.72593],[-46.64028,-20.72581],[-46.64053,-20.72561],[-46.6408,-20.72551],[-46.64087,-20.72546],[-46.64105,-20.72538],[-46.64114,-20.72537],[-46.64121,-20.72528],[-46.64125,-20.72525],[-46.64149,-20.72525],[-46.64168,-20.7252],[-46.6418,-20.72515],[-46.64198,-20.72501],[-46.64203,-20.72492],[-46.64204,-20.72472],[-46.64216,-20.72459],[-46.64231,-20.7245],[-46.64251,-20.72441],[-46.64276,-20.72424],[-46.64309,-20.72398],[-46.64327,-20.72367],[-46.64367,-20.72328],[-46.64392,-20.72301],[-46.64398,-20.72297],[-46.64403,-20.72297],[-46.64536,-20.72228],[-46.6453,-20.72216],[-46.64425,-20.72154],[-46.64337,-20.7215],[-46.64298,-20.72166],[-46.64211,-20.7219],[-46.64104,-20.72228],[-46.64031,-20.72248],[-46.63986,-20.72253],[-46.63936,-20.72263],[-46.63818,-20.72275],[-46.63762,-20.72274],[-46.63482,-20.7224],[-46.63443,-20.72238],[-46.63344,-20.72256],[-46.63296,-20.72267],[-46.63252,-20.72266],[-46.63199,-20.72257],[-46.6317,-20.72249],[-46.63142,-20.72237],[-46.63118,-20.72222],[-46.63095,-20.72202],[-46.63063,-20.7217],[-46.63051,-20.72166],[-46.6303,-20.72162],[-46.62997,-20.7215],[-46.62988,-20.72137],[-46.62985,-20.72117],[-46.62984,-20.72098],[-46.62979,-20.72054],[-46.62958,-20.72014],[-46.62971,-20.72023],[-46.62999,-20.72025],[-46.63047,-20.72024],[-46.63066,-20.72018],[-46.62958,-20.71899],[-46.6293,-20.71879],[-46.62858,-20.71844],[-46.6286,-20.71773],[-46.6285,-20.71651],[-46.62848,-20.71499],[-46.62673,-20.71512],[-46.62577,-20.71523],[-46.62477,-20.71531],[-46.62478,-20.71518],[-46.62476,-20.7145],[-46.62415,-20.71455],[-46.6235,-20.71431],[-46.62362,-20.71424],[-46.62399,-20.71391],[-46.62428,-20.71361],[-46.62462,-20.71308],[-46.62476,-20.71278],[-46.62488,-20.71246],[-46.62495,-20.71211],[-46.62499,-20.71157],[-46.62499,-20.71132],[-46.62496,-20.71103],[-46.62489,-20.71072],[-46.62477,-20.71036],[-46.62457,-20.70992],[-46.62422,-20.70941],[-46.62386,-20.70899],[-46.62343,-20.70857],[-46.62314,-20.70835],[-46.62251,-20.70797],[-46.62229,-20.7078],[-46.62217,-20.70768],[-46.62209,-20.70752],[-46.62167,-20.70769],[-46.62137,-20.70793],[-46.62126,-20.70806],[-46.6212,-20.70832],[-46.62107,-20.7091],[-46.62074,-20.70973],[-46.61987,-20.71033],[-46.61951,-20.71055],[-46.61889,-20.71088],[-46.61873,-20.71098],[-46.6185,-20.71118],[-46.61639,-20.71275],[-46.61647,-20.71319],[-46.61646,-20.71362],[-46.61641,-20.71371],[-46.61636,-20.71389],[-46.61629,-20.71405],[-46.61586,-20.71479],[-46.61558,-20.71546],[-46.61569,-20.71546],[-46.61558,-20.71655],[-46.61499,-20.71654]]]]}},{"type":"Feature","properties":{"territory_id":"mg-3147907-penha-ii","name":"Penha Ii","municipality_id":"mg-3147907","polling_places":1,"approx":true,"official":false,"method":"voronoi-polling-places","whole_municipality":false,"approx_coords_only":false},"geometry":{"type":"MultiPolygon","coordinates":[[[[-46.64374,-20.69868],[-46.63048,-20.71997],[-46.62958,-20.71899],[-46.6293,-20.71879],[-46.62858,-20.71844],[-46.6286,-20.71773],[-46.6285,-20.71651],[-46.62848,-20.71499],[-46.62673,-20.71512],[-46.62577,-20.71523],[-46.62477,-20.71531],[-46.62478,-20.71518],[-46.62476,-20.7145],[-46.62415,-20.71455],[-46.6235,-20.71431],[-46.62362,-20.71424],[-46.62399,-20.71391],[-46.62428,-20.71361],[-46.62462,-20.71308],[-46.62476,-20.71278],[-46.62488,-20.71246],[-46.62495,-20.71211],[-46.62499,-20.71157],[-46.62499,-20.71132],[-46.62496,-20.71103],[-46.62489,-20.71072],[-46.62477,-20.71036],[-46.62458,-20.70994],[-46.64374,-20.69868]]],[[[-46.63031,-20.72024],[-46.62984,-20.72099],[-46.62984,-20.72098],[-46.62979,-20.72054],[-46.62958,-20.72014],[-46.62971,-20.72023],[-46.62999,-20.72025],[-46.63031,-20.72024]]],[[[-46.62373,-20.7308],[-46.6227,-20.73244],[-46.62213,-20.73175],[-46.62373,-20.7308]]],[[[-46.61571,-20.71516],[-46.61558,-20.71546],[-46.61569,-20.71546],[-46.61558,-20.71655],[-46.61499,-20.71654],[-46.61344,-20.71649],[-46.61571,-20.71516]]]]}},{"type":"Feature","properties":{"territory_id":"mg-3147907-sao-benedito","name":"Sao Benedito","municipality_id":"mg-3147907","polling_places":2,"approx":false,"official":true,"method":"official-ibge-cd2022","whole_municipality":false,"approx_coords_only":false,"official_name":"São Benedito","official_code":"3147907006","match":"direct"},"geometry":{"type":"MultiPolygon","coordinates":[[[[-46.60394,-20.72135],[-46.6038,-20.72112],[-46.60411,-20.71976],[-46.60658,-20.71866],[-46.60423,-20.71635],[-46.60241,-20.71855],[-46.60228,-20.7184],[-46.60159,-20.71777],[-46.59987,-20.71938],[-46.59787,-20.72123],[-46.59852,-20.72178],[-46.5986,-20.72194],[-46.59885,-20.72218],[-46.5991,-20.72248],[-46.59999,-20.72398],[-46.60073,-20.72527],[-46.60218,-20.72492],[-46.60353,-20.72452],[-46.60558,-20.72404],[-46.60429,-20.72196],[-46.60394,-20.72135]]]]}},{"type":"Feature","properties":{"territory_id":"mg-3147907-sao-francisco","name":"Sao Francisco","municipality_id":"mg-3147907","polling_places":2,"approx":false,"official":true,"method":"official-ibge-cd2022","whole_municipality":false,"approx_coords_only":false,"official_name":"São Francisco","official_code":"3147907002","match":"direct"},"geometry":{"type":"MultiPolygon","coordinates":[[[[-46.6184,-20.73332],[-46.61918,-20.73343],[-46.62093,-20.73251],[-46.62093,-20.73247],[-46.62419,-20.73052],[-46.62521,-20.73167],[-46.62544,-20.73203],[-46.62629,-20.73359],[-46.62658,-20.73399],[-46.62702,-20.73439],[-46.62747,-20.73473],[-46.62826,-20.73527],[-46.63098,-20.73702],[-46.631,-20.73709],[-46.63052,-20.73719],[-46.63034,-20.73729],[-46.63254,-20.73783],[-46.63493,-20.73843],[-46.63582,-20.73856],[-46.63658,-20.73858],[-46.63875,-20.73858],[-46.64176,-20.73748],[-46.64879,-20.7375],[-46.64509,-20.73124],[-46.64506,-20.73113],[-46.64617,-20.72839],[-46.64632,-20.7277],[-46.64645,-20.7268],[-46.64604,-20.72398],[-46.64598,-20.72368],[-46.6459,-20.72343],[-46.64536,-20.72228],[-46.64403,-20.72297],[-46.64398,-20.72297],[-46.64392,-20.72301],[-46.64367,-20.72328],[-46.64327,-20.72367],[-46.64309,-20.72398],[-46.64276,-20.72424],[-46.64251,-20.72441],[-46.64231,-20.7245],[-46.64216,-20.72459],[-46.64204,-20.72472],[-46.64203,-20.72492],[-46.64198,-20.72501],[-46.6418,-20.72515],[-46.64168,-20.7252],[-46.64149,-20.72525],[-46.64125,-20.72525],[-46.64121,-20.72528],[-46.64114,-20.72537],[-46.64105,-20.72538],[-46.64087,-20.72546],[-46.6408,-20.72551],[-46.64053,-20.72561],[-46.64028,-20.72581],[-46.64017,-20.72593],[-46.64002,-20.72602],[-46.63997,-20.72602],[-46.63981,-20.72596],[-46.63973,-20.72598],[-46.63953,-20.72617],[-46.63948,-20.72628],[-46.63949,-20.72631],[-46.63957,-20.7264],[-46.63956,-20.72659],[-46.6395,-20.72664],[-46.63934,-20.72648],[-46.63927,-20.72646],[-46.63924,-20.72647],[-46.63915,-20.7266],[-46.6391,-20.72664],[-46.63898,-20.72656],[-46.63891,-20.72656],[-46.63878,-20.72663],[-46.63865,-20.72674],[-46.63862,-20.72674],[-46.63859,-20.72671],[-46.63841,-20.72661],[-46.63825,-20.72656],[-46.63809,-20.72643],[-46.63789,-20.72634],[-46.63785,-20.72634],[-46.63777,-20.72642],[-46.63773,-20.72642],[-46.63754,-20.72635],[-46.63745,-20.72642],[-46.63739,-20.72645],[-46.63731,-20.72647],[-46.63725,-20.72646],[-46.63715,-20.72642],[-46.63708,-20.72636],[-46.63681,-20.72626],[-46.63662,-20.72617],[-46.63648,-20.72613],[-46.63634,-20.726],[-46.63619,-20.726],[-46.63583,-20.72603],[-46.63573,-20.72609],[-46.6357,-20.72614],[-46.6357,-20.72625],[-46.6356,-20.72648],[-46.6354,-20.72669],[-46.63537,-20.72674],[-46.6352,-20.72687],[-46.63502,-20.72694],[-46.63484,-20.72695],[-46.63421,-20.72722],[-46.63407,-20.72725],[-46.63397,-20.72716],[-46.63381,-20.72714],[-46.63357,-20.72708],[-46.63343,-20.72708],[-46.63327,-20.72725],[-46.63322,-20.72728],[-46.63313,-20.72737],[-46.63301,-20.72743],[-46.63296,-20.72748],[-46.63287,-20.72752],[-46.63282,-20.72751],[-46.63277,-20.72752],[-46.63274,-20.72756],[-46.63248,-20.72758],[-46.63246,-20.72763],[-46.63246,-20.72779],[-46.63229,-20.72799],[-46.63227,-20.72819],[-46.63212,-20.7283],[-46.63199,-20.72829],[-46.63193,-20.7283],[-46.63188,-20.72833],[-46.63185,-20.72842],[-46.63175,-20.72847],[-46.63175,-20.72869],[-46.63169,-20.72875],[-46.63155,-20.72873],[-46.63128,-20.72859],[-46.63117,-20.72859],[-46.63101,-20.72855],[-46.63076,-20.72852],[-46.63043,-20.72837],[-46.63026,-20.72824],[-46.63018,-20.72815],[-46.62999,-20.72808],[-46.62978,-20.72805],[-46.62942,-20.72778],[-46.62935,-20.72766],[-46.62917,-20.72752],[-46.62895,-20.72738],[-46.62884,-20.72727],[-46.62886,-20.72725],[-46.62885,-20.72716],[-46.62876,-20.72708],[-46.62856,-20.727],[-46.6281,-20.72689],[-46.62791,-20.72669],[-46.62773,-20.72661],[-46.62757,-20.72644],[-46.62756,-20.72634],[-46.62732,-20.72623],[-46.62713,-20.72599],[-46.62702,-20.72597],[-46.62689,-20.72599],[-46.62675,-20.72597],[-46.62667,-20.72598],[-46.62657,-20.72587],[-46.62656,-20.7258],[-46.62645,-20.72564],[-46.62645,-20.72552],[-46.62611,-20.72523],[-46.62591,-20.7252],[-46.62578,-20.72512],[-46.62571,-20.72505],[-46.62566,-20.72511],[-46.62542,-20.72499],[-46.6254,-20.72489],[-46.62514,-20.72466],[-46.62505,-20.72461],[-46.62497,-20.72459],[-46.62477,-20.7245],[-46.62464,-20.72442],[-46.62432,-20.72412],[-46.62429,-20.72393],[-46.62424,-20.72389],[-46.62421,-20.72384],[-46.6241,-20.72376],[-46.62407,-20.72371],[-46.62397,-20.72362],[-46.62382,-20.72339],[-46.62372,-20.72327],[-46.62351,-20.72309],[-46.62334,-20.72306],[-46.62318,-20.72299],[-46.62306,-20.72284],[-46.62306,-20.72275],[-46.62309,-20.72271],[-46.62311,-20.72259],[-46.62309,-20.72222],[-46.623,-20.72193],[-46.62291,-20.72185],[-46.62277,-20.72178],[-46.62259,-20.72177],[-46.62251,-20.72174],[-46.62244,-20.72169],[-46.62235,-20.72156],[-46.62226,-20.72151],[-46.62184,-20.7215],[-46.62174,-20.72153],[-46.62142,-20.7215],[-46.6212,-20.7214],[-46.621,-20.72153],[-46.62085,-20.72155],[-46.62079,-20.72154],[-46.62069,-20.7215],[-46.62034,-20.72152],[-46.6202,-20.72147],[-46.62008,-20.72146],[-46.61984,-20.72133],[-46.61976,-20.72124],[-46.61963,-20.72114],[-46.61954,-20.72111],[-46.61939,-20.721],[-46.61927,-20.72089],[-46.61924,-20.72089],[-46.61918,-20.72085],[-46.61874,-20.72037],[-46.61863,-20.72031],[-46.61848,-20.7202],[-46.61836,-20.72005],[-46.61813,-20.71991],[-46.61812,-20.71987],[-46.61805,-20.7198],[-46.61789,-20.71974],[-46.61772,-20.71966],[-46.6176,-20.71965],[-46.61756,-20.7196],[-46.61745,-20.71954],[-46.61731,-20.71949],[-46.61721,-20.71948],[-46.61715,-20.71953],[-46.61702,-20.71953],[-46.61677,-20.71943],[-46.6166,-20.71929],[-46.61652,-20.71925],[-46.61648,-20.71918],[-46.61642,-20.71914],[-46.61641,-20.71911],[-46.61629,-20.71906],[-46.61612,-20.71905],[-46.61607,-20.71889],[-46.616,-20.71889],[-46.61587,-20.71886],[-46.61577,-20.7188],[-46.61565,-20.71866],[-46.61516,-20.71857],[-46.61485,-20.71854],[-46.61441,-20.71843],[-46.61406,-20.7183],[-46.61377,-20.71813],[-46.61365,-20.71819],[-46.61309,-20.71778],[-46.61303,-20.71813],[-46.61287,-20.71876],[-46.61284,-20.71884],[-46.61284,-20.71897],[-46.61286,-20.71909],[-46.61291,-20.71923],[-46.61297,-20.71937],[-46.61312,-20.71951],[-46.6135,-20.71974],[-46.6136,-20.71983],[-46.61366,-20.72003],[-46.61365,-20.72024],[-46.61362,-20.72044],[-46.61331,-20.72129],[-46.61326,-20.72152],[-46.61327,-20.72173],[-46.61331,-20.72214],[-46.61427,-20.72235],[-46.61467,-20.72255],[-46.6146,-20.72283],[-46.61444,-20.72331],[-46.61413,-20.72433],[-46.61412,-20.7246],[-46.61414,-20.72487],[-46.61426,-20.72516],[-46.61433,-20.72532],[-46.6144,-20.72544],[-46.61475,-20.72581],[-46.61518,-20.72621],[-46.61529,-20.72634],[-46.61544,-20.72648],[-46.61552,-20.7266],[-46.61575,-20.72716],[-46.61581,-20.7274],[-46.61589,-20.72796],[-46.61593,-20.72857],[-46.61578,-20.73015],[-46.61578,-20.73069],[-46.61581,-20.7311],[-46.6161,-20.73181],[-46.61628,-20.73193],[-46.61646,-20.73256],[-46.61656,-20.73253],[-46.61665,-20.73251],[-46.61675,-20.73255],[-46.61682,-20.73261],[-46.61685,-20.7327],[-46.61684,-20.73284],[-46.61682,-20.73288],[-46.61675,-20.73295],[-46.61666,-20.73298],[-46.61667,-20.73323],[-46.61677,-20.73355],[-46.61667,-20.73363],[-46.61661,-20.73382],[-46.61662,-20.73388],[-46.61668,-20.73398],[-46.61668,-20.73403],[-46.61664,-20.73415],[-46.61665,-20.73424],[-46.61662,-20.73431],[-46.61656,-20.73435],[-46.61655,-20.73447],[-46.61658,-20.73452],[-46.61662,-20.73453],[-46.61662,-20.73462],[-46.6168,-20.73478],[-46.61688,-20.73481],[-46.61695,-20.73494],[-46.61706,-20.73507],[-46.61716,-20.73521],[-46.6172,-20.73547],[-46.6172,-20.7356],[-46.61705,-20.73592],[-46.61705,-20.73609],[-46.61709,-20.73623],[-46.61721,-20.73639],[-46.61748,-20.73664],[-46.61749,-20.73667],[-46.61752,-20.73671],[-46.61761,-20.73674],[-46.61767,-20.73678],[-46.61772,-20.73687],[-46.61776,-20.7369],[-46.61784,-20.7369],[-46.61793,-20.73686],[-46.61796,-20.7369],[-46.61795,-20.73694],[-46.61788,-20.73702],[-46.61794,-20.73711],[-46.61791,-20.73724],[-46.61792,-20.73738],[-46.61801,-20.7375],[-46.61804,-20.73766],[-46.61808,-20.73768],[-46.61815,-20.73768],[-46.61821,-20.73778],[-46.61831,-20.73786],[-46.61837,-20.73786],[-46.61837,-20.7379],[-46.61841,-20.738],[-46.61839,-20.73809],[-46.61828,-20.73819],[-46.61809,-20.7382],[-46.61802,-20.73819],[-46.61796,-20.73816],[-46.61788,-20.73814],[-46.61781,-20.73808],[-46.6178,-20.73805],[-46.61773,-20.73805],[-46.61767,-20.73793],[-46.61763,-20.73795],[-46.61759,-20.73804],[-46.6176,-20.73834],[-46.61764,-20.73837],[-46.61778,-20.73843],[-46.61797,-20.73865],[-46.61807,-20.73872],[-46.61841,-20.73902],[-46.62038,-20.73867],[-46.62029,-20.7382],[-46.62007,-20.73789],[-46.62004,-20.73715],[-46.62,-20.7369],[-46.61977,-20.7361],[-46.61961,-20.73574],[-46.61923,-20.73517],[-46.619,-20.73491],[-46.61868,-20.7346],[-46.61871,-20.73411],[-46.61851,-20.73359],[-46.6184,-20.73332]]]]}}]}