{"type":"FeatureCollection","features":[{"type":"Feature","properties":{"territory_id":"mg-3147402-barao-antonio-candido","name":"Barão Antônio Cândido","municipality_id":"mg-3147402","polling_places":1,"approx":true,"official":false,"method":"voronoi-polling-places","whole_municipality":false,"approx_coords_only":false},"geometry":{"type":"MultiPolygon","coordinates":[[[[-44.42989,-19.14483],[-44.40258,-19.2725],[-44.40034,-19.27609],[-44.39434,-19.27104],[-44.39778,-19.15765],[-44.4093,-19.13],[-44.42989,-19.14483]]]]}},{"type":"Feature","properties":{"territory_id":"mg-3147402-centro","name":"Centro","municipality_id":"mg-3147402","polling_places":3,"approx":true,"official":false,"method":"voronoi-polling-places","whole_municipality":false,"approx_coords_only":false},"geometry":{"type":"MultiPolygon","coordinates":[[[[-44.55944,-19.19323],[-44.40434,-19.27876],[-44.4037,-19.27961],[-44.40286,-19.28071],[-44.39952,-19.27914],[-44.40034,-19.27609],[-44.40258,-19.2725],[-44.42989,-19.14483],[-44.4565,-19.164],[-44.5222,-19.1632],[-44.55944,-19.19323]]]]}},{"type":"Feature","properties":{"territory_id":"mg-3147402-champ-s-elysees","name":"Champ's Elyseés","municipality_id":"mg-3147402","polling_places":1,"approx":true,"official":false,"method":"voronoi-polling-places","whole_municipality":false,"approx_coords_only":false},"geometry":{"type":"MultiPolygon","coordinates":[[[[-44.39778,-19.15765],[-44.39434,-19.27104],[-44.39424,-19.27183],[-44.39137,-19.27624],[-44.26794,-19.32863],[-44.2405,-19.2674],[-44.2978,-19.2428],[-44.3267,-19.2221],[-44.3677,-19.2299],[-44.39778,-19.15765]]]]}},{"type":"Feature","properties":{"territory_id":"mg-3147402-dom-bosco","name":"Dom Bosco","municipality_id":"mg-3147402","polling_places":2,"approx":true,"official":false,"method":"voronoi-polling-places","whole_municipality":false,"approx_coords_only":false},"geometry":{"type":"MultiPolygon","coordinates":[[[[-44.39772,-19.27928],[-44.39504,-19.28161],[-44.38708,-19.29772],[-44.3605,-19.3098],[-44.3577,-19.3346],[-44.3152,-19.3731],[-44.299,-19.4035],[-44.3006,-19.35],[-44.2729,-19.3397],[-44.26794,-19.32863],[-44.39137,-19.27624],[-44.39424,-19.27183],[-44.39772,-19.27928]]]]}},{"type":"Feature","properties":{"territory_id":"mg-3147402-dom-cirilo","name":"Dom Cirilo","municipality_id":"mg-3147402","polling_places":3,"approx":true,"official":false,"method":"voronoi-polling-places","whole_municipality":false,"approx_coords_only":false},"geometry":{"type":"MultiPolygon","coordinates":[[[[-44.6517,-19.2267],[-44.6271,-19.2427],[-44.5656,-19.343],[-44.5285,-19.3683],[-44.5501,-19.4264],[-44.5418,-19.428],[-44.5017,-19.4291],[-44.4599,-19.4087],[-44.43874,-19.40407],[-44.42539,-19.35814],[-44.438,-19.3445],[-44.486,-19.3436],[-44.4839,-19.2977],[-44.4404,-19.2735],[-44.40541,-19.2894],[-44.40299,-19.28107],[-44.40286,-19.28071],[-44.4037,-19.27961],[-44.40434,-19.27876],[-44.55944,-19.19323],[-44.5697,-19.2015],[-44.6352,-19.2311],[-44.6517,-19.2267]]]]}},{"type":"Feature","properties":{"territory_id":"mg-3147402-nossa-senhora-do-carmo","name":"Nossa Senhora do Carmo","municipality_id":"mg-3147402","polling_places":1,"approx":true,"official":false,"method":"voronoi-polling-places","whole_municipality":false,"approx_coords_only":false},"geometry":{"type":"MultiPolygon","coordinates":[[[[-44.43874,-19.40407],[-44.4252,-19.4011],[-44.4173,-19.3669],[-44.42539,-19.35814],[-44.43874,-19.40407]]],[[[-44.40541,-19.2894],[-44.38708,-19.29772],[-44.39504,-19.28161],[-44.39772,-19.27928],[-44.39952,-19.27914],[-44.40286,-19.28071],[-44.40299,-19.28107],[-44.40541,-19.2894]]]]}},{"type":"Feature","properties":{"territory_id":"mg-3147402-zona-rural","name":"Zona Rural","municipality_id":"mg-3147402","polling_places":1,"approx":true,"official":false,"method":"voronoi-polling-places","whole_municipality":false,"approx_coords_only":false},"geometry":{"type":"MultiPolygon","coordinates":[[[[-44.40034,-19.27609],[-44.39952,-19.27914],[-44.39772,-19.27928],[-44.39424,-19.27183],[-44.39434,-19.27104],[-44.40034,-19.27609]]]]}}]}