{"type":"FeatureCollection","features":[{"type":"Feature","properties":{"territory_id":"mg-3147105-ascensao","name":"Ascensão","municipality_id":"mg-3147105","polling_places":1,"approx":true,"official":false,"method":"voronoi-polling-places","whole_municipality":false,"approx_coords_only":false},"geometry":{"type":"MultiPolygon","coordinates":[[[[-44.59876,-19.79465],[-44.59871,-19.79493],[-44.56968,-19.82461],[-44.55188,-19.82687],[-44.52456,-19.7979],[-44.52989,-19.79272],[-44.58036,-19.78857],[-44.59876,-19.79465]]]]}},{"type":"Feature","properties":{"territory_id":"mg-3147105-belvedere","name":"Belvedere","municipality_id":"mg-3147105","polling_places":1,"approx":true,"official":false,"method":"voronoi-polling-places","whole_municipality":false,"approx_coords_only":false},"geometry":{"type":"MultiPolygon","coordinates":[[[[-44.6459,-19.88769],[-44.62576,-19.89788],[-44.60239,-19.88322],[-44.60225,-19.87803],[-44.60326,-19.87432],[-44.61178,-19.87161],[-44.6451,-19.88524],[-44.6459,-19.88769]]]]}},{"type":"Feature","properties":{"territory_id":"mg-3147105-carioca","name":"Carioca","municipality_id":"mg-3147105","polling_places":1,"approx":true,"official":false,"method":"voronoi-polling-places","whole_municipality":false,"approx_coords_only":false},"geometry":{"type":"MultiPolygon","coordinates":[[[[-44.78069,-19.86082],[-44.71935,-19.83706],[-44.70262,-19.78911],[-44.70314,-19.78458],[-44.7238,-19.7896],[-44.7805,-19.7716],[-44.78069,-19.86082]]]]}},{"type":"Feature","properties":{"territory_id":"mg-3147105-centro","name":"Centro","municipality_id":"mg-3147105","polling_places":6,"approx":true,"official":false,"method":"voronoi-polling-places","whole_municipality":false,"approx_coords_only":false},"geometry":{"type":"MultiPolygon","coordinates":[[[[-44.61039,-19.86206],[-44.60922,-19.86313],[-44.60932,-19.86396],[-44.6102,-19.8695],[-44.60383,-19.86685],[-44.60346,-19.86671],[-44.60038,-19.86826],[-44.59785,-19.86319],[-44.59588,-19.85811],[-44.59603,-19.85776],[-44.59778,-19.85217],[-44.60288,-19.85438],[-44.6067,-19.85455],[-44.61039,-19.86206]]]]}},{"type":"Feature","properties":{"territory_id":"mg-3147105-dom-bosco","name":"Dom Bosco","municipality_id":"mg-3147105","polling_places":1,"approx":true,"official":false,"method":"voronoi-polling-places","whole_municipality":false,"approx_coords_only":false},"geometry":{"type":"MultiPolygon","coordinates":[[[[-44.60326,-19.87432],[-44.60225,-19.87803],[-44.59199,-19.87292],[-44.59461,-19.87147],[-44.59983,-19.8697],[-44.60326,-19.87432]]]]}},{"type":"Feature","properties":{"territory_id":"mg-3147105-jardim-beatriz","name":"Jardim Beatriz","municipality_id":"mg-3147105","polling_places":1,"approx":true,"official":false,"method":"voronoi-polling-places","whole_municipality":false,"approx_coords_only":false},"geometry":{"type":"MultiPolygon","coordinates":[[[[-44.60239,-19.88322],[-44.58629,-19.88499],[-44.58601,-19.88243],[-44.58854,-19.87396],[-44.59199,-19.87292],[-44.60225,-19.87803],[-44.60239,-19.88322]]]]}},{"type":"Feature","properties":{"territory_id":"mg-3147105-jardim-serra-verde","name":"Jardim Serra Verde","municipality_id":"mg-3147105","polling_places":1,"approx":true,"official":false,"method":"voronoi-polling-places","whole_municipality":false,"approx_coords_only":false},"geometry":{"type":"MultiPolygon","coordinates":[[[[-44.62576,-19.89788],[-44.58891,-19.93231],[-44.57989,-19.9002],[-44.58629,-19.88499],[-44.60239,-19.88322],[-44.62576,-19.89788]]]]}},{"type":"Feature","properties":{"territory_id":"mg-3147105-jk","name":"Jk","municipality_id":"mg-3147105","polling_places":1,"approx":true,"official":false,"method":"voronoi-polling-places","whole_municipality":false,"approx_coords_only":false},"geometry":{"type":"MultiPolygon","coordinates":[[[[-44.62176,-19.84492],[-44.61832,-19.8452],[-44.61107,-19.84146],[-44.60908,-19.83275],[-44.61105,-19.82949],[-44.61562,-19.8352],[-44.62176,-19.84492]]]]}},{"type":"Feature","properties":{"territory_id":"mg-3147105-nossa-senhora-das-gracas","name":"Nossa Senhora das Graças","municipality_id":"mg-3147105","polling_places":1,"approx":true,"official":false,"method":"voronoi-polling-places","whole_municipality":false,"approx_coords_only":false},"geometry":{"type":"MultiPolygon","coordinates":[[[[-44.61178,-19.87161],[-44.60326,-19.87432],[-44.59983,-19.8697],[-44.60038,-19.86826],[-44.60346,-19.86671],[-44.60383,-19.86685],[-44.6102,-19.8695],[-44.61178,-19.87161]]]]}},{"type":"Feature","properties":{"territory_id":"mg-3147105-nossa-senhora-de-fatima","name":"Nossa Senhora de Fátima","municipality_id":"mg-3147105","polling_places":2,"approx":true,"official":false,"method":"voronoi-polling-places","whole_municipality":false,"approx_coords_only":false},"geometry":{"type":"MultiPolygon","coordinates":[[[[-44.64327,-19.85003],[-44.64273,-19.85851],[-44.64232,-19.86593],[-44.61722,-19.85969],[-44.61009,-19.85396],[-44.61127,-19.85198],[-44.61276,-19.84904],[-44.61832,-19.8452],[-44.62176,-19.84492],[-44.64327,-19.85003]]]]}},{"type":"Feature","properties":{"territory_id":"mg-3147105-padre-liberio","name":"Padre Libério","municipality_id":"mg-3147105","polling_places":2,"approx":true,"official":false,"method":"voronoi-polling-places","whole_municipality":false,"approx_coords_only":false},"geometry":{"type":"MultiPolygon","coordinates":[[[[-44.61392,-19.8158],[-44.61313,-19.81842],[-44.61105,-19.82949],[-44.60908,-19.83275],[-44.59228,-19.84288],[-44.58817,-19.84073],[-44.58797,-19.84065],[-44.57889,-19.83402],[-44.56968,-19.82461],[-44.59871,-19.79493],[-44.61392,-19.8158]]]]}},{"type":"Feature","properties":{"territory_id":"mg-3147105-papa-joao-paulo-ii","name":"Papa João Paulo Ii","municipality_id":"mg-3147105","polling_places":1,"approx":true,"official":false,"method":"voronoi-polling-places","whole_municipality":false,"approx_coords_only":false},"geometry":{"type":"MultiPolygon","coordinates":[[[[-44.57889,-19.83402],[-44.57513,-19.86343],[-44.57269,-19.86435],[-44.56999,-19.86397],[-44.54202,-19.86001],[-44.55188,-19.82687],[-44.56968,-19.82461],[-44.57889,-19.83402]]]]}},{"type":"Feature","properties":{"territory_id":"mg-3147105-povoado-de-aparicao","name":"Povoado de Aparição","municipality_id":"mg-3147105","polling_places":1,"approx":true,"official":false,"method":"voronoi-polling-places","whole_municipality":false,"approx_coords_only":false},"geometry":{"type":"MultiPolygon","coordinates":[[[[-44.57512,-19.87471],[-44.56999,-19.87816],[-44.56999,-19.86397],[-44.57269,-19.86435],[-44.57512,-19.87471]]]]}},{"type":"Feature","properties":{"territory_id":"mg-3147105-povoado-de-bom-jesus-do-para","name":"Povoado de Bom Jesus do Pará","municipality_id":"mg-3147105","polling_places":1,"approx":true,"official":false,"method":"voronoi-polling-places","whole_municipality":false,"approx_coords_only":false},"geometry":{"type":"MultiPolygon","coordinates":[[[[-44.58036,-19.78857],[-44.52989,-19.79272],[-44.55007,-19.76616],[-44.5726,-19.786],[-44.58036,-19.78857]]]]}},{"type":"Feature","properties":{"territory_id":"mg-3147105-povoado-de-bom-sucesso","name":"Povoado de Bom Sucesso","municipality_id":"mg-3147105","polling_places":1,"approx":true,"official":false,"method":"voronoi-polling-places","whole_municipality":false,"approx_coords_only":false},"geometry":{"type":"MultiPolygon","coordinates":[[[[-44.61722,-19.85969],[-44.61039,-19.86206],[-44.6067,-19.85455],[-44.61009,-19.85396],[-44.61722,-19.85969]]]]}},{"type":"Feature","properties":{"territory_id":"mg-3147105-povoado-de-caetano-preto","name":"Povoado de Caetano Preto","municipality_id":"mg-3147105","polling_places":1,"approx":true,"official":false,"method":"voronoi-polling-places","whole_municipality":false,"approx_coords_only":false},"geometry":{"type":"MultiPolygon","coordinates":[[[[-44.66322,-19.89753],[-44.6204,-19.9361],[-44.5768,-19.96944],[-44.58891,-19.93231],[-44.62576,-19.89788],[-44.6459,-19.88769],[-44.66322,-19.89753]]]]}},{"type":"Feature","properties":{"territory_id":"mg-3147105-povoado-de-corrego-do-barro","name":"Povoado de Córrego do Barro","municipality_id":"mg-3147105","polling_places":1,"approx":true,"official":false,"method":"voronoi-polling-places","whole_municipality":false,"approx_coords_only":false},"geometry":{"type":"MultiPolygon","coordinates":[[[[-44.56999,-19.87816],[-44.559,-19.88558],[-44.53194,-19.87432],[-44.54202,-19.86001],[-44.56999,-19.86397],[-44.56999,-19.87816]]]]}},{"type":"Feature","properties":{"territory_id":"mg-3147105-povoado-de-guardas","name":"Povoado de Guardas","municipality_id":"mg-3147105","polling_places":1,"approx":true,"official":false,"method":"voronoi-polling-places","whole_municipality":false,"approx_coords_only":false},"geometry":{"type":"MultiPolygon","coordinates":[[[[-44.58797,-19.84065],[-44.5832,-19.85851],[-44.57808,-19.86348],[-44.57513,-19.86343],[-44.57889,-19.83402],[-44.58797,-19.84065]]]]}},{"type":"Feature","properties":{"territory_id":"mg-3147105-povoado-de-limas-do-para","name":"Povoado de Limas do Pará","municipality_id":"mg-3147105","polling_places":1,"approx":true,"official":false,"method":"voronoi-polling-places","whole_municipality":false,"approx_coords_only":false},"geometry":{"type":"MultiPolygon","coordinates":[[[[-44.70314,-19.78458],[-44.70262,-19.78911],[-44.65126,-19.83038],[-44.61392,-19.8158],[-44.59871,-19.79493],[-44.59876,-19.79465],[-44.5989,-19.7947],[-44.6373,-19.7289],[-44.6701,-19.7414],[-44.6983,-19.7834],[-44.70314,-19.78458]]]]}},{"type":"Feature","properties":{"territory_id":"mg-3147105-povoado-de-matinha","name":"Povoado de Matinha","municipality_id":"mg-3147105","polling_places":1,"approx":true,"official":false,"method":"voronoi-polling-places","whole_municipality":false,"approx_coords_only":false},"geometry":{"type":"MultiPolygon","coordinates":[[[[-44.58891,-19.93231],[-44.5768,-19.96944],[-44.5694,-19.9751],[-44.5419,-19.9674],[-44.5271,-19.9531],[-44.51767,-19.88318],[-44.53194,-19.87432],[-44.559,-19.88558],[-44.57989,-19.9002],[-44.58891,-19.93231]]]]}},{"type":"Feature","properties":{"territory_id":"mg-3147105-povoado-de-meireles","name":"Povoado de Meireles","municipality_id":"mg-3147105","polling_places":1,"approx":true,"official":false,"method":"voronoi-polling-places","whole_municipality":false,"approx_coords_only":false},"geometry":{"type":"MultiPolygon","coordinates":[[[[-44.71935,-19.83706],[-44.70336,-19.88359],[-44.6859,-19.8771],[-44.66322,-19.89753],[-44.6459,-19.88769],[-44.6451,-19.88524],[-44.64232,-19.86593],[-44.64273,-19.85851],[-44.64327,-19.85003],[-44.65112,-19.83072],[-44.65126,-19.83038],[-44.70262,-19.78911],[-44.71935,-19.83706]]]]}},{"type":"Feature","properties":{"territory_id":"mg-3147105-povoado-de-trindade","name":"Povoado de Trindade","municipality_id":"mg-3147105","polling_places":1,"approx":true,"official":false,"method":"voronoi-polling-places","whole_municipality":false,"approx_coords_only":false},"geometry":{"type":"MultiPolygon","coordinates":[[[[-44.55007,-19.76616],[-44.52989,-19.79272],[-44.52456,-19.7979],[-44.44771,-19.7893],[-44.4422,-19.7818],[-44.4441,-19.7655],[-44.4347,-19.7396],[-44.4986,-19.705],[-44.5265,-19.7454],[-44.55007,-19.76616]]]]}},{"type":"Feature","properties":{"territory_id":"mg-3147105-providencia","name":"Providência","municipality_id":"mg-3147105","polling_places":1,"approx":true,"official":false,"method":"voronoi-polling-places","whole_municipality":false,"approx_coords_only":false},"geometry":{"type":"MultiPolygon","coordinates":[[[[-44.59242,-19.8609],[-44.58814,-19.8729],[-44.58193,-19.86626],[-44.59073,-19.86084],[-44.59242,-19.8609]]]]}},{"type":"Feature","properties":{"territory_id":"mg-3147105-recanto-da-lagoa","name":"Recanto da Lagoa","municipality_id":"mg-3147105","polling_places":1,"approx":true,"official":false,"method":"voronoi-polling-places","whole_municipality":false,"approx_coords_only":false},"geometry":{"type":"MultiPolygon","coordinates":[[[[-44.58854,-19.87396],[-44.58601,-19.88243],[-44.57512,-19.87471],[-44.57269,-19.86435],[-44.57513,-19.86343],[-44.57808,-19.86348],[-44.58193,-19.86626],[-44.58814,-19.8729],[-44.58854,-19.87396]]]]}},{"type":"Feature","properties":{"territory_id":"mg-3147105-santa-edwirges","name":"Santa Edwirges","municipality_id":"mg-3147105","polling_places":1,"approx":true,"official":false,"method":"voronoi-polling-places","whole_municipality":false,"approx_coords_only":false},"geometry":{"type":"MultiPolygon","coordinates":[[[[-44.58629,-19.88499],[-44.57989,-19.9002],[-44.559,-19.88558],[-44.56999,-19.87816],[-44.57512,-19.87471],[-44.58601,-19.88243],[-44.58629,-19.88499]]]]}},{"type":"Feature","properties":{"territory_id":"mg-3147105-santos-dumont","name":"Santos Dumont","municipality_id":"mg-3147105","polling_places":1,"approx":true,"official":false,"method":"voronoi-polling-places","whole_municipality":false,"approx_coords_only":false},"geometry":{"type":"MultiPolygon","coordinates":[[[[-44.61107,-19.84146],[-44.60484,-19.84508],[-44.59554,-19.84651],[-44.59228,-19.84288],[-44.60908,-19.83275],[-44.61107,-19.84146]]]]}},{"type":"Feature","properties":{"territory_id":"mg-3147105-sao-cristovao","name":"São Cristóvão","municipality_id":"mg-3147105","polling_places":1,"approx":true,"official":false,"method":"voronoi-polling-places","whole_municipality":false,"approx_coords_only":false},"geometry":{"type":"MultiPolygon","coordinates":[[[[-44.61276,-19.84904],[-44.61127,-19.85198],[-44.61009,-19.85396],[-44.6067,-19.85455],[-44.60288,-19.85438],[-44.59778,-19.85217],[-44.59554,-19.84651],[-44.60484,-19.84508],[-44.61276,-19.84904]]]]}},{"type":"Feature","properties":{"territory_id":"mg-3147105-sao-francisco","name":"São Francisco","municipality_id":"mg-3147105","polling_places":3,"approx":true,"official":false,"method":"voronoi-polling-places","whole_municipality":false,"approx_coords_only":false},"geometry":{"type":"MultiPolygon","coordinates":[[[[-44.60038,-19.86826],[-44.59983,-19.8697],[-44.59461,-19.87147],[-44.59199,-19.87292],[-44.58854,-19.87396],[-44.58814,-19.8729],[-44.59242,-19.8609],[-44.59321,-19.86036],[-44.59588,-19.85811],[-44.59785,-19.86319],[-44.60038,-19.86826]]]]}},{"type":"Feature","properties":{"territory_id":"mg-3147105-sao-geraldo","name":"São Geraldo","municipality_id":"mg-3147105","polling_places":1,"approx":true,"official":false,"method":"voronoi-polling-places","whole_municipality":false,"approx_coords_only":false},"geometry":{"type":"MultiPolygon","coordinates":[[[[-44.61832,-19.8452],[-44.61276,-19.84904],[-44.60484,-19.84508],[-44.61107,-19.84146],[-44.61832,-19.8452]]]]}},{"type":"Feature","properties":{"territory_id":"mg-3147105-sao-jose","name":"São José","municipality_id":"mg-3147105","polling_places":1,"approx":true,"official":false,"method":"voronoi-polling-places","whole_municipality":false,"approx_coords_only":false},"geometry":{"type":"MultiPolygon","coordinates":[[[[-44.6451,-19.88524],[-44.61178,-19.87161],[-44.6102,-19.8695],[-44.60932,-19.86396],[-44.60922,-19.86313],[-44.61039,-19.86206],[-44.61722,-19.85969],[-44.64232,-19.86593],[-44.6451,-19.88524]]]]}},{"type":"Feature","properties":{"territory_id":"mg-3147105-sao-pedro","name":"São Pedro","municipality_id":"mg-3147105","polling_places":2,"approx":true,"official":false,"method":"voronoi-polling-places","whole_municipality":false,"approx_coords_only":false},"geometry":{"type":"MultiPolygon","coordinates":[[[[-44.65126,-19.83038],[-44.65112,-19.83072],[-44.64327,-19.85003],[-44.62176,-19.84492],[-44.61562,-19.8352],[-44.61105,-19.82949],[-44.61313,-19.81842],[-44.61392,-19.8158],[-44.65126,-19.83038]]]]}},{"type":"Feature","properties":{"territory_id":"mg-3147105-senador-valadares","name":"Senador Valadares","municipality_id":"mg-3147105","polling_places":2,"approx":true,"official":false,"method":"voronoi-polling-places","whole_municipality":false,"approx_coords_only":false},"geometry":{"type":"MultiPolygon","coordinates":[[[[-44.59778,-19.85217],[-44.59603,-19.85776],[-44.59588,-19.85811],[-44.59321,-19.86036],[-44.59242,-19.8609],[-44.59073,-19.86084],[-44.58193,-19.86626],[-44.57808,-19.86348],[-44.5832,-19.85851],[-44.58797,-19.84065],[-44.58817,-19.84073],[-44.59228,-19.84288],[-44.59554,-19.84651],[-44.59778,-19.85217]]]]}},{"type":"Feature","properties":{"territory_id":"mg-3147105-tavares","name":"Tavares","municipality_id":"mg-3147105","polling_places":1,"approx":true,"official":false,"method":"voronoi-polling-places","whole_municipality":false,"approx_coords_only":false},"geometry":{"type":"MultiPolygon","coordinates":[[[[-44.55188,-19.82687],[-44.54202,-19.86001],[-44.53194,-19.87432],[-44.51767,-19.88318],[-44.5145,-19.8597],[-44.4817,-19.8356],[-44.44771,-19.7893],[-44.52456,-19.7979],[-44.55188,-19.82687]]]]}},{"type":"Feature","properties":{"territory_id":"mg-3147105-torneiros","name":"Torneiros","municipality_id":"mg-3147105","polling_places":1,"approx":true,"official":false,"method":"voronoi-polling-places","whole_municipality":false,"approx_coords_only":false},"geometry":{"type":"MultiPolygon","coordinates":[[[[-44.7807,-19.8672],[-44.7416,-19.8978],[-44.70336,-19.88359],[-44.71935,-19.83706],[-44.78069,-19.86082],[-44.7807,-19.8672]]]]}}]}