{"type":"FeatureCollection","features":[{"type":"Feature","properties":{"territory_id":"mg-3147600-centro","name":"Centro","municipality_id":"mg-3147600","polling_places":2,"approx":true,"official":false,"method":"voronoi-polling-places","whole_municipality":false,"approx_coords_only":false},"geometry":{"type":"MultiPolygon","coordinates":[[[[-44.9721,-22.3898],[-44.96819,-22.39092],[-44.86959,-22.43021],[-44.84969,-22.42834],[-44.93868,-22.38179],[-44.9646,-22.38168],[-44.96572,-22.38152],[-44.9721,-22.3898]]]]}},{"type":"Feature","properties":{"territory_id":"mg-3147600-pe-do-morro","name":"Pe do Morro","municipality_id":"mg-3147600","polling_places":1,"approx":true,"official":false,"method":"voronoi-polling-places","whole_municipality":false,"approx_coords_only":false},"geometry":{"type":"MultiPolygon","coordinates":[[[[-44.96766,-22.33515],[-44.91795,-22.35703],[-44.915,-22.326],[-44.9576,-22.3166],[-44.96766,-22.33515]]],[[[-44.81054,-22.40431],[-44.8094,-22.40481],[-44.8094,-22.4043],[-44.81054,-22.40431]]]]}},{"type":"Feature","properties":{"territory_id":"mg-3147600-pinheirinhos","name":"Pinheirinhos","municipality_id":"mg-3147600","polling_places":2,"approx":true,"official":false,"method":"voronoi-polling-places","whole_municipality":false,"approx_coords_only":false},"geometry":{"type":"MultiPolygon","coordinates":[[[[-45.1028,-22.4899],[-45.0549,-22.4705],[-44.9907,-22.4665],[-44.9659,-22.4752],[-44.9396,-22.4526],[-44.89854,-22.43573],[-44.98218,-22.40265],[-45.00451,-22.39365],[-45.05447,-22.38487],[-45.0485,-22.415],[-45.0982,-22.4594],[-45.1028,-22.4899]]]]}},{"type":"Feature","properties":{"territory_id":"mg-3147600-santa-terezinha","name":"Santa Terezinha","municipality_id":"mg-3147600","polling_places":2,"approx":true,"official":false,"method":"voronoi-polling-places","whole_municipality":false,"approx_coords_only":false},"geometry":{"type":"MultiPolygon","coordinates":[[[[-45.0567,-22.3736],[-45.05447,-22.38487],[-45.00451,-22.39365],[-44.97488,-22.3897],[-44.9721,-22.3898],[-44.96572,-22.38152],[-44.96863,-22.37972],[-44.99908,-22.33872],[-45.0154,-22.3398],[-45.0567,-22.3736]]]]}},{"type":"Feature","properties":{"territory_id":"mg-3147600-sao-geraldo","name":"São Geraldo","municipality_id":"mg-3147600","polling_places":1,"approx":true,"official":false,"method":"voronoi-polling-places","whole_municipality":false,"approx_coords_only":false},"geometry":{"type":"MultiPolygon","coordinates":[[[[-45.00451,-22.39365],[-44.98218,-22.40265],[-44.89854,-22.43573],[-44.8897,-22.4321],[-44.86959,-22.43021],[-44.96819,-22.39092],[-44.9721,-22.3898],[-44.97488,-22.3897],[-45.00451,-22.39365]]]]}},{"type":"Feature","properties":{"territory_id":"mg-3147600-sao-miguel","name":"São Miguel","municipality_id":"mg-3147600","polling_places":1,"approx":true,"official":false,"method":"voronoi-polling-places","whole_municipality":false,"approx_coords_only":false},"geometry":{"type":"MultiPolygon","coordinates":[[[[-44.99908,-22.33872],[-44.96863,-22.37972],[-44.96572,-22.38152],[-44.9646,-22.38168],[-44.93868,-22.38179],[-44.99698,-22.33858],[-44.99908,-22.33872]]]]}},{"type":"Feature","properties":{"territory_id":"mg-3147600-tronqueiras","name":"Tronqueiras","municipality_id":"mg-3147600","polling_places":1,"approx":true,"official":false,"method":"voronoi-polling-places","whole_municipality":false,"approx_coords_only":false},"geometry":{"type":"MultiPolygon","coordinates":[[[[-44.99698,-22.33858],[-44.93868,-22.38179],[-44.84969,-22.42834],[-44.8439,-22.4278],[-44.8094,-22.4056],[-44.8094,-22.40481],[-44.81054,-22.40431],[-44.8236,-22.4044],[-44.9182,-22.3597],[-44.91795,-22.35703],[-44.96766,-22.33515],[-44.9685,-22.3367],[-44.99698,-22.33858]]]]}}]}