{"type":"FeatureCollection","features":[{"type":"Feature","properties":{"territory_id":"mg-3147808-carlos-euler","name":"Carlos Euler","municipality_id":"mg-3147808","polling_places":1,"approx":true,"official":false,"method":"voronoi-polling-places","whole_municipality":false,"approx_coords_only":false},"geometry":{"type":"MultiPolygon","coordinates":[[[[-44.3596,-22.254],[-44.3172,-22.2595],[-44.29989,-22.24845],[-44.21761,-22.13751],[-44.2216,-22.131],[-44.2073,-22.0704],[-44.2283,-22.0755],[-44.2606,-22.105],[-44.292,-22.1117],[-44.3194,-22.1555],[-44.355,-22.1931],[-44.3413,-22.2064],[-44.3596,-22.254]]]]}},{"type":"Feature","properties":{"territory_id":"mg-3147808-centro","name":"Centro","municipality_id":"mg-3147808","polling_places":1,"approx":true,"official":false,"method":"voronoi-polling-places","whole_municipality":false,"approx_coords_only":false},"geometry":{"type":"MultiPolygon","coordinates":[[[[-44.29989,-22.24845],[-44.2915,-22.2431],[-44.2599,-22.268],[-44.1892,-22.2404],[-44.1794,-22.2285],[-44.1815,-22.1965],[-44.21761,-22.13751],[-44.29989,-22.24845]]]]}}]}