{"type":"FeatureCollection","features":[{"type":"Feature","properties":{"territory_id":"mg-3148400-centro","name":"Centro","municipality_id":"mg-3148400","polling_places":2,"approx":true,"official":false,"method":"voronoi-polling-places","whole_municipality":true,"approx_coords_only":false},"geometry":{"type":"MultiPolygon","coordinates":[[[[-42.8956,-18.5609],[-42.8651,-18.5643],[-42.8251,-18.53],[-42.8085,-18.4613],[-42.8162,-18.4069],[-42.8004,-18.3797],[-42.8312,-18.361],[-42.8694,-18.3643],[-42.8829,-18.3885],[-42.9158,-18.3943],[-42.9306,-18.4388],[-42.9148,-18.4588],[-42.9243,-18.4995],[-42.8956,-18.5609]]]]}}]}