{"type":"FeatureCollection","features":[{"type":"Feature","properties":{"territory_id":"mg-3148707-bela-vista","name":"Bela Vista","municipality_id":"mg-3148707","polling_places":1,"approx":true,"official":false,"method":"voronoi-polling-places","whole_municipality":false,"approx_coords_only":false},"geometry":{"type":"MultiPolygon","coordinates":[[[[-41.37183,-16.14144],[-41.3653,-16.1459],[-41.3289,-16.1313],[-41.2971,-16.1712],[-41.2574,-16.1514],[-41.2203,-16.1046],[-41.2177,-16.0723],[-41.1561,-16.0552],[-41.0845,-16.0817],[-41.07069,-16.07776],[-41.26872,-16.00548],[-41.27633,-16.00807],[-41.33257,-16.08383],[-41.37183,-16.14144]]]]}},{"type":"Feature","properties":{"territory_id":"mg-3148707-centro","name":"Centro","municipality_id":"mg-3148707","polling_places":6,"approx":true,"official":false,"method":"voronoi-polling-places","whole_municipality":false,"approx_coords_only":false},"geometry":{"type":"MultiPolygon","coordinates":[[[[-41.3596,-15.94579],[-41.28825,-15.99797],[-41.28406,-16.00663],[-41.28412,-16.00855],[-41.27903,-16.00746],[-41.27633,-16.00807],[-41.26872,-16.00548],[-41.26973,-16.00454],[-41.2718,-16.00334],[-41.27721,-15.99738],[-41.27787,-15.99352],[-41.323,-15.93305],[-41.3596,-15.94579]]]]}},{"type":"Feature","properties":{"territory_id":"mg-3148707-distrito-de-aracagi-de-minas","name":"Distrito de Araçagi de Minas","municipality_id":"mg-3148707","polling_places":1,"approx":true,"official":false,"method":"voronoi-polling-places","whole_municipality":false,"approx_coords_only":false},"geometry":{"type":"MultiPolygon","coordinates":[[[[-41.20498,-15.89927],[-41.20264,-15.9021],[-41.05527,-16.07337],[-41.048,-16.0713],[-40.9698,-16.0855],[-40.9382,-16.0968],[-40.9124,-16.0452],[-40.9208,-15.9748],[-40.9627,-15.9574],[-40.9812,-15.9357],[-40.964,-15.8841],[-41.0042,-15.8626],[-41.0096,-15.8283],[-41.0311,-15.7994],[-41.0892,-15.7917],[-41.1481,-15.8006],[-41.14786,-15.79939],[-41.20498,-15.89927]]]]}},{"type":"Feature","properties":{"territory_id":"mg-3148707-gissaras","name":"Gissaras","municipality_id":"mg-3148707","polling_places":1,"approx":true,"official":false,"method":"voronoi-polling-places","whole_municipality":false,"approx_coords_only":false},"geometry":{"type":"MultiPolygon","coordinates":[[[[-41.3836,-15.8122],[-41.3273,-15.8415],[-41.2928,-15.8445],[-41.2751,-15.8638],[-41.28093,-15.87766],[-41.20498,-15.89927],[-41.14786,-15.79939],[-41.1425,-15.772],[-41.2154,-15.7372],[-41.2686,-15.7487],[-41.3302,-15.7433],[-41.3426,-15.8012],[-41.3836,-15.8122]]]]}},{"type":"Feature","properties":{"territory_id":"mg-3148707-inconfidentes","name":"Inconfidentes","municipality_id":"mg-3148707","polling_places":1,"approx":true,"official":false,"method":"voronoi-polling-places","whole_municipality":false,"approx_coords_only":false},"geometry":{"type":"MultiPolygon","coordinates":[[[[-41.27787,-15.99352],[-41.27721,-15.99738],[-41.2718,-16.00334],[-41.26973,-16.00454],[-41.27264,-15.99436],[-41.27787,-15.99352]]]]}},{"type":"Feature","properties":{"territory_id":"mg-3148707-novo-progresso","name":"Novo Progresso","municipality_id":"mg-3148707","polling_places":1,"approx":true,"official":false,"method":"voronoi-polling-places","whole_municipality":false,"approx_coords_only":false},"geometry":{"type":"MultiPolygon","coordinates":[[[[-41.33257,-16.08383],[-41.27633,-16.00807],[-41.27903,-16.00746],[-41.28412,-16.00855],[-41.33257,-16.08383]]]]}},{"type":"Feature","properties":{"territory_id":"mg-3148707-plataforma","name":"Plataforma","municipality_id":"mg-3148707","polling_places":2,"approx":true,"official":false,"method":"voronoi-polling-places","whole_municipality":false,"approx_coords_only":false},"geometry":{"type":"MultiPolygon","coordinates":[[[[-41.323,-15.93305],[-41.27787,-15.99352],[-41.27264,-15.99436],[-41.26973,-16.00454],[-41.26872,-16.00548],[-41.07069,-16.07776],[-41.05527,-16.07337],[-41.20264,-15.9021],[-41.20498,-15.89927],[-41.28093,-15.87766],[-41.301,-15.9254],[-41.323,-15.93305]]]]}},{"type":"Feature","properties":{"territory_id":"mg-3148707-sebastiao-faria","name":"Sebastião Faria","municipality_id":"mg-3148707","polling_places":1,"approx":true,"official":false,"method":"voronoi-polling-places","whole_municipality":false,"approx_coords_only":false},"geometry":{"type":"MultiPolygon","coordinates":[[[[-41.4574,-16.0474],[-41.4278,-16.0484],[-41.4192,-16.0791],[-41.4364,-16.0973],[-41.37183,-16.14144],[-41.33257,-16.08383],[-41.28412,-16.00855],[-41.28406,-16.00663],[-41.28825,-15.99797],[-41.3596,-15.94579],[-41.4013,-15.9603],[-41.4574,-16.0474]]]]}}]}