{"type":"FeatureCollection","features":[{"type":"Feature","properties":{"territory_id":"mg-3148756-nossa-senhora-aparecida","name":"Nossa Senhora Aparecida","municipality_id":"mg-3148756","polling_places":1,"approx":true,"official":false,"method":"voronoi-polling-places","whole_municipality":false,"approx_coords_only":false},"geometry":{"type":"MultiPolygon","coordinates":[[[[-42.35417,-20.50778],[-42.33951,-20.56353],[-42.3194,-20.547],[-42.33122,-20.501],[-42.35417,-20.50778]]]]}},{"type":"Feature","properties":{"territory_id":"mg-3148756-zona-rural","name":"Zona Rural","municipality_id":"mg-3148756","polling_places":3,"approx":true,"official":false,"method":"voronoi-polling-places","whole_municipality":false,"approx_coords_only":false},"geometry":{"type":"MultiPolygon","coordinates":[[[[-42.4343,-20.4354],[-42.3857,-20.5049],[-42.4065,-20.5331],[-42.4074,-20.5774],[-42.3791,-20.589],[-42.3582,-20.5789],[-42.33951,-20.56353],[-42.35417,-20.50778],[-42.33122,-20.501],[-42.3315,-20.4999],[-42.3304,-20.457],[-42.3451,-20.3947],[-42.3641,-20.4046],[-42.4152,-20.35],[-42.4192,-20.414],[-42.4343,-20.4354]]]]}}]}