{"type":"FeatureCollection","features":[{"type":"Feature","properties":{"territory_id":"mg-3148806-centro","name":"Centro","municipality_id":"mg-3148806","polling_places":3,"approx":true,"official":false,"method":"voronoi-polling-places","whole_municipality":true,"approx_coords_only":false},"geometry":{"type":"MultiPolygon","coordinates":[[[[-42.7244,-20.5202],[-42.7279,-20.5396],[-42.7793,-20.5617],[-42.8012,-20.606],[-42.7656,-20.6257],[-42.7691,-20.6677],[-42.6978,-20.6573],[-42.6678,-20.6312],[-42.6412,-20.5835],[-42.6799,-20.5313],[-42.7244,-20.5202]]]]}}]}