{"type":"FeatureCollection","features":[{"type":"Feature","properties":{"territory_id":"mg-3148202-centro","name":"Centro","municipality_id":"mg-3148202","polling_places":2,"approx":true,"official":false,"method":"voronoi-polling-places","whole_municipality":false,"approx_coords_only":false},"geometry":{"type":"MultiPolygon","coordinates":[[[[-42.3275,-21.2103],[-42.2978,-21.1865],[-42.2778,-21.2012],[-42.2026,-21.2212],[-42.2083,-21.179],[-42.1953,-21.1603],[-42.18863,-21.15116],[-42.20475,-21.14351],[-42.22767,-21.13003],[-42.2323,-21.1336],[-42.2988,-21.1226],[-42.3275,-21.2103]]]]}},{"type":"Feature","properties":{"territory_id":"mg-3148202-sapucaia","name":"Sapucaia","municipality_id":"mg-3148202","polling_places":1,"approx":true,"official":false,"method":"voronoi-polling-places","whole_municipality":false,"approx_coords_only":false},"geometry":{"type":"MultiPolygon","coordinates":[[[[-42.22767,-21.13003],[-42.20475,-21.14351],[-42.18863,-21.15116],[-42.1745,-21.1318],[-42.2134,-21.119],[-42.22767,-21.13003]]]]}}]}