{"type":"FeatureCollection","features":[{"type":"Feature","properties":{"territory_id":"mg-3148004-abelha","name":"Abelha","municipality_id":"mg-3148004","polling_places":1,"approx":true,"official":false,"method":"voronoi-polling-places","whole_municipality":false,"approx_coords_only":false},"geometry":{"type":"MultiPolygon","coordinates":[[[[-46.48297,-18.59098],[-46.48287,-18.59146],[-46.48259,-18.59314],[-46.48257,-18.59322],[-46.47743,-18.59535],[-46.48195,-18.58443],[-46.48238,-18.58471],[-46.4824,-18.58501],[-46.48292,-18.59093],[-46.48297,-18.59098]]]]}},{"type":"Feature","properties":{"territory_id":"mg-3148004-alagoas","name":"Alagoas","municipality_id":"mg-3148004","polling_places":1,"approx":true,"official":false,"method":"voronoi-polling-places","whole_municipality":false,"approx_coords_only":false},"geometry":{"type":"MultiPolygon","coordinates":[[[[-46.8224,-18.6291],[-46.8103,-18.6507],[-46.7772,-18.6714],[-46.77791,-18.67647],[-46.5806,-18.68444],[-46.58364,-18.64775],[-46.58481,-18.64241],[-46.70617,-18.57682],[-46.8219,-18.61709],[-46.8224,-18.6291]]]]}},{"type":"Feature","properties":{"territory_id":"mg-3148004-alto-colina","name":"Alto Colina","municipality_id":"mg-3148004","polling_places":1,"approx":true,"official":false,"method":"voronoi-polling-places","whole_municipality":false,"approx_coords_only":false},"geometry":{"type":"MultiPolygon","coordinates":[[[[-46.50043,-18.52215],[-46.49578,-18.5713],[-46.49577,-18.57129],[-46.49578,-18.57114],[-46.49435,-18.57115],[-46.49366,-18.57125],[-46.4931,-18.57126],[-46.4919,-18.5712],[-46.49002,-18.57091],[-46.49135,-18.57152],[-46.49163,-18.5717],[-46.4918,-18.57189],[-46.49198,-18.57218],[-46.49205,-18.57265],[-46.49206,-18.57284],[-46.49201,-18.573],[-46.4922,-18.57302],[-46.49235,-18.57312],[-46.49243,-18.57347],[-46.49204,-18.57358],[-46.4915,-18.57608],[-46.49121,-18.57731],[-46.49499,-18.57819],[-46.49242,-18.5776],[-46.49246,-18.57762],[-46.49248,-18.57775],[-46.4925,-18.57915],[-46.49229,-18.57927],[-46.4923,-18.57932],[-46.49082,-18.57932],[-46.48985,-18.57955],[-46.48833,-18.57924],[-46.4883,-18.57931],[-46.48827,-18.57944],[-46.48835,-18.58044],[-46.49054,-18.58522],[-46.49061,-18.58644],[-46.49006,-18.58603],[-46.48914,-18.58591],[-46.48748,-18.58466],[-46.48634,-18.58331],[-46.48492,-18.58201],[-46.48377,-18.58196],[-46.48291,-18.58219],[-46.48221,-18.58213],[-46.48238,-18.58471],[-46.48195,-18.58443],[-46.48056,-18.5835],[-46.4714,-18.48591],[-46.49799,-18.50708],[-46.50043,-18.52215]],[[-46.48837,-18.57293],[-46.4883,-18.57278],[-46.48831,-18.57159],[-46.48831,-18.57042],[-46.48781,-18.57015],[-46.48073,-18.56841],[-46.47977,-18.56832],[-46.47978,-18.56834],[-46.47984,-18.56837],[-46.48008,-18.56846],[-46.48009,-18.56855],[-46.48097,-18.57145],[-46.48135,-18.57292],[-46.48837,-18.57293]]]]}},{"type":"Feature","properties":{"territory_id":"mg-3148004-alvorada","name":"Alvorada","municipality_id":"mg-3148004","polling_places":1,"approx":false,"official":true,"method":"official-ibge-cd2022","whole_municipality":false,"approx_coords_only":false,"official_name":"Alvorada","official_code":"3148004027","match":"direct"},"geometry":{"type":"MultiPolygon","coordinates":[[[[-46.52675,-18.56456],[-46.52691,-18.56401],[-46.52978,-18.56468],[-46.52999,-18.56371],[-46.53029,-18.56314],[-46.52874,-18.56228],[-46.52992,-18.56034],[-46.52501,-18.55768],[-46.52499,-18.55843],[-46.52501,-18.56071],[-46.52446,-18.56237],[-46.52401,-18.56332],[-46.52289,-18.56535],[-46.52484,-18.56587],[-46.5263,-18.56621],[-46.52675,-18.56456]]]]}},{"type":"Feature","properties":{"territory_id":"mg-3148004-aragao","name":"Aragão","municipality_id":"mg-3148004","polling_places":1,"approx":true,"official":false,"method":"voronoi-polling-places","whole_municipality":false,"approx_coords_only":false},"geometry":{"type":"MultiPolygon","coordinates":[[[[-46.58481,-18.64241],[-46.58364,-18.64775],[-46.52246,-18.61276],[-46.52323,-18.61039],[-46.52345,-18.60973],[-46.52603,-18.61028],[-46.52882,-18.61085],[-46.52902,-18.60969],[-46.52951,-18.60905],[-46.53033,-18.60844],[-46.53072,-18.60817],[-46.53263,-18.60536],[-46.53277,-18.60501],[-46.53272,-18.60459],[-46.53249,-18.6044],[-46.53177,-18.60435],[-46.53127,-18.60427],[-46.5304,-18.6039],[-46.53006,-18.6036],[-46.52985,-18.60327],[-46.53005,-18.60297],[-46.52972,-18.60272],[-46.53032,-18.60137],[-46.53051,-18.60078],[-46.53142,-18.60099],[-46.53176,-18.59985],[-46.5324,-18.59804],[-46.52931,-18.59712],[-46.53064,-18.59361],[-46.52939,-18.59396],[-46.52856,-18.59396],[-46.52825,-18.59393],[-46.52768,-18.59355],[-46.52742,-18.59299],[-46.52786,-18.59202],[-46.52817,-18.59154],[-46.5287,-18.59066],[-46.52961,-18.58991],[-46.53093,-18.58928],[-46.53247,-18.58868],[-46.53407,-18.58825],[-46.53455,-18.58816],[-46.58037,-18.60541],[-46.58481,-18.64241]]],[[[-46.52924,-18.60049],[-46.52582,-18.59973],[-46.52578,-18.59973],[-46.52468,-18.59948],[-46.52924,-18.60049]]],[[[-46.529,-18.59703],[-46.52814,-18.59677],[-46.52461,-18.5957],[-46.529,-18.59703]]],[[[-46.52263,-18.60428],[-46.52089,-18.60387],[-46.52188,-18.6041],[-46.52263,-18.60428]]],[[[-46.52174,-18.59068],[-46.52137,-18.59327],[-46.5212,-18.59446],[-46.52174,-18.59068]]],[[[-46.51818,-18.61032],[-46.51775,-18.61007],[-46.51808,-18.61017],[-46.51818,-18.61032]]],[[[-46.51726,-18.60979],[-46.51266,-18.60716],[-46.51265,-18.60707],[-46.51367,-18.60383],[-46.51496,-18.59984],[-46.51497,-18.60042],[-46.51498,-18.60266],[-46.51501,-18.606],[-46.51513,-18.60645],[-46.51605,-18.60887],[-46.51609,-18.6089],[-46.51645,-18.60905],[-46.51653,-18.60923],[-46.51666,-18.60936],[-46.51696,-18.60951],[-46.51726,-18.60979]]]]}},{"type":"Feature","properties":{"territory_id":"mg-3148004-aurelio-caixeta","name":"Aurelio Caixeta","municipality_id":"mg-3148004","polling_places":1,"approx":false,"official":true,"method":"official-ibge-cd2022","whole_municipality":false,"approx_coords_only":false,"official_name":"Aurélio Caixeta","official_code":"3148004005","match":"direct"},"geometry":{"type":"MultiPolygon","coordinates":[[[[-46.51191,-18.5757],[-46.51106,-18.57534],[-46.51105,-18.57462],[-46.50874,-18.57462],[-46.50623,-18.57466],[-46.50565,-18.57479],[-46.50596,-18.57523],[-46.50622,-18.5755],[-46.50683,-18.57599],[-46.50746,-18.5767],[-46.50758,-18.57695],[-46.50931,-18.57726],[-46.50939,-18.57772],[-46.5091,-18.57973],[-46.5095,-18.57995],[-46.50969,-18.57979],[-46.51454,-18.58191],[-46.51461,-18.58181],[-46.51469,-18.58177],[-46.51484,-18.58173],[-46.51481,-18.57685],[-46.51262,-18.57597],[-46.51191,-18.5757]]]]}},{"type":"Feature","properties":{"territory_id":"mg-3148004-barreirinho","name":"Barreirinho","municipality_id":"mg-3148004","polling_places":1,"approx":true,"official":false,"method":"voronoi-polling-places","whole_municipality":false,"approx_coords_only":false},"geometry":{"type":"MultiPolygon","coordinates":[[[[-46.48069,-18.60323],[-46.46469,-18.64303],[-46.44837,-18.6655],[-46.47743,-18.59535],[-46.48069,-18.60323]]]]}},{"type":"Feature","properties":{"territory_id":"mg-3148004-bebedouro-das-posses","name":"Bebedouro das Posses","municipality_id":"mg-3148004","polling_places":1,"approx":true,"official":false,"method":"voronoi-polling-places","whole_municipality":false,"approx_coords_only":false},"geometry":{"type":"MultiPolygon","coordinates":[[[[-46.47743,-18.59535],[-46.44837,-18.6655],[-46.43742,-18.68058],[-46.4342,-18.6798],[-46.4269,-18.64],[-46.40138,-18.62684],[-46.47743,-18.59535]]]]}},{"type":"Feature","properties":{"territory_id":"mg-3148004-boassara","name":"Boassara","municipality_id":"mg-3148004","polling_places":1,"approx":true,"official":false,"method":"voronoi-polling-places","whole_municipality":false,"approx_coords_only":false},"geometry":{"type":"MultiPolygon","coordinates":[[[[-46.74698,-18.46345],[-46.68276,-18.48145],[-46.6363,-18.45476],[-46.62052,-18.40581],[-46.6541,-18.4053],[-46.6802,-18.3607],[-46.7176,-18.3579],[-46.74004,-18.34151],[-46.74245,-18.34585],[-46.74698,-18.46345]]]]}},{"type":"Feature","properties":{"territory_id":"mg-3148004-bonsucesso-de-patos","name":"Bonsucesso de Patos","municipality_id":"mg-3148004","polling_places":1,"approx":true,"official":false,"method":"voronoi-polling-places","whole_municipality":false,"approx_coords_only":false},"geometry":{"type":"MultiPolygon","coordinates":[[[[-46.47743,-18.59535],[-46.40138,-18.62684],[-46.398,-18.6251],[-46.37832,-18.62979],[-46.37817,-18.62856],[-46.46526,-18.59031],[-46.47743,-18.59535]]]]}},{"type":"Feature","properties":{"territory_id":"mg-3148004-brasil","name":"Brasil","municipality_id":"mg-3148004","polling_places":1,"approx":false,"official":true,"method":"official-ibge-cd2022","whole_municipality":false,"approx_coords_only":false,"official_name":"Brasil","official_code":"3148004014","match":"direct"},"geometry":{"type":"MultiPolygon","coordinates":[[[[-46.52814,-18.59677],[-46.52461,-18.5957],[-46.52154,-18.59481],[-46.52114,-18.59485],[-46.52063,-18.59857],[-46.52345,-18.59923],[-46.52468,-18.59948],[-46.52924,-18.60049],[-46.53142,-18.60099],[-46.53176,-18.59985],[-46.5324,-18.59804],[-46.52926,-18.5971],[-46.52814,-18.59677]]]]}},{"type":"Feature","properties":{"territory_id":"mg-3148004-cabeceira-da-abelha","name":"Cabeceira da Abelha","municipality_id":"mg-3148004","polling_places":1,"approx":true,"official":false,"method":"voronoi-polling-places","whole_municipality":false,"approx_coords_only":false},"geometry":{"type":"MultiPolygon","coordinates":[[[[-46.48297,-18.59764],[-46.48069,-18.60323],[-46.47743,-18.59535],[-46.48063,-18.59667],[-46.48053,-18.59687],[-46.47993,-18.59808],[-46.47975,-18.59907],[-46.48069,-18.5998],[-46.48254,-18.59747],[-46.48297,-18.59764]]]]}},{"type":"Feature","properties":{"territory_id":"mg-3148004-cabeceira-do-areado","name":"Cabeceira do Areado","municipality_id":"mg-3148004","polling_places":1,"approx":true,"official":false,"method":"voronoi-polling-places","whole_municipality":false,"approx_coords_only":false},"geometry":{"type":"MultiPolygon","coordinates":[[[[-46.21711,-18.52825],[-46.18451,-18.60903],[-46.17834,-18.61837],[-46.15815,-18.63291],[-46.01609,-18.54836],[-46.0367,-18.5337],[-46.0944,-18.5283],[-46.1078,-18.5151],[-46.1378,-18.5117],[-46.1865,-18.5347],[-46.21711,-18.52825]]]]}},{"type":"Feature","properties":{"territory_id":"mg-3148004-cabeceira-do-chumbo","name":"Cabeceira do Chumbo","municipality_id":"mg-3148004","polling_places":1,"approx":true,"official":false,"method":"voronoi-polling-places","whole_municipality":false,"approx_coords_only":false},"geometry":{"type":"MultiPolygon","coordinates":[[[[-46.48353,-18.59628],[-46.48297,-18.59764],[-46.48254,-18.59747],[-46.48334,-18.59646],[-46.48353,-18.59628]]],[[[-46.48257,-18.59322],[-46.48239,-18.59404],[-46.48231,-18.59429],[-46.48164,-18.59514],[-46.481,-18.59601],[-46.4808,-18.59634],[-46.48063,-18.59667],[-46.47743,-18.59535],[-46.48257,-18.59322]]]]}},{"type":"Feature","properties":{"territory_id":"mg-3148004-cabral","name":"Cabral","municipality_id":"mg-3148004","polling_places":1,"approx":true,"official":false,"method":"voronoi-polling-places","whole_municipality":false,"approx_coords_only":false},"geometry":{"type":"MultiPolygon","coordinates":[[[[-46.90992,-18.44231],[-46.8877,-18.4873],[-46.8442,-18.5249],[-46.8024,-18.5292],[-46.80937,-18.54941],[-46.74698,-18.46345],[-46.74245,-18.34585],[-46.90992,-18.44231]]]]}},{"type":"Feature","properties":{"territory_id":"mg-3148004-cafe-patense","name":"Café Patense","municipality_id":"mg-3148004","polling_places":1,"approx":true,"official":false,"method":"voronoi-polling-places","whole_municipality":false,"approx_coords_only":false},"geometry":{"type":"MultiPolygon","coordinates":[[[[-46.37053,-18.59185],[-46.33962,-18.5947],[-46.3581,-18.5659],[-46.3635,-18.5263],[-46.36883,-18.52523],[-46.37053,-18.59185]]],[[[-46.33752,-18.5949],[-46.18451,-18.60903],[-46.21711,-18.52825],[-46.2325,-18.525],[-46.3082,-18.5567],[-46.33752,-18.5949]]]]}},{"type":"Feature","properties":{"territory_id":"mg-3148004-caicaras","name":"Caiçaras","municipality_id":"mg-3148004","polling_places":1,"approx":false,"official":true,"method":"official-ibge-cd2022","whole_municipality":false,"approx_coords_only":false,"official_name":"Caiçaras","official_code":"3148004030","match":"direct"},"geometry":{"type":"MultiPolygon","coordinates":[[[[-46.51683,-18.57161],[-46.51476,-18.57163],[-46.51472,-18.57086],[-46.51105,-18.57093],[-46.51106,-18.57534],[-46.51191,-18.5757],[-46.51615,-18.57737],[-46.51723,-18.57503],[-46.51759,-18.57516],[-46.51767,-18.57463],[-46.51781,-18.5739],[-46.51861,-18.57174],[-46.5182,-18.5716],[-46.51683,-18.57161]]]]}},{"type":"Feature","properties":{"territory_id":"mg-3148004-campo-alegre","name":"Campo Alegre","municipality_id":"mg-3148004","polling_places":1,"approx":true,"official":false,"method":"voronoi-polling-places","whole_municipality":false,"approx_coords_only":false},"geometry":{"type":"MultiPolygon","coordinates":[[[[-46.5606,-18.9797],[-46.5078,-18.917],[-46.4386,-18.9187],[-46.4028,-18.8806],[-46.4462,-18.8598],[-46.5029,-18.8546],[-46.52184,-18.82072],[-46.5606,-18.9797]]]]}},{"type":"Feature","properties":{"territory_id":"mg-3148004-capela-dos-afonsos","name":"Capela dos Afonsos","municipality_id":"mg-3148004","polling_places":1,"approx":true,"official":false,"method":"voronoi-polling-places","whole_municipality":false,"approx_coords_only":false},"geometry":{"type":"MultiPolygon","coordinates":[[[[-46.49659,-18.60871],[-46.46469,-18.64303],[-46.48069,-18.60323],[-46.48297,-18.59764],[-46.48353,-18.59628],[-46.48387,-18.59597],[-46.48412,-18.59587],[-46.48436,-18.59586],[-46.48444,-18.59588],[-46.48444,-18.59918],[-46.48448,-18.60303],[-46.485,-18.60277],[-46.48567,-18.60239],[-46.4862,-18.60196],[-46.48783,-18.60038],[-46.48893,-18.59934],[-46.4899,-18.59847],[-46.49009,-18.59844],[-46.49031,-18.59837],[-46.49031,-18.59804],[-46.49076,-18.5976],[-46.49496,-18.59941],[-46.4952,-18.6001],[-46.4957,-18.59995],[-46.49531,-18.59878],[-46.49639,-18.59866],[-46.49659,-18.60871]]],[[[-46.49629,-18.59326],[-46.49372,-18.59406],[-46.49212,-18.59447],[-46.49164,-18.59383],[-46.49151,-18.59357],[-46.49361,-18.59173],[-46.49468,-18.59118],[-46.49589,-18.58996],[-46.4958,-18.58994],[-46.49566,-18.58972],[-46.49505,-18.58905],[-46.49513,-18.58884],[-46.49622,-18.58941],[-46.49629,-18.59326]]]]}},{"type":"Feature","properties":{"territory_id":"mg-3148004-caramuru","name":"Caramuru","municipality_id":"mg-3148004","polling_places":1,"approx":false,"official":true,"method":"official-ibge-cd2022","whole_municipality":false,"approx_coords_only":false,"official_name":"Caramuru","official_code":"3148004028","match":"direct"},"geometry":{"type":"MultiPolygon","coordinates":[[[[-46.52575,-18.57044],[-46.52744,-18.56807],[-46.52956,-18.56859],[-46.5298,-18.56648],[-46.52992,-18.5663],[-46.52991,-18.56614],[-46.52941,-18.56603],[-46.52978,-18.56468],[-46.52691,-18.56401],[-46.5263,-18.56621],[-46.52484,-18.56587],[-46.52289,-18.56535],[-46.5216,-18.56748],[-46.52071,-18.56885],[-46.52068,-18.56927],[-46.52271,-18.57152],[-46.52335,-18.57219],[-46.5255,-18.57076],[-46.52575,-18.57044]]]]}},{"type":"Feature","properties":{"territory_id":"mg-3148004-centro","name":"Centro","municipality_id":"mg-3148004","polling_places":11,"approx":false,"official":true,"method":"official-ibge-cd2022","whole_municipality":false,"approx_coords_only":false,"official_name":"Centro","official_code":"3148004001","match":"direct"},"geometry":{"type":"MultiPolygon","coordinates":[[[[-46.51248,-18.58393],[-46.51158,-18.58488],[-46.51048,-18.58663],[-46.50872,-18.58947],[-46.50969,-18.58999],[-46.50944,-18.59035],[-46.51082,-18.59094],[-46.51248,-18.59178],[-46.5126,-18.59191],[-46.51263,-18.59214],[-46.51255,-18.59235],[-46.51238,-18.59271],[-46.51215,-18.59351],[-46.51155,-18.59577],[-46.5115,-18.59624],[-46.51167,-18.59668],[-46.52063,-18.59857],[-46.52114,-18.59485],[-46.5209,-18.59462],[-46.5212,-18.59446],[-46.52174,-18.59068],[-46.52182,-18.58994],[-46.52158,-18.58988],[-46.52102,-18.58963],[-46.52086,-18.58952],[-46.51978,-18.58822],[-46.51933,-18.58765],[-46.51923,-18.58733],[-46.51953,-18.58615],[-46.51945,-18.58589],[-46.51835,-18.58482],[-46.51828,-18.58482],[-46.51815,-18.58477],[-46.51884,-18.5832],[-46.51883,-18.58167],[-46.51508,-18.58208],[-46.51507,-18.5819],[-46.51501,-18.58181],[-46.51492,-18.58175],[-46.51484,-18.58173],[-46.51469,-18.58177],[-46.51461,-18.58181],[-46.51454,-18.58191],[-46.51454,-18.58209],[-46.51365,-18.58275],[-46.51334,-18.58305],[-46.51277,-18.58364],[-46.51248,-18.58393]]]]}},{"type":"Feature","properties":{"territory_id":"mg-3148004-ceu-azul","name":"Céu Azul","municipality_id":"mg-3148004","polling_places":1,"approx":true,"official":false,"method":"voronoi-polling-places","whole_municipality":false,"approx_coords_only":false},"geometry":{"type":"MultiPolygon","coordinates":[[[[-46.58364,-18.64775],[-46.5806,-18.68444],[-46.55306,-18.72319],[-46.53826,-18.72906],[-46.4939,-18.6943],[-46.43742,-18.68058],[-46.44837,-18.6655],[-46.46469,-18.64303],[-46.49659,-18.60871],[-46.51266,-18.60716],[-46.51726,-18.60979],[-46.51746,-18.60998],[-46.51775,-18.61007],[-46.51818,-18.61032],[-46.51827,-18.61045],[-46.51842,-18.61071],[-46.51876,-18.611],[-46.51902,-18.61116],[-46.51941,-18.61159],[-46.52156,-18.61358],[-46.52171,-18.61373],[-46.52179,-18.61388],[-46.52205,-18.61403],[-46.52246,-18.61276],[-46.58364,-18.64775]],[[-46.51609,-18.62612],[-46.51585,-18.62484],[-46.5141,-18.62466],[-46.51271,-18.62411],[-46.51185,-18.62363],[-46.51197,-18.62357],[-46.51203,-18.62348],[-46.51199,-18.62335],[-46.51186,-18.62328],[-46.51163,-18.62172],[-46.51135,-18.62001],[-46.51145,-18.6199],[-46.51143,-18.61976],[-46.5114,-18.61972],[-46.51131,-18.61965],[-46.51114,-18.61873],[-46.50975,-18.61637],[-46.50958,-18.61622],[-46.50496,-18.61999],[-46.50116,-18.62315],[-46.49838,-18.6254],[-46.49203,-18.63058],[-46.49059,-18.63183],[-46.48991,-18.63259],[-46.48888,-18.63405],[-46.48849,-18.63492],[-46.48747,-18.63754],[-46.48799,-18.63777],[-46.48893,-18.63814],[-46.49259,-18.63966],[-46.49444,-18.6407],[-46.49793,-18.64319],[-46.49822,-18.63706],[-46.49857,-18.63016],[-46.49856,-18.62911],[-46.49952,-18.62838],[-46.50001,-18.62754],[-46.50051,-18.62734],[-46.50438,-18.62806],[-46.50921,-18.63048],[-46.50952,-18.63044],[-46.51125,-18.63019],[-46.51136,-18.62957],[-46.51144,-18.6294],[-46.51186,-18.62919],[-46.51251,-18.62904],[-46.51393,-18.62937],[-46.51468,-18.62906],[-46.51535,-18.62795],[-46.51532,-18.62769],[-46.51538,-18.62668],[-46.51609,-18.62612]]]]}},{"type":"Feature","properties":{"territory_id":"mg-3148004-chumbo-areado","name":"Chumbo - Areado","municipality_id":"mg-3148004","polling_places":1,"approx":true,"official":false,"method":"voronoi-polling-places","whole_municipality":false,"approx_coords_only":false},"geometry":{"type":"MultiPolygon","coordinates":[[[[-46.51477,-18.59733],[-46.51367,-18.60383],[-46.51265,-18.60707],[-46.50762,-18.59157],[-46.51156,-18.59131],[-46.51248,-18.59178],[-46.5126,-18.59191],[-46.51263,-18.59214],[-46.51255,-18.59235],[-46.51238,-18.59271],[-46.51215,-18.59351],[-46.51155,-18.59577],[-46.5115,-18.59624],[-46.51167,-18.59668],[-46.51477,-18.59733]]]]}},{"type":"Feature","properties":{"territory_id":"mg-3148004-colonia-agricola","name":"Colônia Agrícola","municipality_id":"mg-3148004","polling_places":1,"approx":true,"official":false,"method":"voronoi-polling-places","whole_municipality":false,"approx_coords_only":false},"geometry":{"type":"MultiPolygon","coordinates":[[[[-46.48195,-18.58443],[-46.47743,-18.59535],[-46.47378,-18.58653],[-46.48056,-18.5835],[-46.48195,-18.58443]]]]}},{"type":"Feature","properties":{"territory_id":"mg-3148004-corrego-rico","name":"Córrego Rico","municipality_id":"mg-3148004","polling_places":1,"approx":true,"official":false,"method":"voronoi-polling-places","whole_municipality":false,"approx_coords_only":false},"geometry":{"type":"MultiPolygon","coordinates":[[[[-46.70617,-18.57682],[-46.58481,-18.64241],[-46.58037,-18.60541],[-46.58684,-18.5446],[-46.59347,-18.53944],[-46.60135,-18.53556],[-46.6761,-18.54876],[-46.70617,-18.57682]]]]}},{"type":"Feature","properties":{"territory_id":"mg-3148004-cristo-redentor","name":"Cristo Redentor","municipality_id":"mg-3148004","polling_places":1,"approx":false,"official":true,"method":"official-ibge-cd2022","whole_municipality":false,"approx_coords_only":false,"official_name":"Cristo Redentor","official_code":"3148004052","match":"direct"},"geometry":{"type":"MultiPolygon","coordinates":[[[[-46.52323,-18.61039],[-46.52345,-18.60973],[-46.52495,-18.60478],[-46.52263,-18.60428],[-46.52089,-18.60387],[-46.51886,-18.60343],[-46.51846,-18.60335],[-46.51843,-18.60337],[-46.51711,-18.60311],[-46.51498,-18.60266],[-46.51501,-18.606],[-46.51513,-18.60645],[-46.51605,-18.60887],[-46.51609,-18.6089],[-46.51645,-18.60905],[-46.51653,-18.60923],[-46.51666,-18.60936],[-46.51696,-18.60951],[-46.51746,-18.60998],[-46.51808,-18.61017],[-46.51827,-18.61045],[-46.51842,-18.61071],[-46.51876,-18.611],[-46.51902,-18.61116],[-46.51941,-18.61159],[-46.52156,-18.61358],[-46.52171,-18.61373],[-46.52179,-18.61388],[-46.52205,-18.61403],[-46.52323,-18.61039]]]]}},{"type":"Feature","properties":{"territory_id":"mg-3148004-curraleiro","name":"Curraleiro","municipality_id":"mg-3148004","polling_places":1,"approx":true,"official":false,"method":"voronoi-polling-places","whole_municipality":false,"approx_coords_only":false},"geometry":{"type":"MultiPolygon","coordinates":[[[[-46.68276,-18.48145],[-46.6761,-18.54876],[-46.60135,-18.53556],[-46.6363,-18.45476],[-46.68276,-18.48145]]]]}},{"type":"Feature","properties":{"territory_id":"mg-3148004-horizonte-alegre","name":"Horizonte Alegre","municipality_id":"mg-3148004","polling_places":1,"approx":true,"official":false,"method":"voronoi-polling-places","whole_municipality":false,"approx_coords_only":false},"geometry":{"type":"MultiPolygon","coordinates":[[[[-46.15815,-18.63291],[-46.14883,-18.74313],[-46.0964,-18.7059],[-46.0625,-18.7192],[-46.0077,-18.6938],[-45.988,-18.7008],[-45.9253,-18.6732],[-45.909,-18.6516],[-45.8623,-18.6397],[-45.8331,-18.6128],[-45.8291,-18.5872],[-45.9365,-18.5692],[-45.9661,-18.5312],[-46.0069,-18.5549],[-46.01609,-18.54836],[-46.15815,-18.63291]]]]}},{"type":"Feature","properties":{"territory_id":"mg-3148004-ipanema","name":"Ipanema","municipality_id":"mg-3148004","polling_places":1,"approx":false,"official":true,"method":"official-ibge-cd2022","whole_municipality":false,"approx_coords_only":false,"official_name":"Ipanema","official_code":"3148004059","match":"direct"},"geometry":{"type":"MultiPolygon","coordinates":[[[[-46.50952,-18.63044],[-46.51125,-18.63019],[-46.51136,-18.62957],[-46.51144,-18.6294],[-46.51186,-18.62919],[-46.51251,-18.62904],[-46.51393,-18.62937],[-46.51468,-18.62906],[-46.51535,-18.62795],[-46.51532,-18.62769],[-46.51538,-18.62668],[-46.51609,-18.62612],[-46.51585,-18.62484],[-46.5141,-18.62466],[-46.51271,-18.62411],[-46.51185,-18.62363],[-46.51197,-18.62357],[-46.51203,-18.62348],[-46.51199,-18.62335],[-46.51186,-18.62328],[-46.51163,-18.62172],[-46.51135,-18.62001],[-46.51145,-18.6199],[-46.51143,-18.61976],[-46.5114,-18.61972],[-46.51131,-18.61965],[-46.51114,-18.61873],[-46.50975,-18.61637],[-46.50958,-18.61622],[-46.50496,-18.61999],[-46.50116,-18.62315],[-46.49838,-18.6254],[-46.49883,-18.62581],[-46.49926,-18.62568],[-46.50037,-18.62646],[-46.50051,-18.62734],[-46.50438,-18.62806],[-46.50921,-18.63048],[-46.50952,-18.63044]]]]}},{"type":"Feature","properties":{"territory_id":"mg-3148004-jardim-itamarati","name":"Jardim Itamarati","municipality_id":"mg-3148004","polling_places":1,"approx":false,"official":true,"method":"official-ibge-cd2022","whole_municipality":false,"approx_coords_only":false,"official_name":"Jardim Itamarati","official_code":"3148004026","match":"direct"},"geometry":{"type":"MultiPolygon","coordinates":[[[[-46.52476,-18.56144],[-46.52501,-18.56071],[-46.52499,-18.55843],[-46.52504,-18.55664],[-46.52516,-18.55608],[-46.52569,-18.55438],[-46.52562,-18.55383],[-46.52536,-18.55388],[-46.52521,-18.55197],[-46.52547,-18.55191],[-46.52534,-18.55145],[-46.52385,-18.54774],[-46.51709,-18.55293],[-46.51541,-18.55373],[-46.51456,-18.55455],[-46.51674,-18.55973],[-46.51682,-18.56106],[-46.51656,-18.5647],[-46.51686,-18.56475],[-46.51679,-18.56581],[-46.5226,-18.56582],[-46.52289,-18.56535],[-46.52401,-18.56332],[-46.52446,-18.56237],[-46.52476,-18.56144]]]]}},{"type":"Feature","properties":{"territory_id":"mg-3148004-jardim-panoramico","name":"Jardim Panorâmico","municipality_id":"mg-3148004","polling_places":1,"approx":false,"official":true,"method":"official-ibge-cd2022","whole_municipality":false,"approx_coords_only":false,"official_name":"Jardim Panorâmico","official_code":"3148004047","match":"direct"},"geometry":{"type":"MultiPolygon","coordinates":[[[[-46.48893,-18.59934],[-46.4899,-18.59847],[-46.49009,-18.59844],[-46.49031,-18.59837],[-46.49031,-18.59804],[-46.49076,-18.5976],[-46.49496,-18.59941],[-46.4952,-18.6001],[-46.4957,-18.59995],[-46.49372,-18.59406],[-46.49212,-18.59447],[-46.49164,-18.59383],[-46.49151,-18.59357],[-46.49361,-18.59173],[-46.49468,-18.59118],[-46.49589,-18.58996],[-46.4958,-18.58994],[-46.49566,-18.58972],[-46.49505,-18.58905],[-46.49452,-18.58885],[-46.49388,-18.58826],[-46.49327,-18.58799],[-46.49282,-18.58765],[-46.49121,-18.58667],[-46.49061,-18.58644],[-46.49006,-18.58603],[-46.48914,-18.58591],[-46.48748,-18.58466],[-46.48634,-18.58331],[-46.48492,-18.58201],[-46.48377,-18.58196],[-46.48291,-18.58219],[-46.48221,-18.58213],[-46.4824,-18.58501],[-46.48292,-18.59093],[-46.48297,-18.59098],[-46.48287,-18.59146],[-46.48259,-18.59314],[-46.48239,-18.59404],[-46.48231,-18.59429],[-46.48164,-18.59514],[-46.481,-18.59601],[-46.4808,-18.59634],[-46.48053,-18.59687],[-46.47993,-18.59808],[-46.47975,-18.59907],[-46.48069,-18.5998],[-46.48334,-18.59646],[-46.48387,-18.59597],[-46.48412,-18.59587],[-46.48436,-18.59586],[-46.48444,-18.59588],[-46.48444,-18.59918],[-46.48448,-18.60303],[-46.485,-18.60277],[-46.48567,-18.60239],[-46.4862,-18.60196],[-46.48783,-18.60038],[-46.48893,-18.59934]]]]}},{"type":"Feature","properties":{"territory_id":"mg-3148004-lagoa-grande","name":"Lagoa Grande","municipality_id":"mg-3148004","polling_places":1,"approx":false,"official":true,"method":"official-ibge-cd2022","whole_municipality":false,"approx_coords_only":false,"official_name":"Lagoa Grande","official_code":"3148004013","match":"direct"},"geometry":{"type":"MultiPolygon","coordinates":[[[[-46.51497,-18.60042],[-46.51498,-18.60266],[-46.51711,-18.60311],[-46.51843,-18.60337],[-46.51846,-18.60335],[-46.51886,-18.60343],[-46.52089,-18.60387],[-46.52188,-18.6041],[-46.52265,-18.60177],[-46.52345,-18.59923],[-46.52063,-18.59857],[-46.51494,-18.59736],[-46.51496,-18.59948],[-46.51497,-18.60042]]]]}},{"type":"Feature","properties":{"territory_id":"mg-3148004-lagoinha","name":"Lagoinha","municipality_id":"mg-3148004","polling_places":1,"approx":false,"official":true,"method":"official-ibge-cd2022","whole_municipality":false,"approx_coords_only":false,"official_name":"Lagoinha","official_code":"3148004019","match":"direct"},"geometry":{"type":"MultiPolygon","coordinates":[[[[-46.52337,-18.58052],[-46.5246,-18.58016],[-46.52518,-18.57985],[-46.52589,-18.57917],[-46.52634,-18.57848],[-46.52426,-18.57757],[-46.52374,-18.57713],[-46.52223,-18.57687],[-46.52168,-18.57707],[-46.52134,-18.57722],[-46.5211,-18.57737],[-46.52087,-18.57758],[-46.52031,-18.5778],[-46.52051,-18.57863],[-46.5193,-18.579],[-46.51951,-18.57957],[-46.51842,-18.57994],[-46.51879,-18.58105],[-46.52078,-18.58072],[-46.52157,-18.58056],[-46.52182,-18.5806],[-46.52184,-18.58129],[-46.52268,-18.58077],[-46.52301,-18.58061],[-46.52337,-18.58052]]]]}},{"type":"Feature","properties":{"territory_id":"mg-3148004-leal","name":"Leal","municipality_id":"mg-3148004","polling_places":1,"approx":true,"official":false,"method":"voronoi-polling-places","whole_municipality":false,"approx_coords_only":false},"geometry":{"type":"MultiPolygon","coordinates":[[[[-46.51266,-18.60716],[-46.49659,-18.60871],[-46.49639,-18.59866],[-46.49697,-18.59859],[-46.49746,-18.59781],[-46.49752,-18.59701],[-46.49795,-18.59649],[-46.49987,-18.59556],[-46.5,-18.59575],[-46.50095,-18.59568],[-46.50089,-18.59505],[-46.50337,-18.59478],[-46.50314,-18.59301],[-46.50285,-18.59266],[-46.50184,-18.59155],[-46.4992,-18.59233],[-46.49841,-18.59261],[-46.49629,-18.59326],[-46.49622,-18.58941],[-46.503,-18.5882],[-46.50762,-18.59157],[-46.51265,-18.60707],[-46.51266,-18.60716]]]]}},{"type":"Feature","properties":{"territory_id":"mg-3148004-major-porto","name":"Major Porto","municipality_id":"mg-3148004","polling_places":1,"approx":true,"official":false,"method":"voronoi-polling-places","whole_municipality":false,"approx_coords_only":false},"geometry":{"type":"MultiPolygon","coordinates":[[[[-46.53103,-18.58644],[-46.53065,-18.58642],[-46.52827,-18.58524],[-46.52798,-18.58515],[-46.52787,-18.58519],[-46.52773,-18.58536],[-46.52708,-18.58537],[-46.52671,-18.58548],[-46.52565,-18.58591],[-46.52531,-18.58619],[-46.52518,-18.58631],[-46.52455,-18.58715],[-46.52418,-18.58596],[-46.52407,-18.58478],[-46.52325,-18.58458],[-46.52192,-18.58431],[-46.52132,-18.58417],[-46.51939,-18.58341],[-46.51969,-18.58249],[-46.52091,-18.58246],[-46.52124,-18.58193],[-46.52184,-18.58129],[-46.52268,-18.58077],[-46.52301,-18.58061],[-46.52337,-18.58052],[-46.52361,-18.58045],[-46.53103,-18.58644]]],[[[-46.52032,-18.57779],[-46.52031,-18.5778],[-46.5203,-18.57778],[-46.52032,-18.57779]]],[[[-46.51995,-18.5775],[-46.51865,-18.57743],[-46.51802,-18.57724],[-46.51842,-18.57625],[-46.51995,-18.5775]]],[[[-46.51615,-18.57737],[-46.51481,-18.57685],[-46.51374,-18.57642],[-46.51615,-18.57737]]],[[[-46.51365,-18.58275],[-46.51343,-18.58296],[-46.51354,-18.58285],[-46.51365,-18.58275]]],[[[-46.51303,-18.58337],[-46.51277,-18.58364],[-46.51248,-18.58393],[-46.51303,-18.58337]]],[[[-46.51156,-18.59131],[-46.50762,-18.59157],[-46.503,-18.5882],[-46.50745,-18.58135],[-46.5083,-18.58403],[-46.50894,-18.58581],[-46.51045,-18.58667],[-46.50872,-18.58947],[-46.50969,-18.58999],[-46.50944,-18.59035],[-46.51082,-18.59094],[-46.51156,-18.59131]]],[[[-46.50927,-18.57854],[-46.5091,-18.57973],[-46.50894,-18.58082],[-46.50927,-18.57854]]]]}},{"type":"Feature","properties":{"territory_id":"mg-3148004-mata-do-brejo","name":"Mata do Brejo","municipality_id":"mg-3148004","polling_places":1,"approx":true,"official":false,"method":"voronoi-polling-places","whole_municipality":false,"approx_coords_only":false},"geometry":{"type":"MultiPolygon","coordinates":[[[[-46.8219,-18.61709],[-46.70617,-18.57682],[-46.6761,-18.54876],[-46.68276,-18.48145],[-46.74698,-18.46345],[-46.80937,-18.54941],[-46.8204,-18.5814],[-46.8219,-18.61709]]]]}},{"type":"Feature","properties":{"territory_id":"mg-3148004-morada-do-sol","name":"Morada do Sol","municipality_id":"mg-3148004","polling_places":1,"approx":false,"official":true,"method":"official-ibge-cd2022","whole_municipality":false,"approx_coords_only":false,"official_name":"Morada do Sol","official_code":"3148004036","match":"direct"},"geometry":{"type":"MultiPolygon","coordinates":[[[[-46.48831,-18.57159],[-46.48831,-18.57042],[-46.48781,-18.57015],[-46.48073,-18.56841],[-46.47977,-18.56832],[-46.47978,-18.56834],[-46.47984,-18.56837],[-46.48008,-18.56846],[-46.48009,-18.56855],[-46.48097,-18.57145],[-46.48135,-18.57292],[-46.48837,-18.57293],[-46.4883,-18.57278],[-46.48831,-18.57159]]]]}},{"type":"Feature","properties":{"territory_id":"mg-3148004-moreiras","name":"Moreiras","municipality_id":"mg-3148004","polling_places":1,"approx":true,"official":false,"method":"voronoi-polling-places","whole_municipality":false,"approx_coords_only":false},"geometry":{"type":"MultiPolygon","coordinates":[[[[-46.47743,-18.59535],[-46.46526,-18.59031],[-46.47378,-18.58653],[-46.47743,-18.59535]]]]}},{"type":"Feature","properties":{"territory_id":"mg-3148004-nossa-senhora-de-fatima","name":"Nossa Senhora de Fátima","municipality_id":"mg-3148004","polling_places":1,"approx":false,"official":true,"method":"official-ibge-cd2022","whole_municipality":false,"approx_coords_only":false,"official_name":"Nossa Senhora de Fátima","official_code":"3148004025","match":"direct"},"geometry":{"type":"MultiPolygon","coordinates":[[[[-46.52812,-18.55316],[-46.52562,-18.55383],[-46.52569,-18.55438],[-46.52516,-18.55608],[-46.52504,-18.55664],[-46.52501,-18.55768],[-46.52992,-18.56034],[-46.52874,-18.56228],[-46.53029,-18.56314],[-46.53121,-18.56393],[-46.53274,-18.56144],[-46.5349,-18.56367],[-46.53732,-18.56346],[-46.54001,-18.5632],[-46.54008,-18.56308],[-46.53943,-18.56223],[-46.53736,-18.55962],[-46.53719,-18.55955],[-46.53526,-18.55705],[-46.53458,-18.5561],[-46.53461,-18.55594],[-46.52897,-18.55293],[-46.52812,-18.55316]]]]}},{"type":"Feature","properties":{"territory_id":"mg-3148004-nova-floresta","name":"Nova Floresta","municipality_id":"mg-3148004","polling_places":1,"approx":false,"official":true,"method":"official-ibge-cd2022","whole_municipality":false,"approx_coords_only":false,"official_name":"Nova Floresta","official_code":"3148004034","match":"direct"},"geometry":{"type":"MultiPolygon","coordinates":[[[[-46.4931,-18.57126],[-46.4919,-18.5712],[-46.49002,-18.57091],[-46.49135,-18.57152],[-46.49163,-18.5717],[-46.4918,-18.57189],[-46.49198,-18.57218],[-46.49205,-18.57265],[-46.49206,-18.57284],[-46.49201,-18.573],[-46.4922,-18.57302],[-46.49235,-18.57312],[-46.49243,-18.57347],[-46.49204,-18.57358],[-46.4915,-18.57608],[-46.49121,-18.57731],[-46.49499,-18.57819],[-46.49582,-18.578],[-46.49619,-18.57945],[-46.50004,-18.57898],[-46.50188,-18.57872],[-46.50181,-18.57845],[-46.5012,-18.57572],[-46.50194,-18.57553],[-46.50148,-18.57394],[-46.50146,-18.57381],[-46.50126,-18.57323],[-46.50131,-18.57321],[-46.5009,-18.57301],[-46.50035,-18.57277],[-46.4998,-18.57264],[-46.49953,-18.57262],[-46.49771,-18.57204],[-46.49696,-18.57166],[-46.49577,-18.57129],[-46.49578,-18.57114],[-46.49435,-18.57115],[-46.49366,-18.57125],[-46.4931,-18.57126]]]]}},{"type":"Feature","properties":{"territory_id":"mg-3148004-novo-horizonte","name":"Novo Horizonte","municipality_id":"mg-3148004","polling_places":1,"approx":false,"official":true,"method":"official-ibge-cd2022","whole_municipality":false,"approx_coords_only":false,"official_name":"Novo Horizonte","official_code":"3148004040","match":"direct"},"geometry":{"type":"MultiPolygon","coordinates":[[[[-46.49613,-18.58626],[-46.49857,-18.57981],[-46.49844,-18.57918],[-46.49619,-18.57945],[-46.49582,-18.578],[-46.49499,-18.57819],[-46.49242,-18.5776],[-46.49246,-18.57762],[-46.49248,-18.57775],[-46.4925,-18.57915],[-46.49229,-18.57927],[-46.4923,-18.57932],[-46.49082,-18.57932],[-46.48985,-18.57955],[-46.48833,-18.57924],[-46.4883,-18.57931],[-46.48827,-18.57944],[-46.48835,-18.58044],[-46.49054,-18.58522],[-46.49061,-18.58644],[-46.49121,-18.58667],[-46.49282,-18.58765],[-46.49327,-18.58799],[-46.49388,-18.58826],[-46.49452,-18.58885],[-46.49505,-18.58905],[-46.49578,-18.58717],[-46.49613,-18.58626]]]]}},{"type":"Feature","properties":{"territory_id":"mg-3148004-padre-eustaquio","name":"Padre Eustáquio","municipality_id":"mg-3148004","polling_places":1,"approx":false,"official":true,"method":"official-ibge-cd2022","whole_municipality":false,"approx_coords_only":false,"official_name":"Padre Eustáquio","official_code":"3148004022","match":"direct"},"geometry":{"type":"MultiPolygon","coordinates":[[[[-46.52649,-18.57281],[-46.52921,-18.57348],[-46.52887,-18.57453],[-46.53037,-18.57495],[-46.53152,-18.57519],[-46.53221,-18.5753],[-46.53336,-18.57553],[-46.53392,-18.57561],[-46.53602,-18.57607],[-46.53638,-18.57614],[-46.53652,-18.57524],[-46.53626,-18.57327],[-46.53767,-18.57092],[-46.53723,-18.56973],[-46.53673,-18.56826],[-46.53675,-18.56753],[-46.53702,-18.5669],[-46.53614,-18.56689],[-46.53567,-18.5669],[-46.53405,-18.56703],[-46.53344,-18.56615],[-46.53229,-18.56738],[-46.53159,-18.56877],[-46.53091,-18.56995],[-46.53003,-18.56961],[-46.52944,-18.56947],[-46.52956,-18.56859],[-46.52744,-18.56807],[-46.52575,-18.57044],[-46.5255,-18.57076],[-46.52335,-18.57219],[-46.52489,-18.57341],[-46.5262,-18.57381],[-46.52649,-18.57281]]]]}},{"type":"Feature","properties":{"territory_id":"mg-3148004-pilar","name":"Pilar","municipality_id":"mg-3148004","polling_places":1,"approx":true,"official":false,"method":"voronoi-polling-places","whole_municipality":false,"approx_coords_only":false},"geometry":{"type":"MultiPolygon","coordinates":[[[[-46.9964,-18.3353],[-46.972,-18.3477],[-46.9612,-18.4066],[-46.9314,-18.3988],[-46.90992,-18.44231],[-46.74245,-18.34585],[-46.74004,-18.34151],[-46.758,-18.3284],[-46.7608,-18.3088],[-46.7859,-18.3012],[-46.8164,-18.3198],[-46.8515,-18.3081],[-46.9202,-18.2635],[-46.9742,-18.2686],[-46.9943,-18.285],[-46.9964,-18.3353]]]]}},{"type":"Feature","properties":{"territory_id":"mg-3148004-pindaibas","name":"Pindaíbas","municipality_id":"mg-3148004","polling_places":1,"approx":true,"official":false,"method":"voronoi-polling-places","whole_municipality":false,"approx_coords_only":false},"geometry":{"type":"MultiPolygon","coordinates":[[[[-46.30723,-18.66793],[-46.3,-18.6933],[-46.2794,-18.719],[-46.179,-18.7207],[-46.1502,-18.7441],[-46.14883,-18.74313],[-46.15815,-18.63291],[-46.17834,-18.61837],[-46.30723,-18.66793]]]]}},{"type":"Feature","properties":{"territory_id":"mg-3148004-planalto","name":"Planalto","municipality_id":"mg-3148004","polling_places":1,"approx":false,"official":true,"method":"official-ibge-cd2022","whole_municipality":false,"approx_coords_only":false,"official_name":"Planalto","official_code":"3148004061","match":"direct"},"geometry":{"type":"MultiPolygon","coordinates":[[[[-46.49822,-18.63706],[-46.49857,-18.63016],[-46.49856,-18.62911],[-46.49952,-18.62838],[-46.50001,-18.62754],[-46.50051,-18.62734],[-46.50037,-18.62646],[-46.49926,-18.62568],[-46.49883,-18.62581],[-46.49838,-18.6254],[-46.49203,-18.63058],[-46.49059,-18.63183],[-46.48991,-18.63259],[-46.48888,-18.63405],[-46.48849,-18.63492],[-46.48747,-18.63754],[-46.48799,-18.63777],[-46.48893,-18.63814],[-46.49259,-18.63966],[-46.49444,-18.6407],[-46.49793,-18.64319],[-46.49822,-18.63706]]]]}},{"type":"Feature","properties":{"territory_id":"mg-3148004-ponto-chic","name":"Ponto Chic","municipality_id":"mg-3148004","polling_places":1,"approx":true,"official":false,"method":"voronoi-polling-places","whole_municipality":false,"approx_coords_only":false},"geometry":{"type":"MultiPolygon","coordinates":[[[[-46.51305,-18.57089],[-46.51105,-18.57093],[-46.51106,-18.57534],[-46.51105,-18.57462],[-46.50874,-18.57462],[-46.50623,-18.57466],[-46.50565,-18.57479],[-46.50541,-18.57488],[-46.50534,-18.57467],[-46.50285,-18.57374],[-46.50131,-18.57321],[-46.5009,-18.57301],[-46.50035,-18.57277],[-46.4998,-18.57264],[-46.49953,-18.57262],[-46.49771,-18.57204],[-46.49696,-18.57166],[-46.49578,-18.5713],[-46.50043,-18.52215],[-46.51305,-18.57089]]],[[[-46.50745,-18.58135],[-46.503,-18.5882],[-46.49622,-18.58941],[-46.49513,-18.58884],[-46.49578,-18.58717],[-46.49613,-18.58626],[-46.49857,-18.57981],[-46.49844,-18.57918],[-46.49619,-18.57945],[-46.50004,-18.57898],[-46.50188,-18.57872],[-46.502,-18.57935],[-46.50246,-18.5793],[-46.50274,-18.57996],[-46.50366,-18.57958],[-46.5036,-18.57943],[-46.5039,-18.5792],[-46.50455,-18.5794],[-46.50482,-18.57977],[-46.50559,-18.5804],[-46.50593,-18.58023],[-46.50698,-18.57988],[-46.50745,-18.58135]]]]}},{"type":"Feature","properties":{"territory_id":"mg-3148004-porto-das-posses","name":"Porto das Posses","municipality_id":"mg-3148004","polling_places":1,"approx":true,"official":false,"method":"voronoi-polling-places","whole_municipality":false,"approx_coords_only":false},"geometry":{"type":"MultiPolygon","coordinates":[[[[-46.59347,-18.53944],[-46.58684,-18.5446],[-46.49799,-18.50708],[-46.4714,-18.48591],[-46.46505,-18.47957],[-46.4682,-18.4769],[-46.5366,-18.4592],[-46.56376,-18.4406],[-46.59347,-18.53944]]]]}},{"type":"Feature","properties":{"territory_id":"mg-3148004-posses-de-chumbo","name":"Posses de Chumbo","municipality_id":"mg-3148004","polling_places":1,"approx":true,"official":false,"method":"voronoi-polling-places","whole_municipality":false,"approx_coords_only":false},"geometry":{"type":"MultiPolygon","coordinates":[[[[-46.37832,-18.62979],[-46.3137,-18.6452],[-46.30723,-18.66793],[-46.17834,-18.61837],[-46.18451,-18.60903],[-46.33752,-18.5949],[-46.3386,-18.5963],[-46.33962,-18.5947],[-46.37053,-18.59185],[-46.37817,-18.62856],[-46.37832,-18.62979]]]]}},{"type":"Feature","properties":{"territory_id":"mg-3148004-residencial-sorriso","name":"Residencial Sorriso","municipality_id":"mg-3148004","polling_places":1,"approx":false,"official":true,"method":"official-ibge-cd2022","whole_municipality":false,"approx_coords_only":false,"official_name":"Residencial Sorriso","official_code":"3148004023","match":"direct"},"geometry":{"type":"MultiPolygon","coordinates":[[[[-46.53732,-18.56346],[-46.5349,-18.56367],[-46.53274,-18.56144],[-46.53121,-18.56393],[-46.53029,-18.56314],[-46.52999,-18.56371],[-46.52978,-18.56468],[-46.52941,-18.56603],[-46.52991,-18.56614],[-46.52992,-18.5663],[-46.5298,-18.56648],[-46.52956,-18.56859],[-46.52944,-18.56947],[-46.53003,-18.56961],[-46.53091,-18.56995],[-46.53159,-18.56877],[-46.53229,-18.56738],[-46.53344,-18.56615],[-46.53405,-18.56703],[-46.53567,-18.5669],[-46.53614,-18.56689],[-46.53702,-18.5669],[-46.53675,-18.56753],[-46.53673,-18.56826],[-46.53723,-18.56973],[-46.53767,-18.57092],[-46.53838,-18.57161],[-46.54059,-18.5731],[-46.54284,-18.57381],[-46.54504,-18.57543],[-46.54576,-18.576],[-46.5466,-18.57681],[-46.54754,-18.57685],[-46.5483,-18.5767],[-46.54889,-18.57605],[-46.54928,-18.57467],[-46.54946,-18.57301],[-46.54937,-18.57162],[-46.54885,-18.56849],[-46.54776,-18.56613],[-46.54712,-18.56464],[-46.54804,-18.56313],[-46.54676,-18.56325],[-46.54605,-18.56344],[-46.54545,-18.56396],[-46.54467,-18.56418],[-46.54433,-18.56479],[-46.5442,-18.56521],[-46.54193,-18.56632],[-46.54057,-18.56405],[-46.54001,-18.5632],[-46.5384,-18.56336],[-46.53732,-18.56346]]]]}},{"type":"Feature","properties":{"territory_id":"mg-3148004-rosario","name":"Rosário","municipality_id":"mg-3148004","polling_places":1,"approx":false,"official":true,"method":"official-ibge-cd2022","whole_municipality":false,"approx_coords_only":false,"official_name":"Rosário","official_code":"3148004004","match":"direct"},"geometry":{"type":"MultiPolygon","coordinates":[[[[-46.51842,-18.57994],[-46.51951,-18.57957],[-46.5193,-18.579],[-46.52051,-18.57863],[-46.52024,-18.57751],[-46.51865,-18.57743],[-46.51802,-18.57724],[-46.51858,-18.57586],[-46.51888,-18.57507],[-46.51767,-18.57463],[-46.51759,-18.57516],[-46.51723,-18.57503],[-46.51615,-18.57737],[-46.51481,-18.57685],[-46.51484,-18.58173],[-46.51492,-18.58175],[-46.51501,-18.58181],[-46.51507,-18.5819],[-46.51508,-18.58208],[-46.51883,-18.58167],[-46.51884,-18.5832],[-46.51939,-18.58342],[-46.51969,-18.58249],[-46.52091,-18.58246],[-46.52124,-18.58193],[-46.52184,-18.58129],[-46.52182,-18.5806],[-46.52157,-18.58056],[-46.52078,-18.58072],[-46.51879,-18.58105],[-46.51842,-18.57994]]]]}},{"type":"Feature","properties":{"territory_id":"mg-3148004-santa-luzia","name":"Santa Luzia","municipality_id":"mg-3148004","polling_places":1,"approx":false,"official":true,"method":"official-ibge-cd2022","whole_municipality":false,"approx_coords_only":false,"official_name":"Santa Luzia","official_code":"3148004053","match":"direct"},"geometry":{"type":"MultiPolygon","coordinates":[[[[-46.52902,-18.60969],[-46.52951,-18.60905],[-46.53033,-18.60844],[-46.53072,-18.60817],[-46.53263,-18.60536],[-46.53277,-18.60501],[-46.53272,-18.60459],[-46.53249,-18.6044],[-46.53177,-18.60435],[-46.53127,-18.60427],[-46.5304,-18.6039],[-46.53006,-18.6036],[-46.52985,-18.60327],[-46.53005,-18.60297],[-46.52972,-18.60272],[-46.52955,-18.60298],[-46.5294,-18.60339],[-46.52896,-18.6037],[-46.5263,-18.60523],[-46.52614,-18.60513],[-46.52555,-18.60493],[-46.52495,-18.60478],[-46.52345,-18.60973],[-46.52603,-18.61028],[-46.52882,-18.61085],[-46.52902,-18.60969]]]]}},{"type":"Feature","properties":{"territory_id":"mg-3148004-santa-maria","name":"Santa Maria","municipality_id":"mg-3148004","polling_places":1,"approx":true,"official":false,"method":"voronoi-polling-places","whole_municipality":false,"approx_coords_only":false},"geometry":{"type":"MultiPolygon","coordinates":[[[[-46.48056,-18.5835],[-46.47378,-18.58653],[-46.46526,-18.59031],[-46.37817,-18.62856],[-46.37053,-18.59185],[-46.36883,-18.52523],[-46.4243,-18.5141],[-46.46505,-18.47957],[-46.4714,-18.48591],[-46.48056,-18.5835]]]]}},{"type":"Feature","properties":{"territory_id":"mg-3148004-santa-terezinha","name":"Santa Terezinha","municipality_id":"mg-3148004","polling_places":1,"approx":false,"official":true,"method":"official-ibge-cd2022","whole_municipality":false,"approx_coords_only":false,"official_name":"Santa Terezinha","official_code":"3148004051","match":"direct"},"geometry":{"type":"MultiPolygon","coordinates":[[[[-46.52578,-18.59973],[-46.52468,-18.59948],[-46.52345,-18.59923],[-46.52265,-18.60177],[-46.52188,-18.6041],[-46.52263,-18.60428],[-46.52495,-18.60478],[-46.52555,-18.60493],[-46.52614,-18.60513],[-46.5263,-18.60523],[-46.52896,-18.6037],[-46.5294,-18.60339],[-46.52955,-18.60298],[-46.52972,-18.60272],[-46.53032,-18.60137],[-46.53051,-18.60078],[-46.52924,-18.60049],[-46.52582,-18.59973],[-46.52578,-18.59973]]]]}},{"type":"Feature","properties":{"territory_id":"mg-3148004-santana-de-patos","name":"Santana de Patos","municipality_id":"mg-3148004","polling_places":1,"approx":true,"official":false,"method":"voronoi-polling-places","whole_municipality":false,"approx_coords_only":false},"geometry":{"type":"MultiPolygon","coordinates":[[[[-46.66748,-18.81109],[-46.6674,-18.8111],[-46.6243,-18.8554],[-46.6444,-18.8739],[-46.6161,-18.9241],[-46.6189,-18.9557],[-46.5934,-19.0057],[-46.5675,-18.9879],[-46.5606,-18.9797],[-46.52184,-18.82072],[-46.5285,-18.8088],[-46.5181,-18.752],[-46.5401,-18.7305],[-46.53826,-18.72906],[-46.55306,-18.72319],[-46.66748,-18.81109]]]]}},{"type":"Feature","properties":{"territory_id":"mg-3148004-santo-antonio","name":"Santo Antônio","municipality_id":"mg-3148004","polling_places":1,"approx":false,"official":true,"method":"official-ibge-cd2022","whole_municipality":false,"approx_coords_only":false,"official_name":"Santo Antônio","official_code":"3148004016","match":"direct"},"geometry":{"type":"MultiPolygon","coordinates":[[[[-46.52531,-18.58619],[-46.52518,-18.58631],[-46.52455,-18.58715],[-46.52423,-18.58768],[-46.52383,-18.58831],[-46.52283,-18.58966],[-46.52266,-18.58981],[-46.52232,-18.58995],[-46.52204,-18.58996],[-46.52182,-18.58994],[-46.52174,-18.59068],[-46.52817,-18.59154],[-46.5287,-18.59066],[-46.52961,-18.58991],[-46.53093,-18.58928],[-46.53247,-18.58868],[-46.53407,-18.58825],[-46.53525,-18.58804],[-46.53506,-18.58752],[-46.5342,-18.58725],[-46.53343,-18.58639],[-46.53283,-18.58654],[-46.53065,-18.58642],[-46.52827,-18.58524],[-46.52798,-18.58515],[-46.52787,-18.58519],[-46.52773,-18.58536],[-46.52708,-18.58537],[-46.52671,-18.58548],[-46.52565,-18.58591],[-46.52531,-18.58619]]]]}},{"type":"Feature","properties":{"territory_id":"mg-3148004-sao-francisco","name":"São Francisco","municipality_id":"mg-3148004","polling_places":1,"approx":false,"official":true,"method":"official-ibge-cd2022","whole_municipality":false,"approx_coords_only":false,"official_name":"São Francisco","official_code":"3148004006","match":"direct"},"geometry":{"type":"MultiPolygon","coordinates":[[[[-46.51158,-18.58488],[-46.51248,-18.58393],[-46.51354,-18.58285],[-46.51365,-18.58275],[-46.51454,-18.58209],[-46.51454,-18.58191],[-46.50969,-18.57979],[-46.5095,-18.57995],[-46.5091,-18.57973],[-46.50894,-18.58082],[-46.5083,-18.58403],[-46.50894,-18.58581],[-46.51045,-18.58667],[-46.51048,-18.58663],[-46.51158,-18.58488]]]]}},{"type":"Feature","properties":{"territory_id":"mg-3148004-sao-miguel","name":"São Miguel","municipality_id":"mg-3148004","polling_places":1,"approx":true,"official":false,"method":"voronoi-polling-places","whole_municipality":false,"approx_coords_only":false},"geometry":{"type":"MultiPolygon","coordinates":[[[[-46.58684,-18.5446],[-46.58037,-18.60541],[-46.53455,-18.58816],[-46.53525,-18.58804],[-46.53506,-18.58752],[-46.5342,-18.58725],[-46.53343,-18.58639],[-46.53283,-18.58654],[-46.53103,-18.58644],[-46.52361,-18.58045],[-46.5246,-18.58016],[-46.52518,-18.57985],[-46.52589,-18.57917],[-46.52634,-18.57848],[-46.52426,-18.57757],[-46.52374,-18.57713],[-46.52223,-18.57687],[-46.52168,-18.57707],[-46.52134,-18.57722],[-46.5211,-18.57737],[-46.52087,-18.57758],[-46.52032,-18.57779],[-46.5203,-18.57778],[-46.52024,-18.57751],[-46.51995,-18.5775],[-46.51842,-18.57625],[-46.51858,-18.57586],[-46.51888,-18.57507],[-46.51767,-18.57463],[-46.51781,-18.5739],[-46.51861,-18.57174],[-46.5182,-18.5716],[-46.51683,-18.57161],[-46.51476,-18.57163],[-46.51472,-18.57086],[-46.51305,-18.57089],[-46.50043,-18.52215],[-46.49799,-18.50708],[-46.58684,-18.5446]],[[-46.54946,-18.57301],[-46.54937,-18.57162],[-46.54885,-18.56849],[-46.54776,-18.56613],[-46.54712,-18.56464],[-46.54804,-18.56313],[-46.54676,-18.56325],[-46.54605,-18.56344],[-46.54545,-18.56396],[-46.54467,-18.56418],[-46.54433,-18.56479],[-46.5442,-18.56521],[-46.54193,-18.56632],[-46.54057,-18.56405],[-46.54001,-18.5632],[-46.54008,-18.56308],[-46.53943,-18.56223],[-46.53736,-18.55962],[-46.53719,-18.55955],[-46.53526,-18.55705],[-46.53458,-18.5561],[-46.53461,-18.55594],[-46.52897,-18.55293],[-46.52812,-18.55316],[-46.52562,-18.55383],[-46.52536,-18.55388],[-46.52521,-18.55197],[-46.52547,-18.55191],[-46.52534,-18.55145],[-46.52385,-18.54774],[-46.51709,-18.55293],[-46.51541,-18.55373],[-46.51456,-18.55455],[-46.51674,-18.55973],[-46.51682,-18.56106],[-46.51656,-18.5647],[-46.51686,-18.56475],[-46.51679,-18.56581],[-46.5226,-18.56582],[-46.52289,-18.56535],[-46.5216,-18.56748],[-46.52071,-18.56885],[-46.52068,-18.56927],[-46.52271,-18.57152],[-46.52335,-18.57219],[-46.52489,-18.57341],[-46.5262,-18.57381],[-46.52649,-18.57281],[-46.52921,-18.57348],[-46.52887,-18.57453],[-46.53037,-18.57495],[-46.53152,-18.57519],[-46.53221,-18.5753],[-46.53336,-18.57553],[-46.53392,-18.57561],[-46.53602,-18.57607],[-46.53638,-18.57614],[-46.53652,-18.57524],[-46.53626,-18.57327],[-46.53767,-18.57092],[-46.53838,-18.57161],[-46.54059,-18.5731],[-46.54284,-18.57381],[-46.54504,-18.57543],[-46.54576,-18.576],[-46.5466,-18.57681],[-46.54754,-18.57685],[-46.5483,-18.5767],[-46.54889,-18.57605],[-46.54928,-18.57467],[-46.54946,-18.57301]]],[[[-46.52691,-18.56401],[-46.5263,-18.56621],[-46.52675,-18.56456],[-46.52691,-18.56401]]],[[[-46.52501,-18.56071],[-46.52446,-18.56237],[-46.52476,-18.56144],[-46.52501,-18.56071]]]]}},{"type":"Feature","properties":{"territory_id":"mg-3148004-sebastiao-amorim","name":"Sebastião Amorim","municipality_id":"mg-3148004","polling_places":2,"approx":false,"official":true,"method":"official-ibge-cd2022","whole_municipality":false,"approx_coords_only":false,"official_name":"Sebastião Amorim","official_code":"3148004046","match":"direct"},"geometry":{"type":"MultiPolygon","coordinates":[[[[-46.49752,-18.59701],[-46.49795,-18.59649],[-46.49987,-18.59556],[-46.5,-18.59575],[-46.50095,-18.59568],[-46.50089,-18.59505],[-46.50337,-18.59478],[-46.50314,-18.59301],[-46.50285,-18.59266],[-46.50184,-18.59155],[-46.4992,-18.59233],[-46.49841,-18.59261],[-46.49372,-18.59406],[-46.49531,-18.59878],[-46.49697,-18.59859],[-46.49746,-18.59781],[-46.49752,-18.59701]]]]}},{"type":"Feature","properties":{"territory_id":"mg-3148004-sertaozinho","name":"Sertaozinho","municipality_id":"mg-3148004","polling_places":1,"approx":true,"official":false,"method":"voronoi-polling-places","whole_municipality":false,"approx_coords_only":false},"geometry":{"type":"MultiPolygon","coordinates":[[[[-46.51496,-18.59984],[-46.51367,-18.60383],[-46.51477,-18.59733],[-46.51494,-18.59737],[-46.51496,-18.59948],[-46.51496,-18.59984]]]]}},{"type":"Feature","properties":{"territory_id":"mg-3148004-sobradinho","name":"Sobradinho","municipality_id":"mg-3148004","polling_places":1,"approx":false,"official":true,"method":"official-ibge-cd2022","whole_municipality":false,"approx_coords_only":false,"official_name":"Sobradinho","official_code":"3148004002","match":"direct"},"geometry":{"type":"MultiPolygon","coordinates":[[[[-46.52325,-18.58458],[-46.52192,-18.58431],[-46.52132,-18.58417],[-46.51884,-18.5832],[-46.51815,-18.58477],[-46.51828,-18.58482],[-46.51835,-18.58482],[-46.51945,-18.58589],[-46.51953,-18.58615],[-46.51923,-18.58733],[-46.51933,-18.58765],[-46.51978,-18.58822],[-46.52086,-18.58952],[-46.52102,-18.58963],[-46.52158,-18.58988],[-46.52182,-18.58994],[-46.52204,-18.58996],[-46.52232,-18.58995],[-46.52266,-18.58981],[-46.52283,-18.58966],[-46.52383,-18.58831],[-46.52423,-18.58768],[-46.52455,-18.58715],[-46.52418,-18.58596],[-46.52407,-18.58478],[-46.52325,-18.58458]]]]}},{"type":"Feature","properties":{"territory_id":"mg-3148004-varzea","name":"Varzea","municipality_id":"mg-3148004","polling_places":1,"approx":false,"official":true,"method":"official-ibge-cd2022","whole_municipality":false,"approx_coords_only":false,"official_name":"Várzea","official_code":"3148004015","match":"direct"},"geometry":{"type":"MultiPolygon","coordinates":[[[[-46.52137,-18.59327],[-46.5212,-18.59446],[-46.5209,-18.59462],[-46.52114,-18.59485],[-46.52154,-18.59481],[-46.52461,-18.5957],[-46.52931,-18.59712],[-46.53064,-18.59361],[-46.52939,-18.59396],[-46.52856,-18.59396],[-46.52825,-18.59393],[-46.52768,-18.59355],[-46.52742,-18.59299],[-46.52786,-18.59202],[-46.52817,-18.59154],[-46.52174,-18.59068],[-46.52137,-18.59327]]]]}},{"type":"Feature","properties":{"territory_id":"mg-3148004-vieiras","name":"Vieiras","municipality_id":"mg-3148004","polling_places":1,"approx":true,"official":false,"method":"voronoi-polling-places","whole_municipality":false,"approx_coords_only":false},"geometry":{"type":"MultiPolygon","coordinates":[[[[-46.7803,-18.6934],[-46.7396,-18.7763],[-46.7106,-18.8034],[-46.66748,-18.81109],[-46.55306,-18.72319],[-46.5806,-18.68444],[-46.77791,-18.67647],[-46.7803,-18.6934]]]]}},{"type":"Feature","properties":{"territory_id":"mg-3148004-vila-garcia","name":"Vila Garcia","municipality_id":"mg-3148004","polling_places":1,"approx":false,"official":true,"method":"official-ibge-cd2022","whole_municipality":false,"approx_coords_only":false,"official_name":"Vila Garcia","official_code":"3148004033","match":"direct"},"geometry":{"type":"MultiPolygon","coordinates":[[[[-46.50541,-18.57488],[-46.50534,-18.57467],[-46.50285,-18.57374],[-46.50131,-18.57321],[-46.50126,-18.57323],[-46.50146,-18.57381],[-46.50148,-18.57394],[-46.50194,-18.57553],[-46.5012,-18.57572],[-46.50181,-18.57845],[-46.50188,-18.57872],[-46.502,-18.57935],[-46.50246,-18.5793],[-46.50274,-18.57996],[-46.50366,-18.57958],[-46.5036,-18.57943],[-46.5039,-18.5792],[-46.50455,-18.5794],[-46.50482,-18.57977],[-46.50559,-18.5804],[-46.50593,-18.58023],[-46.50698,-18.57988],[-46.5083,-18.58403],[-46.50894,-18.58082],[-46.50939,-18.57772],[-46.50931,-18.57726],[-46.50758,-18.57695],[-46.50746,-18.5767],[-46.50683,-18.57599],[-46.50622,-18.5755],[-46.50596,-18.57523],[-46.50565,-18.57479],[-46.50541,-18.57488]]]]}},{"type":"Feature","properties":{"territory_id":"mg-3148004-zona-rural","name":"Zona Rural","municipality_id":"mg-3148004","polling_places":1,"approx":true,"official":false,"method":"voronoi-polling-places","whole_municipality":false,"approx_coords_only":false},"geometry":{"type":"MultiPolygon","coordinates":[[[[-46.6363,-18.45476],[-46.60135,-18.53556],[-46.59347,-18.53944],[-46.56376,-18.4406],[-46.6144,-18.4059],[-46.62052,-18.40581],[-46.6363,-18.45476]]]]}}]}