{"type":"FeatureCollection","features":[{"type":"Feature","properties":{"territory_id":"mg-3148905-centro","name":"Centro","municipality_id":"mg-3148905","polling_places":2,"approx":true,"official":false,"method":"voronoi-polling-places","whole_municipality":false,"approx_coords_only":false},"geometry":{"type":"MultiPolygon","coordinates":[[[[-45.32258,-20.24113],[-45.25406,-20.29055],[-45.23205,-20.30776],[-45.1309,-20.3344],[-45.1284,-20.3332],[-45.1141,-20.3314],[-45.1179,-20.258],[-45.1543,-20.181],[-45.1928,-20.2373],[-45.249,-20.2028],[-45.3078,-20.2268],[-45.32258,-20.24113]]]]}},{"type":"Feature","properties":{"territory_id":"mg-3148905-zona-rural","name":"Zona Rural","municipality_id":"mg-3148905","polling_places":2,"approx":true,"official":false,"method":"voronoi-polling-places","whole_municipality":false,"approx_coords_only":false},"geometry":{"type":"MultiPolygon","coordinates":[[[[-45.351,-20.2687],[-45.3294,-20.3128],[-45.3369,-20.3336],[-45.3206,-20.3506],[-45.2865,-20.3587],[-45.2534,-20.385],[-45.2336,-20.381],[-45.2028,-20.3426],[-45.1726,-20.3544],[-45.1309,-20.3344],[-45.23205,-20.30776],[-45.25406,-20.29055],[-45.32258,-20.24113],[-45.351,-20.2687]]]]}}]}