{"type":"FeatureCollection","features":[{"type":"Feature","properties":{"territory_id":"mg-3148608-alvorada","name":"Alvorada","municipality_id":"mg-3148608","polling_places":1,"approx":false,"official":true,"method":"official-ibge-cd2022","whole_municipality":false,"approx_coords_only":false,"official_name":"Alvorada","official_code":"3148608007","match":"direct"},"geometry":{"type":"MultiPolygon","coordinates":[[[[-42.55754,-18.55977],[-42.558,-18.55925],[-42.55848,-18.55884],[-42.55886,-18.55856],[-42.56012,-18.55786],[-42.56083,-18.55757],[-42.56129,-18.55733],[-42.56138,-18.55739],[-42.56151,-18.55743],[-42.5617,-18.55745],[-42.56241,-18.55737],[-42.56277,-18.55746],[-42.56327,-18.55754],[-42.56328,-18.55752],[-42.5632,-18.55749],[-42.56331,-18.55707],[-42.56389,-18.55489],[-42.56395,-18.55491],[-42.56396,-18.55486],[-42.56364,-18.55463],[-42.5634,-18.55449],[-42.56171,-18.55412],[-42.56138,-18.55403],[-42.56138,-18.55396],[-42.56133,-18.55392],[-42.56129,-18.55392],[-42.56119,-18.55379],[-42.56095,-18.55371],[-42.5606,-18.55356],[-42.56057,-18.55345],[-42.56048,-18.55333],[-42.56022,-18.55316],[-42.55994,-18.5529],[-42.55981,-18.55275],[-42.55973,-18.55251],[-42.55969,-18.55232],[-42.55966,-18.55208],[-42.55942,-18.55187],[-42.55854,-18.55125],[-42.55787,-18.55133],[-42.55603,-18.55136],[-42.55519,-18.55144],[-42.55468,-18.55151],[-42.55457,-18.5515],[-42.55369,-18.55114],[-42.55356,-18.55095],[-42.55347,-18.55075],[-42.55333,-18.55055],[-42.55336,-18.55112],[-42.55339,-18.55126],[-42.55338,-18.55148],[-42.55332,-18.55179],[-42.55311,-18.55211],[-42.55289,-18.55237],[-42.55259,-18.55265],[-42.55253,-18.55277],[-42.5517,-18.5534],[-42.55159,-18.55358],[-42.5517,-18.55367],[-42.55241,-18.55398],[-42.55169,-18.55506],[-42.55113,-18.55563],[-42.54936,-18.55793],[-42.55245,-18.5586],[-42.55522,-18.55917],[-42.55625,-18.55995],[-42.55724,-18.56038],[-42.55754,-18.55977]]]]}},{"type":"Feature","properties":{"territory_id":"mg-3148608-bomba","name":"Bomba","municipality_id":"mg-3148608","polling_places":2,"approx":false,"official":true,"method":"official-ibge-cd2022","whole_municipality":false,"approx_coords_only":false,"official_name":"Bomba","official_code":"3148608003","match":"direct"},"geometry":{"type":"MultiPolygon","coordinates":[[[[-42.5685,-18.54263],[-42.56856,-18.54251],[-42.56854,-18.54226],[-42.56864,-18.54205],[-42.56845,-18.54198],[-42.56829,-18.54189],[-42.56807,-18.54172],[-42.56787,-18.54141],[-42.56717,-18.53932],[-42.56695,-18.53876],[-42.56672,-18.53849],[-42.56635,-18.53826],[-42.566,-18.53824],[-42.56576,-18.53827],[-42.56551,-18.5384],[-42.56504,-18.53894],[-42.56463,-18.53948],[-42.56441,-18.53989],[-42.56429,-18.54025],[-42.56376,-18.54162],[-42.56296,-18.54378],[-42.56238,-18.5452],[-42.56235,-18.54562],[-42.56241,-18.5458],[-42.56249,-18.54588],[-42.56282,-18.54601],[-42.56299,-18.54586],[-42.56352,-18.5453],[-42.564,-18.54476],[-42.56419,-18.54445],[-42.56449,-18.54369],[-42.56537,-18.54228],[-42.5655,-18.54222],[-42.5656,-18.54225],[-42.56562,-18.54236],[-42.56552,-18.54321],[-42.5654,-18.54403],[-42.56498,-18.54487],[-42.56551,-18.54522],[-42.56557,-18.5453],[-42.5656,-18.54551],[-42.56577,-18.54567],[-42.56605,-18.54585],[-42.56628,-18.54605],[-42.56597,-18.54634],[-42.56618,-18.54656],[-42.56643,-18.5467],[-42.56649,-18.54671],[-42.56655,-18.54659],[-42.56668,-18.54651],[-42.56708,-18.5464],[-42.56719,-18.54625],[-42.56722,-18.54599],[-42.56707,-18.54559],[-42.56711,-18.54527],[-42.56708,-18.54507],[-42.56709,-18.54472],[-42.56711,-18.54452],[-42.567,-18.54435],[-42.56694,-18.54418],[-42.567,-18.544],[-42.56694,-18.54373],[-42.56687,-18.54356],[-42.56687,-18.54343],[-42.56706,-18.54328],[-42.56727,-18.54317],[-42.56735,-18.54309],[-42.56738,-18.543],[-42.5676,-18.54284],[-42.56789,-18.54286],[-42.56799,-18.5429],[-42.56812,-18.5429],[-42.56822,-18.54286],[-42.56825,-18.54281],[-42.56823,-18.54278],[-42.56829,-18.54275],[-42.5685,-18.54263]]]]}},{"type":"Feature","properties":{"territory_id":"mg-3148608-centro","name":"Centro","municipality_id":"mg-3148608","polling_places":2,"approx":false,"official":true,"method":"official-ibge-cd2022","whole_municipality":false,"approx_coords_only":false,"official_name":"Centro","official_code":"3148608001","match":"direct"},"geometry":{"type":"MultiPolygon","coordinates":[[[[-42.56282,-18.54601],[-42.56249,-18.54588],[-42.56241,-18.5458],[-42.56221,-18.54526],[-42.562,-18.54398],[-42.56174,-18.54395],[-42.56159,-18.54399],[-42.56134,-18.54412],[-42.56111,-18.54433],[-42.56063,-18.54491],[-42.56044,-18.54516],[-42.55994,-18.54505],[-42.56002,-18.54471],[-42.55986,-18.54459],[-42.55967,-18.54482],[-42.5591,-18.54515],[-42.55903,-18.54538],[-42.55892,-18.54556],[-42.55874,-18.54585],[-42.55864,-18.54594],[-42.55871,-18.54611],[-42.55873,-18.54624],[-42.55866,-18.54645],[-42.55846,-18.54664],[-42.55822,-18.54695],[-42.55778,-18.54703],[-42.55702,-18.54725],[-42.55672,-18.54697],[-42.55649,-18.54717],[-42.55561,-18.54786],[-42.55495,-18.54831],[-42.55491,-18.54836],[-42.55497,-18.54842],[-42.55454,-18.54882],[-42.55436,-18.54895],[-42.55425,-18.54906],[-42.55411,-18.54914],[-42.55391,-18.54921],[-42.5537,-18.54926],[-42.55339,-18.54927],[-42.55295,-18.54938],[-42.55285,-18.54942],[-42.55283,-18.54949],[-42.553,-18.54958],[-42.5531,-18.54966],[-42.55324,-18.54983],[-42.55333,-18.55002],[-42.55332,-18.55018],[-42.55333,-18.55055],[-42.55347,-18.55075],[-42.55356,-18.55095],[-42.55369,-18.55114],[-42.55457,-18.5515],[-42.55468,-18.55151],[-42.55519,-18.55144],[-42.55603,-18.55136],[-42.55787,-18.55133],[-42.55854,-18.55125],[-42.55872,-18.55109],[-42.55914,-18.55091],[-42.56024,-18.55049],[-42.56036,-18.5505],[-42.56045,-18.55061],[-42.5604,-18.55083],[-42.56006,-18.55151],[-42.56013,-18.5515],[-42.56031,-18.55132],[-42.56043,-18.55113],[-42.56068,-18.5513],[-42.56104,-18.55068],[-42.56123,-18.55048],[-42.56142,-18.55034],[-42.56159,-18.55017],[-42.56152,-18.55004],[-42.56182,-18.54984],[-42.56218,-18.55016],[-42.56229,-18.55002],[-42.56233,-18.54993],[-42.56273,-18.5495],[-42.56279,-18.54937],[-42.56274,-18.54925],[-42.56252,-18.54896],[-42.56242,-18.54889],[-42.56214,-18.54883],[-42.5619,-18.54874],[-42.56143,-18.54862],[-42.56175,-18.54856],[-42.56203,-18.54854],[-42.56225,-18.54842],[-42.56249,-18.54807],[-42.5631,-18.54775],[-42.56328,-18.54788],[-42.56334,-18.54784],[-42.56396,-18.54677],[-42.56496,-18.54494],[-42.56498,-18.54487],[-42.5654,-18.54403],[-42.56552,-18.54321],[-42.56562,-18.54236],[-42.5656,-18.54225],[-42.5655,-18.54222],[-42.56537,-18.54228],[-42.56449,-18.54369],[-42.56419,-18.54445],[-42.564,-18.54476],[-42.56352,-18.5453],[-42.56299,-18.54586],[-42.56282,-18.54601]]]]}},{"type":"Feature","properties":{"territory_id":"mg-3148608-zona-rural","name":"Zona Rural","municipality_id":"mg-3148608","polling_places":13,"approx":true,"official":false,"method":"voronoi-polling-places","whole_municipality":false,"approx_coords_only":false},"geometry":{"type":"MultiPolygon","coordinates":[[[[-42.7204,-18.6473],[-42.718,-18.6549],[-42.6856,-18.6673],[-42.6328,-18.6643],[-42.6206,-18.7033],[-42.5743,-18.7044],[-42.5349,-18.7247],[-42.4745,-18.7363],[-42.3518,-18.7443],[-42.3633,-18.7308],[-42.3621,-18.6462],[-42.4196,-18.6095],[-42.4462,-18.5316],[-42.3707,-18.5192],[-42.4087,-18.4824],[-42.3845,-18.3732],[-42.3973,-18.3544],[-42.4724,-18.3471],[-42.5112,-18.3366],[-42.5435,-18.3442],[-42.5708,-18.3885],[-42.5773,-18.4266],[-42.6149,-18.4165],[-42.6176,-18.4397],[-42.5954,-18.5652],[-42.6611,-18.6002],[-42.6855,-18.5871],[-42.7204,-18.6473]],[[-42.56864,-18.54205],[-42.56845,-18.54198],[-42.56829,-18.54189],[-42.56807,-18.54172],[-42.56787,-18.54141],[-42.56717,-18.53932],[-42.56695,-18.53876],[-42.56672,-18.53849],[-42.56635,-18.53826],[-42.566,-18.53824],[-42.56576,-18.53827],[-42.56551,-18.5384],[-42.56504,-18.53894],[-42.56463,-18.53948],[-42.56441,-18.53989],[-42.56429,-18.54025],[-42.56376,-18.54162],[-42.56296,-18.54378],[-42.56238,-18.5452],[-42.56235,-18.54562],[-42.56241,-18.5458],[-42.56221,-18.54526],[-42.562,-18.54398],[-42.56174,-18.54395],[-42.56159,-18.54399],[-42.56134,-18.54412],[-42.56111,-18.54433],[-42.56063,-18.54491],[-42.56044,-18.54516],[-42.55994,-18.54505],[-42.56002,-18.54471],[-42.55986,-18.54459],[-42.55967,-18.54482],[-42.5591,-18.54515],[-42.55903,-18.54538],[-42.55892,-18.54556],[-42.55874,-18.54585],[-42.55864,-18.54594],[-42.55871,-18.54611],[-42.55873,-18.54624],[-42.55866,-18.54645],[-42.55846,-18.54664],[-42.55822,-18.54695],[-42.55778,-18.54703],[-42.55702,-18.54725],[-42.55672,-18.54697],[-42.55649,-18.54717],[-42.55561,-18.54786],[-42.55495,-18.54831],[-42.55491,-18.54836],[-42.55497,-18.54842],[-42.55454,-18.54882],[-42.55436,-18.54895],[-42.55425,-18.54906],[-42.55411,-18.54914],[-42.55391,-18.54921],[-42.5537,-18.54926],[-42.55339,-18.54927],[-42.55295,-18.54938],[-42.55285,-18.54942],[-42.55283,-18.54949],[-42.553,-18.54958],[-42.5531,-18.54966],[-42.55324,-18.54983],[-42.55333,-18.55002],[-42.55332,-18.55018],[-42.55333,-18.55055],[-42.55336,-18.55112],[-42.55339,-18.55126],[-42.55338,-18.55148],[-42.55332,-18.55179],[-42.55311,-18.55211],[-42.55289,-18.55237],[-42.55259,-18.55265],[-42.55253,-18.55277],[-42.5517,-18.5534],[-42.55159,-18.55358],[-42.5517,-18.55367],[-42.55241,-18.55398],[-42.55169,-18.55506],[-42.55113,-18.55563],[-42.54936,-18.55793],[-42.55245,-18.5586],[-42.55522,-18.55917],[-42.55625,-18.55995],[-42.55724,-18.56038],[-42.55754,-18.55977],[-42.558,-18.55925],[-42.55848,-18.55884],[-42.55886,-18.55856],[-42.56012,-18.55786],[-42.56083,-18.55757],[-42.56129,-18.55733],[-42.56138,-18.55739],[-42.56151,-18.55743],[-42.5617,-18.55745],[-42.56241,-18.55737],[-42.56277,-18.55746],[-42.56327,-18.55754],[-42.56328,-18.55752],[-42.5632,-18.55749],[-42.56331,-18.55707],[-42.56389,-18.55489],[-42.56395,-18.55491],[-42.56396,-18.55486],[-42.56364,-18.55463],[-42.5634,-18.55449],[-42.56171,-18.55412],[-42.56138,-18.55403],[-42.56138,-18.55396],[-42.56133,-18.55392],[-42.56129,-18.55392],[-42.56119,-18.55379],[-42.56095,-18.55371],[-42.5606,-18.55356],[-42.56057,-18.55345],[-42.56048,-18.55333],[-42.56022,-18.55316],[-42.55994,-18.5529],[-42.55981,-18.55275],[-42.55973,-18.55251],[-42.55969,-18.55232],[-42.55966,-18.55208],[-42.55942,-18.55187],[-42.55854,-18.55125],[-42.55872,-18.55109],[-42.55914,-18.55091],[-42.56024,-18.55049],[-42.56036,-18.5505],[-42.56045,-18.55061],[-42.5604,-18.55083],[-42.56006,-18.55151],[-42.56013,-18.5515],[-42.56031,-18.55132],[-42.56043,-18.55113],[-42.56068,-18.5513],[-42.56104,-18.55068],[-42.56123,-18.55048],[-42.56142,-18.55034],[-42.56159,-18.55017],[-42.56152,-18.55004],[-42.56182,-18.54984],[-42.56218,-18.55016],[-42.56229,-18.55002],[-42.56233,-18.54993],[-42.56273,-18.5495],[-42.56279,-18.54937],[-42.56274,-18.54925],[-42.56252,-18.54896],[-42.56242,-18.54889],[-42.56214,-18.54883],[-42.5619,-18.54874],[-42.56143,-18.54862],[-42.56175,-18.54856],[-42.56203,-18.54854],[-42.56225,-18.54842],[-42.56249,-18.54807],[-42.5631,-18.54775],[-42.56328,-18.54788],[-42.56334,-18.54784],[-42.56396,-18.54677],[-42.56496,-18.54494],[-42.56498,-18.54487],[-42.56551,-18.54522],[-42.56557,-18.5453],[-42.5656,-18.54551],[-42.56577,-18.54567],[-42.56605,-18.54585],[-42.56628,-18.54605],[-42.56597,-18.54634],[-42.56618,-18.54656],[-42.56643,-18.5467],[-42.56649,-18.54671],[-42.56655,-18.54659],[-42.56668,-18.54651],[-42.56708,-18.5464],[-42.56719,-18.54625],[-42.56722,-18.54599],[-42.56707,-18.54559],[-42.56711,-18.54527],[-42.56708,-18.54507],[-42.56709,-18.54472],[-42.56711,-18.54452],[-42.567,-18.54435],[-42.56694,-18.54418],[-42.567,-18.544],[-42.56694,-18.54373],[-42.56687,-18.54356],[-42.56687,-18.54343],[-42.56706,-18.54328],[-42.56727,-18.54317],[-42.56735,-18.54309],[-42.56738,-18.543],[-42.5676,-18.54284],[-42.56789,-18.54286],[-42.56799,-18.5429],[-42.56812,-18.5429],[-42.56822,-18.54286],[-42.56825,-18.54281],[-42.56823,-18.54278],[-42.56829,-18.54275],[-42.5685,-18.54263],[-42.56856,-18.54251],[-42.56854,-18.54226],[-42.56864,-18.54205]]]]}}]}