{"type":"FeatureCollection","features":[{"type":"Feature","properties":{"territory_id":"mg-3148509-centro","name":"Centro","municipality_id":"mg-3148509","polling_places":3,"approx":true,"official":false,"method":"voronoi-polling-places","whole_municipality":false,"approx_coords_only":false},"geometry":{"type":"MultiPolygon","coordinates":[[[[-41.08539,-17.38194],[-41.0439,-17.53308],[-41.02516,-17.60317],[-40.9663,-17.6007],[-40.9419,-17.5755],[-40.9568,-17.5449],[-40.9235,-17.4885],[-40.9747,-17.4348],[-40.9455,-17.4055],[-40.9581,-17.3693],[-40.9522,-17.3326],[-40.9861,-17.336],[-41.0007,-17.3611],[-41.0332,-17.3446],[-41.0715,-17.3471],[-41.0756,-17.379],[-41.08539,-17.38194]]]]}},{"type":"Feature","properties":{"territory_id":"mg-3148509-distrito-de-limeira","name":"Distrito de Limeira","municipality_id":"mg-3148509","polling_places":1,"approx":true,"official":false,"method":"voronoi-polling-places","whole_municipality":false,"approx_coords_only":false},"geometry":{"type":"MultiPolygon","coordinates":[[[[-41.2555,-17.4845],[-41.1633,-17.5398],[-41.1311,-17.5307],[-41.098,-17.5602],[-41.0606,-17.5685],[-41.0472,-17.6041],[-41.02516,-17.60317],[-41.0439,-17.53308],[-41.08539,-17.38194],[-41.1513,-17.4017],[-41.1586,-17.4294],[-41.192,-17.4476],[-41.2286,-17.4348],[-41.2555,-17.4845]]]]}}]}