{"type":"FeatureCollection","features":[{"type":"Feature","properties":{"territory_id":"mg-3148301-airoes","name":"Airoes","municipality_id":"mg-3148301","polling_places":1,"approx":true,"official":false,"method":"voronoi-polling-places","whole_municipality":false,"approx_coords_only":false},"geometry":{"type":"MultiPolygon","coordinates":[[[[-43.04873,-20.81142],[-43.01432,-20.82488],[-42.95593,-20.84608],[-42.93021,-20.80968],[-43.04873,-20.81142]]]]}},{"type":"Feature","properties":{"territory_id":"mg-3148301-centro","name":"Centro","municipality_id":"mg-3148301","polling_places":2,"approx":true,"official":false,"method":"voronoi-polling-places","whole_municipality":false,"approx_coords_only":false},"geometry":{"type":"MultiPolygon","coordinates":[[[[-43.0817,-20.8162],[-43.0578,-20.8271],[-43.0811,-20.8599],[-43.0427,-20.8818],[-43.0369,-20.9294],[-42.9923,-20.9274],[-42.98217,-20.94895],[-42.98217,-20.8711],[-42.93257,-20.94236],[-42.9294,-20.9125],[-42.92171,-20.90082],[-42.95593,-20.84608],[-43.01432,-20.82488],[-43.04873,-20.81142],[-43.06912,-20.80365],[-43.0817,-20.8162]]]]}},{"type":"Feature","properties":{"territory_id":"mg-3148301-corrego-dos-barros","name":"Corrego dos Barros","municipality_id":"mg-3148301","polling_places":1,"approx":true,"official":false,"method":"voronoi-polling-places","whole_municipality":false,"approx_coords_only":false},"geometry":{"type":"MultiPolygon","coordinates":[[[[-42.95593,-20.84608],[-42.92171,-20.90082],[-42.8861,-20.8467],[-42.8861,-20.8248],[-42.92399,-20.80141],[-42.93021,-20.80968],[-42.95593,-20.84608]]]]}},{"type":"Feature","properties":{"territory_id":"mg-3148301-sao-mateus","name":"Sao Mateus","municipality_id":"mg-3148301","polling_places":1,"approx":true,"official":false,"method":"voronoi-polling-places","whole_municipality":false,"approx_coords_only":false},"geometry":{"type":"MultiPolygon","coordinates":[[[[-43.06912,-20.80365],[-43.04873,-20.81142],[-42.93021,-20.80968],[-42.92399,-20.80141],[-42.9969,-20.7564],[-43.0361,-20.7707],[-43.06912,-20.80365]]]]}},{"type":"Feature","properties":{"territory_id":"mg-3148301-zona-rural","name":"Zona Rural","municipality_id":"mg-3148301","polling_places":1,"approx":true,"official":false,"method":"voronoi-polling-places","whole_municipality":false,"approx_coords_only":false},"geometry":{"type":"MultiPolygon","coordinates":[[[[-42.98217,-20.94895],[-42.9758,-20.9625],[-42.9426,-20.9845],[-42.9331,-20.9474],[-42.93257,-20.94236],[-42.98217,-20.8711],[-42.98217,-20.94895]]]]}}]}