{"type":"FeatureCollection","features":[{"type":"Feature","properties":{"territory_id":"mg-3148103-amir-amaral","name":"Amir Amaral","municipality_id":"mg-3148103","polling_places":1,"approx":false,"official":true,"method":"official-ibge-cd2022","whole_municipality":false,"approx_coords_only":false,"official_name":"Amir Amaral","official_code":"3148103019","match":"direct"},"geometry":{"type":"MultiPolygon","coordinates":[[[[-47.01586,-18.92678],[-47.0161,-18.92657],[-47.01663,-18.92631],[-47.0173,-18.92586],[-47.01773,-18.9255],[-47.01805,-18.92517],[-47.01846,-18.92447],[-47.01884,-18.92373],[-47.01804,-18.92353],[-47.01774,-18.92317],[-47.01748,-18.92291],[-47.01712,-18.92279],[-47.0169,-18.92268],[-47.01662,-18.92272],[-47.01661,-18.92253],[-47.01639,-18.92228],[-47.01622,-18.92192],[-47.01618,-18.92186],[-47.01553,-18.92226],[-47.01535,-18.92239],[-47.01478,-18.92291],[-47.01447,-18.92324],[-47.01421,-18.9236],[-47.01396,-18.92391],[-47.01353,-18.9245],[-47.01289,-18.92525],[-47.01173,-18.92676],[-47.01122,-18.92735],[-47.011,-18.92754],[-47.01073,-18.92771],[-47.0105,-18.92784],[-47.01024,-18.92794],[-47.01019,-18.92824],[-47.00997,-18.9288],[-47.00975,-18.92913],[-47.00954,-18.92978],[-47.00949,-18.92992],[-47.01041,-18.93017],[-47.01039,-18.93033],[-47.01045,-18.93043],[-47.0107,-18.93055],[-47.01095,-18.93093],[-47.01119,-18.93121],[-47.0114,-18.93135],[-47.01146,-18.93247],[-47.01262,-18.93241],[-47.01651,-18.93228],[-47.01655,-18.9322],[-47.0166,-18.93215],[-47.01667,-18.93212],[-47.01678,-18.93211],[-47.0169,-18.93217],[-47.01725,-18.93196],[-47.0165,-18.93106],[-47.0162,-18.93055],[-47.01596,-18.92989],[-47.01586,-18.92678]]]]}},{"type":"Feature","properties":{"territory_id":"mg-3148103-boa-esperanca","name":"Boa Esperança","municipality_id":"mg-3148103","polling_places":1,"approx":false,"official":true,"method":"official-ibge-cd2022","whole_municipality":false,"approx_coords_only":false,"official_name":"Boa Esperança","official_code":"3148103018","match":"direct"},"geometry":{"type":"MultiPolygon","coordinates":[[[[-46.98038,-18.93792],[-46.98102,-18.93617],[-46.97799,-18.93512],[-46.97791,-18.93514],[-46.97776,-18.9351],[-46.97775,-18.93504],[-46.97648,-18.93459],[-46.97643,-18.93477],[-46.97602,-18.93461],[-46.97559,-18.93455],[-46.97516,-18.93457],[-46.97482,-18.93469],[-46.9746,-18.93481],[-46.97428,-18.93518],[-46.97387,-18.9357],[-46.97583,-18.93636],[-46.9757,-18.93674],[-46.97584,-18.93689],[-46.97646,-18.93761],[-46.97767,-18.93915],[-46.97805,-18.93951],[-46.9788,-18.94027],[-46.97921,-18.94071],[-46.97932,-18.94086],[-46.97979,-18.93951],[-46.98021,-18.93839],[-46.98038,-18.93792]]]]}},{"type":"Feature","properties":{"territory_id":"mg-3148103-centro","name":"Centro","municipality_id":"mg-3148103","polling_places":5,"approx":false,"official":true,"method":"official-ibge-cd2022","whole_municipality":false,"approx_coords_only":false,"official_name":"Centro","official_code":"3148103031","match":"direct"},"geometry":{"type":"MultiPolygon","coordinates":[[[[-46.99496,-18.94984],[-46.99514,-18.94777],[-46.99526,-18.94666],[-46.99571,-18.94499],[-46.99668,-18.94306],[-46.99693,-18.94261],[-46.99712,-18.9423],[-46.99733,-18.9421],[-46.99761,-18.9419],[-46.9976,-18.94185],[-46.99769,-18.94174],[-46.99781,-18.94173],[-47,-18.94012],[-47.00105,-18.93918],[-47.0003,-18.9389],[-46.99821,-18.9382],[-46.99749,-18.93793],[-46.99691,-18.93775],[-46.99574,-18.93735],[-46.99188,-18.93602],[-46.99128,-18.93692],[-46.99089,-18.93746],[-46.99073,-18.93775],[-46.99019,-18.93914],[-46.99024,-18.93919],[-46.9902,-18.93931],[-46.99013,-18.93935],[-46.99001,-18.93931],[-46.98952,-18.94055],[-46.98918,-18.9415],[-46.98701,-18.94574],[-46.98646,-18.94683],[-46.98614,-18.94753],[-46.98575,-18.94801],[-46.98553,-18.94822],[-46.9852,-18.9486],[-46.98421,-18.94971],[-46.98434,-18.94977],[-46.98499,-18.95003],[-46.98632,-18.95045],[-46.98699,-18.95071],[-46.98751,-18.95087],[-46.98895,-18.95138],[-46.98956,-18.95155],[-46.99026,-18.9517],[-46.99464,-18.95279],[-46.99484,-18.95092],[-46.99496,-18.94984]]]]}},{"type":"Feature","properties":{"territory_id":"mg-3148103-cidade-jardim","name":"Cidade Jardim","municipality_id":"mg-3148103","polling_places":2,"approx":false,"official":true,"method":"official-ibge-cd2022","whole_municipality":false,"approx_coords_only":false,"official_name":"Cidade Jardim","official_code":"3148103009","match":"direct"},"geometry":{"type":"MultiPolygon","coordinates":[[[[-46.97963,-18.94291],[-46.97969,-18.94339],[-46.98026,-18.94532],[-46.98047,-18.94566],[-46.98063,-18.94567],[-46.98279,-18.94637],[-46.98343,-18.94661],[-46.98614,-18.94753],[-46.98646,-18.94683],[-46.98876,-18.94231],[-46.98747,-18.94188],[-46.97979,-18.93951],[-46.97932,-18.94086],[-46.97942,-18.94114],[-46.97955,-18.94228],[-46.97963,-18.94284],[-46.97963,-18.94291]]]]}},{"type":"Feature","properties":{"territory_id":"mg-3148103-constantino","name":"Constantino","municipality_id":"mg-3148103","polling_places":2,"approx":false,"official":true,"method":"official-ibge-cd2022","whole_municipality":false,"approx_coords_only":false,"official_name":"Constantino","official_code":"3148103010","match":"direct"},"geometry":{"type":"MultiPolygon","coordinates":[[[[-46.98279,-18.94042],[-46.98747,-18.94188],[-46.98876,-18.94231],[-46.98918,-18.9415],[-46.98952,-18.94055],[-46.99001,-18.93931],[-46.98997,-18.93923],[-46.98934,-18.93904],[-46.98866,-18.93881],[-46.98599,-18.93788],[-46.98535,-18.93763],[-46.9853,-18.93767],[-46.98519,-18.93765],[-46.98516,-18.93758],[-46.984,-18.93719],[-46.98198,-18.93649],[-46.98102,-18.93617],[-46.97979,-18.93951],[-46.98179,-18.94013],[-46.98279,-18.94042]]]]}},{"type":"Feature","properties":{"territory_id":"mg-3148103-distrito-de-salitre-de-minas","name":"Distrito de Salitre de Minas","municipality_id":"mg-3148103","polling_places":1,"approx":true,"official":false,"method":"voronoi-polling-places","whole_municipality":false,"approx_coords_only":false},"geometry":{"type":"MultiPolygon","coordinates":[[[[-46.94505,-19.23065],[-46.93977,-19.25458],[-46.8557,-19.1829],[-46.8465,-19.1522],[-46.8122,-19.1576],[-46.7763,-19.1065],[-46.787,-19.0443],[-46.7533,-19.002],[-46.75428,-19.00003],[-46.94505,-19.23065]]]]}},{"type":"Feature","properties":{"territory_id":"mg-3148103-distrito-de-silvano","name":"Distrito de Silvano","municipality_id":"mg-3148103","polling_places":1,"approx":true,"official":false,"method":"voronoi-polling-places","whole_municipality":false,"approx_coords_only":false},"geometry":{"type":"MultiPolygon","coordinates":[[[[-47.23636,-18.87936],[-47.13035,-18.92508],[-47.12997,-18.92512],[-47.10277,-18.89729],[-47.0826,-18.85448],[-47.13881,-18.77771],[-47.22475,-18.82832],[-47.23636,-18.87936]]]]}},{"type":"Feature","properties":{"territory_id":"mg-3148103-eneas-ferreira-de-aguiar","name":"Eneas Ferreira de Aguiar","municipality_id":"mg-3148103","polling_places":2,"approx":true,"official":false,"method":"voronoi-polling-places","whole_municipality":false,"approx_coords_only":false},"geometry":{"type":"MultiPolygon","coordinates":[[[[-47.03286,-18.95794],[-47.02356,-18.98398],[-47.01773,-19.00957],[-46.97665,-19.10664],[-46.94635,-18.99229],[-46.99457,-18.96742],[-46.99527,-18.96615],[-46.99547,-18.96603],[-46.99573,-18.9658],[-46.99589,-18.96578],[-46.99595,-18.96569],[-46.99608,-18.96576],[-46.99634,-18.96575],[-46.99653,-18.96565],[-46.99662,-18.96547],[-46.99673,-18.96532],[-46.99682,-18.96528],[-46.99708,-18.96509],[-46.99713,-18.96494],[-46.99732,-18.96493],[-46.99752,-18.96463],[-46.99801,-18.96435],[-46.99804,-18.96426],[-46.99849,-18.96404],[-46.99864,-18.9638],[-46.99882,-18.96361],[-46.99901,-18.96348],[-46.99926,-18.96354],[-46.99967,-18.96359],[-47.00008,-18.96374],[-47.00021,-18.96383],[-47.00037,-18.96386],[-47.0005,-18.9638],[-47.00059,-18.96362],[-47.00066,-18.96355],[-47.00083,-18.96359],[-47.00094,-18.96357],[-47.0011,-18.9636],[-47.00122,-18.96352],[-47.00143,-18.96343],[-47.00151,-18.96347],[-47.0016,-18.96382],[-47.00173,-18.96389],[-47.0019,-18.96382],[-47.00213,-18.96365],[-47.00234,-18.96364],[-47.00254,-18.96372],[-47.00266,-18.96388],[-47.00299,-18.96404],[-47.00314,-18.96401],[-47.00329,-18.96382],[-47.00348,-18.96352],[-47.00376,-18.96344],[-47.004,-18.96346],[-47.00441,-18.9633],[-47.00463,-18.96333],[-47.00482,-18.96342],[-47.00496,-18.96352],[-47.00508,-18.96386],[-47.00587,-18.96395],[-47.00636,-18.96371],[-47.00671,-18.96345],[-47.00635,-18.96336],[-47.00618,-18.96323],[-47.00599,-18.96302],[-47.00576,-18.9629],[-47.00568,-18.96267],[-47.0056,-18.96258],[-47.00544,-18.96245],[-47.00535,-18.96226],[-47.00529,-18.96192],[-47.00518,-18.9616],[-47.00514,-18.96135],[-47.00513,-18.96104],[-47.00523,-18.96091],[-47.0055,-18.95989],[-47.00552,-18.95952],[-47.00545,-18.95919],[-47.00568,-18.95854],[-47.0064,-18.95758],[-47.00666,-18.95716],[-47.00736,-18.9565],[-47.00733,-18.95638],[-47.00751,-18.95618],[-47.00753,-18.95599],[-47.00761,-18.95594],[-47.0026,-18.9547],[-47.00248,-18.95468],[-47.00333,-18.95243],[-47.00392,-18.95088],[-47.03286,-18.95794]]]]}},{"type":"Feature","properties":{"territory_id":"mg-3148103-marciano-brandao","name":"Marciano Brandao","municipality_id":"mg-3148103","polling_places":1,"approx":false,"official":true,"method":"official-ibge-cd2022","whole_municipality":false,"approx_coords_only":false,"official_name":"Marciano Brandão","official_code":"3148103006","match":"direct"},"geometry":{"type":"MultiPolygon","coordinates":[[[[-46.99571,-18.94499],[-46.99526,-18.94666],[-46.99514,-18.94777],[-46.99496,-18.94984],[-46.99507,-18.9499],[-46.99626,-18.95027],[-46.99756,-18.95065],[-46.99972,-18.95133],[-47.00125,-18.95178],[-47.00145,-18.95187],[-47.00333,-18.95243],[-47.0041,-18.9504],[-47.00443,-18.94958],[-47.00478,-18.94866],[-47.00511,-18.94771],[-47.00577,-18.94602],[-47.00618,-18.94486],[-47.00616,-18.94482],[-47.0062,-18.94468],[-47.00396,-18.94391],[-47.00276,-18.94347],[-47.00177,-18.94315],[-47.00173,-18.94308],[-47.00162,-18.94305],[-47.00154,-18.94307],[-46.99958,-18.94238],[-46.99795,-18.94184],[-46.99794,-18.94181],[-46.99781,-18.94173],[-46.99769,-18.94174],[-46.9976,-18.94185],[-46.99761,-18.9419],[-46.99733,-18.9421],[-46.99712,-18.9423],[-46.99685,-18.94274],[-46.99596,-18.94448],[-46.99571,-18.94499]]]]}},{"type":"Feature","properties":{"territory_id":"mg-3148103-matinha-ii","name":"Matinha Ii","municipality_id":"mg-3148103","polling_places":1,"approx":true,"official":false,"method":"voronoi-polling-places","whole_municipality":false,"approx_coords_only":false},"geometry":{"type":"MultiPolygon","coordinates":[[[[-47.10277,-18.89729],[-47.03286,-18.95794],[-47.00392,-18.95088],[-47.0041,-18.9504],[-47.00443,-18.94958],[-47.00478,-18.94866],[-47.00511,-18.94771],[-47.00577,-18.94602],[-47.00618,-18.94486],[-47.00616,-18.94482],[-47.0062,-18.94468],[-47.00396,-18.94391],[-47.00276,-18.94347],[-47.00177,-18.94315],[-47.00173,-18.94308],[-47.00162,-18.94305],[-47.00154,-18.94307],[-46.99958,-18.94238],[-46.99795,-18.94184],[-46.99794,-18.94181],[-46.99781,-18.94173],[-47,-18.94012],[-47.00105,-18.93918],[-47.00177,-18.93834],[-47.0017,-18.93816],[-47.0017,-18.93806],[-47.00172,-18.93797],[-47.00177,-18.9379],[-47.00188,-18.9378],[-47.00202,-18.93775],[-47.00215,-18.93774],[-47.00225,-18.93778],[-47.00295,-18.93691],[-47.00376,-18.93597],[-47.00498,-18.93458],[-47.00504,-18.93447],[-47.00543,-18.9335],[-47.00592,-18.93224],[-47.00643,-18.93098],[-47.00768,-18.92775],[-47.00708,-18.92738],[-47.00613,-18.92672],[-47.0054,-18.92624],[-47.00512,-18.92609],[-47.00424,-18.9257],[-47.00393,-18.92558],[-47.0699,-18.8513],[-47.0826,-18.85448],[-47.10277,-18.89729]],[[-47.01884,-18.92373],[-47.01804,-18.92353],[-47.01774,-18.92317],[-47.01748,-18.92291],[-47.01712,-18.92279],[-47.0169,-18.92268],[-47.01662,-18.92272],[-47.01661,-18.92253],[-47.01639,-18.92228],[-47.01622,-18.92192],[-47.01618,-18.92186],[-47.01553,-18.92226],[-47.01535,-18.92239],[-47.01478,-18.92291],[-47.01447,-18.92324],[-47.01421,-18.9236],[-47.01396,-18.92391],[-47.01353,-18.9245],[-47.01289,-18.92525],[-47.01173,-18.92676],[-47.01122,-18.92735],[-47.011,-18.92754],[-47.01073,-18.92771],[-47.0105,-18.92784],[-47.01024,-18.92794],[-47.01019,-18.92824],[-47.00997,-18.9288],[-47.00975,-18.92913],[-47.00954,-18.92978],[-47.00949,-18.92992],[-47.01041,-18.93017],[-47.01039,-18.93033],[-47.01045,-18.93043],[-47.0107,-18.93055],[-47.01095,-18.93093],[-47.01119,-18.93121],[-47.0114,-18.93135],[-47.01146,-18.93247],[-47.01262,-18.93241],[-47.01651,-18.93228],[-47.01655,-18.9322],[-47.0166,-18.93215],[-47.01667,-18.93212],[-47.01678,-18.93211],[-47.0169,-18.93217],[-47.01725,-18.93196],[-47.0165,-18.93106],[-47.0162,-18.93055],[-47.01596,-18.92989],[-47.01586,-18.92678],[-47.0161,-18.92657],[-47.01663,-18.92631],[-47.0173,-18.92586],[-47.01773,-18.9255],[-47.01805,-18.92517],[-47.01846,-18.92447],[-47.01884,-18.92373]],[[-47.01189,-18.93907],[-47.0118,-18.93792],[-47.0116,-18.93726],[-47.01142,-18.93653],[-47.01123,-18.93553],[-47.01098,-18.93649],[-47.00996,-18.93925],[-47.0085,-18.93876],[-47.008,-18.94006],[-47.00752,-18.94141],[-47.01087,-18.94258],[-47.01138,-18.94134],[-47.01187,-18.93997],[-47.01189,-18.93984],[-47.01189,-18.93907]]],[[[-47.00067,-18.93244],[-47.00009,-18.93395],[-47.00047,-18.93295],[-47.00048,-18.93292],[-47.00067,-18.93244]]],[[[-47.00009,-18.93395],[-46.99996,-18.9342],[-46.99986,-18.93438],[-47.00009,-18.93395]]],[[[-46.99754,-18.93507],[-46.99729,-18.93496],[-46.99717,-18.9349],[-46.99754,-18.93507]]],[[[-46.99712,-18.9423],[-46.99688,-18.94271],[-46.99693,-18.94261],[-46.99712,-18.9423]]],[[[-46.9968,-18.94285],[-46.99642,-18.94359],[-46.99668,-18.94306],[-46.9968,-18.94285]]]]}},{"type":"Feature","properties":{"territory_id":"mg-3148103-morada-nova","name":"Morada Nova","municipality_id":"mg-3148103","polling_places":1,"approx":false,"official":true,"method":"official-ibge-cd2022","whole_municipality":false,"approx_coords_only":false,"official_name":"Morada Nova","official_code":"3148103017","match":"direct"},"geometry":{"type":"MultiPolygon","coordinates":[[[[-46.99165,-18.96863],[-46.9918,-18.96839],[-46.99205,-18.96816],[-46.99217,-18.96797],[-46.99241,-18.96782],[-46.99246,-18.96771],[-46.99272,-18.96757],[-46.99278,-18.9675],[-46.99288,-18.96745],[-46.99298,-18.96745],[-46.99304,-18.96735],[-46.99311,-18.96735],[-46.99318,-18.96724],[-46.99334,-18.96717],[-46.9935,-18.96714],[-46.99357,-18.96707],[-46.99367,-18.96704],[-46.99388,-18.96689],[-46.99395,-18.96679],[-46.99405,-18.96671],[-46.99417,-18.96672],[-46.9944,-18.96666],[-46.99446,-18.96659],[-46.99457,-18.96658],[-46.9947,-18.96644],[-46.99509,-18.9663],[-46.99518,-18.9662],[-46.99547,-18.96603],[-46.99573,-18.9658],[-46.99589,-18.96578],[-46.99595,-18.96569],[-46.99608,-18.96576],[-46.99634,-18.96575],[-46.99653,-18.96565],[-46.99662,-18.96547],[-46.99673,-18.96532],[-46.99682,-18.96528],[-46.99708,-18.96509],[-46.99713,-18.96494],[-46.99732,-18.96493],[-46.99752,-18.96463],[-46.99801,-18.96435],[-46.99804,-18.96426],[-46.99849,-18.96404],[-46.99864,-18.9638],[-46.99882,-18.96361],[-46.99901,-18.96348],[-46.99886,-18.96333],[-46.99882,-18.9632],[-46.9985,-18.96311],[-46.9983,-18.96309],[-46.9982,-18.96301],[-46.99803,-18.96293],[-46.99793,-18.96276],[-46.99804,-18.96249],[-46.9981,-18.96243],[-46.99817,-18.96243],[-46.99819,-18.96238],[-46.9981,-18.96228],[-46.99802,-18.96223],[-46.99796,-18.96204],[-46.99788,-18.96193],[-46.99784,-18.96182],[-46.99774,-18.96173],[-46.99774,-18.96165],[-46.99778,-18.9616],[-46.99771,-18.9616],[-46.99778,-18.96138],[-46.99778,-18.96126],[-46.99777,-18.9612],[-46.99774,-18.96114],[-46.99771,-18.96101],[-46.99774,-18.96099],[-46.99774,-18.96092],[-46.9977,-18.96081],[-46.99764,-18.96075],[-46.99764,-18.96069],[-46.99758,-18.96062],[-46.9975,-18.96057],[-46.99756,-18.96034],[-46.99728,-18.96009],[-46.99723,-18.95998],[-46.9972,-18.95983],[-46.99715,-18.95973],[-46.99716,-18.95964],[-46.99712,-18.95955],[-46.99716,-18.95949],[-46.99715,-18.9593],[-46.99706,-18.95918],[-46.99698,-18.95917],[-46.99689,-18.95909],[-46.99645,-18.95865],[-46.99633,-18.95854],[-46.99634,-18.95845],[-46.99629,-18.95842],[-46.99628,-18.95835],[-46.99621,-18.9582],[-46.99618,-18.95801],[-46.9961,-18.95792],[-46.99607,-18.95783],[-46.99602,-18.95775],[-46.99593,-18.95769],[-46.99588,-18.95761],[-46.99571,-18.95749],[-46.99567,-18.95737],[-46.99562,-18.95728],[-46.99544,-18.95718],[-46.99541,-18.95711],[-46.99526,-18.95707],[-46.99514,-18.95712],[-46.99499,-18.95707],[-46.99491,-18.95709],[-46.99487,-18.95719],[-46.9947,-18.95715],[-46.9947,-18.95705],[-46.99468,-18.95691],[-46.99459,-18.95677],[-46.99443,-18.95667],[-46.9943,-18.95665],[-46.99413,-18.95667],[-46.994,-18.95674],[-46.99388,-18.95686],[-46.99383,-18.95704],[-46.99072,-18.95632],[-46.98876,-18.95571],[-46.9883,-18.95683],[-46.98826,-18.95692],[-46.98807,-18.95717],[-46.98761,-18.95778],[-46.98742,-18.958],[-46.98715,-18.95838],[-46.98581,-18.95994],[-46.98537,-18.96048],[-46.98433,-18.96161],[-46.98608,-18.9636],[-46.98599,-18.96358],[-46.98591,-18.96359],[-46.98583,-18.96361],[-46.98578,-18.96366],[-46.98573,-18.96376],[-46.98572,-18.96383],[-46.98574,-18.96394],[-46.98578,-18.96401],[-46.98584,-18.96406],[-46.98591,-18.96409],[-46.98598,-18.9641],[-46.98606,-18.96409],[-46.99087,-18.96925],[-46.99101,-18.9691],[-46.9912,-18.9691],[-46.99132,-18.96883],[-46.99154,-18.96877],[-46.99163,-18.96867],[-46.99165,-18.96863]]]]}},{"type":"Feature","properties":{"territory_id":"mg-3148103-morada-nova-ii","name":"Morada Nova Ii","municipality_id":"mg-3148103","polling_places":1,"approx":true,"official":false,"method":"voronoi-polling-places","whole_municipality":false,"approx_coords_only":false},"geometry":{"type":"MultiPolygon","coordinates":[[[[-46.99628,-18.95835],[-46.99621,-18.9582],[-46.9962,-18.95817],[-46.99628,-18.95835]]],[[[-46.99527,-18.96615],[-46.99457,-18.96742],[-46.94635,-18.99229],[-46.93392,-18.96035],[-46.95517,-18.93999],[-46.97945,-18.94137],[-46.97955,-18.94228],[-46.97963,-18.94284],[-46.97963,-18.94291],[-46.97969,-18.94339],[-46.98026,-18.94532],[-46.98047,-18.94566],[-46.98063,-18.94567],[-46.98279,-18.94637],[-46.98343,-18.94661],[-46.98614,-18.94753],[-46.98575,-18.94801],[-46.98553,-18.94822],[-46.9852,-18.9486],[-46.98421,-18.94971],[-46.98401,-18.94993],[-46.98387,-18.95012],[-46.98384,-18.95023],[-46.98383,-18.95035],[-46.984,-18.95098],[-46.98393,-18.95102],[-46.98388,-18.95108],[-46.98385,-18.95115],[-46.98385,-18.95125],[-46.98387,-18.95133],[-46.98392,-18.95139],[-46.98399,-18.95144],[-46.98409,-18.95147],[-46.98411,-18.95147],[-46.98432,-18.95244],[-46.98447,-18.95282],[-46.98464,-18.95306],[-46.98565,-18.95389],[-46.98563,-18.954],[-46.98563,-18.95407],[-46.98567,-18.95417],[-46.9857,-18.9542],[-46.98582,-18.95425],[-46.98598,-18.95424],[-46.98654,-18.95474],[-46.98688,-18.95502],[-46.9871,-18.95515],[-46.98746,-18.95529],[-46.98876,-18.95571],[-46.9883,-18.95683],[-46.98826,-18.95692],[-46.98807,-18.95717],[-46.98761,-18.95778],[-46.98742,-18.958],[-46.98715,-18.95838],[-46.98581,-18.95994],[-46.98537,-18.96048],[-46.98433,-18.96161],[-46.98608,-18.9636],[-46.98599,-18.96358],[-46.98591,-18.96359],[-46.98583,-18.96361],[-46.98578,-18.96366],[-46.98573,-18.96376],[-46.98572,-18.96383],[-46.98574,-18.96394],[-46.98578,-18.96401],[-46.98584,-18.96406],[-46.98591,-18.96409],[-46.98598,-18.9641],[-46.98606,-18.96409],[-46.99087,-18.96925],[-46.99101,-18.9691],[-46.9912,-18.9691],[-46.99132,-18.96883],[-46.99154,-18.96877],[-46.99163,-18.96867],[-46.99165,-18.96863],[-46.9918,-18.96839],[-46.99205,-18.96816],[-46.99217,-18.96797],[-46.99241,-18.96782],[-46.99246,-18.96771],[-46.99272,-18.96757],[-46.99278,-18.9675],[-46.99288,-18.96745],[-46.99298,-18.96745],[-46.99304,-18.96735],[-46.99311,-18.96735],[-46.99318,-18.96724],[-46.99334,-18.96717],[-46.9935,-18.96714],[-46.99357,-18.96707],[-46.99367,-18.96704],[-46.99388,-18.96689],[-46.99395,-18.96679],[-46.99405,-18.96671],[-46.99417,-18.96672],[-46.9944,-18.96666],[-46.99446,-18.96659],[-46.99457,-18.96658],[-46.9947,-18.96644],[-46.99509,-18.9663],[-46.99518,-18.9662],[-46.99527,-18.96615]]],[[[-46.99496,-18.94984],[-46.99464,-18.95279],[-46.99484,-18.95092],[-46.99496,-18.94984]]],[[[-46.99427,-18.95665],[-46.99413,-18.95667],[-46.99426,-18.95665],[-46.99427,-18.95665]]],[[[-46.98896,-18.94192],[-46.98849,-18.94285],[-46.98876,-18.94231],[-46.98896,-18.94192]]]]}},{"type":"Feature","properties":{"territory_id":"mg-3148103-nacoes","name":"Nações","municipality_id":"mg-3148103","polling_places":1,"approx":false,"official":true,"method":"official-ibge-cd2022","whole_municipality":false,"approx_coords_only":false,"official_name":"Nações","official_code":"3148103025","match":"direct"},"geometry":{"type":"MultiPolygon","coordinates":[[[[-46.96161,-18.92251],[-46.96061,-18.92521],[-46.96034,-18.92588],[-46.95995,-18.92693],[-46.95954,-18.92797],[-46.95933,-18.92858],[-46.95904,-18.92931],[-46.96239,-18.93045],[-46.96239,-18.93056],[-46.96242,-18.9306],[-46.96246,-18.93063],[-46.96256,-18.93064],[-46.96266,-18.93056],[-46.9704,-18.93322],[-46.97064,-18.93259],[-46.97131,-18.9328],[-46.97138,-18.9329],[-46.97143,-18.93291],[-46.97146,-18.93298],[-46.97156,-18.93306],[-46.97171,-18.93307],[-46.97181,-18.93301],[-46.97186,-18.93295],[-46.97188,-18.93288],[-46.97186,-18.93276],[-46.97195,-18.93212],[-46.9723,-18.93138],[-46.97276,-18.9307],[-46.9724,-18.93061],[-46.97151,-18.93031],[-46.97172,-18.92977],[-46.97021,-18.92926],[-46.97043,-18.92868],[-46.96881,-18.92814],[-46.96928,-18.92694],[-46.96776,-18.92641],[-46.96794,-18.92596],[-46.96567,-18.92242],[-46.96445,-18.92202],[-46.96334,-18.92161],[-46.96278,-18.92143],[-46.96224,-18.92123],[-46.96214,-18.92113],[-46.96201,-18.92149],[-46.96161,-18.92251]]]]}},{"type":"Feature","properties":{"territory_id":"mg-3148103-nossa-senhora-de-fatima","name":"Nossa Senhora de Fatima","municipality_id":"mg-3148103","polling_places":1,"approx":false,"official":true,"method":"official-ibge-cd2022","whole_municipality":false,"approx_coords_only":false,"official_name":"Nossa Senhora de Fátima","official_code":"3148103011","match":"direct"},"geometry":{"type":"MultiPolygon","coordinates":[[[[-46.99065,-18.93152],[-46.99039,-18.93174],[-46.98829,-18.93437],[-46.98808,-18.93458],[-46.98764,-18.93489],[-46.98694,-18.93516],[-46.98635,-18.93537],[-46.98413,-18.936],[-46.98361,-18.93606],[-46.9809,-18.93613],[-46.98198,-18.93649],[-46.984,-18.93719],[-46.98516,-18.93758],[-46.98519,-18.93765],[-46.9853,-18.93767],[-46.98535,-18.93763],[-46.98599,-18.93788],[-46.98866,-18.93881],[-46.98934,-18.93904],[-46.98997,-18.93923],[-46.99001,-18.93931],[-46.99013,-18.93935],[-46.9902,-18.93931],[-46.99024,-18.93919],[-46.99019,-18.93914],[-46.99066,-18.9379],[-46.99073,-18.93775],[-46.99089,-18.93746],[-46.99128,-18.93692],[-46.99244,-18.93519],[-46.99259,-18.93521],[-46.99273,-18.93518],[-46.99284,-18.9351],[-46.99291,-18.93498],[-46.99293,-18.9349],[-46.99293,-18.93481],[-46.99291,-18.93472],[-46.99286,-18.93465],[-46.9928,-18.93458],[-46.99272,-18.93453],[-46.99256,-18.9345],[-46.9929,-18.93359],[-46.99334,-18.93237],[-46.9936,-18.93172],[-46.99365,-18.93154],[-46.99293,-18.93134],[-46.99195,-18.93117],[-46.99158,-18.93119],[-46.99124,-18.93124],[-46.9909,-18.93135],[-46.99065,-18.93152]]]]}},{"type":"Feature","properties":{"territory_id":"mg-3148103-olimpio-nunes","name":"Olimpio Nunes","municipality_id":"mg-3148103","polling_places":1,"approx":false,"official":true,"method":"official-ibge-cd2022","whole_municipality":false,"approx_coords_only":false,"official_name":"Olímpio Nunes","official_code":"3148103021","match":"direct"},"geometry":{"type":"MultiPolygon","coordinates":[[[[-47.01138,-18.94134],[-47.01187,-18.93997],[-47.01189,-18.93984],[-47.01189,-18.93907],[-47.0118,-18.93792],[-47.0116,-18.93726],[-47.01142,-18.93653],[-47.01123,-18.93553],[-47.01098,-18.93649],[-47.00996,-18.93925],[-47.0085,-18.93876],[-47.008,-18.94006],[-47.00752,-18.94141],[-47.01087,-18.94258],[-47.01138,-18.94134]]]]}},{"type":"Feature","properties":{"territory_id":"mg-3148103-povoado-de-barra-do-salitre","name":"Povoado de Barra do Salitre","municipality_id":"mg-3148103","polling_places":1,"approx":true,"official":false,"method":"voronoi-polling-places","whole_municipality":false,"approx_coords_only":false},"geometry":{"type":"MultiPolygon","coordinates":[[[[-47.0699,-18.8513],[-47.00393,-18.92558],[-47.00366,-18.92548],[-47.00311,-18.92533],[-47.00213,-18.92514],[-47.00158,-18.92502],[-46.99999,-18.92486],[-46.99915,-18.92468],[-46.99919,-18.92481],[-46.99919,-18.92498],[-46.99705,-18.93071],[-46.99685,-18.93128],[-46.99689,-18.9313],[-46.99684,-18.93146],[-46.99609,-18.93333],[-46.99605,-18.93317],[-46.99591,-18.93281],[-46.99578,-18.93255],[-46.99563,-18.93236],[-46.99544,-18.93218],[-46.9952,-18.93204],[-46.99486,-18.93191],[-46.99365,-18.93154],[-46.99293,-18.93134],[-46.99195,-18.93117],[-46.99158,-18.93119],[-46.99124,-18.93124],[-46.9909,-18.93135],[-46.99065,-18.93152],[-46.99039,-18.93174],[-46.98829,-18.93437],[-46.98808,-18.93458],[-46.98764,-18.93489],[-46.98694,-18.93516],[-46.98635,-18.93537],[-46.98413,-18.936],[-46.98361,-18.93606],[-46.9809,-18.93613],[-46.97799,-18.93512],[-46.97791,-18.93514],[-46.97776,-18.9351],[-46.97775,-18.93504],[-46.97648,-18.93459],[-46.97643,-18.93477],[-46.97602,-18.93461],[-46.97559,-18.93455],[-46.97516,-18.93457],[-46.97482,-18.93469],[-46.9746,-18.93481],[-46.97428,-18.93518],[-46.97387,-18.9357],[-46.97583,-18.93636],[-46.9757,-18.93674],[-46.97584,-18.93689],[-46.97646,-18.93761],[-46.97767,-18.93915],[-46.97805,-18.93951],[-46.9788,-18.94027],[-46.97921,-18.94071],[-46.97932,-18.94086],[-46.97942,-18.94114],[-46.97945,-18.94137],[-46.95517,-18.93999],[-46.95875,-18.92921],[-46.95904,-18.92931],[-46.96239,-18.93045],[-46.96239,-18.93056],[-46.96242,-18.9306],[-46.96246,-18.93063],[-46.96256,-18.93064],[-46.96266,-18.93056],[-46.9704,-18.93322],[-46.97064,-18.93259],[-46.97131,-18.9328],[-46.97138,-18.9329],[-46.97143,-18.93291],[-46.97146,-18.93298],[-46.97156,-18.93306],[-46.97171,-18.93307],[-46.97181,-18.93301],[-46.97186,-18.93295],[-46.97188,-18.93288],[-46.97186,-18.93276],[-46.97195,-18.93212],[-46.9723,-18.93138],[-46.97276,-18.9307],[-46.9724,-18.93061],[-46.97151,-18.93031],[-46.97172,-18.92977],[-46.97021,-18.92926],[-46.97043,-18.92868],[-46.96881,-18.92814],[-46.96928,-18.92694],[-46.96776,-18.92641],[-46.96794,-18.92596],[-46.96567,-18.92242],[-46.96445,-18.92202],[-46.96334,-18.92161],[-46.96278,-18.92143],[-46.96224,-18.92123],[-46.96239,-18.92054],[-46.96221,-18.92053],[-46.96202,-18.92049],[-46.96191,-18.92039],[-46.96179,-18.92039],[-46.96169,-18.92035],[-46.97528,-18.87941],[-46.97975,-18.87169],[-47.05029,-18.84439],[-47.0699,-18.8513]]],[[[-46.99629,-18.93379],[-46.99612,-18.93339],[-46.99609,-18.93333],[-46.99629,-18.93379]]],[[[-46.99073,-18.93775],[-46.99019,-18.93914],[-46.99066,-18.9379],[-46.99073,-18.93775]]],[[[-46.9873,-18.94182],[-46.98221,-18.94025],[-46.98279,-18.94042],[-46.9873,-18.94182]]],[[[-46.98198,-18.93649],[-46.98102,-18.93617],[-46.98092,-18.93614],[-46.98198,-18.93649]]],[[[-46.96214,-18.92113],[-46.96201,-18.92149],[-46.96161,-18.92251],[-46.96214,-18.92113]]]]}},{"type":"Feature","properties":{"territory_id":"mg-3148103-povoado-de-boa-vista","name":"Povoado de Boa Vista","municipality_id":"mg-3148103","polling_places":1,"approx":true,"official":false,"method":"voronoi-polling-places","whole_municipality":false,"approx_coords_only":false},"geometry":{"type":"MultiPolygon","coordinates":[[[[-47.14411,-18.75576],[-47.13881,-18.77771],[-47.0826,-18.85448],[-47.0699,-18.8513],[-47.05029,-18.84439],[-47.02823,-18.81578],[-46.98847,-18.70784],[-47.0062,-18.697],[-47.0745,-18.697],[-47.1153,-18.745],[-47.14411,-18.75576]]]]}},{"type":"Feature","properties":{"territory_id":"mg-3148103-povoado-de-caxambu","name":"Povoado de Caxambu","municipality_id":"mg-3148103","polling_places":1,"approx":true,"official":false,"method":"voronoi-polling-places","whole_municipality":false,"approx_coords_only":false},"geometry":{"type":"MultiPolygon","coordinates":[[[[-46.91418,-18.85914],[-46.91127,-18.9002],[-46.88962,-18.94129],[-46.87215,-18.94076],[-46.85127,-18.88915],[-46.89173,-18.84893],[-46.91418,-18.85914]]]]}},{"type":"Feature","properties":{"territory_id":"mg-3148103-povoado-de-chapadao-de-ferro","name":"Povoado de Chapadao de Ferro","municipality_id":"mg-3148103","polling_places":1,"approx":true,"official":false,"method":"voronoi-polling-places","whole_municipality":false,"approx_coords_only":false},"geometry":{"type":"MultiPolygon","coordinates":[[[[-46.87215,-18.94076],[-46.82623,-18.98286],[-46.76246,-18.98352],[-46.775,-18.9582],[-46.7502,-18.9401],[-46.7948,-18.9177],[-46.7919,-18.8964],[-46.8073,-18.87591],[-46.83411,-18.87844],[-46.85127,-18.88915],[-46.87215,-18.94076]]]]}},{"type":"Feature","properties":{"territory_id":"mg-3148103-povoado-de-corrego-da-mata","name":"Povoado de Corrego da Mata","municipality_id":"mg-3148103","polling_places":1,"approx":true,"official":false,"method":"voronoi-polling-places","whole_municipality":false,"approx_coords_only":false},"geometry":{"type":"MultiPolygon","coordinates":[[[[-47.30081,-18.76312],[-47.22475,-18.82832],[-47.13881,-18.77771],[-47.14411,-18.75576],[-47.1584,-18.7611],[-47.2038,-18.7611],[-47.2775,-18.7268],[-47.30081,-18.76312]]]]}},{"type":"Feature","properties":{"territory_id":"mg-3148103-povoado-de-corrego-feio","name":"Povoado de Corrego Feio","municipality_id":"mg-3148103","polling_places":1,"approx":true,"official":false,"method":"voronoi-polling-places","whole_municipality":false,"approx_coords_only":false},"geometry":{"type":"MultiPolygon","coordinates":[[[[-46.94205,-18.85441],[-46.91418,-18.85914],[-46.89173,-18.84893],[-46.89076,-18.84468],[-46.92734,-18.79286],[-46.93352,-18.79853],[-46.94205,-18.85441]]]]}},{"type":"Feature","properties":{"territory_id":"mg-3148103-povoado-de-divisa","name":"Povoado de Divisa","municipality_id":"mg-3148103","polling_places":1,"approx":true,"official":false,"method":"voronoi-polling-places","whole_municipality":false,"approx_coords_only":false},"geometry":{"type":"MultiPolygon","coordinates":[[[[-47.30232,-18.99217],[-47.21094,-19.10016],[-47.12773,-19.05966],[-47.13332,-19.02412],[-47.22616,-19.00225],[-47.29913,-18.99162],[-47.30232,-18.99217]]]]}},{"type":"Feature","properties":{"territory_id":"mg-3148103-povoado-de-dourados","name":"Povoado de Dourados","municipality_id":"mg-3148103","polling_places":1,"approx":true,"official":false,"method":"voronoi-polling-places","whole_municipality":false,"approx_coords_only":false},"geometry":{"type":"MultiPolygon","coordinates":[[[[-46.97528,-18.87941],[-46.96169,-18.92035],[-46.96163,-18.92034],[-46.96145,-18.92022],[-46.9612,-18.92015],[-46.96103,-18.92003],[-46.96092,-18.91992],[-46.96069,-18.91983],[-46.96062,-18.91973],[-46.96047,-18.91964],[-46.9604,-18.91957],[-46.96013,-18.91942],[-46.9599,-18.91927],[-46.95977,-18.91916],[-46.95957,-18.91902],[-46.95951,-18.91891],[-46.95923,-18.91866],[-46.95899,-18.9183],[-46.95878,-18.91807],[-46.95874,-18.91793],[-46.95867,-18.91777],[-46.9586,-18.91751],[-46.95851,-18.91728],[-46.95836,-18.91715],[-46.95823,-18.91694],[-46.95828,-18.91681],[-46.95816,-18.91656],[-46.95806,-18.91642],[-46.95793,-18.91616],[-46.9578,-18.9161],[-46.95776,-18.91596],[-46.95776,-18.91581],[-46.95763,-18.91563],[-46.95755,-18.91552],[-46.95752,-18.91521],[-46.95741,-18.91503],[-46.95723,-18.91481],[-46.9571,-18.91476],[-46.95705,-18.91454],[-46.95704,-18.9143],[-46.95687,-18.914],[-46.95675,-18.9139],[-46.95657,-18.9135],[-46.95619,-18.91301],[-46.95627,-18.91269],[-46.95608,-18.91236],[-46.95583,-18.91227],[-46.95576,-18.91209],[-46.95565,-18.91187],[-46.95552,-18.91177],[-46.95527,-18.91172],[-46.95515,-18.91149],[-46.955,-18.91158],[-46.95493,-18.91168],[-46.9548,-18.91172],[-46.95471,-18.91186],[-46.95463,-18.91196],[-46.95429,-18.91223],[-46.95418,-18.91238],[-46.95404,-18.9125],[-46.95388,-18.91249],[-46.95371,-18.91253],[-46.95349,-18.91271],[-46.95344,-18.91278],[-46.95328,-18.91279],[-46.95291,-18.91286],[-46.95284,-18.9131],[-46.95195,-18.91369],[-46.95166,-18.91375],[-46.9514,-18.91415],[-46.95124,-18.91441],[-46.95099,-18.91459],[-46.95034,-18.91453],[-46.9499,-18.91487],[-46.94925,-18.91461],[-46.94899,-18.91455],[-46.94867,-18.91441],[-46.94838,-18.9148],[-46.94809,-18.91502],[-46.94771,-18.91519],[-46.94738,-18.91522],[-46.94724,-18.91542],[-46.94689,-18.9155],[-46.94671,-18.91584],[-46.94644,-18.91609],[-46.94616,-18.91618],[-46.94589,-18.91632],[-46.94566,-18.91682],[-46.94519,-18.91716],[-46.94492,-18.91728],[-46.94514,-18.91759],[-46.94612,-18.91852],[-46.94783,-18.92005],[-46.94802,-18.92024],[-46.94817,-18.92044],[-46.94908,-18.92119],[-46.95409,-18.92577],[-46.95445,-18.92612],[-46.95602,-18.9275],[-46.95641,-18.92774],[-46.95679,-18.92793],[-46.95727,-18.92813],[-46.95771,-18.92828],[-46.9578,-18.92818],[-46.95846,-18.9284],[-46.95823,-18.92903],[-46.95875,-18.92921],[-46.95517,-18.93999],[-46.93392,-18.96035],[-46.88962,-18.94129],[-46.91127,-18.9002],[-46.97528,-18.87941]]]]}},{"type":"Feature","properties":{"territory_id":"mg-3148103-povoado-de-esmeril","name":"Povoado de Esmeril","municipality_id":"mg-3148103","polling_places":1,"approx":true,"official":false,"method":"voronoi-polling-places","whole_municipality":false,"approx_coords_only":false},"geometry":{"type":"MultiPolygon","coordinates":[[[[-46.97975,-18.87169],[-46.97528,-18.87941],[-46.91127,-18.9002],[-46.91418,-18.85914],[-46.94205,-18.85441],[-46.97975,-18.87169]]]]}},{"type":"Feature","properties":{"territory_id":"mg-3148103-povoado-de-macaubas-de-cima","name":"Povoado de Macaubas de Cima","municipality_id":"mg-3148103","polling_places":1,"approx":true,"official":false,"method":"voronoi-polling-places","whole_municipality":false,"approx_coords_only":false},"geometry":{"type":"MultiPolygon","coordinates":[[[[-47.33998,-18.97778],[-47.30232,-18.99217],[-47.29913,-18.99162],[-47.13035,-18.92508],[-47.23636,-18.87936],[-47.2867,-18.89682],[-47.2792,-18.927],[-47.3133,-18.9322],[-47.3395,-18.9594],[-47.33998,-18.97778]]]]}},{"type":"Feature","properties":{"territory_id":"mg-3148103-povoado-de-malhadouro","name":"Povoado de Malhadouro","municipality_id":"mg-3148103","polling_places":1,"approx":true,"official":false,"method":"voronoi-polling-places","whole_municipality":false,"approx_coords_only":false},"geometry":{"type":"MultiPolygon","coordinates":[[[[-46.97719,-19.15267],[-46.95822,-19.18574],[-46.82623,-18.98286],[-46.87215,-18.94076],[-46.88962,-18.94129],[-46.93392,-18.96035],[-46.94635,-18.99229],[-46.97665,-19.10664],[-46.97719,-19.15267]]]]}},{"type":"Feature","properties":{"territory_id":"mg-3148103-povoado-de-mata-da-bananeira","name":"Povoado de Mata da Bananeira","municipality_id":"mg-3148103","polling_places":1,"approx":true,"official":false,"method":"voronoi-polling-places","whole_municipality":false,"approx_coords_only":true},"geometry":{"type":"MultiPolygon","coordinates":[[[[-47.12997,-18.92512],[-47.12992,-18.93461],[-47.12925,-18.95733],[-47.01773,-19.00957],[-47.02356,-18.98398],[-47.03286,-18.95794],[-47.10277,-18.89729],[-47.12997,-18.92512]]]]}},{"type":"Feature","properties":{"territory_id":"mg-3148103-povoado-de-mata-do-silvano","name":"Povoado de Mata do Silvano","municipality_id":"mg-3148103","polling_places":1,"approx":true,"official":false,"method":"voronoi-polling-places","whole_municipality":false,"approx_coords_only":false},"geometry":{"type":"MultiPolygon","coordinates":[[[[-47.3146,-18.7846],[-47.2867,-18.89682],[-47.23636,-18.87936],[-47.22475,-18.82832],[-47.30081,-18.76312],[-47.3146,-18.7846]]]]}},{"type":"Feature","properties":{"territory_id":"mg-3148103-povoado-de-pedros","name":"Povoado de Pedros","municipality_id":"mg-3148103","polling_places":1,"approx":true,"official":false,"method":"voronoi-polling-places","whole_municipality":false,"approx_coords_only":false},"geometry":{"type":"MultiPolygon","coordinates":[[[[-47.22616,-19.00225],[-47.13332,-19.02412],[-47.12925,-18.95733],[-47.12992,-18.93461],[-47.22616,-19.00225]]]]}},{"type":"Feature","properties":{"territory_id":"mg-3148103-povoado-de-puladouro","name":"Povoado de Puladouro","municipality_id":"mg-3148103","polling_places":1,"approx":true,"official":false,"method":"voronoi-polling-places","whole_municipality":false,"approx_coords_only":false},"geometry":{"type":"MultiPolygon","coordinates":[[[[-46.92734,-18.79286],[-46.89076,-18.84468],[-46.84734,-18.79529],[-46.82572,-18.73418],[-46.8278,-18.7267],[-46.8644,-18.7286],[-46.8873,-18.7185],[-46.89615,-18.72216],[-46.92734,-18.79286]]]]}},{"type":"Feature","properties":{"territory_id":"mg-3148103-povoado-de-samambaia","name":"Povoado de Samambaia","municipality_id":"mg-3148103","polling_places":1,"approx":true,"official":false,"method":"voronoi-polling-places","whole_municipality":false,"approx_coords_only":false},"geometry":{"type":"MultiPolygon","coordinates":[[[[-47.13332,-19.02412],[-47.12773,-19.05966],[-46.97719,-19.15267],[-46.97665,-19.10664],[-47.01773,-19.00957],[-47.12925,-18.95733],[-47.13332,-19.02412]]]]}},{"type":"Feature","properties":{"territory_id":"mg-3148103-povoado-de-santa-luzia-dos-barros","name":"Povoado de Santa Luzia dos Barros","municipality_id":"mg-3148103","polling_places":1,"approx":true,"official":false,"method":"voronoi-polling-places","whole_municipality":false,"approx_coords_only":false},"geometry":{"type":"MultiPolygon","coordinates":[[[[-47.23056,-19.14228],[-47.2202,-19.1413],[-47.1425,-19.1877],[-47.0868,-19.1827],[-47.0305,-19.2358],[-46.9568,-19.2691],[-46.93977,-19.25458],[-46.94505,-19.23065],[-46.95822,-19.18574],[-46.97719,-19.15267],[-47.12773,-19.05966],[-47.21094,-19.10016],[-47.23056,-19.14228]]]]}},{"type":"Feature","properties":{"territory_id":"mg-3148103-povoado-de-sao-benedito","name":"Povoado de São Benedito","municipality_id":"mg-3148103","polling_places":1,"approx":true,"official":false,"method":"voronoi-polling-places","whole_municipality":false,"approx_coords_only":false},"geometry":{"type":"MultiPolygon","coordinates":[[[[-46.95822,-19.18574],[-46.94505,-19.23065],[-46.75428,-19.00003],[-46.76246,-18.98352],[-46.82623,-18.98286],[-46.95822,-19.18574]]]]}},{"type":"Feature","properties":{"territory_id":"mg-3148103-povoado-de-tejuco","name":"Povoado de Tejuco","municipality_id":"mg-3148103","polling_places":1,"approx":true,"official":false,"method":"voronoi-polling-places","whole_municipality":false,"approx_coords_only":false},"geometry":{"type":"MultiPolygon","coordinates":[[[[-46.89173,-18.84893],[-46.85127,-18.88915],[-46.83411,-18.87844],[-46.84734,-18.79529],[-46.89076,-18.84468],[-46.89173,-18.84893]]]]}},{"type":"Feature","properties":{"territory_id":"mg-3148103-santa-terezinha","name":"Santa Terezinha","municipality_id":"mg-3148103","polling_places":1,"approx":false,"official":true,"method":"official-ibge-cd2022","whole_municipality":false,"approx_coords_only":false,"official_name":"Santa Terezinha","official_code":"3148103003","match":"direct"},"geometry":{"type":"MultiPolygon","coordinates":[[[[-47.00543,-18.9335],[-47.00592,-18.93224],[-47.00643,-18.93098],[-47.00768,-18.92775],[-47.00708,-18.92738],[-47.00613,-18.92672],[-47.00584,-18.92692],[-47.00563,-18.92701],[-47.00544,-18.92707],[-47.00368,-18.92722],[-47.00327,-18.92733],[-47.00306,-18.92746],[-47.00271,-18.92774],[-47.0024,-18.92817],[-47.00088,-18.93192],[-47.00009,-18.93395],[-46.99996,-18.9342],[-46.99986,-18.93438],[-46.99969,-18.93459],[-46.99935,-18.93488],[-46.99902,-18.93504],[-46.99879,-18.93512],[-46.99849,-18.93518],[-46.99843,-18.93542],[-47.00152,-18.93646],[-47.00295,-18.93691],[-47.00376,-18.93597],[-47.00498,-18.93458],[-47.00504,-18.93447],[-47.00543,-18.9335]]]]}},{"type":"Feature","properties":{"territory_id":"mg-3148103-santo-antonio","name":"Santo Antonio","municipality_id":"mg-3148103","polling_places":1,"approx":false,"official":true,"method":"official-ibge-cd2022","whole_municipality":false,"approx_coords_only":false,"official_name":"Santo Antônio","official_code":"3148103007","match":"direct"},"geometry":{"type":"MultiPolygon","coordinates":[[[[-47.00248,-18.95468],[-47.00333,-18.95243],[-47.00145,-18.95187],[-47.00125,-18.95178],[-46.99972,-18.95133],[-46.99756,-18.95065],[-46.99626,-18.95027],[-46.99507,-18.9499],[-46.99496,-18.94984],[-46.99464,-18.95279],[-46.99433,-18.95553],[-46.99426,-18.95665],[-46.99443,-18.95667],[-46.99459,-18.95677],[-46.99468,-18.95691],[-46.9947,-18.95705],[-46.9947,-18.95715],[-46.99487,-18.95719],[-46.99491,-18.95709],[-46.99499,-18.95707],[-46.99514,-18.95712],[-46.99526,-18.95707],[-46.99541,-18.95711],[-46.99544,-18.95718],[-46.99562,-18.95728],[-46.99567,-18.95737],[-46.99571,-18.95749],[-46.99588,-18.95761],[-46.99593,-18.95769],[-46.99602,-18.95775],[-46.99607,-18.95783],[-46.9961,-18.95792],[-46.99618,-18.95801],[-46.99619,-18.95815],[-46.99628,-18.95835],[-46.99629,-18.95842],[-46.99634,-18.95845],[-46.99633,-18.95854],[-46.99645,-18.95865],[-46.99689,-18.95909],[-46.99698,-18.95917],[-46.99706,-18.95918],[-46.99715,-18.9593],[-46.99716,-18.95949],[-46.99712,-18.95955],[-46.99716,-18.95964],[-46.99715,-18.95973],[-46.9972,-18.95983],[-46.99723,-18.95998],[-46.99728,-18.96009],[-46.99756,-18.96034],[-46.9975,-18.96057],[-46.99758,-18.96062],[-46.99764,-18.96069],[-46.99764,-18.96075],[-46.9977,-18.96081],[-46.99774,-18.96092],[-46.99774,-18.96099],[-46.99771,-18.96101],[-46.99774,-18.96114],[-46.99777,-18.9612],[-46.99778,-18.96126],[-46.99778,-18.96138],[-46.99771,-18.9616],[-46.99778,-18.9616],[-46.99774,-18.96165],[-46.99774,-18.96173],[-46.99784,-18.96182],[-46.99788,-18.96193],[-46.99796,-18.96204],[-46.99802,-18.96223],[-46.9981,-18.96228],[-46.99819,-18.96238],[-46.99817,-18.96243],[-46.9981,-18.96243],[-46.99804,-18.96249],[-46.99793,-18.96276],[-46.99803,-18.96293],[-46.9982,-18.96301],[-46.9983,-18.96309],[-46.9985,-18.96311],[-46.99882,-18.9632],[-46.99886,-18.96333],[-46.99901,-18.96348],[-46.99926,-18.96354],[-46.99967,-18.96359],[-47.00008,-18.96374],[-47.00021,-18.96383],[-47.00037,-18.96386],[-47.0005,-18.9638],[-47.00059,-18.96362],[-47.00066,-18.96355],[-47.00083,-18.96359],[-47.00094,-18.96357],[-47.0011,-18.9636],[-47.00122,-18.96352],[-47.00143,-18.96343],[-47.00151,-18.96347],[-47.0016,-18.96382],[-47.00173,-18.96389],[-47.0019,-18.96382],[-47.00213,-18.96365],[-47.00234,-18.96364],[-47.00254,-18.96372],[-47.00266,-18.96388],[-47.00299,-18.96404],[-47.00314,-18.96401],[-47.00329,-18.96382],[-47.00348,-18.96352],[-47.00376,-18.96344],[-47.004,-18.96346],[-47.00441,-18.9633],[-47.00463,-18.96333],[-47.00482,-18.96342],[-47.00496,-18.96352],[-47.00508,-18.96386],[-47.00587,-18.96395],[-47.00636,-18.96371],[-47.00671,-18.96345],[-47.00635,-18.96336],[-47.00618,-18.96323],[-47.00599,-18.96302],[-47.00576,-18.9629],[-47.00568,-18.96267],[-47.0056,-18.96258],[-47.00544,-18.96245],[-47.00535,-18.96226],[-47.00529,-18.96192],[-47.00518,-18.9616],[-47.00514,-18.96135],[-47.00513,-18.96104],[-47.00523,-18.96091],[-47.0055,-18.95989],[-47.00552,-18.95952],[-47.00545,-18.95919],[-47.00568,-18.95854],[-47.0064,-18.95758],[-47.00666,-18.95716],[-47.00736,-18.9565],[-47.00733,-18.95638],[-47.00751,-18.95618],[-47.00753,-18.95599],[-47.00761,-18.95594],[-47.0026,-18.9547],[-47.00248,-18.95468]]]]}},{"type":"Feature","properties":{"territory_id":"mg-3148103-santo-antonio-da-lagoa-seca","name":"Santo Antonio da Lagoa Seca","municipality_id":"mg-3148103","polling_places":1,"approx":true,"official":false,"method":"voronoi-polling-places","whole_municipality":false,"approx_coords_only":false},"geometry":{"type":"MultiPolygon","coordinates":[[[[-47.02823,-18.81578],[-46.93352,-18.79853],[-46.92734,-18.79286],[-46.89615,-18.72216],[-46.9608,-18.7489],[-46.9712,-18.7184],[-46.98847,-18.70784],[-47.02823,-18.81578]]]]}},{"type":"Feature","properties":{"territory_id":"mg-3148103-santo-antonio-do-quebranzol","name":"Santo Antonio do Quebranzol","municipality_id":"mg-3148103","polling_places":1,"approx":true,"official":false,"method":"voronoi-polling-places","whole_municipality":false,"approx_coords_only":false},"geometry":{"type":"MultiPolygon","coordinates":[[[[-47.3895,-19.1276],[-47.3163,-19.1277],[-47.2773,-19.1467],[-47.23056,-19.14228],[-47.21094,-19.10016],[-47.30232,-18.99217],[-47.33998,-18.97778],[-47.341,-19.0173],[-47.3601,-19.0328],[-47.3895,-19.1276]]]]}},{"type":"Feature","properties":{"territory_id":"mg-3148103-sao-benedito","name":"São Benedito","municipality_id":"mg-3148103","polling_places":1,"approx":false,"official":true,"method":"official-ibge-cd2022","whole_municipality":false,"approx_coords_only":false,"official_name":"São Benedito","official_code":"3148103002","match":"direct"},"geometry":{"type":"MultiPolygon","coordinates":[[[[-47.00048,-18.93292],[-47.0024,-18.92817],[-47.00271,-18.92774],[-47.00306,-18.92746],[-47.00327,-18.92733],[-47.00368,-18.92722],[-47.00544,-18.92707],[-47.00563,-18.92701],[-47.00584,-18.92692],[-47.00613,-18.92672],[-47.0054,-18.92624],[-47.00512,-18.92609],[-47.00424,-18.9257],[-47.00366,-18.92548],[-47.00311,-18.92533],[-47.00213,-18.92514],[-47.00158,-18.92502],[-46.99999,-18.92486],[-46.99915,-18.92468],[-46.99919,-18.92481],[-46.99919,-18.92498],[-46.99705,-18.93071],[-46.99685,-18.93128],[-46.99689,-18.9313],[-46.99684,-18.93146],[-46.99609,-18.93333],[-46.99629,-18.93379],[-46.99652,-18.93423],[-46.99663,-18.93439],[-46.9968,-18.9346],[-46.99687,-18.93468],[-46.99698,-18.93476],[-46.99717,-18.9349],[-46.99754,-18.93507],[-46.99796,-18.93518],[-46.99815,-18.93519],[-46.99849,-18.93518],[-46.99879,-18.93512],[-46.99902,-18.93504],[-46.99935,-18.93488],[-46.99969,-18.93459],[-46.99986,-18.93438],[-47.00009,-18.93395],[-47.00047,-18.93295],[-47.00048,-18.93292]]]]}},{"type":"Feature","properties":{"territory_id":"mg-3148103-sao-francisco","name":"São Francisco","municipality_id":"mg-3148103","polling_places":1,"approx":false,"official":true,"method":"official-ibge-cd2022","whole_municipality":false,"approx_coords_only":false,"official_name":"São Francisco","official_code":"3148103012","match":"direct"},"geometry":{"type":"MultiPolygon","coordinates":[[[[-46.99609,-18.93333],[-46.99605,-18.93317],[-46.99591,-18.93281],[-46.99578,-18.93255],[-46.99563,-18.93236],[-46.99544,-18.93218],[-46.9952,-18.93204],[-46.99486,-18.93191],[-46.99365,-18.93154],[-46.9936,-18.93172],[-46.99334,-18.93237],[-46.9929,-18.93359],[-46.99256,-18.9345],[-46.99272,-18.93453],[-46.9928,-18.93458],[-46.99286,-18.93465],[-46.99291,-18.93472],[-46.99293,-18.93481],[-46.99293,-18.9349],[-46.99291,-18.93498],[-46.99284,-18.9351],[-46.99273,-18.93518],[-46.99259,-18.93521],[-46.99244,-18.93519],[-46.99188,-18.93602],[-46.99574,-18.93735],[-46.99691,-18.93775],[-46.99749,-18.93793],[-46.99821,-18.9382],[-47.0003,-18.9389],[-47.00105,-18.93918],[-47.00177,-18.93834],[-47.0017,-18.93816],[-47.0017,-18.93806],[-47.00172,-18.93797],[-47.00177,-18.9379],[-47.00188,-18.9378],[-47.00202,-18.93775],[-47.00215,-18.93774],[-47.00225,-18.93778],[-47.00295,-18.93691],[-47.00152,-18.93646],[-46.99843,-18.93542],[-46.99849,-18.93518],[-46.99815,-18.93519],[-46.99796,-18.93518],[-46.99754,-18.93507],[-46.99729,-18.93496],[-46.99717,-18.9349],[-46.99687,-18.93468],[-46.99663,-18.93439],[-46.99652,-18.93423],[-46.99629,-18.93379],[-46.99612,-18.93339],[-46.99609,-18.93333]]]]}},{"type":"Feature","properties":{"territory_id":"mg-3148103-sao-joao-da-serra-negra","name":"São João da Serra Negra","municipality_id":"mg-3148103","polling_places":1,"approx":true,"official":false,"method":"voronoi-polling-places","whole_municipality":false,"approx_coords_only":false},"geometry":{"type":"MultiPolygon","coordinates":[[[[-46.84734,-18.79529],[-46.83411,-18.87844],[-46.8073,-18.87591],[-46.8161,-18.8642],[-46.7885,-18.8221],[-46.8081,-18.7974],[-46.82572,-18.73418],[-46.84734,-18.79529]]]]}},{"type":"Feature","properties":{"territory_id":"mg-3148103-sao-vicente","name":"São Vicente","municipality_id":"mg-3148103","polling_places":1,"approx":false,"official":true,"method":"official-ibge-cd2022","whole_municipality":false,"approx_coords_only":false,"official_name":"São Vicente","official_code":"3148103008","match":"direct"},"geometry":{"type":"MultiPolygon","coordinates":[[[[-46.98411,-18.95147],[-46.98432,-18.95244],[-46.98447,-18.95282],[-46.98464,-18.95306],[-46.98565,-18.95389],[-46.98563,-18.954],[-46.98563,-18.95407],[-46.98567,-18.95417],[-46.9857,-18.9542],[-46.98582,-18.95425],[-46.98598,-18.95424],[-46.98654,-18.95474],[-46.98688,-18.95502],[-46.9871,-18.95515],[-46.98746,-18.95529],[-46.98876,-18.95571],[-46.99072,-18.95632],[-46.99383,-18.95704],[-46.99388,-18.95686],[-46.994,-18.95674],[-46.99413,-18.95667],[-46.99426,-18.95665],[-46.99433,-18.95553],[-46.99464,-18.95279],[-46.99026,-18.9517],[-46.98956,-18.95155],[-46.98895,-18.95138],[-46.98751,-18.95087],[-46.98699,-18.95071],[-46.98632,-18.95045],[-46.98499,-18.95003],[-46.98434,-18.94977],[-46.98421,-18.94971],[-46.98401,-18.94993],[-46.98387,-18.95012],[-46.98384,-18.95023],[-46.98383,-18.95035],[-46.984,-18.95098],[-46.98393,-18.95102],[-46.98388,-18.95108],[-46.98385,-18.95115],[-46.98385,-18.95125],[-46.98387,-18.95133],[-46.98392,-18.95139],[-46.98399,-18.95144],[-46.98409,-18.95147],[-46.98411,-18.95147]]]]}},{"type":"Feature","properties":{"territory_id":"mg-3148103-serra-negra","name":"Serra Negra","municipality_id":"mg-3148103","polling_places":2,"approx":false,"official":true,"method":"official-ibge-cd2022","whole_municipality":false,"approx_coords_only":false,"official_name":"Serra Negra","official_code":"3148103024","match":"direct"},"geometry":{"type":"MultiPolygon","coordinates":[[[[-46.95763,-18.91563],[-46.95755,-18.91552],[-46.95752,-18.91521],[-46.95741,-18.91503],[-46.95723,-18.91481],[-46.9571,-18.91476],[-46.95705,-18.91454],[-46.95704,-18.9143],[-46.95687,-18.914],[-46.95675,-18.9139],[-46.95657,-18.9135],[-46.95619,-18.91301],[-46.95627,-18.91269],[-46.95608,-18.91236],[-46.95583,-18.91227],[-46.95576,-18.91209],[-46.95565,-18.91187],[-46.95552,-18.91177],[-46.95527,-18.91172],[-46.95515,-18.91149],[-46.955,-18.91158],[-46.95493,-18.91168],[-46.9548,-18.91172],[-46.95471,-18.91186],[-46.95463,-18.91196],[-46.95429,-18.91223],[-46.95418,-18.91238],[-46.95404,-18.9125],[-46.95388,-18.91249],[-46.95371,-18.91253],[-46.95349,-18.91271],[-46.95344,-18.91278],[-46.95328,-18.91279],[-46.95291,-18.91286],[-46.95284,-18.9131],[-46.95195,-18.91369],[-46.95166,-18.91375],[-46.9514,-18.91415],[-46.95124,-18.91441],[-46.95099,-18.91459],[-46.95034,-18.91453],[-46.9499,-18.91487],[-46.94925,-18.91461],[-46.94899,-18.91455],[-46.94867,-18.91441],[-46.94838,-18.9148],[-46.94809,-18.91502],[-46.94771,-18.91519],[-46.94738,-18.91522],[-46.94724,-18.91542],[-46.94689,-18.9155],[-46.94671,-18.91584],[-46.94644,-18.91609],[-46.94616,-18.91618],[-46.94589,-18.91632],[-46.94566,-18.91682],[-46.94519,-18.91716],[-46.94492,-18.91728],[-46.94514,-18.91759],[-46.94612,-18.91852],[-46.94783,-18.92005],[-46.94802,-18.92024],[-46.94817,-18.92044],[-46.94908,-18.92119],[-46.95409,-18.92577],[-46.95445,-18.92612],[-46.95602,-18.9275],[-46.95641,-18.92774],[-46.95679,-18.92793],[-46.95727,-18.92813],[-46.95771,-18.92828],[-46.9578,-18.92818],[-46.95846,-18.9284],[-46.95823,-18.92903],[-46.95904,-18.92931],[-46.95933,-18.92858],[-46.95954,-18.92797],[-46.95995,-18.92693],[-46.96034,-18.92588],[-46.96061,-18.92521],[-46.96161,-18.92251],[-46.96214,-18.92113],[-46.96224,-18.92123],[-46.96239,-18.92054],[-46.96221,-18.92053],[-46.96202,-18.92049],[-46.96191,-18.92039],[-46.96179,-18.92039],[-46.96163,-18.92034],[-46.96145,-18.92022],[-46.9612,-18.92015],[-46.96103,-18.92003],[-46.96092,-18.91992],[-46.96069,-18.91983],[-46.96062,-18.91973],[-46.96047,-18.91964],[-46.9604,-18.91957],[-46.96013,-18.91942],[-46.9599,-18.91927],[-46.95977,-18.91916],[-46.95957,-18.91902],[-46.95951,-18.91891],[-46.95923,-18.91866],[-46.95899,-18.9183],[-46.95878,-18.91807],[-46.95874,-18.91793],[-46.95867,-18.91777],[-46.9586,-18.91751],[-46.95851,-18.91728],[-46.95836,-18.91715],[-46.95823,-18.91694],[-46.95828,-18.91681],[-46.95816,-18.91656],[-46.95806,-18.91642],[-46.95793,-18.91616],[-46.9578,-18.9161],[-46.95776,-18.91596],[-46.95776,-18.91581],[-46.95763,-18.91563]]]]}},{"type":"Feature","properties":{"territory_id":"mg-3148103-zona-rural","name":"Zona Rural","municipality_id":"mg-3148103","polling_places":2,"approx":true,"official":false,"method":"voronoi-polling-places","whole_municipality":false,"approx_coords_only":false},"geometry":{"type":"MultiPolygon","coordinates":[[[[-47.29913,-18.99162],[-47.22616,-19.00225],[-47.12992,-18.93461],[-47.12997,-18.92512],[-47.13035,-18.92508],[-47.29913,-18.99162]]],[[[-47.05029,-18.84439],[-46.97975,-18.87169],[-46.94205,-18.85441],[-46.93352,-18.79853],[-47.02823,-18.81578],[-47.05029,-18.84439]]]]}}]}