{"type":"FeatureCollection","features":[{"type":"Feature","properties":{"territory_id":"mg-3149101-centro","name":"Centro","municipality_id":"mg-3149101","polling_places":6,"approx":true,"official":false,"method":"voronoi-polling-places","whole_municipality":false,"approx_coords_only":false},"geometry":{"type":"MultiPolygon","coordinates":[[[[-45.51376,-22.2058],[-45.46951,-22.243],[-45.46855,-22.24401],[-45.46846,-22.24765],[-45.48827,-22.29106],[-45.45447,-22.28327],[-45.44836,-22.2761],[-45.37865,-22.19819],[-45.3938,-22.168],[-45.4626,-22.1938],[-45.5078,-22.1916],[-45.51376,-22.2058]]]]}},{"type":"Feature","properties":{"territory_id":"mg-3149101-lagoa","name":"Lagoa","municipality_id":"mg-3149101","polling_places":1,"approx":true,"official":false,"method":"voronoi-polling-places","whole_municipality":false,"approx_coords_only":false},"geometry":{"type":"MultiPolygon","coordinates":[[[[-45.45447,-22.28327],[-45.41949,-22.31843],[-45.4165,-22.3177],[-45.3744,-22.2696],[-45.3665,-22.2224],[-45.37865,-22.19819],[-45.44836,-22.2761],[-45.45447,-22.28327]]]]}},{"type":"Feature","properties":{"territory_id":"mg-3149101-pedrao","name":"Pedrão","municipality_id":"mg-3149101","polling_places":1,"approx":true,"official":false,"method":"voronoi-polling-places","whole_municipality":false,"approx_coords_only":false},"geometry":{"type":"MultiPolygon","coordinates":[[[[-45.52554,-22.30155],[-45.5246,-22.303],[-45.4496,-22.3258],[-45.41949,-22.31843],[-45.45447,-22.28327],[-45.48827,-22.29106],[-45.52554,-22.30155]]]]}},{"type":"Feature","properties":{"territory_id":"mg-3149101-pitangueiras","name":"Pitangueiras","municipality_id":"mg-3149101","polling_places":1,"approx":true,"official":false,"method":"voronoi-polling-places","whole_municipality":false,"approx_coords_only":false},"geometry":{"type":"MultiPolygon","coordinates":[[[[-45.556,-22.2473],[-45.5506,-22.263],[-45.52554,-22.30155],[-45.48827,-22.29106],[-45.46846,-22.24765],[-45.46855,-22.24401],[-45.46951,-22.243],[-45.51376,-22.2058],[-45.5183,-22.2166],[-45.556,-22.2473]]]]}}]}