{"type":"FeatureCollection","features":[{"type":"Feature","properties":{"territory_id":"mg-3149606-centro","name":"Centro","municipality_id":"mg-3149606","polling_places":2,"approx":true,"official":false,"method":"voronoi-polling-places","whole_municipality":false,"approx_coords_only":false},"geometry":{"type":"MultiPolygon","coordinates":[[[[-44.7253,-19.6137],[-44.71477,-19.62605],[-44.64626,-19.63587],[-44.64784,-19.63382],[-44.70321,-19.56207],[-44.7219,-19.5705],[-44.7253,-19.6137]]]]}},{"type":"Feature","properties":{"territory_id":"mg-3149606-pindaibas-zona-rural","name":"Pindaíbas (zona Rural)","municipality_id":"mg-3149606","polling_places":1,"approx":true,"official":false,"method":"voronoi-polling-places","whole_municipality":false,"approx_coords_only":false},"geometry":{"type":"MultiPolygon","coordinates":[[[[-44.71477,-19.62605],[-44.6993,-19.6442],[-44.6664,-19.6593],[-44.641,-19.7116],[-44.6061,-19.6697],[-44.60556,-19.66884],[-44.64626,-19.63587],[-44.71477,-19.62605]]]]}},{"type":"Feature","properties":{"territory_id":"mg-3149606-soledade-zona-rural","name":"Soledade (zona Rural)","municipality_id":"mg-3149606","polling_places":1,"approx":true,"official":false,"method":"voronoi-polling-places","whole_municipality":false,"approx_coords_only":true},"geometry":{"type":"MultiPolygon","coordinates":[[[[-44.64784,-19.63382],[-44.64626,-19.63587],[-44.60556,-19.66884],[-44.5652,-19.6042],[-44.546,-19.5862],[-44.5699,-19.5618],[-44.5579,-19.5367],[-44.6073,-19.5275],[-44.64784,-19.55456],[-44.64784,-19.63382]]]]}},{"type":"Feature","properties":{"territory_id":"mg-3149606-vilacas-zona-rural","name":"Vilaças (zona Rural)","municipality_id":"mg-3149606","polling_places":1,"approx":true,"official":false,"method":"voronoi-polling-places","whole_municipality":false,"approx_coords_only":true},"geometry":{"type":"MultiPolygon","coordinates":[[[[-44.70321,-19.56207],[-44.64784,-19.63382],[-44.64784,-19.55456],[-44.6506,-19.5564],[-44.6831,-19.553],[-44.70321,-19.56207]]]]}}]}