{"type":"FeatureCollection","features":[{"type":"Feature","properties":{"territory_id":"mg-3149705-bela-vista","name":"Bela Vista","municipality_id":"mg-3149705","polling_places":1,"approx":true,"official":false,"method":"voronoi-polling-places","whole_municipality":false,"approx_coords_only":false},"geometry":{"type":"MultiPolygon","coordinates":[[[[-45.09026,-20.00574],[-45.0684,-19.9993],[-45.0472,-20.0117],[-45.02122,-20.01051],[-45.03212,-19.93598],[-45.03321,-19.9358],[-45.07731,-19.95416],[-45.08201,-19.96279],[-45.09026,-20.00574]]]]}},{"type":"Feature","properties":{"territory_id":"mg-3149705-centro","name":"Centro","municipality_id":"mg-3149705","polling_places":5,"approx":true,"official":false,"method":"voronoi-polling-places","whole_municipality":false,"approx_coords_only":false},"geometry":{"type":"MultiPolygon","coordinates":[[[[-45.1519,-19.9453],[-45.1434,-19.9779],[-45.1078,-20.0109],[-45.09026,-20.00574],[-45.08201,-19.96279],[-45.07731,-19.95416],[-45.03321,-19.9358],[-45.03212,-19.93598],[-45.02122,-20.01051],[-44.9862,-20.0089],[-44.9549,-19.9626],[-44.9648,-19.9348],[-44.9982,-19.9192],[-45.0325,-19.8711],[-45.0693,-19.8645],[-45.0801,-19.8305],[-45.1243,-19.831],[-45.1013,-19.8517],[-45.116,-19.893],[-45.1519,-19.9453]]]]}}]}