{"type":"FeatureCollection","features":[{"type":"Feature","properties":{"territory_id":"mg-3149200-centro","name":"Centro","municipality_id":"mg-3149200","polling_places":2,"approx":true,"official":false,"method":"voronoi-polling-places","whole_municipality":true,"approx_coords_only":false},"geometry":{"type":"MultiPolygon","coordinates":[[[[-47.4409,-19.1387],[-47.4703,-19.1192],[-47.5584,-19.0975],[-47.5703,-19.106],[-47.6177,-19.1505],[-47.6436,-19.1595],[-47.6397,-19.1965],[-47.5793,-19.2229],[-47.5329,-19.269],[-47.4052,-19.2744],[-47.3872,-19.2402],[-47.3995,-19.1996],[-47.4409,-19.1387]]]]}}]}