{"type":"FeatureCollection","features":[{"type":"Feature","properties":{"territory_id":"mg-3149309-centro","name":"Centro","municipality_id":"mg-3149309","polling_places":7,"approx":true,"official":false,"method":"voronoi-polling-places","whole_municipality":false,"approx_coords_only":false},"geometry":{"type":"MultiPolygon","coordinates":[[[[-44.06265,-19.63008],[-44.05107,-19.6365],[-44.04792,-19.63399],[-44.04549,-19.63261],[-44.03948,-19.63004],[-44.03379,-19.63036],[-44.03191,-19.63052],[-44.02205,-19.64166],[-43.99463,-19.61037],[-43.99462,-19.61031],[-44.00206,-19.61004],[-44.0283,-19.60939],[-44.02998,-19.61132],[-44.03017,-19.61143],[-44.03349,-19.61316],[-44.04622,-19.61763],[-44.04903,-19.61829],[-44.06265,-19.63008]]]]}},{"type":"Feature","properties":{"territory_id":"mg-3149309-conjunto-habitacional-romero-carvalho","name":"Conjunto Habitacional Romero Carvalho","municipality_id":"mg-3149309","polling_places":1,"approx":true,"official":false,"method":"voronoi-polling-places","whole_municipality":false,"approx_coords_only":false},"geometry":{"type":"MultiPolygon","coordinates":[[[[-44.11769,-19.61865],[-44.06265,-19.63008],[-44.04903,-19.61829],[-44.0489,-19.60107],[-44.06048,-19.59484],[-44.07435,-19.58927],[-44.0991,-19.6151],[-44.11769,-19.61865]]]]}},{"type":"Feature","properties":{"territory_id":"mg-3149309-dom-camilo","name":"Dom Camilo","municipality_id":"mg-3149309","polling_places":1,"approx":true,"official":false,"method":"voronoi-polling-places","whole_municipality":false,"approx_coords_only":false},"geometry":{"type":"MultiPolygon","coordinates":[[[[-44.03616,-19.58449],[-44.03472,-19.58808],[-44.03251,-19.58771],[-44.01781,-19.58418],[-44.02827,-19.58082],[-44.03616,-19.58449]]]]}},{"type":"Feature","properties":{"territory_id":"mg-3149309-dr-lund","name":"Dr. Lund","municipality_id":"mg-3149309","polling_places":1,"approx":true,"official":false,"method":"voronoi-polling-places","whole_municipality":false,"approx_coords_only":false},"geometry":{"type":"MultiPolygon","coordinates":[[[[-44.02867,-19.65494],[-44.02051,-19.66726],[-44.0053,-19.6557],[-43.99463,-19.61037],[-44.02205,-19.64166],[-44.02867,-19.65494]]]]}},{"type":"Feature","properties":{"territory_id":"mg-3149309-felipe-claudio-de-sales","name":"Felipe Cláudio de Sales","municipality_id":"mg-3149309","polling_places":2,"approx":true,"official":false,"method":"voronoi-polling-places","whole_municipality":false,"approx_coords_only":false},"geometry":{"type":"MultiPolygon","coordinates":[[[[-44.0348,-19.58836],[-44.03359,-19.60501],[-44.0283,-19.60939],[-44.00206,-19.61004],[-43.99462,-19.61031],[-43.9924,-19.6009],[-43.9718,-19.5979],[-43.96984,-19.58805],[-43.97446,-19.58308],[-44.01781,-19.58418],[-44.03251,-19.58771],[-44.03472,-19.58808],[-44.0348,-19.58836]]]]}},{"type":"Feature","properties":{"territory_id":"mg-3149309-ferreiras","name":"Ferreiras","municipality_id":"mg-3149309","polling_places":1,"approx":true,"official":false,"method":"voronoi-polling-places","whole_municipality":false,"approx_coords_only":false},"geometry":{"type":"MultiPolygon","coordinates":[[[[-44.16755,-19.67433],[-44.1568,-19.6789],[-44.14337,-19.6962],[-44.12857,-19.69726],[-44.0592,-19.68104],[-44.04293,-19.6545],[-44.16755,-19.67433]]]]}},{"type":"Feature","properties":{"territory_id":"mg-3149309-fidalgo","name":"Fidalgo","municipality_id":"mg-3149309","polling_places":1,"approx":true,"official":false,"method":"voronoi-polling-places","whole_municipality":false,"approx_coords_only":false},"geometry":{"type":"MultiPolygon","coordinates":[[[[-43.99626,-19.55339],[-43.97446,-19.58308],[-43.96984,-19.58805],[-43.9602,-19.5396],[-43.9219,-19.5357],[-43.9208,-19.5126],[-43.93198,-19.50272],[-43.99626,-19.55339]]]]}},{"type":"Feature","properties":{"territory_id":"mg-3149309-lagoa-de-santo-antonio","name":"Lagoa de Santo Antônio","municipality_id":"mg-3149309","polling_places":3,"approx":true,"official":false,"method":"voronoi-polling-places","whole_municipality":false,"approx_coords_only":false},"geometry":{"type":"MultiPolygon","coordinates":[[[[-44.05817,-19.57239],[-44.0395,-19.57948],[-44.03616,-19.58449],[-44.02827,-19.58082],[-44.01781,-19.58418],[-43.97446,-19.58308],[-43.99626,-19.55339],[-44.00305,-19.54525],[-44.0486,-19.5624],[-44.05817,-19.57239]]]]}},{"type":"Feature","properties":{"territory_id":"mg-3149309-manoel-brandao","name":"Manoel Brandão","municipality_id":"mg-3149309","polling_places":1,"approx":true,"official":false,"method":"voronoi-polling-places","whole_municipality":false,"approx_coords_only":false},"geometry":{"type":"MultiPolygon","coordinates":[[[[-44.14337,-19.6962],[-44.1332,-19.7093],[-44.1043,-19.7376],[-44.0661,-19.7452],[-44.0409,-19.7727],[-44.03411,-19.76585],[-44.04067,-19.72285],[-44.12857,-19.69726],[-44.14337,-19.6962]]]]}},{"type":"Feature","properties":{"territory_id":"mg-3149309-quinta-das-palmeiras","name":"Quinta das Palmeiras","municipality_id":"mg-3149309","polling_places":1,"approx":true,"official":false,"method":"voronoi-polling-places","whole_municipality":false,"approx_coords_only":false},"geometry":{"type":"MultiPolygon","coordinates":[[[[-44.04067,-19.72285],[-44.03411,-19.76585],[-44.0056,-19.7371],[-44.007,-19.7221],[-44.02813,-19.71074],[-44.04067,-19.72285]]]]}},{"type":"Feature","properties":{"territory_id":"mg-3149309-quinta-do-sumidouro","name":"Quinta do Sumidouro","municipality_id":"mg-3149309","polling_places":1,"approx":true,"official":false,"method":"voronoi-polling-places","whole_municipality":false,"approx_coords_only":false},"geometry":{"type":"MultiPolygon","coordinates":[[[[-44.00305,-19.54525],[-43.99626,-19.55339],[-43.93198,-19.50272],[-43.9501,-19.4867],[-43.9842,-19.5147],[-43.9883,-19.5397],[-44.00305,-19.54525]]]]}},{"type":"Feature","properties":{"territory_id":"mg-3149309-santo-antonio","name":"Santo Antônio","municipality_id":"mg-3149309","polling_places":1,"approx":true,"official":false,"method":"voronoi-polling-places","whole_municipality":false,"approx_coords_only":false},"geometry":{"type":"MultiPolygon","coordinates":[[[[-44.05107,-19.6365],[-44.0398,-19.65228],[-44.02867,-19.65494],[-44.02205,-19.64166],[-44.03191,-19.63052],[-44.03379,-19.63036],[-44.03948,-19.63004],[-44.04549,-19.63261],[-44.04792,-19.63399],[-44.05107,-19.6365]]]]}},{"type":"Feature","properties":{"territory_id":"mg-3149309-santo-antonio-da-barra","name":"Santo Antônio da Barra","municipality_id":"mg-3149309","polling_places":1,"approx":true,"official":false,"method":"voronoi-polling-places","whole_municipality":false,"approx_coords_only":false},"geometry":{"type":"MultiPolygon","coordinates":[[[[-44.1949,-19.6627],[-44.16755,-19.67433],[-44.04293,-19.6545],[-44.0398,-19.65228],[-44.05107,-19.6365],[-44.06265,-19.63008],[-44.11769,-19.61865],[-44.1295,-19.6209],[-44.1769,-19.6602],[-44.1949,-19.6627]]]]}},{"type":"Feature","properties":{"territory_id":"mg-3149309-sao-geraldo","name":"São Geraldo","municipality_id":"mg-3149309","polling_places":1,"approx":true,"official":false,"method":"voronoi-polling-places","whole_municipality":false,"approx_coords_only":false},"geometry":{"type":"MultiPolygon","coordinates":[[[[-44.04903,-19.61829],[-44.04622,-19.61763],[-44.03349,-19.61316],[-44.03017,-19.61143],[-44.02998,-19.61132],[-44.0283,-19.60939],[-44.03359,-19.60501],[-44.0489,-19.60107],[-44.04903,-19.61829]]]]}},{"type":"Feature","properties":{"territory_id":"mg-3149309-tapera","name":"Tapera","municipality_id":"mg-3149309","polling_places":1,"approx":true,"official":false,"method":"voronoi-polling-places","whole_municipality":false,"approx_coords_only":false},"geometry":{"type":"MultiPolygon","coordinates":[[[[-44.0592,-19.68104],[-44.03818,-19.68584],[-44.0386,-19.681],[-44.02051,-19.66726],[-44.02867,-19.65494],[-44.0398,-19.65228],[-44.04293,-19.6545],[-44.0592,-19.68104]]]]}},{"type":"Feature","properties":{"territory_id":"mg-3149309-teotonio-batista-de-freitas","name":"Teotônio Batista de Freitas","municipality_id":"mg-3149309","polling_places":2,"approx":true,"official":false,"method":"voronoi-polling-places","whole_municipality":false,"approx_coords_only":false},"geometry":{"type":"MultiPolygon","coordinates":[[[[-44.07435,-19.58927],[-44.06048,-19.59484],[-44.0489,-19.60107],[-44.03359,-19.60501],[-44.0348,-19.58836],[-44.03472,-19.58808],[-44.03616,-19.58449],[-44.0395,-19.57948],[-44.05817,-19.57239],[-44.07435,-19.58927]]]]}},{"type":"Feature","properties":{"territory_id":"mg-3149309-vera-cruz","name":"Vera Cruz","municipality_id":"mg-3149309","polling_places":1,"approx":true,"official":false,"method":"voronoi-polling-places","whole_municipality":false,"approx_coords_only":false},"geometry":{"type":"MultiPolygon","coordinates":[[[[-44.12857,-19.69726],[-44.04067,-19.72285],[-44.02813,-19.71074],[-44.0364,-19.7063],[-44.03818,-19.68584],[-44.0592,-19.68104],[-44.12857,-19.69726]]]]}}]}