{"type":"FeatureCollection","features":[{"type":"Feature","properties":{"territory_id":"mg-3149002-centro","name":"Centro","municipality_id":"mg-3149002","polling_places":1,"approx":true,"official":false,"method":"voronoi-polling-places","whole_municipality":true,"approx_coords_only":false},"geometry":{"type":"MultiPolygon","coordinates":[[[[-42.1722,-20.7857],[-42.2013,-20.8159],[-42.21,-20.8223],[-42.2098,-20.8544],[-42.1873,-20.8699],[-42.1706,-20.8541],[-42.0974,-20.8384],[-42.1024,-20.805],[-42.1722,-20.7857]]]]}}]}