{"type":"FeatureCollection","features":[{"type":"Feature","properties":{"territory_id":"mg-3149903-centro","name":"Centro","municipality_id":"mg-3149903","polling_places":1,"approx":true,"official":false,"method":"voronoi-polling-places","whole_municipality":false,"approx_coords_only":false},"geometry":{"type":"MultiPolygon","coordinates":[[[[-45.09718,-21.09582],[-45.0923,-21.09592],[-45.08914,-21.09438],[-45.08842,-21.09352],[-45.09045,-21.08951],[-45.09718,-21.09582]]]]}},{"type":"Feature","properties":{"territory_id":"mg-3149903-jardim-das-flores","name":"Jardim das Flores","municipality_id":"mg-3149903","polling_places":1,"approx":true,"official":false,"method":"voronoi-polling-places","whole_municipality":false,"approx_coords_only":false},"geometry":{"type":"MultiPolygon","coordinates":[[[[-45.16864,-21.11005],[-45.1525,-21.1276],[-45.1605,-21.1454],[-45.1288,-21.1687],[-45.1026,-21.129],[-45.08472,-21.12136],[-45.08541,-21.10759],[-45.0923,-21.09592],[-45.09718,-21.09582],[-45.16864,-21.11005]]]]}},{"type":"Feature","properties":{"territory_id":"mg-3149903-nossa-senhora-das-gracas","name":"Nossa Senhora das Gracas","municipality_id":"mg-3149903","polling_places":1,"approx":true,"official":false,"method":"voronoi-polling-places","whole_municipality":false,"approx_coords_only":false},"geometry":{"type":"MultiPolygon","coordinates":[[[[-45.08541,-21.10759],[-45.08472,-21.12136],[-45.042,-21.1031],[-45.0447,-21.1453],[-45.00265,-21.13635],[-45.05488,-21.06916],[-45.08243,-21.09361],[-45.0854,-21.10746],[-45.08541,-21.10759]]]]}},{"type":"Feature","properties":{"territory_id":"mg-3149903-palestina","name":"Palestina","municipality_id":"mg-3149903","polling_places":1,"approx":true,"official":false,"method":"voronoi-polling-places","whole_municipality":false,"approx_coords_only":false},"geometry":{"type":"MultiPolygon","coordinates":[[[[-45.094,-21.05183],[-45.09045,-21.08951],[-45.08842,-21.09352],[-45.08243,-21.09361],[-45.05488,-21.06916],[-45.0663,-21.04901],[-45.094,-21.05183]]]]}},{"type":"Feature","properties":{"territory_id":"mg-3149903-rosario","name":"Rosario","municipality_id":"mg-3149903","polling_places":1,"approx":true,"official":false,"method":"voronoi-polling-places","whole_municipality":false,"approx_coords_only":false},"geometry":{"type":"MultiPolygon","coordinates":[[[[-45.1891,-21.0878],[-45.16864,-21.11005],[-45.09718,-21.09582],[-45.09045,-21.08951],[-45.094,-21.05183],[-45.15713,-21.05268],[-45.1614,-21.0806],[-45.1891,-21.0878]]]]}},{"type":"Feature","properties":{"territory_id":"mg-3149903-vila-nova","name":"Vila Nova","municipality_id":"mg-3149903","polling_places":1,"approx":true,"official":false,"method":"voronoi-polling-places","whole_municipality":false,"approx_coords_only":false},"geometry":{"type":"MultiPolygon","coordinates":[[[[-45.08914,-21.09438],[-45.0854,-21.10746],[-45.08243,-21.09361],[-45.08842,-21.09352],[-45.08914,-21.09438]]]]}},{"type":"Feature","properties":{"territory_id":"mg-3149903-vista-alegre","name":"Vista Alegre","municipality_id":"mg-3149903","polling_places":1,"approx":true,"official":false,"method":"voronoi-polling-places","whole_municipality":false,"approx_coords_only":false},"geometry":{"type":"MultiPolygon","coordinates":[[[[-45.0923,-21.09592],[-45.08541,-21.10759],[-45.0854,-21.10746],[-45.08914,-21.09438],[-45.0923,-21.09592]]]]}},{"type":"Feature","properties":{"territory_id":"mg-3149903-zona-rural","name":"Zona Rural","municipality_id":"mg-3149903","polling_places":2,"approx":true,"official":false,"method":"voronoi-polling-places","whole_municipality":false,"approx_coords_only":false},"geometry":{"type":"MultiPolygon","coordinates":[[[[-45.15713,-21.05268],[-45.094,-21.05183],[-45.0663,-21.04901],[-45.05488,-21.06916],[-45.00265,-21.13635],[-44.993,-21.1343],[-44.9497,-21.109],[-44.9371,-21.075],[-44.976,-21.0279],[-44.9988,-21.0417],[-45.0509,-21.0399],[-45.0617,-20.9634],[-45.0754,-20.9403],[-45.0924,-20.9506],[-45.1034,-21.0274],[-45.1559,-21.0446],[-45.15713,-21.05268]]]]}}]}