{"type":"FeatureCollection","features":[{"type":"Feature","properties":{"territory_id":"mg-3149150-alto-grande","name":"Alto Grande","municipality_id":"mg-3149150","polling_places":1,"approx":true,"official":false,"method":"voronoi-polling-places","whole_municipality":false,"approx_coords_only":false},"geometry":{"type":"MultiPolygon","coordinates":[[[[-44.30572,-15.62895],[-44.29426,-15.71722],[-44.28579,-15.72265],[-44.28579,-15.56345],[-44.28804,-15.55951],[-44.30572,-15.62895]]]]}},{"type":"Feature","properties":{"territory_id":"mg-3149150-centro","name":"Centro","municipality_id":"mg-3149150","polling_places":4,"approx":true,"official":false,"method":"voronoi-polling-places","whole_municipality":false,"approx_coords_only":false},"geometry":{"type":"MultiPolygon","coordinates":[[[[-44.57388,-15.70079],[-44.49383,-15.69403],[-44.37478,-15.68736],[-44.35727,-15.61448],[-44.36793,-15.60023],[-44.37351,-15.59162],[-44.38026,-15.57537],[-44.3893,-15.5932],[-44.4852,-15.6373],[-44.5327,-15.689],[-44.57388,-15.70079]]]]}},{"type":"Feature","properties":{"territory_id":"mg-3149150-corcundo","name":"Corcundo","municipality_id":"mg-3149150","polling_places":1,"approx":true,"official":false,"method":"voronoi-polling-places","whole_municipality":false,"approx_coords_only":false},"geometry":{"type":"MultiPolygon","coordinates":[[[[-44.27319,-15.52891],[-44.11034,-15.60387],[-44.0958,-15.5812],[-44.0929,-15.547],[-44.0547,-15.4735],[-44.0298,-15.4873],[-44.0461,-15.4476],[-44.1069,-15.4315],[-44.1392,-15.3929],[-44.14296,-15.38411],[-44.27319,-15.52891]]]]}},{"type":"Feature","properties":{"territory_id":"mg-3149150-palmeirinha","name":"Palmeirinha","municipality_id":"mg-3149150","polling_places":1,"approx":true,"official":false,"method":"voronoi-polling-places","whole_municipality":false,"approx_coords_only":false},"geometry":{"type":"MultiPolygon","coordinates":[[[[-44.38026,-15.57537],[-44.37351,-15.59162],[-44.36793,-15.60023],[-44.35727,-15.61448],[-44.34237,-15.60538],[-44.29192,-15.54311],[-44.29115,-15.53279],[-44.35469,-15.48955],[-44.3726,-15.5158],[-44.3706,-15.5563],[-44.38026,-15.57537]]]]}},{"type":"Feature","properties":{"territory_id":"mg-3149150-rodeador","name":"Rodeador","municipality_id":"mg-3149150","polling_places":1,"approx":true,"official":false,"method":"voronoi-polling-places","whole_municipality":false,"approx_coords_only":false},"geometry":{"type":"MultiPolygon","coordinates":[[[[-44.35469,-15.48955],[-44.29115,-15.53279],[-44.27319,-15.52891],[-44.14296,-15.38411],[-44.1543,-15.3576],[-44.1275,-15.3185],[-44.1164,-15.2763],[-44.1358,-15.2598],[-44.1497,-15.3204],[-44.1924,-15.3978],[-44.2341,-15.4007],[-44.2939,-15.4758],[-44.3537,-15.4881],[-44.35469,-15.48955]]]]}},{"type":"Feature","properties":{"territory_id":"mg-3149150-sao-pedro-das-tabocas","name":"São Pedro das Tabocas","municipality_id":"mg-3149150","polling_places":1,"approx":true,"official":false,"method":"voronoi-polling-places","whole_municipality":false,"approx_coords_only":false},"geometry":{"type":"MultiPolygon","coordinates":[[[[-44.37478,-15.68736],[-44.29426,-15.71722],[-44.30572,-15.62895],[-44.34237,-15.60538],[-44.35727,-15.61448],[-44.37478,-15.68736]]]]}},{"type":"Feature","properties":{"territory_id":"mg-3149150-zona-rural","name":"Zona Rural","municipality_id":"mg-3149150","polling_places":4,"approx":true,"official":false,"method":"voronoi-polling-places","whole_municipality":false,"approx_coords_only":false},"geometry":{"type":"MultiPolygon","coordinates":[[[[-44.6833,-15.7759],[-44.6526,-15.8256],[-44.6139,-15.8355],[-44.5772,-15.8793],[-44.5629,-15.8553],[-44.5564,-15.7956],[-44.5427,-15.785],[-44.4901,-15.7995],[-44.4386,-15.8511],[-44.4272,-15.8054],[-44.3689,-15.7851],[-44.3442,-15.8239],[-44.2914,-15.8334],[-44.3017,-15.7882],[-44.2779,-15.7438],[-44.2483,-15.7272],[-44.2335,-15.6757],[-44.1913,-15.6803],[-44.1668,-15.6476],[-44.1197,-15.6661],[-44.1176,-15.6152],[-44.11034,-15.60387],[-44.27319,-15.52891],[-44.29115,-15.53279],[-44.29192,-15.54311],[-44.34237,-15.60538],[-44.30572,-15.62895],[-44.28804,-15.55951],[-44.28579,-15.56345],[-44.28579,-15.72265],[-44.29426,-15.71722],[-44.37478,-15.68736],[-44.49383,-15.69403],[-44.57388,-15.70079],[-44.583,-15.7034],[-44.6833,-15.7759]]]]}}]}