{"type":"FeatureCollection","features":[{"type":"Feature","properties":{"territory_id":"mg-3149804-alvorada-i","name":"Alvorada I","municipality_id":"mg-3149804","polling_places":1,"approx":true,"official":false,"method":"voronoi-polling-places","whole_municipality":false,"approx_coords_only":false},"geometry":{"type":"MultiPolygon","coordinates":[[[[-47.29101,-19.3527],[-47.27903,-19.47253],[-47.14313,-19.39621],[-47.1446,-19.37659],[-47.1839,-19.34802],[-47.28364,-19.34215],[-47.28841,-19.34669],[-47.29101,-19.3527]]]]}},{"type":"Feature","properties":{"territory_id":"mg-3149804-centro","name":"Centro","municipality_id":"mg-3149804","polling_places":2,"approx":true,"official":false,"method":"voronoi-polling-places","whole_municipality":false,"approx_coords_only":false},"geometry":{"type":"MultiPolygon","coordinates":[[[[-47.37187,-19.49063],[-47.32856,-19.50253],[-47.27903,-19.47253],[-47.29101,-19.3527],[-47.28841,-19.34669],[-47.29536,-19.34767],[-47.29762,-19.35161],[-47.29841,-19.35203],[-47.37187,-19.49063]]]]}},{"type":"Feature","properties":{"territory_id":"mg-3149804-cruzeiro","name":"Cruzeiro","municipality_id":"mg-3149804","polling_places":1,"approx":true,"official":false,"method":"voronoi-polling-places","whole_municipality":false,"approx_coords_only":false},"geometry":{"type":"MultiPolygon","coordinates":[[[[-47.31979,-19.31862],[-47.30977,-19.33225],[-47.29536,-19.34767],[-47.28841,-19.34669],[-47.28364,-19.34215],[-47.31979,-19.31862]]]]}},{"type":"Feature","properties":{"territory_id":"mg-3149804-ferreirinha","name":"Ferreirinha","municipality_id":"mg-3149804","polling_places":1,"approx":true,"official":false,"method":"voronoi-polling-places","whole_municipality":false,"approx_coords_only":false},"geometry":{"type":"MultiPolygon","coordinates":[[[[-47.30977,-19.33225],[-47.29841,-19.35203],[-47.29762,-19.35161],[-47.29536,-19.34767],[-47.30977,-19.33225]]]]}},{"type":"Feature","properties":{"territory_id":"mg-3149804-morada-nova","name":"Morada Nova","municipality_id":"mg-3149804","polling_places":1,"approx":true,"official":false,"method":"voronoi-polling-places","whole_municipality":false,"approx_coords_only":false},"geometry":{"type":"MultiPolygon","coordinates":[[[[-47.4409,-19.1387],[-47.3995,-19.1996],[-47.3872,-19.2402],[-47.39507,-19.25515],[-47.31979,-19.31862],[-47.28364,-19.34215],[-47.1839,-19.34802],[-47.41904,-19.13398],[-47.4409,-19.1387]]]]}},{"type":"Feature","properties":{"territory_id":"mg-3149804-novo-horizonte","name":"Novo Horizonte","municipality_id":"mg-3149804","polling_places":1,"approx":true,"official":false,"method":"voronoi-polling-places","whole_municipality":false,"approx_coords_only":false},"geometry":{"type":"MultiPolygon","coordinates":[[[[-47.4084,-19.3518],[-47.3835,-19.3535],[-47.363,-19.4166],[-47.365,-19.4372],[-47.39043,-19.48606],[-47.37187,-19.49063],[-47.29841,-19.35203],[-47.30977,-19.33225],[-47.31979,-19.31862],[-47.39507,-19.25515],[-47.4052,-19.2744],[-47.4084,-19.3518]]]]}},{"type":"Feature","properties":{"territory_id":"mg-3149804-zona-rural","name":"Zona Rural","municipality_id":"mg-3149804","polling_places":5,"approx":true,"official":false,"method":"voronoi-polling-places","whole_municipality":false,"approx_coords_only":false},"geometry":{"type":"MultiPolygon","coordinates":[[[[-47.4669,-19.5608],[-47.4513,-19.6501],[-47.3985,-19.733],[-47.3517,-19.7379],[-47.3354,-19.7127],[-47.2846,-19.6894],[-47.2644,-19.6579],[-47.2342,-19.6422],[-47.2064,-19.5893],[-47.1681,-19.5463],[-47.1375,-19.5361],[-47.1193,-19.5581],[-47.0792,-19.5617],[-47.0104,-19.4867],[-47.0175,-19.4436],[-46.9908,-19.4319],[-46.9422,-19.4447],[-46.9313,-19.478],[-46.9063,-19.482],[-46.8578,-19.4687],[-46.8373,-19.3034],[-46.8985,-19.2709],[-46.9268,-19.2893],[-46.9568,-19.2691],[-47.0305,-19.2358],[-47.0868,-19.1827],[-47.1425,-19.1877],[-47.2202,-19.1413],[-47.2773,-19.1467],[-47.3163,-19.1277],[-47.3895,-19.1276],[-47.41904,-19.13398],[-47.1839,-19.34802],[-47.1446,-19.37659],[-47.14313,-19.39621],[-47.27903,-19.47253],[-47.32856,-19.50253],[-47.37187,-19.49063],[-47.39043,-19.48606],[-47.4262,-19.5548],[-47.4669,-19.5608]]]]}}]}