{"type":"FeatureCollection","features":[{"type":"Feature","properties":{"territory_id":"mg-3149507-centro","name":"Centro","municipality_id":"mg-3149507","polling_places":1,"approx":true,"official":false,"method":"voronoi-polling-places","whole_municipality":true,"approx_coords_only":false},"geometry":{"type":"MultiPolygon","coordinates":[[[[-43.0762,-21.7985],[-43.1031,-21.8029],[-43.1712,-21.7595],[-43.1568,-21.8272],[-43.1888,-21.8546],[-43.1342,-21.8833],[-43.1243,-21.8576],[-43.0612,-21.8232],[-43.0762,-21.7985]]]]}}]}