{"type":"FeatureCollection","features":[{"type":"Feature","properties":{"territory_id":"mg-3149408-centro","name":"Centro","municipality_id":"mg-3149408","polling_places":1,"approx":true,"official":false,"method":"voronoi-polling-places","whole_municipality":false,"approx_coords_only":false},"geometry":{"type":"MultiPolygon","coordinates":[[[[-43.7891,-21.7132],[-43.77581,-21.72942],[-43.67393,-21.72949],[-43.679,-21.7119],[-43.7157,-21.6703],[-43.72821,-21.66922],[-43.78438,-21.70055],[-43.7891,-21.7132]]]]}},{"type":"Feature","properties":{"territory_id":"mg-3149408-fumal","name":"Fumal","municipality_id":"mg-3149408","polling_places":1,"approx":true,"official":false,"method":"voronoi-polling-places","whole_municipality":false,"approx_coords_only":false},"geometry":{"type":"MultiPolygon","coordinates":[[[[-43.78438,-21.70055],[-43.72821,-21.66922],[-43.7713,-21.6655],[-43.78438,-21.70055]]]]}},{"type":"Feature","properties":{"territory_id":"mg-3149408-taboado","name":"Taboado","municipality_id":"mg-3149408","polling_places":1,"approx":true,"official":false,"method":"voronoi-polling-places","whole_municipality":false,"approx_coords_only":false},"geometry":{"type":"MultiPolygon","coordinates":[[[[-43.77581,-21.72942],[-43.714,-21.8049],[-43.6953,-21.7608],[-43.6679,-21.7504],[-43.67393,-21.72949],[-43.77581,-21.72942]]]]}}]}