{"type":"FeatureCollection","features":[{"type":"Feature","properties":{"territory_id":"mg-3149952-assentamento-liberdade","name":"Assentamento Liberdade","municipality_id":"mg-3149952","polling_places":1,"approx":true,"official":false,"method":"voronoi-polling-places","whole_municipality":false,"approx_coords_only":false},"geometry":{"type":"MultiPolygon","coordinates":[[[[-42.24079,-19.02151],[-42.16621,-19.05103],[-42.13506,-19.0408],[-42.1356,-19.0363],[-42.2084,-18.9844],[-42.24079,-19.02151]]]]}},{"type":"Feature","properties":{"territory_id":"mg-3149952-centro","name":"Centro","municipality_id":"mg-3149952","polling_places":1,"approx":true,"official":false,"method":"voronoi-polling-places","whole_municipality":false,"approx_coords_only":false},"geometry":{"type":"MultiPolygon","coordinates":[[[[-42.27962,-19.14406],[-42.26,-19.153],[-42.2535,-19.1873],[-42.2324,-19.156],[-42.19459,-19.13163],[-42.20171,-19.12101],[-42.23157,-19.10762],[-42.27962,-19.14406]]]]}},{"type":"Feature","properties":{"territory_id":"mg-3149952-distrito-de-pedra-corrida","name":"Distrito de Pedra Corrida","municipality_id":"mg-3149952","polling_places":1,"approx":true,"official":false,"method":"voronoi-polling-places","whole_municipality":false,"approx_coords_only":false},"geometry":{"type":"MultiPolygon","coordinates":[[[[-42.20171,-19.12101],[-42.19459,-19.13163],[-42.1778,-19.1208],[-42.1329,-19.0586],[-42.13506,-19.0408],[-42.16621,-19.05103],[-42.20171,-19.12101]]]]}},{"type":"Feature","properties":{"territory_id":"mg-3149952-distrito-de-sao-sebastiao-do-baixio","name":"Distrito de Sao Sebastiao do Baixio","municipality_id":"mg-3149952","polling_places":1,"approx":true,"official":false,"method":"voronoi-polling-places","whole_municipality":false,"approx_coords_only":false},"geometry":{"type":"MultiPolygon","coordinates":[[[[-42.3499,-19.0917],[-42.3498,-19.1121],[-42.27962,-19.14406],[-42.23157,-19.10762],[-42.26407,-19.04819],[-42.2955,-19.0842],[-42.3499,-19.0917]]]]}},{"type":"Feature","properties":{"territory_id":"mg-3149952-distrito-de-serraria","name":"Distrito de Serraria","municipality_id":"mg-3149952","polling_places":1,"approx":true,"official":false,"method":"voronoi-polling-places","whole_municipality":false,"approx_coords_only":false},"geometry":{"type":"MultiPolygon","coordinates":[[[[-42.26407,-19.04819],[-42.23157,-19.10762],[-42.20171,-19.12101],[-42.16621,-19.05103],[-42.24079,-19.02151],[-42.26407,-19.04819]]]]}}]}