{"type":"FeatureCollection","features":[{"type":"Feature","properties":{"territory_id":"mg-3150539-centro","name":"Centro","municipality_id":"mg-3150539","polling_places":2,"approx":true,"official":false,"method":"voronoi-polling-places","whole_municipality":true,"approx_coords_only":false},"geometry":{"type":"MultiPolygon","coordinates":[[[[-42.4745,-19.7735],[-42.4397,-19.7604],[-42.3821,-19.777],[-42.3634,-19.7602],[-42.3645,-19.7247],[-42.4072,-19.7243],[-42.4448,-19.7078],[-42.4837,-19.7267],[-42.479,-19.7519],[-42.4745,-19.7735]]]]}}]}