{"type":"FeatureCollection","features":[{"type":"Feature","properties":{"territory_id":"mg-3150406-centro","name":"Centro","municipality_id":"mg-3150406","polling_places":3,"approx":true,"official":false,"method":"voronoi-polling-places","whole_municipality":false,"approx_coords_only":false},"geometry":{"type":"MultiPolygon","coordinates":[[[[-44.2704,-20.48679],[-44.24856,-20.51287],[-44.23787,-20.52571],[-44.2153,-20.5165],[-44.1802,-20.5229],[-44.1587,-20.5112],[-44.1738,-20.4927],[-44.1455,-20.4639],[-44.1516,-20.4219],[-44.1809,-20.3875],[-44.24788,-20.39266],[-44.25377,-20.41848],[-44.2704,-20.48679]]]]}},{"type":"Feature","properties":{"territory_id":"mg-3150406-distrito-de-medeiros-dos-gerais","name":"Distrito de Medeiros dos Gerais","municipality_id":"mg-3150406","polling_places":1,"approx":true,"official":false,"method":"voronoi-polling-places","whole_municipality":false,"approx_coords_only":false},"geometry":{"type":"MultiPolygon","coordinates":[[[[-44.34759,-20.49684],[-44.2704,-20.48679],[-44.25377,-20.41848],[-44.24788,-20.39266],[-44.2549,-20.3932],[-44.2775,-20.4239],[-44.3303,-20.4598],[-44.34759,-20.49684]]]]}},{"type":"Feature","properties":{"territory_id":"mg-3150406-povoado-de-passa-sete","name":"Povoado de Passa Sete","municipality_id":"mg-3150406","polling_places":1,"approx":true,"official":false,"method":"voronoi-polling-places","whole_municipality":false,"approx_coords_only":false},"geometry":{"type":"MultiPolygon","coordinates":[[[[-44.3478,-20.4973],[-44.3442,-20.5321],[-44.3156,-20.5855],[-44.304,-20.5527],[-44.23787,-20.52571],[-44.24856,-20.51287],[-44.2704,-20.48679],[-44.34759,-20.49684],[-44.3478,-20.4973]]]]}}]}