{"type":"FeatureCollection","features":[{"type":"Feature","properties":{"territory_id":"mg-3150208-centro","name":"Centro","municipality_id":"mg-3150208","polling_places":2,"approx":true,"official":false,"method":"voronoi-polling-places","whole_municipality":true,"approx_coords_only":false},"geometry":{"type":"MultiPolygon","coordinates":[[[[-42.7626,-20.2693],[-42.6778,-20.2906],[-42.6653,-20.2677],[-42.6917,-20.2318],[-42.6772,-20.2079],[-42.7234,-20.191],[-42.7761,-20.2296],[-42.7626,-20.2693]]]]}}]}