{"type":"FeatureCollection","features":[{"type":"Feature","properties":{"territory_id":"mg-3150109-centro","name":"Centro","municipality_id":"mg-3150109","polling_places":3,"approx":true,"official":false,"method":"voronoi-polling-places","whole_municipality":false,"approx_coords_only":true},"geometry":{"type":"MultiPolygon","coordinates":[[[[-43.4192,-21.5309],[-43.3876,-21.5465],[-43.3577,-21.5878],[-43.3361,-21.561],[-43.2633,-21.5449],[-43.25942,-21.52112],[-43.35414,-21.45922],[-43.4084,-21.5093],[-43.4192,-21.5309]]]]}},{"type":"Feature","properties":{"territory_id":"mg-3150109-povoado-do-corrego-dos-almeidas","name":"Povoado do Córrego dos Almeidas","municipality_id":"mg-3150109","polling_places":1,"approx":true,"official":false,"method":"voronoi-polling-places","whole_municipality":false,"approx_coords_only":false},"geometry":{"type":"MultiPolygon","coordinates":[[[[-43.35414,-21.45922],[-43.25942,-21.52112],[-43.257,-21.5063],[-43.2354,-21.4949],[-43.2021,-21.471],[-43.2615,-21.4393],[-43.3006,-21.4323],[-43.3448,-21.4506],[-43.35414,-21.45922]]]]}}]}