{"type":"FeatureCollection","features":[{"type":"Feature","properties":{"territory_id":"mg-3150703-centro","name":"Centro","municipality_id":"mg-3150703","polling_places":1,"approx":true,"official":false,"method":"voronoi-polling-places","whole_municipality":false,"approx_coords_only":false},"geometry":{"type":"MultiPolygon","coordinates":[[[[-48.77313,-19.90567],[-48.7575,-19.994],[-48.7353,-20.0123],[-48.6933,-19.9736],[-48.6686,-20.0258],[-48.6028,-20.0404],[-48.5565,-19.9997],[-48.5638,-19.9718],[-48.54771,-19.90386],[-48.77313,-19.90567]]]]}},{"type":"Feature","properties":{"territory_id":"mg-3150703-dourados-iii","name":"Dourados Iii","municipality_id":"mg-3150703","polling_places":1,"approx":true,"official":false,"method":"voronoi-polling-places","whole_municipality":false,"approx_coords_only":false},"geometry":{"type":"MultiPolygon","coordinates":[[[[-48.7769,-19.8844],[-48.77313,-19.90567],[-48.54771,-19.90386],[-48.5444,-19.8899],[-48.6012,-19.8601],[-48.64,-19.8746],[-48.7205,-19.8778],[-48.7408,-19.8491],[-48.7719,-19.8462],[-48.7769,-19.8844]]]]}}]}