{"type":"FeatureCollection","features":[{"type":"Feature","properties":{"territory_id":"mg-3150802-centro","name":"Centro","municipality_id":"mg-3150802","polling_places":3,"approx":true,"official":false,"method":"voronoi-polling-places","whole_municipality":false,"approx_coords_only":false},"geometry":{"type":"MultiPolygon","coordinates":[[[[-43.35051,-20.69713],[-43.34076,-20.71586],[-43.30465,-20.69031],[-43.25442,-20.66845],[-43.28007,-20.65135],[-43.2993,-20.63795],[-43.29977,-20.63813],[-43.32937,-20.64871],[-43.35051,-20.69713]]]]}},{"type":"Feature","properties":{"territory_id":"mg-3150802-cidade-nova","name":"Cidade Nova","municipality_id":"mg-3150802","polling_places":1,"approx":true,"official":false,"method":"voronoi-polling-places","whole_municipality":false,"approx_coords_only":false},"geometry":{"type":"MultiPolygon","coordinates":[[[[-43.34076,-20.71586],[-43.33848,-20.72192],[-43.23581,-20.69867],[-43.24247,-20.67482],[-43.25442,-20.66845],[-43.30465,-20.69031],[-43.34076,-20.71586]]]]}},{"type":"Feature","properties":{"territory_id":"mg-3150802-pinheiros-altos","name":"Pinheiros Altos","municipality_id":"mg-3150802","polling_places":1,"approx":true,"official":false,"method":"voronoi-polling-places","whole_municipality":false,"approx_coords_only":false},"geometry":{"type":"MultiPolygon","coordinates":[[[[-43.29861,-20.50187],[-43.29485,-20.59947],[-43.29278,-20.60312],[-43.22563,-20.58653],[-43.23219,-20.54056],[-43.2504,-20.5476],[-43.2609,-20.5179],[-43.291,-20.4966],[-43.29861,-20.50187]]]]}},{"type":"Feature","properties":{"territory_id":"mg-3150802-santo-antonio-do-pirapetinga","name":"Santo Antônio do Pirapetinga","municipality_id":"mg-3150802","polling_places":1,"approx":true,"official":false,"method":"voronoi-polling-places","whole_municipality":false,"approx_coords_only":false},"geometry":{"type":"MultiPolygon","coordinates":[[[[-43.37141,-20.61192],[-43.32937,-20.64871],[-43.29977,-20.63813],[-43.2993,-20.63795],[-43.29278,-20.60312],[-43.29485,-20.59947],[-43.36309,-20.57952],[-43.37141,-20.61192]]]]}},{"type":"Feature","properties":{"territory_id":"mg-3150802-zona-rural","name":"Zona Rural","municipality_id":"mg-3150802","polling_places":6,"approx":true,"official":false,"method":"voronoi-polling-places","whole_municipality":false,"approx_coords_only":false},"geometry":{"type":"MultiPolygon","coordinates":[[[[-43.4585,-20.6323],[-43.4362,-20.659],[-43.4479,-20.6921],[-43.4364,-20.7158],[-43.411,-20.7506],[-43.2915,-20.7384],[-43.2772,-20.7537],[-43.2487,-20.7268],[-43.215,-20.7146],[-43.1632,-20.7243],[-43.1644,-20.6602],[-43.17919,-20.61087],[-43.20538,-20.61082],[-43.24247,-20.67482],[-43.23581,-20.69867],[-43.33848,-20.72192],[-43.34076,-20.71586],[-43.35051,-20.69713],[-43.32937,-20.64871],[-43.37141,-20.61192],[-43.36309,-20.57952],[-43.29485,-20.59947],[-43.29861,-20.50187],[-43.3673,-20.5494],[-43.4033,-20.547],[-43.4425,-20.6234],[-43.4585,-20.6323]]]]}},{"type":"Feature","properties":{"territory_id":"mg-3150802-zona-rural-de-pinheiros-altos","name":"Zona Rural de Pinheiros Altos","municipality_id":"mg-3150802","polling_places":2,"approx":true,"official":false,"method":"voronoi-polling-places","whole_municipality":false,"approx_coords_only":false},"geometry":{"type":"MultiPolygon","coordinates":[[[[-43.2993,-20.63795],[-43.28007,-20.65135],[-43.25442,-20.66845],[-43.24247,-20.67482],[-43.20538,-20.61082],[-43.17919,-20.61087],[-43.1867,-20.5858],[-43.138,-20.5618],[-43.1573,-20.5116],[-43.23219,-20.54056],[-43.22563,-20.58653],[-43.29278,-20.60312],[-43.2993,-20.63795]]]]}}]}