{"type":"FeatureCollection","features":[{"type":"Feature","properties":{"territory_id":"mg-3150604-bom-retiro","name":"Bom Retiro","municipality_id":"mg-3150604","polling_places":1,"approx":true,"official":false,"method":"voronoi-polling-places","whole_municipality":false,"approx_coords_only":false},"geometry":{"type":"MultiPolygon","coordinates":[[[[-44.39607,-20.59565],[-44.3949,-20.5985],[-44.3572,-20.6081],[-44.3339,-20.6147],[-44.3156,-20.5855],[-44.3442,-20.5321],[-44.34594,-20.51529],[-44.36989,-20.52644],[-44.39607,-20.59565]]]]}},{"type":"Feature","properties":{"territory_id":"mg-3150604-centro","name":"Centro","municipality_id":"mg-3150604","polling_places":4,"approx":true,"official":false,"method":"voronoi-polling-places","whole_municipality":false,"approx_coords_only":false},"geometry":{"type":"MultiPolygon","coordinates":[[[[-44.544,-20.5156],[-44.5057,-20.5448],[-44.48766,-20.56568],[-44.44853,-20.52608],[-44.43725,-20.515],[-44.47627,-20.4774],[-44.49416,-20.45707],[-44.5432,-20.4825],[-44.544,-20.5156]]]]}},{"type":"Feature","properties":{"territory_id":"mg-3150604-povoado-dos-costas","name":"Povoado dos Costas","municipality_id":"mg-3150604","polling_places":1,"approx":true,"official":false,"method":"voronoi-polling-places","whole_municipality":false,"approx_coords_only":false},"geometry":{"type":"MultiPolygon","coordinates":[[[[-44.48766,-20.56568],[-44.4689,-20.5874],[-44.4068,-20.5695],[-44.39607,-20.59565],[-44.36989,-20.52644],[-44.41158,-20.51071],[-44.43725,-20.515],[-44.44853,-20.52608],[-44.48766,-20.56568]]]]}},{"type":"Feature","properties":{"territory_id":"mg-3150604-povoado-joaquim-rodrigues","name":"Povoado Joaquim Rodrigues","municipality_id":"mg-3150604","polling_places":1,"approx":true,"official":false,"method":"voronoi-polling-places","whole_municipality":false,"approx_coords_only":false},"geometry":{"type":"MultiPolygon","coordinates":[[[[-44.49416,-20.45707],[-44.47627,-20.4774],[-44.43725,-20.515],[-44.41158,-20.51071],[-44.43125,-20.43277],[-44.4628,-20.4408],[-44.49416,-20.45707]]]]}},{"type":"Feature","properties":{"territory_id":"mg-3150604-povoado-morro-verde","name":"Povoado Morro Verde","municipality_id":"mg-3150604","polling_places":1,"approx":true,"official":false,"method":"voronoi-polling-places","whole_municipality":false,"approx_coords_only":false},"geometry":{"type":"MultiPolygon","coordinates":[[[[-44.43125,-20.43277],[-44.41158,-20.51071],[-44.36989,-20.52644],[-44.34594,-20.51529],[-44.3478,-20.4973],[-44.407,-20.4266],[-44.43125,-20.43277]]]]}}]}