{"type":"FeatureCollection","features":[{"type":"Feature","properties":{"territory_id":"mg-3150307-centro","name":"Centro","municipality_id":"mg-3150307","polling_places":6,"approx":true,"official":false,"method":"voronoi-polling-places","whole_municipality":false,"approx_coords_only":false},"geometry":{"type":"MultiPolygon","coordinates":[[[[-44.2758,-21.4504],[-44.2726,-21.47025],[-44.19468,-21.46788],[-44.19473,-21.46977],[-44.19651,-21.47518],[-44.19199,-21.47003],[-44.18432,-21.46744],[-44.18626,-21.46198],[-44.18922,-21.45154],[-44.1992,-21.39319],[-44.2054,-21.4306],[-44.2758,-21.4504]]]]}},{"type":"Feature","properties":{"territory_id":"mg-3150307-jardim","name":"Jardim","municipality_id":"mg-3150307","polling_places":1,"approx":true,"official":false,"method":"voronoi-polling-places","whole_municipality":false,"approx_coords_only":false},"geometry":{"type":"MultiPolygon","coordinates":[[[[-44.18485,-21.38952],[-44.15823,-21.52575],[-44.14199,-21.57531],[-44.134,-21.5701],[-44.105,-21.5806],[-44.0854,-21.544],[-44.0547,-21.5175],[-44.0511,-21.4507],[-44.0891,-21.4354],[-44.143,-21.3857],[-44.18485,-21.38952]]]]}},{"type":"Feature","properties":{"territory_id":"mg-3150307-vista-alegre","name":"Vista Alegre","municipality_id":"mg-3150307","polling_places":1,"approx":true,"official":false,"method":"voronoi-polling-places","whole_municipality":false,"approx_coords_only":false},"geometry":{"type":"MultiPolygon","coordinates":[[[[-44.22691,-21.54464],[-44.2208,-21.5668],[-44.1879,-21.5644],[-44.1636,-21.5894],[-44.14199,-21.57531],[-44.15823,-21.52575],[-44.18432,-21.46744],[-44.19199,-21.47003],[-44.19651,-21.47518],[-44.22691,-21.54464]]]]}},{"type":"Feature","properties":{"territory_id":"mg-3150307-zona-rural","name":"Zona Rural","municipality_id":"mg-3150307","polling_places":2,"approx":true,"official":false,"method":"voronoi-polling-places","whole_municipality":false,"approx_coords_only":false},"geometry":{"type":"MultiPolygon","coordinates":[[[[-44.2726,-21.47025],[-44.2696,-21.4889],[-44.2432,-21.4856],[-44.22691,-21.54464],[-44.19651,-21.47518],[-44.19473,-21.46977],[-44.19468,-21.46788],[-44.2726,-21.47025]]],[[[-44.1992,-21.39319],[-44.18922,-21.45154],[-44.18626,-21.46198],[-44.18432,-21.46744],[-44.15823,-21.52575],[-44.18485,-21.38952],[-44.1988,-21.3908],[-44.1992,-21.39319]]]]}}]}