{"type":"FeatureCollection","features":[{"type":"Feature","properties":{"territory_id":"mg-3150000-alvorada","name":"Alvorada","municipality_id":"mg-3150000","polling_places":1,"approx":true,"official":false,"method":"voronoi-polling-places","whole_municipality":false,"approx_coords_only":false},"geometry":{"type":"MultiPolygon","coordinates":[[[[-41.61159,-18.2875],[-41.58212,-18.41305],[-41.5628,-18.4047],[-41.5188,-18.3651],[-41.4858,-18.352],[-41.4298,-18.3102],[-41.428,-18.2965],[-41.4191,-18.2816],[-41.4529,-18.2624],[-41.528,-18.2519],[-41.5834,-18.2598],[-41.5794,-18.2754],[-41.61159,-18.2875]]]]}},{"type":"Feature","properties":{"territory_id":"mg-3150000-centro","name":"Centro","municipality_id":"mg-3150000","polling_places":2,"approx":true,"official":false,"method":"voronoi-polling-places","whole_municipality":false,"approx_coords_only":false},"geometry":{"type":"MultiPolygon","coordinates":[[[[-41.6908,-18.3567],[-41.6852,-18.3878],[-41.629,-18.4333],[-41.58212,-18.41305],[-41.61159,-18.2875],[-41.647,-18.3008],[-41.6908,-18.3567]]]]}}]}