{"type":"FeatureCollection","features":[{"type":"Feature","properties":{"territory_id":"mg-3150570-centro","name":"Centro","municipality_id":"mg-3150570","polling_places":2,"approx":true,"official":false,"method":"voronoi-polling-places","whole_municipality":false,"approx_coords_only":false},"geometry":{"type":"MultiPolygon","coordinates":[[[[-45.21056,-16.04465],[-45.19197,-16.11779],[-45.16814,-16.11039],[-45.08813,-16.08684],[-45.10639,-16.05271],[-45.13622,-16.05404],[-45.14542,-16.05742],[-45.16271,-16.05167],[-45.21056,-16.04465]]]]}},{"type":"Feature","properties":{"territory_id":"mg-3150570-vila-acari","name":"Vila Acari","municipality_id":"mg-3150570","polling_places":2,"approx":true,"official":false,"method":"voronoi-polling-places","whole_municipality":false,"approx_coords_only":false},"geometry":{"type":"MultiPolygon","coordinates":[[[[-45.26589,-15.86394],[-45.26091,-15.86833],[-45.20063,-15.97857],[-45.18207,-15.9449],[-45.16816,-15.89582],[-45.15653,-15.88784],[-45.1938,-15.852],[-45.2256,-15.8435],[-45.2649,-15.8631],[-45.26589,-15.86394]]]]}},{"type":"Feature","properties":{"territory_id":"mg-3150570-zona-rural","name":"Zona Rural","municipality_id":"mg-3150570","polling_places":12,"approx":true,"official":false,"method":"voronoi-polling-places","whole_municipality":false,"approx_coords_only":false},"geometry":{"type":"MultiPolygon","coordinates":[[[[-45.4376,-15.982],[-45.4207,-16.0165],[-45.3863,-16.0461],[-45.3668,-16.0875],[-45.3942,-16.1238],[-45.3621,-16.1521],[-45.3616,-16.2232],[-45.3173,-16.2693],[-45.3039,-16.2679],[-45.2329,-16.2653],[-45.1702,-16.2036],[-45.184,-16.1708],[-45.1011,-16.1511],[-45.0796,-16.1217],[-45.0668,-16.0613],[-45.0412,-16.0079],[-45.0475,-15.9865],[-45.0913,-15.9833],[-45.1262,-15.9495],[-45.1443,-15.8996],[-45.15653,-15.88784],[-45.16816,-15.89582],[-45.18207,-15.9449],[-45.20063,-15.97857],[-45.26091,-15.86833],[-45.26589,-15.86394],[-45.3086,-15.9003],[-45.366,-15.8894],[-45.4151,-15.9267],[-45.4376,-15.982]],[[-45.21056,-16.04465],[-45.16271,-16.05167],[-45.14542,-16.05742],[-45.13622,-16.05404],[-45.10639,-16.05271],[-45.08813,-16.08684],[-45.16814,-16.11039],[-45.19197,-16.11779],[-45.21056,-16.04465]]]]}}]}