{"type":"FeatureCollection","features":[{"type":"Feature","properties":{"territory_id":"mg-3150901-antunes","name":"Antunes","municipality_id":"mg-3150901","polling_places":1,"approx":true,"official":false,"method":"voronoi-polling-places","whole_municipality":false,"approx_coords_only":false},"geometry":{"type":"MultiPolygon","coordinates":[[[[-45.57869,-22.52778],[-45.51795,-22.53498],[-45.50366,-22.47161],[-45.5238,-22.46],[-45.5506,-22.4838],[-45.57869,-22.52778]]]]}},{"type":"Feature","properties":{"territory_id":"mg-3150901-borges","name":"Borges","municipality_id":"mg-3150901","polling_places":1,"approx":true,"official":false,"method":"voronoi-polling-places","whole_municipality":false,"approx_coords_only":false},"geometry":{"type":"MultiPolygon","coordinates":[[[[-45.49984,-22.56781],[-45.47594,-22.58599],[-45.4301,-22.5397],[-45.4296,-22.5143],[-45.43809,-22.50941],[-45.49947,-22.56622],[-45.49984,-22.56781]]]]}},{"type":"Feature","properties":{"territory_id":"mg-3150901-centro","name":"Centro","municipality_id":"mg-3150901","polling_places":1,"approx":true,"official":false,"method":"voronoi-polling-places","whole_municipality":false,"approx_coords_only":false},"geometry":{"type":"MultiPolygon","coordinates":[[[[-45.51795,-22.53498],[-45.49947,-22.56622],[-45.43809,-22.50941],[-45.50366,-22.47161],[-45.51795,-22.53498]]]]}},{"type":"Feature","properties":{"territory_id":"mg-3150901-do-centro","name":"Do Centro","municipality_id":"mg-3150901","polling_places":1,"approx":true,"official":false,"method":"voronoi-polling-places","whole_municipality":false,"approx_coords_only":false},"geometry":{"type":"MultiPolygon","coordinates":[[[[-45.5804,-22.6529],[-45.5249,-22.6469],[-45.51074,-22.6398],[-45.53035,-22.59196],[-45.57797,-22.58541],[-45.5765,-22.6017],[-45.5599,-22.6276],[-45.5804,-22.6529]]]]}},{"type":"Feature","properties":{"territory_id":"mg-3150901-pintos","name":"Pintos","municipality_id":"mg-3150901","polling_places":1,"approx":true,"official":false,"method":"voronoi-polling-places","whole_municipality":false,"approx_coords_only":false},"geometry":{"type":"MultiPolygon","coordinates":[[[[-45.53035,-22.59196],[-45.51074,-22.6398],[-45.4888,-22.6288],[-45.4804,-22.5905],[-45.47594,-22.58599],[-45.49984,-22.56781],[-45.53035,-22.59196]]]]}},{"type":"Feature","properties":{"territory_id":"mg-3150901-roques","name":"Roques","municipality_id":"mg-3150901","polling_places":1,"approx":true,"official":false,"method":"voronoi-polling-places","whole_municipality":false,"approx_coords_only":false},"geometry":{"type":"MultiPolygon","coordinates":[[[[-45.5826,-22.5339],[-45.57797,-22.58541],[-45.53035,-22.59196],[-45.49984,-22.56781],[-45.49947,-22.56622],[-45.51795,-22.53498],[-45.57869,-22.52778],[-45.5826,-22.5339]]]]}}]}