{"type":"FeatureCollection","features":[{"type":"Feature","properties":{"territory_id":"mg-3151701-centro","name":"Centro","municipality_id":"mg-3151701","polling_places":4,"approx":true,"official":false,"method":"voronoi-polling-places","whole_municipality":false,"approx_coords_only":false},"geometry":{"type":"MultiPolygon","coordinates":[[[[-46.1438,-21.7679],[-46.1249,-21.8214],[-46.0805,-21.8582],[-46.0615,-21.8756],[-46.0321,-21.8863],[-46.00121,-21.88693],[-45.9348,-21.8234],[-45.89492,-21.78627],[-45.89004,-21.78214],[-45.8972,-21.7775],[-45.9283,-21.7211],[-45.9859,-21.6964],[-46.0234,-21.7185],[-46.06,-21.7228],[-46.1078,-21.7051],[-46.102,-21.7421],[-46.1438,-21.7679]]]]}},{"type":"Feature","properties":{"territory_id":"mg-3151701-paiolinho","name":"Paiolinho","municipality_id":"mg-3151701","polling_places":1,"approx":true,"official":false,"method":"voronoi-polling-places","whole_municipality":false,"approx_coords_only":false},"geometry":{"type":"MultiPolygon","coordinates":[[[[-46.00121,-21.88693],[-45.9827,-21.8873],[-45.9612,-21.9167],[-45.9248,-21.9177],[-45.8592,-21.8938],[-45.8753,-21.8476],[-45.849,-21.8087],[-45.89004,-21.78214],[-45.89492,-21.78627],[-45.9348,-21.8234],[-46.00121,-21.88693]]]]}}]}