{"type":"FeatureCollection","features":[{"type":"Feature","properties":{"territory_id":"mg-3151503-bela-vista","name":"Bela Vista","municipality_id":"mg-3151503","polling_places":2,"approx":true,"official":false,"method":"voronoi-polling-places","whole_municipality":false,"approx_coords_only":false},"geometry":{"type":"MultiPolygon","coordinates":[[[[-45.97734,-20.33824],[-45.96331,-20.45938],[-45.95907,-20.46389],[-45.95564,-20.46583],[-45.95538,-20.46587],[-45.9531,-20.46744],[-45.88943,-20.49245],[-45.8889,-20.4548],[-45.8359,-20.4246],[-45.8346,-20.3583],[-45.8345,-20.3524],[-45.9042,-20.3294],[-45.9237,-20.3412],[-45.976,-20.3383],[-45.97734,-20.33824]]]]}},{"type":"Feature","properties":{"territory_id":"mg-3151503-centro","name":"Centro","municipality_id":"mg-3151503","polling_places":4,"approx":true,"official":false,"method":"voronoi-polling-places","whole_municipality":false,"approx_coords_only":false},"geometry":{"type":"MultiPolygon","coordinates":[[[[-45.97047,-20.46572],[-45.96716,-20.46968],[-45.96644,-20.47187],[-45.96331,-20.47256],[-45.96059,-20.47652],[-45.95938,-20.47671],[-45.95746,-20.47315],[-45.9531,-20.46744],[-45.95538,-20.46587],[-45.95564,-20.46583],[-45.95907,-20.46389],[-45.96331,-20.45938],[-45.97047,-20.46572]]]]}},{"type":"Feature","properties":{"territory_id":"mg-3151503-elisa-leonel","name":"Elisa Leonel","municipality_id":"mg-3151503","polling_places":1,"approx":true,"official":false,"method":"voronoi-polling-places","whole_municipality":false,"approx_coords_only":false},"geometry":{"type":"MultiPolygon","coordinates":[[[[-45.95938,-20.47671],[-45.88991,-20.52702],[-45.88943,-20.49245],[-45.9531,-20.46744],[-45.95746,-20.47315],[-45.95938,-20.47671]]]]}},{"type":"Feature","properties":{"territory_id":"mg-3151503-jardim-america","name":"Jardim América","municipality_id":"mg-3151503","polling_places":1,"approx":true,"official":false,"method":"voronoi-polling-places","whole_municipality":false,"approx_coords_only":false},"geometry":{"type":"MultiPolygon","coordinates":[[[[-45.97072,-20.47796],[-45.96185,-20.47782],[-45.96059,-20.47652],[-45.96331,-20.47256],[-45.96644,-20.47187],[-45.97072,-20.47796]]]]}},{"type":"Feature","properties":{"territory_id":"mg-3151503-jardim-santo-antonio","name":"Jardim Santo Antônio","municipality_id":"mg-3151503","polling_places":2,"approx":true,"official":false,"method":"voronoi-polling-places","whole_municipality":false,"approx_coords_only":false},"geometry":{"type":"MultiPolygon","coordinates":[[[[-46.05463,-20.55542],[-45.9892,-20.5585],[-45.9676,-20.5881],[-45.9222,-20.5379],[-45.8901,-20.5408],[-45.88991,-20.52702],[-45.95938,-20.47671],[-45.96059,-20.47652],[-45.96185,-20.47782],[-45.97072,-20.47796],[-46.05463,-20.55542]]]]}},{"type":"Feature","properties":{"territory_id":"mg-3151503-lagoa-de-tras","name":"Lagoa de Trás","municipality_id":"mg-3151503","polling_places":1,"approx":true,"official":false,"method":"voronoi-polling-places","whole_municipality":false,"approx_coords_only":false},"geometry":{"type":"MultiPolygon","coordinates":[[[[-46.2883,-20.4332],[-46.2563,-20.4611],[-46.21,-20.4452],[-46.2219,-20.5055],[-46.1969,-20.5416],[-46.1475,-20.5689],[-46.1032,-20.5325],[-46.0592,-20.5552],[-46.05463,-20.55542],[-45.97072,-20.47796],[-45.96644,-20.47187],[-45.96716,-20.46968],[-45.97047,-20.46572],[-46.27262,-20.42082],[-46.2883,-20.4332]]]]}},{"type":"Feature","properties":{"territory_id":"mg-3151503-nova-esperanca","name":"Nova Esperança","municipality_id":"mg-3151503","polling_places":1,"approx":true,"official":false,"method":"voronoi-polling-places","whole_municipality":false,"approx_coords_only":false},"geometry":{"type":"MultiPolygon","coordinates":[[[[-46.27262,-20.42082],[-45.97047,-20.46572],[-45.96331,-20.45938],[-45.97734,-20.33824],[-46.0119,-20.3368],[-46.0373,-20.356],[-46.0802,-20.3388],[-46.1774,-20.344],[-46.2149,-20.3381],[-46.2243,-20.367],[-46.2663,-20.3821],[-46.2674,-20.4167],[-46.27262,-20.42082]]]]}}]}