{"type":"FeatureCollection","features":[{"type":"Feature","properties":{"territory_id":"mg-3151008-centro","name":"Centro","municipality_id":"mg-3151008","polling_places":2,"approx":true,"official":false,"method":"voronoi-polling-places","whole_municipality":false,"approx_coords_only":false},"geometry":{"type":"MultiPolygon","coordinates":[[[[-45.5785,-22.4268],[-45.5496,-22.4318],[-45.5506,-22.4838],[-45.5238,-22.46],[-45.516,-22.4372],[-45.5291,-22.3877],[-45.5118,-22.3726],[-45.52556,-22.3712],[-45.5678,-22.40023],[-45.57281,-22.40361],[-45.5785,-22.4268]]]]}},{"type":"Feature","properties":{"territory_id":"mg-3151008-distrito-de-santa-barbara-do-sapucai","name":"Distrito de Santa Bárbara do Sapucaí","municipality_id":"mg-3151008","polling_places":1,"approx":true,"official":false,"method":"voronoi-polling-places","whole_municipality":false,"approx_coords_only":false},"geometry":{"type":"MultiPolygon","coordinates":[[[[-45.60831,-22.36345],[-45.5703,-22.3934],[-45.57281,-22.40361],[-45.5678,-22.40023],[-45.52556,-22.3712],[-45.5461,-22.3691],[-45.56266,-22.34194],[-45.60831,-22.36345]]]]}},{"type":"Feature","properties":{"territory_id":"mg-3151008-sede-do-distrito-de-olegario","name":"Sede do Distrito de Olegário","municipality_id":"mg-3151008","polling_places":1,"approx":true,"official":false,"method":"voronoi-polling-places","whole_municipality":false,"approx_coords_only":false},"geometry":{"type":"MultiPolygon","coordinates":[[[[-45.6716,-22.3374],[-45.6278,-22.3481],[-45.60831,-22.36345],[-45.56266,-22.34194],[-45.5747,-22.3222],[-45.5965,-22.2999],[-45.6601,-22.2777],[-45.6716,-22.3374]]]]}}]}