{"type":"FeatureCollection","features":[{"type":"Feature","properties":{"territory_id":"mg-3151404-brumado","name":"Brumado","municipality_id":"mg-3151404","polling_places":1,"approx":true,"official":false,"method":"voronoi-polling-places","whole_municipality":false,"approx_coords_only":false},"geometry":{"type":"MultiPolygon","coordinates":[[[[-44.88734,-19.71692],[-44.8771,-19.7099],[-44.8385,-19.7353],[-44.8137,-19.7072],[-44.8146,-19.6643],[-44.75,-19.6656],[-44.75816,-19.64788],[-44.79439,-19.64435],[-44.8819,-19.70844],[-44.88734,-19.71692]]]]}},{"type":"Feature","properties":{"territory_id":"mg-3151404-cachoeira","name":"Cachoeira","municipality_id":"mg-3151404","polling_places":1,"approx":true,"official":false,"method":"voronoi-polling-places","whole_municipality":false,"approx_coords_only":false},"geometry":{"type":"MultiPolygon","coordinates":[[[[-44.91032,-19.64204],[-44.89305,-19.67825],[-44.87884,-19.67403],[-44.84411,-19.63076],[-44.873,-19.6191],[-44.91032,-19.64204]]]]}},{"type":"Feature","properties":{"territory_id":"mg-3151404-campo-grande","name":"Campo Grande","municipality_id":"mg-3151404","polling_places":1,"approx":true,"official":false,"method":"voronoi-polling-places","whole_municipality":false,"approx_coords_only":false},"geometry":{"type":"MultiPolygon","coordinates":[[[[-44.97602,-19.64966],[-44.97213,-19.67255],[-44.95046,-19.66353],[-44.91032,-19.64204],[-44.873,-19.6191],[-44.89774,-19.57038],[-44.94161,-19.56279],[-44.97602,-19.64966]]]]}},{"type":"Feature","properties":{"territory_id":"mg-3151404-centro","name":"Centro","municipality_id":"mg-3151404","polling_places":2,"approx":true,"official":false,"method":"voronoi-polling-places","whole_municipality":false,"approx_coords_only":false},"geometry":{"type":"MultiPolygon","coordinates":[[[[-44.89384,-19.68455],[-44.88322,-19.68269],[-44.87907,-19.67435],[-44.87884,-19.67403],[-44.89305,-19.67825],[-44.89254,-19.68145],[-44.89384,-19.68455]]]]}},{"type":"Feature","properties":{"territory_id":"mg-3151404-chapadao","name":"Chapadao","municipality_id":"mg-3151404","polling_places":2,"approx":true,"official":false,"method":"voronoi-polling-places","whole_municipality":false,"approx_coords_only":false},"geometry":{"type":"MultiPolygon","coordinates":[[[[-44.97213,-19.67255],[-44.9717,-19.6751],[-44.9479,-19.689],[-44.8917,-19.7199],[-44.88734,-19.71692],[-44.8819,-19.70844],[-44.88482,-19.69644],[-44.89387,-19.68458],[-44.89592,-19.68473],[-44.95046,-19.66353],[-44.97213,-19.67255]]]]}},{"type":"Feature","properties":{"territory_id":"mg-3151404-gameleira","name":"Gameleira","municipality_id":"mg-3151404","polling_places":1,"approx":true,"official":false,"method":"voronoi-polling-places","whole_municipality":false,"approx_coords_only":false},"geometry":{"type":"MultiPolygon","coordinates":[[[[-44.89387,-19.68458],[-44.88482,-19.69644],[-44.88322,-19.68269],[-44.89384,-19.68455],[-44.89387,-19.68458]]]]}},{"type":"Feature","properties":{"territory_id":"mg-3151404-lavrado","name":"Lavrado","municipality_id":"mg-3151404","polling_places":1,"approx":true,"official":false,"method":"voronoi-polling-places","whole_municipality":false,"approx_coords_only":false},"geometry":{"type":"MultiPolygon","coordinates":[[[[-44.95046,-19.66353],[-44.89592,-19.68473],[-44.89387,-19.68458],[-44.89384,-19.68455],[-44.89254,-19.68145],[-44.89305,-19.67825],[-44.91032,-19.64204],[-44.95046,-19.66353]]]]}},{"type":"Feature","properties":{"territory_id":"mg-3151404-padre-liberio","name":"Padre Liberio","municipality_id":"mg-3151404","polling_places":1,"approx":true,"official":false,"method":"voronoi-polling-places","whole_municipality":false,"approx_coords_only":false},"geometry":{"type":"MultiPolygon","coordinates":[[[[-44.88482,-19.69644],[-44.8819,-19.70844],[-44.79439,-19.64435],[-44.84411,-19.63076],[-44.87884,-19.67403],[-44.87907,-19.67435],[-44.88322,-19.68269],[-44.88482,-19.69644]]]]}},{"type":"Feature","properties":{"territory_id":"mg-3151404-rio-do-peixe","name":"Rio do Peixe","municipality_id":"mg-3151404","polling_places":1,"approx":true,"official":false,"method":"voronoi-polling-places","whole_municipality":false,"approx_coords_only":false},"geometry":{"type":"MultiPolygon","coordinates":[[[[-44.89774,-19.57038],[-44.873,-19.6191],[-44.84411,-19.63076],[-44.79439,-19.64435],[-44.75816,-19.64788],[-44.768,-19.6265],[-44.7547,-19.6063],[-44.7508,-19.5693],[-44.7755,-19.5406],[-44.811,-19.535],[-44.82783,-19.50416],[-44.871,-19.52542],[-44.89774,-19.57038]]]]}},{"type":"Feature","properties":{"territory_id":"mg-3151404-zona-rural","name":"Zona Rural","municipality_id":"mg-3151404","polling_places":3,"approx":true,"official":false,"method":"voronoi-polling-places","whole_municipality":false,"approx_coords_only":false},"geometry":{"type":"MultiPolygon","coordinates":[[[[-45.0118,-19.4764],[-45.0042,-19.5302],[-45.0069,-19.5626],[-44.983,-19.6085],[-44.97602,-19.64966],[-44.94161,-19.56279],[-44.89774,-19.57038],[-44.871,-19.52542],[-44.82783,-19.50416],[-44.8361,-19.489],[-44.8768,-19.4778],[-44.9168,-19.4746],[-44.9255,-19.4502],[-44.9783,-19.456],[-44.9935,-19.4422],[-45.0118,-19.4764]]]]}}]}