{"type":"FeatureCollection","features":[{"type":"Feature","properties":{"territory_id":"mg-3151800-aparecida","name":"Aparecida","municipality_id":"mg-3151800","polling_places":1,"approx":true,"official":false,"method":"voronoi-polling-places","whole_municipality":false,"approx_coords_only":false},"geometry":{"type":"MultiPolygon","coordinates":[[[[-46.55946,-21.78925],[-46.55946,-21.79167],[-46.551,-21.78948],[-46.55618,-21.78631],[-46.55791,-21.78673],[-46.55946,-21.78925]]]]}},{"type":"Feature","properties":{"territory_id":"mg-3151800-boa-esperanca","name":"Boa Esperança","municipality_id":"mg-3151800","polling_places":1,"approx":true,"official":false,"method":"voronoi-polling-places","whole_municipality":false,"approx_coords_only":false},"geometry":{"type":"MultiPolygon","coordinates":[[[[-46.54344,-21.79759],[-46.54211,-21.79805],[-46.53133,-21.79039],[-46.53091,-21.78579],[-46.5344,-21.78699],[-46.54212,-21.79235],[-46.54344,-21.79759]]]]}},{"type":"Feature","properties":{"territory_id":"mg-3151800-cascatinha","name":"Cascatinha","municipality_id":"mg-3151800","polling_places":2,"approx":true,"official":false,"method":"voronoi-polling-places","whole_municipality":false,"approx_coords_only":false},"geometry":{"type":"MultiPolygon","coordinates":[[[[-46.56557,-21.80152],[-46.5544,-21.80774],[-46.55257,-21.80095],[-46.55715,-21.7958],[-46.55947,-21.79171],[-46.56131,-21.79219],[-46.56471,-21.79503],[-46.56465,-21.79835],[-46.56557,-21.80152]]]]}},{"type":"Feature","properties":{"territory_id":"mg-3151800-centro","name":"Centro","municipality_id":"mg-3151800","polling_places":14,"approx":true,"official":false,"method":"voronoi-polling-places","whole_municipality":false,"approx_coords_only":false},"geometry":{"type":"MultiPolygon","coordinates":[[[[-46.58708,-21.78324],[-46.57843,-21.78967],[-46.57775,-21.78917],[-46.57199,-21.79245],[-46.57145,-21.79249],[-46.56986,-21.79456],[-46.56489,-21.79495],[-46.56471,-21.79503],[-46.56131,-21.79219],[-46.55947,-21.79171],[-46.55946,-21.79167],[-46.55946,-21.78925],[-46.56473,-21.78532],[-46.56065,-21.77853],[-46.55986,-21.77331],[-46.55879,-21.76784],[-46.55687,-21.74794],[-46.56831,-21.74937],[-46.57625,-21.75026],[-46.57524,-21.76336],[-46.57676,-21.78687],[-46.5768,-21.787],[-46.57739,-21.78786],[-46.58608,-21.7786],[-46.58708,-21.78324]]]]}},{"type":"Feature","properties":{"territory_id":"mg-3151800-chacara-alvorada","name":"Chácara Alvorada","municipality_id":"mg-3151800","polling_places":1,"approx":true,"official":false,"method":"voronoi-polling-places","whole_municipality":false,"approx_coords_only":false},"geometry":{"type":"MultiPolygon","coordinates":[[[[-46.53194,-21.80252],[-46.52875,-21.81157],[-46.49801,-21.7661],[-46.49588,-21.76088],[-46.50885,-21.75591],[-46.53091,-21.78579],[-46.53133,-21.79039],[-46.53194,-21.80252]]]]}},{"type":"Feature","properties":{"territory_id":"mg-3151800-chacara-pocos-de-caldas","name":"Chácara Poços de Caldas","municipality_id":"mg-3151800","polling_places":1,"approx":true,"official":false,"method":"voronoi-polling-places","whole_municipality":false,"approx_coords_only":false},"geometry":{"type":"MultiPolygon","coordinates":[[[[-46.51604,-21.8474],[-46.51296,-21.85655],[-46.5098,-21.86203],[-46.4909,-21.8477],[-46.4652,-21.806],[-46.4222,-21.7955],[-46.39893,-21.7596],[-46.46759,-21.76284],[-46.51604,-21.8474]]]]}},{"type":"Feature","properties":{"territory_id":"mg-3151800-cohab","name":"Cohab","municipality_id":"mg-3151800","polling_places":2,"approx":true,"official":false,"method":"voronoi-polling-places","whole_municipality":false,"approx_coords_only":false},"geometry":{"type":"MultiPolygon","coordinates":[[[[-46.63077,-21.98549],[-46.6179,-21.995],[-46.6027,-21.9587],[-46.5653,-21.9333],[-46.5247,-21.9246],[-46.5277,-21.8756],[-46.5098,-21.86203],[-46.51296,-21.85655],[-46.53477,-21.85167],[-46.54787,-21.84769],[-46.56018,-21.84444],[-46.56805,-21.85374],[-46.57076,-21.85517],[-46.62975,-21.97239],[-46.63077,-21.98549]]]]}},{"type":"Feature","properties":{"territory_id":"mg-3151800-fazenda-aparecida","name":"Fazenda Aparecida","municipality_id":"mg-3151800","polling_places":1,"approx":true,"official":false,"method":"voronoi-polling-places","whole_municipality":false,"approx_coords_only":false},"geometry":{"type":"MultiPolygon","coordinates":[[[[-46.5868,-21.67772],[-46.53396,-21.72456],[-46.51451,-21.69127],[-46.5262,-21.6863],[-46.5258,-21.6477],[-46.5547,-21.6534],[-46.5646,-21.6787],[-46.5868,-21.67772]]]]}},{"type":"Feature","properties":{"territory_id":"mg-3151800-fazenda-boa-vista","name":"Fazenda Boa Vista","municipality_id":"mg-3151800","polling_places":1,"approx":true,"official":false,"method":"voronoi-polling-places","whole_municipality":false,"approx_coords_only":false},"geometry":{"type":"MultiPolygon","coordinates":[[[[-46.53396,-21.72456],[-46.53347,-21.73809],[-46.50885,-21.75591],[-46.49588,-21.76088],[-46.46759,-21.76284],[-46.39893,-21.7596],[-46.3986,-21.7591],[-46.4218,-21.7327],[-46.4618,-21.7572],[-46.4617,-21.7137],[-46.51451,-21.69127],[-46.53396,-21.72456]]]]}},{"type":"Feature","properties":{"territory_id":"mg-3151800-fazenda-lambari","name":"Fazenda Lambari","municipality_id":"mg-3151800","polling_places":1,"approx":true,"official":false,"method":"voronoi-polling-places","whole_municipality":false,"approx_coords_only":false},"geometry":{"type":"MultiPolygon","coordinates":[[[[-46.62409,-21.73101],[-46.58584,-21.74953],[-46.57625,-21.75026],[-46.56831,-21.74937],[-46.55687,-21.74794],[-46.54669,-21.74456],[-46.53347,-21.73809],[-46.53396,-21.72456],[-46.5868,-21.67772],[-46.6145,-21.6765],[-46.62409,-21.73101]]]]}},{"type":"Feature","properties":{"territory_id":"mg-3151800-jardim-centenario","name":"Jardim Centenário","municipality_id":"mg-3151800","polling_places":1,"approx":true,"official":false,"method":"voronoi-polling-places","whole_municipality":false,"approx_coords_only":false},"geometry":{"type":"MultiPolygon","coordinates":[[[[-46.57966,-21.80804],[-46.56662,-21.81938],[-46.55303,-21.81556],[-46.5544,-21.80774],[-46.56557,-21.80152],[-46.56939,-21.80203],[-46.57953,-21.80794],[-46.57966,-21.80804]]]]}},{"type":"Feature","properties":{"territory_id":"mg-3151800-jardim-country-club","name":"Jardim Country Club","municipality_id":"mg-3151800","polling_places":3,"approx":true,"official":false,"method":"voronoi-polling-places","whole_municipality":false,"approx_coords_only":false},"geometry":{"type":"MultiPolygon","coordinates":[[[[-46.64478,-21.81123],[-46.6267,-21.84191],[-46.62365,-21.84055],[-46.58468,-21.80737],[-46.58583,-21.80131],[-46.5851,-21.79675],[-46.58855,-21.79025],[-46.58936,-21.78791],[-46.59795,-21.78523],[-46.60205,-21.79242],[-46.64478,-21.81123]]]]}},{"type":"Feature","properties":{"territory_id":"mg-3151800-jardim-do-ginasio","name":"Jardim do Ginásio","municipality_id":"mg-3151800","polling_places":1,"approx":true,"official":false,"method":"voronoi-polling-places","whole_municipality":false,"approx_coords_only":false},"geometry":{"type":"MultiPolygon","coordinates":[[[[-46.58732,-21.75708],[-46.58608,-21.7786],[-46.57739,-21.78786],[-46.5768,-21.787],[-46.57676,-21.78687],[-46.57524,-21.76336],[-46.57625,-21.75026],[-46.58584,-21.74953],[-46.58732,-21.75708]]]]}},{"type":"Feature","properties":{"territory_id":"mg-3151800-jardim-dos-estados","name":"Jardim dos Estados","municipality_id":"mg-3151800","polling_places":3,"approx":true,"official":false,"method":"voronoi-polling-places","whole_municipality":false,"approx_coords_only":false},"geometry":{"type":"MultiPolygon","coordinates":[[[[-46.56473,-21.78532],[-46.55946,-21.78925],[-46.55791,-21.78673],[-46.55618,-21.78631],[-46.5545,-21.78445],[-46.55018,-21.78454],[-46.54788,-21.77603],[-46.54669,-21.74456],[-46.55687,-21.74794],[-46.55879,-21.76784],[-46.55986,-21.77331],[-46.56065,-21.77853],[-46.56473,-21.78532]]]]}},{"type":"Feature","properties":{"territory_id":"mg-3151800-jardim-elizabeth","name":"Jardim Elizabeth","municipality_id":"mg-3151800","polling_places":1,"approx":true,"official":false,"method":"voronoi-polling-places","whole_municipality":false,"approx_coords_only":false},"geometry":{"type":"MultiPolygon","coordinates":[[[[-46.63926,-21.77844],[-46.59838,-21.7816],[-46.58732,-21.75708],[-46.58584,-21.74953],[-46.62409,-21.73101],[-46.6307,-21.7686],[-46.63926,-21.77844]]]]}},{"type":"Feature","properties":{"territory_id":"mg-3151800-jardim-esperanca","name":"Jardim Esperança","municipality_id":"mg-3151800","polling_places":3,"approx":true,"official":false,"method":"voronoi-polling-places","whole_municipality":false,"approx_coords_only":false},"geometry":{"type":"MultiPolygon","coordinates":[[[[-46.57338,-21.83484],[-46.57187,-21.83694],[-46.56018,-21.84444],[-46.54787,-21.84769],[-46.53477,-21.85167],[-46.51296,-21.85655],[-46.51604,-21.8474],[-46.51824,-21.84307],[-46.52879,-21.82994],[-46.53262,-21.82799],[-46.53618,-21.8256],[-46.55303,-21.81556],[-46.56662,-21.81938],[-46.57284,-21.83416],[-46.57338,-21.83484]]]]}},{"type":"Feature","properties":{"territory_id":"mg-3151800-jardim-formosa","name":"Jardim Formosa","municipality_id":"mg-3151800","polling_places":1,"approx":true,"official":false,"method":"voronoi-polling-places","whole_municipality":false,"approx_coords_only":false},"geometry":{"type":"MultiPolygon","coordinates":[[[[-46.54211,-21.79805],[-46.53194,-21.80252],[-46.53133,-21.79039],[-46.54211,-21.79805]]]]}},{"type":"Feature","properties":{"territory_id":"mg-3151800-jardim-ipe","name":"Jardim Ipê","municipality_id":"mg-3151800","polling_places":1,"approx":true,"official":false,"method":"voronoi-polling-places","whole_municipality":false,"approx_coords_only":false},"geometry":{"type":"MultiPolygon","coordinates":[[[[-46.5544,-21.80774],[-46.55303,-21.81556],[-46.53618,-21.8256],[-46.54379,-21.79779],[-46.55158,-21.79999],[-46.55257,-21.80095],[-46.5544,-21.80774]]]]}},{"type":"Feature","properties":{"territory_id":"mg-3151800-jardim-kennedy","name":"Jardim Kennedy","municipality_id":"mg-3151800","polling_places":1,"approx":true,"official":false,"method":"voronoi-polling-places","whole_municipality":false,"approx_coords_only":false},"geometry":{"type":"MultiPolygon","coordinates":[[[[-46.62975,-21.97239],[-46.57076,-21.85517],[-46.57187,-21.83694],[-46.57338,-21.83484],[-46.62365,-21.84055],[-46.6267,-21.84191],[-46.62975,-21.97239]]]]}},{"type":"Feature","properties":{"territory_id":"mg-3151800-jardim-philadelphia","name":"Jardim Philadélphia","municipality_id":"mg-3151800","polling_places":1,"approx":true,"official":false,"method":"voronoi-polling-places","whole_municipality":false,"approx_coords_only":false},"geometry":{"type":"MultiPolygon","coordinates":[[[[-46.52879,-21.82994],[-46.51824,-21.84307],[-46.49801,-21.7661],[-46.52875,-21.81157],[-46.52879,-21.82994]]]]}},{"type":"Feature","properties":{"territory_id":"mg-3151800-jardim-quisisana","name":"Jardim Quisisana","municipality_id":"mg-3151800","polling_places":1,"approx":true,"official":false,"method":"voronoi-polling-places","whole_municipality":false,"approx_coords_only":false},"geometry":{"type":"MultiPolygon","coordinates":[[[[-46.56986,-21.79456],[-46.56939,-21.80203],[-46.56557,-21.80152],[-46.56465,-21.79835],[-46.56471,-21.79503],[-46.56489,-21.79495],[-46.56986,-21.79456]]]]}},{"type":"Feature","properties":{"territory_id":"mg-3151800-jardim-sao-paulo","name":"Jardim São Paulo","municipality_id":"mg-3151800","polling_places":1,"approx":true,"official":false,"method":"voronoi-polling-places","whole_municipality":false,"approx_coords_only":false},"geometry":{"type":"MultiPolygon","coordinates":[[[[-46.55947,-21.79171],[-46.55715,-21.7958],[-46.55257,-21.80095],[-46.55158,-21.79999],[-46.54982,-21.78965],[-46.551,-21.78948],[-46.55946,-21.79167],[-46.55947,-21.79171]]]]}},{"type":"Feature","properties":{"territory_id":"mg-3151800-jose-carlos","name":"José Carlos","municipality_id":"mg-3151800","polling_places":1,"approx":true,"official":false,"method":"voronoi-polling-places","whole_municipality":false,"approx_coords_only":false},"geometry":{"type":"MultiPolygon","coordinates":[[[[-46.55618,-21.78631],[-46.551,-21.78948],[-46.54982,-21.78965],[-46.54916,-21.78901],[-46.55018,-21.78454],[-46.5545,-21.78445],[-46.55618,-21.78631]]]]}},{"type":"Feature","properties":{"territory_id":"mg-3151800-nova-aurora","name":"Nova Aurora","municipality_id":"mg-3151800","polling_places":1,"approx":true,"official":false,"method":"voronoi-polling-places","whole_municipality":false,"approx_coords_only":false},"geometry":{"type":"MultiPolygon","coordinates":[[[[-46.54379,-21.79779],[-46.53618,-21.8256],[-46.53262,-21.82799],[-46.52879,-21.82994],[-46.52875,-21.81157],[-46.53194,-21.80252],[-46.54211,-21.79805],[-46.54344,-21.79759],[-46.54379,-21.79779]]]]}},{"type":"Feature","properties":{"territory_id":"mg-3151800-parque-das-nacoes","name":"Parque das Nações","municipality_id":"mg-3151800","polling_places":1,"approx":true,"official":false,"method":"voronoi-polling-places","whole_municipality":false,"approx_coords_only":false},"geometry":{"type":"MultiPolygon","coordinates":[[[[-46.57187,-21.83694],[-46.57076,-21.85517],[-46.56805,-21.85374],[-46.56018,-21.84444],[-46.57187,-21.83694]]]]}},{"type":"Feature","properties":{"territory_id":"mg-3151800-parque-pinheiros","name":"Parque Pinheiros","municipality_id":"mg-3151800","polling_places":1,"approx":true,"official":false,"method":"voronoi-polling-places","whole_municipality":false,"approx_coords_only":false},"geometry":{"type":"MultiPolygon","coordinates":[[[[-46.51824,-21.84307],[-46.51604,-21.8474],[-46.46759,-21.76284],[-46.49588,-21.76088],[-46.49801,-21.7661],[-46.51824,-21.84307]]]]}},{"type":"Feature","properties":{"territory_id":"mg-3151800-santa-angela","name":"Santa Ângela","municipality_id":"mg-3151800","polling_places":1,"approx":true,"official":false,"method":"voronoi-polling-places","whole_municipality":false,"approx_coords_only":false},"geometry":{"type":"MultiPolygon","coordinates":[[[[-46.57953,-21.80794],[-46.56939,-21.80203],[-46.56986,-21.79456],[-46.57145,-21.79249],[-46.57199,-21.79245],[-46.57953,-21.80794]]]]}},{"type":"Feature","properties":{"territory_id":"mg-3151800-santa-maria","name":"Santa Maria","municipality_id":"mg-3151800","polling_places":1,"approx":true,"official":false,"method":"voronoi-polling-places","whole_municipality":false,"approx_coords_only":false},"geometry":{"type":"MultiPolygon","coordinates":[[[[-46.58583,-21.80131],[-46.58468,-21.80737],[-46.57966,-21.80804],[-46.57953,-21.80794],[-46.57199,-21.79245],[-46.57775,-21.78917],[-46.57843,-21.78967],[-46.5851,-21.79675],[-46.58583,-21.80131]]]]}},{"type":"Feature","properties":{"territory_id":"mg-3151800-santa-rosalia","name":"Santa Rosália","municipality_id":"mg-3151800","polling_places":1,"approx":true,"official":false,"method":"voronoi-polling-places","whole_municipality":false,"approx_coords_only":false},"geometry":{"type":"MultiPolygon","coordinates":[[[[-46.54788,-21.77603],[-46.54408,-21.78558],[-46.5344,-21.78699],[-46.53091,-21.78579],[-46.50885,-21.75591],[-46.53347,-21.73809],[-46.54669,-21.74456],[-46.54788,-21.77603]]]]}},{"type":"Feature","properties":{"territory_id":"mg-3151800-santana","name":"Santana","municipality_id":"mg-3151800","polling_places":1,"approx":true,"official":false,"method":"voronoi-polling-places","whole_municipality":false,"approx_coords_only":false},"geometry":{"type":"MultiPolygon","coordinates":[[[[-46.55018,-21.78454],[-46.54916,-21.78901],[-46.54838,-21.789],[-46.54408,-21.78558],[-46.54788,-21.77603],[-46.55018,-21.78454]]]]}},{"type":"Feature","properties":{"territory_id":"mg-3151800-santo-andre","name":"Santo André","municipality_id":"mg-3151800","polling_places":1,"approx":true,"official":false,"method":"voronoi-polling-places","whole_municipality":false,"approx_coords_only":false},"geometry":{"type":"MultiPolygon","coordinates":[[[[-46.55158,-21.79999],[-46.54379,-21.79779],[-46.54344,-21.79759],[-46.54212,-21.79235],[-46.54838,-21.789],[-46.54916,-21.78901],[-46.54982,-21.78965],[-46.55158,-21.79999]]]]}},{"type":"Feature","properties":{"territory_id":"mg-3151800-sao-geraldo","name":"São Geraldo","municipality_id":"mg-3151800","polling_places":1,"approx":true,"official":false,"method":"voronoi-polling-places","whole_municipality":false,"approx_coords_only":false},"geometry":{"type":"MultiPolygon","coordinates":[[[[-46.58936,-21.78791],[-46.58855,-21.79025],[-46.5851,-21.79675],[-46.57843,-21.78967],[-46.58708,-21.78324],[-46.58936,-21.78791]]]]}},{"type":"Feature","properties":{"territory_id":"mg-3151800-souza-lima","name":"Souza Lima","municipality_id":"mg-3151800","polling_places":1,"approx":true,"official":false,"method":"voronoi-polling-places","whole_municipality":false,"approx_coords_only":true},"geometry":{"type":"MultiPolygon","coordinates":[[[[-46.62365,-21.84055],[-46.57338,-21.83484],[-46.57284,-21.83416],[-46.56662,-21.81938],[-46.57966,-21.80804],[-46.58468,-21.80737],[-46.62365,-21.84055]]]]}},{"type":"Feature","properties":{"territory_id":"mg-3151800-vila-brasil-nossa-senhora-aparecida","name":"Vila Brasil Nossa Senhora Aparecida","municipality_id":"mg-3151800","polling_places":1,"approx":true,"official":false,"method":"voronoi-polling-places","whole_municipality":false,"approx_coords_only":false},"geometry":{"type":"MultiPolygon","coordinates":[[[[-46.6907,-21.8376],[-46.666,-21.8484],[-46.6475,-21.8805],[-46.6738,-21.9111],[-46.6428,-21.9766],[-46.63077,-21.98549],[-46.62975,-21.97239],[-46.6267,-21.84191],[-46.64478,-21.81123],[-46.65609,-21.7978],[-46.6907,-21.8376]]]]}},{"type":"Feature","properties":{"territory_id":"mg-3151800-vila-cruz","name":"Vila Cruz","municipality_id":"mg-3151800","polling_places":1,"approx":true,"official":false,"method":"voronoi-polling-places","whole_municipality":false,"approx_coords_only":false},"geometry":{"type":"MultiPolygon","coordinates":[[[[-46.59838,-21.7816],[-46.59795,-21.78523],[-46.58936,-21.78791],[-46.58708,-21.78324],[-46.58608,-21.7786],[-46.58732,-21.75708],[-46.59838,-21.7816]]]]}},{"type":"Feature","properties":{"territory_id":"mg-3151800-vila-nova","name":"Vila Nova","municipality_id":"mg-3151800","polling_places":1,"approx":true,"official":false,"method":"voronoi-polling-places","whole_municipality":false,"approx_coords_only":false},"geometry":{"type":"MultiPolygon","coordinates":[[[[-46.54838,-21.789],[-46.54212,-21.79235],[-46.5344,-21.78699],[-46.54408,-21.78558],[-46.54838,-21.789]]]]}},{"type":"Feature","properties":{"territory_id":"mg-3151800-vila-togni","name":"Vila Togni","municipality_id":"mg-3151800","polling_places":1,"approx":true,"official":false,"method":"voronoi-polling-places","whole_municipality":false,"approx_coords_only":false},"geometry":{"type":"MultiPolygon","coordinates":[[[[-46.65609,-21.7978],[-46.64478,-21.81123],[-46.60205,-21.79242],[-46.59795,-21.78523],[-46.59838,-21.7816],[-46.63926,-21.77844],[-46.65609,-21.7978]]]]}}]}