{"type":"FeatureCollection","features":[{"type":"Feature","properties":{"territory_id":"mg-3151909-cantinho-do-ceu","name":"Cantinho do Céu","municipality_id":"mg-3151909","polling_places":1,"approx":true,"official":false,"method":"voronoi-polling-places","whole_municipality":false,"approx_coords_only":false},"geometry":{"type":"MultiPolygon","coordinates":[[[[-41.56124,-19.59031],[-41.51354,-19.59109],[-41.49764,-19.50526],[-41.50282,-19.50041],[-41.51134,-19.50217],[-41.56124,-19.55187],[-41.56124,-19.59031]]]]}},{"type":"Feature","properties":{"territory_id":"mg-3151909-centro","name":"Centro","municipality_id":"mg-3151909","polling_places":1,"approx":true,"official":false,"method":"voronoi-polling-places","whole_municipality":false,"approx_coords_only":false},"geometry":{"type":"MultiPolygon","coordinates":[[[[-41.7515,-19.5946],[-41.6949,-19.6441],[-41.6798,-19.6897],[-41.65574,-19.6756],[-41.6191,-19.58111],[-41.67058,-19.54518],[-41.7213,-19.5819],[-41.7515,-19.5946]]]]}},{"type":"Feature","properties":{"territory_id":"mg-3151909-distrito-acarai","name":"Distrito Acarai","municipality_id":"mg-3151909","polling_places":1,"approx":true,"official":false,"method":"voronoi-polling-places","whole_municipality":false,"approx_coords_only":false},"geometry":{"type":"MultiPolygon","coordinates":[[[[-41.51354,-19.59109],[-41.51252,-19.69393],[-41.4953,-19.6965],[-41.4276,-19.6932],[-41.3865,-19.6583],[-41.3639,-19.6318],[-41.3817,-19.588],[-41.4321,-19.5407],[-41.4615,-19.5131],[-41.482,-19.5199],[-41.49764,-19.50526],[-41.51354,-19.59109]]]]}},{"type":"Feature","properties":{"territory_id":"mg-3151909-distrito-barra-da-figueira","name":"Distrito Barra da Figueira","municipality_id":"mg-3151909","polling_places":1,"approx":true,"official":false,"method":"voronoi-polling-places","whole_municipality":false,"approx_coords_only":false},"geometry":{"type":"MultiPolygon","coordinates":[[[[-41.60192,-19.59131],[-41.57404,-19.68475],[-41.51252,-19.69393],[-41.51354,-19.59109],[-41.56124,-19.59031],[-41.59922,-19.58969],[-41.60192,-19.59131]]]]}},{"type":"Feature","properties":{"territory_id":"mg-3151909-ferrugem","name":"Ferrugem","municipality_id":"mg-3151909","polling_places":1,"approx":true,"official":false,"method":"voronoi-polling-places","whole_municipality":false,"approx_coords_only":false},"geometry":{"type":"MultiPolygon","coordinates":[[[[-41.59922,-19.58969],[-41.56124,-19.59031],[-41.56124,-19.55187],[-41.59922,-19.58969]]]]}},{"type":"Feature","properties":{"territory_id":"mg-3151909-povoado-do-cachoeirao","name":"Povoado do Cachoeirão","municipality_id":"mg-3151909","polling_places":1,"approx":true,"official":false,"method":"voronoi-polling-places","whole_municipality":false,"approx_coords_only":false},"geometry":{"type":"MultiPolygon","coordinates":[[[[-41.6636,-19.4547],[-41.65763,-19.49938],[-41.51134,-19.50217],[-41.50282,-19.50041],[-41.5102,-19.4935],[-41.5361,-19.4882],[-41.586,-19.4429],[-41.6375,-19.4179],[-41.6636,-19.4547]]]]}},{"type":"Feature","properties":{"territory_id":"mg-3151909-safira","name":"Safira","municipality_id":"mg-3151909","polling_places":1,"approx":true,"official":false,"method":"voronoi-polling-places","whole_municipality":false,"approx_coords_only":false},"geometry":{"type":"MultiPolygon","coordinates":[[[[-41.67058,-19.54518],[-41.6191,-19.58111],[-41.60192,-19.59131],[-41.59922,-19.58969],[-41.56124,-19.55187],[-41.51134,-19.50217],[-41.65763,-19.49938],[-41.6532,-19.5326],[-41.67058,-19.54518]]]]}},{"type":"Feature","properties":{"territory_id":"mg-3151909-serra-do-taquaral","name":"Serra do Taquaral","municipality_id":"mg-3151909","polling_places":1,"approx":true,"official":false,"method":"voronoi-polling-places","whole_municipality":false,"approx_coords_only":false},"geometry":{"type":"MultiPolygon","coordinates":[[[[-41.65574,-19.6756],[-41.6414,-19.6672],[-41.5851,-19.6831],[-41.57404,-19.68475],[-41.60192,-19.59131],[-41.6191,-19.58111],[-41.65574,-19.6756]]]]}}]}