{"type":"FeatureCollection","features":[{"type":"Feature","properties":{"territory_id":"mg-3151602-centro","name":"Centro","municipality_id":"mg-3151602","polling_places":2,"approx":true,"official":false,"method":"voronoi-polling-places","whole_municipality":false,"approx_coords_only":false},"geometry":{"type":"MultiPolygon","coordinates":[[[[-48.71146,-20.1403],[-48.59418,-20.13637],[-48.5932,-20.1358],[-48.5374,-20.1336],[-48.5288,-20.0687],[-48.5565,-19.9997],[-48.6028,-20.0404],[-48.62934,-20.03451],[-48.71146,-20.1403]]]]}},{"type":"Feature","properties":{"territory_id":"mg-3151602-vila-olimpica","name":"Vila Olimpica","municipality_id":"mg-3151602","polling_places":1,"approx":true,"official":false,"method":"voronoi-polling-places","whole_municipality":false,"approx_coords_only":false},"geometry":{"type":"MultiPolygon","coordinates":[[[[-48.73067,-20.14771],[-48.7296,-20.1503],[-48.6469,-20.167],[-48.59418,-20.13637],[-48.71146,-20.1403],[-48.73067,-20.14771]]]]}},{"type":"Feature","properties":{"territory_id":"mg-3151602-vila-paiva","name":"Vila Paiva","municipality_id":"mg-3151602","polling_places":1,"approx":true,"official":false,"method":"voronoi-polling-places","whole_municipality":false,"approx_coords_only":false},"geometry":{"type":"MultiPolygon","coordinates":[[[[-48.7429,-20.1181],[-48.73067,-20.14771],[-48.71146,-20.1403],[-48.62934,-20.03451],[-48.6686,-20.0258],[-48.6933,-19.9736],[-48.7353,-20.0123],[-48.7296,-20.0309],[-48.7429,-20.1181]]]]}}]}