{"type":"FeatureCollection","features":[{"type":"Feature","properties":{"territory_id":"mg-3151107-2000","name":"2000","municipality_id":"mg-3151107","polling_places":1,"approx":true,"official":false,"method":"voronoi-polling-places","whole_municipality":false,"approx_coords_only":false},"geometry":{"type":"MultiPolygon","coordinates":[[[[-42.34673,-21.6583],[-42.34515,-21.6583],[-42.34481,-21.65772],[-42.34485,-21.65751],[-42.34545,-21.65719],[-42.34673,-21.6583]]]]}},{"type":"Feature","properties":{"territory_id":"mg-3151107-brasilinha","name":"Brasilinha","municipality_id":"mg-3151107","polling_places":2,"approx":true,"official":false,"method":"voronoi-polling-places","whole_municipality":false,"approx_coords_only":false},"geometry":{"type":"MultiPolygon","coordinates":[[[[-42.38987,-21.65886],[-42.37719,-21.68332],[-42.35051,-21.66201],[-42.34869,-21.65983],[-42.34673,-21.6583],[-42.34545,-21.65719],[-42.3489,-21.65532],[-42.38987,-21.65886]]]]}},{"type":"Feature","properties":{"territory_id":"mg-3151107-caiapo","name":"Caiapo","municipality_id":"mg-3151107","polling_places":1,"approx":true,"official":false,"method":"voronoi-polling-places","whole_municipality":false,"approx_coords_only":false},"geometry":{"type":"MultiPolygon","coordinates":[[[[-42.4352,-21.6464],[-42.4346,-21.6958],[-42.43075,-21.71016],[-42.36574,-21.71058],[-42.36849,-21.70364],[-42.37719,-21.68332],[-42.38987,-21.65886],[-42.4159,-21.61117],[-42.4352,-21.6464]]]]}},{"type":"Feature","properties":{"territory_id":"mg-3151107-centro","name":"Centro","municipality_id":"mg-3151107","polling_places":6,"approx":true,"official":false,"method":"voronoi-polling-places","whole_municipality":false,"approx_coords_only":false},"geometry":{"type":"MultiPolygon","coordinates":[[[[-42.36701,-21.5874],[-42.35829,-21.61622],[-42.3527,-21.5917],[-42.36701,-21.5874]]],[[[-42.34485,-21.65751],[-42.34481,-21.65772],[-42.34428,-21.65941],[-42.34277,-21.65936],[-42.34202,-21.65963],[-42.34123,-21.65947],[-42.34485,-21.65751]]]]}},{"type":"Feature","properties":{"territory_id":"mg-3151107-colina-do-sol","name":"Colina do Sol","municipality_id":"mg-3151107","polling_places":1,"approx":true,"official":false,"method":"voronoi-polling-places","whole_municipality":false,"approx_coords_only":false},"geometry":{"type":"MultiPolygon","coordinates":[[[[-42.34515,-21.6583],[-42.34447,-21.65947],[-42.34428,-21.65941],[-42.34481,-21.65772],[-42.34515,-21.6583]]]]}},{"type":"Feature","properties":{"territory_id":"mg-3151107-joao-batista-de-souza","name":"Joao Batista de Souza","municipality_id":"mg-3151107","polling_places":1,"approx":true,"official":false,"method":"voronoi-polling-places","whole_municipality":false,"approx_coords_only":false},"geometry":{"type":"MultiPolygon","coordinates":[[[[-42.37719,-21.68332],[-42.36849,-21.70364],[-42.34202,-21.65963],[-42.34277,-21.65936],[-42.34428,-21.65941],[-42.34447,-21.65947],[-42.35051,-21.66201],[-42.37719,-21.68332]]]]}},{"type":"Feature","properties":{"territory_id":"mg-3151107-loteamento-sao-sebastiao","name":"Loteamento Sao Sebastiao","municipality_id":"mg-3151107","polling_places":1,"approx":true,"official":false,"method":"voronoi-polling-places","whole_municipality":false,"approx_coords_only":false},"geometry":{"type":"MultiPolygon","coordinates":[[[[-42.4159,-21.61117],[-42.38987,-21.65886],[-42.3489,-21.65532],[-42.3652,-21.6465],[-42.35829,-21.61622],[-42.36701,-21.5874],[-42.4053,-21.5759],[-42.4106,-21.6015],[-42.4159,-21.61117]]]]}},{"type":"Feature","properties":{"territory_id":"mg-3151107-valao-quente","name":"Valao Quente","municipality_id":"mg-3151107","polling_places":1,"approx":true,"official":false,"method":"voronoi-polling-places","whole_municipality":false,"approx_coords_only":false},"geometry":{"type":"MultiPolygon","coordinates":[[[[-42.43075,-21.71016],[-42.4228,-21.7398],[-42.3777,-21.7484],[-42.33412,-21.74584],[-42.36574,-21.71058],[-42.43075,-21.71016]]]]}},{"type":"Feature","properties":{"territory_id":"mg-3151107-zona-rural","name":"Zona Rural","municipality_id":"mg-3151107","polling_places":2,"approx":true,"official":false,"method":"voronoi-polling-places","whole_municipality":false,"approx_coords_only":false},"geometry":{"type":"MultiPolygon","coordinates":[[[[-42.36849,-21.70364],[-42.36574,-21.71058],[-42.33412,-21.74584],[-42.3335,-21.7458],[-42.2666,-21.7145],[-42.2733,-21.6779],[-42.3017,-21.655],[-42.3397,-21.6603],[-42.34123,-21.65947],[-42.34202,-21.65963],[-42.36849,-21.70364]]],[[[-42.35051,-21.66201],[-42.34447,-21.65947],[-42.34515,-21.6583],[-42.34673,-21.6583],[-42.34869,-21.65983],[-42.35051,-21.66201]]]]}}]}