{"type":"FeatureCollection","features":[{"type":"Feature","properties":{"territory_id":"mg-3151305-centro","name":"Centro","municipality_id":"mg-3151305","polling_places":4,"approx":true,"official":false,"method":"voronoi-polling-places","whole_municipality":false,"approx_coords_only":false},"geometry":{"type":"MultiPolygon","coordinates":[[[[-43.03395,-21.28485],[-43.02432,-21.27553],[-43.02349,-21.27503],[-43.01581,-21.28153],[-42.9932,-21.30925],[-42.9623,-21.3144],[-42.9264,-21.3028],[-42.9552,-21.2646],[-42.9704,-21.257],[-43.0242,-21.2063],[-43.031,-21.20781],[-43.02779,-21.25408],[-43.02815,-21.26717],[-43.03185,-21.27762],[-43.03313,-21.28054],[-43.03395,-21.28485]]]]}},{"type":"Feature","properties":{"territory_id":"mg-3151305-esplanada","name":"Esplanada","municipality_id":"mg-3151305","polling_places":1,"approx":true,"official":false,"method":"voronoi-polling-places","whole_municipality":false,"approx_coords_only":false},"geometry":{"type":"MultiPolygon","coordinates":[[[[-43.04095,-21.3145],[-43.0067,-21.307],[-42.9932,-21.30925],[-43.01581,-21.28153],[-43.02349,-21.27503],[-43.02432,-21.27553],[-43.03395,-21.28485],[-43.04095,-21.3145]]]]}},{"type":"Feature","properties":{"territory_id":"mg-3151305-piraubinha","name":"Piraubinha","municipality_id":"mg-3151305","polling_places":2,"approx":true,"official":false,"method":"voronoi-polling-places","whole_municipality":false,"approx_coords_only":false},"geometry":{"type":"MultiPolygon","coordinates":[[[[-43.1186,-21.2175],[-43.1033,-21.2646],[-43.073,-21.2907],[-43.046,-21.3156],[-43.04095,-21.3145],[-43.03395,-21.28485],[-43.03313,-21.28054],[-43.03185,-21.27762],[-43.02815,-21.26717],[-43.02779,-21.25408],[-43.031,-21.20781],[-43.0746,-21.2175],[-43.1038,-21.2011],[-43.1186,-21.2175]]]]}}]}