{"type":"FeatureCollection","features":[{"type":"Feature","properties":{"territory_id":"mg-3152006-centro","name":"Centro","municipality_id":"mg-3152006","polling_places":2,"approx":false,"official":true,"method":"official-ibge-cd2022","whole_municipality":false,"approx_coords_only":false,"official_name":"Centro","official_code":"3152006001","match":"direct"},"geometry":{"type":"MultiPolygon","coordinates":[[[[-45.00253,-19.22417],[-45.00362,-19.22294],[-45.00447,-19.22192],[-45.00517,-19.22025],[-45.00549,-19.21931],[-45.00611,-19.21856],[-45.00702,-19.21757],[-45.0067,-19.21722],[-45.00656,-19.21703],[-45.00633,-19.21682],[-45.00618,-19.21678],[-45.00517,-19.21578],[-45.00495,-19.2156],[-45.00481,-19.21531],[-45.00446,-19.21486],[-45.00421,-19.2147],[-45.00401,-19.21463],[-45.00381,-19.21459],[-45.00362,-19.21436],[-45.00361,-19.21384],[-45.00351,-19.21363],[-45.00335,-19.21347],[-45.00321,-19.2134],[-45.00282,-19.21328],[-45.00235,-19.21297],[-45.00204,-19.21272],[-45.00191,-19.21284],[-45.00132,-19.21353],[-45.00052,-19.21458],[-45.00027,-19.21441],[-44.99859,-19.21659],[-44.9973,-19.21825],[-44.99591,-19.22014],[-44.99432,-19.22058],[-44.99645,-19.2222],[-44.99559,-19.22417],[-44.99546,-19.22455],[-45.00023,-19.22435],[-45.00205,-19.22423],[-45.00253,-19.22417]]]]}},{"type":"Feature","properties":{"territory_id":"mg-3152006-cohab","name":"Cohab","municipality_id":"mg-3152006","polling_places":1,"approx":true,"official":false,"method":"voronoi-polling-places","whole_municipality":false,"approx_coords_only":false},"geometry":{"type":"MultiPolygon","coordinates":[[[[-45.00273,-19.14378],[-44.99662,-19.21918],[-44.99591,-19.22014],[-44.99432,-19.22058],[-44.99313,-19.21952],[-44.99197,-19.21826],[-44.99624,-19.21296],[-44.9962,-19.21292],[-44.99604,-19.21289],[-44.99589,-19.2128],[-44.99549,-19.21278],[-44.99508,-19.21254],[-44.99481,-19.2125],[-44.99457,-19.21255],[-44.99422,-19.21255],[-44.99359,-19.21262],[-44.99328,-19.21267],[-44.99314,-19.21266],[-44.99307,-19.21268],[-44.99276,-19.21301],[-44.99227,-19.21308],[-44.99189,-19.21288],[-44.9916,-19.21277],[-44.99108,-19.21269],[-44.99102,-19.21264],[-44.99032,-19.2124],[-44.99002,-19.21242],[-44.98985,-19.21264],[-44.98948,-19.21252],[-44.98941,-19.21252],[-44.98919,-19.21207],[-44.98907,-19.21179],[-44.98658,-19.21338],[-44.98576,-19.21393],[-44.98566,-19.21404],[-44.98401,-19.21419],[-44.98317,-19.21432],[-44.983,-19.2144],[-44.98303,-19.2145],[-44.98293,-19.2146],[-44.98305,-19.21498],[-44.98396,-19.21518],[-44.98383,-19.21531],[-44.98412,-19.21543],[-44.98507,-19.21503],[-44.98515,-19.21553],[-44.98503,-19.21567],[-44.98461,-19.21639],[-44.98455,-19.21709],[-44.98512,-19.21739],[-44.98555,-19.21772],[-44.98536,-19.21879],[-44.98522,-19.21938],[-44.98749,-19.22096],[-44.99035,-19.22298],[-44.99472,-19.226],[-44.99439,-19.22675],[-44.99392,-19.22791],[-44.99377,-19.22807],[-44.99355,-19.22837],[-44.99349,-19.22839],[-44.99275,-19.22829],[-44.99328,-19.22876],[-44.99332,-19.22885],[-44.99326,-19.2293],[-44.99322,-19.2294],[-44.9924,-19.23114],[-44.99205,-19.23201],[-44.99144,-19.23344],[-44.99024,-19.23605],[-44.99246,-19.23629],[-44.99427,-19.23653],[-44.99437,-19.23654],[-44.93419,-19.45115],[-44.9255,-19.4502],[-44.9168,-19.4746],[-44.8768,-19.4778],[-44.8173,-19.434],[-44.7964,-19.3768],[-44.7517,-19.3548],[-44.70482,-19.23357],[-45.00273,-19.14378]]],[[[-44.99572,-19.23022],[-44.99572,-19.23023],[-44.99528,-19.22992],[-44.99572,-19.23022]]]]}},{"type":"Feature","properties":{"territory_id":"mg-3152006-cristos","name":"Cristos","municipality_id":"mg-3152006","polling_places":1,"approx":true,"official":false,"method":"voronoi-polling-places","whole_municipality":false,"approx_coords_only":false},"geometry":{"type":"MultiPolygon","coordinates":[[[[-45.11258,-19.1742],[-45,-19.2301],[-45.00014,-19.2298],[-45.00013,-19.22972],[-45.00075,-19.22909],[-45.00112,-19.22881],[-45.00251,-19.22859],[-45.0026,-19.22821],[-45.00307,-19.22794],[-45.00436,-19.22735],[-45.0041,-19.22691],[-45.00447,-19.22658],[-45.00329,-19.22525],[-45.00271,-19.22466],[-45.00253,-19.22417],[-45.00362,-19.22294],[-45.00447,-19.22192],[-45.00517,-19.22025],[-45.00549,-19.21931],[-45.00611,-19.21856],[-45.00702,-19.21757],[-45.0067,-19.21722],[-45.00656,-19.21703],[-45.00633,-19.21682],[-45.00618,-19.21678],[-45.00517,-19.21578],[-45.00495,-19.2156],[-45.00481,-19.21531],[-45.00446,-19.21486],[-45.00421,-19.2147],[-45.00401,-19.21463],[-45.00381,-19.21459],[-45.00362,-19.21436],[-45.00361,-19.21384],[-45.00351,-19.21363],[-45.00335,-19.21347],[-45.00321,-19.2134],[-45.00282,-19.21328],[-45.00235,-19.21297],[-45.00204,-19.21272],[-45.00191,-19.21284],[-45.00132,-19.21353],[-45.00052,-19.21458],[-45.00027,-19.21441],[-44.99859,-19.21659],[-44.9973,-19.21825],[-44.99662,-19.21918],[-45.00273,-19.14378],[-45.0946,-19.10128],[-45.106,-19.1109],[-45.0955,-19.151],[-45.11258,-19.1742]]],[[[-44.99741,-19.23139],[-44.99594,-19.23038],[-44.99572,-19.23023],[-44.99572,-19.23022],[-44.99741,-19.23139]]]]}},{"type":"Feature","properties":{"territory_id":"mg-3152006-distrito-de-silva-campos","name":"Distrito de Silva Campos","municipality_id":"mg-3152006","polling_places":1,"approx":true,"official":false,"method":"voronoi-polling-places","whole_municipality":false,"approx_coords_only":false},"geometry":{"type":"MultiPolygon","coordinates":[[[[-45.1859,-18.8095],[-45.1627,-18.8581],[-45.1843,-18.8755],[-45.1844,-18.876],[-45.1678,-18.8907],[-45.1233,-18.8926],[-45.1249,-18.9379],[-45.1094,-18.9649],[-45.1186,-19.0573],[-45.0811,-19.0899],[-45.0946,-19.10128],[-45.00273,-19.14378],[-44.70482,-19.23357],[-44.6942,-19.2061],[-44.6711,-19.166],[-44.6782,-19.1412],[-44.7097,-19.1105],[-44.6828,-19.0576],[-44.7357,-19.0157],[-44.7512,-18.9858],[-44.7874,-18.9891],[-44.7799,-18.8734],[-44.8708,-18.8438],[-44.8914,-18.8622],[-44.9862,-18.8233],[-45.0557,-18.8217],[-45.0666,-18.8474],[-45.1328,-18.838],[-45.1605,-18.8076],[-45.1859,-18.8095]]]]}},{"type":"Feature","properties":{"territory_id":"mg-3152006-loteamento","name":"Loteamento","municipality_id":"mg-3152006","polling_places":1,"approx":true,"official":false,"method":"voronoi-polling-places","whole_municipality":false,"approx_coords_only":false},"geometry":{"type":"MultiPolygon","coordinates":[[[[-45.1393,-19.2105],[-45.1299,-19.278],[-45.0623,-19.3115],[-45.0605,-19.3722],[-45.0385,-19.4087],[-44.9935,-19.4422],[-44.9783,-19.456],[-44.93419,-19.45115],[-44.99437,-19.23654],[-44.99449,-19.23654],[-44.99516,-19.23635],[-44.99672,-19.23609],[-44.99667,-19.23647],[-45.00335,-19.23571],[-45.00328,-19.23556],[-45.00261,-19.23507],[-45.00004,-19.2333],[-44.99843,-19.23212],[-44.99978,-19.23061],[-45,-19.2301],[-45.11258,-19.1742],[-45.1393,-19.2105]]]]}},{"type":"Feature","properties":{"territory_id":"mg-3152006-trevo","name":"Trevo","municipality_id":"mg-3152006","polling_places":1,"approx":false,"official":true,"method":"official-ibge-cd2022","whole_municipality":false,"approx_coords_only":false,"official_name":"Trevo","official_code":"3152006014","match":"direct"},"geometry":{"type":"MultiPolygon","coordinates":[[[[-45.00023,-19.22435],[-44.99546,-19.22455],[-44.99559,-19.22417],[-44.99596,-19.22334],[-44.99451,-19.2223],[-44.99373,-19.22336],[-44.99334,-19.22403],[-44.99509,-19.22526],[-44.99472,-19.226],[-44.99439,-19.22675],[-44.99392,-19.22791],[-44.99385,-19.22846],[-44.99389,-19.22861],[-44.9941,-19.22901],[-44.99442,-19.2293],[-44.99528,-19.22992],[-44.99771,-19.2316],[-44.99843,-19.23213],[-44.99978,-19.23061],[-45.00014,-19.2298],[-45.00013,-19.22972],[-45.00075,-19.22909],[-45.00112,-19.22881],[-45.00251,-19.22859],[-45.0026,-19.22821],[-45.00307,-19.22794],[-45.00436,-19.22735],[-45.0041,-19.22691],[-45.00447,-19.22658],[-45.00329,-19.22525],[-45.00271,-19.22466],[-45.00253,-19.22417],[-45.00205,-19.22423],[-45.00023,-19.22435]]]]}},{"type":"Feature","properties":{"territory_id":"mg-3152006-varzea-das-flores","name":"Varzea das Flores","municipality_id":"mg-3152006","polling_places":1,"approx":false,"official":true,"method":"official-ibge-cd2022","whole_municipality":false,"approx_coords_only":false,"official_name":"Várzea das Flores","official_code":"3152006013","match":"direct"},"geometry":{"type":"MultiPolygon","coordinates":[[[[-44.99528,-19.22992],[-44.99442,-19.2293],[-44.9941,-19.22901],[-44.99389,-19.22861],[-44.99385,-19.22846],[-44.99392,-19.22791],[-44.99377,-19.22807],[-44.99355,-19.22837],[-44.99349,-19.22839],[-44.99275,-19.22829],[-44.99328,-19.22876],[-44.99332,-19.22885],[-44.99326,-19.2293],[-44.99322,-19.2294],[-44.9924,-19.23114],[-44.99205,-19.23201],[-44.99144,-19.23344],[-44.99024,-19.23605],[-44.99246,-19.23629],[-44.99427,-19.23653],[-44.99449,-19.23654],[-44.99516,-19.23635],[-44.99672,-19.23609],[-44.99667,-19.23647],[-45.00335,-19.23571],[-45.00328,-19.23556],[-45.00261,-19.23507],[-45.00004,-19.2333],[-44.99771,-19.2316],[-44.99594,-19.23038],[-44.99528,-19.22992]]]]}},{"type":"Feature","properties":{"territory_id":"mg-3152006-volta-do-brejo","name":"Volta do Brejo","municipality_id":"mg-3152006","polling_places":1,"approx":false,"official":true,"method":"official-ibge-cd2022","whole_municipality":false,"approx_coords_only":false,"official_name":"Volta do Brejo","official_code":"3152006009","match":"direct"},"geometry":{"type":"MultiPolygon","coordinates":[[[[-44.98566,-19.21404],[-44.98401,-19.21419],[-44.98317,-19.21432],[-44.983,-19.2144],[-44.98303,-19.2145],[-44.98293,-19.2146],[-44.98305,-19.21498],[-44.98396,-19.21518],[-44.98383,-19.21531],[-44.98412,-19.21543],[-44.98507,-19.21503],[-44.98515,-19.21553],[-44.98503,-19.21567],[-44.98461,-19.21639],[-44.98455,-19.21709],[-44.98512,-19.21739],[-44.98555,-19.21772],[-44.98536,-19.21879],[-44.98522,-19.21938],[-44.98749,-19.22096],[-44.99035,-19.22298],[-44.99472,-19.226],[-44.99509,-19.22526],[-44.99334,-19.22403],[-44.99373,-19.22336],[-44.99451,-19.2223],[-44.99596,-19.22334],[-44.99645,-19.2222],[-44.99432,-19.22058],[-44.99313,-19.21952],[-44.99197,-19.21826],[-44.99624,-19.21296],[-44.9962,-19.21292],[-44.99604,-19.21289],[-44.99589,-19.2128],[-44.99549,-19.21278],[-44.99508,-19.21254],[-44.99481,-19.2125],[-44.99457,-19.21255],[-44.99422,-19.21255],[-44.99359,-19.21262],[-44.99328,-19.21267],[-44.99314,-19.21266],[-44.99307,-19.21268],[-44.99276,-19.21301],[-44.99227,-19.21308],[-44.99189,-19.21288],[-44.9916,-19.21277],[-44.99108,-19.21269],[-44.99102,-19.21264],[-44.99032,-19.2124],[-44.99002,-19.21242],[-44.98985,-19.21264],[-44.98948,-19.21252],[-44.98941,-19.21252],[-44.98919,-19.21207],[-44.98907,-19.21179],[-44.98658,-19.21338],[-44.98576,-19.21393],[-44.98566,-19.21404]]]]}}]}