{"type":"FeatureCollection","features":[{"type":"Feature","properties":{"territory_id":"mg-3152907-centro","name":"Centro","municipality_id":"mg-3152907","polling_places":2,"approx":true,"official":false,"method":"voronoi-polling-places","whole_municipality":false,"approx_coords_only":false},"geometry":{"type":"MultiPolygon","coordinates":[[[[-46.9631,-20.7932],[-46.95436,-20.79919],[-46.8606,-20.74657],[-46.82508,-20.77629],[-46.80509,-20.76775],[-46.85791,-20.74262],[-46.87385,-20.72029],[-46.9005,-20.7302],[-46.9372,-20.7578],[-46.9631,-20.7932]]]]}},{"type":"Feature","properties":{"territory_id":"mg-3152907-jardim-sandra","name":"Jardim Sandra","municipality_id":"mg-3152907","polling_places":1,"approx":true,"official":false,"method":"voronoi-polling-places","whole_municipality":false,"approx_coords_only":false},"geometry":{"type":"MultiPolygon","coordinates":[[[[-46.95436,-20.79919],[-46.92281,-20.82081],[-46.82508,-20.77629],[-46.8606,-20.74657],[-46.95436,-20.79919]]]]}},{"type":"Feature","properties":{"territory_id":"mg-3152907-novo-horizonte","name":"Novo Horizonte","municipality_id":"mg-3152907","polling_places":1,"approx":true,"official":false,"method":"voronoi-polling-places","whole_municipality":false,"approx_coords_only":false},"geometry":{"type":"MultiPolygon","coordinates":[[[[-46.87385,-20.72029],[-46.85791,-20.74262],[-46.80509,-20.76775],[-46.79848,-20.76549],[-46.7945,-20.7507],[-46.8412,-20.6813],[-46.8478,-20.7106],[-46.87385,-20.72029]]]]}},{"type":"Feature","properties":{"territory_id":"mg-3152907-tres-fontes","name":"Tres Fontes","municipality_id":"mg-3152907","polling_places":1,"approx":true,"official":false,"method":"voronoi-polling-places","whole_municipality":false,"approx_coords_only":false},"geometry":{"type":"MultiPolygon","coordinates":[[[[-46.92281,-20.82081],[-46.9199,-20.8228],[-46.8746,-20.8857],[-46.8368,-20.8213],[-46.8094,-20.8124],[-46.7635,-20.85],[-46.7467,-20.8327],[-46.8034,-20.7838],[-46.79848,-20.76549],[-46.80509,-20.76775],[-46.82508,-20.77629],[-46.92281,-20.82081]]]]}}]}