{"type":"FeatureCollection","features":[{"type":"Feature","properties":{"territory_id":"mg-3152501-alfredo-custodio-de-paula","name":"Alfredo Custodio de Paula","municipality_id":"mg-3152501","polling_places":1,"approx":true,"official":false,"method":"voronoi-polling-places","whole_municipality":false,"approx_coords_only":false},"geometry":{"type":"MultiPolygon","coordinates":[[[[-45.93444,-22.22649],[-45.931,-22.23],[-45.92856,-22.23163],[-45.92846,-22.22039],[-45.93444,-22.22649]]]]}},{"type":"Feature","properties":{"territory_id":"mg-3152501-algodao","name":"Algodao","municipality_id":"mg-3152501","polling_places":1,"approx":true,"official":false,"method":"voronoi-polling-places","whole_municipality":false,"approx_coords_only":false},"geometry":{"type":"MultiPolygon","coordinates":[[[[-45.96862,-22.32245],[-45.92609,-22.40974],[-45.9194,-22.4082],[-45.90277,-22.38737],[-45.91773,-22.32166],[-45.96832,-22.31728],[-45.96862,-22.32245]]]]}},{"type":"Feature","properties":{"territory_id":"mg-3152501-anhumas","name":"Anhumas","municipality_id":"mg-3152501","polling_places":1,"approx":true,"official":false,"method":"voronoi-polling-places","whole_municipality":false,"approx_coords_only":false},"geometry":{"type":"MultiPolygon","coordinates":[[[[-46.0639,-22.2781],[-46.04872,-22.30273],[-45.97791,-22.30099],[-45.97511,-22.29302],[-46.00485,-22.21242],[-46.0444,-22.2312],[-46.0639,-22.2781]]]]}},{"type":"Feature","properties":{"territory_id":"mg-3152501-bela-italia","name":"Bela Italia","municipality_id":"mg-3152501","polling_places":1,"approx":true,"official":false,"method":"voronoi-polling-places","whole_municipality":false,"approx_coords_only":false},"geometry":{"type":"MultiPolygon","coordinates":[[[[-45.93218,-22.1686],[-45.92409,-22.20072],[-45.9042,-22.21661],[-45.87311,-22.20687],[-45.8695,-22.20269],[-45.83684,-22.14841],[-45.93218,-22.1686]]]]}},{"type":"Feature","properties":{"territory_id":"mg-3152501-belo-horizonte","name":"Belo Horizonte","municipality_id":"mg-3152501","polling_places":1,"approx":true,"official":false,"method":"voronoi-polling-places","whole_municipality":false,"approx_coords_only":false},"geometry":{"type":"MultiPolygon","coordinates":[[[[-45.91055,-22.23967],[-45.90482,-22.24544],[-45.89072,-22.25548],[-45.87564,-22.21386],[-45.876,-22.2135],[-45.87476,-22.21144],[-45.87311,-22.20687],[-45.9042,-22.21661],[-45.90829,-22.22855],[-45.91055,-22.23967]]]]}},{"type":"Feature","properties":{"territory_id":"mg-3152501-centro","name":"Centro","municipality_id":"mg-3152501","polling_places":11,"approx":true,"official":false,"method":"voronoi-polling-places","whole_municipality":false,"approx_coords_only":false},"geometry":{"type":"MultiPolygon","coordinates":[[[[-45.94647,-22.23595],[-45.93869,-22.24173],[-45.93815,-22.24053],[-45.93519,-22.23689],[-45.93393,-22.23553],[-45.93369,-22.23533],[-45.9279,-22.23259],[-45.92856,-22.23163],[-45.931,-22.23],[-45.93444,-22.22649],[-45.93477,-22.22636],[-45.9379,-22.22404],[-45.93984,-22.22107],[-45.94238,-22.22094],[-45.94153,-22.23083],[-45.9416,-22.23099],[-45.94403,-22.23213],[-45.9442,-22.23217],[-45.94647,-22.23595]]]]}},{"type":"Feature","properties":{"territory_id":"mg-3152501-cervo","name":"Cervo","municipality_id":"mg-3152501","polling_places":1,"approx":true,"official":false,"method":"voronoi-polling-places","whole_municipality":false,"approx_coords_only":false},"geometry":{"type":"MultiPolygon","coordinates":[[[[-45.98178,-22.15813],[-45.93218,-22.1686],[-45.83684,-22.14841],[-45.8171,-22.1156],[-45.9036,-22.1105],[-45.9599,-22.1274],[-45.98178,-22.15813]]]]}},{"type":"Feature","properties":{"territory_id":"mg-3152501-cidade-jardim","name":"Cidade Jardim","municipality_id":"mg-3152501","polling_places":1,"approx":true,"official":false,"method":"voronoi-polling-places","whole_municipality":false,"approx_coords_only":false},"geometry":{"type":"MultiPolygon","coordinates":[[[[-45.89072,-22.25548],[-45.88707,-22.26436],[-45.85375,-22.29871],[-45.84773,-22.30041],[-45.8418,-22.2841],[-45.8539,-22.2356],[-45.87564,-22.21386],[-45.89072,-22.25548]]],[[[-45.87476,-22.21144],[-45.8695,-22.20269],[-45.87311,-22.20687],[-45.87476,-22.21144]]]]}},{"type":"Feature","properties":{"territory_id":"mg-3152501-conj-hab-dr-custodio-ribeiro-miranda-ii","name":"Conj Hab Dr Custodio Ribeiro Miranda Ii","municipality_id":"mg-3152501","polling_places":1,"approx":true,"official":false,"method":"voronoi-polling-places","whole_municipality":false,"approx_coords_only":false},"geometry":{"type":"MultiPolygon","coordinates":[[[[-45.91991,-22.28609],[-45.89066,-22.30956],[-45.85375,-22.29871],[-45.88707,-22.26436],[-45.90088,-22.26753],[-45.91991,-22.28609]]]]}},{"type":"Feature","properties":{"territory_id":"mg-3152501-fatima-i","name":"Fatima I","municipality_id":"mg-3152501","polling_places":2,"approx":true,"official":false,"method":"voronoi-polling-places","whole_municipality":false,"approx_coords_only":false},"geometry":{"type":"MultiPolygon","coordinates":[[[[-45.92635,-22.21084],[-45.92629,-22.21117],[-45.92617,-22.21259],[-45.91571,-22.23806],[-45.91498,-22.23869],[-45.91055,-22.23967],[-45.90829,-22.22855],[-45.9042,-22.21661],[-45.92409,-22.20072],[-45.92635,-22.21084]]]]}},{"type":"Feature","properties":{"territory_id":"mg-3152501-ferreiras","name":"Ferreiras","municipality_id":"mg-3152501","polling_places":1,"approx":true,"official":false,"method":"voronoi-polling-places","whole_municipality":false,"approx_coords_only":false},"geometry":{"type":"MultiPolygon","coordinates":[[[[-45.91773,-22.32166],[-45.90277,-22.38737],[-45.8921,-22.374],[-45.8513,-22.3536],[-45.8554,-22.3215],[-45.84773,-22.30041],[-45.85375,-22.29871],[-45.89066,-22.30956],[-45.91773,-22.32166]]]]}},{"type":"Feature","properties":{"territory_id":"mg-3152501-jardim-america","name":"Jardim America","municipality_id":"mg-3152501","polling_places":1,"approx":true,"official":false,"method":"voronoi-polling-places","whole_municipality":false,"approx_coords_only":false},"geometry":{"type":"MultiPolygon","coordinates":[[[[-45.96973,-22.20971],[-45.96195,-22.22583],[-45.95236,-22.23722],[-45.94647,-22.23595],[-45.9442,-22.23217],[-45.9503,-22.21932],[-45.96973,-22.20971]]]]}},{"type":"Feature","properties":{"territory_id":"mg-3152501-jardim-esplanada","name":"Jardim Esplanada","municipality_id":"mg-3152501","polling_places":1,"approx":true,"official":false,"method":"voronoi-polling-places","whole_municipality":false,"approx_coords_only":false},"geometry":{"type":"MultiPolygon","coordinates":[[[[-45.99163,-22.18673],[-45.96973,-22.20971],[-45.9503,-22.21932],[-45.94238,-22.22094],[-45.93984,-22.22107],[-45.92635,-22.21084],[-45.92409,-22.20072],[-45.93218,-22.1686],[-45.98178,-22.15813],[-45.9891,-22.1684],[-45.99163,-22.18673]]]]}},{"type":"Feature","properties":{"territory_id":"mg-3152501-jardim-olimpico","name":"Jardim Olimpico","municipality_id":"mg-3152501","polling_places":1,"approx":true,"official":false,"method":"voronoi-polling-places","whole_municipality":false,"approx_coords_only":false},"geometry":{"type":"MultiPolygon","coordinates":[[[[-45.92838,-22.25268],[-45.92382,-22.25672],[-45.90482,-22.24544],[-45.91055,-22.23967],[-45.91498,-22.23869],[-45.92301,-22.24308],[-45.92838,-22.25268]]]]}},{"type":"Feature","properties":{"territory_id":"mg-3152501-jardim-shangrila","name":"Jardim Shangrila","municipality_id":"mg-3152501","polling_places":1,"approx":true,"official":false,"method":"voronoi-polling-places","whole_municipality":false,"approx_coords_only":false},"geometry":{"type":"MultiPolygon","coordinates":[[[[-45.92934,-22.27172],[-45.90088,-22.26753],[-45.88707,-22.26436],[-45.89072,-22.25548],[-45.90482,-22.24544],[-45.92382,-22.25672],[-45.92934,-22.27172]]]]}},{"type":"Feature","properties":{"territory_id":"mg-3152501-jardim-yara","name":"Jardim Yara","municipality_id":"mg-3152501","polling_places":1,"approx":true,"official":false,"method":"voronoi-polling-places","whole_municipality":false,"approx_coords_only":false},"geometry":{"type":"MultiPolygon","coordinates":[[[[-45.95549,-22.27166],[-45.94607,-22.26029],[-45.93807,-22.24511],[-45.93869,-22.24173],[-45.94647,-22.23595],[-45.95236,-22.23722],[-45.95549,-22.27166]]]]}},{"type":"Feature","properties":{"territory_id":"mg-3152501-joao-paulo-ii","name":"Joao Paulo Ii","municipality_id":"mg-3152501","polling_places":1,"approx":true,"official":false,"method":"voronoi-polling-places","whole_municipality":false,"approx_coords_only":false},"geometry":{"type":"MultiPolygon","coordinates":[[[[-45.93984,-22.22107],[-45.9379,-22.22404],[-45.93477,-22.22636],[-45.93444,-22.22649],[-45.92846,-22.22039],[-45.92617,-22.21259],[-45.92629,-22.21117],[-45.92635,-22.21084],[-45.93984,-22.22107]]]]}},{"type":"Feature","properties":{"territory_id":"mg-3152501-macaranduba","name":"Maçaranduba","municipality_id":"mg-3152501","polling_places":1,"approx":true,"official":false,"method":"voronoi-polling-places","whole_municipality":false,"approx_coords_only":false},"geometry":{"type":"MultiPolygon","coordinates":[[[[-46.01566,-22.39399],[-46.0073,-22.4062],[-45.9473,-22.4146],[-45.92609,-22.40974],[-45.96862,-22.32245],[-46.01566,-22.39399]]]]}},{"type":"Feature","properties":{"territory_id":"mg-3152501-nossa-senhora-guadalupe","name":"Nossa Senhora Guadalupe","municipality_id":"mg-3152501","polling_places":1,"approx":true,"official":false,"method":"voronoi-polling-places","whole_municipality":false,"approx_coords_only":false},"geometry":{"type":"MultiPolygon","coordinates":[[[[-46.00485,-22.21242],[-45.97511,-22.29302],[-45.96702,-22.28586],[-45.96195,-22.22583],[-45.96973,-22.20971],[-45.99163,-22.18673],[-45.9945,-22.2075],[-46.00485,-22.21242]]]]}},{"type":"Feature","properties":{"territory_id":"mg-3152501-nova-pouso-alegre","name":"Nova Pouso Alegre","municipality_id":"mg-3152501","polling_places":1,"approx":true,"official":false,"method":"voronoi-polling-places","whole_municipality":false,"approx_coords_only":false},"geometry":{"type":"MultiPolygon","coordinates":[[[[-45.92856,-22.23163],[-45.9279,-22.23259],[-45.91571,-22.23806],[-45.92617,-22.21259],[-45.92846,-22.22039],[-45.92856,-22.23163]]]]}},{"type":"Feature","properties":{"territory_id":"mg-3152501-parque-real","name":"Parque Real","municipality_id":"mg-3152501","polling_places":1,"approx":true,"official":false,"method":"voronoi-polling-places","whole_municipality":false,"approx_coords_only":false},"geometry":{"type":"MultiPolygon","coordinates":[[[[-45.97791,-22.30099],[-45.96832,-22.31728],[-45.91773,-22.32166],[-45.89066,-22.30956],[-45.91991,-22.28609],[-45.94358,-22.27751],[-45.96007,-22.28063],[-45.96702,-22.28586],[-45.97511,-22.29302],[-45.97791,-22.30099]]]]}},{"type":"Feature","properties":{"territory_id":"mg-3152501-santa-cruz","name":"Santa Cruz","municipality_id":"mg-3152501","polling_places":1,"approx":true,"official":false,"method":"voronoi-polling-places","whole_municipality":false,"approx_coords_only":false},"geometry":{"type":"MultiPolygon","coordinates":[[[[-45.9503,-22.21932],[-45.9442,-22.23217],[-45.94403,-22.23213],[-45.9416,-22.23099],[-45.94153,-22.23083],[-45.94238,-22.22094],[-45.9503,-22.21932]]]]}},{"type":"Feature","properties":{"territory_id":"mg-3152501-sao-carlos","name":"Sao Carlos","municipality_id":"mg-3152501","polling_places":1,"approx":true,"official":false,"method":"voronoi-polling-places","whole_municipality":false,"approx_coords_only":false},"geometry":{"type":"MultiPolygon","coordinates":[[[[-45.96007,-22.28063],[-45.94358,-22.27751],[-45.92934,-22.27172],[-45.92382,-22.25672],[-45.92838,-22.25268],[-45.94607,-22.26029],[-45.95549,-22.27166],[-45.96007,-22.28063]]]]}},{"type":"Feature","properties":{"territory_id":"mg-3152501-sao-cristovao","name":"Sao Cristovao","municipality_id":"mg-3152501","polling_places":1,"approx":true,"official":false,"method":"voronoi-polling-places","whole_municipality":false,"approx_coords_only":false},"geometry":{"type":"MultiPolygon","coordinates":[[[[-45.94358,-22.27751],[-45.91991,-22.28609],[-45.90088,-22.26753],[-45.92934,-22.27172],[-45.94358,-22.27751]]]]}},{"type":"Feature","properties":{"territory_id":"mg-3152501-sao-geraldo","name":"Sao Geraldo","municipality_id":"mg-3152501","polling_places":2,"approx":true,"official":false,"method":"voronoi-polling-places","whole_municipality":false,"approx_coords_only":false},"geometry":{"type":"MultiPolygon","coordinates":[[[[-45.94607,-22.26029],[-45.92838,-22.25268],[-45.92301,-22.24308],[-45.91498,-22.23869],[-45.91571,-22.23806],[-45.9279,-22.23259],[-45.93369,-22.23533],[-45.93393,-22.23553],[-45.93519,-22.23689],[-45.93815,-22.24053],[-45.93869,-22.24173],[-45.93807,-22.24511],[-45.94607,-22.26029]]]]}},{"type":"Feature","properties":{"territory_id":"mg-3152501-sao-joao","name":"Sao Joao","municipality_id":"mg-3152501","polling_places":1,"approx":true,"official":false,"method":"voronoi-polling-places","whole_municipality":false,"approx_coords_only":false},"geometry":{"type":"MultiPolygon","coordinates":[[[[-45.96702,-22.28586],[-45.96007,-22.28063],[-45.95549,-22.27166],[-45.95236,-22.23722],[-45.96195,-22.22583],[-45.96702,-22.28586]]]]}},{"type":"Feature","properties":{"territory_id":"mg-3152501-sao-jose-do-pantano","name":"Sao Jose do Pantano","municipality_id":"mg-3152501","polling_places":1,"approx":true,"official":false,"method":"voronoi-polling-places","whole_municipality":false,"approx_coords_only":false},"geometry":{"type":"MultiPolygon","coordinates":[[[[-46.04872,-22.30273],[-46.0411,-22.3151],[-46.0385,-22.3606],[-46.01566,-22.39399],[-45.96862,-22.32245],[-45.96832,-22.31728],[-45.97791,-22.30099],[-46.04872,-22.30273]]]]}}]}