{"type":"FeatureCollection","features":[{"type":"Feature","properties":{"territory_id":"mg-3152131-centro","name":"Centro","municipality_id":"mg-3152131","polling_places":2,"approx":true,"official":false,"method":"voronoi-polling-places","whole_municipality":false,"approx_coords_only":false},"geometry":{"type":"MultiPolygon","coordinates":[[[[-45.10914,-16.54685],[-45.1047,-16.5654],[-45.0729,-16.6246],[-45.07316,-16.62682],[-45.06144,-16.63243],[-44.98541,-16.7296],[-44.97594,-16.70243],[-44.98297,-16.57978],[-45.05501,-16.56141],[-45.10914,-16.54685]]]]}},{"type":"Feature","properties":{"territory_id":"mg-3152131-repartimento","name":"Repartimento","municipality_id":"mg-3152131","polling_places":1,"approx":true,"official":false,"method":"voronoi-polling-places","whole_municipality":false,"approx_coords_only":false},"geometry":{"type":"MultiPolygon","coordinates":[[[[-45.0782,-16.6691],[-45.0567,-16.6877],[-45.0098,-16.7002],[-45.0022,-16.7258],[-45.0203,-16.7541],[-44.99317,-16.75307],[-44.98541,-16.7296],[-45.06144,-16.63243],[-45.07316,-16.62682],[-45.0782,-16.6691]]]]}},{"type":"Feature","properties":{"territory_id":"mg-3152131-zona-rural","name":"Zona Rural","municipality_id":"mg-3152131","polling_places":3,"approx":true,"official":false,"method":"voronoi-polling-places","whole_municipality":false,"approx_coords_only":false},"geometry":{"type":"MultiPolygon","coordinates":[[[[-45.1173,-16.5128],[-45.10914,-16.54685],[-45.05501,-16.56141],[-44.98297,-16.57978],[-44.97594,-16.70243],[-44.98541,-16.7296],[-44.99317,-16.75307],[-44.9807,-16.7526],[-44.9385,-16.7258],[-44.8861,-16.7214],[-44.8538,-16.6984],[-44.8112,-16.6491],[-44.8273,-16.6094],[-44.7983,-16.5896],[-44.7991,-16.5309],[-44.8907,-16.6001],[-44.9425,-16.5771],[-44.9721,-16.5486],[-44.9506,-16.5077],[-44.9625,-16.4933],[-45.0191,-16.4795],[-45.0342,-16.4529],[-45.0671,-16.4722],[-45.1153,-16.4814],[-45.1173,-16.5128]]]]}}]}