{"type":"FeatureCollection","features":[{"type":"Feature","properties":{"territory_id":"mg-3152808-centro","name":"Centro","municipality_id":"mg-3152808","polling_places":5,"approx":true,"official":false,"method":"voronoi-polling-places","whole_municipality":false,"approx_coords_only":false},"geometry":{"type":"MultiPolygon","coordinates":[[[[-48.93347,-19.31029],[-48.92951,-19.31518],[-48.92042,-19.31282],[-48.9196,-19.31195],[-48.91885,-19.31141],[-48.91226,-19.30934],[-48.91654,-19.30394],[-48.92595,-19.29803],[-48.92782,-19.2961],[-48.93228,-19.29019],[-48.93229,-19.30738],[-48.93347,-19.31029]]]]}},{"type":"Feature","properties":{"territory_id":"mg-3152808-cruzeiro-do-sul","name":"Cruzeiro do Sul","municipality_id":"mg-3152808","polling_places":1,"approx":true,"official":false,"method":"voronoi-polling-places","whole_municipality":false,"approx_coords_only":false},"geometry":{"type":"MultiPolygon","coordinates":[[[[-48.99331,-19.57072],[-48.98864,-19.57717],[-48.9597,-19.574],[-48.93623,-19.57804],[-48.92042,-19.31282],[-48.92951,-19.31518],[-48.99331,-19.57072]]]]}},{"type":"Feature","properties":{"territory_id":"mg-3152808-distrito-jardinesia","name":"Distrito Jardinésia","municipality_id":"mg-3152808","polling_places":1,"approx":true,"official":false,"method":"voronoi-polling-places","whole_municipality":false,"approx_coords_only":false},"geometry":{"type":"MultiPolygon","coordinates":[[[[-48.81257,-19.112],[-48.77935,-19.366],[-48.74652,-19.5055],[-48.47697,-19.31766],[-48.5733,-19.2291],[-48.6455,-19.209],[-48.6723,-19.1894],[-48.7246,-19.1806],[-48.81257,-19.112]]]]}},{"type":"Feature","properties":{"territory_id":"mg-3152808-distrito-patrimonio-do-rio-do-peixe","name":"Distrito Patrimonio do Rio do Peixe","municipality_id":"mg-3152808","polling_places":1,"approx":true,"official":false,"method":"voronoi-polling-places","whole_municipality":false,"approx_coords_only":false},"geometry":{"type":"MultiPolygon","coordinates":[[[[-48.79441,-19.6041],[-48.7933,-19.6044],[-48.745,-19.6],[-48.749,-19.5555],[-48.6901,-19.5341],[-48.6055,-19.5384],[-48.5918,-19.5508],[-48.5458,-19.5425],[-48.5152,-19.5198],[-48.4945,-19.5294],[-48.4438,-19.5161],[-48.4092,-19.4833],[-48.4174,-19.4598],[-48.3993,-19.4103],[-48.4403,-19.3914],[-48.4764,-19.3462],[-48.4654,-19.3283],[-48.47697,-19.31766],[-48.74652,-19.5055],[-48.79441,-19.6041]]]]}},{"type":"Feature","properties":{"territory_id":"mg-3152808-distrito-povoado-de-monjolinho","name":"Distrito Povoado de Monjolinho","municipality_id":"mg-3152808","polling_places":1,"approx":true,"official":false,"method":"voronoi-polling-places","whole_municipality":false,"approx_coords_only":false},"geometry":{"type":"MultiPolygon","coordinates":[[[[-49.422,-19.2629],[-49.3505,-19.3201],[-49.3628,-19.3589],[-49.3483,-19.397],[-49.3072,-19.4176],[-49.3025,-19.4447],[-49.3567,-19.4914],[-49.3651,-19.5391],[-49.2963,-19.5386],[-49.2834,-19.5507],[-49.1635,-19.6035],[-49.0995,-19.5981],[-49.0845,-19.5778],[-49.0328,-19.582],[-48.98864,-19.57717],[-48.99331,-19.57072],[-49.15866,-19.35241],[-49.22223,-19.2726],[-49.41504,-19.24693],[-49.422,-19.2629]]]]}},{"type":"Feature","properties":{"territory_id":"mg-3152808-distrito-tres-barras","name":"Distrito Três Barras","municipality_id":"mg-3152808","polling_places":1,"approx":true,"official":false,"method":"voronoi-polling-places","whole_municipality":false,"approx_coords_only":false},"geometry":{"type":"MultiPolygon","coordinates":[[[[-49.41504,-19.24693],[-49.22223,-19.2726],[-48.99746,-19.10138],[-48.95288,-19.06117],[-48.9825,-19.0515],[-48.9976,-19.0511],[-49.063,-19.002],[-49.0745,-18.9785],[-49.1417,-18.9589],[-49.1516,-18.9437],[-49.2257,-18.9358],[-49.2287,-18.9899],[-49.1964,-19.057],[-49.2278,-19.0777],[-49.2274,-19.1225],[-49.2495,-19.1357],[-49.3055,-19.1382],[-49.3148,-19.1249],[-49.3767,-19.1245],[-49.3768,-19.1591],[-49.41504,-19.24693]]]]}},{"type":"Feature","properties":{"territory_id":"mg-3152808-jardim-ana-carolina","name":"Jardim Ana Carolina","municipality_id":"mg-3152808","polling_places":1,"approx":true,"official":false,"method":"voronoi-polling-places","whole_municipality":false,"approx_coords_only":false},"geometry":{"type":"MultiPolygon","coordinates":[[[[-49.22223,-19.2726],[-49.15866,-19.35241],[-48.93347,-19.31029],[-48.93229,-19.30738],[-48.93228,-19.29019],[-48.97731,-19.15354],[-48.99746,-19.10138],[-49.22223,-19.2726]]]]}},{"type":"Feature","properties":{"territory_id":"mg-3152808-jardim-gabriela","name":"Jardim Gabriela","municipality_id":"mg-3152808","polling_places":1,"approx":true,"official":false,"method":"voronoi-polling-places","whole_municipality":false,"approx_coords_only":false},"geometry":{"type":"MultiPolygon","coordinates":[[[[-48.93623,-19.57804],[-48.9074,-19.583],[-48.8625,-19.619],[-48.844,-19.5905],[-48.79441,-19.6041],[-48.74652,-19.5055],[-48.77935,-19.366],[-48.90232,-19.30992],[-48.91226,-19.30934],[-48.91885,-19.31141],[-48.9196,-19.31195],[-48.92042,-19.31282],[-48.93623,-19.57804]]]]}},{"type":"Feature","properties":{"territory_id":"mg-3152808-oliveira","name":"Oliveira","municipality_id":"mg-3152808","polling_places":1,"approx":true,"official":false,"method":"voronoi-polling-places","whole_municipality":false,"approx_coords_only":false},"geometry":{"type":"MultiPolygon","coordinates":[[[[-48.92102,-19.2761],[-48.91654,-19.30394],[-48.91226,-19.30934],[-48.90232,-19.30992],[-48.92102,-19.2761]]]]}},{"type":"Feature","properties":{"territory_id":"mg-3152808-primavera","name":"Primavera","municipality_id":"mg-3152808","polling_places":1,"approx":true,"official":false,"method":"voronoi-polling-places","whole_municipality":false,"approx_coords_only":false},"geometry":{"type":"MultiPolygon","coordinates":[[[[-49.15866,-19.35241],[-48.99331,-19.57072],[-48.92951,-19.31518],[-48.93347,-19.31029],[-49.15866,-19.35241]]]]}},{"type":"Feature","properties":{"territory_id":"mg-3152808-progresso","name":"Progresso","municipality_id":"mg-3152808","polling_places":1,"approx":true,"official":false,"method":"voronoi-polling-places","whole_municipality":false,"approx_coords_only":false},"geometry":{"type":"MultiPolygon","coordinates":[[[[-48.99746,-19.10138],[-48.97731,-19.15354],[-48.92102,-19.2761],[-48.90232,-19.30992],[-48.77935,-19.366],[-48.81257,-19.112],[-48.8236,-19.1034],[-48.95288,-19.06117],[-48.99746,-19.10138]]]]}},{"type":"Feature","properties":{"territory_id":"mg-3152808-rodoviario","name":"Rodoviário","municipality_id":"mg-3152808","polling_places":1,"approx":true,"official":false,"method":"voronoi-polling-places","whole_municipality":false,"approx_coords_only":false},"geometry":{"type":"MultiPolygon","coordinates":[[[[-48.97731,-19.15354],[-48.93228,-19.29019],[-48.92782,-19.2961],[-48.92595,-19.29803],[-48.91654,-19.30394],[-48.92102,-19.2761],[-48.97731,-19.15354]]]]}}]}