{"type":"FeatureCollection","features":[{"type":"Feature","properties":{"territory_id":"mg-3152303-centro","name":"Centro","municipality_id":"mg-3152303","polling_places":4,"approx":true,"official":false,"method":"voronoi-polling-places","whole_municipality":false,"approx_coords_only":false},"geometry":{"type":"MultiPolygon","coordinates":[[[[-43.16412,-20.67523],[-43.1632,-20.7243],[-43.0996,-20.7076],[-43.0695,-20.7267],[-43.06448,-20.73331],[-43.06445,-20.73325],[-43.04762,-20.70113],[-43.03593,-20.67908],[-43.02025,-20.6513],[-43.0197,-20.6003],[-43.0344,-20.5994],[-43.11978,-20.6512],[-43.16412,-20.67523]]]]}},{"type":"Feature","properties":{"territory_id":"mg-3152303-zona-rural","name":"Zona Rural","municipality_id":"mg-3152303","polling_places":3,"approx":true,"official":false,"method":"voronoi-polling-places","whole_municipality":false,"approx_coords_only":false},"geometry":{"type":"MultiPolygon","coordinates":[[[[-43.1867,-20.5858],[-43.1644,-20.6602],[-43.16412,-20.67523],[-43.11978,-20.6512],[-43.0344,-20.5994],[-43.0605,-20.5978],[-43.0795,-20.5815],[-43.1167,-20.601],[-43.138,-20.5618],[-43.1867,-20.5858]]],[[[-43.06448,-20.73331],[-43.0361,-20.7707],[-42.9969,-20.7564],[-43.0024,-20.7076],[-42.9672,-20.6781],[-42.9732,-20.6581],[-43.0203,-20.6555],[-43.02025,-20.6513],[-43.03593,-20.67908],[-43.04762,-20.70113],[-43.06445,-20.73325],[-43.06448,-20.73331]]]]}}]}