{"type":"FeatureCollection","features":[{"type":"Feature","properties":{"territory_id":"mg-3152402-centro","name":"Centro","municipality_id":"mg-3152402","polling_places":6,"approx":true,"official":false,"method":"voronoi-polling-places","whole_municipality":false,"approx_coords_only":false},"geometry":{"type":"MultiPolygon","coordinates":[[[[-41.83754,-17.74838],[-41.82529,-17.82322],[-41.81137,-17.93741],[-41.7993,-17.9396],[-41.7617,-17.9152],[-41.6655,-17.9133],[-41.64034,-17.88774],[-41.69558,-17.81764],[-41.65515,-17.77622],[-41.6722,-17.7365],[-41.6462,-17.7164],[-41.633,-17.6784],[-41.6708,-17.6838],[-41.7502,-17.723],[-41.7863,-17.7263],[-41.83754,-17.74838]]]]}},{"type":"Feature","properties":{"territory_id":"mg-3152402-distrito-de-valao","name":"Distrito de Valao","municipality_id":"mg-3152402","polling_places":1,"approx":true,"official":false,"method":"voronoi-polling-places","whole_municipality":false,"approx_coords_only":false},"geometry":{"type":"MultiPolygon","coordinates":[[[[-41.69558,-17.81764],[-41.64034,-17.88774],[-41.6345,-17.8818],[-41.6357,-17.8453],[-41.6026,-17.8041],[-41.6473,-17.7945],[-41.65515,-17.77622],[-41.69558,-17.81764]]]]}},{"type":"Feature","properties":{"territory_id":"mg-3152402-zona-rural","name":"Zona Rural","municipality_id":"mg-3152402","polling_places":1,"approx":true,"official":false,"method":"voronoi-polling-places","whole_municipality":false,"approx_coords_only":false},"geometry":{"type":"MultiPolygon","coordinates":[[[[-41.9902,-17.7561],[-41.9498,-17.7764],[-41.9201,-17.769],[-41.9176,-17.853],[-41.8717,-17.8601],[-41.8761,-17.894],[-41.8401,-17.9322],[-41.81137,-17.93741],[-41.82529,-17.82322],[-41.83754,-17.74838],[-41.8399,-17.7494],[-41.8617,-17.7377],[-41.9902,-17.7561]]]]}}]}