{"type":"FeatureCollection","features":[{"type":"Feature","properties":{"territory_id":"mg-3152170-boa-vista-de-santana","name":"Boa Vista de Santana","municipality_id":"mg-3152170","polling_places":1,"approx":true,"official":false,"method":"voronoi-polling-places","whole_municipality":false,"approx_coords_only":false},"geometry":{"type":"MultiPolygon","coordinates":[[[[-41.39609,-16.97239],[-41.39229,-16.99013],[-41.30976,-17.0516],[-41.2775,-17.0325],[-41.2764,-17.006],[-41.326,-16.9778],[-41.32627,-16.96259],[-41.39609,-16.97239]]]]}},{"type":"Feature","properties":{"territory_id":"mg-3152170-centro","name":"Centro","municipality_id":"mg-3152170","polling_places":1,"approx":true,"official":false,"method":"voronoi-polling-places","whole_municipality":false,"approx_coords_only":false},"geometry":{"type":"MultiPolygon","coordinates":[[[[-41.5519,-16.78049],[-41.45844,-16.78046],[-41.45444,-16.71633],[-41.465,-16.72328],[-41.4651,-16.7236],[-41.46533,-16.7235],[-41.5519,-16.78049]]]]}},{"type":"Feature","properties":{"territory_id":"mg-3152170-corrego-seco","name":"Corrego Seco","municipality_id":"mg-3152170","polling_places":1,"approx":true,"official":false,"method":"voronoi-polling-places","whole_municipality":false,"approx_coords_only":false},"geometry":{"type":"MultiPolygon","coordinates":[[[[-41.45282,-16.95953],[-41.4416,-17.0344],[-41.41617,-17.03288],[-41.39229,-16.99013],[-41.39609,-16.97239],[-41.41522,-16.94651],[-41.45282,-16.95953]]]]}},{"type":"Feature","properties":{"territory_id":"mg-3152170-distrito-de-santana-do-aracuai","name":"Distrito de Santana do Aracuai","municipality_id":"mg-3152170","polling_places":1,"approx":true,"official":false,"method":"voronoi-polling-places","whole_municipality":false,"approx_coords_only":false},"geometry":{"type":"MultiPolygon","coordinates":[[[[-41.45844,-16.78046],[-41.43038,-16.83866],[-41.38822,-16.85485],[-41.31759,-16.83422],[-41.3013,-16.819],[-41.3267,-16.7792],[-41.3191,-16.7487],[-41.2923,-16.7485],[-41.3014,-16.7268],[-41.2861,-16.6728],[-41.3112,-16.6662],[-41.3236,-16.629],[-41.3545,-16.6238],[-41.4209,-16.6725],[-41.45043,-16.67906],[-41.45444,-16.71633],[-41.45844,-16.78046]]]]}},{"type":"Feature","properties":{"territory_id":"mg-3152170-pedra-alta","name":"Pedra Alta","municipality_id":"mg-3152170","polling_places":1,"approx":true,"official":false,"method":"voronoi-polling-places","whole_municipality":false,"approx_coords_only":false},"geometry":{"type":"MultiPolygon","coordinates":[[[[-41.41617,-17.03288],[-41.3999,-17.0319],[-41.3847,-17.0498],[-41.3241,-17.0601],[-41.30976,-17.0516],[-41.39229,-16.99013],[-41.41617,-17.03288]]]]}},{"type":"Feature","properties":{"territory_id":"mg-3152170-povoado-de-morais","name":"Povoado de Morais","municipality_id":"mg-3152170","polling_places":1,"approx":true,"official":false,"method":"voronoi-polling-places","whole_municipality":false,"approx_coords_only":false},"geometry":{"type":"MultiPolygon","coordinates":[[[[-41.65273,-16.92257],[-41.6482,-16.9239],[-41.6274,-16.9449],[-41.5965,-16.9195],[-41.5557,-16.9182],[-41.5339,-16.949],[-41.4874,-16.9244],[-41.4548,-16.9463],[-41.45282,-16.95953],[-41.41522,-16.94651],[-41.38822,-16.85485],[-41.43038,-16.83866],[-41.65273,-16.92257]]]]}},{"type":"Feature","properties":{"territory_id":"mg-3152170-povoado-virgem-das-gracas","name":"Povoado Virgem das Gracas","municipality_id":"mg-3152170","polling_places":1,"approx":true,"official":false,"method":"voronoi-polling-places","whole_municipality":false,"approx_coords_only":false},"geometry":{"type":"MultiPolygon","coordinates":[[[[-41.41522,-16.94651],[-41.39609,-16.97239],[-41.32627,-16.96259],[-41.3267,-16.9389],[-41.3557,-16.9251],[-41.3702,-16.8834],[-41.31759,-16.83422],[-41.38822,-16.85485],[-41.41522,-16.94651]]]]}},{"type":"Feature","properties":{"territory_id":"mg-3152170-quadra","name":"Quadra","municipality_id":"mg-3152170","polling_places":1,"approx":true,"official":false,"method":"voronoi-polling-places","whole_municipality":false,"approx_coords_only":false},"geometry":{"type":"MultiPolygon","coordinates":[[[[-41.65139,-16.78592],[-41.5519,-16.78049],[-41.46533,-16.7235],[-41.4991,-16.7091],[-41.5572,-16.7302],[-41.6043,-16.6992],[-41.6488,-16.7649],[-41.65139,-16.78592]]],[[[-41.465,-16.72328],[-41.45444,-16.71633],[-41.45043,-16.67906],[-41.4515,-16.6793],[-41.465,-16.72328]]]]}},{"type":"Feature","properties":{"territory_id":"mg-3152170-santa-terezinha","name":"Santa Terezinha","municipality_id":"mg-3152170","polling_places":1,"approx":true,"official":false,"method":"voronoi-polling-places","whole_municipality":false,"approx_coords_only":false},"geometry":{"type":"MultiPolygon","coordinates":[[[[-41.757,-16.8647],[-41.743,-16.8987],[-41.711,-16.8893],[-41.6928,-16.9108],[-41.65273,-16.92257],[-41.43038,-16.83866],[-41.45844,-16.78046],[-41.5519,-16.78049],[-41.65139,-16.78592],[-41.6533,-16.8014],[-41.6794,-16.8068],[-41.757,-16.8647]]]]}}]}