{"type":"FeatureCollection","features":[{"type":"Feature","properties":{"territory_id":"mg-3152600-centro","name":"Centro","municipality_id":"mg-3152600","polling_places":3,"approx":true,"official":false,"method":"voronoi-polling-places","whole_municipality":false,"approx_coords_only":false},"geometry":{"type":"MultiPolygon","coordinates":[[[[-45.0437,-22.1492],[-45.0164,-22.1998],[-44.9711,-22.2185],[-44.97403,-22.23933],[-44.93115,-22.20682],[-44.86124,-22.15698],[-44.8712,-22.149],[-44.8708,-22.1303],[-44.9271,-22.0824],[-44.9398,-22.0769],[-44.9927,-22.0918],[-45.0073,-22.1117],[-44.9988,-22.1507],[-45.0437,-22.1492]]]]}},{"type":"Feature","properties":{"territory_id":"mg-3152600-distrito-sant-ana-do-capivari","name":"Distrito Sant'ana do Capivari","municipality_id":"mg-3152600","polling_places":1,"approx":true,"official":false,"method":"voronoi-polling-places","whole_municipality":false,"approx_coords_only":false},"geometry":{"type":"MultiPolygon","coordinates":[[[[-44.9794,-22.2775],[-44.9352,-22.2543],[-44.8863,-22.2638],[-44.8535,-22.2107],[-44.8169,-22.1925],[-44.86124,-22.15698],[-44.93115,-22.20682],[-44.97403,-22.23933],[-44.9794,-22.2775]]]]}}]}