{"type":"FeatureCollection","features":[{"type":"Feature","properties":{"territory_id":"mg-3152709-atalaia","name":"Atalaia","municipality_id":"mg-3152709","polling_places":1,"approx":true,"official":false,"method":"voronoi-polling-places","whole_municipality":false,"approx_coords_only":false},"geometry":{"type":"MultiPolygon","coordinates":[[[[-44.07115,-21.07102],[-44.04105,-21.08422],[-44.025,-21.0451],[-43.9873,-21.0584],[-43.9638,-21.0419],[-43.9949,-20.9888],[-44.0343,-21.0038],[-44.05674,-21.00023],[-44.06734,-21.03093],[-44.06856,-21.04086],[-44.07115,-21.07102]]]]}},{"type":"Feature","properties":{"territory_id":"mg-3152709-carandaizinho","name":"Carandaizinho","municipality_id":"mg-3152709","polling_places":1,"approx":true,"official":false,"method":"voronoi-polling-places","whole_municipality":false,"approx_coords_only":true},"geometry":{"type":"MultiPolygon","coordinates":[[[[-44.10426,-21.11851],[-44.1006,-21.1206],[-44.09281,-21.16136],[-44.09058,-21.16096],[-44.06063,-21.10581],[-44.09482,-21.09407],[-44.10426,-21.11851]]]]}},{"type":"Feature","properties":{"territory_id":"mg-3152709-centro","name":"Centro","municipality_id":"mg-3152709","polling_places":3,"approx":true,"official":false,"method":"voronoi-polling-places","whole_municipality":false,"approx_coords_only":false},"geometry":{"type":"MultiPolygon","coordinates":[[[[-44.09423,-21.07524],[-44.08716,-21.07345],[-44.08664,-21.07335],[-44.07115,-21.07102],[-44.06856,-21.04086],[-44.06734,-21.03093],[-44.06794,-21.03178],[-44.08723,-21.05717],[-44.09423,-21.07524]]]]}},{"type":"Feature","properties":{"territory_id":"mg-3152709-coqueiro","name":"Coqueiro","municipality_id":"mg-3152709","polling_places":1,"approx":true,"official":false,"method":"voronoi-polling-places","whole_municipality":false,"approx_coords_only":false},"geometry":{"type":"MultiPolygon","coordinates":[[[[-44.10076,-21.07897],[-44.09482,-21.09407],[-44.06063,-21.10581],[-44.04443,-21.0992],[-44.0444,-21.0924],[-44.04105,-21.08422],[-44.07115,-21.07102],[-44.08664,-21.07335],[-44.08716,-21.07345],[-44.09423,-21.07524],[-44.10076,-21.07897]]]]}},{"type":"Feature","properties":{"territory_id":"mg-3152709-estacao-de-prados","name":"Estação de Prados","municipality_id":"mg-3152709","polling_places":1,"approx":true,"official":false,"method":"voronoi-polling-places","whole_municipality":false,"approx_coords_only":false},"geometry":{"type":"MultiPolygon","coordinates":[[[[-44.09058,-21.16096],[-44.01067,-21.17507],[-44.0134,-21.1608],[-44.0447,-21.1576],[-44.04443,-21.0992],[-44.06063,-21.10581],[-44.09058,-21.16096]]]]}},{"type":"Feature","properties":{"territory_id":"mg-3152709-pinheiro-chagas","name":"Pinheiro Chagas","municipality_id":"mg-3152709","polling_places":2,"approx":true,"official":false,"method":"voronoi-polling-places","whole_municipality":false,"approx_coords_only":false},"geometry":{"type":"MultiPolygon","coordinates":[[[[-44.14045,-21.059],[-44.10076,-21.07897],[-44.09423,-21.07524],[-44.08723,-21.05717],[-44.06794,-21.03178],[-44.06734,-21.03093],[-44.05674,-21.00023],[-44.0852,-20.9957],[-44.1343,-21.023],[-44.14045,-21.059]]]]}},{"type":"Feature","properties":{"territory_id":"mg-3152709-pitangueiras","name":"Pitangueiras","municipality_id":"mg-3152709","polling_places":1,"approx":true,"official":false,"method":"voronoi-polling-places","whole_municipality":false,"approx_coords_only":false},"geometry":{"type":"MultiPolygon","coordinates":[[[[-44.1214,-21.1788],[-44.0229,-21.2416],[-44.0019,-21.2209],[-44.01067,-21.17507],[-44.09058,-21.16096],[-44.09281,-21.16136],[-44.0924,-21.1635],[-44.1214,-21.1788]]]]}},{"type":"Feature","properties":{"territory_id":"mg-3152709-vitoriano-veloso","name":"Vitoriano Veloso","municipality_id":"mg-3152709","polling_places":1,"approx":true,"official":false,"method":"voronoi-polling-places","whole_municipality":false,"approx_coords_only":false},"geometry":{"type":"MultiPolygon","coordinates":[[[[-44.1429,-21.0733],[-44.1424,-21.0968],[-44.10426,-21.11851],[-44.09482,-21.09407],[-44.10076,-21.07897],[-44.14045,-21.059],[-44.1429,-21.0733]]]]}}]}