{"type":"FeatureCollection","features":[{"type":"Feature","properties":{"territory_id":"mg-3152204-beira-rio","name":"Beira Rio","municipality_id":"mg-3152204","polling_places":1,"approx":true,"official":false,"method":"voronoi-polling-places","whole_municipality":false,"approx_coords_only":false},"geometry":{"type":"MultiPolygon","coordinates":[[[[-43.02967,-15.74677],[-43.02914,-15.75388],[-43.01403,-15.74736],[-43.02294,-15.74515],[-43.02626,-15.74552],[-43.02967,-15.74677]]]]}},{"type":"Feature","properties":{"territory_id":"mg-3152204-centro","name":"Centro","municipality_id":"mg-3152204","polling_places":6,"approx":true,"official":false,"method":"voronoi-polling-places","whole_municipality":false,"approx_coords_only":false},"geometry":{"type":"MultiPolygon","coordinates":[[[[-43.06295,-15.83819],[-43.04969,-15.83769],[-43.0406,-15.8124],[-43.03692,-15.81133],[-43.04601,-15.78849],[-43.06295,-15.78175],[-43.06295,-15.83819]]],[[[-43.04022,-15.71436],[-43.03514,-15.74434],[-43.03285,-15.74502],[-43.02967,-15.74677],[-43.02626,-15.74552],[-43.02294,-15.74515],[-43.02399,-15.73984],[-43.02382,-15.73802],[-43.02389,-15.73776],[-43.0277,-15.73855],[-43.02839,-15.7382],[-43.04021,-15.71436],[-43.04022,-15.71436]]]]}},{"type":"Feature","properties":{"territory_id":"mg-3152204-distrito-de-mocambinho","name":"Distrito de Mocambinho","municipality_id":"mg-3152204","polling_places":1,"approx":true,"official":false,"method":"voronoi-polling-places","whole_municipality":false,"approx_coords_only":false},"geometry":{"type":"MultiPolygon","coordinates":[[[[-43.1205,-15.84986],[-43.10827,-15.85835],[-43.1142,-15.8472],[-43.09733,-15.83951],[-43.10769,-15.83991],[-43.1205,-15.84986]]],[[[-43.08942,-15.83921],[-43.0567,-15.8572],[-43.04969,-15.83769],[-43.06295,-15.83819],[-43.08942,-15.83921]]]]}},{"type":"Feature","properties":{"territory_id":"mg-3152204-distrito-de-paciencia","name":"Distrito de Paciencia","municipality_id":"mg-3152204","polling_places":1,"approx":true,"official":false,"method":"voronoi-polling-places","whole_municipality":false,"approx_coords_only":false},"geometry":{"type":"MultiPolygon","coordinates":[[[[-43.10769,-15.83991],[-43.09733,-15.83951],[-43.0927,-15.8374],[-43.08942,-15.83921],[-43.06295,-15.83819],[-43.06295,-15.78175],[-43.06655,-15.78032],[-43.10769,-15.83991]]]]}},{"type":"Feature","properties":{"territory_id":"mg-3152204-distrito-de-tocandira","name":"Distrito de Tocandira","municipality_id":"mg-3152204","polling_places":1,"approx":true,"official":false,"method":"voronoi-polling-places","whole_municipality":false,"approx_coords_only":false},"geometry":{"type":"MultiPolygon","coordinates":[[[[-43.21812,-15.64253],[-43.18167,-15.70754],[-43.12312,-15.61101],[-43.1292,-15.6114],[-43.1888,-15.5745],[-43.1832,-15.5526],[-43.19834,-15.53831],[-43.21812,-15.64253]]]]}},{"type":"Feature","properties":{"territory_id":"mg-3152204-furado-do-teodoro-zona-rural","name":"Furado do Teodoro Zona Rural","municipality_id":"mg-3152204","polling_places":1,"approx":true,"official":false,"method":"voronoi-polling-places","whole_municipality":false,"approx_coords_only":false},"geometry":{"type":"MultiPolygon","coordinates":[[[[-43.05422,-15.63575],[-43.04482,-15.66178],[-42.99224,-15.68204],[-42.97015,-15.68276],[-42.96729,-15.67602],[-42.97504,-15.64629],[-42.98931,-15.59617],[-43.05422,-15.63575]]]]}},{"type":"Feature","properties":{"territory_id":"mg-3152204-mumbuca","name":"Mumbuca","municipality_id":"mg-3152204","polling_places":1,"approx":true,"official":false,"method":"voronoi-polling-places","whole_municipality":false,"approx_coords_only":false},"geometry":{"type":"MultiPolygon","coordinates":[[[[-43.16955,-15.85472],[-43.1205,-15.84986],[-43.10769,-15.83991],[-43.06655,-15.78032],[-43.07185,-15.77074],[-43.09571,-15.73941],[-43.10821,-15.73748],[-43.16234,-15.81425],[-43.16955,-15.85472]]]]}},{"type":"Feature","properties":{"territory_id":"mg-3152204-paraguai","name":"Paraguai","municipality_id":"mg-3152204","polling_places":1,"approx":true,"official":false,"method":"voronoi-polling-places","whole_municipality":false,"approx_coords_only":false},"geometry":{"type":"MultiPolygon","coordinates":[[[[-43.01178,-15.72283],[-42.98565,-15.75096],[-42.9678,-15.76378],[-42.92231,-15.77076],[-42.92128,-15.76842],[-42.97015,-15.68276],[-42.99224,-15.68204],[-43.01178,-15.72283]]]]}},{"type":"Feature","properties":{"territory_id":"mg-3152204-pedra-azul","name":"Pedra Azul","municipality_id":"mg-3152204","polling_places":1,"approx":true,"official":false,"method":"voronoi-polling-places","whole_municipality":false,"approx_coords_only":false},"geometry":{"type":"MultiPolygon","coordinates":[[[[-43.02389,-15.73776],[-43.02382,-15.73802],[-42.99464,-15.74964],[-42.98565,-15.75096],[-43.01178,-15.72283],[-43.02082,-15.7211],[-43.02389,-15.73776]]]]}},{"type":"Feature","properties":{"territory_id":"mg-3152204-renascenca","name":"Renascenca","municipality_id":"mg-3152204","polling_places":1,"approx":true,"official":false,"method":"voronoi-polling-places","whole_municipality":false,"approx_coords_only":false},"geometry":{"type":"MultiPolygon","coordinates":[[[[-43.07185,-15.77074],[-43.06655,-15.78032],[-43.06295,-15.78175],[-43.04601,-15.78849],[-43.03441,-15.78294],[-43.02914,-15.75388],[-43.02967,-15.74677],[-43.03285,-15.74502],[-43.03514,-15.74434],[-43.07185,-15.77074]]]]}},{"type":"Feature","properties":{"territory_id":"mg-3152204-tanque","name":"Tanque","municipality_id":"mg-3152204","polling_places":1,"approx":true,"official":false,"method":"voronoi-polling-places","whole_municipality":false,"approx_coords_only":false},"geometry":{"type":"MultiPolygon","coordinates":[[[[-42.98426,-15.58969],[-42.91954,-15.62556],[-42.90783,-15.63189],[-42.89274,-15.63221],[-42.8091,-15.57815],[-42.8129,-15.5576],[-42.8348,-15.5349],[-42.882,-15.5225],[-42.9122,-15.4953],[-42.9148,-15.5134],[-42.9741,-15.5215],[-42.9779,-15.52301],[-42.98426,-15.58969]]]]}},{"type":"Feature","properties":{"territory_id":"mg-3152204-vila-serranopolis","name":"Vila Serranopolis","municipality_id":"mg-3152204","polling_places":1,"approx":true,"official":false,"method":"voronoi-polling-places","whole_municipality":false,"approx_coords_only":false},"geometry":{"type":"MultiPolygon","coordinates":[[[[-43.02399,-15.73984],[-43.02294,-15.74515],[-43.01403,-15.74736],[-42.99464,-15.74964],[-43.02382,-15.73802],[-43.02399,-15.73984]]]]}},{"type":"Feature","properties":{"territory_id":"mg-3152204-vila-vitoria","name":"Vila Vitoria","municipality_id":"mg-3152204","polling_places":1,"approx":true,"official":false,"method":"voronoi-polling-places","whole_municipality":false,"approx_coords_only":false},"geometry":{"type":"MultiPolygon","coordinates":[[[[-43.09571,-15.73941],[-43.07185,-15.77074],[-43.03514,-15.74434],[-43.04022,-15.71436],[-43.05564,-15.70318],[-43.09571,-15.73941]]]]}},{"type":"Feature","properties":{"territory_id":"mg-3152204-zona-rural","name":"Zona Rural","municipality_id":"mg-3152204","polling_places":19,"approx":true,"official":false,"method":"voronoi-polling-places","whole_municipality":false,"approx_coords_only":false},"geometry":{"type":"MultiPolygon","coordinates":[[[[-43.3115,-15.3271],[-43.2896,-15.3934],[-43.2945,-15.4127],[-43.2542,-15.4791],[-43.2789,-15.5257],[-43.2772,-15.606],[-43.2726,-15.6543],[-43.2347,-15.7015],[-43.2323,-15.7423],[-43.2623,-15.8285],[-43.2162,-15.8297],[-43.2043,-15.8735],[-43.2077,-15.9099],[-43.2263,-15.9345],[-43.215,-15.9774],[-43.231,-16.0419],[-43.1954,-16.0468],[-43.183,-16.083],[-43.1904,-16.1103],[-43.153,-16.1361],[-43.128,-16.1344],[-43.1283,-16.0887],[-43.1452,-16.0369],[-43.0948,-15.9328],[-43.0902,-15.8923],[-43.10827,-15.85835],[-43.1205,-15.84986],[-43.16955,-15.85472],[-43.16234,-15.81425],[-43.10821,-15.73748],[-43.09571,-15.73941],[-43.05564,-15.70318],[-43.04022,-15.71436],[-43.04021,-15.71436],[-43.02839,-15.7382],[-43.0277,-15.73855],[-43.02389,-15.73776],[-43.02082,-15.7211],[-43.01178,-15.72283],[-42.99224,-15.68204],[-43.04482,-15.66178],[-43.05422,-15.63575],[-42.98931,-15.59617],[-42.97504,-15.64629],[-42.96729,-15.67602],[-42.97015,-15.68276],[-42.92128,-15.76842],[-42.9016,-15.7239],[-42.8784,-15.6868],[-42.8261,-15.7357],[-42.7768,-15.7295],[-42.804,-15.6057],[-42.8091,-15.57815],[-42.89274,-15.63221],[-42.90783,-15.63189],[-42.91954,-15.62556],[-42.98426,-15.58969],[-42.9779,-15.52301],[-43.022,-15.5406],[-43.0662,-15.6074],[-43.12312,-15.61101],[-43.18167,-15.70754],[-43.21812,-15.64253],[-43.19834,-15.53831],[-43.2348,-15.5039],[-43.2546,-15.4291],[-43.2515,-15.3757],[-43.2622,-15.3305],[-43.3115,-15.3271]]],[[[-43.04601,-15.78849],[-43.03692,-15.81133],[-43.0182,-15.8059],[-42.9423,-15.816],[-42.92231,-15.77076],[-42.9678,-15.76378],[-42.98565,-15.75096],[-42.99464,-15.74964],[-43.01403,-15.74736],[-43.02914,-15.75388],[-43.03441,-15.78294],[-43.04601,-15.78849]]]]}}]}