{"type":"FeatureCollection","features":[{"type":"Feature","properties":{"territory_id":"mg-3152105-ana-florencia","name":"Ana Florência","municipality_id":"mg-3152105","polling_places":1,"approx":true,"official":false,"method":"voronoi-polling-places","whole_municipality":false,"approx_coords_only":false},"geometry":{"type":"MultiPolygon","coordinates":[[[[-42.88148,-20.36778],[-42.82854,-20.4381],[-42.82655,-20.4403],[-42.8036,-20.3629],[-42.7873,-20.3655],[-42.8068,-20.3178],[-42.8672,-20.3367],[-42.8712,-20.33548],[-42.88148,-20.36778]]]]}},{"type":"Feature","properties":{"territory_id":"mg-3152105-centro-historico-centro","name":"Centro Histórico (centro)","municipality_id":"mg-3152105","polling_places":2,"approx":true,"official":false,"method":"voronoi-polling-places","whole_municipality":false,"approx_coords_only":false},"geometry":{"type":"MultiPolygon","coordinates":[[[[-42.98393,-20.48147],[-42.8999,-20.47049],[-42.90529,-20.42738],[-42.9057,-20.42706],[-42.90634,-20.42647],[-42.90684,-20.42589],[-42.90688,-20.4258],[-42.90688,-20.4257],[-42.90684,-20.42557],[-42.90662,-20.42518],[-42.90652,-20.42492],[-42.90581,-20.42362],[-42.90578,-20.42347],[-42.90578,-20.42329],[-42.90583,-20.42315],[-42.90606,-20.42284],[-42.90626,-20.4225],[-42.90642,-20.42232],[-42.9065,-20.42226],[-42.90661,-20.42226],[-42.90675,-20.4223],[-42.90689,-20.42237],[-42.907,-20.42245],[-42.90716,-20.42264],[-42.90727,-20.42291],[-42.90734,-20.42297],[-42.90769,-20.42308],[-42.90777,-20.42307],[-42.90791,-20.42299],[-42.90793,-20.42294],[-42.90792,-20.42278],[-42.90795,-20.4223],[-42.90795,-20.42179],[-42.90793,-20.42144],[-42.90796,-20.42113],[-42.90801,-20.42098],[-42.90797,-20.42087],[-42.90769,-20.42066],[-42.90756,-20.42055],[-42.90746,-20.42034],[-42.90736,-20.42019],[-42.90736,-20.41989],[-42.90732,-20.41949],[-42.90732,-20.41927],[-42.90735,-20.41899],[-42.90725,-20.41896],[-42.90729,-20.41881],[-42.90715,-20.41899],[-42.90668,-20.41981],[-42.90634,-20.42022],[-42.90605,-20.42049],[-42.90585,-20.42067],[-42.9052,-20.42021],[-42.90528,-20.42013],[-42.9053,-20.42009],[-42.90528,-20.42008],[-42.90516,-20.4201],[-42.90508,-20.4201],[-42.90506,-20.42012],[-42.90505,-20.42025],[-42.90502,-20.42034],[-42.90498,-20.42042],[-42.90487,-20.42056],[-42.9047,-20.41933],[-42.90715,-20.41421],[-42.90803,-20.41468],[-42.90844,-20.41483],[-42.90912,-20.41499],[-42.90975,-20.41512],[-42.91006,-20.41525],[-42.91042,-20.41492],[-42.91052,-20.41487],[-42.91084,-20.41507],[-42.91092,-20.41464],[-42.91108,-20.41422],[-42.91121,-20.41405],[-42.91153,-20.4139],[-42.91163,-20.41388],[-42.91247,-20.41404],[-42.9126,-20.41405],[-42.91271,-20.41405],[-42.91314,-20.414],[-42.91332,-20.41403],[-42.91356,-20.41403],[-42.91366,-20.41402],[-42.91381,-20.41397],[-42.91395,-20.41396],[-42.91429,-20.41398],[-42.9145,-20.41403],[-42.91496,-20.41406],[-42.91505,-20.41409],[-42.91555,-20.41399],[-42.91591,-20.41389],[-42.98393,-20.48147]]]]}},{"type":"Feature","properties":{"territory_id":"mg-3152105-chacara-vasconcelos-cdi","name":"Chácara Vasconcelos (cdi)","municipality_id":"mg-3152105","polling_places":1,"approx":true,"official":false,"method":"voronoi-polling-places","whole_municipality":false,"approx_coords_only":false},"geometry":{"type":"MultiPolygon","coordinates":[[[[-42.9114,-20.40446],[-42.9106,-20.40544],[-42.91034,-20.40567],[-42.91006,-20.40583],[-42.90984,-20.40593],[-42.90901,-20.40622],[-42.90878,-20.40639],[-42.90872,-20.40649],[-42.90867,-20.40667],[-42.90873,-20.40727],[-42.90871,-20.40756],[-42.90765,-20.40585],[-42.90758,-20.40578],[-42.90733,-20.40558],[-42.91096,-20.40196],[-42.9114,-20.40446]]],[[[-42.90871,-20.40758],[-42.90871,-20.40763],[-42.90848,-20.4081],[-42.90824,-20.4085],[-42.90771,-20.40928],[-42.90703,-20.41027],[-42.90692,-20.4104],[-42.907,-20.41065],[-42.90693,-20.41082],[-42.90666,-20.41098],[-42.9063,-20.41111],[-42.90585,-20.41123],[-42.90564,-20.41145],[-42.90548,-20.41175],[-42.90539,-20.41204],[-42.90529,-20.41244],[-42.90528,-20.4136],[-42.90532,-20.41363],[-42.90527,-20.41374],[-42.90516,-20.41392],[-42.90519,-20.41403],[-42.90539,-20.41432],[-42.90587,-20.41411],[-42.90616,-20.41403],[-42.90654,-20.414],[-42.90685,-20.41405],[-42.90715,-20.41421],[-42.9047,-20.41933],[-42.89979,-20.41309],[-42.90564,-20.40726],[-42.90571,-20.40726],[-42.90585,-20.40734],[-42.90598,-20.40732],[-42.90618,-20.40747],[-42.90632,-20.40753],[-42.90643,-20.40775],[-42.90655,-20.40773],[-42.90663,-20.40774],[-42.90668,-20.4078],[-42.90682,-20.40788],[-42.90732,-20.40802],[-42.90782,-20.40807],[-42.90796,-20.40804],[-42.90822,-20.40791],[-42.90837,-20.40778],[-42.90871,-20.40759],[-42.90871,-20.40758]]]]}},{"type":"Feature","properties":{"territory_id":"mg-3152105-chopoto","name":"Chopotó","municipality_id":"mg-3152105","polling_places":1,"approx":true,"official":false,"method":"voronoi-polling-places","whole_municipality":false,"approx_coords_only":false},"geometry":{"type":"MultiPolygon","coordinates":[[[[-43.0158,-20.32859],[-43.00315,-20.32757],[-43.0113,-20.3249],[-43.0158,-20.32859]]],[[[-42.95673,-20.32379],[-42.89464,-20.31875],[-42.888,-20.3],[-42.9147,-20.2763],[-42.953,-20.273],[-42.9537,-20.3199],[-42.95673,-20.32379]]]]}},{"type":"Feature","properties":{"territory_id":"mg-3152105-guarapiranga","name":"Guarapiranga","municipality_id":"mg-3152105","polling_places":1,"approx":false,"official":true,"method":"official-ibge-cd2022","whole_municipality":false,"approx_coords_only":false,"official_name":"Guarapiranga","official_code":"3152105015","match":"direct"},"geometry":{"type":"MultiPolygon","coordinates":[[[[-42.89265,-20.40716],[-42.89316,-20.40767],[-42.89318,-20.40774],[-42.89325,-20.40781],[-42.89364,-20.40746],[-42.89389,-20.40693],[-42.89394,-20.40692],[-42.89418,-20.40693],[-42.89434,-20.40689],[-42.89438,-20.40676],[-42.89375,-20.40644],[-42.89359,-20.40632],[-42.89343,-20.40615],[-42.89339,-20.40587],[-42.89345,-20.40562],[-42.89344,-20.40556],[-42.89312,-20.40509],[-42.89241,-20.40515],[-42.89212,-20.40491],[-42.89204,-20.4048],[-42.89173,-20.40453],[-42.89167,-20.40444],[-42.8916,-20.40382],[-42.89139,-20.40362],[-42.89113,-20.40325],[-42.89078,-20.40282],[-42.89057,-20.40263],[-42.89009,-20.40233],[-42.88969,-20.40214],[-42.88948,-20.40207],[-42.8892,-20.40202],[-42.88955,-20.40236],[-42.88984,-20.40251],[-42.89014,-20.40275],[-42.89036,-20.40303],[-42.89053,-20.40337],[-42.89055,-20.4036],[-42.89049,-20.40403],[-42.89043,-20.40417],[-42.8903,-20.40434],[-42.89005,-20.40481],[-42.88997,-20.40489],[-42.88973,-20.40506],[-42.88934,-20.4053],[-42.88867,-20.40559],[-42.887,-20.40577],[-42.88701,-20.4057],[-42.88798,-20.40497],[-42.88802,-20.4048],[-42.88798,-20.40459],[-42.88791,-20.40445],[-42.88741,-20.40371],[-42.88563,-20.40225],[-42.88555,-20.40228],[-42.88532,-20.40248],[-42.88517,-20.40276],[-42.88513,-20.40316],[-42.88516,-20.4035],[-42.88524,-20.40415],[-42.88525,-20.40509],[-42.88518,-20.40587],[-42.88535,-20.40594],[-42.88555,-20.40603],[-42.88633,-20.40609],[-42.88648,-20.40625],[-42.88663,-20.40635],[-42.88673,-20.40638],[-42.88686,-20.40639],[-42.88721,-20.40635],[-42.88887,-20.40613],[-42.89111,-20.40844],[-42.89214,-20.40762],[-42.89265,-20.40716]]]]}},{"type":"Feature","properties":{"territory_id":"mg-3152105-nossa-senhora-de-fatima","name":"Nossa Senhora de Fátima","municipality_id":"mg-3152105","polling_places":1,"approx":false,"official":true,"method":"official-ibge-cd2022","whole_municipality":false,"approx_coords_only":false,"official_name":"Nossa Senhora de Fátima","official_code":"3152105019","match":"direct"},"geometry":{"type":"MultiPolygon","coordinates":[[[[-42.88727,-20.41362],[-42.88745,-20.41373],[-42.88784,-20.41369],[-42.88796,-20.41366],[-42.88809,-20.41383],[-42.88825,-20.41396],[-42.88842,-20.41405],[-42.88864,-20.41441],[-42.88917,-20.41517],[-42.88954,-20.41495],[-42.88967,-20.41511],[-42.89003,-20.4153],[-42.89067,-20.41561],[-42.89159,-20.41578],[-42.89201,-20.41578],[-42.89225,-20.41573],[-42.89202,-20.41563],[-42.89211,-20.41561],[-42.89218,-20.41556],[-42.89265,-20.41558],[-42.89302,-20.4155],[-42.89323,-20.41535],[-42.89354,-20.41502],[-42.89388,-20.41476],[-42.89401,-20.41461],[-42.89393,-20.41462],[-42.89297,-20.41521],[-42.89281,-20.41529],[-42.89257,-20.4153],[-42.89235,-20.41535],[-42.89154,-20.41528],[-42.89143,-20.41523],[-42.89126,-20.41501],[-42.89119,-20.41478],[-42.89113,-20.4147],[-42.89039,-20.41399],[-42.89101,-20.41349],[-42.89054,-20.41304],[-42.89022,-20.4127],[-42.89069,-20.41228],[-42.89051,-20.41215],[-42.89061,-20.412],[-42.89067,-20.41187],[-42.89074,-20.41181],[-42.89078,-20.41172],[-42.89084,-20.41166],[-42.89086,-20.41161],[-42.89086,-20.41153],[-42.89092,-20.41145],[-42.89083,-20.41134],[-42.89077,-20.41122],[-42.89069,-20.41112],[-42.89057,-20.41105],[-42.89051,-20.41107],[-42.89041,-20.41098],[-42.89031,-20.41096],[-42.89021,-20.41098],[-42.8901,-20.41102],[-42.89,-20.41109],[-42.88987,-20.41114],[-42.8896,-20.41118],[-42.88943,-20.41117],[-42.88924,-20.41109],[-42.88894,-20.41113],[-42.88878,-20.41107],[-42.8886,-20.41112],[-42.88843,-20.41113],[-42.88815,-20.41099],[-42.88794,-20.41098],[-42.88791,-20.41102],[-42.88784,-20.41104],[-42.88761,-20.41097],[-42.88723,-20.41093],[-42.88701,-20.4108],[-42.88693,-20.4108],[-42.88663,-20.41089],[-42.88645,-20.41089],[-42.88638,-20.41091],[-42.8861,-20.41113],[-42.88598,-20.4112],[-42.88572,-20.41139],[-42.88565,-20.4115],[-42.8856,-20.41166],[-42.88547,-20.41175],[-42.8853,-20.4118],[-42.88521,-20.41185],[-42.88511,-20.41194],[-42.88501,-20.41191],[-42.88486,-20.41191],[-42.88473,-20.41196],[-42.88466,-20.41203],[-42.88459,-20.41212],[-42.88456,-20.41218],[-42.88458,-20.41222],[-42.88424,-20.41223],[-42.88388,-20.41219],[-42.88355,-20.41236],[-42.88338,-20.41262],[-42.88362,-20.41323],[-42.88441,-20.41282],[-42.88442,-20.41296],[-42.88445,-20.41302],[-42.88457,-20.4132],[-42.88472,-20.41334],[-42.88478,-20.41344],[-42.8851,-20.4137],[-42.88518,-20.41373],[-42.8853,-20.41376],[-42.88542,-20.41376],[-42.88559,-20.41417],[-42.88471,-20.4145],[-42.88451,-20.41463],[-42.88492,-20.41511],[-42.88508,-20.4148],[-42.88511,-20.41477],[-42.88521,-20.41478],[-42.88525,-20.41481],[-42.8853,-20.41487],[-42.88522,-20.41523],[-42.88521,-20.41535],[-42.88555,-20.41658],[-42.88561,-20.41697],[-42.88558,-20.41712],[-42.88547,-20.41724],[-42.8852,-20.4174],[-42.88469,-20.41762],[-42.8844,-20.41793],[-42.88429,-20.41809],[-42.88454,-20.41847],[-42.88464,-20.41874],[-42.88487,-20.41867],[-42.88514,-20.41848],[-42.88526,-20.41835],[-42.8853,-20.41826],[-42.88531,-20.41812],[-42.8853,-20.41797],[-42.88532,-20.41791],[-42.88538,-20.41787],[-42.88544,-20.41786],[-42.88554,-20.41781],[-42.88564,-20.41765],[-42.88576,-20.41752],[-42.88581,-20.41756],[-42.8858,-20.41746],[-42.88582,-20.41724],[-42.88581,-20.41691],[-42.88586,-20.41674],[-42.8859,-20.41648],[-42.8859,-20.4163],[-42.88588,-20.41612],[-42.8858,-20.41594],[-42.8857,-20.41585],[-42.88563,-20.41563],[-42.88562,-20.41553],[-42.88562,-20.4154],[-42.88566,-20.4152],[-42.88575,-20.41498],[-42.88603,-20.41522],[-42.88627,-20.41559],[-42.88655,-20.41604],[-42.8867,-20.41624],[-42.88683,-20.41634],[-42.88746,-20.41674],[-42.8878,-20.41689],[-42.88832,-20.41702],[-42.8885,-20.41718],[-42.88849,-20.41709],[-42.8884,-20.41696],[-42.88824,-20.41686],[-42.88796,-20.41672],[-42.8878,-20.41661],[-42.88719,-20.41586],[-42.88701,-20.4156],[-42.88694,-20.41544],[-42.88691,-20.41527],[-42.88703,-20.41471],[-42.88705,-20.4144],[-42.88701,-20.41407],[-42.88693,-20.41389],[-42.88682,-20.41372],[-42.88695,-20.41365],[-42.88723,-20.41363],[-42.88727,-20.41362]]]]}},{"type":"Feature","properties":{"territory_id":"mg-3152105-palmeiras","name":"Palmeiras","municipality_id":"mg-3152105","polling_places":3,"approx":false,"official":true,"method":"official-ibge-cd2022","whole_municipality":false,"approx_coords_only":false,"official_name":"Palmeiras","official_code":"3152105025","match":"direct"},"geometry":{"type":"MultiPolygon","coordinates":[[[[-42.89069,-20.41228],[-42.89022,-20.4127],[-42.89054,-20.41304],[-42.89101,-20.41349],[-42.89039,-20.41399],[-42.89113,-20.4147],[-42.89119,-20.41478],[-42.89126,-20.41501],[-42.89143,-20.41523],[-42.89154,-20.41528],[-42.89235,-20.41535],[-42.89257,-20.4153],[-42.89275,-20.4153],[-42.89255,-20.41511],[-42.89378,-20.41397],[-42.89395,-20.41395],[-42.8941,-20.41401],[-42.89438,-20.41431],[-42.89442,-20.41431],[-42.89448,-20.41438],[-42.89571,-20.41377],[-42.896,-20.41357],[-42.89607,-20.41356],[-42.89641,-20.41337],[-42.89658,-20.41344],[-42.89769,-20.41248],[-42.89794,-20.41273],[-42.89853,-20.41368],[-42.89869,-20.414],[-42.89881,-20.41416],[-42.8988,-20.414],[-42.89874,-20.41385],[-42.89875,-20.41372],[-42.89908,-20.41318],[-42.89921,-20.41302],[-42.89943,-20.41235],[-42.89937,-20.41197],[-42.89932,-20.41152],[-42.8994,-20.41014],[-42.89939,-20.41009],[-42.89919,-20.40971],[-42.89902,-20.40943],[-42.8988,-20.40918],[-42.8986,-20.40904],[-42.89768,-20.40876],[-42.89706,-20.40841],[-42.8968,-20.40823],[-42.89659,-20.40803],[-42.89635,-20.40766],[-42.89634,-20.40763],[-42.89623,-20.40767],[-42.89604,-20.40776],[-42.89563,-20.40808],[-42.89548,-20.40794],[-42.89534,-20.40772],[-42.89524,-20.40748],[-42.89513,-20.40713],[-42.89494,-20.40711],[-42.89468,-20.40702],[-42.89431,-20.40704],[-42.89421,-20.40758],[-42.89414,-20.40778],[-42.8938,-20.40837],[-42.89318,-20.40774],[-42.89283,-20.408],[-42.89261,-20.40819],[-42.89236,-20.40812],[-42.89147,-20.40886],[-42.89209,-20.40952],[-42.89233,-20.4097],[-42.89201,-20.41009],[-42.8919,-20.41019],[-42.89208,-20.41037],[-42.89205,-20.41041],[-42.89193,-20.41039],[-42.89187,-20.41047],[-42.89166,-20.41051],[-42.89134,-20.41048],[-42.89109,-20.41031],[-42.89103,-20.41029],[-42.89097,-20.41029],[-42.89066,-20.41047],[-42.88968,-20.41002],[-42.88958,-20.40995],[-42.88942,-20.40974],[-42.88919,-20.40968],[-42.88889,-20.40964],[-42.88832,-20.40947],[-42.88797,-20.40908],[-42.88744,-20.40891],[-42.88701,-20.40882],[-42.88673,-20.40886],[-42.88591,-20.40909],[-42.88487,-20.40931],[-42.88361,-20.40961],[-42.88309,-20.40996],[-42.88274,-20.4104],[-42.88262,-20.41082],[-42.88245,-20.41123],[-42.88233,-20.41148],[-42.88193,-20.41214],[-42.88182,-20.41252],[-42.88178,-20.41281],[-42.88196,-20.41382],[-42.88362,-20.41323],[-42.88338,-20.41262],[-42.88355,-20.41236],[-42.88388,-20.41219],[-42.88424,-20.41223],[-42.88458,-20.41222],[-42.88456,-20.41218],[-42.88459,-20.41212],[-42.88466,-20.41203],[-42.88473,-20.41196],[-42.88486,-20.41191],[-42.88501,-20.41191],[-42.88511,-20.41194],[-42.88521,-20.41185],[-42.8853,-20.4118],[-42.88547,-20.41175],[-42.8856,-20.41166],[-42.88565,-20.4115],[-42.88572,-20.41139],[-42.88598,-20.4112],[-42.8861,-20.41113],[-42.88638,-20.41091],[-42.88645,-20.41089],[-42.88663,-20.41089],[-42.88693,-20.4108],[-42.88701,-20.4108],[-42.88723,-20.41093],[-42.88761,-20.41097],[-42.88784,-20.41104],[-42.88791,-20.41102],[-42.88794,-20.41098],[-42.88815,-20.41099],[-42.88843,-20.41113],[-42.8886,-20.41112],[-42.88878,-20.41107],[-42.88894,-20.41113],[-42.88924,-20.41109],[-42.88943,-20.41117],[-42.8896,-20.41118],[-42.88987,-20.41114],[-42.89,-20.41109],[-42.8901,-20.41102],[-42.89021,-20.41098],[-42.89031,-20.41096],[-42.89041,-20.41098],[-42.89051,-20.41107],[-42.89057,-20.41105],[-42.89069,-20.41112],[-42.89077,-20.41122],[-42.89083,-20.41134],[-42.89092,-20.41145],[-42.89086,-20.41153],[-42.89086,-20.41161],[-42.89084,-20.41166],[-42.89078,-20.41172],[-42.89074,-20.41181],[-42.89067,-20.41187],[-42.89061,-20.412],[-42.89051,-20.41215],[-42.89069,-20.41228]]]]}},{"type":"Feature","properties":{"territory_id":"mg-3152105-pontal","name":"Pontal","municipality_id":"mg-3152105","polling_places":1,"approx":true,"official":false,"method":"voronoi-polling-places","whole_municipality":false,"approx_coords_only":false},"geometry":{"type":"MultiPolygon","coordinates":[[[[-43.0336,-20.3432],[-43.021,-20.36315],[-42.91504,-20.37725],[-42.91476,-20.37718],[-42.9151,-20.37656],[-42.91492,-20.37578],[-42.91397,-20.37587],[-42.91303,-20.37581],[-42.91166,-20.37557],[-42.91104,-20.37538],[-42.9104,-20.37511],[-42.90982,-20.37477],[-42.90925,-20.37417],[-42.90862,-20.37341],[-42.90822,-20.37316],[-42.90753,-20.37296],[-42.90583,-20.37265],[-42.90392,-20.37223],[-42.90349,-20.37207],[-42.90307,-20.37204],[-42.90215,-20.37211],[-42.90146,-20.37231],[-42.90077,-20.37258],[-42.90011,-20.37298],[-42.90007,-20.37303],[-42.88148,-20.36778],[-42.8712,-20.33548],[-42.8977,-20.3274],[-42.89464,-20.31875],[-42.95673,-20.32379],[-42.9685,-20.3389],[-43.00315,-20.32757],[-43.0158,-20.32859],[-43.0336,-20.3432]]]]}},{"type":"Feature","properties":{"territory_id":"mg-3152105-primeiro-de-maio","name":"Primeiro de Maio","municipality_id":"mg-3152105","polling_places":1,"approx":false,"official":true,"method":"official-ibge-cd2022","whole_municipality":false,"approx_coords_only":false,"official_name":"Primeiro de Maio","official_code":"3152105028","match":"direct"},"geometry":{"type":"MultiPolygon","coordinates":[[[[-42.90585,-20.42067],[-42.9052,-20.42021],[-42.90528,-20.42013],[-42.9053,-20.42009],[-42.90528,-20.42008],[-42.90516,-20.4201],[-42.90508,-20.4201],[-42.90506,-20.42012],[-42.90505,-20.42025],[-42.90502,-20.42034],[-42.90498,-20.42042],[-42.90487,-20.42056],[-42.90478,-20.42097],[-42.90456,-20.42118],[-42.90424,-20.42168],[-42.90423,-20.42174],[-42.90457,-20.42202],[-42.90441,-20.42202],[-42.9043,-20.42198],[-42.90353,-20.42142],[-42.90349,-20.42179],[-42.9033,-20.42224],[-42.90313,-20.42283],[-42.90309,-20.42284],[-42.90275,-20.42303],[-42.90255,-20.42316],[-42.90217,-20.42347],[-42.90122,-20.42379],[-42.90104,-20.42384],[-42.90079,-20.42386],[-42.90069,-20.42384],[-42.90047,-20.42376],[-42.90014,-20.42344],[-42.90003,-20.4234],[-42.89978,-20.4234],[-42.89947,-20.42343],[-42.8993,-20.42349],[-42.89902,-20.42366],[-42.8989,-20.42371],[-42.89879,-20.42373],[-42.89861,-20.42369],[-42.89847,-20.42362],[-42.89833,-20.42358],[-42.89811,-20.42359],[-42.89795,-20.4237],[-42.8977,-20.42396],[-42.89754,-20.42402],[-42.89748,-20.42401],[-42.89758,-20.42409],[-42.89785,-20.4241],[-42.89825,-20.4242],[-42.8989,-20.42445],[-42.89999,-20.42492],[-42.90073,-20.42545],[-42.9016,-20.42572],[-42.90195,-20.42581],[-42.9026,-20.42582],[-42.9028,-20.42579],[-42.903,-20.42587],[-42.90316,-20.42604],[-42.90329,-20.42627],[-42.90329,-20.42633],[-42.90337,-20.42647],[-42.90401,-20.42733],[-42.90406,-20.42766],[-42.90421,-20.42821],[-42.90454,-20.42787],[-42.90469,-20.42786],[-42.9057,-20.42706],[-42.90634,-20.42647],[-42.90684,-20.42589],[-42.90688,-20.4258],[-42.90688,-20.4257],[-42.90684,-20.42557],[-42.90662,-20.42518],[-42.90652,-20.42492],[-42.90581,-20.42362],[-42.90578,-20.42347],[-42.90578,-20.42329],[-42.90583,-20.42315],[-42.90606,-20.42284],[-42.90626,-20.4225],[-42.90642,-20.42232],[-42.9065,-20.42226],[-42.90661,-20.42226],[-42.90675,-20.4223],[-42.90689,-20.42237],[-42.907,-20.42245],[-42.90716,-20.42264],[-42.90727,-20.42291],[-42.90734,-20.42297],[-42.90769,-20.42308],[-42.90777,-20.42307],[-42.90791,-20.42299],[-42.90793,-20.42294],[-42.90792,-20.42278],[-42.90795,-20.4223],[-42.90795,-20.42179],[-42.90793,-20.42144],[-42.90796,-20.42113],[-42.90801,-20.42098],[-42.90797,-20.42087],[-42.90769,-20.42066],[-42.90756,-20.42055],[-42.90746,-20.42034],[-42.90736,-20.42019],[-42.90736,-20.41989],[-42.90732,-20.41949],[-42.90732,-20.41927],[-42.90735,-20.41899],[-42.90725,-20.41896],[-42.90729,-20.41881],[-42.90715,-20.41899],[-42.90668,-20.41981],[-42.90634,-20.42022],[-42.90605,-20.42049],[-42.90585,-20.42067]]]]}},{"type":"Feature","properties":{"territory_id":"mg-3152105-progresso","name":"Progresso","municipality_id":"mg-3152105","polling_places":1,"approx":false,"official":true,"method":"official-ibge-cd2022","whole_municipality":false,"approx_coords_only":false,"official_name":"Progresso","official_code":"3152105029","match":"direct"},"geometry":{"type":"MultiPolygon","coordinates":[[[[-42.92085,-20.41461],[-42.92085,-20.41474],[-42.92079,-20.4151],[-42.92076,-20.41575],[-42.92073,-20.41595],[-42.92074,-20.41619],[-42.92055,-20.41639],[-42.9203,-20.41632],[-42.92058,-20.41689],[-42.921,-20.41724],[-42.92135,-20.41717],[-42.92172,-20.41698],[-42.92184,-20.417],[-42.92241,-20.41724],[-42.92268,-20.41723],[-42.92343,-20.41728],[-42.92371,-20.41722],[-42.92386,-20.4171],[-42.92424,-20.41651],[-42.92461,-20.41589],[-42.92472,-20.41565],[-42.92475,-20.41543],[-42.9247,-20.41512],[-42.92463,-20.41393],[-42.92443,-20.41308],[-42.92373,-20.41304],[-42.92329,-20.41315],[-42.92337,-20.41339],[-42.92353,-20.41375],[-42.92345,-20.41424],[-42.92342,-20.41427],[-42.92131,-20.41482],[-42.92101,-20.41484],[-42.92097,-20.41482],[-42.92085,-20.41461]]]]}},{"type":"Feature","properties":{"territory_id":"mg-3152105-rasa","name":"Rasa","municipality_id":"mg-3152105","polling_places":1,"approx":false,"official":true,"method":"official-ibge-cd2022","whole_municipality":false,"approx_coords_only":false,"official_name":"Rasa","official_code":"3152105030","match":"direct"},"geometry":{"type":"MultiPolygon","coordinates":[[[[-42.89945,-20.37374],[-42.89927,-20.37395],[-42.89899,-20.37469],[-42.89857,-20.37434],[-42.89808,-20.3751],[-42.89994,-20.37641],[-42.9006,-20.37674],[-42.90109,-20.37693],[-42.90168,-20.37702],[-42.90189,-20.37717],[-42.90211,-20.37749],[-42.90251,-20.37852],[-42.90267,-20.37905],[-42.90274,-20.38089],[-42.90268,-20.38172],[-42.90257,-20.38234],[-42.90246,-20.3831],[-42.90235,-20.38364],[-42.90226,-20.38498],[-42.90239,-20.38609],[-42.90256,-20.38658],[-42.90278,-20.38704],[-42.90295,-20.38733],[-42.90305,-20.38777],[-42.905,-20.38771],[-42.90503,-20.3879],[-42.90506,-20.38819],[-42.90522,-20.38855],[-42.90543,-20.38877],[-42.90614,-20.3889],[-42.9066,-20.38895],[-42.90719,-20.38898],[-42.90734,-20.38895],[-42.90764,-20.38883],[-42.90783,-20.38887],[-42.90795,-20.38902],[-42.90861,-20.39026],[-42.90887,-20.39062],[-42.90918,-20.39088],[-42.90942,-20.39095],[-42.91302,-20.38926],[-42.91289,-20.38908],[-42.91279,-20.38877],[-42.9128,-20.38825],[-42.9127,-20.38759],[-42.91238,-20.38704],[-42.91178,-20.38664],[-42.91141,-20.38569],[-42.91111,-20.38507],[-42.9102,-20.38415],[-42.91018,-20.38362],[-42.91072,-20.38274],[-42.91154,-20.38163],[-42.91163,-20.38149],[-42.91269,-20.38117],[-42.91285,-20.38104],[-42.91319,-20.38072],[-42.91334,-20.38046],[-42.91393,-20.37876],[-42.91394,-20.37869],[-42.9151,-20.37656],[-42.91492,-20.37578],[-42.91397,-20.37587],[-42.91303,-20.37581],[-42.91166,-20.37557],[-42.91104,-20.37538],[-42.9104,-20.37511],[-42.90982,-20.37477],[-42.90925,-20.37417],[-42.90862,-20.37341],[-42.90822,-20.37316],[-42.90753,-20.37296],[-42.90583,-20.37265],[-42.90392,-20.37223],[-42.90349,-20.37207],[-42.90307,-20.37204],[-42.90215,-20.37211],[-42.90146,-20.37231],[-42.90077,-20.37258],[-42.90011,-20.37298],[-42.8996,-20.37356],[-42.89945,-20.37374]],[[-42.90292,-20.37536],[-42.90337,-20.37505],[-42.90358,-20.37498],[-42.90368,-20.37496],[-42.9038,-20.37496],[-42.90417,-20.37501],[-42.90443,-20.37512],[-42.9045,-20.37511],[-42.90455,-20.37512],[-42.90458,-20.3751],[-42.90482,-20.37513],[-42.90491,-20.37511],[-42.90502,-20.37511],[-42.90512,-20.37512],[-42.90525,-20.37516],[-42.90552,-20.37538],[-42.90534,-20.37571],[-42.9056,-20.3759],[-42.90601,-20.3763],[-42.90649,-20.37668],[-42.90671,-20.37689],[-42.90704,-20.37708],[-42.90765,-20.37733],[-42.90792,-20.37751],[-42.9088,-20.37824],[-42.90909,-20.37854],[-42.90892,-20.37879],[-42.90782,-20.37992],[-42.90771,-20.38029],[-42.90751,-20.38036],[-42.90702,-20.37974],[-42.90663,-20.37911],[-42.90472,-20.37906],[-42.90407,-20.37862],[-42.90413,-20.37885],[-42.90439,-20.37921],[-42.90483,-20.3794],[-42.90581,-20.38017],[-42.90585,-20.38035],[-42.90565,-20.38063],[-42.90555,-20.38168],[-42.90535,-20.38193],[-42.90449,-20.38192],[-42.90453,-20.38142],[-42.90465,-20.38096],[-42.90438,-20.38091],[-42.90451,-20.38041],[-42.90347,-20.38043],[-42.90339,-20.37785],[-42.9035,-20.37769],[-42.9036,-20.37745],[-42.90362,-20.37723],[-42.9036,-20.3771],[-42.90352,-20.37684],[-42.90337,-20.37659],[-42.90319,-20.37612],[-42.90314,-20.37592],[-42.90313,-20.37579],[-42.90315,-20.37562],[-42.90292,-20.37536]]]]}},{"type":"Feature","properties":{"territory_id":"mg-3152105-sagrado-coracao-de-jesus-pacheco","name":"Sagrado Coração de Jesus (pacheco)","municipality_id":"mg-3152105","polling_places":1,"approx":true,"official":false,"method":"voronoi-polling-places","whole_municipality":false,"approx_coords_only":false},"geometry":{"type":"MultiPolygon","coordinates":[[[[-43.0362,-20.4489],[-42.9936,-20.4669],[-42.98637,-20.48194],[-42.98393,-20.48147],[-42.91591,-20.41389],[-42.91733,-20.41353],[-42.91767,-20.4131],[-42.91782,-20.41288],[-42.91796,-20.41259],[-42.9183,-20.41185],[-42.91853,-20.41153],[-42.91873,-20.41129],[-42.91893,-20.41109],[-42.91916,-20.4109],[-42.91941,-20.41076],[-42.91966,-20.41014],[-42.91956,-20.40959],[-42.91933,-20.40915],[-42.91919,-20.40898],[-42.91883,-20.40877],[-42.91839,-20.4087],[-42.91798,-20.40879],[-42.91759,-20.40894],[-42.91746,-20.40902],[-42.9172,-20.40937],[-42.91669,-20.41019],[-42.91646,-20.41045],[-42.91626,-20.41055],[-42.91601,-20.41053],[-42.91578,-20.41045],[-42.91561,-20.41033],[-42.91604,-20.41002],[-42.91628,-20.40952],[-42.91642,-20.40886],[-42.91659,-20.40853],[-42.91686,-20.40815],[-42.91726,-20.4077],[-42.91769,-20.40741],[-42.91804,-20.40721],[-42.91835,-20.40707],[-42.91846,-20.40704],[-42.91891,-20.40717],[-42.91935,-20.40724],[-42.91993,-20.40725],[-42.9205,-20.40686],[-42.92082,-20.40657],[-42.92127,-20.40631],[-42.92183,-20.40581],[-42.92193,-20.40577],[-42.92017,-20.40406],[-42.91373,-20.3979],[-42.91247,-20.39887],[-42.91116,-20.40014],[-42.91232,-20.38959],[-42.91302,-20.38926],[-42.91289,-20.38908],[-42.91279,-20.38877],[-42.9128,-20.38825],[-42.9127,-20.38759],[-42.91504,-20.37725],[-43.021,-20.36315],[-43.0149,-20.3728],[-43.0239,-20.4102],[-43.0362,-20.4489]],[[-42.92475,-20.41543],[-42.9247,-20.41512],[-42.92463,-20.41393],[-42.92443,-20.41308],[-42.92373,-20.41304],[-42.92329,-20.41315],[-42.92337,-20.41339],[-42.92353,-20.41375],[-42.92345,-20.41424],[-42.92342,-20.41427],[-42.92131,-20.41482],[-42.92101,-20.41484],[-42.92097,-20.41482],[-42.92085,-20.41461],[-42.92085,-20.41474],[-42.92079,-20.4151],[-42.92076,-20.41575],[-42.92073,-20.41595],[-42.92074,-20.41619],[-42.92055,-20.41639],[-42.9203,-20.41632],[-42.92058,-20.41689],[-42.921,-20.41724],[-42.92135,-20.41717],[-42.92172,-20.41698],[-42.92184,-20.417],[-42.92241,-20.41724],[-42.92268,-20.41723],[-42.92343,-20.41728],[-42.92371,-20.41722],[-42.92386,-20.4171],[-42.92424,-20.41651],[-42.92461,-20.41589],[-42.92472,-20.41565],[-42.92475,-20.41543]]],[[[-42.91275,-20.40255],[-42.91273,-20.40271],[-42.91172,-20.40406],[-42.9114,-20.40446],[-42.91096,-20.40196],[-42.91111,-20.40061],[-42.91272,-20.40208],[-42.91275,-20.40255]]]]}},{"type":"Feature","properties":{"territory_id":"mg-3152105-santa-teresa","name":"Santa Teresa","municipality_id":"mg-3152105","polling_places":1,"approx":true,"official":false,"method":"voronoi-polling-places","whole_municipality":false,"approx_coords_only":false},"geometry":{"type":"MultiPolygon","coordinates":[[[[-42.90529,-20.42738],[-42.8999,-20.47049],[-42.83547,-20.47041],[-42.82655,-20.4403],[-42.82854,-20.4381],[-42.88538,-20.41597],[-42.88555,-20.41658],[-42.88561,-20.41697],[-42.88558,-20.41712],[-42.88547,-20.41724],[-42.8852,-20.4174],[-42.88469,-20.41762],[-42.8844,-20.41793],[-42.88429,-20.41809],[-42.88454,-20.41847],[-42.88464,-20.41874],[-42.88487,-20.41867],[-42.88514,-20.41848],[-42.88526,-20.41835],[-42.8853,-20.41826],[-42.88531,-20.41812],[-42.8853,-20.41797],[-42.88532,-20.41791],[-42.88538,-20.41787],[-42.88544,-20.41786],[-42.88554,-20.41781],[-42.88564,-20.41765],[-42.88576,-20.41752],[-42.88581,-20.41756],[-42.88603,-20.41751],[-42.88617,-20.41756],[-42.88644,-20.41777],[-42.88694,-20.41833],[-42.88754,-20.41855],[-42.88839,-20.41896],[-42.88865,-20.41911],[-42.8888,-20.41901],[-42.88899,-20.41891],[-42.88951,-20.41878],[-42.88959,-20.41861],[-42.88961,-20.4185],[-42.88961,-20.41841],[-42.88957,-20.41835],[-42.88941,-20.41827],[-42.88923,-20.41806],[-42.88936,-20.41803],[-42.88969,-20.41772],[-42.8899,-20.41759],[-42.88997,-20.41753],[-42.88995,-20.4175],[-42.88994,-20.4174],[-42.88982,-20.41703],[-42.88966,-20.41654],[-42.88972,-20.41652],[-42.88981,-20.41663],[-42.88984,-20.41664],[-42.88999,-20.41655],[-42.89065,-20.41601],[-42.89091,-20.41577],[-42.89099,-20.41567],[-42.89067,-20.41561],[-42.89159,-20.41578],[-42.89201,-20.41578],[-42.89225,-20.41573],[-42.89202,-20.41563],[-42.89211,-20.41561],[-42.89218,-20.41556],[-42.89265,-20.41558],[-42.89302,-20.4155],[-42.89323,-20.41535],[-42.89354,-20.41502],[-42.89388,-20.41476],[-42.89401,-20.41461],[-42.89393,-20.41462],[-42.89297,-20.41521],[-42.89281,-20.41529],[-42.89274,-20.41529],[-42.89255,-20.41511],[-42.89378,-20.41397],[-42.89395,-20.41395],[-42.8941,-20.41401],[-42.89438,-20.41431],[-42.89442,-20.41431],[-42.89448,-20.41438],[-42.89571,-20.41377],[-42.896,-20.41357],[-42.89607,-20.41356],[-42.89634,-20.4134],[-42.89648,-20.41339],[-42.89658,-20.41344],[-42.89666,-20.41338],[-42.89825,-20.41323],[-42.89853,-20.41368],[-42.89869,-20.414],[-42.89881,-20.41416],[-42.8988,-20.414],[-42.89874,-20.41385],[-42.89875,-20.41372],[-42.89908,-20.41318],[-42.89911,-20.41315],[-42.89979,-20.41309],[-42.9047,-20.41933],[-42.90487,-20.42056],[-42.90478,-20.42097],[-42.90456,-20.42118],[-42.90424,-20.42168],[-42.90423,-20.42174],[-42.90457,-20.42202],[-42.90441,-20.42202],[-42.9043,-20.42198],[-42.90353,-20.42142],[-42.90349,-20.42179],[-42.9033,-20.42224],[-42.90313,-20.42283],[-42.90309,-20.42284],[-42.90275,-20.42303],[-42.90255,-20.42316],[-42.90217,-20.42347],[-42.90122,-20.42379],[-42.90104,-20.42384],[-42.90079,-20.42386],[-42.90069,-20.42384],[-42.90047,-20.42376],[-42.90014,-20.42344],[-42.90003,-20.4234],[-42.89978,-20.4234],[-42.89947,-20.42343],[-42.8993,-20.42349],[-42.89902,-20.42366],[-42.8989,-20.42371],[-42.89879,-20.42373],[-42.89861,-20.42369],[-42.89847,-20.42362],[-42.89833,-20.42358],[-42.89811,-20.42359],[-42.89795,-20.4237],[-42.8977,-20.42396],[-42.89754,-20.42402],[-42.89748,-20.42401],[-42.89758,-20.42409],[-42.89785,-20.4241],[-42.89825,-20.4242],[-42.8989,-20.42445],[-42.89999,-20.42492],[-42.90073,-20.42545],[-42.9016,-20.42572],[-42.90195,-20.42581],[-42.9026,-20.42582],[-42.9028,-20.42579],[-42.903,-20.42587],[-42.90316,-20.42604],[-42.90329,-20.42627],[-42.90329,-20.42633],[-42.90337,-20.42647],[-42.90401,-20.42733],[-42.90406,-20.42766],[-42.90421,-20.42821],[-42.90454,-20.42787],[-42.90469,-20.42786],[-42.90529,-20.42738]]],[[[-42.88701,-20.4156],[-42.88694,-20.41544],[-42.88693,-20.41537],[-42.88701,-20.4156]]]]}},{"type":"Feature","properties":{"territory_id":"mg-3152105-santo-antonio-santo-antonio-i","name":"Santo Antônio (santo Antonio I)","municipality_id":"mg-3152105","polling_places":1,"approx":true,"official":false,"method":"voronoi-polling-places","whole_municipality":false,"approx_coords_only":false},"geometry":{"type":"MultiPolygon","coordinates":[[[[-42.91504,-20.37725],[-42.9127,-20.38759],[-42.91238,-20.38704],[-42.91178,-20.38664],[-42.91141,-20.38569],[-42.91111,-20.38507],[-42.9102,-20.38415],[-42.91018,-20.38362],[-42.91072,-20.38274],[-42.91154,-20.38163],[-42.91163,-20.38149],[-42.91269,-20.38117],[-42.91285,-20.38104],[-42.91319,-20.38072],[-42.91334,-20.38046],[-42.91393,-20.37876],[-42.91394,-20.37869],[-42.91476,-20.37718],[-42.91504,-20.37725]]],[[[-42.91146,-20.39],[-42.89587,-20.4079],[-42.89563,-20.40808],[-42.89548,-20.40794],[-42.89534,-20.40772],[-42.89524,-20.40748],[-42.89513,-20.40713],[-42.89494,-20.40711],[-42.89468,-20.40702],[-42.89431,-20.40704],[-42.89421,-20.40758],[-42.89414,-20.40778],[-42.8938,-20.40837],[-42.89318,-20.40774],[-42.89283,-20.408],[-42.89261,-20.40819],[-42.89236,-20.40812],[-42.89147,-20.40886],[-42.89209,-20.40952],[-42.89233,-20.4097],[-42.89201,-20.41009],[-42.8919,-20.41019],[-42.89208,-20.41037],[-42.89205,-20.41041],[-42.89193,-20.41039],[-42.89187,-20.41047],[-42.89166,-20.41051],[-42.89134,-20.41048],[-42.89109,-20.41031],[-42.89103,-20.41029],[-42.89097,-20.41029],[-42.89066,-20.41047],[-42.88968,-20.41002],[-42.88958,-20.40995],[-42.88942,-20.40974],[-42.88919,-20.40968],[-42.88889,-20.40964],[-42.88832,-20.40947],[-42.88797,-20.40908],[-42.88744,-20.40891],[-42.88701,-20.40882],[-42.88673,-20.40886],[-42.88591,-20.40909],[-42.88487,-20.40931],[-42.88361,-20.40961],[-42.88309,-20.40996],[-42.88274,-20.4104],[-42.88262,-20.41082],[-42.88245,-20.41123],[-42.88233,-20.41148],[-42.88193,-20.41214],[-42.88182,-20.41252],[-42.88178,-20.41281],[-42.88196,-20.41382],[-42.88362,-20.41323],[-42.88441,-20.41282],[-42.88442,-20.41296],[-42.88445,-20.41302],[-42.88457,-20.4132],[-42.88472,-20.41334],[-42.88478,-20.41344],[-42.8851,-20.4137],[-42.88518,-20.41373],[-42.8853,-20.41376],[-42.88542,-20.41376],[-42.88559,-20.41417],[-42.88471,-20.4145],[-42.88451,-20.41463],[-42.88492,-20.41511],[-42.88508,-20.4148],[-42.88511,-20.41477],[-42.88521,-20.41478],[-42.88525,-20.41481],[-42.8853,-20.41487],[-42.88522,-20.41523],[-42.88521,-20.41535],[-42.88538,-20.41597],[-42.82854,-20.4381],[-42.88148,-20.36778],[-42.90007,-20.37303],[-42.8996,-20.37356],[-42.89945,-20.37374],[-42.89927,-20.37395],[-42.89899,-20.37469],[-42.89857,-20.37434],[-42.89808,-20.3751],[-42.89994,-20.37641],[-42.9006,-20.37674],[-42.90109,-20.37693],[-42.90168,-20.37702],[-42.90189,-20.37717],[-42.90211,-20.37749],[-42.90251,-20.37852],[-42.90267,-20.37905],[-42.90274,-20.38089],[-42.90268,-20.38172],[-42.90257,-20.38234],[-42.90246,-20.3831],[-42.90235,-20.38364],[-42.90226,-20.38498],[-42.90239,-20.38609],[-42.90256,-20.38658],[-42.90278,-20.38704],[-42.90295,-20.38733],[-42.90305,-20.38777],[-42.905,-20.38771],[-42.90503,-20.3879],[-42.90506,-20.38819],[-42.90522,-20.38855],[-42.90543,-20.38877],[-42.90614,-20.3889],[-42.9066,-20.38895],[-42.90719,-20.38898],[-42.90734,-20.38895],[-42.90764,-20.38883],[-42.90783,-20.38887],[-42.90795,-20.38902],[-42.90861,-20.39026],[-42.90887,-20.39062],[-42.90918,-20.39088],[-42.90942,-20.39095],[-42.91146,-20.39]],[[-42.89318,-20.40774],[-42.89325,-20.40781],[-42.89364,-20.40746],[-42.89389,-20.40693],[-42.89394,-20.40692],[-42.89418,-20.40693],[-42.89434,-20.40689],[-42.89438,-20.40676],[-42.89375,-20.40644],[-42.89359,-20.40632],[-42.89343,-20.40615],[-42.89339,-20.40587],[-42.89345,-20.40562],[-42.89344,-20.40556],[-42.89312,-20.40509],[-42.89241,-20.40515],[-42.89212,-20.40491],[-42.89204,-20.4048],[-42.89173,-20.40453],[-42.89167,-20.40444],[-42.8916,-20.40382],[-42.89139,-20.40362],[-42.89113,-20.40325],[-42.89078,-20.40282],[-42.89057,-20.40263],[-42.89009,-20.40233],[-42.88969,-20.40214],[-42.88948,-20.40207],[-42.8892,-20.40202],[-42.88955,-20.40236],[-42.88984,-20.40251],[-42.89014,-20.40275],[-42.89036,-20.40303],[-42.89053,-20.40337],[-42.89055,-20.4036],[-42.89049,-20.40403],[-42.89043,-20.40417],[-42.8903,-20.40434],[-42.89005,-20.40481],[-42.88997,-20.40489],[-42.88973,-20.40506],[-42.88934,-20.4053],[-42.88867,-20.40559],[-42.887,-20.40577],[-42.88701,-20.4057],[-42.88798,-20.40497],[-42.88802,-20.4048],[-42.88798,-20.40459],[-42.88791,-20.40445],[-42.88741,-20.40371],[-42.88563,-20.40225],[-42.88555,-20.40228],[-42.88532,-20.40248],[-42.88517,-20.40276],[-42.88513,-20.40316],[-42.88516,-20.4035],[-42.88524,-20.40415],[-42.88525,-20.40509],[-42.88518,-20.40587],[-42.88535,-20.40594],[-42.88555,-20.40603],[-42.88633,-20.40609],[-42.88648,-20.40625],[-42.88663,-20.40635],[-42.88673,-20.40638],[-42.88686,-20.40639],[-42.88721,-20.40635],[-42.88887,-20.40613],[-42.89111,-20.40844],[-42.89214,-20.40762],[-42.89265,-20.40716],[-42.89316,-20.40767],[-42.89318,-20.40774]]],[[[-42.90909,-20.37854],[-42.90892,-20.37879],[-42.90782,-20.37992],[-42.90771,-20.38029],[-42.90751,-20.38036],[-42.90702,-20.37974],[-42.90663,-20.37911],[-42.90472,-20.37906],[-42.90407,-20.37862],[-42.90413,-20.37885],[-42.90439,-20.37921],[-42.90483,-20.3794],[-42.90581,-20.38017],[-42.90585,-20.38035],[-42.90565,-20.38063],[-42.90555,-20.38168],[-42.90535,-20.38193],[-42.90449,-20.38192],[-42.90453,-20.38142],[-42.90465,-20.38096],[-42.90438,-20.38091],[-42.90451,-20.38041],[-42.90347,-20.38043],[-42.90339,-20.37785],[-42.9035,-20.37769],[-42.9036,-20.37745],[-42.90362,-20.37723],[-42.9036,-20.3771],[-42.90352,-20.37684],[-42.90337,-20.37659],[-42.90319,-20.37612],[-42.90314,-20.37592],[-42.90313,-20.37579],[-42.90315,-20.37562],[-42.90292,-20.37536],[-42.90337,-20.37505],[-42.90358,-20.37498],[-42.90368,-20.37496],[-42.9038,-20.37496],[-42.90417,-20.37501],[-42.90443,-20.37512],[-42.9045,-20.37511],[-42.90455,-20.37512],[-42.90458,-20.3751],[-42.90482,-20.37513],[-42.90491,-20.37511],[-42.90502,-20.37511],[-42.90512,-20.37512],[-42.90525,-20.37516],[-42.90552,-20.37538],[-42.90534,-20.37571],[-42.9056,-20.3759],[-42.90601,-20.3763],[-42.90649,-20.37668],[-42.90671,-20.37689],[-42.90704,-20.37708],[-42.90765,-20.37733],[-42.90792,-20.37751],[-42.9088,-20.37824],[-42.90909,-20.37854]]],[[[-42.88563,-20.41563],[-42.88562,-20.41553],[-42.88562,-20.4154],[-42.88563,-20.41563]]]]}},{"type":"Feature","properties":{"territory_id":"mg-3152105-sao-pedro","name":"São Pedro","municipality_id":"mg-3152105","polling_places":1,"approx":false,"official":true,"method":"official-ibge-cd2022","whole_municipality":false,"approx_coords_only":false,"official_name":"São Pedro","official_code":"3152105040","match":"direct"},"geometry":{"type":"MultiPolygon","coordinates":[[[[-42.88966,-20.41654],[-42.88972,-20.41652],[-42.88981,-20.41663],[-42.88984,-20.41664],[-42.88999,-20.41655],[-42.89065,-20.41601],[-42.89091,-20.41577],[-42.89099,-20.41567],[-42.89067,-20.41561],[-42.89003,-20.4153],[-42.88967,-20.41511],[-42.88954,-20.41495],[-42.88917,-20.41517],[-42.88864,-20.41441],[-42.88842,-20.41405],[-42.88825,-20.41396],[-42.88809,-20.41383],[-42.88796,-20.41366],[-42.88784,-20.41369],[-42.88745,-20.41373],[-42.88727,-20.41362],[-42.88695,-20.41365],[-42.88682,-20.41372],[-42.88693,-20.41389],[-42.88701,-20.41407],[-42.88705,-20.4144],[-42.88703,-20.41471],[-42.88691,-20.41527],[-42.88691,-20.41533],[-42.88701,-20.4156],[-42.88719,-20.41586],[-42.8878,-20.41661],[-42.88796,-20.41672],[-42.88824,-20.41686],[-42.8884,-20.41696],[-42.88849,-20.41709],[-42.8885,-20.41718],[-42.88832,-20.41702],[-42.8878,-20.41689],[-42.88746,-20.41674],[-42.88683,-20.41634],[-42.8867,-20.41624],[-42.88655,-20.41604],[-42.88627,-20.41559],[-42.88603,-20.41522],[-42.88575,-20.41498],[-42.8857,-20.41509],[-42.88566,-20.4152],[-42.88562,-20.4154],[-42.88563,-20.41563],[-42.8857,-20.41585],[-42.8858,-20.41594],[-42.88588,-20.41612],[-42.8859,-20.4163],[-42.8859,-20.41648],[-42.88586,-20.41674],[-42.88581,-20.41691],[-42.88582,-20.41724],[-42.8858,-20.41746],[-42.88581,-20.41756],[-42.88603,-20.41751],[-42.88617,-20.41756],[-42.88644,-20.41777],[-42.88694,-20.41833],[-42.88754,-20.41855],[-42.88839,-20.41896],[-42.88865,-20.41911],[-42.8888,-20.41901],[-42.88899,-20.41891],[-42.88951,-20.41878],[-42.88959,-20.41861],[-42.88961,-20.4185],[-42.88961,-20.41841],[-42.88957,-20.41835],[-42.88941,-20.41827],[-42.88923,-20.41806],[-42.88936,-20.41803],[-42.88969,-20.41772],[-42.8899,-20.41759],[-42.88997,-20.41753],[-42.88995,-20.4175],[-42.88994,-20.4174],[-42.88982,-20.41703],[-42.88966,-20.41654]]]]}},{"type":"Feature","properties":{"territory_id":"mg-3152105-triangulo-novo","name":"Triângulo Novo","municipality_id":"mg-3152105","polling_places":1,"approx":false,"official":true,"method":"official-ibge-cd2022","whole_municipality":false,"approx_coords_only":false,"official_name":"Triângulo Novo","official_code":"3152105042","match":"direct"},"geometry":{"type":"MultiPolygon","coordinates":[[[[-42.90448,-20.40431],[-42.90291,-20.40386],[-42.90276,-20.40384],[-42.90268,-20.40386],[-42.90229,-20.40414],[-42.90184,-20.40443],[-42.90167,-20.40445],[-42.90148,-20.40468],[-42.90139,-20.40482],[-42.90163,-20.40494],[-42.90169,-20.40501],[-42.90176,-20.40545],[-42.90184,-20.40555],[-42.90192,-20.40562],[-42.90216,-20.40564],[-42.90222,-20.40574],[-42.90233,-20.40578],[-42.90244,-20.4059],[-42.90251,-20.40604],[-42.90283,-20.4062],[-42.90294,-20.4062],[-42.9031,-20.40627],[-42.90318,-20.40631],[-42.90325,-20.4064],[-42.90339,-20.40642],[-42.90347,-20.40645],[-42.90359,-20.40661],[-42.90367,-20.40668],[-42.90366,-20.40676],[-42.9036,-20.40688],[-42.90362,-20.40692],[-42.90374,-20.40704],[-42.90381,-20.40707],[-42.90411,-20.4071],[-42.90431,-20.40718],[-42.90446,-20.40721],[-42.90454,-20.40721],[-42.90469,-20.40717],[-42.90489,-20.40723],[-42.90504,-20.40717],[-42.90516,-20.40723],[-42.9053,-20.40724],[-42.90546,-20.40729],[-42.90555,-20.40726],[-42.90571,-20.40726],[-42.90585,-20.40734],[-42.90598,-20.40732],[-42.90618,-20.40747],[-42.90632,-20.40753],[-42.90643,-20.40775],[-42.90655,-20.40773],[-42.90663,-20.40774],[-42.90668,-20.4078],[-42.90682,-20.40788],[-42.90732,-20.40802],[-42.90782,-20.40807],[-42.90796,-20.40804],[-42.90822,-20.40791],[-42.90837,-20.40778],[-42.90871,-20.40759],[-42.90871,-20.40756],[-42.90765,-20.40585],[-42.90758,-20.40578],[-42.90729,-20.40555],[-42.90693,-20.40531],[-42.90683,-20.40515],[-42.90662,-20.40475],[-42.90633,-20.4047],[-42.90576,-20.40458],[-42.90577,-20.40447],[-42.90544,-20.4044],[-42.90541,-20.40454],[-42.90507,-20.40445],[-42.90503,-20.40447],[-42.90448,-20.40431]]]]}},{"type":"Feature","properties":{"territory_id":"mg-3152105-triangulo-triangulo-velho","name":"Triângulo (triangulo Velho)","municipality_id":"mg-3152105","polling_places":1,"approx":true,"official":false,"method":"voronoi-polling-places","whole_municipality":false,"approx_coords_only":false},"geometry":{"type":"MultiPolygon","coordinates":[[[[-42.91232,-20.38959],[-42.91116,-20.40014],[-42.91089,-20.40041],[-42.91111,-20.40061],[-42.91096,-20.40196],[-42.90733,-20.40558],[-42.90729,-20.40555],[-42.90693,-20.40531],[-42.90683,-20.40515],[-42.90662,-20.40475],[-42.90633,-20.4047],[-42.90576,-20.40458],[-42.90577,-20.40447],[-42.90544,-20.4044],[-42.90541,-20.40454],[-42.90507,-20.40445],[-42.90503,-20.40447],[-42.90448,-20.40431],[-42.90291,-20.40386],[-42.90276,-20.40384],[-42.90268,-20.40386],[-42.90229,-20.40414],[-42.90184,-20.40443],[-42.90167,-20.40445],[-42.90148,-20.40468],[-42.90139,-20.40482],[-42.90163,-20.40494],[-42.90169,-20.40501],[-42.90176,-20.40545],[-42.90184,-20.40555],[-42.90192,-20.40562],[-42.90216,-20.40564],[-42.90222,-20.40574],[-42.90233,-20.40578],[-42.90244,-20.4059],[-42.90251,-20.40604],[-42.90283,-20.4062],[-42.90294,-20.4062],[-42.9031,-20.40627],[-42.90318,-20.40631],[-42.90325,-20.4064],[-42.90339,-20.40642],[-42.90347,-20.40645],[-42.90359,-20.40661],[-42.90367,-20.40668],[-42.90366,-20.40676],[-42.9036,-20.40688],[-42.90362,-20.40692],[-42.90374,-20.40704],[-42.90381,-20.40707],[-42.90411,-20.4071],[-42.90431,-20.40718],[-42.90446,-20.40721],[-42.90454,-20.40721],[-42.90469,-20.40717],[-42.90489,-20.40723],[-42.90504,-20.40717],[-42.90516,-20.40723],[-42.9053,-20.40724],[-42.90546,-20.40729],[-42.90555,-20.40726],[-42.90564,-20.40726],[-42.89979,-20.41309],[-42.89911,-20.41315],[-42.89921,-20.41302],[-42.89943,-20.41235],[-42.89937,-20.41197],[-42.89932,-20.41152],[-42.8994,-20.41014],[-42.89939,-20.41009],[-42.89919,-20.40971],[-42.89902,-20.40943],[-42.8988,-20.40918],[-42.8986,-20.40904],[-42.89768,-20.40876],[-42.89706,-20.40841],[-42.8968,-20.40823],[-42.89659,-20.40803],[-42.89635,-20.40766],[-42.89634,-20.40763],[-42.89623,-20.40767],[-42.89604,-20.40776],[-42.89587,-20.4079],[-42.91146,-20.39],[-42.91232,-20.38959]]],[[[-42.89825,-20.41323],[-42.89666,-20.41338],[-42.89769,-20.41248],[-42.89794,-20.41273],[-42.89825,-20.41323]]],[[[-42.89648,-20.41339],[-42.89634,-20.4134],[-42.89641,-20.41337],[-42.89648,-20.41339]]]]}},{"type":"Feature","properties":{"territory_id":"mg-3152105-vila-alvarenga","name":"Vila Alvarenga","municipality_id":"mg-3152105","polling_places":1,"approx":false,"official":true,"method":"official-ibge-cd2022","whole_municipality":false,"approx_coords_only":false,"official_name":"Vila Alvarenga","official_code":"3152105048","match":"direct"},"geometry":{"type":"MultiPolygon","coordinates":[[[[-42.91052,-20.41487],[-42.91084,-20.41507],[-42.91092,-20.41464],[-42.91108,-20.41422],[-42.91121,-20.41405],[-42.91153,-20.4139],[-42.91163,-20.41388],[-42.91247,-20.41404],[-42.9126,-20.41405],[-42.91271,-20.41405],[-42.91314,-20.414],[-42.91332,-20.41403],[-42.91356,-20.41403],[-42.91366,-20.41402],[-42.91381,-20.41397],[-42.91395,-20.41396],[-42.91429,-20.41398],[-42.9145,-20.41403],[-42.91496,-20.41406],[-42.91505,-20.41409],[-42.91555,-20.41399],[-42.91733,-20.41353],[-42.91767,-20.4131],[-42.91782,-20.41288],[-42.91796,-20.41259],[-42.9183,-20.41185],[-42.91853,-20.41153],[-42.91873,-20.41129],[-42.91893,-20.41109],[-42.91916,-20.4109],[-42.91941,-20.41076],[-42.91966,-20.41014],[-42.91956,-20.40959],[-42.91933,-20.40915],[-42.91919,-20.40898],[-42.91883,-20.40877],[-42.91839,-20.4087],[-42.91798,-20.40879],[-42.91759,-20.40894],[-42.91746,-20.40902],[-42.9172,-20.40937],[-42.91669,-20.41019],[-42.91646,-20.41045],[-42.91626,-20.41055],[-42.91601,-20.41053],[-42.91578,-20.41045],[-42.91561,-20.41033],[-42.91604,-20.41002],[-42.91628,-20.40952],[-42.91642,-20.40886],[-42.91659,-20.40853],[-42.91686,-20.40815],[-42.91726,-20.4077],[-42.91769,-20.40741],[-42.91804,-20.40721],[-42.91835,-20.40707],[-42.91846,-20.40704],[-42.91891,-20.40717],[-42.91935,-20.40724],[-42.91993,-20.40725],[-42.9205,-20.40686],[-42.92082,-20.40657],[-42.92127,-20.40631],[-42.92183,-20.40581],[-42.92193,-20.40577],[-42.92017,-20.40406],[-42.91373,-20.3979],[-42.91247,-20.39887],[-42.91089,-20.40041],[-42.91272,-20.40208],[-42.91275,-20.40255],[-42.91273,-20.40271],[-42.91172,-20.40406],[-42.9106,-20.40544],[-42.91034,-20.40567],[-42.91006,-20.40583],[-42.90984,-20.40593],[-42.90901,-20.40622],[-42.90878,-20.40639],[-42.90872,-20.40649],[-42.90867,-20.40667],[-42.90873,-20.40727],[-42.90871,-20.40763],[-42.90848,-20.4081],[-42.90824,-20.4085],[-42.90771,-20.40928],[-42.90703,-20.41027],[-42.90692,-20.4104],[-42.907,-20.41065],[-42.90693,-20.41082],[-42.90666,-20.41098],[-42.9063,-20.41111],[-42.90585,-20.41123],[-42.90564,-20.41145],[-42.90548,-20.41175],[-42.90539,-20.41204],[-42.90529,-20.41244],[-42.90528,-20.4136],[-42.90532,-20.41363],[-42.90527,-20.41374],[-42.90516,-20.41392],[-42.90519,-20.41403],[-42.90539,-20.41432],[-42.90587,-20.41411],[-42.90616,-20.41403],[-42.90654,-20.414],[-42.90685,-20.41405],[-42.90803,-20.41468],[-42.90844,-20.41483],[-42.90912,-20.41499],[-42.90975,-20.41512],[-42.91006,-20.41525],[-42.91042,-20.41492],[-42.91052,-20.41487]]]]}},{"type":"Feature","properties":{"territory_id":"mg-3152105-wilson-carvalho-e-silva","name":"Wilson Carvalho e Silva","municipality_id":"mg-3152105","polling_places":1,"approx":true,"official":false,"method":"voronoi-polling-places","whole_municipality":false,"approx_coords_only":false},"geometry":{"type":"MultiPolygon","coordinates":[[[[-42.98637,-20.48194],[-42.9736,-20.5085],[-42.9279,-20.5275],[-42.882,-20.5686],[-42.8697,-20.5605],[-42.8688,-20.5309],[-42.8406,-20.4877],[-42.83547,-20.47041],[-42.8999,-20.47049],[-42.98393,-20.48147],[-42.98637,-20.48194]]]]}}]}