{"type":"FeatureCollection","features":[{"type":"Feature","properties":{"territory_id":"mg-3153509-centro","name":"Centro","municipality_id":"mg-3153509","polling_places":5,"approx":true,"official":false,"method":"voronoi-polling-places","whole_municipality":false,"approx_coords_only":false},"geometry":{"type":"MultiPolygon","coordinates":[[[[-42.0126,-20.4104],[-42.00747,-20.43436],[-41.99897,-20.43903],[-41.98506,-20.4477],[-41.9687,-20.43935],[-41.93922,-20.42478],[-41.93717,-20.41429],[-41.93771,-20.41306],[-41.94081,-20.40527],[-41.94744,-20.38675],[-42.0126,-20.4104]]]]}},{"type":"Feature","properties":{"territory_id":"mg-3153509-loanda","name":"Loanda","municipality_id":"mg-3153509","polling_places":1,"approx":true,"official":false,"method":"voronoi-polling-places","whole_municipality":false,"approx_coords_only":false},"geometry":{"type":"MultiPolygon","coordinates":[[[[-41.98506,-20.4477],[-41.95053,-20.49297],[-41.92789,-20.47117],[-41.93922,-20.42478],[-41.9687,-20.43935],[-41.98506,-20.4477]]]]}},{"type":"Feature","properties":{"territory_id":"mg-3153509-zona-rural","name":"Zona Rural","municipality_id":"mg-3153509","polling_places":4,"approx":true,"official":false,"method":"voronoi-polling-places","whole_municipality":false,"approx_coords_only":false},"geometry":{"type":"MultiPolygon","coordinates":[[[[-42.0585,-20.4994],[-42.022,-20.4989],[-41.9866,-20.4817],[-41.9625,-20.5045],[-41.95053,-20.49297],[-41.98506,-20.4477],[-41.99897,-20.43903],[-42.00747,-20.43436],[-42.006,-20.4412],[-42.0241,-20.4738],[-42.0585,-20.4994]]],[[[-41.94744,-20.38675],[-41.94081,-20.40527],[-41.93771,-20.41306],[-41.93717,-20.41429],[-41.93922,-20.42478],[-41.92789,-20.47117],[-41.8728,-20.4181],[-41.8366,-20.4091],[-41.8595,-20.3729],[-41.9065,-20.3872],[-41.9429,-20.3851],[-41.94744,-20.38675]]]]}}]}