{"type":"FeatureCollection","features":[{"type":"Feature","properties":{"territory_id":"mg-3153608-campo-de-santana","name":"Campo de Santana","municipality_id":"mg-3153608","polling_places":1,"approx":true,"official":false,"method":"voronoi-polling-places","whole_municipality":false,"approx_coords_only":false},"geometry":{"type":"MultiPolygon","coordinates":[[[[-44.16601,-19.53538],[-44.1091,-19.5209],[-44.0823,-19.4703],[-44.044,-19.4624],[-44.0391,-19.4244],[-44.0437,-19.4024],[-44.05971,-19.40434],[-44.12538,-19.46878],[-44.13731,-19.48373],[-44.16601,-19.53538]]]]}},{"type":"Feature","properties":{"territory_id":"mg-3153608-centro","name":"Centro","municipality_id":"mg-3153608","polling_places":3,"approx":true,"official":false,"method":"voronoi-polling-places","whole_municipality":false,"approx_coords_only":false},"geometry":{"type":"MultiPolygon","coordinates":[[[[-44.17273,-19.48699],[-44.16287,-19.48514],[-44.14285,-19.48358],[-44.13731,-19.48373],[-44.12538,-19.46878],[-44.15811,-19.47729],[-44.17093,-19.47858],[-44.17273,-19.48699]]]]}},{"type":"Feature","properties":{"territory_id":"mg-3153608-maracana","name":"Maracanã","municipality_id":"mg-3153608","polling_places":1,"approx":true,"official":false,"method":"voronoi-polling-places","whole_municipality":false,"approx_coords_only":false},"geometry":{"type":"MultiPolygon","coordinates":[[[[-44.17093,-19.47858],[-44.15811,-19.47729],[-44.12538,-19.46878],[-44.05971,-19.40434],[-44.1221,-19.4119],[-44.1281,-19.4325],[-44.1468,-19.4269],[-44.1698,-19.4733],[-44.17093,-19.47858]]]]}},{"type":"Feature","properties":{"territory_id":"mg-3153608-sao-joao-ii","name":"São João Ii","municipality_id":"mg-3153608","polling_places":1,"approx":true,"official":false,"method":"voronoi-polling-places","whole_municipality":false,"approx_coords_only":false},"geometry":{"type":"MultiPolygon","coordinates":[[[[-44.1806,-19.5238],[-44.1708,-19.5366],[-44.16601,-19.53538],[-44.13731,-19.48373],[-44.14285,-19.48358],[-44.16287,-19.48514],[-44.17273,-19.48699],[-44.1806,-19.5238]]]]}}]}