{"type":"FeatureCollection","features":[{"type":"Feature","properties":{"territory_id":"mg-3153806-centro","name":"Centro","municipality_id":"mg-3153806","polling_places":1,"approx":true,"official":false,"method":"voronoi-polling-places","whole_municipality":false,"approx_coords_only":false},"geometry":{"type":"MultiPolygon","coordinates":[[[[-43.9709,-20.7313],[-43.96046,-20.75173],[-43.82658,-20.73318],[-43.8266,-20.7331],[-43.8751,-20.6766],[-43.9239,-20.6588],[-43.9447,-20.6763],[-43.9709,-20.7313]]]]}},{"type":"Feature","properties":{"territory_id":"mg-3153806-leozina-albuquerque","name":"Leozina Albuquerque","municipality_id":"mg-3153806","polling_places":1,"approx":true,"official":false,"method":"voronoi-polling-places","whole_municipality":false,"approx_coords_only":false},"geometry":{"type":"MultiPolygon","coordinates":[[[[-43.96046,-20.75173],[-43.9567,-20.7591],[-43.8982,-20.7674],[-43.8942,-20.8043],[-43.8194,-20.7725],[-43.82658,-20.73318],[-43.96046,-20.75173]]]]}}]}