{"type":"FeatureCollection","features":[{"type":"Feature","properties":{"territory_id":"mg-3153707-centro","name":"Centro","municipality_id":"mg-3153707","polling_places":2,"approx":true,"official":false,"method":"voronoi-polling-places","whole_municipality":false,"approx_coords_only":false},"geometry":{"type":"MultiPolygon","coordinates":[[[[-45.67252,-19.31071],[-45.6613,-19.3098],[-45.6236,-19.3557],[-45.564,-19.3609],[-45.5018,-19.3562],[-45.4661,-19.3222],[-45.3657,-19.3513],[-45.3387,-19.3445],[-45.3347,-19.3168],[-45.3926,-19.2948],[-45.4034,-19.2694],[-45.4532,-19.2559],[-45.5174,-19.2545],[-45.5019,-19.2204],[-45.5327,-19.1982],[-45.5808,-19.2232],[-45.628,-19.2277],[-45.6502,-19.2007],[-45.66158,-19.20271],[-45.66294,-19.21903],[-45.67252,-19.31071]]]]}},{"type":"Feature","properties":{"territory_id":"mg-3153707-distrito-quartel-sao-joao","name":"Distrito Quartel Sao Joao","municipality_id":"mg-3153707","polling_places":1,"approx":true,"official":false,"method":"voronoi-polling-places","whole_municipality":false,"approx_coords_only":false},"geometry":{"type":"MultiPolygon","coordinates":[[[[-45.8516,-19.3253],[-45.8172,-19.3416],[-45.7815,-19.268],[-45.7516,-19.2706],[-45.735,-19.3064],[-45.713,-19.314],[-45.67252,-19.31071],[-45.66294,-19.21903],[-45.66158,-19.20271],[-45.6977,-19.2091],[-45.73,-19.2271],[-45.7754,-19.2154],[-45.7699,-19.1752],[-45.7841,-19.1572],[-45.8039,-19.196],[-45.8097,-19.2419],[-45.8516,-19.3253]]]]}}]}