{"type":"FeatureCollection","features":[{"type":"Feature","properties":{"territory_id":"mg-3153202-capao","name":"Capao","municipality_id":"mg-3153202","polling_places":1,"approx":true,"official":false,"method":"voronoi-polling-places","whole_municipality":false,"approx_coords_only":false},"geometry":{"type":"MultiPolygon","coordinates":[[[[-44.2197,-18.5819],[-44.20924,-18.60311],[-44.08163,-18.56021],[-44.07863,-18.55738],[-44.1386,-18.5441],[-44.1306,-18.5071],[-44.1795,-18.5062],[-44.1822,-18.5669],[-44.2197,-18.5819]]]]}},{"type":"Feature","properties":{"territory_id":"mg-3153202-centro","name":"Centro","municipality_id":"mg-3153202","polling_places":1,"approx":true,"official":false,"method":"voronoi-polling-places","whole_municipality":false,"approx_coords_only":false},"geometry":{"type":"MultiPolygon","coordinates":[[[[-44.11306,-18.75078],[-43.99258,-18.68347],[-43.9987,-18.6678],[-44.0483,-18.6468],[-44.0685,-18.5675],[-44.0781,-18.5575],[-44.07863,-18.55738],[-44.08163,-18.56021],[-44.11306,-18.75078]]]]}},{"type":"Feature","properties":{"territory_id":"mg-3153202-muquem","name":"Muquem","municipality_id":"mg-3153202","polling_places":1,"approx":true,"official":false,"method":"voronoi-polling-places","whole_municipality":false,"approx_coords_only":false},"geometry":{"type":"MultiPolygon","coordinates":[[[[-44.07896,-18.79297],[-44.06154,-18.89123],[-44.0581,-18.8851],[-44.0301,-18.9034],[-43.9924,-18.9078],[-43.9649,-18.8718],[-43.95233,-18.82233],[-44.07896,-18.79297]]]]}},{"type":"Feature","properties":{"territory_id":"mg-3153202-raiz","name":"Raiz","municipality_id":"mg-3153202","polling_places":1,"approx":true,"official":false,"method":"voronoi-polling-places","whole_municipality":false,"approx_coords_only":false},"geometry":{"type":"MultiPolygon","coordinates":[[[[-44.11464,-18.75238],[-44.07896,-18.79297],[-43.95233,-18.82233],[-43.9523,-18.8222],[-43.9689,-18.7868],[-43.9711,-18.7385],[-43.99258,-18.68347],[-44.11306,-18.75078],[-44.11464,-18.75238]]]]}},{"type":"Feature","properties":{"territory_id":"mg-3153202-serra-do-goncalo","name":"Serra do Goncalo","municipality_id":"mg-3153202","polling_places":1,"approx":true,"official":false,"method":"voronoi-polling-places","whole_municipality":false,"approx_coords_only":false},"geometry":{"type":"MultiPolygon","coordinates":[[[[-44.20924,-18.60311],[-44.1942,-18.6336],[-44.1919,-18.6838],[-44.1695,-18.7132],[-44.16038,-18.75393],[-44.11464,-18.75238],[-44.11306,-18.75078],[-44.08163,-18.56021],[-44.20924,-18.60311]]]]}},{"type":"Feature","properties":{"territory_id":"mg-3153202-vila-sao-joaquim","name":"Vila Sao Joaquim","municipality_id":"mg-3153202","polling_places":1,"approx":true,"official":false,"method":"voronoi-polling-places","whole_municipality":false,"approx_coords_only":false},"geometry":{"type":"MultiPolygon","coordinates":[[[[-44.16038,-18.75393],[-44.1575,-18.7668],[-44.1418,-18.8287],[-44.1129,-18.8643],[-44.1326,-18.8796],[-44.1137,-18.9077],[-44.0746,-18.9145],[-44.06154,-18.89123],[-44.07896,-18.79297],[-44.11464,-18.75238],[-44.16038,-18.75393]]]]}}]}