{"type":"FeatureCollection","features":[{"type":"Feature","properties":{"territory_id":"mg-3153103-centro","name":"Centro","municipality_id":"mg-3153103","polling_places":4,"approx":true,"official":false,"method":"voronoi-polling-places","whole_municipality":false,"approx_coords_only":false},"geometry":{"type":"MultiPolygon","coordinates":[[[[-43.2772,-20.7537],[-43.2664,-20.8035],[-43.2171,-20.7945],[-43.19274,-20.80271],[-43.18036,-20.79383],[-43.16626,-20.78446],[-43.14533,-20.77274],[-43.13902,-20.75924],[-43.15776,-20.72287],[-43.1632,-20.7243],[-43.215,-20.7146],[-43.2487,-20.7268],[-43.2772,-20.7537]]]]}},{"type":"Feature","properties":{"territory_id":"mg-3153103-zona-rural","name":"Zona Rural","municipality_id":"mg-3153103","polling_places":4,"approx":true,"official":false,"method":"voronoi-polling-places","whole_municipality":false,"approx_coords_only":false},"geometry":{"type":"MultiPolygon","coordinates":[[[[-43.19274,-20.80271],[-43.1542,-20.8157],[-43.1469,-20.8475],[-43.0817,-20.8162],[-43.0361,-20.7707],[-43.0695,-20.7267],[-43.0996,-20.7076],[-43.15776,-20.72287],[-43.13902,-20.75924],[-43.14533,-20.77274],[-43.16626,-20.78446],[-43.18036,-20.79383],[-43.19274,-20.80271]]]]}}]}