{"type":"FeatureCollection","features":[{"type":"Feature","properties":{"territory_id":"mg-3153905-agua-limpa","name":"Agua Limpa","municipality_id":"mg-3153905","polling_places":1,"approx":true,"official":false,"method":"voronoi-polling-places","whole_municipality":false,"approx_coords_only":false},"geometry":{"type":"MultiPolygon","coordinates":[[[[-43.81683,-19.97064],[-43.81245,-19.97589],[-43.80802,-19.97227],[-43.80735,-19.97144],[-43.80706,-19.96875],[-43.80957,-19.96394],[-43.81683,-19.97064]]]]}},{"type":"Feature","properties":{"territory_id":"mg-3153905-centro","name":"Centro","municipality_id":"mg-3153905","polling_places":3,"approx":true,"official":false,"method":"voronoi-polling-places","whole_municipality":false,"approx_coords_only":false},"geometry":{"type":"MultiPolygon","coordinates":[[[[-43.80957,-19.96394],[-43.80706,-19.96875],[-43.80735,-19.97144],[-43.80218,-19.96972],[-43.79871,-19.96451],[-43.78019,-19.9508],[-43.79056,-19.94792],[-43.80915,-19.96028],[-43.80912,-19.96285],[-43.80957,-19.96394]]]]}},{"type":"Feature","properties":{"territory_id":"mg-3153905-galo-velho","name":"Galo Velho","municipality_id":"mg-3153905","polling_places":1,"approx":true,"official":false,"method":"voronoi-polling-places","whole_municipality":false,"approx_coords_only":false},"geometry":{"type":"MultiPolygon","coordinates":[[[[-43.8383,-19.95753],[-43.80748,-20.00839],[-43.81245,-19.97589],[-43.81683,-19.97064],[-43.8383,-19.95753]]]]}},{"type":"Feature","properties":{"territory_id":"mg-3153905-matadouro","name":"Matadouro","municipality_id":"mg-3153905","polling_places":1,"approx":true,"official":false,"method":"voronoi-polling-places","whole_municipality":false,"approx_coords_only":false},"geometry":{"type":"MultiPolygon","coordinates":[[[[-43.83801,-19.95167],[-43.80915,-19.96028],[-43.79056,-19.94792],[-43.8331,-19.9361],[-43.8342,-19.9274],[-43.83801,-19.95167]]]]}},{"type":"Feature","properties":{"territory_id":"mg-3153905-morro-das-bicas","name":"Morro das Bicas","municipality_id":"mg-3153905","polling_places":2,"approx":true,"official":false,"method":"voronoi-polling-places","whole_municipality":false,"approx_coords_only":false},"geometry":{"type":"MultiPolygon","coordinates":[[[[-43.81245,-19.97589],[-43.80748,-20.00839],[-43.7976,-20.0247],[-43.783,-20.029],[-43.76161,-20.01683],[-43.80012,-19.97442],[-43.80218,-19.96972],[-43.80735,-19.97144],[-43.80802,-19.97227],[-43.81245,-19.97589]]]]}},{"type":"Feature","properties":{"territory_id":"mg-3153905-novo-horizonte","name":"Novo Horizonte","municipality_id":"mg-3153905","polling_places":1,"approx":true,"official":false,"method":"voronoi-polling-places","whole_municipality":false,"approx_coords_only":false},"geometry":{"type":"MultiPolygon","coordinates":[[[[-43.8388,-19.9567],[-43.8383,-19.95753],[-43.81683,-19.97064],[-43.80957,-19.96394],[-43.80912,-19.96285],[-43.80915,-19.96028],[-43.83801,-19.95167],[-43.8388,-19.9567]]]]}},{"type":"Feature","properties":{"territory_id":"mg-3153905-varzea-do-sitio","name":"Varzea do Sitio","municipality_id":"mg-3153905","polling_places":1,"approx":true,"official":false,"method":"voronoi-polling-places","whole_municipality":false,"approx_coords_only":false},"geometry":{"type":"MultiPolygon","coordinates":[[[[-43.80218,-19.96972],[-43.80012,-19.97442],[-43.76161,-20.01683],[-43.7343,-20.0013],[-43.723,-19.9667],[-43.78019,-19.9508],[-43.79871,-19.96451],[-43.80218,-19.96972]]]]}}]}