{"type":"FeatureCollection","features":[{"type":"Feature","properties":{"territory_id":"mg-3153400-aeroporto","name":"Aeroporto","municipality_id":"mg-3153400","polling_places":1,"approx":true,"official":false,"method":"voronoi-polling-places","whole_municipality":false,"approx_coords_only":false},"geometry":{"type":"MultiPolygon","coordinates":[[[[-46.46104,-18.48297],[-46.4243,-18.5141],[-46.3635,-18.5263],[-46.3581,-18.5659],[-46.3386,-18.5963],[-46.3082,-18.5567],[-46.3027,-18.5544],[-46.25521,-18.39961],[-46.27549,-18.34837],[-46.4285,-18.4295],[-46.46104,-18.48297]]]]}},{"type":"Feature","properties":{"territory_id":"mg-3153400-centro","name":"Centro","municipality_id":"mg-3153400","polling_places":1,"approx":true,"official":false,"method":"voronoi-polling-places","whole_municipality":false,"approx_coords_only":false},"geometry":{"type":"MultiPolygon","coordinates":[[[[-46.4249,-18.41344],[-46.41575,-18.41618],[-46.2799,-18.33652],[-46.2862,-18.31875],[-46.42447,-18.40943],[-46.4249,-18.41344]]]]}},{"type":"Feature","properties":{"territory_id":"mg-3153400-mateus-caixeta","name":"Mateus Caixeta","municipality_id":"mg-3153400","polling_places":1,"approx":true,"official":false,"method":"voronoi-polling-places","whole_municipality":false,"approx_coords_only":false},"geometry":{"type":"MultiPolygon","coordinates":[[[[-46.48657,-18.38507],[-46.42447,-18.40943],[-46.2862,-18.31875],[-46.3043,-18.25859],[-46.33429,-18.22066],[-46.48348,-18.21896],[-46.48602,-18.21954],[-46.48657,-18.38507]]]]}},{"type":"Feature","properties":{"territory_id":"mg-3153400-planalto","name":"Planalto","municipality_id":"mg-3153400","polling_places":1,"approx":true,"official":false,"method":"voronoi-polling-places","whole_municipality":false,"approx_coords_only":false},"geometry":{"type":"MultiPolygon","coordinates":[[[[-46.4285,-18.4295],[-46.27549,-18.34837],[-46.2799,-18.33652],[-46.41575,-18.41618],[-46.42725,-18.42602],[-46.4285,-18.4295]]]]}},{"type":"Feature","properties":{"territory_id":"mg-3153400-zona-rural","name":"Zona Rural","municipality_id":"mg-3153400","polling_places":9,"approx":true,"official":false,"method":"voronoi-polling-places","whole_municipality":false,"approx_coords_only":false},"geometry":{"type":"MultiPolygon","coordinates":[[[[-46.7608,-18.3088],[-46.758,-18.3284],[-46.7176,-18.3579],[-46.6802,-18.3607],[-46.6541,-18.4053],[-46.6144,-18.4059],[-46.5366,-18.4592],[-46.4682,-18.4769],[-46.46104,-18.48297],[-46.4285,-18.4295],[-46.42725,-18.42602],[-46.41575,-18.41618],[-46.4249,-18.41344],[-46.42447,-18.40943],[-46.48657,-18.38507],[-46.48602,-18.21954],[-46.48348,-18.21896],[-46.33429,-18.22066],[-46.3043,-18.25859],[-46.2862,-18.31875],[-46.2799,-18.33652],[-46.27549,-18.34837],[-46.25521,-18.39961],[-46.3027,-18.5544],[-46.2325,-18.525],[-46.1865,-18.5347],[-46.1378,-18.5117],[-46.1078,-18.5151],[-46.0926,-18.4248],[-46.0376,-18.387],[-46.0097,-18.326],[-46.0072,-18.323],[-46.0213,-18.2857],[-46.0071,-18.2659],[-46.0042,-18.2133],[-46.073,-18.1371],[-46.0778,-18.1022],[-46.1151,-18.0798],[-46.2155,-18.0673],[-46.242,-18.0583],[-46.2749,-18.0153],[-46.2743,-17.9583],[-46.2629,-17.8917],[-46.2876,-17.8585],[-46.3066,-17.7871],[-46.3288,-17.7658],[-46.3293,-17.736],[-46.359,-17.7741],[-46.3493,-17.8195],[-46.3605,-17.8445],[-46.4007,-17.8429],[-46.4074,-17.8737],[-46.3881,-17.9105],[-46.425,-17.9509],[-46.4461,-17.9527],[-46.5138,-17.9934],[-46.5715,-17.9671],[-46.57,-18.0064],[-46.5949,-18.0104],[-46.5534,-18.0671],[-46.5449,-18.1111],[-46.5459,-18.1762],[-46.5781,-18.1826],[-46.5953,-18.2188],[-46.6005,-18.2657],[-46.6397,-18.2986],[-46.6917,-18.29],[-46.7608,-18.3088]]]]}}]}