{"type":"FeatureCollection","features":[{"type":"Feature","properties":{"territory_id":"mg-3153301-andrequice","name":"Andrequice","municipality_id":"mg-3153301","polling_places":1,"approx":true,"official":false,"method":"voronoi-polling-places","whole_municipality":false,"approx_coords_only":false},"geometry":{"type":"MultiPolygon","coordinates":[[[[-43.6783,-18.6454],[-43.6536,-18.6657],[-43.63228,-18.66871],[-43.6137,-18.63659],[-43.62405,-18.58804],[-43.6524,-18.6312],[-43.6783,-18.6454]]]]}},{"type":"Feature","properties":{"territory_id":"mg-3153301-centro","name":"Centro","municipality_id":"mg-3153301","polling_places":2,"approx":true,"official":false,"method":"voronoi-polling-places","whole_municipality":false,"approx_coords_only":false},"geometry":{"type":"MultiPolygon","coordinates":[[[[-43.62405,-18.58804],[-43.6137,-18.63659],[-43.56737,-18.65331],[-43.54484,-18.66173],[-43.50798,-18.63201],[-43.5225,-18.5987],[-43.5521,-18.5903],[-43.5987,-18.533],[-43.6011,-18.5531],[-43.62405,-18.58804]]]]}},{"type":"Feature","properties":{"territory_id":"mg-3153301-zona-rural","name":"Zona Rural","municipality_id":"mg-3153301","polling_places":2,"approx":true,"official":false,"method":"voronoi-polling-places","whole_municipality":false,"approx_coords_only":false},"geometry":{"type":"MultiPolygon","coordinates":[[[[-43.63228,-18.66871],[-43.6118,-18.6716],[-43.564,-18.7044],[-43.4914,-18.7182],[-43.5112,-18.6622],[-43.5072,-18.6338],[-43.50798,-18.63201],[-43.54484,-18.66173],[-43.56737,-18.65331],[-43.6137,-18.63659],[-43.63228,-18.66871]]]]}}]}