{"type":"FeatureCollection","features":[{"type":"Feature","properties":{"territory_id":"mg-3153004-centro","name":"Centro","municipality_id":"mg-3153004","polling_places":2,"approx":true,"official":false,"method":"voronoi-polling-places","whole_municipality":true,"approx_coords_only":false},"geometry":{"type":"MultiPolygon","coordinates":[[[[-46.2256,-19.7964],[-46.2425,-19.7588],[-46.2438,-19.7076],[-46.2987,-19.6828],[-46.3278,-19.6415],[-46.3538,-19.6439],[-46.3643,-19.6744],[-46.3993,-19.6678],[-46.4242,-19.6976],[-46.449,-19.6682],[-46.4802,-19.6555],[-46.5108,-19.6707],[-46.5455,-19.6654],[-46.5709,-19.6815],[-46.5445,-19.7327],[-46.5468,-19.7724],[-46.5104,-19.7964],[-46.4946,-19.825],[-46.5158,-19.8588],[-46.4572,-19.8841],[-46.4254,-19.8671],[-46.3586,-19.8747],[-46.3109,-19.8627],[-46.3215,-19.8156],[-46.2434,-19.7847],[-46.2256,-19.7964]]]]}}]}