{"type":"FeatureCollection","features":[{"type":"Feature","properties":{"territory_id":"mg-3154903-centro","name":"Centro","municipality_id":"mg-3154903","polling_places":3,"approx":false,"official":true,"method":"official-ibge-cd2022","whole_municipality":false,"approx_coords_only":false,"official_name":"Centro","official_code":"3154903001","match":"direct"},"geometry":{"type":"MultiPolygon","coordinates":[[[[-42.65169,-20.22778],[-42.65195,-20.22744],[-42.65204,-20.22735],[-42.65421,-20.2258],[-42.65432,-20.22568],[-42.65435,-20.22558],[-42.65437,-20.22528],[-42.65441,-20.22416],[-42.65458,-20.22411],[-42.65543,-20.22398],[-42.65562,-20.22398],[-42.65628,-20.22406],[-42.65611,-20.22398],[-42.65571,-20.22384],[-42.6553,-20.22374],[-42.65496,-20.2237],[-42.65452,-20.22367],[-42.65445,-20.22311],[-42.6538,-20.22331],[-42.65329,-20.22341],[-42.65295,-20.22337],[-42.65265,-20.22324],[-42.65235,-20.22329],[-42.65166,-20.22329],[-42.65168,-20.22289],[-42.65162,-20.22288],[-42.65146,-20.2226],[-42.65151,-20.22249],[-42.65125,-20.222],[-42.65103,-20.22178],[-42.65072,-20.22168],[-42.65037,-20.22154],[-42.65012,-20.22128],[-42.65,-20.22108],[-42.64989,-20.22097],[-42.64984,-20.22089],[-42.64945,-20.2212],[-42.64896,-20.22156],[-42.64875,-20.22169],[-42.64901,-20.22181],[-42.64939,-20.22212],[-42.64967,-20.22247],[-42.64948,-20.22412],[-42.64929,-20.22425],[-42.64797,-20.22425],[-42.64797,-20.22549],[-42.64776,-20.22545],[-42.64771,-20.2257],[-42.64847,-20.22644],[-42.64846,-20.2266],[-42.64835,-20.22697],[-42.64819,-20.22738],[-42.64813,-20.22782],[-42.64816,-20.22793],[-42.6483,-20.22801],[-42.64824,-20.22844],[-42.64821,-20.2285],[-42.64822,-20.22861],[-42.64837,-20.22867],[-42.6481,-20.22891],[-42.64759,-20.2292],[-42.64768,-20.22929],[-42.64813,-20.22967],[-42.64923,-20.2303],[-42.64939,-20.23001],[-42.64941,-20.22985],[-42.64948,-20.22975],[-42.64956,-20.2297],[-42.64969,-20.22968],[-42.64973,-20.22966],[-42.64989,-20.22947],[-42.64993,-20.22938],[-42.6499,-20.2289],[-42.64996,-20.22859],[-42.65003,-20.22848],[-42.65049,-20.22791],[-42.65055,-20.22791],[-42.65169,-20.22778]]]]}},{"type":"Feature","properties":{"territory_id":"mg-3154903-jurumirim","name":"Jurumirim","municipality_id":"mg-3154903","polling_places":1,"approx":true,"official":false,"method":"voronoi-polling-places","whole_municipality":false,"approx_coords_only":false},"geometry":{"type":"MultiPolygon","coordinates":[[[[-42.7772,-20.0695],[-42.7615,-20.1228],[-42.7073,-20.1505],[-42.7234,-20.191],[-42.6772,-20.2079],[-42.6917,-20.2318],[-42.6653,-20.2677],[-42.6512,-20.2767],[-42.6352,-20.2663],[-42.5551,-20.2677],[-42.5521,-20.2616],[-42.54249,-20.23968],[-42.60872,-20.16389],[-42.6212,-20.1602],[-42.62133,-20.14946],[-42.74025,-20.01339],[-42.755,-20.0202],[-42.742,-20.0453],[-42.7772,-20.0695]],[[-42.65628,-20.22406],[-42.65611,-20.22398],[-42.65571,-20.22384],[-42.6553,-20.22374],[-42.65496,-20.2237],[-42.65452,-20.22367],[-42.65445,-20.22311],[-42.6538,-20.22331],[-42.65329,-20.22341],[-42.65295,-20.22337],[-42.65265,-20.22324],[-42.65235,-20.22329],[-42.65166,-20.22329],[-42.65168,-20.22289],[-42.65162,-20.22288],[-42.65146,-20.2226],[-42.65151,-20.22249],[-42.65125,-20.222],[-42.65103,-20.22178],[-42.65072,-20.22168],[-42.65037,-20.22154],[-42.65012,-20.22128],[-42.65,-20.22108],[-42.64989,-20.22097],[-42.64984,-20.22089],[-42.64945,-20.2212],[-42.64896,-20.22156],[-42.64875,-20.22169],[-42.64847,-20.22169],[-42.64755,-20.22188],[-42.64643,-20.22205],[-42.64495,-20.22236],[-42.64376,-20.22256],[-42.64345,-20.22266],[-42.64324,-20.22276],[-42.64301,-20.22288],[-42.64283,-20.22299],[-42.64256,-20.22321],[-42.64223,-20.22356],[-42.64217,-20.22364],[-42.64192,-20.22412],[-42.64097,-20.2269],[-42.64076,-20.22734],[-42.64056,-20.22768],[-42.64039,-20.22791],[-42.64019,-20.22812],[-42.63973,-20.22856],[-42.63932,-20.22884],[-42.63915,-20.22894],[-42.63856,-20.22922],[-42.63745,-20.22972],[-42.63799,-20.23025],[-42.63825,-20.23012],[-42.63854,-20.23012],[-42.63866,-20.23001],[-42.63888,-20.23],[-42.63927,-20.23003],[-42.63951,-20.22996],[-42.63966,-20.22974],[-42.63971,-20.22943],[-42.63997,-20.2292],[-42.64012,-20.22905],[-42.64022,-20.22893],[-42.64054,-20.22885],[-42.64071,-20.22859],[-42.64078,-20.22829],[-42.64098,-20.22786],[-42.64115,-20.22782],[-42.64119,-20.22769],[-42.64127,-20.22761],[-42.64141,-20.2275],[-42.64154,-20.22736],[-42.64165,-20.22719],[-42.64191,-20.22687],[-42.64219,-20.22662],[-42.64309,-20.2264],[-42.64334,-20.22678],[-42.64359,-20.22691],[-42.64356,-20.22722],[-42.64369,-20.2273],[-42.64395,-20.22742],[-42.64414,-20.22743],[-42.64417,-20.22757],[-42.64416,-20.22764],[-42.64431,-20.22765],[-42.64444,-20.22763],[-42.64432,-20.22799],[-42.64451,-20.22801],[-42.64465,-20.22805],[-42.64481,-20.22814],[-42.64496,-20.2282],[-42.64519,-20.22827],[-42.64554,-20.22766],[-42.64564,-20.22759],[-42.6458,-20.22755],[-42.64616,-20.22757],[-42.64628,-20.22774],[-42.64799,-20.22853],[-42.64822,-20.22861],[-42.64837,-20.22867],[-42.6481,-20.22891],[-42.64759,-20.2292],[-42.64768,-20.22929],[-42.64813,-20.22967],[-42.64923,-20.2303],[-42.64939,-20.23001],[-42.64941,-20.22985],[-42.64948,-20.22975],[-42.64956,-20.2297],[-42.64969,-20.22968],[-42.64973,-20.22966],[-42.64989,-20.22947],[-42.64993,-20.22938],[-42.6499,-20.2289],[-42.64996,-20.22859],[-42.65003,-20.22848],[-42.65049,-20.22791],[-42.65055,-20.22791],[-42.65169,-20.22778],[-42.65195,-20.22744],[-42.65204,-20.22735],[-42.65421,-20.2258],[-42.65432,-20.22568],[-42.65435,-20.22558],[-42.65437,-20.22528],[-42.65441,-20.22416],[-42.65458,-20.22411],[-42.65543,-20.22398],[-42.65562,-20.22398],[-42.65628,-20.22406]]]]}},{"type":"Feature","properties":{"territory_id":"mg-3154903-nossa-senhora-das-gracas","name":"Nossa Senhora das Gracas","municipality_id":"mg-3154903","polling_places":1,"approx":false,"official":true,"method":"official-ibge-cd2022","whole_municipality":false,"approx_coords_only":false,"official_name":"Nossa Senhora das Graças","official_code":"3154903002","match":"direct"},"geometry":{"type":"MultiPolygon","coordinates":[[[[-42.64444,-20.22763],[-42.64432,-20.22799],[-42.64451,-20.22801],[-42.64465,-20.22805],[-42.64481,-20.22814],[-42.64496,-20.2282],[-42.64519,-20.22827],[-42.64554,-20.22766],[-42.64564,-20.22759],[-42.6458,-20.22755],[-42.64616,-20.22757],[-42.64628,-20.22774],[-42.64799,-20.22853],[-42.64822,-20.22861],[-42.64821,-20.2285],[-42.64824,-20.22844],[-42.6483,-20.22801],[-42.64816,-20.22793],[-42.64813,-20.22782],[-42.64819,-20.22738],[-42.64835,-20.22697],[-42.64846,-20.2266],[-42.64847,-20.22644],[-42.64771,-20.2257],[-42.64776,-20.22545],[-42.64797,-20.22549],[-42.64797,-20.22425],[-42.64929,-20.22425],[-42.64948,-20.22412],[-42.64967,-20.22247],[-42.64939,-20.22212],[-42.64901,-20.22181],[-42.64875,-20.22169],[-42.64847,-20.22169],[-42.64755,-20.22188],[-42.64643,-20.22205],[-42.64495,-20.22236],[-42.64376,-20.22256],[-42.64345,-20.22266],[-42.64324,-20.22276],[-42.64301,-20.22288],[-42.64283,-20.22299],[-42.64256,-20.22321],[-42.64223,-20.22356],[-42.64217,-20.22364],[-42.64192,-20.22412],[-42.64097,-20.2269],[-42.64076,-20.22734],[-42.64056,-20.22768],[-42.64039,-20.22791],[-42.64019,-20.22812],[-42.63973,-20.22856],[-42.63932,-20.22884],[-42.63915,-20.22894],[-42.63856,-20.22922],[-42.63745,-20.22972],[-42.63799,-20.23025],[-42.63825,-20.23012],[-42.63854,-20.23012],[-42.63866,-20.23001],[-42.63888,-20.23],[-42.63927,-20.23003],[-42.63951,-20.22996],[-42.63966,-20.22974],[-42.63971,-20.22943],[-42.63997,-20.2292],[-42.64012,-20.22905],[-42.64022,-20.22893],[-42.64054,-20.22885],[-42.64071,-20.22859],[-42.64078,-20.22829],[-42.64098,-20.22786],[-42.64115,-20.22782],[-42.64119,-20.22769],[-42.64127,-20.22761],[-42.64141,-20.2275],[-42.64154,-20.22736],[-42.64165,-20.22719],[-42.64191,-20.22687],[-42.64219,-20.22662],[-42.64309,-20.2264],[-42.64334,-20.22678],[-42.64359,-20.22691],[-42.64356,-20.22722],[-42.64369,-20.2273],[-42.64395,-20.22742],[-42.64414,-20.22743],[-42.64417,-20.22757],[-42.64416,-20.22764],[-42.64431,-20.22765],[-42.64444,-20.22763]]]]}},{"type":"Feature","properties":{"territory_id":"mg-3154903-vista-alegre","name":"Vista Alegre","municipality_id":"mg-3154903","polling_places":1,"approx":true,"official":false,"method":"voronoi-polling-places","whole_municipality":false,"approx_coords_only":false},"geometry":{"type":"MultiPolygon","coordinates":[[[[-42.74025,-20.01339],[-42.62133,-20.14946],[-42.622,-20.0926],[-42.6505,-20.0458],[-42.6531,-19.9862],[-42.7288,-20.0081],[-42.74025,-20.01339]]],[[[-42.60872,-20.16389],[-42.54249,-20.23968],[-42.5343,-20.221],[-42.562,-20.1777],[-42.60872,-20.16389]]]]}}]}