{"type":"FeatureCollection","features":[{"type":"Feature","properties":{"territory_id":"mg-3154101-alto-do-asilo","name":"Alto do Asilo","municipality_id":"mg-3154101","polling_places":1,"approx":true,"official":false,"method":"voronoi-polling-places","whole_municipality":false,"approx_coords_only":false},"geometry":{"type":"MultiPolygon","coordinates":[[[[-42.529,-21.5133],[-42.5142,-21.5611],[-42.50838,-21.5627],[-42.47762,-21.52323],[-42.48402,-21.4772],[-42.529,-21.5133]]]]}},{"type":"Feature","properties":{"territory_id":"mg-3154101-centro","name":"Centro","municipality_id":"mg-3154101","polling_places":11,"approx":true,"official":false,"method":"voronoi-polling-places","whole_municipality":false,"approx_coords_only":false},"geometry":{"type":"MultiPolygon","coordinates":[[[[-42.50838,-21.5627],[-42.4687,-21.57359],[-42.42452,-21.50989],[-42.42967,-21.5048],[-42.46121,-21.53318],[-42.46468,-21.52204],[-42.4683,-21.52719],[-42.46965,-21.52611],[-42.46481,-21.52125],[-42.46504,-21.51517],[-42.45234,-21.4754],[-42.46282,-21.45555],[-42.4682,-21.4645],[-42.48402,-21.4772],[-42.47762,-21.52323],[-42.50838,-21.5627]]],[[[-42.45388,-21.44069],[-42.35028,-21.50389],[-42.3485,-21.5007],[-42.3918,-21.4455],[-42.4525,-21.4384],[-42.45388,-21.44069]]]]}},{"type":"Feature","properties":{"territory_id":"mg-3154101-centro-distrito-de-angaturama","name":"Centro - Distrito de Angaturama","municipality_id":"mg-3154101","polling_places":1,"approx":true,"official":false,"method":"voronoi-polling-places","whole_municipality":false,"approx_coords_only":false},"geometry":{"type":"MultiPolygon","coordinates":[[[[-42.46282,-21.45555],[-42.45234,-21.4754],[-42.42967,-21.5048],[-42.42452,-21.50989],[-42.36293,-21.54194],[-42.3666,-21.5331],[-42.35028,-21.50389],[-42.45388,-21.44069],[-42.46282,-21.45555]]]]}},{"type":"Feature","properties":{"territory_id":"mg-3154101-centro-distrito-de-barreiros","name":"Centro - Distrito de Barreiros","municipality_id":"mg-3154101","polling_places":1,"approx":true,"official":false,"method":"voronoi-polling-places","whole_municipality":false,"approx_coords_only":true},"geometry":{"type":"MultiPolygon","coordinates":[[[[-42.46504,-21.51517],[-42.46481,-21.52125],[-42.46468,-21.52204],[-42.46121,-21.53318],[-42.42967,-21.5048],[-42.45234,-21.4754],[-42.46504,-21.51517]]]]}},{"type":"Feature","properties":{"territory_id":"mg-3154101-centro-distrito-de-conceicao-da-boa-vista","name":"Centro - Distrito de Conceicao da Boa Vista","municipality_id":"mg-3154101","polling_places":1,"approx":true,"official":false,"method":"voronoi-polling-places","whole_municipality":false,"approx_coords_only":false},"geometry":{"type":"MultiPolygon","coordinates":[[[[-42.4687,-21.57359],[-42.4297,-21.5843],[-42.4106,-21.6015],[-42.4053,-21.5759],[-42.3527,-21.5917],[-42.346,-21.5827],[-42.36293,-21.54194],[-42.42452,-21.50989],[-42.4687,-21.57359]]]]}},{"type":"Feature","properties":{"territory_id":"mg-3154101-planalto","name":"Planalto","municipality_id":"mg-3154101","polling_places":1,"approx":true,"official":false,"method":"voronoi-polling-places","whole_municipality":false,"approx_coords_only":false},"geometry":{"type":"MultiPolygon","coordinates":[[[[-42.46965,-21.52611],[-42.4683,-21.52719],[-42.46468,-21.52204],[-42.46481,-21.52125],[-42.46965,-21.52611]]]]}}]}