{"type":"FeatureCollection","features":[{"type":"Feature","properties":{"territory_id":"mg-3154408-centro","name":"Centro","municipality_id":"mg-3154408","polling_places":5,"approx":true,"official":false,"method":"voronoi-polling-places","whole_municipality":false,"approx_coords_only":false},"geometry":{"type":"MultiPolygon","coordinates":[[[[-43.80462,-21.07811],[-43.77971,-21.11169],[-43.7606,-21.1109],[-43.75208,-21.11421],[-43.73963,-21.08772],[-43.73786,-21.08448],[-43.72428,-21.06023],[-43.72569,-21.05752],[-43.73911,-21.03003],[-43.74211,-21.0238],[-43.7553,-21.0253],[-43.772,-21.0645],[-43.80462,-21.07811]]]]}},{"type":"Feature","properties":{"territory_id":"mg-3154408-zona-rural","name":"Zona Rural","municipality_id":"mg-3154408","polling_places":6,"approx":true,"official":false,"method":"voronoi-polling-places","whole_municipality":false,"approx_coords_only":false},"geometry":{"type":"MultiPolygon","coordinates":[[[[-43.9096,-21.1245],[-43.8854,-21.1423],[-43.8305,-21.1458],[-43.8114,-21.113],[-43.77971,-21.11169],[-43.80462,-21.07811],[-43.8564,-21.0997],[-43.8904,-21.1039],[-43.9096,-21.1245]]],[[[-43.75208,-21.11421],[-43.7158,-21.1283],[-43.6872,-21.121],[-43.659,-21.0917],[-43.6313,-21.0953],[-43.66,-21.0324],[-43.7086,-21.02],[-43.74211,-21.0238],[-43.73911,-21.03003],[-43.72569,-21.05752],[-43.72428,-21.06023],[-43.73786,-21.08448],[-43.73963,-21.08772],[-43.75208,-21.11421]]]]}}]}