{"type":"FeatureCollection","features":[{"type":"Feature","properties":{"territory_id":"mg-3154507-curralinho-zona-rual","name":"Curralinho Zona Rual","municipality_id":"mg-3154507","polling_places":1,"approx":true,"official":false,"method":"voronoi-polling-places","whole_municipality":false,"approx_coords_only":false},"geometry":{"type":"MultiPolygon","coordinates":[[[[-43.1142,-15.8472],[-43.0902,-15.8923],[-43.0948,-15.9328],[-43.11098,-15.96622],[-43.00678,-15.90727],[-43.10249,-15.84186],[-43.1142,-15.8472]]]]}},{"type":"Feature","properties":{"territory_id":"mg-3154507-peixe-bravo","name":"Peixe Bravo","municipality_id":"mg-3154507","polling_places":1,"approx":true,"official":false,"method":"voronoi-polling-places","whole_municipality":false,"approx_coords_only":false},"geometry":{"type":"MultiPolygon","coordinates":[[[[-42.81891,-16.13925],[-42.7687,-16.1345],[-42.7061,-16.1583],[-42.7117,-16.0647],[-42.7256,-16.0416],[-42.7484,-16.0541],[-42.7639,-16.0126],[-42.79216,-16.00215],[-42.81891,-16.13925]]]]}},{"type":"Feature","properties":{"territory_id":"mg-3154507-quete","name":"Quete","municipality_id":"mg-3154507","polling_places":1,"approx":true,"official":false,"method":"voronoi-polling-places","whole_municipality":false,"approx_coords_only":false},"geometry":{"type":"MultiPolygon","coordinates":[[[[-42.90879,-16.15179],[-42.8535,-16.1554],[-42.8268,-16.14],[-42.81891,-16.13925],[-42.79216,-16.00215],[-42.82475,-15.99011],[-42.90879,-16.01603],[-42.90879,-16.15179]]]]}},{"type":"Feature","properties":{"territory_id":"mg-3154507-riacho-novo","name":"Riacho Novo","municipality_id":"mg-3154507","polling_places":2,"approx":true,"official":false,"method":"voronoi-polling-places","whole_municipality":false,"approx_coords_only":false},"geometry":{"type":"MultiPolygon","coordinates":[[[[-43.1452,-16.0369],[-43.13304,-16.07418],[-43.03186,-16.14898],[-42.97795,-16.03736],[-42.99331,-15.98472],[-42.99913,-15.9078],[-43.00678,-15.90727],[-43.11098,-15.96622],[-43.1452,-16.0369]]]]}},{"type":"Feature","properties":{"territory_id":"mg-3154507-zona-rural","name":"Zona Rural","municipality_id":"mg-3154507","polling_places":5,"approx":true,"official":false,"method":"voronoi-polling-places","whole_municipality":false,"approx_coords_only":false},"geometry":{"type":"MultiPolygon","coordinates":[[[[-43.2692,-16.0802],[-43.2603,-16.1211],[-43.2351,-16.1584],[-43.1566,-16.2074],[-43.1326,-16.2323],[-43.1573,-16.2891],[-43.1318,-16.2716],[-43.1121,-16.2317],[-43.0383,-16.1936],[-42.9178,-16.1512],[-42.90879,-16.15179],[-42.90879,-16.01603],[-42.82475,-15.99011],[-42.9008,-15.962],[-42.9047,-15.9337],[-42.9461,-15.9153],[-43.0034,-15.8539],[-43.0182,-15.8059],[-43.0406,-15.8124],[-43.0567,-15.8572],[-43.0927,-15.8374],[-43.10249,-15.84186],[-43.00678,-15.90727],[-42.99913,-15.9078],[-42.99331,-15.98472],[-42.97795,-16.03736],[-43.03186,-16.14898],[-43.13304,-16.07418],[-43.1283,-16.0887],[-43.128,-16.1344],[-43.153,-16.1361],[-43.1904,-16.1103],[-43.183,-16.083],[-43.1954,-16.0468],[-43.231,-16.0419],[-43.2692,-16.0802]]]]}}]}