{"type":"FeatureCollection","features":[{"type":"Feature","properties":{"territory_id":"mg-3154309-bom-pastor","name":"Bom Pastor","municipality_id":"mg-3154309","polling_places":1,"approx":true,"official":false,"method":"voronoi-polling-places","whole_municipality":false,"approx_coords_only":false},"geometry":{"type":"MultiPolygon","coordinates":[[[[-41.10313,-19.29674],[-41.0704,-19.307],[-41.0017,-19.3042],[-40.98079,-19.284],[-41.0697,-19.18264],[-41.0862,-19.18163],[-41.10313,-19.29674]]]]}},{"type":"Feature","properties":{"territory_id":"mg-3154309-centro","name":"Centro","municipality_id":"mg-3154309","polling_places":3,"approx":true,"official":false,"method":"voronoi-polling-places","whole_municipality":false,"approx_coords_only":false},"geometry":{"type":"MultiPolygon","coordinates":[[[[-41.3681,-19.2565],[-41.349,-19.2723],[-41.3248,-19.3276],[-41.31524,-19.33766],[-41.25804,-19.32971],[-41.25797,-19.32973],[-41.24411,-19.33897],[-41.25209,-19.32687],[-41.25397,-19.32036],[-41.2618,-19.25201],[-41.36697,-19.25259],[-41.3681,-19.2565]]]]}},{"type":"Feature","properties":{"territory_id":"mg-3154309-distrito-de-calixto","name":"Distrito de Calixto","municipality_id":"mg-3154309","polling_places":1,"approx":true,"official":false,"method":"voronoi-polling-places","whole_municipality":false,"approx_coords_only":false},"geometry":{"type":"MultiPolygon","coordinates":[[[[-41.22948,-19.24982],[-41.16182,-19.34055],[-41.1442,-19.3409],[-41.1534,-19.3129],[-41.1189,-19.2918],[-41.10313,-19.29674],[-41.0862,-19.18163],[-41.14802,-19.134],[-41.22948,-19.24982]]]]}},{"type":"Feature","properties":{"territory_id":"mg-3154309-distrito-de-campo-alegre","name":"Distrito de Campo Alegre","municipality_id":"mg-3154309","polling_places":1,"approx":true,"official":false,"method":"voronoi-polling-places","whole_municipality":false,"approx_coords_only":false},"geometry":{"type":"MultiPolygon","coordinates":[[[[-41.16627,-19.0809],[-41.14802,-19.134],[-41.0862,-19.18163],[-41.0697,-19.18264],[-40.95758,-19.13904],[-40.9643,-19.1221],[-41.0071,-19.1005],[-41.0126,-19.0758],[-41.0608,-19.0565],[-41.0893,-19.0792],[-41.1149,-19.0622],[-41.1363,-19.0786],[-41.16627,-19.0809]]]]}},{"type":"Feature","properties":{"territory_id":"mg-3154309-distrito-de-independencia","name":"Distrito de Independencia","municipality_id":"mg-3154309","polling_places":1,"approx":true,"official":false,"method":"voronoi-polling-places","whole_municipality":false,"approx_coords_only":false},"geometry":{"type":"MultiPolygon","coordinates":[[[[-41.3813,-19.197],[-41.3591,-19.2254],[-41.36697,-19.25259],[-41.2618,-19.25201],[-41.22948,-19.24982],[-41.14802,-19.134],[-41.16627,-19.0809],[-41.234,-19.0861],[-41.277,-19.1226],[-41.3112,-19.167],[-41.3813,-19.197]]]]}},{"type":"Feature","properties":{"territory_id":"mg-3154309-distrito-de-nicolandia","name":"Distrito de Nicolandia","municipality_id":"mg-3154309","polling_places":1,"approx":true,"official":false,"method":"voronoi-polling-places","whole_municipality":false,"approx_coords_only":false},"geometry":{"type":"MultiPolygon","coordinates":[[[[-41.0697,-19.18264],[-40.98079,-19.284],[-40.9577,-19.2617],[-40.9323,-19.2512],[-40.9354,-19.2227],[-40.9411,-19.1806],[-40.95758,-19.13904],[-41.0697,-19.18264]]]]}},{"type":"Feature","properties":{"territory_id":"mg-3154309-nossa-senhora-de-fatima","name":"Nossa Senhora de Fatima","municipality_id":"mg-3154309","polling_places":1,"approx":true,"official":false,"method":"voronoi-polling-places","whole_municipality":false,"approx_coords_only":false},"geometry":{"type":"MultiPolygon","coordinates":[[[[-41.2618,-19.25201],[-41.25397,-19.32036],[-41.25209,-19.32687],[-41.24411,-19.33897],[-41.21358,-19.37328],[-41.2073,-19.3734],[-41.194,-19.3399],[-41.16182,-19.34055],[-41.22948,-19.24982],[-41.2618,-19.25201]]]]}},{"type":"Feature","properties":{"territory_id":"mg-3154309-sao-vicente","name":"Sao Vicente","municipality_id":"mg-3154309","polling_places":1,"approx":true,"official":false,"method":"voronoi-polling-places","whole_municipality":false,"approx_coords_only":false},"geometry":{"type":"MultiPolygon","coordinates":[[[[-41.31524,-19.33766],[-41.2826,-19.372],[-41.21358,-19.37328],[-41.24411,-19.33897],[-41.25797,-19.32973],[-41.25804,-19.32971],[-41.31524,-19.33766]]]]}}]}