{"type":"FeatureCollection","features":[{"type":"Feature","properties":{"territory_id":"mg-3154200-centro","name":"Centro","municipality_id":"mg-3154200","polling_places":2,"approx":true,"official":false,"method":"voronoi-polling-places","whole_municipality":false,"approx_coords_only":false},"geometry":{"type":"MultiPolygon","coordinates":[[[[-44.2876,-20.91712],[-44.2831,-20.9568],[-44.2637,-20.9912],[-44.2778,-21.016],[-44.2247,-20.9787],[-44.1895,-20.9762],[-44.17353,-20.96648],[-44.24178,-20.91408],[-44.24373,-20.91175],[-44.27965,-20.90554],[-44.2876,-20.91712]]]]}},{"type":"Feature","properties":{"territory_id":"mg-3154200-distrito-de-jacarandira","name":"Distrito de Jacarandira","municipality_id":"mg-3154200","polling_places":1,"approx":true,"official":false,"method":"voronoi-polling-places","whole_municipality":false,"approx_coords_only":false},"geometry":{"type":"MultiPolygon","coordinates":[[[[-44.4536,-20.8492],[-44.44711,-20.89188],[-44.41597,-20.86352],[-44.38053,-20.75695],[-44.4213,-20.7125],[-44.4294,-20.7662],[-44.4477,-20.7863],[-44.4536,-20.8492]]]]}},{"type":"Feature","properties":{"territory_id":"mg-3154200-expedicionarios","name":"Expedicionários","municipality_id":"mg-3154200","polling_places":1,"approx":true,"official":false,"method":"voronoi-polling-places","whole_municipality":false,"approx_coords_only":false},"geometry":{"type":"MultiPolygon","coordinates":[[[[-44.24373,-20.91175],[-44.24178,-20.91408],[-44.17353,-20.96648],[-44.1473,-20.9505],[-44.14948,-20.90726],[-44.24373,-20.91175]]]]}},{"type":"Feature","properties":{"territory_id":"mg-3154200-tijuco","name":"Tijuco","municipality_id":"mg-3154200","polling_places":1,"approx":true,"official":false,"method":"voronoi-polling-places","whole_municipality":false,"approx_coords_only":false},"geometry":{"type":"MultiPolygon","coordinates":[[[[-44.27965,-20.90554],[-44.24373,-20.91175],[-44.14948,-20.90726],[-44.1498,-20.9009],[-44.202,-20.8637],[-44.20015,-20.8498],[-44.23344,-20.85263],[-44.2727,-20.88714],[-44.27965,-20.90554]]]]}},{"type":"Feature","properties":{"territory_id":"mg-3154200-zona-rural","name":"Zona Rural","municipality_id":"mg-3154200","polling_places":4,"approx":true,"official":false,"method":"voronoi-polling-places","whole_municipality":false,"approx_coords_only":false},"geometry":{"type":"MultiPolygon","coordinates":[[[[-44.44711,-20.89188],[-44.446,-20.8992],[-44.3964,-20.8579],[-44.3448,-20.8957],[-44.2876,-20.9171],[-44.2876,-20.91712],[-44.27965,-20.90554],[-44.2727,-20.88714],[-44.23344,-20.85263],[-44.20015,-20.8498],[-44.1932,-20.7976],[-44.1497,-20.7651],[-44.1863,-20.7545],[-44.237,-20.7224],[-44.265,-20.7235],[-44.3322,-20.7266],[-44.3608,-20.7115],[-44.3803,-20.7572],[-44.38053,-20.75695],[-44.41597,-20.86352],[-44.44711,-20.89188]]]]}}]}