{"type":"FeatureCollection","features":[{"type":"Feature","properties":{"territory_id":"mg-3154606-areias-de-baixo","name":"Areias de Baixo","municipality_id":"mg-3154606","polling_places":1,"approx":true,"official":false,"method":"voronoi-polling-places","whole_municipality":false,"approx_coords_only":false},"geometry":{"type":"MultiPolygon","coordinates":[[[[-44.0948,-19.79215],[-44.08547,-19.80727],[-44.07851,-19.80782],[-44.07838,-19.8078],[-44.06763,-19.79042],[-44.07514,-19.78287],[-44.08162,-19.78301],[-44.08842,-19.78327],[-44.09372,-19.78592],[-44.0948,-19.79215]]]]}},{"type":"Feature","properties":{"territory_id":"mg-3154606-areias-de-cima","name":"Areias de Cima","municipality_id":"mg-3154606","polling_places":1,"approx":true,"official":false,"method":"voronoi-polling-places","whole_municipality":false,"approx_coords_only":false},"geometry":{"type":"MultiPolygon","coordinates":[[[[-44.01794,-19.74955],[-44.0151,-19.76406],[-44.00905,-19.77728],[-43.99923,-19.77832],[-43.99842,-19.77795],[-43.99622,-19.77598],[-43.99063,-19.75951],[-44.0056,-19.7371],[-44.01794,-19.74955]]]]}},{"type":"Feature","properties":{"territory_id":"mg-3154606-botafogo-2-secao","name":"Botafogo 2 Seção","municipality_id":"mg-3154606","polling_places":2,"approx":true,"official":false,"method":"voronoi-polling-places","whole_municipality":false,"approx_coords_only":false},"geometry":{"type":"MultiPolygon","coordinates":[[[[-44.0248,-19.78835],[-44.02452,-19.79136],[-44.02473,-19.79929],[-44.02353,-19.7993],[-44.02088,-19.79808],[-44.01331,-19.79045],[-44.01344,-19.78993],[-44.01462,-19.78416],[-44.02208,-19.78553],[-44.0248,-19.78835]]]]}},{"type":"Feature","properties":{"territory_id":"mg-3154606-centro-de-justinopolis","name":"Centro de Justinopólis","municipality_id":"mg-3154606","polling_places":1,"approx":true,"official":false,"method":"voronoi-polling-places","whole_municipality":false,"approx_coords_only":false},"geometry":{"type":"MultiPolygon","coordinates":[[[[-44.02088,-19.79808],[-44.01631,-19.79987],[-44.01331,-19.79922],[-44.00825,-19.79494],[-44.0094,-19.79336],[-44.01331,-19.79045],[-44.02088,-19.79808]]]]}},{"type":"Feature","properties":{"territory_id":"mg-3154606-centro-de-neves","name":"Centro de Neves","municipality_id":"mg-3154606","polling_places":1,"approx":true,"official":false,"method":"voronoi-polling-places","whole_municipality":false,"approx_coords_only":false},"geometry":{"type":"MultiPolygon","coordinates":[[[[-44.09325,-19.76303],[-44.09097,-19.76685],[-44.08796,-19.77135],[-44.07832,-19.77026],[-44.07696,-19.76622],[-44.09325,-19.76303]]]]}},{"type":"Feature","properties":{"territory_id":"mg-3154606-conjunto-henrique-sapori","name":"Conjunto Henrique Sapori","municipality_id":"mg-3154606","polling_places":2,"approx":true,"official":false,"method":"voronoi-polling-places","whole_municipality":false,"approx_coords_only":false},"geometry":{"type":"MultiPolygon","coordinates":[[[[-44.14332,-19.76672],[-44.13698,-19.76624],[-44.13644,-19.76624],[-44.12512,-19.75857],[-44.14042,-19.75923],[-44.14073,-19.76012],[-44.14332,-19.76672]]]]}},{"type":"Feature","properties":{"territory_id":"mg-3154606-dona-clarice","name":"Dona Clarice","municipality_id":"mg-3154606","polling_places":1,"approx":true,"official":false,"method":"voronoi-polling-places","whole_municipality":false,"approx_coords_only":false},"geometry":{"type":"MultiPolygon","coordinates":[[[[-44.03482,-19.8207],[-44.02884,-19.82569],[-44.01939,-19.82414],[-44.01679,-19.8215],[-44.01679,-19.82138],[-44.01937,-19.81442],[-44.03482,-19.8207]]]]}},{"type":"Feature","properties":{"territory_id":"mg-3154606-eliane-justinopolis","name":"Eliane (justinópolis)","municipality_id":"mg-3154606","polling_places":1,"approx":true,"official":false,"method":"voronoi-polling-places","whole_municipality":false,"approx_coords_only":false},"geometry":{"type":"MultiPolygon","coordinates":[[[[-44.04432,-19.81377],[-44.03993,-19.81815],[-44.03482,-19.8207],[-44.01937,-19.81442],[-44.01931,-19.8139],[-44.02013,-19.81248],[-44.03479,-19.80352],[-44.04027,-19.80419],[-44.04432,-19.81377]]]]}},{"type":"Feature","properties":{"territory_id":"mg-3154606-esperanca","name":"Esperança","municipality_id":"mg-3154606","polling_places":1,"approx":true,"official":false,"method":"voronoi-polling-places","whole_municipality":false,"approx_coords_only":false},"geometry":{"type":"MultiPolygon","coordinates":[[[[-44.03093,-19.77694],[-44.02208,-19.78553],[-44.01462,-19.78416],[-44.01392,-19.78244],[-44.02357,-19.77621],[-44.03093,-19.77694]]]]}},{"type":"Feature","properties":{"territory_id":"mg-3154606-flamengo","name":"Flamengo","municipality_id":"mg-3154606","polling_places":2,"approx":true,"official":false,"method":"voronoi-polling-places","whole_municipality":false,"approx_coords_only":false},"geometry":{"type":"MultiPolygon","coordinates":[[[[-44.01462,-19.78416],[-44.01344,-19.78993],[-44.01331,-19.79045],[-44.0094,-19.79336],[-44.00825,-19.79494],[-44.00657,-19.79649],[-44.00499,-19.79609],[-43.99884,-19.79014],[-43.99989,-19.78422],[-43.99923,-19.77832],[-44.00905,-19.77728],[-44.01392,-19.78244],[-44.01462,-19.78416]]]]}},{"type":"Feature","properties":{"territory_id":"mg-3154606-florenca","name":"Florença","municipality_id":"mg-3154606","polling_places":2,"approx":true,"official":false,"method":"voronoi-polling-places","whole_municipality":false,"approx_coords_only":false},"geometry":{"type":"MultiPolygon","coordinates":[[[[-44.15922,-19.76079],[-44.14929,-19.77644],[-44.14725,-19.77079],[-44.14332,-19.76672],[-44.14073,-19.76012],[-44.14042,-19.75923],[-44.14643,-19.75375],[-44.14885,-19.76305],[-44.1571,-19.75918],[-44.15922,-19.76079]]]]}},{"type":"Feature","properties":{"territory_id":"mg-3154606-franciscadriangela","name":"Franciscadriângela","municipality_id":"mg-3154606","polling_places":1,"approx":true,"official":false,"method":"voronoi-polling-places","whole_municipality":false,"approx_coords_only":false},"geometry":{"type":"MultiPolygon","coordinates":[[[[-44.13539,-19.79834],[-44.1351,-19.7988],[-44.1013,-19.809],[-44.09639,-19.81631],[-44.08547,-19.80727],[-44.0948,-19.79215],[-44.1251,-19.79095],[-44.12712,-19.79122],[-44.13539,-19.79834]]]]}},{"type":"Feature","properties":{"territory_id":"mg-3154606-girassol","name":"Girassol","municipality_id":"mg-3154606","polling_places":1,"approx":true,"official":false,"method":"voronoi-polling-places","whole_municipality":false,"approx_coords_only":false},"geometry":{"type":"MultiPolygon","coordinates":[[[[-44.02357,-19.77621],[-44.01392,-19.78244],[-44.00905,-19.77728],[-44.0151,-19.76406],[-44.02357,-19.77621]]]]}},{"type":"Feature","properties":{"territory_id":"mg-3154606-guadalajara","name":"Guadalajara","municipality_id":"mg-3154606","polling_places":1,"approx":true,"official":false,"method":"voronoi-polling-places","whole_municipality":false,"approx_coords_only":false},"geometry":{"type":"MultiPolygon","coordinates":[[[[-44.00902,-19.80329],[-43.99982,-19.81091],[-43.99758,-19.80828],[-44.00657,-19.79676],[-44.00902,-19.80329]]]]}},{"type":"Feature","properties":{"territory_id":"mg-3154606-jardim-colonial","name":"Jardim Colonial","municipality_id":"mg-3154606","polling_places":1,"approx":true,"official":false,"method":"voronoi-polling-places","whole_municipality":false,"approx_coords_only":false},"geometry":{"type":"MultiPolygon","coordinates":[[[[-44.1251,-19.79095],[-44.0948,-19.79215],[-44.09372,-19.78592],[-44.09518,-19.78097],[-44.09698,-19.77878],[-44.10137,-19.7737],[-44.1251,-19.79095]]]]}},{"type":"Feature","properties":{"territory_id":"mg-3154606-jardim-de-ala-justinopolis","name":"Jardim de Alá (justinopólis)","municipality_id":"mg-3154606","polling_places":1,"approx":true,"official":false,"method":"voronoi-polling-places","whole_municipality":false,"approx_coords_only":false},"geometry":{"type":"MultiPolygon","coordinates":[[[[-44.03479,-19.80352],[-44.02013,-19.81248],[-44.01804,-19.80551],[-44.02353,-19.7993],[-44.02473,-19.79929],[-44.03479,-19.80352]]]]}},{"type":"Feature","properties":{"territory_id":"mg-3154606-jardim-sao-judas-tadeu","name":"Jardim São Judas Tadeu","municipality_id":"mg-3154606","polling_places":1,"approx":true,"official":false,"method":"voronoi-polling-places","whole_municipality":false,"approx_coords_only":false},"geometry":{"type":"MultiPolygon","coordinates":[[[[-44.04596,-19.78536],[-44.04027,-19.80419],[-44.03479,-19.80352],[-44.02473,-19.79929],[-44.02452,-19.79136],[-44.0248,-19.78835],[-44.04596,-19.78536]]]]}},{"type":"Feature","properties":{"territory_id":"mg-3154606-katia-justinopolis","name":"Kátia (justinópolis)","municipality_id":"mg-3154606","polling_places":2,"approx":true,"official":false,"method":"voronoi-polling-places","whole_municipality":false,"approx_coords_only":false},"geometry":{"type":"MultiPolygon","coordinates":[[[[-44.01937,-19.81442],[-44.01679,-19.82138],[-44.01287,-19.81803],[-44.0047,-19.81662],[-44.00258,-19.81414],[-44.01097,-19.81153],[-44.01204,-19.81077],[-44.01931,-19.8139],[-44.01937,-19.81442]]]]}},{"type":"Feature","properties":{"territory_id":"mg-3154606-landi-justinopolis","name":"Landi (justinópolis)","municipality_id":"mg-3154606","polling_places":1,"approx":true,"official":false,"method":"voronoi-polling-places","whole_municipality":false,"approx_coords_only":false},"geometry":{"type":"MultiPolygon","coordinates":[[[[-43.99842,-19.77795],[-43.98589,-19.79459],[-43.97776,-19.78506],[-43.98515,-19.78029],[-43.99622,-19.77598],[-43.99842,-19.77795]]]]}},{"type":"Feature","properties":{"territory_id":"mg-3154606-liberdade","name":"Liberdade","municipality_id":"mg-3154606","polling_places":1,"approx":true,"official":false,"method":"voronoi-polling-places","whole_municipality":false,"approx_coords_only":false},"geometry":{"type":"MultiPolygon","coordinates":[[[[-44.09639,-19.81631],[-44.08077,-19.83956],[-44.07851,-19.80782],[-44.08547,-19.80727],[-44.09639,-19.81631]]]]}},{"type":"Feature","properties":{"territory_id":"mg-3154606-lidice","name":"Lídice","municipality_id":"mg-3154606","polling_places":1,"approx":true,"official":false,"method":"voronoi-polling-places","whole_municipality":false,"approx_coords_only":false},"geometry":{"type":"MultiPolygon","coordinates":[[[[-44.00657,-19.79676],[-43.99758,-19.80828],[-43.99475,-19.80496],[-44.00225,-19.79689],[-44.00499,-19.79609],[-44.00657,-19.79649],[-44.00657,-19.79676]]]]}},{"type":"Feature","properties":{"territory_id":"mg-3154606-luar-da-pampulha","name":"Luar da Pampulha","municipality_id":"mg-3154606","polling_places":1,"approx":true,"official":false,"method":"voronoi-polling-places","whole_municipality":false,"approx_coords_only":false},"geometry":{"type":"MultiPolygon","coordinates":[[[[-44.01679,-19.8215],[-44.01101,-19.82402],[-44.0047,-19.81662],[-44.01287,-19.81803],[-44.01679,-19.82138],[-44.01679,-19.8215]]]]}},{"type":"Feature","properties":{"territory_id":"mg-3154606-maria-helena-justinopolis","name":"Maria Helena (justinópolis)","municipality_id":"mg-3154606","polling_places":1,"approx":true,"official":false,"method":"voronoi-polling-places","whole_municipality":false,"approx_coords_only":false},"geometry":{"type":"MultiPolygon","coordinates":[[[[-43.99989,-19.78422],[-43.99884,-19.79014],[-43.99147,-19.79593],[-43.98824,-19.79734],[-43.98589,-19.79459],[-43.99842,-19.77795],[-43.99923,-19.77832],[-43.99989,-19.78422]]]]}},{"type":"Feature","properties":{"territory_id":"mg-3154606-menezes-justinopolis","name":"Menezes (justinopólis)","municipality_id":"mg-3154606","polling_places":1,"approx":true,"official":false,"method":"voronoi-polling-places","whole_municipality":false,"approx_coords_only":false},"geometry":{"type":"MultiPolygon","coordinates":[[[[-44.04672,-19.76635],[-44.0466,-19.77303],[-44.03093,-19.77694],[-44.02357,-19.77621],[-44.0151,-19.76406],[-44.01794,-19.74955],[-44.0409,-19.7727],[-44.04672,-19.76635]]]]}},{"type":"Feature","properties":{"territory_id":"mg-3154606-metropolitano","name":"Metropolitano","municipality_id":"mg-3154606","polling_places":1,"approx":true,"official":false,"method":"voronoi-polling-places","whole_municipality":false,"approx_coords_only":false},"geometry":{"type":"MultiPolygon","coordinates":[[[[-44.1641,-19.7531],[-44.15922,-19.76079],[-44.1571,-19.75918],[-44.14908,-19.74788],[-44.14887,-19.73151],[-44.1641,-19.7531]]]]}},{"type":"Feature","properties":{"territory_id":"mg-3154606-monte-verde","name":"Monte Verde","municipality_id":"mg-3154606","polling_places":1,"approx":true,"official":false,"method":"voronoi-polling-places","whole_municipality":false,"approx_coords_only":false},"geometry":{"type":"MultiPolygon","coordinates":[[[[-44.07838,-19.8078],[-44.0589,-19.81981],[-44.04432,-19.81377],[-44.04027,-19.80419],[-44.04596,-19.78536],[-44.04861,-19.78007],[-44.05649,-19.78341],[-44.06763,-19.79042],[-44.07838,-19.8078]]]]}},{"type":"Feature","properties":{"territory_id":"mg-3154606-neviana","name":"Neviana","municipality_id":"mg-3154606","polling_places":1,"approx":true,"official":false,"method":"voronoi-polling-places","whole_municipality":false,"approx_coords_only":false},"geometry":{"type":"MultiPolygon","coordinates":[[[[-44.12712,-19.79122],[-44.1251,-19.79095],[-44.10137,-19.7737],[-44.10698,-19.7552],[-44.11371,-19.75076],[-44.11833,-19.75691],[-44.11974,-19.76191],[-44.12712,-19.79122]]]]}},{"type":"Feature","properties":{"territory_id":"mg-3154606-nova-pampulha-justinopolis","name":"Nova Pampulha (justinópolis)","municipality_id":"mg-3154606","polling_places":2,"approx":true,"official":false,"method":"voronoi-polling-places","whole_municipality":false,"approx_coords_only":false},"geometry":{"type":"MultiPolygon","coordinates":[[[[-44.02884,-19.82569],[-44.02771,-19.83262],[-44.0168,-19.8308],[-44.01647,-19.83041],[-44.01792,-19.82845],[-44.01939,-19.82414],[-44.02884,-19.82569]]]]}},{"type":"Feature","properties":{"territory_id":"mg-3154606-nova-uniao","name":"Nova União","municipality_id":"mg-3154606","polling_places":1,"approx":true,"official":false,"method":"voronoi-polling-places","whole_municipality":false,"approx_coords_only":false},"geometry":{"type":"MultiPolygon","coordinates":[[[[-44.07852,-19.77242],[-44.07514,-19.78287],[-44.06763,-19.79042],[-44.05649,-19.78341],[-44.07828,-19.77048],[-44.07852,-19.77242]]]]}},{"type":"Feature","properties":{"territory_id":"mg-3154606-paraiso-das-piabas-justinopolis","name":"Paraíso das Piabas (justinópolis)","municipality_id":"mg-3154606","polling_places":1,"approx":true,"official":false,"method":"voronoi-polling-places","whole_municipality":false,"approx_coords_only":false},"geometry":{"type":"MultiPolygon","coordinates":[[[[-44.04861,-19.78007],[-44.04596,-19.78536],[-44.0248,-19.78835],[-44.02208,-19.78553],[-44.03093,-19.77694],[-44.0466,-19.77303],[-44.04861,-19.78007]]]]}},{"type":"Feature","properties":{"territory_id":"mg-3154606-pedra-branca-justinopolis","name":"Pedra Branca (justinópolis)","municipality_id":"mg-3154606","polling_places":1,"approx":true,"official":false,"method":"voronoi-polling-places","whole_municipality":false,"approx_coords_only":false},"geometry":{"type":"MultiPolygon","coordinates":[[[[-43.99622,-19.77598],[-43.98515,-19.78029],[-43.98313,-19.77073],[-43.99063,-19.75951],[-43.99622,-19.77598]]]]}},{"type":"Feature","properties":{"territory_id":"mg-3154606-rosaneves","name":"Rosaneves","municipality_id":"mg-3154606","polling_places":1,"approx":true,"official":false,"method":"voronoi-polling-places","whole_municipality":false,"approx_coords_only":false},"geometry":{"type":"MultiPolygon","coordinates":[[[[-44.11941,-19.72281],[-44.11371,-19.75076],[-44.10698,-19.7552],[-44.10179,-19.75589],[-44.08602,-19.75275],[-44.0796,-19.74497],[-44.07924,-19.74436],[-44.07904,-19.74263],[-44.1043,-19.7376],[-44.11941,-19.72281]]]]}},{"type":"Feature","properties":{"territory_id":"mg-3154606-rosimeire","name":"Rosimeire","municipality_id":"mg-3154606","polling_places":1,"approx":true,"official":false,"method":"voronoi-polling-places","whole_municipality":false,"approx_coords_only":false},"geometry":{"type":"MultiPolygon","coordinates":[[[[-44.03993,-19.81815],[-44.03925,-19.83455],[-44.02771,-19.83262],[-44.02884,-19.82569],[-44.03482,-19.8207],[-44.03993,-19.81815]]]]}},{"type":"Feature","properties":{"territory_id":"mg-3154606-san-genaro","name":"San Genaro","municipality_id":"mg-3154606","polling_places":1,"approx":true,"official":false,"method":"voronoi-polling-places","whole_municipality":false,"approx_coords_only":false},"geometry":{"type":"MultiPolygon","coordinates":[[[[-44.1571,-19.75918],[-44.14885,-19.76305],[-44.14643,-19.75375],[-44.14908,-19.74788],[-44.1571,-19.75918]]]]}},{"type":"Feature","properties":{"territory_id":"mg-3154606-san-marino","name":"San Marino","municipality_id":"mg-3154606","polling_places":1,"approx":true,"official":false,"method":"voronoi-polling-places","whole_municipality":false,"approx_coords_only":false},"geometry":{"type":"MultiPolygon","coordinates":[[[[-44.08077,-19.83956],[-44.0796,-19.8413],[-44.06072,-19.83814],[-44.0589,-19.81981],[-44.07838,-19.8078],[-44.07851,-19.80782],[-44.08077,-19.83956]]]]}},{"type":"Feature","properties":{"territory_id":"mg-3154606-santa-martinha","name":"Santa Martinha","municipality_id":"mg-3154606","polling_places":1,"approx":true,"official":false,"method":"voronoi-polling-places","whole_municipality":false,"approx_coords_only":false},"geometry":{"type":"MultiPolygon","coordinates":[[[[-44.07832,-19.77026],[-44.07828,-19.77048],[-44.05649,-19.78341],[-44.04861,-19.78007],[-44.0466,-19.77303],[-44.04672,-19.76635],[-44.04843,-19.76448],[-44.06483,-19.76125],[-44.07157,-19.76294],[-44.07606,-19.76482],[-44.07696,-19.76622],[-44.07832,-19.77026]]]]}},{"type":"Feature","properties":{"territory_id":"mg-3154606-santa-paula","name":"Santa Paula","municipality_id":"mg-3154606","polling_places":2,"approx":true,"official":false,"method":"voronoi-polling-places","whole_municipality":false,"approx_coords_only":false},"geometry":{"type":"MultiPolygon","coordinates":[[[[-44.08842,-19.78327],[-44.08162,-19.78301],[-44.07514,-19.78287],[-44.07852,-19.77242],[-44.0794,-19.77339],[-44.08842,-19.78327]]]]}},{"type":"Feature","properties":{"territory_id":"mg-3154606-santinho","name":"Santinho","municipality_id":"mg-3154606","polling_places":2,"approx":true,"official":false,"method":"voronoi-polling-places","whole_municipality":false,"approx_coords_only":false},"geometry":{"type":"MultiPolygon","coordinates":[[[[-44.07924,-19.74436],[-44.06914,-19.75182],[-44.06483,-19.76125],[-44.04843,-19.76448],[-44.0661,-19.7452],[-44.07904,-19.74263],[-44.07924,-19.74436]]]]}},{"type":"Feature","properties":{"territory_id":"mg-3154606-sao-januario-justinopolis","name":"São Januário (justinópolis)","municipality_id":"mg-3154606","polling_places":2,"approx":true,"official":false,"method":"voronoi-polling-places","whole_municipality":false,"approx_coords_only":false},"geometry":{"type":"MultiPolygon","coordinates":[[[[-44.01631,-19.79987],[-44.01202,-19.80443],[-44.01177,-19.8048],[-44.00902,-19.80329],[-44.00657,-19.79676],[-44.00657,-19.79649],[-44.00825,-19.79494],[-44.01331,-19.79922],[-44.01631,-19.79987]]]]}},{"type":"Feature","properties":{"territory_id":"mg-3154606-sao-jose-justinopolis","name":"Sâo José (justinopolis )","municipality_id":"mg-3154606","polling_places":1,"approx":true,"official":false,"method":"voronoi-polling-places","whole_municipality":false,"approx_coords_only":false},"geometry":{"type":"MultiPolygon","coordinates":[[[[-44.01258,-19.80598],[-44.01204,-19.81077],[-44.01097,-19.81153],[-44.00258,-19.81414],[-43.99982,-19.81091],[-44.00902,-19.80329],[-44.01177,-19.8048],[-44.01258,-19.80598]]]]}},{"type":"Feature","properties":{"territory_id":"mg-3154606-sao-miguel-arcanjo-justinopolis","name":"São Miguel Arcanjo (justinópolis)","municipality_id":"mg-3154606","polling_places":1,"approx":true,"official":false,"method":"voronoi-polling-places","whole_municipality":false,"approx_coords_only":false},"geometry":{"type":"MultiPolygon","coordinates":[[[[-44.02353,-19.7993],[-44.01804,-19.80551],[-44.01258,-19.80598],[-44.01177,-19.8048],[-44.01202,-19.80443],[-44.01631,-19.79987],[-44.02088,-19.79808],[-44.02353,-19.7993]]]]}},{"type":"Feature","properties":{"territory_id":"mg-3154606-sao-pedro","name":"São Pedro","municipality_id":"mg-3154606","polling_places":2,"approx":true,"official":false,"method":"voronoi-polling-places","whole_municipality":false,"approx_coords_only":false},"geometry":{"type":"MultiPolygon","coordinates":[[[[-44.10698,-19.7552],[-44.10137,-19.7737],[-44.09698,-19.77878],[-44.09518,-19.78097],[-44.08796,-19.77135],[-44.09097,-19.76685],[-44.09325,-19.76303],[-44.10179,-19.75589],[-44.10698,-19.7552]]]]}},{"type":"Feature","properties":{"territory_id":"mg-3154606-savassi","name":"Savassi","municipality_id":"mg-3154606","polling_places":1,"approx":true,"official":false,"method":"voronoi-polling-places","whole_municipality":false,"approx_coords_only":false},"geometry":{"type":"MultiPolygon","coordinates":[[[[-44.09518,-19.78097],[-44.09372,-19.78592],[-44.08842,-19.78327],[-44.0794,-19.77339],[-44.07852,-19.77242],[-44.07828,-19.77048],[-44.07832,-19.77026],[-44.08796,-19.77135],[-44.09518,-19.78097]]]]}},{"type":"Feature","properties":{"territory_id":"mg-3154606-severina-justinopolis","name":"Severina (justinopólis)","municipality_id":"mg-3154606","polling_places":1,"approx":true,"official":false,"method":"voronoi-polling-places","whole_municipality":false,"approx_coords_only":false},"geometry":{"type":"MultiPolygon","coordinates":[[[[-43.98515,-19.78029],[-43.97776,-19.78506],[-43.9754,-19.7823],[-43.98313,-19.77073],[-43.98515,-19.78029]]]]}},{"type":"Feature","properties":{"territory_id":"mg-3154606-sevilha-a","name":"Sevilha - A","municipality_id":"mg-3154606","polling_places":2,"approx":true,"official":false,"method":"voronoi-polling-places","whole_municipality":false,"approx_coords_only":false},"geometry":{"type":"MultiPolygon","coordinates":[[[[-44.08602,-19.75275],[-44.07606,-19.76482],[-44.07157,-19.76294],[-44.06483,-19.76125],[-44.06914,-19.75182],[-44.07924,-19.74436],[-44.0796,-19.74497],[-44.08602,-19.75275]]]]}},{"type":"Feature","properties":{"territory_id":"mg-3154606-sevilha-b","name":"Sevilha - B","municipality_id":"mg-3154606","polling_places":1,"approx":true,"official":false,"method":"voronoi-polling-places","whole_municipality":false,"approx_coords_only":false},"geometry":{"type":"MultiPolygon","coordinates":[[[[-44.10179,-19.75589],[-44.09325,-19.76303],[-44.07696,-19.76622],[-44.07606,-19.76482],[-44.08602,-19.75275],[-44.10179,-19.75589]]]]}},{"type":"Feature","properties":{"territory_id":"mg-3154606-soares","name":"Soares","municipality_id":"mg-3154606","polling_places":1,"approx":true,"official":false,"method":"voronoi-polling-places","whole_municipality":false,"approx_coords_only":false},"geometry":{"type":"MultiPolygon","coordinates":[[[[-44.06072,-19.83814],[-44.03925,-19.83455],[-44.03993,-19.81815],[-44.04432,-19.81377],[-44.0589,-19.81981],[-44.06072,-19.83814]]]]}},{"type":"Feature","properties":{"territory_id":"mg-3154606-tony-justinopolis","name":"Tony (justinópolis)","municipality_id":"mg-3154606","polling_places":2,"approx":true,"official":false,"method":"voronoi-polling-places","whole_municipality":false,"approx_coords_only":false},"geometry":{"type":"MultiPolygon","coordinates":[[[[-44.00499,-19.79609],[-44.00225,-19.79689],[-43.99475,-19.80496],[-43.98824,-19.79734],[-43.99147,-19.79593],[-43.99884,-19.79014],[-44.00499,-19.79609]]]]}},{"type":"Feature","properties":{"territory_id":"mg-3154606-vale-das-acacias","name":"Vale das Acacias","municipality_id":"mg-3154606","polling_places":1,"approx":true,"official":false,"method":"voronoi-polling-places","whole_municipality":false,"approx_coords_only":false},"geometry":{"type":"MultiPolygon","coordinates":[[[[-44.14908,-19.74788],[-44.14643,-19.75375],[-44.14042,-19.75923],[-44.12512,-19.75857],[-44.11833,-19.75691],[-44.11371,-19.75076],[-44.11941,-19.72281],[-44.1332,-19.7093],[-44.14887,-19.73151],[-44.14908,-19.74788]]]]}},{"type":"Feature","properties":{"territory_id":"mg-3154606-veneza","name":"Veneza","municipality_id":"mg-3154606","polling_places":3,"approx":true,"official":false,"method":"voronoi-polling-places","whole_municipality":false,"approx_coords_only":false},"geometry":{"type":"MultiPolygon","coordinates":[[[[-44.14929,-19.77644],[-44.13539,-19.79834],[-44.12712,-19.79122],[-44.11974,-19.76191],[-44.11833,-19.75691],[-44.12512,-19.75857],[-44.13644,-19.76624],[-44.13698,-19.76624],[-44.14332,-19.76672],[-44.14725,-19.77079],[-44.14929,-19.77644]]]]}},{"type":"Feature","properties":{"territory_id":"mg-3154606-vila-bispo-de-maura","name":"Vila Bispo de Maura","municipality_id":"mg-3154606","polling_places":1,"approx":true,"official":false,"method":"voronoi-polling-places","whole_municipality":false,"approx_coords_only":false},"geometry":{"type":"MultiPolygon","coordinates":[[[[-44.01939,-19.82414],[-44.01792,-19.82845],[-44.01647,-19.83041],[-44.01101,-19.82402],[-44.01679,-19.8215],[-44.01939,-19.82414]]]]}},{"type":"Feature","properties":{"territory_id":"mg-3154606-vila-real-justinopolis","name":"Vila Real (justinopolis)","municipality_id":"mg-3154606","polling_places":1,"approx":true,"official":false,"method":"voronoi-polling-places","whole_municipality":false,"approx_coords_only":false},"geometry":{"type":"MultiPolygon","coordinates":[[[[-44.02013,-19.81248],[-44.01931,-19.8139],[-44.01204,-19.81077],[-44.01258,-19.80598],[-44.01804,-19.80551],[-44.02013,-19.81248]]]]}}]}