{"type":"FeatureCollection","features":[{"type":"Feature","properties":{"territory_id":"mg-3154002-bairro-santana","name":"Bairro Santana","municipality_id":"mg-3154002","polling_places":1,"approx":true,"official":false,"method":"voronoi-polling-places","whole_municipality":false,"approx_coords_only":false},"geometry":{"type":"MultiPolygon","coordinates":[[[[-42.5288,-20.0801],[-42.52749,-20.09541],[-42.44739,-20.11336],[-42.44769,-20.11293],[-42.50974,-20.05887],[-42.5288,-20.0801]]]]}},{"type":"Feature","properties":{"territory_id":"mg-3154002-bicuiba","name":"Bicuiba","municipality_id":"mg-3154002","polling_places":1,"approx":true,"official":false,"method":"voronoi-polling-places","whole_municipality":false,"approx_coords_only":false},"geometry":{"type":"MultiPolygon","coordinates":[[[[-42.4087,-20.05311],[-42.39565,-20.13007],[-42.381,-20.1217],[-42.356,-20.1402],[-42.3107,-20.1428],[-42.2478,-20.0838],[-42.2842,-20.0781],[-42.324,-20.053],[-42.3223,-20.04718],[-42.38272,-20.03711],[-42.4087,-20.05311]]]]}},{"type":"Feature","properties":{"territory_id":"mg-3154002-centro","name":"Centro","municipality_id":"mg-3154002","polling_places":3,"approx":true,"official":false,"method":"voronoi-polling-places","whole_municipality":false,"approx_coords_only":false},"geometry":{"type":"MultiPolygon","coordinates":[[[[-42.50974,-20.05887],[-42.44769,-20.11293],[-42.44739,-20.11336],[-42.41974,-20.14388],[-42.4197,-20.1438],[-42.39565,-20.13007],[-42.4087,-20.05311],[-42.41875,-20.05013],[-42.46776,-20.03481],[-42.48578,-20.03351],[-42.50299,-20.03175],[-42.5033,-20.0517],[-42.50974,-20.05887]]]]}},{"type":"Feature","properties":{"territory_id":"mg-3154002-cornelio-alves","name":"Cornélio Alves","municipality_id":"mg-3154002","polling_places":1,"approx":true,"official":false,"method":"voronoi-polling-places","whole_municipality":false,"approx_coords_only":false},"geometry":{"type":"MultiPolygon","coordinates":[[[[-42.46776,-20.03481],[-42.41875,-20.05013],[-42.4087,-20.05311],[-42.38272,-20.03711],[-42.37451,-19.95978],[-42.40155,-19.94883],[-42.46776,-20.03481]]]]}},{"type":"Feature","properties":{"territory_id":"mg-3154002-distrito-sao-sebastiao-do-oculo","name":"Distrito Sao Sebastiao do Oculo","municipality_id":"mg-3154002","polling_places":1,"approx":true,"official":false,"method":"voronoi-polling-places","whole_municipality":false,"approx_coords_only":false},"geometry":{"type":"MultiPolygon","coordinates":[[[[-42.45757,-19.89732],[-42.40155,-19.94883],[-42.37451,-19.95978],[-42.31601,-19.93431],[-42.3529,-19.9288],[-42.3704,-19.8598],[-42.4307,-19.8531],[-42.45757,-19.89732]]]]}},{"type":"Feature","properties":{"territory_id":"mg-3154002-distrito-sao-vicente-da-estrela","name":"Distrito Sao Vicente da Estrela","municipality_id":"mg-3154002","polling_places":1,"approx":true,"official":false,"method":"voronoi-polling-places","whole_municipality":false,"approx_coords_only":false},"geometry":{"type":"MultiPolygon","coordinates":[[[[-42.5516,-19.886],[-42.5348,-19.9218],[-42.5367,-19.9534],[-42.502,-19.9671],[-42.50299,-20.03175],[-42.48578,-20.03351],[-42.46776,-20.03481],[-42.40155,-19.94883],[-42.45757,-19.89732],[-42.4595,-19.9005],[-42.509,-19.9074],[-42.5509,-19.8855],[-42.5515,-19.8859],[-42.5516,-19.886]]]]}},{"type":"Feature","properties":{"territory_id":"mg-3154002-santana-do-tabuleiro","name":"Santana do Tabuleiro","municipality_id":"mg-3154002","polling_places":1,"approx":true,"official":false,"method":"voronoi-polling-places","whole_municipality":false,"approx_coords_only":false},"geometry":{"type":"MultiPolygon","coordinates":[[[[-42.28436,-19.93434],[-42.25704,-19.99117],[-42.25,-19.9831],[-42.1974,-20.0035],[-42.1632,-19.9898],[-42.1691,-19.9384],[-42.1893,-19.9217],[-42.236,-19.9257],[-42.28436,-19.93434]]]]}},{"type":"Feature","properties":{"territory_id":"mg-3154002-vermelho-velho","name":"Vermelho Velho","municipality_id":"mg-3154002","polling_places":1,"approx":true,"official":false,"method":"voronoi-polling-places","whole_municipality":false,"approx_coords_only":false},"geometry":{"type":"MultiPolygon","coordinates":[[[[-42.38272,-20.03711],[-42.3223,-20.04718],[-42.3108,-20.0077],[-42.2644,-19.9996],[-42.25704,-19.99117],[-42.28436,-19.93434],[-42.2987,-19.9369],[-42.31601,-19.93431],[-42.37451,-19.95978],[-42.38272,-20.03711]]]]}},{"type":"Feature","properties":{"territory_id":"mg-3154002-vila-progresso","name":"Vila Progresso","municipality_id":"mg-3154002","polling_places":1,"approx":true,"official":false,"method":"voronoi-polling-places","whole_municipality":false,"approx_coords_only":false},"geometry":{"type":"MultiPolygon","coordinates":[[[[-42.52749,-20.09541],[-42.5239,-20.1375],[-42.478,-20.1559],[-42.4965,-20.1948],[-42.4401,-20.1859],[-42.41974,-20.14388],[-42.44739,-20.11336],[-42.52749,-20.09541]]]]}}]}