{"type":"FeatureCollection","features":[{"type":"Feature","properties":{"territory_id":"mg-3154804-centro","name":"Centro","municipality_id":"mg-3154804","polling_places":4,"approx":true,"official":false,"method":"voronoi-polling-places","whole_municipality":false,"approx_coords_only":false},"geometry":{"type":"MultiPolygon","coordinates":[[[[-43.81757,-20.05537],[-43.79445,-20.09042],[-43.79349,-20.09657],[-43.78647,-20.09226],[-43.77943,-20.09027],[-43.70049,-20.0703],[-43.7272,-20.0568],[-43.7343,-20.0013],[-43.783,-20.029],[-43.8159,-20.0531],[-43.81757,-20.05537]]]]}},{"type":"Feature","properties":{"territory_id":"mg-3154804-jatoba","name":"Jatoba","municipality_id":"mg-3154804","polling_places":1,"approx":true,"official":false,"method":"voronoi-polling-places","whole_municipality":false,"approx_coords_only":false},"geometry":{"type":"MultiPolygon","coordinates":[[[[-43.8583,-20.18997],[-43.8541,-20.1976],[-43.7941,-20.1799],[-43.7898,-20.154],[-43.6955,-20.1491],[-43.6605,-20.1185],[-43.69,-20.0756],[-43.70049,-20.0703],[-43.77943,-20.09027],[-43.78647,-20.09226],[-43.79349,-20.09657],[-43.8583,-20.18997]]]]}},{"type":"Feature","properties":{"territory_id":"mg-3154804-vila-duarte","name":"Vila Duarte","municipality_id":"mg-3154804","polling_places":1,"approx":true,"official":false,"method":"voronoi-polling-places","whole_municipality":false,"approx_coords_only":false},"geometry":{"type":"MultiPolygon","coordinates":[[[[-43.8732,-20.1629],[-43.8583,-20.18997],[-43.79349,-20.09657],[-43.79445,-20.09042],[-43.81757,-20.05537],[-43.8478,-20.0965],[-43.8522,-20.1382],[-43.8732,-20.1629]]]]}}]}