{"type":"FeatureCollection","features":[{"type":"Feature","properties":{"territory_id":"mg-3154150-centro","name":"Centro","municipality_id":"mg-3154150","polling_places":3,"approx":true,"official":false,"method":"voronoi-polling-places","whole_municipality":false,"approx_coords_only":false},"geometry":{"type":"MultiPolygon","coordinates":[[[[-42.0052,-20.2419],[-42.0003,-20.3098],[-41.921,-20.2913],[-41.8998,-20.30021],[-41.94853,-20.21042],[-41.96085,-20.18537],[-42.0052,-20.2419]]]]}},{"type":"Feature","properties":{"territory_id":"mg-3154150-jaguarai","name":"Jaguaraí","municipality_id":"mg-3154150","polling_places":1,"approx":true,"official":false,"method":"voronoi-polling-places","whole_municipality":false,"approx_coords_only":false},"geometry":{"type":"MultiPolygon","coordinates":[[[[-41.96085,-20.18537],[-41.94853,-20.21042],[-41.8998,-20.30021],[-41.8877,-20.3053],[-41.8975,-20.2271],[-41.8731,-20.198],[-41.8874,-20.1692],[-41.9223,-20.1736],[-41.9585,-20.1561],[-41.9575,-20.1811],[-41.96085,-20.18537]]]]}}]}