{"type":"FeatureCollection","features":[{"type":"Feature","properties":{"territory_id":"mg-3154457-centro","name":"Centro","municipality_id":"mg-3154457","polling_places":2,"approx":true,"official":false,"method":"voronoi-polling-places","whole_municipality":false,"approx_coords_only":false},"geometry":{"type":"MultiPolygon","coordinates":[[[[-46.2763,-16.3202],[-46.242,-16.34],[-46.1982,-16.3413],[-46.189,-16.3606],[-46.1489,-16.3784],[-46.0825,-16.371],[-46.0525,-16.3879],[-45.9947,-16.3826],[-45.9931,-16.38318],[-45.88508,-16.1948],[-45.97903,-16.16687],[-46.06003,-16.13885],[-46.0791,-16.1699],[-46.0834,-16.2112],[-46.1346,-16.2452],[-46.2309,-16.2377],[-46.2196,-16.2578],[-46.2647,-16.2929],[-46.2763,-16.3202]]]]}},{"type":"Feature","properties":{"territory_id":"mg-3154457-zona-rural","name":"Zona Rural","municipality_id":"mg-3154457","polling_places":3,"approx":true,"official":false,"method":"voronoi-polling-places","whole_municipality":false,"approx_coords_only":false},"geometry":{"type":"MultiPolygon","coordinates":[[[[-46.06003,-16.13885],[-45.97903,-16.16687],[-45.88508,-16.1948],[-45.9931,-16.38318],[-45.9524,-16.3979],[-45.9184,-16.3745],[-45.8929,-16.4489],[-45.9215,-16.493],[-45.9102,-16.5306],[-45.8464,-16.5035],[-45.8306,-16.5064],[-45.7837,-16.4615],[-45.7519,-16.4503],[-45.7127,-16.4126],[-45.7193,-16.3878],[-45.704,-16.3476],[-45.707,-16.3022],[-45.6805,-16.2499],[-45.6768,-16.2105],[-45.6552,-16.1827],[-45.6935,-16.1499],[-45.7516,-16.1293],[-45.7998,-16.1744],[-45.832,-16.1524],[-45.8628,-16.1693],[-45.8964,-16.1473],[-45.9061,-16.107],[-45.9476,-16.0753],[-45.9364,-16.0528],[-45.9879,-16.0155],[-46.0399,-16.0528],[-46.0557,-16.1318],[-46.06003,-16.13885]]]]}}]}