{"type":"FeatureCollection","features":[{"type":"Feature","properties":{"territory_id":"mg-3155207-araras","name":"Araras","municipality_id":"mg-3155207","polling_places":1,"approx":true,"official":false,"method":"voronoi-polling-places","whole_municipality":false,"approx_coords_only":false},"geometry":{"type":"MultiPolygon","coordinates":[[[[-43.6188,-20.8571],[-43.5773,-20.8766],[-43.55167,-20.90523],[-43.57749,-20.84415],[-43.60469,-20.84041],[-43.6188,-20.8571]]]]}},{"type":"Feature","properties":{"territory_id":"mg-3155207-centro","name":"Centro","municipality_id":"mg-3155207","polling_places":2,"approx":true,"official":false,"method":"voronoi-polling-places","whole_municipality":false,"approx_coords_only":false},"geometry":{"type":"MultiPolygon","coordinates":[[[[-43.53006,-20.92938],[-43.5227,-20.9376],[-43.4705,-20.9395],[-43.424,-20.9239],[-43.3716,-20.8815],[-43.3729,-20.8672],[-43.4251,-20.8237],[-43.50992,-20.83192],[-43.53006,-20.92938]]]]}},{"type":"Feature","properties":{"territory_id":"mg-3155207-distrito-de-piranguita","name":"Distrito de Piranguita","municipality_id":"mg-3155207","polling_places":1,"approx":true,"official":false,"method":"voronoi-polling-places","whole_municipality":false,"approx_coords_only":false},"geometry":{"type":"MultiPolygon","coordinates":[[[[-43.60469,-20.84041],[-43.57749,-20.84415],[-43.54965,-20.78287],[-43.5527,-20.7789],[-43.60469,-20.84041]]]]}},{"type":"Feature","properties":{"territory_id":"mg-3155207-distrito-rio-melo","name":"Distrito Rio Melo","municipality_id":"mg-3155207","polling_places":1,"approx":true,"official":false,"method":"voronoi-polling-places","whole_municipality":false,"approx_coords_only":false},"geometry":{"type":"MultiPolygon","coordinates":[[[[-43.57749,-20.84415],[-43.55167,-20.90523],[-43.53006,-20.92938],[-43.50992,-20.83192],[-43.5118,-20.8321],[-43.54965,-20.78287],[-43.57749,-20.84415]]]]}}]}