{"type":"FeatureCollection","features":[{"type":"Feature","properties":{"territory_id":"mg-3155009-centro","name":"Centro","municipality_id":"mg-3155009","polling_places":2,"approx":true,"official":false,"method":"voronoi-polling-places","whole_municipality":true,"approx_coords_only":false},"geometry":{"type":"MultiPolygon","coordinates":[[[[-42.9147,-20.2763],[-42.8855,-20.2551],[-42.811,-20.1456],[-42.8697,-20.1447],[-42.8801,-20.1799],[-42.9572,-20.2041],[-42.9748,-20.2201],[-42.9761,-20.2585],[-42.953,-20.273],[-42.9147,-20.2763]]]]}}]}