{"type":"FeatureCollection","features":[{"type":"Feature","properties":{"territory_id":"mg-3155504-centro","name":"Centro","municipality_id":"mg-3155504","polling_places":2,"approx":true,"official":false,"method":"voronoi-polling-places","whole_municipality":false,"approx_coords_only":false},"geometry":{"type":"MultiPolygon","coordinates":[[[[-46.3429,-19.20099],[-46.29426,-19.28085],[-46.28796,-19.2701],[-46.24091,-19.19174],[-46.21389,-19.14062],[-46.21967,-19.13845],[-46.30336,-19.10548],[-46.33674,-19.111],[-46.3429,-19.20099]]]]}},{"type":"Feature","properties":{"territory_id":"mg-3155504-distrito-de-abaete-dos-mendes","name":"Distrito de Abaeté dos Mendes","municipality_id":"mg-3155504","polling_places":1,"approx":true,"official":false,"method":"voronoi-polling-places","whole_municipality":false,"approx_coords_only":false},"geometry":{"type":"MultiPolygon","coordinates":[[[[-46.19837,-19.14517],[-46.14638,-19.25941],[-46.12929,-19.25888],[-46.1288,-19.2549],[-46.1099,-19.1969],[-46.0818,-19.1295],[-46.0886,-19.1076],[-46.1324,-19.1064],[-46.1526,-19.09838],[-46.19837,-19.14517]]]]}},{"type":"Feature","properties":{"territory_id":"mg-3155504-distrito-de-guarda-dos-ferreiros","name":"Distrito de Guarda dos Ferreiros","municipality_id":"mg-3155504","polling_places":1,"approx":true,"official":false,"method":"voronoi-polling-places","whole_municipality":false,"approx_coords_only":false},"geometry":{"type":"MultiPolygon","coordinates":[[[[-46.29002,-19.41956],[-46.2662,-19.4317],[-46.1734,-19.4229],[-46.1555,-19.4102],[-46.1258,-19.3691],[-46.1365,-19.3176],[-46.12929,-19.25888],[-46.14638,-19.25941],[-46.21431,-19.30501],[-46.26346,-19.33823],[-46.29002,-19.41956]]]]}},{"type":"Feature","properties":{"territory_id":"mg-3155504-novo-rio","name":"Novo Rio","municipality_id":"mg-3155504","polling_places":2,"approx":true,"official":false,"method":"voronoi-polling-places","whole_municipality":false,"approx_coords_only":false},"geometry":{"type":"MultiPolygon","coordinates":[[[[-46.29426,-19.28085],[-46.26346,-19.33823],[-46.21431,-19.30501],[-46.14638,-19.25941],[-46.19837,-19.14517],[-46.21389,-19.14062],[-46.24091,-19.19174],[-46.28796,-19.2701],[-46.29426,-19.28085]]]]}},{"type":"Feature","properties":{"territory_id":"mg-3155504-zona-rural","name":"Zona Rural","municipality_id":"mg-3155504","polling_places":3,"approx":true,"official":false,"method":"voronoi-polling-places","whole_municipality":false,"approx_coords_only":false},"geometry":{"type":"MultiPolygon","coordinates":[[[[-46.5408,-19.1933],[-46.5235,-19.216],[-46.5167,-19.2702],[-46.4962,-19.3137],[-46.4503,-19.3114],[-46.4221,-19.3306],[-46.3905,-19.4017],[-46.3174,-19.3828],[-46.307,-19.4109],[-46.29002,-19.41956],[-46.26346,-19.33823],[-46.29426,-19.28085],[-46.3429,-19.20099],[-46.33674,-19.111],[-46.3724,-19.1169],[-46.4067,-19.0912],[-46.4119,-19.0672],[-46.4752,-19.1274],[-46.4968,-19.1574],[-46.5274,-19.1579],[-46.5408,-19.1933]]],[[[-46.30336,-19.10548],[-46.21967,-19.13845],[-46.21389,-19.14062],[-46.19837,-19.14517],[-46.1526,-19.09838],[-46.1964,-19.081],[-46.2174,-19.0629],[-46.2638,-19.0643],[-46.2841,-19.1023],[-46.30336,-19.10548]]]]}}]}