{"type":"FeatureCollection","features":[{"type":"Feature","properties":{"territory_id":"mg-3155306-centro","name":"Centro","municipality_id":"mg-3155306","polling_places":1,"approx":true,"official":false,"method":"voronoi-polling-places","whole_municipality":false,"approx_coords_only":false},"geometry":{"type":"MultiPolygon","coordinates":[[[[-44.33985,-20.25888],[-44.29171,-20.31497],[-44.2773,-20.3088],[-44.2591,-20.2846],[-44.2668,-20.2506],[-44.27112,-20.23487],[-44.32722,-20.24204],[-44.33985,-20.25888]]]]}},{"type":"Feature","properties":{"territory_id":"mg-3155306-distrito-de-souza","name":"Distrito de Souza","municipality_id":"mg-3155306","polling_places":1,"approx":true,"official":false,"method":"voronoi-polling-places","whole_municipality":false,"approx_coords_only":false},"geometry":{"type":"MultiPolygon","coordinates":[[[[-44.35591,-20.19517],[-44.34025,-20.20762],[-44.28285,-20.19218],[-44.2865,-20.1789],[-44.3162,-20.1799],[-44.3508,-20.1597],[-44.35591,-20.19517]]]]}},{"type":"Feature","properties":{"territory_id":"mg-3155306-povoado-de-bernardas","name":"Povoado de Bernardas","municipality_id":"mg-3155306","polling_places":1,"approx":true,"official":false,"method":"voronoi-polling-places","whole_municipality":false,"approx_coords_only":false},"geometry":{"type":"MultiPolygon","coordinates":[[[[-44.38472,-20.27081],[-44.33601,-20.32776],[-44.3282,-20.3306],[-44.29171,-20.31497],[-44.33985,-20.25888],[-44.38472,-20.27081]]]]}},{"type":"Feature","properties":{"territory_id":"mg-3155306-povoado-de-lamas","name":"Povoado de Lamas","municipality_id":"mg-3155306","polling_places":1,"approx":true,"official":false,"method":"voronoi-polling-places","whole_municipality":false,"approx_coords_only":false},"geometry":{"type":"MultiPolygon","coordinates":[[[[-44.34025,-20.20762],[-44.32722,-20.24204],[-44.27112,-20.23487],[-44.28285,-20.19218],[-44.34025,-20.20762]]]]}},{"type":"Feature","properties":{"territory_id":"mg-3155306-povoado-de-morro-da-onca","name":"Povoado de Morro da Onça","municipality_id":"mg-3155306","polling_places":1,"approx":true,"official":false,"method":"voronoi-polling-places","whole_municipality":false,"approx_coords_only":false},"geometry":{"type":"MultiPolygon","coordinates":[[[[-44.4375,-20.3461],[-44.3941,-20.3517],[-44.3491,-20.323],[-44.33601,-20.32776],[-44.38472,-20.27081],[-44.42218,-20.26372],[-44.4353,-20.2917],[-44.4375,-20.3461]]]]}},{"type":"Feature","properties":{"territory_id":"mg-3155306-povoado-de-viamao","name":"Povoado de Viamão","municipality_id":"mg-3155306","polling_places":1,"approx":true,"official":false,"method":"voronoi-polling-places","whole_municipality":false,"approx_coords_only":false},"geometry":{"type":"MultiPolygon","coordinates":[[[[-44.42218,-20.26372],[-44.38472,-20.27081],[-44.33985,-20.25888],[-44.32722,-20.24204],[-44.34025,-20.20762],[-44.35591,-20.19517],[-44.362,-20.2374],[-44.3907,-20.2574],[-44.4179,-20.2546],[-44.42218,-20.26372]]]]}}]}