{"type":"FeatureCollection","features":[{"type":"Feature","properties":{"territory_id":"mg-3155108-centro","name":"Centro","municipality_id":"mg-3155108","polling_places":1,"approx":true,"official":false,"method":"voronoi-polling-places","whole_municipality":false,"approx_coords_only":false},"geometry":{"type":"MultiPolygon","coordinates":[[[[-40.682,-16.5715],[-40.6765,-16.5996],[-40.6345,-16.6093],[-40.6514,-16.6801],[-40.64689,-16.69535],[-40.47828,-16.67429],[-40.4933,-16.6621],[-40.4911,-16.5953],[-40.5244,-16.5587],[-40.5916,-16.5596],[-40.591,-16.5423],[-40.642,-16.5302],[-40.6538,-16.5563],[-40.682,-16.5715]]]]}},{"type":"Feature","properties":{"territory_id":"mg-3155108-vila-formosa","name":"Vila Formosa","municipality_id":"mg-3155108","polling_places":1,"approx":true,"official":false,"method":"voronoi-polling-places","whole_municipality":false,"approx_coords_only":false},"geometry":{"type":"MultiPolygon","coordinates":[[[[-40.64689,-16.69535],[-40.6371,-16.7284],[-40.6059,-16.7265],[-40.5791,-16.7534],[-40.5893,-16.7818],[-40.5862,-16.7973],[-40.5346,-16.8016],[-40.4865,-16.8401],[-40.4664,-16.8371],[-40.4837,-16.7848],[-40.459,-16.775],[-40.4359,-16.7375],[-40.4626,-16.687],[-40.47828,-16.67429],[-40.64689,-16.69535]]]]}}]}