{"type":"FeatureCollection","features":[{"type":"Feature","properties":{"territory_id":"mg-3155900-centro","name":"Centro","municipality_id":"mg-3155900","polling_places":3,"approx":true,"official":false,"method":"voronoi-polling-places","whole_municipality":false,"approx_coords_only":false},"geometry":{"type":"MultiPolygon","coordinates":[[[[-43.87495,-22.11074],[-43.8416,-22.0991],[-43.7765,-22.066],[-43.7314,-22.0962],[-43.7089,-22.0758],[-43.7501,-22.0213],[-43.7782,-22.0165],[-43.81425,-21.98455],[-43.82532,-22.00889],[-43.82546,-22.08779],[-43.82666,-22.08945],[-43.8536,-22.06762],[-43.87495,-22.11074]]]]}},{"type":"Feature","properties":{"territory_id":"mg-3155900-funil","name":"Funil","municipality_id":"mg-3155900","polling_places":1,"approx":true,"official":false,"method":"voronoi-polling-places","whole_municipality":false,"approx_coords_only":false},"geometry":{"type":"MultiPolygon","coordinates":[[[[-43.8536,-22.06762],[-43.82666,-22.08945],[-43.82546,-22.08779],[-43.82532,-22.00889],[-43.8536,-22.06762]]]]}},{"type":"Feature","properties":{"territory_id":"mg-3155900-sao-cristovao","name":"São Cristóvão","municipality_id":"mg-3155900","polling_places":1,"approx":true,"official":false,"method":"voronoi-polling-places","whole_municipality":false,"approx_coords_only":false},"geometry":{"type":"MultiPolygon","coordinates":[[[[-44.0041,-22.0031],[-44.0001,-22.0221],[-43.9696,-22.0448],[-43.9807,-22.0949],[-43.9771,-22.1464],[-43.87495,-22.11074],[-43.8536,-22.06762],[-43.82532,-22.00889],[-43.81425,-21.98455],[-43.831,-21.9697],[-43.8601,-21.9649],[-43.8676,-21.9622],[-43.9024,-21.9733],[-43.9769,-21.9567],[-44.0041,-22.0031]]]]}}]}