{"type":"FeatureCollection","features":[{"type":"Feature","properties":{"territory_id":"mg-3155702-bicas","name":"Bicas","municipality_id":"mg-3155702","polling_places":1,"approx":true,"official":false,"method":"voronoi-polling-places","whole_municipality":false,"approx_coords_only":false},"geometry":{"type":"MultiPolygon","coordinates":[[[[-43.20689,-19.96342],[-43.18705,-19.99528],[-43.13457,-19.97647],[-43.13424,-19.97591],[-43.13865,-19.95292],[-43.1547,-19.94704],[-43.16399,-19.94475],[-43.17252,-19.94351],[-43.20689,-19.96342]]]]}},{"type":"Feature","properties":{"territory_id":"mg-3155702-carvalho-zona-rural","name":"Carvalho - Zona Rural","municipality_id":"mg-3155702","polling_places":1,"approx":true,"official":false,"method":"voronoi-polling-places","whole_municipality":false,"approx_coords_only":false},"geometry":{"type":"MultiPolygon","coordinates":[[[[-43.13865,-19.95292],[-43.13424,-19.97591],[-43.05721,-19.9649],[-43.0512,-19.9421],[-43.05969,-19.92605],[-43.11913,-19.91153],[-43.13122,-19.92643],[-43.1376,-19.9464],[-43.13865,-19.95292]]]]}},{"type":"Feature","properties":{"territory_id":"mg-3155702-centro","name":"Centro","municipality_id":"mg-3155702","polling_places":4,"approx":true,"official":false,"method":"voronoi-polling-places","whole_municipality":false,"approx_coords_only":false},"geometry":{"type":"MultiPolygon","coordinates":[[[[-43.22572,-19.90401],[-43.21209,-19.91333],[-43.17252,-19.94351],[-43.16399,-19.94475],[-43.1547,-19.94704],[-43.13865,-19.95292],[-43.1376,-19.9464],[-43.17554,-19.91481],[-43.20582,-19.8794],[-43.2205,-19.8928],[-43.22572,-19.90401]]]]}},{"type":"Feature","properties":{"territory_id":"mg-3155702-corrego-sao-miguel","name":"Corrego Sao Miguel","municipality_id":"mg-3155702","polling_places":1,"approx":true,"official":false,"method":"voronoi-polling-places","whole_municipality":false,"approx_coords_only":false},"geometry":{"type":"MultiPolygon","coordinates":[[[[-43.20582,-19.8794],[-43.17554,-19.91481],[-43.1376,-19.9464],[-43.13122,-19.92643],[-43.20293,-19.87677],[-43.20582,-19.8794]]]]}},{"type":"Feature","properties":{"territory_id":"mg-3155702-distrito-conceicao-piracicaba","name":"Distrito Conceicao Piracicaba","municipality_id":"mg-3155702","polling_places":1,"approx":true,"official":false,"method":"voronoi-polling-places","whole_municipality":false,"approx_coords_only":false},"geometry":{"type":"MultiPolygon","coordinates":[[[[-43.12168,-19.87972],[-43.11913,-19.91153],[-43.05969,-19.92605],[-43.0697,-19.9071],[-43.0628,-19.8859],[-43.0894,-19.8581],[-43.12168,-19.87972]]]]}},{"type":"Feature","properties":{"territory_id":"mg-3155702-gomes-de-melo-zona-rural","name":"Gomes de Melo - Zona Rural","municipality_id":"mg-3155702","polling_places":1,"approx":true,"official":false,"method":"voronoi-polling-places","whole_municipality":false,"approx_coords_only":false},"geometry":{"type":"MultiPolygon","coordinates":[[[[-43.1945,-20.042],[-43.1832,-20.0411],[-43.1315,-20.0593],[-43.11146,-20.04877],[-43.13457,-19.97647],[-43.18705,-19.99528],[-43.19079,-20.00278],[-43.1945,-20.042]]]]}},{"type":"Feature","properties":{"territory_id":"mg-3155702-guedes-zona-rural","name":"Guedes - Zona Rural","municipality_id":"mg-3155702","polling_places":1,"approx":true,"official":false,"method":"voronoi-polling-places","whole_municipality":false,"approx_coords_only":false},"geometry":{"type":"MultiPolygon","coordinates":[[[[-43.288,-20.0536],[-43.27597,-20.05895],[-43.23444,-19.99945],[-43.2433,-19.9887],[-43.272,-20.0046],[-43.288,-20.0536]]]]}},{"type":"Feature","properties":{"territory_id":"mg-3155702-louis-ensch","name":"Louis Ensch","municipality_id":"mg-3155702","polling_places":1,"approx":true,"official":false,"method":"voronoi-polling-places","whole_municipality":false,"approx_coords_only":false},"geometry":{"type":"MultiPolygon","coordinates":[[[[-43.2335,-19.9207],[-43.22151,-19.9471],[-43.20689,-19.96342],[-43.17252,-19.94351],[-43.21209,-19.91333],[-43.22572,-19.90401],[-43.2335,-19.9207]]]]}},{"type":"Feature","properties":{"territory_id":"mg-3155702-nossa-senhora-de-fatima","name":"Nossa Senhora de Fatima","municipality_id":"mg-3155702","polling_places":1,"approx":true,"official":false,"method":"voronoi-polling-places","whole_municipality":false,"approx_coords_only":false},"geometry":{"type":"MultiPolygon","coordinates":[[[[-43.20293,-19.87677],[-43.13122,-19.92643],[-43.11913,-19.91153],[-43.12168,-19.87972],[-43.1454,-19.8956],[-43.1931,-19.8678],[-43.20293,-19.87677]]]]}},{"type":"Feature","properties":{"territory_id":"mg-3155702-padre-pinto","name":"Padre Pinto","municipality_id":"mg-3155702","polling_places":1,"approx":true,"official":false,"method":"voronoi-polling-places","whole_municipality":false,"approx_coords_only":false},"geometry":{"type":"MultiPolygon","coordinates":[[[[-43.13457,-19.97647],[-43.11146,-20.04877],[-43.0858,-20.0353],[-43.0378,-20.0336],[-43.0225,-20.0137],[-43.061,-19.9793],[-43.05721,-19.9649],[-43.13424,-19.97591],[-43.13457,-19.97647]]]]}},{"type":"Feature","properties":{"territory_id":"mg-3155702-ponte-nova-zona-rural","name":"Ponte Nova - Zona Rural","municipality_id":"mg-3155702","polling_places":1,"approx":true,"official":false,"method":"voronoi-polling-places","whole_municipality":false,"approx_coords_only":false},"geometry":{"type":"MultiPolygon","coordinates":[[[[-43.2433,-19.9887],[-43.23444,-19.99945],[-43.19079,-20.00278],[-43.18705,-19.99528],[-43.20689,-19.96342],[-43.22151,-19.9471],[-43.2108,-19.9707],[-43.2433,-19.9887]]]]}},{"type":"Feature","properties":{"territory_id":"mg-3155702-turvo-zona-rural","name":"Turvo - Zona Rural","municipality_id":"mg-3155702","polling_places":1,"approx":true,"official":false,"method":"voronoi-polling-places","whole_municipality":false,"approx_coords_only":false},"geometry":{"type":"MultiPolygon","coordinates":[[[[-43.27597,-20.05895],[-43.2644,-20.0641],[-43.2359,-20.0453],[-43.1945,-20.042],[-43.19079,-20.00278],[-43.23444,-19.99945],[-43.27597,-20.05895]]]]}}]}