{"type":"FeatureCollection","features":[{"type":"Feature","properties":{"territory_id":"mg-3155603-centro","name":"Centro","municipality_id":"mg-3155603","polling_places":4,"approx":true,"official":false,"method":"voronoi-polling-places","whole_municipality":false,"approx_coords_only":false},"geometry":{"type":"MultiPolygon","coordinates":[[[[-42.55256,-15.65217],[-42.52129,-15.62773],[-42.50979,-15.62231],[-42.50716,-15.61303],[-42.50502,-15.60606],[-42.52031,-15.59767],[-42.54232,-15.6072],[-42.546,-15.60816],[-42.54024,-15.61516],[-42.53976,-15.6155],[-42.53595,-15.61961],[-42.54498,-15.61884],[-42.55256,-15.65217]]]]}},{"type":"Feature","properties":{"territory_id":"mg-3155603-cidade-alta","name":"Cidade Alta","municipality_id":"mg-3155603","polling_places":1,"approx":true,"official":false,"method":"voronoi-polling-places","whole_municipality":false,"approx_coords_only":false},"geometry":{"type":"MultiPolygon","coordinates":[[[[-42.54655,-15.61682],[-42.54498,-15.61884],[-42.53595,-15.61961],[-42.53976,-15.6155],[-42.54024,-15.61516],[-42.54655,-15.61682]]]]}},{"type":"Feature","properties":{"territory_id":"mg-3155603-esplanada","name":"Esplanada","municipality_id":"mg-3155603","polling_places":1,"approx":true,"official":false,"method":"voronoi-polling-places","whole_municipality":false,"approx_coords_only":false},"geometry":{"type":"MultiPolygon","coordinates":[[[[-42.60223,-15.64081],[-42.5994,-15.67879],[-42.59215,-15.68779],[-42.55256,-15.65217],[-42.54498,-15.61884],[-42.54655,-15.61682],[-42.55772,-15.60748],[-42.56889,-15.60443],[-42.60223,-15.64081]]]]}},{"type":"Feature","properties":{"territory_id":"mg-3155603-juscelino-kubitschek","name":"Juscelino Kubitschek","municipality_id":"mg-3155603","polling_places":1,"approx":true,"official":false,"method":"voronoi-polling-places","whole_municipality":false,"approx_coords_only":false},"geometry":{"type":"MultiPolygon","coordinates":[[[[-42.56889,-15.60443],[-42.55772,-15.60748],[-42.546,-15.60816],[-42.54232,-15.6072],[-42.52031,-15.59767],[-42.54243,-15.57759],[-42.55844,-15.57721],[-42.56889,-15.60443]]]]}},{"type":"Feature","properties":{"territory_id":"mg-3155603-povoado-de-nova-aurora","name":"Povoado de Nova Aurora","municipality_id":"mg-3155603","polling_places":1,"approx":true,"official":false,"method":"voronoi-polling-places","whole_municipality":false,"approx_coords_only":false},"geometry":{"type":"MultiPolygon","coordinates":[[[[-42.71287,-15.8987],[-42.6943,-15.989],[-42.63219,-16.00556],[-42.6358,-15.974],[-42.6167,-15.9516],[-42.60697,-15.95724],[-42.6269,-15.88523],[-42.69575,-15.86502],[-42.71287,-15.8987]]]]}},{"type":"Feature","properties":{"territory_id":"mg-3155603-zona-rural","name":"Zona Rural","municipality_id":"mg-3155603","polling_places":60,"approx":true,"official":false,"method":"voronoi-polling-places","whole_municipality":false,"approx_coords_only":false},"geometry":{"type":"MultiPolygon","coordinates":[[[[-42.8131,-15.9003],[-42.7963,-15.9206],[-42.7586,-15.9323],[-42.7561,-15.9669],[-42.7256,-16.0416],[-42.7117,-16.0647],[-42.7061,-16.1583],[-42.6806,-16.1502],[-42.6642,-16.1208],[-42.6654,-16.0763],[-42.6318,-16.009],[-42.63219,-16.00556],[-42.6943,-15.989],[-42.71287,-15.8987],[-42.69575,-15.86502],[-42.6269,-15.88523],[-42.60697,-15.95724],[-42.5879,-15.9683],[-42.5402,-15.9544],[-42.5164,-15.9598],[-42.4719,-15.9613],[-42.3981,-15.9019],[-42.3545,-15.8598],[-42.3276,-15.8493],[-42.2741,-15.8182],[-42.2576,-15.7853],[-42.1932,-15.7463],[-42.2026,-15.7037],[-42.2575,-15.6856],[-42.2849,-15.6553],[-42.3226,-15.566],[-42.3058,-15.5214],[-42.3179,-15.4702],[-42.3843,-15.4716],[-42.421,-15.446],[-42.4031,-15.4199],[-42.407,-15.3895],[-42.4386,-15.4192],[-42.5168,-15.429],[-42.524,-15.4688],[-42.549,-15.4923],[-42.5964,-15.4279],[-42.6473,-15.4073],[-42.7008,-15.4225],[-42.7264,-15.4114],[-42.7344,-15.3936],[-42.7555,-15.3972],[-42.7551,-15.3984],[-42.7441,-15.4639],[-42.7824,-15.4847],[-42.7903,-15.5176],[-42.7823,-15.5777],[-42.804,-15.6057],[-42.7768,-15.7295],[-42.7616,-15.7839],[-42.7695,-15.8192],[-42.7952,-15.8257],[-42.8131,-15.9003]],[[-42.60223,-15.64081],[-42.56889,-15.60443],[-42.55844,-15.57721],[-42.54243,-15.57759],[-42.52031,-15.59767],[-42.50502,-15.60606],[-42.50716,-15.61303],[-42.50979,-15.62231],[-42.52129,-15.62773],[-42.55256,-15.65217],[-42.59215,-15.68779],[-42.5994,-15.67879],[-42.60223,-15.64081]]],[[[-42.55772,-15.60748],[-42.54655,-15.61682],[-42.54024,-15.61516],[-42.546,-15.60816],[-42.55772,-15.60748]]]]}}]}