{"type":"FeatureCollection","features":[{"type":"Feature","properties":{"territory_id":"mg-3155801-centro","name":"Centro","municipality_id":"mg-3155801","polling_places":7,"approx":true,"official":false,"method":"voronoi-polling-places","whole_municipality":false,"approx_coords_only":false},"geometry":{"type":"MultiPolygon","coordinates":[[[[-43.18947,-21.27807],[-43.18374,-21.27821],[-43.17891,-21.27949],[-43.17187,-21.28181],[-43.16349,-21.28547],[-43.15302,-21.29094],[-43.17343,-21.26962],[-43.1766,-21.26975],[-43.17831,-21.2708],[-43.1815,-21.26985],[-43.18163,-21.27007],[-43.18213,-21.27131],[-43.18947,-21.27807]]]]}},{"type":"Feature","properties":{"territory_id":"mg-3155801-experimental","name":"Experimental","municipality_id":"mg-3155801","polling_places":1,"approx":true,"official":false,"method":"voronoi-polling-places","whole_municipality":false,"approx_coords_only":false},"geometry":{"type":"MultiPolygon","coordinates":[[[[-43.20052,-21.22077],[-43.18956,-21.23655],[-43.17537,-21.25224],[-43.1121,-21.30005],[-43.073,-21.2907],[-43.1033,-21.2646],[-43.1186,-21.2175],[-43.1038,-21.2011],[-43.0927,-21.174],[-43.1198,-21.1191],[-43.1317,-21.1201],[-43.1602,-21.147],[-43.1666,-21.1861],[-43.20052,-21.22077]]]]}},{"type":"Feature","properties":{"territory_id":"mg-3155801-jardim-america","name":"Jardim América","municipality_id":"mg-3155801","polling_places":2,"approx":true,"official":false,"method":"voronoi-polling-places","whole_municipality":false,"approx_coords_only":false},"geometry":{"type":"MultiPolygon","coordinates":[[[[-43.27019,-21.29743],[-43.18947,-21.27807],[-43.18213,-21.27131],[-43.18163,-21.27007],[-43.1815,-21.26985],[-43.18444,-21.25496],[-43.18956,-21.23655],[-43.20052,-21.22077],[-43.2029,-21.2232],[-43.2448,-21.2109],[-43.2697,-21.2509],[-43.2684,-21.2784],[-43.27019,-21.29743]]]]}},{"type":"Feature","properties":{"territory_id":"mg-3155801-jose-mendonca-dos-reis","name":"José Mendonça dos Reis","municipality_id":"mg-3155801","polling_places":1,"approx":true,"official":false,"method":"voronoi-polling-places","whole_municipality":false,"approx_coords_only":false},"geometry":{"type":"MultiPolygon","coordinates":[[[[-43.272,-21.3167],[-43.2362,-21.334],[-43.2085,-21.318],[-43.1833,-21.3515],[-43.1571,-21.3108],[-43.13283,-21.305],[-43.15302,-21.29094],[-43.16349,-21.28547],[-43.17187,-21.28181],[-43.17891,-21.27949],[-43.18374,-21.27821],[-43.18947,-21.27807],[-43.27019,-21.29743],[-43.272,-21.3167]]]]}},{"type":"Feature","properties":{"territory_id":"mg-3155801-nossa-senhora-das-gracas","name":"Nossa Senhora das Graças","municipality_id":"mg-3155801","polling_places":1,"approx":true,"official":false,"method":"voronoi-polling-places","whole_municipality":false,"approx_coords_only":false},"geometry":{"type":"MultiPolygon","coordinates":[[[[-43.17537,-21.25224],[-43.17343,-21.26962],[-43.15302,-21.29094],[-43.13283,-21.305],[-43.1121,-21.30005],[-43.17537,-21.25224]]]]}},{"type":"Feature","properties":{"territory_id":"mg-3155801-rosario","name":"Rosário","municipality_id":"mg-3155801","polling_places":2,"approx":true,"official":false,"method":"voronoi-polling-places","whole_municipality":false,"approx_coords_only":false},"geometry":{"type":"MultiPolygon","coordinates":[[[[-43.18956,-21.23655],[-43.18444,-21.25496],[-43.1815,-21.26985],[-43.17831,-21.2708],[-43.1766,-21.26975],[-43.17343,-21.26962],[-43.17537,-21.25224],[-43.18956,-21.23655]]]]}}]}