{"type":"FeatureCollection","features":[{"type":"Feature","properties":{"territory_id":"mg-3155405-centro","name":"Centro","municipality_id":"mg-3155405","polling_places":6,"approx":true,"official":false,"method":"voronoi-polling-places","whole_municipality":false,"approx_coords_only":false},"geometry":{"type":"MultiPolygon","coordinates":[[[[-43.25652,-21.44196],[-43.2021,-21.471],[-43.2354,-21.4949],[-43.2148,-21.5074],[-43.1644,-21.504],[-43.1323,-21.5209],[-43.1232,-21.571],[-43.0912,-21.5573],[-43.08218,-21.53958],[-43.09018,-21.50681],[-43.09346,-21.49089],[-43.10119,-21.42944],[-43.1266,-21.41252],[-43.12407,-21.47248],[-43.1234,-21.47324],[-43.12602,-21.47644],[-43.12605,-21.47643],[-43.12832,-21.47361],[-43.25652,-21.44196]]]]}},{"type":"Feature","properties":{"territory_id":"mg-3155405-povoado-de-furtado-de-campos","name":"Povoado de Furtado de Campos","municipality_id":"mg-3155405","polling_places":1,"approx":true,"official":false,"method":"voronoi-polling-places","whole_municipality":false,"approx_coords_only":false},"geometry":{"type":"MultiPolygon","coordinates":[[[[-43.10119,-21.42944],[-43.09346,-21.49089],[-43.09018,-21.50681],[-43.08218,-21.53958],[-43.0523,-21.4809],[-43.0603,-21.4304],[-43.0864,-21.4393],[-43.10119,-21.42944]]]]}},{"type":"Feature","properties":{"territory_id":"mg-3155405-povoado-dos-netos-zona-rural","name":"Povoado dos Netos ( Zona Rural )","municipality_id":"mg-3155405","polling_places":1,"approx":true,"official":false,"method":"voronoi-polling-places","whole_municipality":false,"approx_coords_only":false},"geometry":{"type":"MultiPolygon","coordinates":[[[[-43.12832,-21.47361],[-43.12605,-21.47643],[-43.12602,-21.47644],[-43.1234,-21.47324],[-43.12407,-21.47248],[-43.12832,-21.47361]]]]}},{"type":"Feature","properties":{"territory_id":"mg-3155405-vila-franca","name":"Vila França","municipality_id":"mg-3155405","polling_places":1,"approx":true,"official":false,"method":"voronoi-polling-places","whole_municipality":false,"approx_coords_only":false},"geometry":{"type":"MultiPolygon","coordinates":[[[[-43.2615,-21.4393],[-43.25652,-21.44196],[-43.12832,-21.47361],[-43.12407,-21.47248],[-43.1266,-21.41252],[-43.1586,-21.3912],[-43.1597,-21.4208],[-43.1942,-21.4288],[-43.2471,-21.4169],[-43.2615,-21.4393]]]]}}]}