{"type":"FeatureCollection","features":[{"type":"Feature","properties":{"territory_id":"mg-3156601-centro","name":"Centro","municipality_id":"mg-3156601","polling_places":1,"approx":true,"official":false,"method":"voronoi-polling-places","whole_municipality":false,"approx_coords_only":false},"geometry":{"type":"MultiPolygon","coordinates":[[[[-40.61223,-16.37594],[-40.42898,-16.38923],[-40.4307,-16.3821],[-40.4155,-16.3319],[-40.4686,-16.1953],[-40.5098,-16.2536],[-40.55,-16.2737],[-40.5689,-16.324],[-40.61223,-16.37594]]]]}},{"type":"Feature","properties":{"territory_id":"mg-3156601-distrito-de-itapiru","name":"Distrito de Itapiru","municipality_id":"mg-3156601","polling_places":1,"approx":true,"official":false,"method":"voronoi-polling-places","whole_municipality":false,"approx_coords_only":false},"geometry":{"type":"MultiPolygon","coordinates":[[[[-40.61154,-16.53743],[-40.591,-16.5423],[-40.5916,-16.5596],[-40.5244,-16.5587],[-40.4911,-16.5953],[-40.4933,-16.6621],[-40.4626,-16.687],[-40.4048,-16.6664],[-40.3885,-16.6796],[-40.356,-16.6526],[-40.3496,-16.6328],[-40.3727,-16.5726],[-40.3524,-16.5017],[-40.3827,-16.4429],[-40.4196,-16.428],[-40.42623,-16.40059],[-40.61154,-16.53743]]]]}},{"type":"Feature","properties":{"territory_id":"mg-3156601-guarana","name":"Guarana","municipality_id":"mg-3156601","polling_places":1,"approx":true,"official":false,"method":"voronoi-polling-places","whole_municipality":false,"approx_coords_only":false},"geometry":{"type":"MultiPolygon","coordinates":[[[[-40.6724,-16.4543],[-40.6647,-16.5137],[-40.6538,-16.5563],[-40.642,-16.5302],[-40.61154,-16.53743],[-40.42623,-16.40059],[-40.42898,-16.38923],[-40.61223,-16.37594],[-40.6142,-16.3783],[-40.6354,-16.4417],[-40.6724,-16.4543]]]]}}]}