{"type":"FeatureCollection","features":[{"type":"Feature","properties":{"territory_id":"mg-3156403-centro","name":"Centro","municipality_id":"mg-3156403","polling_places":1,"approx":true,"official":false,"method":"voronoi-polling-places","whole_municipality":false,"approx_coords_only":false},"geometry":{"type":"MultiPolygon","coordinates":[[[[-47.65801,-18.80937],[-47.49486,-18.97928],[-47.4934,-18.9632],[-47.4762,-18.9147],[-47.4288,-18.8989],[-47.4507,-18.8703],[-47.4537,-18.83],[-47.5028,-18.8161],[-47.5517,-18.8255],[-47.6032,-18.8172],[-47.6103,-18.7975],[-47.6578,-18.8013],[-47.65801,-18.80937]]]]}},{"type":"Feature","properties":{"territory_id":"mg-3156403-morada-nova-ii","name":"Morada Nova Ii","municipality_id":"mg-3156403","polling_places":1,"approx":true,"official":false,"method":"voronoi-polling-places","whole_municipality":false,"approx_coords_only":false},"geometry":{"type":"MultiPolygon","coordinates":[[[[-47.6705,-18.9416],[-47.6061,-19.0162],[-47.573,-19.0129],[-47.5349,-19.0085],[-47.4957,-18.9885],[-47.49486,-18.97928],[-47.65801,-18.80937],[-47.6589,-18.8432],[-47.6467,-18.8848],[-47.6705,-18.9416]]]]}}]}