{"type":"FeatureCollection","features":[{"type":"Feature","properties":{"territory_id":"mg-3156007-centro","name":"Centro","municipality_id":"mg-3156007","polling_places":5,"approx":true,"official":false,"method":"voronoi-polling-places","whole_municipality":false,"approx_coords_only":false},"geometry":{"type":"MultiPolygon","coordinates":[[[[-43.10665,-18.3069],[-43.04585,-18.30372],[-43.0115,-18.29585],[-43.00907,-18.29651],[-42.99395,-18.30475],[-42.86805,-18.32134],[-42.86743,-18.30168],[-42.8871,-18.29071],[-42.912,-18.2901],[-42.92407,-18.27009],[-42.95296,-18.25397],[-42.96582,-18.25343],[-43.00902,-18.25078],[-43.0737,-18.24571],[-43.10665,-18.3069]]]]}},{"type":"Feature","properties":{"territory_id":"mg-3156007-chapadinha","name":"Chapadinha","municipality_id":"mg-3156007","polling_places":1,"approx":true,"official":false,"method":"voronoi-polling-places","whole_municipality":false,"approx_coords_only":false},"geometry":{"type":"MultiPolygon","coordinates":[[[[-43.04585,-18.30372],[-42.99395,-18.30475],[-43.00907,-18.29651],[-43.0115,-18.29585],[-43.04585,-18.30372]]]]}},{"type":"Feature","properties":{"territory_id":"mg-3156007-magalhaes","name":"Magalhães","municipality_id":"mg-3156007","polling_places":1,"approx":true,"official":false,"method":"voronoi-polling-places","whole_municipality":false,"approx_coords_only":false},"geometry":{"type":"MultiPolygon","coordinates":[[[[-43.14439,-18.36382],[-43.1392,-18.3695],[-43.1344,-18.4241],[-43.1126,-18.4295],[-43.0666,-18.4009],[-43.0033,-18.3944],[-42.8694,-18.3643],[-42.86805,-18.32134],[-42.99395,-18.30475],[-43.04585,-18.30372],[-43.10665,-18.3069],[-43.14439,-18.36382]]]]}},{"type":"Feature","properties":{"territory_id":"mg-3156007-zona-rural","name":"Zona Rural","municipality_id":"mg-3156007","polling_places":5,"approx":true,"official":false,"method":"voronoi-polling-places","whole_municipality":false,"approx_coords_only":false},"geometry":{"type":"MultiPolygon","coordinates":[[[[-43.273,-18.2525],[-43.2628,-18.3034],[-43.2636,-18.3061],[-43.2257,-18.2991],[-43.2022,-18.3403],[-43.1677,-18.3383],[-43.14439,-18.36382],[-43.10665,-18.3069],[-43.0737,-18.24571],[-43.00902,-18.25078],[-42.96582,-18.25343],[-42.95296,-18.25397],[-42.92407,-18.27009],[-42.9451,-18.2352],[-42.9296,-18.1819],[-42.8897,-18.1592],[-42.8668,-18.1231],[-42.9094,-18.1098],[-42.9443,-18.1127],[-42.9897,-18.1491],[-43.0336,-18.0874],[-43.0757,-18.068],[-43.0884,-18.0992],[-43.1369,-18.1081],[-43.1373,-18.1088],[-43.1846,-18.1784],[-43.1859,-18.2004],[-43.2346,-18.2186],[-43.221,-18.2406],[-43.2386,-18.2749],[-43.273,-18.2525]]],[[[-42.8871,-18.29071],[-42.86743,-18.30168],[-42.8671,-18.2912],[-42.8871,-18.29071]]]]}}]}