{"type":"FeatureCollection","features":[{"type":"Feature","properties":{"territory_id":"mg-3156452-centro","name":"Centro","municipality_id":"mg-3156452","polling_places":1,"approx":true,"official":false,"method":"voronoi-polling-places","whole_municipality":false,"approx_coords_only":false},"geometry":{"type":"MultiPolygon","coordinates":[[[[-42.57688,-20.94312],[-42.52983,-20.99419],[-42.46729,-20.95731],[-42.4894,-20.9582],[-42.4976,-20.9442],[-42.5661,-20.9221],[-42.57688,-20.94312]]]]}},{"type":"Feature","properties":{"territory_id":"mg-3156452-vital","name":"Vital","municipality_id":"mg-3156452","polling_places":1,"approx":true,"official":false,"method":"voronoi-polling-places","whole_municipality":false,"approx_coords_only":false},"geometry":{"type":"MultiPolygon","coordinates":[[[[-42.52983,-20.99419],[-42.51933,-21.00877],[-42.5151,-21.0033],[-42.4612,-21.0138],[-42.4232,-20.9821],[-42.4271,-20.9557],[-42.46729,-20.95731],[-42.52983,-20.99419]]]]}},{"type":"Feature","properties":{"territory_id":"mg-3156452-zona-rural","name":"Zona Rural","municipality_id":"mg-3156452","polling_places":1,"approx":true,"official":false,"method":"voronoi-polling-places","whole_municipality":false,"approx_coords_only":false},"geometry":{"type":"MultiPolygon","coordinates":[[[[-42.582,-20.9531],[-42.5782,-20.9986],[-42.5466,-21.044],[-42.51933,-21.00877],[-42.52983,-20.99419],[-42.57688,-20.94312],[-42.582,-20.9531]]]]}}]}