{"type":"FeatureCollection","features":[{"type":"Feature","properties":{"territory_id":"mg-3156304-aroeiras","name":"Aroeiras","municipality_id":"mg-3156304","polling_places":1,"approx":true,"official":false,"method":"voronoi-polling-places","whole_municipality":false,"approx_coords_only":false},"geometry":{"type":"MultiPolygon","coordinates":[[[[-42.86614,-21.20132],[-42.81896,-21.26189],[-42.8138,-21.2607],[-42.7994,-21.2287],[-42.8023,-21.2023],[-42.8661,-21.20112],[-42.86614,-21.20132]]]]}},{"type":"Feature","properties":{"territory_id":"mg-3156304-centro","name":"Centro","municipality_id":"mg-3156304","polling_places":3,"approx":true,"official":false,"method":"voronoi-polling-places","whole_municipality":false,"approx_coords_only":false},"geometry":{"type":"MultiPolygon","coordinates":[[[[-42.8836,-21.1998],[-42.8614,-21.242],[-42.853,-21.2697],[-42.81896,-21.26189],[-42.86614,-21.20132],[-42.8661,-21.20112],[-42.8023,-21.2023],[-42.805,-21.1777],[-42.8619,-21.1569],[-42.8836,-21.1998]]]]}}]}