{"type":"FeatureCollection","features":[{"type":"Feature","properties":{"territory_id":"mg-3156908-alto-estacao","name":"Alto Estacao","municipality_id":"mg-3156908","polling_places":1,"approx":true,"official":false,"method":"voronoi-polling-places","whole_municipality":false,"approx_coords_only":false},"geometry":{"type":"MultiPolygon","coordinates":[[[[-47.50038,-19.93452],[-47.49854,-19.94046],[-47.43983,-19.87377],[-47.45151,-19.8679],[-47.50038,-19.93452]]]]}},{"type":"Feature","properties":{"territory_id":"mg-3156908-bela-vista-ii","name":"Bela Vista Ii","municipality_id":"mg-3156908","polling_places":1,"approx":true,"official":false,"method":"voronoi-polling-places","whole_municipality":false,"approx_coords_only":false},"geometry":{"type":"MultiPolygon","coordinates":[[[[-47.48322,-19.54168],[-47.45146,-19.86774],[-47.44552,-19.86625],[-47.15172,-19.7177],[-47.13608,-19.67471],[-47.2342,-19.6422],[-47.2644,-19.6579],[-47.2846,-19.6894],[-47.3354,-19.7127],[-47.3517,-19.7379],[-47.3985,-19.733],[-47.4513,-19.6501],[-47.4669,-19.5608],[-47.48322,-19.54168]]]]}},{"type":"Feature","properties":{"territory_id":"mg-3156908-centro","name":"Centro","municipality_id":"mg-3156908","polling_places":2,"approx":true,"official":false,"method":"voronoi-polling-places","whole_municipality":false,"approx_coords_only":false},"geometry":{"type":"MultiPolygon","coordinates":[[[[-47.45151,-19.8679],[-47.43983,-19.87377],[-47.43362,-19.87231],[-47.25533,-19.84723],[-47.16849,-19.765],[-47.15172,-19.7177],[-47.44552,-19.86625],[-47.45146,-19.86774],[-47.45151,-19.8679]]]]}},{"type":"Feature","properties":{"territory_id":"mg-3156908-desemboque","name":"Desemboque","municipality_id":"mg-3156908","polling_places":3,"approx":true,"official":false,"method":"voronoi-polling-places","whole_municipality":false,"approx_coords_only":false},"geometry":{"type":"MultiPolygon","coordinates":[[[[-47.4403,-20.0488],[-47.4081,-20.0802],[-47.3716,-20.0859],[-47.3292,-20.1153],[-47.30608,-20.13687],[-47.15833,-19.93614],[-47.12523,-20.02729],[-47.21972,-20.22364],[-47.1804,-20.239],[-47.1518,-20.2329],[-47.14223,-20.2556],[-47.05425,-20.08635],[-46.86178,-20.13195],[-46.8473,-20.1259],[-46.8305,-20.0496],[-46.8584,-20.0312],[-46.9533,-20.0272],[-46.9639,-20.01],[-47.018,-20.0131],[-47.0546,-19.9918],[-47.0635,-19.9606],[-47.1007,-19.9098],[-47.1688,-19.8703],[-47.1216,-19.8477],[-47.0735,-19.8368],[-47.0819,-19.7848],[-47.1077,-19.7673],[-47.085,-19.7397],[-47.0713,-19.6882],[-47.1316,-19.6762],[-47.13608,-19.67471],[-47.15172,-19.7177],[-47.16849,-19.765],[-47.25533,-19.84723],[-47.42706,-20.02091],[-47.4403,-20.0488]]]]}},{"type":"Feature","properties":{"territory_id":"mg-3156908-maria-rosa","name":"Maria Rosa","municipality_id":"mg-3156908","polling_places":1,"approx":true,"official":false,"method":"voronoi-polling-places","whole_municipality":false,"approx_coords_only":false},"geometry":{"type":"MultiPolygon","coordinates":[[[[-47.49854,-19.94046],[-47.4896,-19.9693],[-47.4633,-19.9658],[-47.4244,-20.0153],[-47.42706,-20.02091],[-47.25533,-19.84723],[-47.43362,-19.87231],[-47.43983,-19.87377],[-47.49854,-19.94046]]]]}},{"type":"Feature","properties":{"territory_id":"mg-3156908-paulo-servato-iii","name":"Paulo Servato Iii","municipality_id":"mg-3156908","polling_places":1,"approx":true,"official":false,"method":"voronoi-polling-places","whole_municipality":false,"approx_coords_only":false},"geometry":{"type":"MultiPolygon","coordinates":[[[[-47.6304,-19.4901],[-47.5976,-19.5374],[-47.615,-19.5653],[-47.6125,-19.5987],[-47.5851,-19.6232],[-47.6038,-19.6698],[-47.5707,-19.7621],[-47.5242,-19.7759],[-47.5438,-19.8354],[-47.5464,-19.8937],[-47.5051,-19.9193],[-47.50038,-19.93452],[-47.45151,-19.8679],[-47.45146,-19.86774],[-47.48322,-19.54168],[-47.5224,-19.4958],[-47.6197,-19.4277],[-47.6304,-19.4901]]]]}},{"type":"Feature","properties":{"territory_id":"mg-3156908-zona-rural","name":"Zona Rural","municipality_id":"mg-3156908","polling_places":2,"approx":true,"official":false,"method":"voronoi-polling-places","whole_municipality":false,"approx_coords_only":false},"geometry":{"type":"MultiPolygon","coordinates":[[[[-47.30608,-20.13687],[-47.2964,-20.1459],[-47.2618,-20.1599],[-47.2311,-20.2192],[-47.21972,-20.22364],[-47.12523,-20.02729],[-47.15833,-19.93614],[-47.30608,-20.13687]]],[[[-47.14223,-20.2556],[-47.1303,-20.2839],[-47.0771,-20.2765],[-47.111,-20.2624],[-47.1092,-20.2038],[-47.0468,-20.188],[-46.9845,-20.1958],[-46.9338,-20.1704],[-46.9069,-20.1815],[-46.927,-20.1592],[-46.86178,-20.13195],[-47.05425,-20.08635],[-47.14223,-20.2556]]]]}}]}