{"type":"FeatureCollection","features":[{"type":"Feature","properties":{"territory_id":"mg-3156502-amparo-do-sitio","name":"Amparo do Sitio","municipality_id":"mg-3156502","polling_places":1,"approx":true,"official":false,"method":"voronoi-polling-places","whole_municipality":false,"approx_coords_only":false},"geometry":{"type":"MultiPolygon","coordinates":[[[[-42.13627,-16.27163],[-42.12279,-16.34905],[-42.10698,-16.439],[-42.1054,-16.4371],[-42.0937,-16.3883],[-42.0274,-16.3773],[-41.9872,-16.3827],[-41.9497,-16.4018],[-41.8954,-16.3633],[-41.8976,-16.337],[-41.9104,-16.3216],[-41.9687,-16.304],[-42.0301,-16.2582],[-42.0713,-16.2671],[-42.0902,-16.2321],[-42.1357,-16.2716],[-42.13627,-16.27163]]]]}},{"type":"Feature","properties":{"territory_id":"mg-3156502-centro","name":"Centro","municipality_id":"mg-3156502","polling_places":2,"approx":true,"official":false,"method":"voronoi-polling-places","whole_municipality":false,"approx_coords_only":false},"geometry":{"type":"MultiPolygon","coordinates":[[[[-42.36592,-16.37711],[-42.26215,-16.40797],[-42.20657,-16.47561],[-42.1817,-16.4787],[-42.1211,-16.456],[-42.10698,-16.439],[-42.12279,-16.34905],[-42.13627,-16.27163],[-42.1702,-16.2736],[-42.2034,-16.3006],[-42.3174,-16.3104],[-42.31749,-16.31035],[-42.36592,-16.37711]]]]}},{"type":"Feature","properties":{"territory_id":"mg-3156502-lagoa-de-baixo","name":"Lagoa de Baixo","municipality_id":"mg-3156502","polling_places":1,"approx":true,"official":false,"method":"voronoi-polling-places","whole_municipality":false,"approx_coords_only":false},"geometry":{"type":"MultiPolygon","coordinates":[[[[-42.4928,-16.308],[-42.47,-16.4219],[-42.4774,-16.4393],[-42.4679,-16.4885],[-42.45164,-16.49431],[-42.36592,-16.37711],[-42.31749,-16.31035],[-42.3421,-16.2956],[-42.3945,-16.2792],[-42.4251,-16.2505],[-42.4688,-16.2584],[-42.4698,-16.2917],[-42.4928,-16.308]]]]}},{"type":"Feature","properties":{"territory_id":"mg-3156502-zona-rural","name":"Zona Rural","municipality_id":"mg-3156502","polling_places":14,"approx":true,"official":false,"method":"voronoi-polling-places","whole_municipality":false,"approx_coords_only":false},"geometry":{"type":"MultiPolygon","coordinates":[[[[-42.45164,-16.49431],[-42.4472,-16.4959],[-42.3779,-16.4738],[-42.3033,-16.495],[-42.2653,-16.4683],[-42.20657,-16.47561],[-42.26215,-16.40797],[-42.36592,-16.37711],[-42.45164,-16.49431]]]]}}]}