{"type":"FeatureCollection","features":[{"type":"Feature","properties":{"territory_id":"mg-3156106-centro","name":"Centro","municipality_id":"mg-3156106","polling_places":2,"approx":true,"official":false,"method":"voronoi-polling-places","whole_municipality":false,"approx_coords_only":false},"geometry":{"type":"MultiPolygon","coordinates":[[[[-44.4824,-21.0437],[-44.4487,-21.0516],[-44.4094,-21.0897],[-44.3345,-21.073],[-44.3,-21.0529],[-44.31436,-20.99253],[-44.31907,-20.97127],[-44.48172,-21.02485],[-44.4824,-21.0437]]]]}},{"type":"Feature","properties":{"territory_id":"mg-3156106-zona-rural","name":"Zona Rural","municipality_id":"mg-3156106","polling_places":3,"approx":true,"official":false,"method":"voronoi-polling-places","whole_municipality":false,"approx_coords_only":false},"geometry":{"type":"MultiPolygon","coordinates":[[[[-44.48172,-21.02485],[-44.31907,-20.97127],[-44.31436,-20.99253],[-44.3,-21.0529],[-44.2861,-21.0448],[-44.2743,-21.0569],[-44.2778,-21.016],[-44.2637,-20.9912],[-44.2831,-20.9568],[-44.2876,-20.9171],[-44.3448,-20.8957],[-44.3964,-20.8579],[-44.446,-20.8992],[-44.4794,-20.9602],[-44.48172,-21.02485]]]]}}]}