{"type":"FeatureCollection","features":[{"type":"Feature","properties":{"territory_id":"mg-3156809-centro","name":"Centro","municipality_id":"mg-3156809","polling_places":3,"approx":true,"official":false,"method":"voronoi-polling-places","whole_municipality":false,"approx_coords_only":false},"geometry":{"type":"MultiPolygon","coordinates":[[[[-43.2152,-18.5977],[-43.2057,-18.6228],[-43.21037,-18.64163],[-43.1906,-18.6629],[-43.12299,-18.74233],[-43.05353,-18.77763],[-43.0412,-18.7612],[-42.9799,-18.7364],[-42.98047,-18.73555],[-43.07127,-18.66657],[-43.11072,-18.57387],[-43.15182,-18.55428],[-43.1532,-18.5544],[-43.2152,-18.5977]]]]}},{"type":"Feature","properties":{"territory_id":"mg-3156809-euxenita-distrito-de-sabinopolis","name":"Euxenita - Distrito de Sabinopolis","municipality_id":"mg-3156809","polling_places":1,"approx":true,"official":false,"method":"voronoi-polling-places","whole_municipality":false,"approx_coords_only":false},"geometry":{"type":"MultiPolygon","coordinates":[[[[-43.15182,-18.55428],[-43.11072,-18.57387],[-42.8726,-18.67132],[-42.8513,-18.675],[-42.8858,-18.6356],[-42.9104,-18.578],[-42.8956,-18.5609],[-42.9243,-18.4995],[-42.9148,-18.4588],[-42.9306,-18.4388],[-42.956,-18.4364],[-42.9958,-18.4551],[-43.0145,-18.4912],[-43.038,-18.5051],[-43.0754,-18.5667],[-43.1129,-18.5508],[-43.15182,-18.55428]]]]}},{"type":"Feature","properties":{"territory_id":"mg-3156809-monsenhor-amantino","name":"Monsenhor Amantino","municipality_id":"mg-3156809","polling_places":1,"approx":true,"official":false,"method":"voronoi-polling-places","whole_municipality":false,"approx_coords_only":false},"geometry":{"type":"MultiPolygon","coordinates":[[[[-43.11072,-18.57387],[-43.07127,-18.66657],[-42.98047,-18.73555],[-43.0085,-18.6936],[-42.9716,-18.6542],[-42.8726,-18.67132],[-43.11072,-18.57387]]]]}},{"type":"Feature","properties":{"territory_id":"mg-3156809-quilombo-distrito-sabinopolis","name":"Quilombo - Distrito Sabinopolis","municipality_id":"mg-3156809","polling_places":2,"approx":true,"official":false,"method":"voronoi-polling-places","whole_municipality":false,"approx_coords_only":false},"geometry":{"type":"MultiPolygon","coordinates":[[[[-43.2466,-18.7722],[-43.2127,-18.7727],[-43.1996,-18.8605],[-43.1586,-18.8546],[-43.1293,-18.8255],[-43.1007,-18.8291],[-43.0626,-18.7897],[-43.05353,-18.77763],[-43.12299,-18.74233],[-43.1906,-18.6629],[-43.21037,-18.64163],[-43.2152,-18.6611],[-43.205,-18.7172],[-43.2291,-18.7421],[-43.2466,-18.7722]]]]}}]}