{"type":"FeatureCollection","features":[{"type":"Feature","properties":{"territory_id":"mg-3156700-adelmolandia","name":"Adelmolândia","municipality_id":"mg-3156700","polling_places":1,"approx":true,"official":false,"method":"voronoi-polling-places","whole_municipality":false,"approx_coords_only":false},"geometry":{"type":"MultiPolygon","coordinates":[[[[-43.82411,-19.9386],[-43.76472,-19.9551],[-43.80291,-19.89923],[-43.81105,-19.89886],[-43.81281,-19.89894],[-43.82411,-19.9386]]]]}},{"type":"Feature","properties":{"territory_id":"mg-3156700-alvorada","name":"Alvorada","municipality_id":"mg-3156700","polling_places":3,"approx":true,"official":false,"method":"voronoi-polling-places","whole_municipality":false,"approx_coords_only":false},"geometry":{"type":"MultiPolygon","coordinates":[[[[-43.88699,-19.88101],[-43.87963,-19.88131],[-43.87811,-19.87493],[-43.87822,-19.87428],[-43.87906,-19.87264],[-43.88699,-19.88101]]]]}},{"type":"Feature","properties":{"territory_id":"mg-3156700-borba-gato","name":"Borba Gato","municipality_id":"mg-3156700","polling_places":1,"approx":true,"official":false,"method":"voronoi-polling-places","whole_municipality":false,"approx_coords_only":false},"geometry":{"type":"MultiPolygon","coordinates":[[[[-43.85906,-19.82858],[-43.84863,-19.84913],[-43.82739,-19.85645],[-43.81733,-19.85241],[-43.80246,-19.83757],[-43.79336,-19.81848],[-43.7956,-19.81372],[-43.8094,-19.8417],[-43.85906,-19.82858]]]]}},{"type":"Feature","properties":{"territory_id":"mg-3156700-borges","name":"Borges","municipality_id":"mg-3156700","polling_places":1,"approx":true,"official":false,"method":"voronoi-polling-places","whole_municipality":false,"approx_coords_only":false},"geometry":{"type":"MultiPolygon","coordinates":[[[[-43.86298,-19.85083],[-43.85047,-19.84985],[-43.84863,-19.84913],[-43.85906,-19.82858],[-43.862,-19.8278],[-43.86298,-19.85083]]]]}},{"type":"Feature","properties":{"territory_id":"mg-3156700-caieira","name":"Caieira","municipality_id":"mg-3156700","polling_places":1,"approx":true,"official":false,"method":"voronoi-polling-places","whole_municipality":false,"approx_coords_only":false},"geometry":{"type":"MultiPolygon","coordinates":[[[[-43.82856,-19.88611],[-43.82851,-19.90047],[-43.81816,-19.89566],[-43.81817,-19.8916],[-43.82856,-19.88611]]]]}},{"type":"Feature","properties":{"territory_id":"mg-3156700-centro","name":"Centro","municipality_id":"mg-3156700","polling_places":5,"approx":true,"official":false,"method":"voronoi-polling-places","whole_municipality":false,"approx_coords_only":false},"geometry":{"type":"MultiPolygon","coordinates":[[[[-43.81817,-19.8916],[-43.81816,-19.89566],[-43.81281,-19.89894],[-43.81105,-19.89886],[-43.80291,-19.89923],[-43.80274,-19.89858],[-43.79928,-19.89274],[-43.80149,-19.88805],[-43.8033,-19.88107],[-43.81251,-19.87225],[-43.81291,-19.87746],[-43.81592,-19.88596],[-43.81817,-19.8916]]]]}},{"type":"Feature","properties":{"territory_id":"mg-3156700-conjunto-morada-da-serra","name":"Conjunto Morada da Serra","municipality_id":"mg-3156700","polling_places":1,"approx":true,"official":false,"method":"voronoi-polling-places","whole_municipality":false,"approx_coords_only":false},"geometry":{"type":"MultiPolygon","coordinates":[[[[-43.80291,-19.89923],[-43.76472,-19.9551],[-43.723,-19.9667],[-43.74376,-19.91026],[-43.77312,-19.88801],[-43.79854,-19.89224],[-43.79928,-19.89274],[-43.80274,-19.89858],[-43.80291,-19.89923]]]]}},{"type":"Feature","properties":{"territory_id":"mg-3156700-esplanada","name":"Esplanada","municipality_id":"mg-3156700","polling_places":1,"approx":true,"official":false,"method":"voronoi-polling-places","whole_municipality":false,"approx_coords_only":false},"geometry":{"type":"MultiPolygon","coordinates":[[[[-43.79854,-19.89224],[-43.77312,-19.88801],[-43.7814,-19.87898],[-43.79583,-19.88375],[-43.79854,-19.89224]]]]}},{"type":"Feature","properties":{"territory_id":"mg-3156700-general-carneiro","name":"General Carneiro","municipality_id":"mg-3156700","polling_places":5,"approx":true,"official":false,"method":"voronoi-polling-places","whole_municipality":false,"approx_coords_only":false},"geometry":{"type":"MultiPolygon","coordinates":[[[[-43.86559,-19.88945],[-43.85858,-19.88775],[-43.85205,-19.89347],[-43.84823,-19.89928],[-43.84458,-19.89031],[-43.8381,-19.88198],[-43.83611,-19.87796],[-43.85368,-19.88122],[-43.85412,-19.88104],[-43.85649,-19.87458],[-43.8579,-19.87515],[-43.86108,-19.88365],[-43.86226,-19.88407],[-43.86559,-19.88945]]]]}},{"type":"Feature","properties":{"territory_id":"mg-3156700-itacolomi","name":"Itacolomi","municipality_id":"mg-3156700","polling_places":1,"approx":true,"official":false,"method":"voronoi-polling-places","whole_municipality":false,"approx_coords_only":false},"geometry":{"type":"MultiPolygon","coordinates":[[[[-43.85649,-19.87458],[-43.85412,-19.88104],[-43.85368,-19.88122],[-43.83611,-19.87796],[-43.83447,-19.87553],[-43.83064,-19.86161],[-43.85569,-19.87315],[-43.85649,-19.87458]]]]}},{"type":"Feature","properties":{"territory_id":"mg-3156700-jardim-das-castanheiras","name":"Jardim das Castanheiras","municipality_id":"mg-3156700","polling_places":1,"approx":true,"official":false,"method":"voronoi-polling-places","whole_municipality":false,"approx_coords_only":false},"geometry":{"type":"MultiPolygon","coordinates":[[[[-43.88306,-19.90328],[-43.8701,-19.9279],[-43.8397,-19.92748],[-43.84208,-19.91926],[-43.8495,-19.90967],[-43.87725,-19.89957],[-43.87786,-19.8995],[-43.88306,-19.90328]]]]}},{"type":"Feature","properties":{"territory_id":"mg-3156700-nacoes-unidas","name":"Nações Unidas","municipality_id":"mg-3156700","polling_places":2,"approx":true,"official":false,"method":"voronoi-polling-places","whole_municipality":false,"approx_coords_only":false},"geometry":{"type":"MultiPolygon","coordinates":[[[[-43.87963,-19.88131],[-43.87786,-19.8995],[-43.87725,-19.89957],[-43.86559,-19.88945],[-43.86226,-19.88407],[-43.86108,-19.88365],[-43.8579,-19.87515],[-43.86583,-19.87663],[-43.87811,-19.87493],[-43.87963,-19.88131]]]]}},{"type":"Feature","properties":{"territory_id":"mg-3156700-nossa-senhora-de-fatima","name":"Nossa Senhora de Fátima","municipality_id":"mg-3156700","polling_places":4,"approx":true,"official":false,"method":"voronoi-polling-places","whole_municipality":false,"approx_coords_only":false},"geometry":{"type":"MultiPolygon","coordinates":[[[[-43.87906,-19.87264],[-43.87822,-19.87428],[-43.87811,-19.87493],[-43.86583,-19.87663],[-43.8579,-19.87515],[-43.85649,-19.87458],[-43.85569,-19.87315],[-43.83064,-19.86161],[-43.82739,-19.85645],[-43.84863,-19.84913],[-43.85047,-19.84985],[-43.86298,-19.85083],[-43.8632,-19.8559],[-43.87906,-19.87264]]]]}},{"type":"Feature","properties":{"territory_id":"mg-3156700-nova-vista","name":"Nova Vista","municipality_id":"mg-3156700","polling_places":1,"approx":true,"official":false,"method":"voronoi-polling-places","whole_municipality":false,"approx_coords_only":false},"geometry":{"type":"MultiPolygon","coordinates":[[[[-43.892,-19.8863],[-43.88306,-19.90328],[-43.87786,-19.8995],[-43.87963,-19.88131],[-43.88699,-19.88101],[-43.892,-19.8863]]]]}},{"type":"Feature","properties":{"territory_id":"mg-3156700-paciencia","name":"Paciência","municipality_id":"mg-3156700","polling_places":1,"approx":true,"official":false,"method":"voronoi-polling-places","whole_municipality":false,"approx_coords_only":false},"geometry":{"type":"MultiPolygon","coordinates":[[[[-43.84208,-19.91926],[-43.8397,-19.92748],[-43.8342,-19.9274],[-43.8331,-19.9361],[-43.82411,-19.9386],[-43.81281,-19.89894],[-43.81816,-19.89566],[-43.82851,-19.90047],[-43.82936,-19.90125],[-43.84208,-19.91926]]]]}},{"type":"Feature","properties":{"territory_id":"mg-3156700-palmital","name":"Palmital","municipality_id":"mg-3156700","polling_places":1,"approx":true,"official":false,"method":"voronoi-polling-places","whole_municipality":false,"approx_coords_only":false},"geometry":{"type":"MultiPolygon","coordinates":[[[[-43.73801,-19.73652],[-43.72606,-19.77485],[-43.70485,-19.82794],[-43.7009,-19.8217],[-43.6887,-19.7663],[-43.7084,-19.7466],[-43.73801,-19.73652]]]]}},{"type":"Feature","properties":{"territory_id":"mg-3156700-pompeu","name":"Pompéu","municipality_id":"mg-3156700","polling_places":1,"approx":true,"official":false,"method":"voronoi-polling-places","whole_municipality":false,"approx_coords_only":false},"geometry":{"type":"MultiPolygon","coordinates":[[[[-43.80246,-19.83757],[-43.7814,-19.87898],[-43.77312,-19.88801],[-43.74376,-19.91026],[-43.7486,-19.8971],[-43.71258,-19.84016],[-43.79336,-19.81848],[-43.80246,-19.83757]]]]}},{"type":"Feature","properties":{"territory_id":"mg-3156700-ravena","name":"Ravena","municipality_id":"mg-3156700","polling_places":2,"approx":true,"official":false,"method":"voronoi-polling-places","whole_municipality":false,"approx_coords_only":false},"geometry":{"type":"MultiPolygon","coordinates":[[[[-43.8053,-19.7631],[-43.7918,-19.806],[-43.7956,-19.81372],[-43.79336,-19.81848],[-43.71258,-19.84016],[-43.70485,-19.82794],[-43.72606,-19.77485],[-43.73801,-19.73652],[-43.7704,-19.7255],[-43.768,-19.7449],[-43.8053,-19.7631]]]]}},{"type":"Feature","properties":{"territory_id":"mg-3156700-roca-grande","name":"Roça Grande","municipality_id":"mg-3156700","polling_places":2,"approx":true,"official":false,"method":"voronoi-polling-places","whole_municipality":false,"approx_coords_only":false},"geometry":{"type":"MultiPolygon","coordinates":[[[[-43.8495,-19.90967],[-43.84208,-19.91926],[-43.82936,-19.90125],[-43.82851,-19.90047],[-43.82856,-19.88611],[-43.83447,-19.87553],[-43.83611,-19.87796],[-43.8381,-19.88198],[-43.84458,-19.89031],[-43.84823,-19.89928],[-43.8495,-19.90967]]]]}},{"type":"Feature","properties":{"territory_id":"mg-3156700-rosario","name":"Rosário","municipality_id":"mg-3156700","polling_places":1,"approx":true,"official":false,"method":"voronoi-polling-places","whole_municipality":false,"approx_coords_only":false},"geometry":{"type":"MultiPolygon","coordinates":[[[[-43.83447,-19.87553],[-43.82856,-19.88611],[-43.81817,-19.8916],[-43.81592,-19.88596],[-43.81291,-19.87746],[-43.81251,-19.87225],[-43.81733,-19.85241],[-43.82739,-19.85645],[-43.83064,-19.86161],[-43.83447,-19.87553]]]]}},{"type":"Feature","properties":{"territory_id":"mg-3156700-siderurgica","name":"Siderúrgica","municipality_id":"mg-3156700","polling_places":2,"approx":true,"official":false,"method":"voronoi-polling-places","whole_municipality":false,"approx_coords_only":false},"geometry":{"type":"MultiPolygon","coordinates":[[[[-43.81733,-19.85241],[-43.81251,-19.87225],[-43.8033,-19.88107],[-43.80149,-19.88805],[-43.79928,-19.89274],[-43.79854,-19.89224],[-43.79583,-19.88375],[-43.7814,-19.87898],[-43.80246,-19.83757],[-43.81733,-19.85241]]]]}},{"type":"Feature","properties":{"territory_id":"mg-3156700-valparaiso-ii","name":"Valparaíso Ii","municipality_id":"mg-3156700","polling_places":1,"approx":true,"official":false,"method":"voronoi-polling-places","whole_municipality":false,"approx_coords_only":false},"geometry":{"type":"MultiPolygon","coordinates":[[[[-43.87725,-19.89957],[-43.8495,-19.90967],[-43.84823,-19.89928],[-43.85205,-19.89347],[-43.85858,-19.88775],[-43.86559,-19.88945],[-43.87725,-19.89957]]]]}}]}