{"type":"FeatureCollection","features":[{"type":"Feature","properties":{"territory_id":"mg-3157278-centro","name":"Centro","municipality_id":"mg-3157278","polling_places":1,"approx":true,"official":false,"method":"voronoi-polling-places","whole_municipality":false,"approx_coords_only":false},"geometry":{"type":"MultiPolygon","coordinates":[[[[-43.72488,-21.85478],[-43.69882,-21.98523],[-43.67525,-22.05006],[-43.65364,-22.07232],[-43.6457,-22.0649],[-43.6212,-22.0833],[-43.5914,-22.0558],[-43.6374,-22.0234],[-43.5851,-21.9989],[-43.5767,-21.9632],[-43.5984,-21.9236],[-43.6655,-21.8534],[-43.72488,-21.85478]]]]}},{"type":"Feature","properties":{"territory_id":"mg-3157278-conceicao-do-monte-alegre","name":"Conceição do Monte Alegre","municipality_id":"mg-3157278","polling_places":1,"approx":true,"official":false,"method":"voronoi-polling-places","whole_municipality":false,"approx_coords_only":false},"geometry":{"type":"MultiPolygon","coordinates":[[[[-43.8601,-21.9649],[-43.831,-21.9697],[-43.7782,-22.0165],[-43.7501,-22.0213],[-43.7089,-22.0758],[-43.6684,-22.0861],[-43.65364,-22.07232],[-43.67525,-22.05006],[-43.79076,-21.94288],[-43.8147,-21.9573],[-43.8601,-21.9649]]]]}},{"type":"Feature","properties":{"territory_id":"mg-3157278-sao-cristovao","name":"São Cristóvão","municipality_id":"mg-3157278","polling_places":1,"approx":true,"official":false,"method":"voronoi-polling-places","whole_municipality":false,"approx_coords_only":false},"geometry":{"type":"MultiPolygon","coordinates":[[[[-43.74979,-21.85905],[-43.69882,-21.98523],[-43.72488,-21.85478],[-43.7428,-21.8552],[-43.74979,-21.85905]]]]}},{"type":"Feature","properties":{"territory_id":"mg-3157278-sao-sebastiao-do-barreado","name":"São Sebastião do Barreado","municipality_id":"mg-3157278","polling_places":1,"approx":true,"official":false,"method":"voronoi-polling-places","whole_municipality":false,"approx_coords_only":true},"geometry":{"type":"MultiPolygon","coordinates":[[[[-43.79076,-21.94288],[-43.67525,-22.05006],[-43.69882,-21.98523],[-43.74979,-21.85905],[-43.7782,-21.8747],[-43.765,-21.9081],[-43.781,-21.937],[-43.79076,-21.94288]]]]}}]}