{"type":"FeatureCollection","features":[{"type":"Feature","properties":{"territory_id":"mg-3157500-centro","name":"Centro","municipality_id":"mg-3157500","polling_places":2,"approx":true,"official":false,"method":"voronoi-polling-places","whole_municipality":true,"approx_coords_only":false},"geometry":{"type":"MultiPolygon","coordinates":[[[[-42.456,-18.8145],[-42.4628,-18.8896],[-42.3905,-18.9276],[-42.3621,-18.9257],[-42.3459,-18.8802],[-42.3472,-18.8427],[-42.327,-18.8183],[-42.3742,-18.8275],[-42.397,-18.8092],[-42.456,-18.8145]]]]}}]}