{"type":"FeatureCollection","features":[{"type":"Feature","properties":{"territory_id":"mg-3157807-asteca","name":"Asteca","municipality_id":"mg-3157807","polling_places":1,"approx":true,"official":false,"method":"voronoi-polling-places","whole_municipality":false,"approx_coords_only":false},"geometry":{"type":"MultiPolygon","coordinates":[[[[-43.92915,-19.7874],[-43.92234,-19.79149],[-43.92131,-19.79024],[-43.92555,-19.78574],[-43.92721,-19.78511],[-43.92915,-19.7874]]]]}},{"type":"Feature","properties":{"territory_id":"mg-3157807-baronesa","name":"Baronesa","municipality_id":"mg-3157807","polling_places":2,"approx":true,"official":false,"method":"voronoi-polling-places","whole_municipality":false,"approx_coords_only":false},"geometry":{"type":"MultiPolygon","coordinates":[[[[-43.91207,-19.79767],[-43.90107,-19.80429],[-43.89746,-19.79905],[-43.89238,-19.79346],[-43.90444,-19.78393],[-43.90686,-19.78258],[-43.91039,-19.78596],[-43.91095,-19.79543],[-43.91207,-19.79767]]]]}},{"type":"Feature","properties":{"territory_id":"mg-3157807-bela-vista","name":"Bela Vista","municipality_id":"mg-3157807","polling_places":1,"approx":true,"official":false,"method":"voronoi-polling-places","whole_municipality":false,"approx_coords_only":false},"geometry":{"type":"MultiPolygon","coordinates":[[[[-43.85571,-19.76453],[-43.85475,-19.76482],[-43.84948,-19.7647],[-43.8482,-19.76439],[-43.84863,-19.76215],[-43.85362,-19.75449],[-43.85571,-19.76453]]]]}},{"type":"Feature","properties":{"territory_id":"mg-3157807-belo-vale","name":"Belo Vale","municipality_id":"mg-3157807","polling_places":1,"approx":true,"official":false,"method":"voronoi-polling-places","whole_municipality":false,"approx_coords_only":false},"geometry":{"type":"MultiPolygon","coordinates":[[[[-43.92297,-19.77289],[-43.92236,-19.77658],[-43.92095,-19.77839],[-43.90727,-19.7812],[-43.90675,-19.75571],[-43.90908,-19.752],[-43.92208,-19.76774],[-43.92297,-19.77289]]]]}},{"type":"Feature","properties":{"territory_id":"mg-3157807-boa-esperanca","name":"Boa Esperança","municipality_id":"mg-3157807","polling_places":3,"approx":true,"official":false,"method":"voronoi-polling-places","whole_municipality":false,"approx_coords_only":false},"geometry":{"type":"MultiPolygon","coordinates":[[[[-43.87687,-19.76483],[-43.87357,-19.76771],[-43.86947,-19.77344],[-43.86225,-19.77428],[-43.86175,-19.76691],[-43.86134,-19.76496],[-43.86294,-19.76151],[-43.86814,-19.74748],[-43.86913,-19.74895],[-43.87687,-19.76483]]]]}},{"type":"Feature","properties":{"territory_id":"mg-3157807-bom-destino","name":"Bom Destino","municipality_id":"mg-3157807","polling_places":1,"approx":true,"official":false,"method":"voronoi-polling-places","whole_municipality":false,"approx_coords_only":false},"geometry":{"type":"MultiPolygon","coordinates":[[[[-43.86192,-19.82782],[-43.8094,-19.8417],[-43.7918,-19.806],[-43.79583,-19.79319],[-43.81917,-19.7951],[-43.85823,-19.80844],[-43.86192,-19.82782]]]]}},{"type":"Feature","properties":{"territory_id":"mg-3157807-bom-jesus","name":"Bom Jesus","municipality_id":"mg-3157807","polling_places":3,"approx":true,"official":false,"method":"voronoi-polling-places","whole_municipality":false,"approx_coords_only":false},"geometry":{"type":"MultiPolygon","coordinates":[[[[-43.85893,-19.74046],[-43.85362,-19.75449],[-43.84863,-19.76215],[-43.8482,-19.76439],[-43.8457,-19.76609],[-43.8433,-19.76749],[-43.83805,-19.76384],[-43.83814,-19.76322],[-43.83989,-19.74547],[-43.83967,-19.73931],[-43.85893,-19.74046]]]]}},{"type":"Feature","properties":{"territory_id":"mg-3157807-bonanza","name":"Bonanza","municipality_id":"mg-3157807","polling_places":1,"approx":true,"official":false,"method":"voronoi-polling-places","whole_municipality":false,"approx_coords_only":false},"geometry":{"type":"MultiPolygon","coordinates":[[[[-43.8437,-19.77433],[-43.81917,-19.7951],[-43.79583,-19.79319],[-43.80263,-19.77159],[-43.83805,-19.76384],[-43.8433,-19.76749],[-43.8437,-19.77433]]]]}},{"type":"Feature","properties":{"territory_id":"mg-3157807-centro","name":"Centro","municipality_id":"mg-3157807","polling_places":4,"approx":true,"official":false,"method":"voronoi-polling-places","whole_municipality":false,"approx_coords_only":false},"geometry":{"type":"MultiPolygon","coordinates":[[[[-43.86225,-19.77428],[-43.8576,-19.78002],[-43.85729,-19.78067],[-43.8437,-19.77433],[-43.8433,-19.76749],[-43.8457,-19.76609],[-43.8482,-19.76439],[-43.84948,-19.7647],[-43.85475,-19.76482],[-43.85571,-19.76453],[-43.86134,-19.76496],[-43.86175,-19.76691],[-43.86225,-19.77428]]]]}},{"type":"Feature","properties":{"territory_id":"mg-3157807-conjunto-cristina","name":"Conjunto Cristina","municipality_id":"mg-3157807","polling_places":3,"approx":true,"official":false,"method":"voronoi-polling-places","whole_municipality":false,"approx_coords_only":false},"geometry":{"type":"MultiPolygon","coordinates":[[[[-43.93658,-19.78269],[-43.9345,-19.78418],[-43.93402,-19.78447],[-43.92871,-19.78338],[-43.92721,-19.78511],[-43.92555,-19.78574],[-43.92131,-19.79024],[-43.91981,-19.79009],[-43.91781,-19.7889],[-43.9214,-19.77981],[-43.92095,-19.77839],[-43.92236,-19.77658],[-43.92892,-19.78063],[-43.93186,-19.77684],[-43.93362,-19.77591],[-43.9349,-19.77619],[-43.93658,-19.78269]]]]}},{"type":"Feature","properties":{"territory_id":"mg-3157807-cor-calcadas","name":"Cór. Calçadas","municipality_id":"mg-3157807","polling_places":1,"approx":true,"official":false,"method":"voronoi-polling-places","whole_municipality":false,"approx_coords_only":false},"geometry":{"type":"MultiPolygon","coordinates":[[[[-43.8596,-19.79992],[-43.85876,-19.80765],[-43.85823,-19.80844],[-43.81917,-19.7951],[-43.8437,-19.77433],[-43.85729,-19.78067],[-43.8596,-19.79992]]]]}},{"type":"Feature","properties":{"territory_id":"mg-3157807-cristina","name":"Cristina","municipality_id":"mg-3157807","polling_places":2,"approx":true,"official":false,"method":"voronoi-polling-places","whole_municipality":false,"approx_coords_only":false},"geometry":{"type":"MultiPolygon","coordinates":[[[[-43.93186,-19.77684],[-43.92892,-19.78063],[-43.92236,-19.77658],[-43.92297,-19.77289],[-43.93186,-19.77684]]],[[[-43.9214,-19.77981],[-43.91781,-19.7889],[-43.91039,-19.78596],[-43.90686,-19.78258],[-43.90727,-19.7812],[-43.92095,-19.77839],[-43.9214,-19.77981]]]]}},{"type":"Feature","properties":{"territory_id":"mg-3157807-duquesa-ii","name":"Duquesa Ii","municipality_id":"mg-3157807","polling_places":1,"approx":true,"official":false,"method":"voronoi-polling-places","whole_municipality":false,"approx_coords_only":false},"geometry":{"type":"MultiPolygon","coordinates":[[[[-43.90727,-19.7812],[-43.90686,-19.78258],[-43.90444,-19.78393],[-43.88653,-19.7703],[-43.88664,-19.76938],[-43.8949,-19.76252],[-43.90675,-19.75571],[-43.90727,-19.7812]]]]}},{"type":"Feature","properties":{"territory_id":"mg-3157807-frimisa","name":"Frimisa","municipality_id":"mg-3157807","polling_places":2,"approx":true,"official":false,"method":"voronoi-polling-places","whole_municipality":false,"approx_coords_only":false},"geometry":{"type":"MultiPolygon","coordinates":[[[[-43.91069,-19.74489],[-43.90908,-19.752],[-43.90675,-19.75571],[-43.8949,-19.76252],[-43.88664,-19.76938],[-43.87687,-19.76483],[-43.86913,-19.74895],[-43.86814,-19.74748],[-43.8663,-19.73916],[-43.89195,-19.71129],[-43.8867,-19.723],[-43.91069,-19.74489]]]]}},{"type":"Feature","properties":{"territory_id":"mg-3157807-industrial-americano","name":"Industrial Americano","municipality_id":"mg-3157807","polling_places":1,"approx":true,"official":false,"method":"voronoi-polling-places","whole_municipality":false,"approx_coords_only":false},"geometry":{"type":"MultiPolygon","coordinates":[[[[-43.83989,-19.74547],[-43.83814,-19.76322],[-43.83805,-19.76384],[-43.80263,-19.77159],[-43.8053,-19.7631],[-43.7854,-19.75339],[-43.8237,-19.73189],[-43.83967,-19.73931],[-43.83989,-19.74547]]]]}},{"type":"Feature","properties":{"territory_id":"mg-3157807-londrina","name":"Londrina","municipality_id":"mg-3157807","polling_places":2,"approx":true,"official":false,"method":"voronoi-polling-places","whole_municipality":false,"approx_coords_only":false},"geometry":{"type":"MultiPolygon","coordinates":[[[[-43.92234,-19.79149],[-43.91207,-19.79767],[-43.91095,-19.79543],[-43.91039,-19.78596],[-43.91781,-19.7889],[-43.91981,-19.79009],[-43.92131,-19.79024],[-43.92234,-19.79149]]]]}},{"type":"Feature","properties":{"territory_id":"mg-3157807-monte-carlo","name":"Monte Carlo","municipality_id":"mg-3157807","polling_places":1,"approx":true,"official":false,"method":"voronoi-polling-places","whole_municipality":false,"approx_coords_only":false},"geometry":{"type":"MultiPolygon","coordinates":[[[[-43.90444,-19.78393],[-43.89238,-19.79346],[-43.89051,-19.79334],[-43.88422,-19.77826],[-43.88653,-19.7703],[-43.90444,-19.78393]]]]}},{"type":"Feature","properties":{"territory_id":"mg-3157807-morada-do-rio","name":"Morada do Rio","municipality_id":"mg-3157807","polling_places":1,"approx":true,"official":false,"method":"voronoi-polling-places","whole_municipality":false,"approx_coords_only":false},"geometry":{"type":"MultiPolygon","coordinates":[[[[-43.87567,-19.7795],[-43.8596,-19.79992],[-43.85729,-19.78067],[-43.8576,-19.78002],[-43.86225,-19.77428],[-43.86947,-19.77344],[-43.87567,-19.7795]]]]}},{"type":"Feature","properties":{"territory_id":"mg-3157807-nossa-senhora-das-gracas","name":"Nossa Senhora das Graças","municipality_id":"mg-3157807","polling_places":1,"approx":true,"official":false,"method":"voronoi-polling-places","whole_municipality":false,"approx_coords_only":false},"geometry":{"type":"MultiPolygon","coordinates":[[[[-43.88664,-19.76938],[-43.88653,-19.7703],[-43.88422,-19.77826],[-43.87567,-19.7795],[-43.86947,-19.77344],[-43.87357,-19.76771],[-43.87687,-19.76483],[-43.88664,-19.76938]]]]}},{"type":"Feature","properties":{"territory_id":"mg-3157807-palmital","name":"Palmital","municipality_id":"mg-3157807","polling_places":5,"approx":true,"official":false,"method":"voronoi-polling-places","whole_municipality":false,"approx_coords_only":false},"geometry":{"type":"MultiPolygon","coordinates":[[[[-43.94047,-19.77206],[-43.93839,-19.77495],[-43.93746,-19.77514],[-43.9349,-19.77619],[-43.93362,-19.77591],[-43.93186,-19.77684],[-43.92297,-19.77289],[-43.92208,-19.76774],[-43.90908,-19.752],[-43.91069,-19.74489],[-43.94047,-19.77206]]]]}},{"type":"Feature","properties":{"territory_id":"mg-3157807-pinhoes","name":"Pinhões","municipality_id":"mg-3157807","polling_places":1,"approx":true,"official":false,"method":"voronoi-polling-places","whole_municipality":false,"approx_coords_only":false},"geometry":{"type":"MultiPolygon","coordinates":[[[[-43.82883,-19.71364],[-43.8237,-19.73189],[-43.7854,-19.75339],[-43.768,-19.7449],[-43.7704,-19.7255],[-43.76147,-19.66747],[-43.80764,-19.66032],[-43.7995,-19.6791],[-43.8155,-19.7165],[-43.82883,-19.71364]]]]}},{"type":"Feature","properties":{"territory_id":"mg-3157807-rosarinha","name":"Rosarinha","municipality_id":"mg-3157807","polling_places":1,"approx":true,"official":false,"method":"voronoi-polling-places","whole_municipality":false,"approx_coords_only":false},"geometry":{"type":"MultiPolygon","coordinates":[[[[-43.90107,-19.80429],[-43.89034,-19.81075],[-43.88444,-19.79738],[-43.89051,-19.79334],[-43.89238,-19.79346],[-43.89746,-19.79905],[-43.90107,-19.80429]]]]}},{"type":"Feature","properties":{"territory_id":"mg-3157807-santa-rita","name":"Santa Rita","municipality_id":"mg-3157807","polling_places":1,"approx":true,"official":false,"method":"voronoi-polling-places","whole_municipality":false,"approx_coords_only":false},"geometry":{"type":"MultiPolygon","coordinates":[[[[-43.89034,-19.81075],[-43.862,-19.8278],[-43.86192,-19.82782],[-43.85823,-19.80844],[-43.85876,-19.80765],[-43.88444,-19.79738],[-43.89034,-19.81075]]]]}},{"type":"Feature","properties":{"territory_id":"mg-3157807-sao-benedito","name":"São Benedito","municipality_id":"mg-3157807","polling_places":6,"approx":true,"official":false,"method":"voronoi-polling-places","whole_municipality":false,"approx_coords_only":false},"geometry":{"type":"MultiPolygon","coordinates":[[[[-43.93682,-19.78278],[-43.9345,-19.78418],[-43.93658,-19.78269],[-43.93682,-19.78278]]],[[[-43.93402,-19.78447],[-43.92915,-19.7874],[-43.92721,-19.78511],[-43.92871,-19.78338],[-43.93402,-19.78447]]]]}},{"type":"Feature","properties":{"territory_id":"mg-3157807-sao-cosme","name":"São Cosme","municipality_id":"mg-3157807","polling_places":2,"approx":true,"official":false,"method":"voronoi-polling-places","whole_municipality":false,"approx_coords_only":false},"geometry":{"type":"MultiPolygon","coordinates":[[[[-43.9461,-19.7772],[-43.93682,-19.78278],[-43.93658,-19.78269],[-43.9349,-19.77619],[-43.93746,-19.77514],[-43.93839,-19.77495],[-43.94047,-19.77206],[-43.9461,-19.7772]]]]}},{"type":"Feature","properties":{"territory_id":"mg-3157807-sao-geraldo","name":"São Geraldo","municipality_id":"mg-3157807","polling_places":1,"approx":true,"official":false,"method":"voronoi-polling-places","whole_municipality":false,"approx_coords_only":false},"geometry":{"type":"MultiPolygon","coordinates":[[[[-43.86814,-19.74748],[-43.86294,-19.76151],[-43.86134,-19.76496],[-43.85571,-19.76453],[-43.85362,-19.75449],[-43.85893,-19.74046],[-43.8663,-19.73916],[-43.86814,-19.74748]]]]}},{"type":"Feature","properties":{"territory_id":"mg-3157807-vila-olga","name":"Vila Olga","municipality_id":"mg-3157807","polling_places":1,"approx":true,"official":false,"method":"voronoi-polling-places","whole_municipality":false,"approx_coords_only":false},"geometry":{"type":"MultiPolygon","coordinates":[[[[-43.89051,-19.79334],[-43.88444,-19.79738],[-43.85876,-19.80765],[-43.8596,-19.79992],[-43.87567,-19.7795],[-43.88422,-19.77826],[-43.89051,-19.79334]]]]}},{"type":"Feature","properties":{"territory_id":"mg-3157807-zona-rural","name":"Zona Rural","municipality_id":"mg-3157807","polling_places":2,"approx":true,"official":false,"method":"voronoi-polling-places","whole_municipality":false,"approx_coords_only":false},"geometry":{"type":"MultiPolygon","coordinates":[[[[-43.8975,-19.6989],[-43.89195,-19.71129],[-43.8663,-19.73916],[-43.85893,-19.74046],[-43.83967,-19.73931],[-43.8237,-19.73189],[-43.82883,-19.71364],[-43.8975,-19.6989]]],[[[-43.8171,-19.6385],[-43.80764,-19.66032],[-43.76147,-19.66747],[-43.755,-19.6254],[-43.7822,-19.6111],[-43.7984,-19.613],[-43.8171,-19.6385]]]]}}]}