{"type":"FeatureCollection","features":[{"type":"Feature","properties":{"territory_id":"mg-3157658-bom-jesus-da-vitoria","name":"Bom Jesus da Vitória","municipality_id":"mg-3157658","polling_places":1,"approx":true,"official":false,"method":"voronoi-polling-places","whole_municipality":false,"approx_coords_only":false},"geometry":{"type":"MultiPolygon","coordinates":[[[[-40.71375,-16.8476],[-40.67481,-16.87028],[-40.58618,-16.852],[-40.6033,-16.8318],[-40.6026,-16.7891],[-40.6285,-16.788],[-40.6715,-16.8334],[-40.7091,-16.8404],[-40.71375,-16.8476]]]]}},{"type":"Feature","properties":{"territory_id":"mg-3157658-centro","name":"Centro","municipality_id":"mg-3157658","polling_places":1,"approx":true,"official":false,"method":"voronoi-polling-places","whole_municipality":false,"approx_coords_only":false},"geometry":{"type":"MultiPolygon","coordinates":[[[[-40.68741,-16.93977],[-40.62992,-16.9411],[-40.65594,-16.9017],[-40.68741,-16.93977]]]]}},{"type":"Feature","properties":{"territory_id":"mg-3157658-santa-helena-de-minas","name":"Santa Helena de Minas","municipality_id":"mg-3157658","polling_places":2,"approx":true,"official":false,"method":"voronoi-polling-places","whole_municipality":false,"approx_coords_only":false},"geometry":{"type":"MultiPolygon","coordinates":[[[[-40.745,-16.896],[-40.7197,-16.9586],[-40.665,-17.035],[-40.6439,-16.9945],[-40.6189,-16.9732],[-40.62406,-16.94983],[-40.62992,-16.9411],[-40.68741,-16.93977],[-40.65594,-16.9017],[-40.67481,-16.87028],[-40.71375,-16.8476],[-40.745,-16.896]]]]}},{"type":"Feature","properties":{"territory_id":"mg-3157658-zona-rural","name":"Zona Rural","municipality_id":"mg-3157658","polling_places":1,"approx":true,"official":false,"method":"voronoi-polling-places","whole_municipality":false,"approx_coords_only":false},"geometry":{"type":"MultiPolygon","coordinates":[[[[-40.67481,-16.87028],[-40.65594,-16.9017],[-40.62992,-16.9411],[-40.62406,-16.94983],[-40.6253,-16.9442],[-40.5819,-16.9025],[-40.5672,-16.8744],[-40.58618,-16.852],[-40.67481,-16.87028]]]]}}]}