{"type":"FeatureCollection","features":[{"type":"Feature","properties":{"territory_id":"mg-3157401-centro","name":"Centro","municipality_id":"mg-3157401","polling_places":1,"approx":true,"official":false,"method":"voronoi-polling-places","whole_municipality":false,"approx_coords_only":false},"geometry":{"type":"MultiPolygon","coordinates":[[[[-42.85445,-20.20946],[-42.84399,-20.25052],[-42.78238,-20.291],[-42.7626,-20.2693],[-42.7761,-20.2296],[-42.76847,-20.22401],[-42.82463,-20.16563],[-42.85445,-20.20946]]]]}},{"type":"Feature","properties":{"territory_id":"mg-3157401-zona-rural","name":"Zona Rural","municipality_id":"mg-3157401","polling_places":3,"approx":true,"official":false,"method":"voronoi-polling-places","whole_municipality":false,"approx_coords_only":false},"geometry":{"type":"MultiPolygon","coordinates":[[[[-42.9147,-20.2763],[-42.888,-20.3],[-42.8977,-20.3274],[-42.8672,-20.3367],[-42.8068,-20.3178],[-42.78238,-20.291],[-42.84399,-20.25052],[-42.85445,-20.20946],[-42.8855,-20.2551],[-42.9147,-20.2763]]],[[[-42.82463,-20.16563],[-42.76847,-20.22401],[-42.7234,-20.191],[-42.7073,-20.1505],[-42.7615,-20.1228],[-42.811,-20.1456],[-42.82463,-20.16563]]]]}}]}