{"type":"FeatureCollection","features":[{"type":"Feature","properties":{"territory_id":"mg-3157302-centro","name":"Centro","municipality_id":"mg-3157302","polling_places":5,"approx":true,"official":false,"method":"voronoi-polling-places","whole_municipality":false,"approx_coords_only":false},"geometry":{"type":"MultiPolygon","coordinates":[[[[-43.6101,-21.2254],[-43.59393,-21.27693],[-43.54958,-21.27985],[-43.48713,-21.28635],[-43.4767,-21.2806],[-43.4412,-21.2507],[-43.4514,-21.1939],[-43.5154,-21.2033],[-43.5988,-21.1666],[-43.6101,-21.2254]],[[-43.57586,-21.24177],[-43.54811,-21.23907],[-43.55759,-21.24336],[-43.55972,-21.24397],[-43.57586,-21.24177]]]]}},{"type":"Feature","properties":{"territory_id":"mg-3157302-sagrado-coracao-de-jesus","name":"Sagrado Coração de Jesus","municipality_id":"mg-3157302","polling_places":1,"approx":true,"official":false,"method":"voronoi-polling-places","whole_municipality":false,"approx_coords_only":false},"geometry":{"type":"MultiPolygon","coordinates":[[[[-43.57586,-21.24177],[-43.55972,-21.24397],[-43.55759,-21.24336],[-43.54811,-21.23907],[-43.57586,-21.24177]]]]}},{"type":"Feature","properties":{"territory_id":"mg-3157302-zona-rural","name":"Zona Rural","municipality_id":"mg-3157302","polling_places":3,"approx":true,"official":false,"method":"voronoi-polling-places","whole_municipality":false,"approx_coords_only":false},"geometry":{"type":"MultiPolygon","coordinates":[[[[-43.59393,-21.27693],[-43.5808,-21.3188],[-43.5376,-21.3142],[-43.48713,-21.28635],[-43.54958,-21.27985],[-43.59393,-21.27693]]]]}}]}