{"type":"FeatureCollection","features":[{"type":"Feature","properties":{"territory_id":"mg-3157906-centro","name":"Centro","municipality_id":"mg-3157906","polling_places":3,"approx":true,"official":false,"method":"voronoi-polling-places","whole_municipality":false,"approx_coords_only":false},"geometry":{"type":"MultiPolygon","coordinates":[[[[-42.34491,-20.3945],[-42.31206,-20.40666],[-42.24062,-20.48017],[-42.2142,-20.4678],[-42.1882,-20.4339],[-42.1877,-20.3476],[-42.2063,-20.3241],[-42.277,-20.3426],[-42.2779,-20.3668],[-42.3217,-20.37],[-42.34491,-20.3945]]]]}},{"type":"Feature","properties":{"territory_id":"mg-3157906-ribeirao-de-sao-domingos","name":"Ribeirao de Sao Domingos","municipality_id":"mg-3157906","polling_places":1,"approx":true,"official":false,"method":"voronoi-polling-places","whole_municipality":false,"approx_coords_only":false},"geometry":{"type":"MultiPolygon","coordinates":[[[[-42.3451,-20.3947],[-42.3304,-20.457],[-42.3315,-20.4999],[-42.3194,-20.547],[-42.2769,-20.5479],[-42.2426,-20.4811],[-42.24062,-20.48017],[-42.31206,-20.40666],[-42.34491,-20.3945],[-42.3451,-20.3947]]]]}}]}