{"type":"FeatureCollection","features":[{"type":"Feature","properties":{"territory_id":"mg-3157203-ana-margarida","name":"Ana Margarida","municipality_id":"mg-3157203","polling_places":1,"approx":true,"official":false,"method":"voronoi-polling-places","whole_municipality":false,"approx_coords_only":false},"geometry":{"type":"MultiPolygon","coordinates":[[[[-43.43758,-19.97342],[-43.41904,-20.01728],[-43.40893,-20.00533],[-43.41006,-19.96858],[-43.41482,-19.96554],[-43.43685,-19.96948],[-43.43758,-19.97342]]]]}},{"type":"Feature","properties":{"territory_id":"mg-3157203-andre-do-mato-dentro","name":"André do Mato Dentro","municipality_id":"mg-3157203","polling_places":1,"approx":true,"official":false,"method":"voronoi-polling-places","whole_municipality":false,"approx_coords_only":false},"geometry":{"type":"MultiPolygon","coordinates":[[[[-43.6951,-20.0616],[-43.69,-20.0756],[-43.68144,-20.08805],[-43.55611,-20.02193],[-43.5938,-19.9855],[-43.6392,-19.9675],[-43.6623,-19.9927],[-43.6951,-20.0616]]]]}},{"type":"Feature","properties":{"territory_id":"mg-3157203-barra-feliz","name":"Barra Feliz","municipality_id":"mg-3157203","polling_places":1,"approx":true,"official":false,"method":"voronoi-polling-places","whole_municipality":false,"approx_coords_only":false},"geometry":{"type":"MultiPolygon","coordinates":[[[[-43.48904,-19.97699],[-43.48266,-19.97925],[-43.43758,-19.97342],[-43.43685,-19.96948],[-43.43893,-19.94146],[-43.43931,-19.93763],[-43.4414,-19.9406],[-43.475,-19.9543],[-43.48904,-19.97699]]]]}},{"type":"Feature","properties":{"territory_id":"mg-3157203-bateias","name":"Batêias","municipality_id":"mg-3157203","polling_places":1,"approx":true,"official":false,"method":"voronoi-polling-places","whole_municipality":false,"approx_coords_only":false},"geometry":{"type":"MultiPolygon","coordinates":[[[[-43.34282,-20.00916],[-43.3143,-20.0454],[-43.3158,-20.0779],[-43.288,-20.0536],[-43.27314,-20.0081],[-43.2976,-20.00005],[-43.34251,-20.00877],[-43.34282,-20.00916]]]]}},{"type":"Feature","properties":{"territory_id":"mg-3157203-brumal","name":"Brumal","municipality_id":"mg-3157203","polling_places":1,"approx":true,"official":false,"method":"voronoi-polling-places","whole_municipality":false,"approx_coords_only":false},"geometry":{"type":"MultiPolygon","coordinates":[[[[-43.48266,-19.97925],[-43.43497,-20.02954],[-43.4287,-20.0287],[-43.41904,-20.01728],[-43.43758,-19.97342],[-43.48266,-19.97925]]]]}},{"type":"Feature","properties":{"territory_id":"mg-3157203-cachoeira-de-floralia","name":"Cachoeira de Florália","municipality_id":"mg-3157203","polling_places":1,"approx":true,"official":false,"method":"voronoi-polling-places","whole_municipality":false,"approx_coords_only":false},"geometry":{"type":"MultiPolygon","coordinates":[[[[-43.2976,-20.00005],[-43.27314,-20.0081],[-43.272,-20.0046],[-43.2108,-19.9707],[-43.2335,-19.9207],[-43.2205,-19.8928],[-43.27318,-19.90029],[-43.2976,-20.00005]]]]}},{"type":"Feature","properties":{"territory_id":"mg-3157203-centro","name":"Centro","municipality_id":"mg-3157203","polling_places":4,"approx":true,"official":false,"method":"voronoi-polling-places","whole_municipality":false,"approx_coords_only":false},"geometry":{"type":"MultiPolygon","coordinates":[[[[-43.43931,-19.93763],[-43.43893,-19.94146],[-43.43685,-19.96948],[-43.41482,-19.96554],[-43.41006,-19.96858],[-43.40596,-19.96677],[-43.40554,-19.96632],[-43.40596,-19.9615],[-43.40535,-19.95868],[-43.41084,-19.95726],[-43.43174,-19.92689],[-43.43931,-19.93763]]]]}},{"type":"Feature","properties":{"territory_id":"mg-3157203-conceicao-do-rio-acima","name":"Conceição do Rio Acima","municipality_id":"mg-3157203","polling_places":1,"approx":true,"official":false,"method":"voronoi-polling-places","whole_municipality":false,"approx_coords_only":false},"geometry":{"type":"MultiPolygon","coordinates":[[[[-43.68144,-20.08805],[-43.6605,-20.1185],[-43.6183,-20.1937],[-43.5832,-20.2175],[-43.5477,-20.2073],[-43.5337,-20.1609],[-43.5109,-20.1286],[-43.5137,-20.0831],[-43.50521,-20.07846],[-43.53782,-20.02624],[-43.5461,-20.0316],[-43.55611,-20.02193],[-43.68144,-20.08805]]]]}},{"type":"Feature","properties":{"territory_id":"mg-3157203-floralia","name":"Florália","municipality_id":"mg-3157203","polling_places":1,"approx":true,"official":false,"method":"voronoi-polling-places","whole_municipality":false,"approx_coords_only":false},"geometry":{"type":"MultiPolygon","coordinates":[[[[-43.36191,-19.9175],[-43.36157,-19.92322],[-43.34251,-20.00877],[-43.2976,-20.00005],[-43.27318,-19.90029],[-43.2845,-19.9019],[-43.317,-19.8916],[-43.3563,-19.9215],[-43.36191,-19.9175]]]]}},{"type":"Feature","properties":{"territory_id":"mg-3157203-sao-bernardo","name":"São Bernardo","municipality_id":"mg-3157203","polling_places":1,"approx":true,"official":false,"method":"voronoi-polling-places","whole_municipality":false,"approx_coords_only":false},"geometry":{"type":"MultiPolygon","coordinates":[[[[-43.40596,-19.9615],[-43.40554,-19.96632],[-43.40005,-19.96681],[-43.3911,-19.95037],[-43.40535,-19.95868],[-43.40596,-19.9615]]]]}},{"type":"Feature","properties":{"territory_id":"mg-3157203-sao-vicente","name":"São Vicente","municipality_id":"mg-3157203","polling_places":2,"approx":true,"official":false,"method":"voronoi-polling-places","whole_municipality":false,"approx_coords_only":false},"geometry":{"type":"MultiPolygon","coordinates":[[[[-43.41006,-19.96858],[-43.40893,-20.00533],[-43.4045,-20.0001],[-43.38684,-19.9982],[-43.40005,-19.96681],[-43.40554,-19.96632],[-43.40596,-19.96677],[-43.41006,-19.96858]]]]}},{"type":"Feature","properties":{"territory_id":"mg-3157203-sumidouro","name":"Sumidouro","municipality_id":"mg-3157203","polling_places":1,"approx":true,"official":false,"method":"voronoi-polling-places","whole_municipality":false,"approx_coords_only":false},"geometry":{"type":"MultiPolygon","coordinates":[[[[-43.53782,-20.02624],[-43.50521,-20.07846],[-43.4837,-20.0667],[-43.4681,-20.034],[-43.43497,-20.02954],[-43.48266,-19.97925],[-43.48904,-19.97699],[-43.5073,-20.0065],[-43.53782,-20.02624]]]]}},{"type":"Feature","properties":{"territory_id":"mg-3157203-tenente-carlos","name":"Tenente Carlos","municipality_id":"mg-3157203","polling_places":1,"approx":true,"official":false,"method":"voronoi-polling-places","whole_municipality":false,"approx_coords_only":false},"geometry":{"type":"MultiPolygon","coordinates":[[[[-43.43174,-19.92689],[-43.41084,-19.95726],[-43.40535,-19.95868],[-43.3911,-19.95037],[-43.36157,-19.92322],[-43.36191,-19.9175],[-43.3741,-19.9088],[-43.4194,-19.9094],[-43.43174,-19.92689]]]]}},{"type":"Feature","properties":{"territory_id":"mg-3157203-vista-alegre","name":"Vista Alegre","municipality_id":"mg-3157203","polling_places":1,"approx":true,"official":false,"method":"voronoi-polling-places","whole_municipality":false,"approx_coords_only":false},"geometry":{"type":"MultiPolygon","coordinates":[[[[-43.40005,-19.96681],[-43.38684,-19.9982],[-43.3542,-19.9947],[-43.34282,-20.00916],[-43.34251,-20.00877],[-43.36157,-19.92322],[-43.3911,-19.95037],[-43.40005,-19.96681]]]]}}]}