{"type":"FeatureCollection","features":[{"type":"Feature","properties":{"territory_id":"mg-3157377-agua-boa","name":"Agua Boa","municipality_id":"mg-3157377","polling_places":1,"approx":true,"official":false,"method":"voronoi-polling-places","whole_municipality":false,"approx_coords_only":false},"geometry":{"type":"MultiPolygon","coordinates":[[[[-41.9289,-16.043],[-41.92664,-16.12943],[-41.85943,-16.07836],[-41.85686,-16.06676],[-41.91201,-15.96942],[-41.9083,-16.0163],[-41.9289,-16.043]]]]}},{"type":"Feature","properties":{"territory_id":"mg-3157377-baixa-grande","name":"Baixa Grande","municipality_id":"mg-3157377","polling_places":1,"approx":true,"official":false,"method":"voronoi-polling-places","whole_municipality":false,"approx_coords_only":false},"geometry":{"type":"MultiPolygon","coordinates":[[[[-41.917,-15.9064],[-41.91201,-15.96942],[-41.85686,-16.06676],[-41.79199,-16.07202],[-41.74713,-16.04578],[-41.75105,-15.96614],[-41.7862,-15.9635],[-41.8311,-15.9784],[-41.8639,-15.9583],[-41.917,-15.9064]]]]}},{"type":"Feature","properties":{"territory_id":"mg-3157377-centro","name":"Centro","municipality_id":"mg-3157377","polling_places":1,"approx":true,"official":false,"method":"voronoi-polling-places","whole_municipality":false,"approx_coords_only":false},"geometry":{"type":"MultiPolygon","coordinates":[[[[-41.79199,-16.07202],[-41.74705,-16.18229],[-41.7156,-16.179],[-41.6959,-16.1649],[-41.6818,-16.1109],[-41.7064,-16.0852],[-41.7043,-16.06889],[-41.74713,-16.04578],[-41.79199,-16.07202]]]]}},{"type":"Feature","properties":{"territory_id":"mg-3157377-santo-antonio-da-itinga","name":"Santo Antonio da Itinga","municipality_id":"mg-3157377","polling_places":1,"approx":true,"official":false,"method":"voronoi-polling-places","whole_municipality":false,"approx_coords_only":false},"geometry":{"type":"MultiPolygon","coordinates":[[[[-41.85943,-16.07836],[-41.85005,-16.12681],[-41.8446,-16.1296],[-41.84803,-16.13725],[-41.84047,-16.17635],[-41.8027,-16.1679],[-41.7673,-16.1844],[-41.74705,-16.18229],[-41.79199,-16.07202],[-41.85686,-16.06676],[-41.85943,-16.07836]]]]}},{"type":"Feature","properties":{"territory_id":"mg-3157377-sumidouro","name":"Sumidouro","municipality_id":"mg-3157377","polling_places":1,"approx":true,"official":false,"method":"voronoi-polling-places","whole_municipality":false,"approx_coords_only":false},"geometry":{"type":"MultiPolygon","coordinates":[[[[-41.75105,-15.96614],[-41.74713,-16.04578],[-41.7043,-16.06889],[-41.7002,-16.037],[-41.6627,-16.02],[-41.6336,-15.9654],[-41.6195,-15.9368],[-41.663,-15.9304],[-41.7503,-15.9662],[-41.75105,-15.96614]]]]}},{"type":"Feature","properties":{"territory_id":"mg-3157377-zona-rural","name":"Zona Rural","municipality_id":"mg-3157377","polling_places":1,"approx":true,"official":false,"method":"voronoi-polling-places","whole_municipality":false,"approx_coords_only":false},"geometry":{"type":"MultiPolygon","coordinates":[[[[-41.92664,-16.12943],[-41.9266,-16.1311],[-41.8796,-16.1117],[-41.85005,-16.12681],[-41.85943,-16.07836],[-41.92664,-16.12943]]],[[[-41.8684,-16.1826],[-41.84047,-16.17635],[-41.84803,-16.13725],[-41.8684,-16.1826]]]]}}]}