{"type":"FeatureCollection","features":[{"type":"Feature","properties":{"territory_id":"mg-3157708-centro","name":"Centro","municipality_id":"mg-3157708","polling_places":2,"approx":false,"official":true,"method":"official-ibge-cd2022","whole_municipality":false,"approx_coords_only":false,"official_name":"Centro","official_code":"3157708001","match":"direct"},"geometry":{"type":"MultiPolygon","coordinates":[[[[-47.52817,-19.31224],[-47.52896,-19.31196],[-47.52816,-19.30989],[-47.5288,-19.30967],[-47.52842,-19.30867],[-47.52498,-19.30953],[-47.52673,-19.31462],[-47.52759,-19.31707],[-47.53054,-19.31604],[-47.53007,-19.31477],[-47.5293,-19.31289],[-47.52851,-19.31314],[-47.52817,-19.31224]]]]}},{"type":"Feature","properties":{"territory_id":"mg-3157708-ceu-azul","name":"Ceu Azul","municipality_id":"mg-3157708","polling_places":1,"approx":false,"official":true,"method":"official-ibge-cd2022","whole_municipality":false,"approx_coords_only":false,"official_name":"Céu Azul","official_code":"3157708009","match":"direct"},"geometry":{"type":"MultiPolygon","coordinates":[[[[-47.52579,-19.31631],[-47.52596,-19.31659],[-47.52621,-19.31806],[-47.5263,-19.31804],[-47.52787,-19.31795],[-47.52744,-19.31944],[-47.52821,-19.31925],[-47.52937,-19.31881],[-47.52855,-19.31673],[-47.52759,-19.31707],[-47.52716,-19.31581],[-47.52603,-19.31621],[-47.52579,-19.31631]]]]}},{"type":"Feature","properties":{"territory_id":"mg-3157708-novo-horizonte","name":"Novo Horizonte","municipality_id":"mg-3157708","polling_places":1,"approx":false,"official":true,"method":"official-ibge-cd2022","whole_municipality":false,"approx_coords_only":false,"official_name":"Novo Horizonte","official_code":"3157708002","match":"direct"},"geometry":{"type":"MultiPolygon","coordinates":[[[[-47.53054,-19.31604],[-47.52855,-19.31673],[-47.52937,-19.31881],[-47.53268,-19.31764],[-47.53222,-19.31645],[-47.53471,-19.31554],[-47.53433,-19.31472],[-47.53122,-19.31581],[-47.53054,-19.31604]]]]}},{"type":"Feature","properties":{"territory_id":"mg-3157708-sao-judas-tadeu","name":"Sao Judas Tadeu","municipality_id":"mg-3157708","polling_places":1,"approx":false,"official":true,"method":"official-ibge-cd2022","whole_municipality":false,"approx_coords_only":false,"official_name":"São Judas Tadeu","official_code":"3157708006","match":"direct"},"geometry":{"type":"MultiPolygon","coordinates":[[[[-47.52884,-19.30333],[-47.52759,-19.30571],[-47.52835,-19.30596],[-47.5285,-19.30594],[-47.52888,-19.30557],[-47.53032,-19.30602],[-47.5305,-19.30611],[-47.53219,-19.30474],[-47.53232,-19.30491],[-47.53239,-19.30507],[-47.53267,-19.30579],[-47.53354,-19.30516],[-47.53385,-19.30492],[-47.53351,-19.3045],[-47.53285,-19.30386],[-47.53223,-19.30329],[-47.5316,-19.30284],[-47.5306,-19.30219],[-47.5287,-19.30088],[-47.52659,-19.29947],[-47.52641,-19.29977],[-47.5263,-19.29986],[-47.52607,-19.3002],[-47.526,-19.30036],[-47.52594,-19.30054],[-47.52613,-19.30071],[-47.52637,-19.30086],[-47.52668,-19.30107],[-47.52685,-19.30116],[-47.52704,-19.30122],[-47.52721,-19.30117],[-47.52734,-19.30126],[-47.52736,-19.30133],[-47.52743,-19.30133],[-47.52751,-19.30141],[-47.52749,-19.30146],[-47.52926,-19.30281],[-47.52884,-19.30333]]]]}},{"type":"Feature","properties":{"territory_id":"mg-3157708-zona-rural","name":"Zona Rural","municipality_id":"mg-3157708","polling_places":1,"approx":true,"official":false,"method":"voronoi-polling-places","whole_municipality":false,"approx_coords_only":false},"geometry":{"type":"MultiPolygon","coordinates":[[[[-47.6556,-19.2093],[-47.6369,-19.2777],[-47.6411,-19.3517],[-47.6505,-19.3801],[-47.6197,-19.4277],[-47.5224,-19.4958],[-47.4669,-19.5608],[-47.4262,-19.5548],[-47.365,-19.4372],[-47.363,-19.4166],[-47.3835,-19.3535],[-47.4084,-19.3518],[-47.4052,-19.2744],[-47.5329,-19.269],[-47.5793,-19.2229],[-47.6397,-19.1965],[-47.6556,-19.2093]],[[-47.53471,-19.31554],[-47.53433,-19.31472],[-47.53122,-19.31581],[-47.53054,-19.31604],[-47.53007,-19.31477],[-47.5293,-19.31289],[-47.52851,-19.31314],[-47.52817,-19.31224],[-47.52896,-19.31196],[-47.52816,-19.30989],[-47.5288,-19.30967],[-47.52842,-19.30867],[-47.52498,-19.30953],[-47.52673,-19.31462],[-47.52715,-19.31581],[-47.52603,-19.31621],[-47.52579,-19.31631],[-47.52596,-19.31659],[-47.52621,-19.31806],[-47.5263,-19.31804],[-47.52787,-19.31795],[-47.52744,-19.31944],[-47.52821,-19.31925],[-47.52937,-19.31881],[-47.53268,-19.31764],[-47.53222,-19.31645],[-47.53471,-19.31554]],[[-47.53385,-19.30492],[-47.53351,-19.3045],[-47.53285,-19.30386],[-47.53223,-19.30329],[-47.5316,-19.30284],[-47.5306,-19.30219],[-47.5287,-19.30088],[-47.52659,-19.29947],[-47.52641,-19.29977],[-47.5263,-19.29986],[-47.52607,-19.3002],[-47.526,-19.30036],[-47.52594,-19.30054],[-47.52613,-19.30071],[-47.52637,-19.30086],[-47.52668,-19.30107],[-47.52685,-19.30116],[-47.52704,-19.30122],[-47.52721,-19.30117],[-47.52734,-19.30126],[-47.52736,-19.30133],[-47.52743,-19.30133],[-47.52751,-19.30141],[-47.52749,-19.30146],[-47.52926,-19.30281],[-47.52884,-19.30333],[-47.52759,-19.30571],[-47.52835,-19.30596],[-47.5285,-19.30594],[-47.52888,-19.30557],[-47.53032,-19.30602],[-47.5305,-19.30611],[-47.53219,-19.30474],[-47.53232,-19.30491],[-47.53239,-19.30507],[-47.53267,-19.30579],[-47.53354,-19.30516],[-47.53385,-19.30492]]],[[[-47.53054,-19.31604],[-47.52855,-19.31673],[-47.52759,-19.31707],[-47.53054,-19.31604]]]]}}]}