{"type":"FeatureCollection","features":[{"type":"Feature","properties":{"territory_id":"mg-3157252-bairro-nossa-senhora-de-lourdes","name":"Bairro Nossa Senhora de Lourdes","municipality_id":"mg-3157252","polling_places":1,"approx":true,"official":false,"method":"voronoi-polling-places","whole_municipality":false,"approx_coords_only":true},"geometry":{"type":"MultiPolygon","coordinates":[[[[-42.1687,-19.93759],[-42.15067,-19.95293],[-42.12363,-19.97177],[-42.10342,-19.96943],[-42.1014,-19.9649],[-42.07938,-19.95785],[-42.15936,-19.91883],[-42.1687,-19.93759]]]]}},{"type":"Feature","properties":{"territory_id":"mg-3157252-centro","name":"Centro","municipality_id":"mg-3157252","polling_places":1,"approx":true,"official":false,"method":"voronoi-polling-places","whole_municipality":false,"approx_coords_only":false},"geometry":{"type":"MultiPolygon","coordinates":[[[[-42.1691,-19.9384],[-42.1632,-19.9898],[-42.14395,-20.0048],[-42.14021,-19.99718],[-42.15067,-19.95293],[-42.1687,-19.93759],[-42.1691,-19.9384]]]]}},{"type":"Feature","properties":{"territory_id":"mg-3157252-zona-rural","name":"Zona Rural","municipality_id":"mg-3157252","polling_places":4,"approx":true,"official":false,"method":"voronoi-polling-places","whole_municipality":false,"approx_coords_only":false},"geometry":{"type":"MultiPolygon","coordinates":[[[[-42.15936,-19.91883],[-42.07938,-19.95785],[-42.0558,-19.9503],[-42.0204,-19.9174],[-42.0752,-19.8855],[-42.0962,-19.9199],[-42.1567,-19.9135],[-42.15936,-19.91883]]],[[[-42.15067,-19.95293],[-42.14021,-19.99718],[-42.14395,-20.0048],[-42.1256,-20.0191],[-42.10342,-19.96943],[-42.12363,-19.97177],[-42.15067,-19.95293]]]]}}]}