{"type":"FeatureCollection","features":[{"type":"Feature","properties":{"territory_id":"mg-3157005-centro","name":"Centro","municipality_id":"mg-3157005","polling_places":2,"approx":true,"official":false,"method":"voronoi-polling-places","whole_municipality":false,"approx_coords_only":false},"geometry":{"type":"MultiPolygon","coordinates":[[[[-42.2974,-16.168],[-42.29407,-16.17357],[-42.29231,-16.17002],[-42.29716,-16.168],[-42.2974,-16.168]]],[[[-42.11774,-16.08022],[-42.11086,-16.09214],[-42.01434,-16.02908],[-41.99356,-15.9958],[-42.07991,-16.01469],[-42.11774,-16.08022]]]]}},{"type":"Feature","properties":{"territory_id":"mg-3157005-curralinho","name":"Curralinho","municipality_id":"mg-3157005","polling_places":1,"approx":true,"official":false,"method":"voronoi-polling-places","whole_municipality":false,"approx_coords_only":false},"geometry":{"type":"MultiPolygon","coordinates":[[[[-42.29407,-16.17357],[-42.24705,-16.30435],[-42.2034,-16.3006],[-42.18894,-16.28884],[-42.20555,-16.24879],[-42.28368,-16.17082],[-42.29231,-16.17002],[-42.29407,-16.17357]]]]}},{"type":"Feature","properties":{"territory_id":"mg-3157005-distrito-de-ferreiropolis","name":"Distrito de Ferreiropolis","municipality_id":"mg-3157005","polling_places":1,"approx":true,"official":false,"method":"voronoi-polling-places","whole_municipality":false,"approx_coords_only":false},"geometry":{"type":"MultiPolygon","coordinates":[[[[-42.27234,-15.99382],[-42.22519,-16.03158],[-42.18084,-16.00463],[-42.19004,-15.95863],[-42.2248,-15.9507],[-42.24088,-15.92445],[-42.27234,-15.99382]]]]}},{"type":"Feature","properties":{"territory_id":"mg-3157005-distrito-de-matrona","name":"Distrito de Matrona","municipality_id":"mg-3157005","polling_places":1,"approx":true,"official":false,"method":"voronoi-polling-places","whole_municipality":false,"approx_coords_only":false},"geometry":{"type":"MultiPolygon","coordinates":[[[[-42.32977,-15.99263],[-42.3275,-15.9925],[-42.32199,-16.01177],[-42.27234,-15.99382],[-42.24088,-15.92445],[-42.249,-15.9112],[-42.25769,-15.91315],[-42.32977,-15.99263]]]]}},{"type":"Feature","properties":{"territory_id":"mg-3157005-distrito-de-nova-fatima","name":"Distrito de Nova Fátima","municipality_id":"mg-3157005","polling_places":1,"approx":true,"official":false,"method":"voronoi-polling-places","whole_municipality":false,"approx_coords_only":false},"geometry":{"type":"MultiPolygon","coordinates":[[[[-42.17935,-16.28104],[-42.1702,-16.2736],[-42.1357,-16.2716],[-42.0902,-16.2321],[-42.0713,-16.2671],[-42.0635,-16.26541],[-42.04796,-16.23219],[-42.03913,-16.16946],[-42.06089,-16.1282],[-42.13796,-16.15934],[-42.17935,-16.28104]]]]}},{"type":"Feature","properties":{"territory_id":"mg-3157005-montes-clarinhos","name":"Montes Clarinhos","municipality_id":"mg-3157005","polling_places":1,"approx":true,"official":false,"method":"voronoi-polling-places","whole_municipality":false,"approx_coords_only":false},"geometry":{"type":"MultiPolygon","coordinates":[[[[-42.19004,-15.95863],[-42.18084,-16.00463],[-42.1398,-16.02773],[-42.07991,-16.01469],[-41.99356,-15.9958],[-41.99152,-15.99431],[-42.0032,-15.994],[-42.0687,-15.9675],[-42.1036,-15.9059],[-42.1409,-15.9222],[-42.156,-15.9664],[-42.19004,-15.95863]]]]}},{"type":"Feature","properties":{"territory_id":"mg-3157005-panorama","name":"Panorama","municipality_id":"mg-3157005","polling_places":1,"approx":true,"official":false,"method":"voronoi-polling-places","whole_municipality":false,"approx_coords_only":false},"geometry":{"type":"MultiPolygon","coordinates":[[[[-42.4244,-16.0798],[-42.4193,-16.1075],[-42.3875,-16.1286],[-42.3824,-16.1598],[-42.3529,-16.1956],[-42.35692,-16.25615],[-42.29955,-16.16715],[-42.30079,-16.15854],[-42.31181,-16.13416],[-42.336,-16.08731],[-42.40463,-16.06736],[-42.4244,-16.0798]]]]}},{"type":"Feature","properties":{"territory_id":"mg-3157005-progresso","name":"Progresso","municipality_id":"mg-3157005","polling_places":1,"approx":true,"official":false,"method":"voronoi-polling-places","whole_municipality":false,"approx_coords_only":false},"geometry":{"type":"MultiPolygon","coordinates":[[[[-42.31181,-16.13416],[-42.30079,-16.15854],[-42.28783,-16.16444],[-42.28717,-16.16172],[-42.31181,-16.13416]]]]}},{"type":"Feature","properties":{"territory_id":"mg-3157005-sao-geraldo","name":"Sao Geraldo","municipality_id":"mg-3157005","polling_places":1,"approx":true,"official":false,"method":"voronoi-polling-places","whole_municipality":false,"approx_coords_only":false},"geometry":{"type":"MultiPolygon","coordinates":[[[[-42.336,-16.08731],[-42.31181,-16.13416],[-42.28717,-16.16172],[-42.25184,-16.11566],[-42.25601,-16.10067],[-42.29659,-16.09389],[-42.2985,-16.1027],[-42.3202,-16.1067],[-42.33372,-16.08769],[-42.336,-16.08731]]]]}},{"type":"Feature","properties":{"territory_id":"mg-3157005-sao-pedro","name":"Sao Pedro","municipality_id":"mg-3157005","polling_places":1,"approx":true,"official":false,"method":"voronoi-polling-places","whole_municipality":false,"approx_coords_only":false},"geometry":{"type":"MultiPolygon","coordinates":[[[[-42.3587,-16.2829],[-42.3421,-16.2956],[-42.3174,-16.3104],[-42.24705,-16.30435],[-42.29407,-16.17357],[-42.2974,-16.168],[-42.29955,-16.16715],[-42.35692,-16.25615],[-42.3587,-16.2829]]]]}},{"type":"Feature","properties":{"territory_id":"mg-3157005-silvio-santiago","name":"Silvio Santiago","municipality_id":"mg-3157005","polling_places":1,"approx":true,"official":false,"method":"voronoi-polling-places","whole_municipality":false,"approx_coords_only":false},"geometry":{"type":"MultiPolygon","coordinates":[[[[-42.28783,-16.16444],[-42.28763,-16.16513],[-42.28368,-16.17082],[-42.20555,-16.24879],[-42.25184,-16.11566],[-42.28717,-16.16172],[-42.28783,-16.16444]]]]}},{"type":"Feature","properties":{"territory_id":"mg-3157005-sucesso","name":"Sucesso","municipality_id":"mg-3157005","polling_places":1,"approx":true,"official":false,"method":"voronoi-polling-places","whole_municipality":false,"approx_coords_only":false},"geometry":{"type":"MultiPolygon","coordinates":[[[[-42.16382,-16.0979],[-42.15055,-16.11842],[-42.11086,-16.09214],[-42.11774,-16.08022],[-42.15774,-16.08022],[-42.16382,-16.0979]]]]}},{"type":"Feature","properties":{"territory_id":"mg-3157005-vila-santa-marta","name":"Vila Santa Marta","municipality_id":"mg-3157005","polling_places":1,"approx":true,"official":false,"method":"voronoi-polling-places","whole_municipality":false,"approx_coords_only":false},"geometry":{"type":"MultiPolygon","coordinates":[[[[-42.30079,-16.15854],[-42.29955,-16.16715],[-42.2974,-16.168],[-42.29716,-16.168],[-42.28763,-16.16513],[-42.28783,-16.16444],[-42.30079,-16.15854]]]]}},{"type":"Feature","properties":{"territory_id":"mg-3157005-zona-rural","name":"Zona Rural","municipality_id":"mg-3157005","polling_places":20,"approx":true,"official":false,"method":"voronoi-polling-places","whole_municipality":false,"approx_coords_only":false},"geometry":{"type":"MultiPolygon","coordinates":[[[[-42.40463,-16.06736],[-42.336,-16.08731],[-42.33372,-16.08769],[-42.3537,-16.0596],[-42.3996,-16.0642],[-42.40463,-16.06736]]],[[[-42.3981,-15.9019],[-42.3683,-15.9244],[-42.3789,-15.9722],[-42.3664,-15.9948],[-42.32977,-15.99263],[-42.25769,-15.91315],[-42.2682,-15.9155],[-42.2905,-15.8584],[-42.3276,-15.8493],[-42.3545,-15.8598],[-42.3981,-15.9019]]],[[[-42.32199,-16.01177],[-42.3168,-16.0299],[-42.2855,-16.0426],[-42.29659,-16.09389],[-42.25601,-16.10067],[-42.25184,-16.11566],[-42.20555,-16.24879],[-42.18894,-16.28884],[-42.17935,-16.28104],[-42.13796,-16.15934],[-42.06089,-16.1282],[-42.03913,-16.16946],[-42.04796,-16.23219],[-42.0635,-16.26541],[-42.0301,-16.2582],[-41.9687,-16.304],[-41.9104,-16.3216],[-41.9325,-16.2814],[-41.8684,-16.1826],[-41.8446,-16.1296],[-41.8796,-16.1117],[-41.9266,-16.1311],[-41.9289,-16.043],[-41.9083,-16.0163],[-41.9362,-15.9958],[-41.99152,-15.99431],[-41.99356,-15.9958],[-42.01434,-16.02908],[-42.11086,-16.09214],[-42.15055,-16.11842],[-42.16382,-16.0979],[-42.15774,-16.08022],[-42.11774,-16.08022],[-42.07991,-16.01469],[-42.1398,-16.02773],[-42.18084,-16.00463],[-42.22519,-16.03158],[-42.27234,-15.99382],[-42.32199,-16.01177]]],[[[-42.29716,-16.168],[-42.29231,-16.17002],[-42.28368,-16.17082],[-42.28763,-16.16513],[-42.29716,-16.168]]]]}}]}