{"type":"FeatureCollection","features":[{"type":"Feature","properties":{"territory_id":"mg-3157609-centro","name":"Centro","municipality_id":"mg-3157609","polling_places":2,"approx":true,"official":false,"method":"voronoi-polling-places","whole_municipality":false,"approx_coords_only":false},"geometry":{"type":"MultiPolygon","coordinates":[[[[-45.5956,-16.57503],[-45.54214,-16.64214],[-45.39567,-16.82691],[-45.30282,-16.85055],[-45.2976,-16.8175],[-45.307,-16.7907],[-45.284,-16.7596],[-45.2508,-16.7463],[-45.23986,-16.73022],[-45.30136,-16.56174],[-45.3048,-16.5632],[-45.4189,-16.5029],[-45.4622,-16.5041],[-45.5064,-16.5197],[-45.5274,-16.5634],[-45.5849,-16.5626],[-45.5956,-16.57503]]]]}},{"type":"Feature","properties":{"territory_id":"mg-3157609-zona-rural","name":"Zona Rural","municipality_id":"mg-3157609","polling_places":3,"approx":true,"official":false,"method":"voronoi-polling-places","whole_municipality":false,"approx_coords_only":false},"geometry":{"type":"MultiPolygon","coordinates":[[[[-46.0156,-16.6372],[-45.9915,-16.6941],[-45.9583,-16.695],[-45.9447,-16.7187],[-45.8887,-16.7028],[-45.8852,-16.7288],[-45.8581,-16.7642],[-45.8559,-16.8107],[-45.8277,-16.8309],[-45.7775,-16.8317],[-45.7737,-16.8563],[-45.7213,-16.8983],[-45.6965,-16.8829],[-45.6644,-16.8886],[-45.6197,-16.8754],[-45.5929,-16.8908],[-45.5643,-16.9414],[-45.5221,-16.9394],[-45.5049,-16.9609],[-45.4619,-16.9633],[-45.4291,-16.9166],[-45.4002,-16.9033],[-45.348,-16.9078],[-45.308,-16.8834],[-45.30282,-16.85055],[-45.39567,-16.82691],[-45.54214,-16.64214],[-45.5956,-16.57503],[-45.6222,-16.6059],[-45.6429,-16.6118],[-45.6913,-16.5666],[-45.7588,-16.5314],[-45.7884,-16.5464],[-45.8306,-16.5064],[-45.8464,-16.5035],[-45.9102,-16.5306],[-45.9518,-16.554],[-45.9708,-16.6077],[-46.0156,-16.6372]]],[[[-45.30136,-16.56174],[-45.23986,-16.73022],[-45.2323,-16.7191],[-45.241,-16.6906],[-45.1967,-16.684],[-45.1658,-16.6205],[-45.1047,-16.5654],[-45.1173,-16.5128],[-45.2571,-16.5429],[-45.30136,-16.56174]]]]}}]}