{"type":"FeatureCollection","features":[{"type":"Feature","properties":{"territory_id":"mg-3158003-centro","name":"Centro","municipality_id":"mg-3158003","polling_places":1,"approx":true,"official":false,"method":"voronoi-polling-places","whole_municipality":false,"approx_coords_only":false},"geometry":{"type":"MultiPolygon","coordinates":[[[[-43.11793,-19.45168],[-43.09728,-19.45586],[-43.09224,-19.41335],[-43.11793,-19.45168]]]]}},{"type":"Feature","properties":{"territory_id":"mg-3158003-conselho","name":"Conselho","municipality_id":"mg-3158003","polling_places":1,"approx":true,"official":false,"method":"voronoi-polling-places","whole_municipality":false,"approx_coords_only":false},"geometry":{"type":"MultiPolygon","coordinates":[[[[-43.2322,-19.4556],[-43.21684,-19.47542],[-43.11793,-19.45168],[-43.09224,-19.41335],[-43.08748,-19.3838],[-43.09122,-19.37657],[-43.1027,-19.3818],[-43.1434,-19.402],[-43.1937,-19.387],[-43.2006,-19.4221],[-43.2322,-19.4556]]]]}},{"type":"Feature","properties":{"territory_id":"mg-3158003-itauninha","name":"Itauninha","municipality_id":"mg-3158003","polling_places":1,"approx":true,"official":false,"method":"voronoi-polling-places","whole_municipality":false,"approx_coords_only":false},"geometry":{"type":"MultiPolygon","coordinates":[[[[-43.09122,-19.37657],[-43.08748,-19.3838],[-43.04762,-19.42619],[-43.0463,-19.4229],[-43.02613,-19.44646],[-42.92737,-19.35645],[-42.942,-19.3208],[-42.9578,-19.3056],[-43.0448,-19.3123],[-43.0686,-19.3299],[-43.0792,-19.3711],[-43.09122,-19.37657]]]]}},{"type":"Feature","properties":{"territory_id":"mg-3158003-nova-santa-maria","name":"Nova Santa Maria","municipality_id":"mg-3158003","polling_places":1,"approx":true,"official":false,"method":"voronoi-polling-places","whole_municipality":false,"approx_coords_only":false},"geometry":{"type":"MultiPolygon","coordinates":[[[[-43.21684,-19.47542],[-43.1967,-19.5014],[-43.192,-19.5254],[-43.1297,-19.5295],[-43.1092,-19.5586],[-43.09322,-19.56452],[-43.09728,-19.45586],[-43.11793,-19.45168],[-43.21684,-19.47542]]]]}},{"type":"Feature","properties":{"territory_id":"mg-3158003-zona-rural","name":"Zona Rural","municipality_id":"mg-3158003","polling_places":2,"approx":true,"official":false,"method":"voronoi-polling-places","whole_municipality":false,"approx_coords_only":false},"geometry":{"type":"MultiPolygon","coordinates":[[[[-43.09728,-19.45586],[-43.09322,-19.56452],[-43.0574,-19.5778],[-43.0445,-19.5648],[-43.0441,-19.5167],[-43.0641,-19.4673],[-43.04762,-19.42619],[-43.08748,-19.3838],[-43.09224,-19.41335],[-43.09728,-19.45586]]],[[[-43.02613,-19.44646],[-42.9814,-19.4987],[-42.9671,-19.5314],[-42.9116,-19.5139],[-42.9109,-19.4815],[-42.8767,-19.4322],[-42.8974,-19.4295],[-42.92737,-19.35645],[-43.02613,-19.44646]]]]}}]}