{"type":"FeatureCollection","features":[{"type":"Feature","properties":{"territory_id":"mg-3158201-bananal","name":"Bananal","municipality_id":"mg-3158201","polling_places":1,"approx":true,"official":false,"method":"voronoi-polling-places","whole_municipality":false,"approx_coords_only":false},"geometry":{"type":"MultiPolygon","coordinates":[[[[-42.34988,-18.25803],[-42.32504,-18.36382],[-42.29349,-18.38036],[-42.23573,-18.23717],[-42.2511,-18.2333],[-42.26665,-18.2147],[-42.34988,-18.25803]]]]}},{"type":"Feature","properties":{"territory_id":"mg-3158201-centro","name":"Centro","municipality_id":"mg-3158201","polling_places":4,"approx":true,"official":false,"method":"voronoi-polling-places","whole_municipality":false,"approx_coords_only":false},"geometry":{"type":"MultiPolygon","coordinates":[[[[-42.46323,-18.13919],[-42.42473,-18.1873],[-42.42052,-18.2125],[-42.41881,-18.24915],[-42.38722,-18.23896],[-42.36748,-18.16318],[-42.38419,-18.12791],[-42.46323,-18.13919]]]]}},{"type":"Feature","properties":{"territory_id":"mg-3158201-corrego-do-brejo","name":"Corrego do Brejo","municipality_id":"mg-3158201","polling_places":1,"approx":true,"official":false,"method":"voronoi-polling-places","whole_municipality":false,"approx_coords_only":false},"geometry":{"type":"MultiPolygon","coordinates":[[[[-42.42397,-18.25144],[-42.4086,-18.2722],[-42.4108,-18.3196],[-42.3973,-18.3544],[-42.3845,-18.3732],[-42.3392,-18.3564],[-42.32504,-18.36382],[-42.34988,-18.25803],[-42.38722,-18.23896],[-42.41881,-18.24915],[-42.42397,-18.25144]]]]}},{"type":"Feature","properties":{"territory_id":"mg-3158201-corrego-santa-cruz","name":"Corrego Santa Cruz","municipality_id":"mg-3158201","polling_places":1,"approx":true,"official":false,"method":"voronoi-polling-places","whole_municipality":false,"approx_coords_only":false},"geometry":{"type":"MultiPolygon","coordinates":[[[[-42.47034,-18.13966],[-42.46323,-18.13919],[-42.38419,-18.12791],[-42.3869,-18.1222],[-42.4152,-18.1001],[-42.4119,-18.05916],[-42.44145,-18.05527],[-42.4426,-18.058],[-42.4575,-18.067],[-42.47034,-18.13966]]]]}},{"type":"Feature","properties":{"territory_id":"mg-3158201-corrego-sao-felix","name":"Corrego Sao Felix","municipality_id":"mg-3158201","polling_places":1,"approx":true,"official":false,"method":"voronoi-polling-places","whole_municipality":false,"approx_coords_only":false},"geometry":{"type":"MultiPolygon","coordinates":[[[[-42.44145,-18.05527],[-42.4119,-18.05916],[-42.4092,-18.0256],[-42.4205,-18.0055],[-42.44145,-18.05527]]]]}},{"type":"Feature","properties":{"territory_id":"mg-3158201-glucinio","name":"Glucinio","municipality_id":"mg-3158201","polling_places":1,"approx":true,"official":false,"method":"voronoi-polling-places","whole_municipality":false,"approx_coords_only":false},"geometry":{"type":"MultiPolygon","coordinates":[[[[-42.38722,-18.23896],[-42.34988,-18.25803],[-42.26665,-18.2147],[-42.3011,-18.1735],[-42.3623,-18.1741],[-42.36748,-18.16318],[-42.38722,-18.23896]]]]}},{"type":"Feature","properties":{"territory_id":"mg-3158201-poaia","name":"Poaia","municipality_id":"mg-3158201","polling_places":1,"approx":true,"official":false,"method":"voronoi-polling-places","whole_municipality":false,"approx_coords_only":false},"geometry":{"type":"MultiPolygon","coordinates":[[[[-42.29349,-18.38036],[-42.2854,-18.3846],[-42.2132,-18.3832],[-42.2031,-18.411],[-42.124,-18.3939],[-42.1283,-18.3744],[-42.1677,-18.3584],[-42.1903,-18.3132],[-42.19,-18.2605],[-42.2086,-18.244],[-42.23573,-18.23717],[-42.29349,-18.38036]]]]}},{"type":"Feature","properties":{"territory_id":"mg-3158201-sao-jose-do-puba","name":"São José do Puba","municipality_id":"mg-3158201","polling_places":1,"approx":true,"official":false,"method":"voronoi-polling-places","whole_municipality":false,"approx_coords_only":false},"geometry":{"type":"MultiPolygon","coordinates":[[[[-42.4722,-18.1502],[-42.464,-18.1779],[-42.4463,-18.2213],[-42.42397,-18.25144],[-42.41881,-18.24915],[-42.42052,-18.2125],[-42.42473,-18.1873],[-42.46323,-18.13919],[-42.47034,-18.13966],[-42.4722,-18.1502]]]]}}]}