{"type":"FeatureCollection","features":[{"type":"Feature","properties":{"territory_id":"mg-3158300-centro","name":"Centro","municipality_id":"mg-3158300","polling_places":3,"approx":true,"official":false,"method":"voronoi-polling-places","whole_municipality":true,"approx_coords_only":false},"geometry":{"type":"MultiPolygon","coordinates":[[[[-45.3929,-21.2914],[-45.4188,-21.2529],[-45.5172,-21.2187],[-45.5669,-21.2538],[-45.6039,-21.2314],[-45.6099,-21.2759],[-45.6004,-21.3154],[-45.5615,-21.3136],[-45.4826,-21.2955],[-45.3778,-21.3105],[-45.3929,-21.2914]]]]}}]}