{"type":"FeatureCollection","features":[{"type":"Feature","properties":{"territory_id":"mg-3158409-centro","name":"Centro","municipality_id":"mg-3158409","polling_places":2,"approx":true,"official":false,"method":"voronoi-polling-places","whole_municipality":true,"approx_coords_only":false},"geometry":{"type":"MultiPolygon","coordinates":[[[[-42.4629,-21.2695],[-42.5329,-21.2301],[-42.5288,-21.2027],[-42.5568,-21.2228],[-42.5917,-21.2154],[-42.6126,-21.2326],[-42.5905,-21.2552],[-42.6291,-21.3185],[-42.6262,-21.3474],[-42.5851,-21.3541],[-42.5024,-21.3118],[-42.4629,-21.2695]]]]}}]}