{"type":"FeatureCollection","features":[{"type":"Feature","properties":{"territory_id":"mg-3158102-centro","name":"Centro","municipality_id":"mg-3158102","polling_places":2,"approx":true,"official":false,"method":"voronoi-polling-places","whole_municipality":false,"approx_coords_only":false},"geometry":{"type":"MultiPolygon","coordinates":[[[[-40.2168,-16.3131],[-40.167,-16.3844],[-40.1545,-16.4173],[-40.1102,-16.4493],[-40.0658,-16.4575],[-40.03197,-16.38114],[-40.14832,-16.24962],[-40.09549,-16.17719],[-40.1351,-16.1269],[-40.1463,-16.1694],[-40.1783,-16.2278],[-40.2012,-16.2304],[-40.2168,-16.3131]]]]}},{"type":"Feature","properties":{"territory_id":"mg-3158102-distrito-do-talisma","name":"Distrito do Talismã","municipality_id":"mg-3158102","polling_places":1,"approx":true,"official":false,"method":"voronoi-polling-places","whole_municipality":false,"approx_coords_only":false},"geometry":{"type":"MultiPolygon","coordinates":[[[[-40.14832,-16.24962],[-40.03197,-16.38114],[-40.0172,-16.3478],[-40.0453,-16.3052],[-40.0702,-16.2093],[-40.09549,-16.17719],[-40.14832,-16.24962]]]]}}]}