{"type":"FeatureCollection","features":[{"type":"Feature","properties":{"territory_id":"mg-3158953-aguas-claras","name":"Aguas Claras","municipality_id":"mg-3158953","polling_places":1,"approx":true,"official":false,"method":"voronoi-polling-places","whole_municipality":false,"approx_coords_only":false},"geometry":{"type":"MultiPolygon","coordinates":[[[[-42.52902,-19.4442],[-42.51647,-19.45615],[-42.46886,-19.4364],[-42.48245,-19.39646],[-42.52902,-19.4442]]]]}},{"type":"Feature","properties":{"territory_id":"mg-3158953-centro","name":"Centro","municipality_id":"mg-3158953","polling_places":2,"approx":true,"official":false,"method":"voronoi-polling-places","whole_municipality":false,"approx_coords_only":false},"geometry":{"type":"MultiPolygon","coordinates":[[[[-42.61297,-19.33673],[-42.57525,-19.36227],[-42.56223,-19.36766],[-42.5241,-19.38823],[-42.49728,-19.38632],[-42.48652,-19.3822],[-42.47959,-19.3607],[-42.4725,-19.34006],[-42.5194,-19.3227],[-42.555,-19.2964],[-42.61297,-19.33673]]]]}},{"type":"Feature","properties":{"territory_id":"mg-3158953-cidade-nova","name":"Cidade Nova","municipality_id":"mg-3158953","polling_places":1,"approx":true,"official":false,"method":"voronoi-polling-places","whole_municipality":false,"approx_coords_only":false},"geometry":{"type":"MultiPolygon","coordinates":[[[[-42.51996,-19.46194],[-42.5133,-19.4659],[-42.5023,-19.4921],[-42.45343,-19.45548],[-42.46886,-19.4364],[-42.51647,-19.45615],[-42.51996,-19.46194]]]]}},{"type":"Feature","properties":{"territory_id":"mg-3158953-industrial","name":"Industrial","municipality_id":"mg-3158953","polling_places":2,"approx":true,"official":false,"method":"voronoi-polling-places","whole_municipality":false,"approx_coords_only":false},"geometry":{"type":"MultiPolygon","coordinates":[[[[-42.5622,-19.40042],[-42.5596,-19.4022],[-42.54834,-19.43531],[-42.54773,-19.43503],[-42.54631,-19.43464],[-42.49728,-19.38632],[-42.5241,-19.38823],[-42.5482,-19.39462],[-42.55061,-19.39616],[-42.5622,-19.40042]]]]}},{"type":"Feature","properties":{"territory_id":"mg-3158953-ipaba","name":"Ipaba","municipality_id":"mg-3158953","polling_places":1,"approx":true,"official":false,"method":"voronoi-polling-places","whole_municipality":false,"approx_coords_only":false},"geometry":{"type":"MultiPolygon","coordinates":[[[[-42.48652,-19.3822],[-42.48245,-19.39646],[-42.46886,-19.4364],[-42.45343,-19.45548],[-42.4321,-19.4395],[-42.4134,-19.39],[-42.4192,-19.3362],[-42.4523,-19.36],[-42.4713,-19.3405],[-42.4725,-19.34006],[-42.47959,-19.3607],[-42.48652,-19.3822]]]]}},{"type":"Feature","properties":{"territory_id":"mg-3158953-parque-caravelas","name":"Parque Caravelas","municipality_id":"mg-3158953","polling_places":1,"approx":true,"official":false,"method":"voronoi-polling-places","whole_municipality":false,"approx_coords_only":false},"geometry":{"type":"MultiPolygon","coordinates":[[[[-42.54834,-19.43531],[-42.5442,-19.4475],[-42.51996,-19.46194],[-42.51647,-19.45615],[-42.52902,-19.4442],[-42.54631,-19.43464],[-42.54773,-19.43503],[-42.54834,-19.43531]]]]}},{"type":"Feature","properties":{"territory_id":"mg-3158953-residencial-bom-pastor","name":"Residencial Bom Pastor","municipality_id":"mg-3158953","polling_places":1,"approx":true,"official":false,"method":"voronoi-polling-places","whole_municipality":false,"approx_coords_only":false},"geometry":{"type":"MultiPolygon","coordinates":[[[[-42.54631,-19.43464],[-42.52902,-19.4442],[-42.48245,-19.39646],[-42.48652,-19.3822],[-42.49728,-19.38632],[-42.54631,-19.43464]]]]}},{"type":"Feature","properties":{"territory_id":"mg-3158953-residencial-paraiso","name":"Residencial Paraiso","municipality_id":"mg-3158953","polling_places":1,"approx":true,"official":false,"method":"voronoi-polling-places","whole_municipality":false,"approx_coords_only":false},"geometry":{"type":"MultiPolygon","coordinates":[[[[-42.6776,-19.3817],[-42.5935,-19.379],[-42.5622,-19.40042],[-42.55061,-19.39616],[-42.5482,-19.39462],[-42.57525,-19.36227],[-42.61297,-19.33673],[-42.6776,-19.3817]]]]}},{"type":"Feature","properties":{"territory_id":"mg-3158953-veraneio","name":"Veraneio","municipality_id":"mg-3158953","polling_places":1,"approx":true,"official":false,"method":"voronoi-polling-places","whole_municipality":false,"approx_coords_only":false},"geometry":{"type":"MultiPolygon","coordinates":[[[[-42.57525,-19.36227],[-42.5482,-19.39462],[-42.5241,-19.38823],[-42.56223,-19.36766],[-42.57525,-19.36227]]]]}}]}