{"type":"FeatureCollection","features":[{"type":"Feature","properties":{"territory_id":"mg-3158805-centro","name":"Centro","municipality_id":"mg-3158805","polling_places":2,"approx":true,"official":false,"method":"voronoi-polling-places","whole_municipality":true,"approx_coords_only":false},"geometry":{"type":"MultiPolygon","coordinates":[[[[-45.0705,-20.8393],[-45.0803,-20.8695],[-45.1326,-20.8965],[-45.1424,-20.9267],[-45.1075,-20.9285],[-45.0924,-20.9506],[-45.0754,-20.9403],[-45.0053,-20.8963],[-45.0103,-20.8447],[-45.0392,-20.8093],[-45.0565,-20.8169],[-45.0705,-20.8393]]]]}}]}