{"type":"FeatureCollection","features":[{"type":"Feature","properties":{"territory_id":"mg-3158508-campo-alegre","name":"Campo Alegre","municipality_id":"mg-3158508","polling_places":1,"approx":true,"official":false,"method":"voronoi-polling-places","whole_municipality":false,"approx_coords_only":false},"geometry":{"type":"MultiPolygon","coordinates":[[[[-43.9341,-18.90359],[-43.83818,-18.9837],[-43.75618,-18.85449],[-43.77511,-18.81294],[-43.9341,-18.90359]]]]}},{"type":"Feature","properties":{"territory_id":"mg-3158508-centro","name":"Centro","municipality_id":"mg-3158508","polling_places":2,"approx":true,"official":false,"method":"voronoi-polling-places","whole_municipality":false,"approx_coords_only":false},"geometry":{"type":"MultiPolygon","coordinates":[[[[-44.1205,-18.9455],[-44.0973,-18.9455],[-44.074,-19.012],[-44.0412,-19.079],[-44.012,-19.084],[-44.01064,-19.08601],[-43.96401,-19.00044],[-43.96953,-18.90704],[-43.98447,-18.89742],[-43.9924,-18.9078],[-44.0301,-18.9034],[-44.0581,-18.8851],[-44.0746,-18.9145],[-44.1205,-18.9455]]]]}},{"type":"Feature","properties":{"territory_id":"mg-3158508-curralinho","name":"Curralinho","municipality_id":"mg-3158508","polling_places":1,"approx":true,"official":false,"method":"voronoi-polling-places","whole_municipality":false,"approx_coords_only":false},"geometry":{"type":"MultiPolygon","coordinates":[[[[-43.96953,-18.90704],[-43.96401,-19.00044],[-43.84724,-19.0704],[-43.83893,-19.07192],[-43.80042,-19.0657],[-43.83818,-18.9837],[-43.9341,-18.90359],[-43.96953,-18.90704]]]]}},{"type":"Feature","properties":{"territory_id":"mg-3158508-duas-barras","name":"Duas Barras","municipality_id":"mg-3158508","polling_places":1,"approx":true,"official":false,"method":"voronoi-polling-places","whole_municipality":false,"approx_coords_only":false},"geometry":{"type":"MultiPolygon","coordinates":[[[[-43.9987,-18.6678],[-43.9711,-18.7385],[-43.96995,-18.7637],[-43.85883,-18.68787],[-43.8689,-18.6715],[-43.8935,-18.6641],[-43.9196,-18.6326],[-43.9796,-18.6399],[-43.9987,-18.6678]]]]}},{"type":"Feature","properties":{"territory_id":"mg-3158508-fechados","name":"Fechados","municipality_id":"mg-3158508","polling_places":1,"approx":true,"official":false,"method":"voronoi-polling-places","whole_municipality":false,"approx_coords_only":false},"geometry":{"type":"MultiPolygon","coordinates":[[[[-43.98447,-18.89742],[-43.96953,-18.90704],[-43.9341,-18.90359],[-43.77511,-18.81294],[-43.7959,-18.7673],[-43.8159,-18.7891],[-43.8483,-18.705],[-43.85883,-18.68787],[-43.96995,-18.7637],[-43.9689,-18.7868],[-43.9523,-18.8222],[-43.9649,-18.8718],[-43.98447,-18.89742]]]]}},{"type":"Feature","properties":{"territory_id":"mg-3158508-inhames","name":"Inhames","municipality_id":"mg-3158508","polling_places":1,"approx":true,"official":false,"method":"voronoi-polling-places","whole_municipality":false,"approx_coords_only":false},"geometry":{"type":"MultiPolygon","coordinates":[[[[-43.83818,-18.9837],[-43.80042,-19.0657],[-43.7732,-19.0613],[-43.7787,-19.0384],[-43.7384,-19.0183],[-43.7183,-18.9594],[-43.7461,-18.8766],[-43.75618,-18.85449],[-43.83818,-18.9837]]]]}},{"type":"Feature","properties":{"territory_id":"mg-3158508-tibuna","name":"Tibuna","municipality_id":"mg-3158508","polling_places":1,"approx":true,"official":false,"method":"voronoi-polling-places","whole_municipality":false,"approx_coords_only":false},"geometry":{"type":"MultiPolygon","coordinates":[[[[-44.01064,-19.08601],[-43.98799,-19.11956],[-43.84724,-19.0704],[-43.96401,-19.00044],[-44.01064,-19.08601]]]]}},{"type":"Feature","properties":{"territory_id":"mg-3158508-zona-rural","name":"Zona Rural","municipality_id":"mg-3158508","polling_places":1,"approx":true,"official":false,"method":"voronoi-polling-places","whole_municipality":false,"approx_coords_only":false},"geometry":{"type":"MultiPolygon","coordinates":[[[[-43.98799,-19.11956],[-43.969,-19.1477],[-43.9214,-19.1245],[-43.8874,-19.1447],[-43.8502,-19.144],[-43.8632,-19.106],[-43.8413,-19.0723],[-43.83893,-19.07192],[-43.84724,-19.0704],[-43.98799,-19.11956]]]]}}]}