{"type":"FeatureCollection","features":[{"type":"Feature","properties":{"territory_id":"mg-3158607-bairro-das-flores","name":"Bairro das Flores","municipality_id":"mg-3158607","polling_places":1,"approx":true,"official":false,"method":"voronoi-polling-places","whole_municipality":false,"approx_coords_only":false},"geometry":{"type":"MultiPolygon","coordinates":[[[[-43.2277,-22.0288],[-43.21134,-22.03434],[-43.22326,-21.99878],[-43.2277,-22.0288]]]]}},{"type":"Feature","properties":{"territory_id":"mg-3158607-centro","name":"Centro","municipality_id":"mg-3158607","polling_places":2,"approx":true,"official":false,"method":"voronoi-polling-places","whole_municipality":false,"approx_coords_only":false},"geometry":{"type":"MultiPolygon","coordinates":[[[[-43.19919,-21.98299],[-43.18486,-21.9905],[-43.14889,-21.97351],[-43.11159,-21.95801],[-43.1093,-21.9512],[-43.13944,-21.92413],[-43.17482,-21.92707],[-43.17789,-21.93542],[-43.19919,-21.98299]]]]}},{"type":"Feature","properties":{"territory_id":"mg-3158607-ericeira","name":"Ericeira","municipality_id":"mg-3158607","polling_places":1,"approx":true,"official":false,"method":"voronoi-polling-places","whole_municipality":false,"approx_coords_only":false},"geometry":{"type":"MultiPolygon","coordinates":[[[[-43.18486,-21.9905],[-43.17161,-22.02277],[-43.1696,-22.0218],[-43.1312,-22.0292],[-43.1211,-21.9863],[-43.11159,-21.95801],[-43.14889,-21.97351],[-43.18486,-21.9905]]]]}},{"type":"Feature","properties":{"territory_id":"mg-3158607-serraria","name":"Serraria","municipality_id":"mg-3158607","polling_places":1,"approx":true,"official":false,"method":"voronoi-polling-places","whole_municipality":false,"approx_coords_only":false},"geometry":{"type":"MultiPolygon","coordinates":[[[[-43.22326,-21.99878],[-43.21134,-22.03434],[-43.202,-22.0375],[-43.17161,-22.02277],[-43.18486,-21.9905],[-43.19919,-21.98299],[-43.22285,-21.98054],[-43.221,-21.9835],[-43.22326,-21.99878]]]]}},{"type":"Feature","properties":{"territory_id":"mg-3158607-silveira-lobo","name":"Silveira Lobo","municipality_id":"mg-3158607","polling_places":1,"approx":true,"official":false,"method":"voronoi-polling-places","whole_municipality":false,"approx_coords_only":false},"geometry":{"type":"MultiPolygon","coordinates":[[[[-43.2543,-21.9302],[-43.22285,-21.98054],[-43.19919,-21.98299],[-43.17789,-21.93542],[-43.17482,-21.92707],[-43.22205,-21.88942],[-43.2543,-21.9302]]]]}},{"type":"Feature","properties":{"territory_id":"mg-3158607-sossego","name":"Sossego","municipality_id":"mg-3158607","polling_places":1,"approx":true,"official":false,"method":"voronoi-polling-places","whole_municipality":false,"approx_coords_only":false},"geometry":{"type":"MultiPolygon","coordinates":[[[[-43.237,-21.8618],[-43.2218,-21.8891],[-43.22205,-21.88942],[-43.17482,-21.92707],[-43.13944,-21.92413],[-43.1476,-21.9168],[-43.1342,-21.8833],[-43.1888,-21.8546],[-43.209,-21.8412],[-43.237,-21.8618]]]]}}]}