{"type":"FeatureCollection","features":[{"type":"Feature","properties":{"territory_id":"mg-3158904-centro","name":"Centro","municipality_id":"mg-3158904","polling_places":1,"approx":true,"official":false,"method":"voronoi-polling-places","whole_municipality":false,"approx_coords_only":false},"geometry":{"type":"MultiPolygon","coordinates":[[[[-41.94942,-20.16049],[-41.9223,-20.1736],[-41.8874,-20.1692],[-41.87742,-20.16377],[-41.89826,-20.08921],[-41.91452,-20.08082],[-41.94942,-20.16049]]]]}},{"type":"Feature","properties":{"territory_id":"mg-3158904-corrego-barra-alegre","name":"Córrego Barra Alegre","municipality_id":"mg-3158904","polling_places":1,"approx":true,"official":false,"method":"voronoi-polling-places","whole_municipality":false,"approx_coords_only":true},"geometry":{"type":"MultiPolygon","coordinates":[[[[-41.89707,-20.08818],[-41.83185,-20.03168],[-41.89707,-20.03525],[-41.89707,-20.08818]]]]}},{"type":"Feature","properties":{"territory_id":"mg-3158904-corrego-bela-fama","name":"Córrego Bela Fama","municipality_id":"mg-3158904","polling_places":1,"approx":true,"official":false,"method":"voronoi-polling-places","whole_municipality":false,"approx_coords_only":true},"geometry":{"type":"MultiPolygon","coordinates":[[[[-41.98277,-20.03994],[-41.98277,-20.04042],[-41.91452,-20.08082],[-41.89826,-20.08921],[-41.89707,-20.08818],[-41.89707,-20.03525],[-41.98277,-20.03994]]]]}},{"type":"Feature","properties":{"territory_id":"mg-3158904-corrego-do-japu","name":"Córrego do Japu","municipality_id":"mg-3158904","polling_places":1,"approx":true,"official":false,"method":"voronoi-polling-places","whole_municipality":false,"approx_coords_only":false},"geometry":{"type":"MultiPolygon","coordinates":[[[[-41.89826,-20.08921],[-41.87742,-20.16377],[-41.8626,-20.1557],[-41.8296,-20.1147],[-41.8108,-20.0425],[-41.81021,-20.03302],[-41.82682,-20.02942],[-41.83185,-20.03168],[-41.89707,-20.08818],[-41.89826,-20.08921]]]]}},{"type":"Feature","properties":{"territory_id":"mg-3158904-cruzeiro","name":"Cruzeiro","municipality_id":"mg-3158904","polling_places":1,"approx":true,"official":false,"method":"voronoi-polling-places","whole_municipality":false,"approx_coords_only":false},"geometry":{"type":"MultiPolygon","coordinates":[[[[-41.98277,-20.04042],[-41.9827,-20.0499],[-41.9569,-20.0881],[-41.98,-20.1247],[-41.9585,-20.1561],[-41.94942,-20.16049],[-41.91452,-20.08082],[-41.98277,-20.04042]]]]}},{"type":"Feature","properties":{"territory_id":"mg-3158904-santa-filomena","name":"Santa Filomena","municipality_id":"mg-3158904","polling_places":1,"approx":true,"official":false,"method":"voronoi-polling-places","whole_municipality":false,"approx_coords_only":false},"geometry":{"type":"MultiPolygon","coordinates":[[[[-41.87157,-19.94324],[-41.83404,-20.02158],[-41.82682,-20.02942],[-41.81021,-20.03302],[-41.8075,-19.9895],[-41.8151,-19.9425],[-41.8414,-19.9253],[-41.8439,-19.9251],[-41.87157,-19.94324]]]]}},{"type":"Feature","properties":{"territory_id":"mg-3158904-santa-quiteria","name":"Santa Quitéria","municipality_id":"mg-3158904","polling_places":1,"approx":true,"official":false,"method":"voronoi-polling-places","whole_municipality":false,"approx_coords_only":false},"geometry":{"type":"MultiPolygon","coordinates":[[[[-41.9831,-19.9931],[-41.98277,-20.03994],[-41.89707,-20.03525],[-41.83185,-20.03168],[-41.82682,-20.02942],[-41.83404,-20.02158],[-41.89502,-19.99639],[-41.8951,-19.9973],[-41.9485,-19.9824],[-41.9831,-19.9931]]]]}},{"type":"Feature","properties":{"territory_id":"mg-3158904-sao-joao-do-capim","name":"São João do Capim","municipality_id":"mg-3158904","polling_places":1,"approx":true,"official":false,"method":"voronoi-polling-places","whole_municipality":false,"approx_coords_only":false},"geometry":{"type":"MultiPolygon","coordinates":[[[[-41.89502,-19.99639],[-41.83404,-20.02158],[-41.87157,-19.94324],[-41.8915,-19.9563],[-41.89502,-19.99639]]]]}}]}