{"type":"FeatureCollection","features":[{"type":"Feature","properties":{"territory_id":"mg-3158706-centro","name":"Centro","municipality_id":"mg-3158706","polling_places":2,"approx":true,"official":false,"method":"voronoi-polling-places","whole_municipality":true,"approx_coords_only":false},"geometry":{"type":"MultiPolygon","coordinates":[[[[-44.1636,-21.5894],[-44.1647,-21.6117],[-44.1367,-21.6563],[-44.0773,-21.6629],[-44.0713,-21.7305],[-44.0264,-21.7143],[-43.9939,-21.6894],[-43.9571,-21.6351],[-44.0098,-21.618],[-44.0526,-21.5882],[-44.0854,-21.544],[-44.105,-21.5806],[-44.134,-21.5701],[-44.1636,-21.5894]]]]}}]}