{"type":"FeatureCollection","features":[{"type":"Feature","properties":{"territory_id":"mg-3159100-centro","name":"Centro","municipality_id":"mg-3159100","polling_places":1,"approx":true,"official":false,"method":"voronoi-polling-places","whole_municipality":false,"approx_coords_only":false},"geometry":{"type":"MultiPolygon","coordinates":[[[[-43.7728,-20.801],[-43.7309,-20.845],[-43.7148,-20.8556],[-43.67754,-20.84282],[-43.69517,-20.72257],[-43.7182,-20.7432],[-43.7601,-20.759],[-43.7728,-20.801]]]]}},{"type":"Feature","properties":{"territory_id":"mg-3159100-joselandia","name":"Joselândia","municipality_id":"mg-3159100","polling_places":1,"approx":true,"official":false,"method":"voronoi-polling-places","whole_municipality":false,"approx_coords_only":false},"geometry":{"type":"MultiPolygon","coordinates":[[[[-43.62474,-20.76668],[-43.62442,-20.85412],[-43.619,-20.8572],[-43.6188,-20.8571],[-43.5527,-20.7789],[-43.5616,-20.7541],[-43.587,-20.7651],[-43.62474,-20.76668]]]]}},{"type":"Feature","properties":{"territory_id":"mg-3159100-residencial-joao-nogueira","name":"Residencial João Nogueira","municipality_id":"mg-3159100","polling_places":1,"approx":true,"official":false,"method":"voronoi-polling-places","whole_municipality":false,"approx_coords_only":false},"geometry":{"type":"MultiPolygon","coordinates":[[[[-43.69517,-20.72257],[-43.67754,-20.84282],[-43.67061,-20.84044],[-43.67749,-20.73595],[-43.6913,-20.7191],[-43.69517,-20.72257]]]]}},{"type":"Feature","properties":{"territory_id":"mg-3159100-vale-da-boa-esperanca","name":"Vale da Boa Esperança","municipality_id":"mg-3159100","polling_places":1,"approx":true,"official":false,"method":"voronoi-polling-places","whole_municipality":false,"approx_coords_only":true},"geometry":{"type":"MultiPolygon","coordinates":[[[[-43.67749,-20.73595],[-43.67061,-20.84044],[-43.6568,-20.8357],[-43.62442,-20.85412],[-43.62474,-20.76668],[-43.6514,-20.7678],[-43.67749,-20.73595]]]]}}]}