{"type":"FeatureCollection","features":[{"type":"Feature","properties":{"territory_id":"mg-3159803-brasil","name":"Brasil","municipality_id":"mg-3159803","polling_places":1,"approx":true,"official":false,"method":"voronoi-polling-places","whole_municipality":false,"approx_coords_only":false},"geometry":{"type":"MultiPolygon","coordinates":[[[[-50.23762,-18.91585],[-50.15299,-18.86906],[-50.13245,-18.85385],[-50.13213,-18.84586],[-50.13223,-18.8456],[-50.13528,-18.84066],[-50.14189,-18.84144],[-50.22703,-18.86561],[-50.23762,-18.91585]]]]}},{"type":"Feature","properties":{"territory_id":"mg-3159803-centro","name":"Centro","municipality_id":"mg-3159803","polling_places":13,"approx":true,"official":false,"method":"voronoi-polling-places","whole_municipality":false,"approx_coords_only":false},"geometry":{"type":"MultiPolygon","coordinates":[[[[-50.13528,-18.84066],[-50.13223,-18.8456],[-50.13213,-18.84586],[-50.13245,-18.85385],[-50.12988,-18.85332],[-50.12553,-18.85568],[-50.12393,-18.85006],[-50.12184,-18.84919],[-50.11967,-18.84956],[-50.11962,-18.84452],[-50.11814,-18.84235],[-49.98051,-18.80376],[-49.9678,-18.7862],[-50.0507,-18.7317],[-50.0579,-18.6838],[-50.06519,-18.67984],[-50.13034,-18.83727],[-50.13079,-18.83779],[-50.13528,-18.84066]]]]}},{"type":"Feature","properties":{"territory_id":"mg-3159803-chaveslandia","name":"Chaveslandia","municipality_id":"mg-3159803","polling_places":1,"approx":true,"official":false,"method":"voronoi-polling-places","whole_municipality":false,"approx_coords_only":false},"geometry":{"type":"MultiPolygon","coordinates":[[[[-50.7404,-19.2132],[-50.6481,-19.2145],[-50.6136,-19.2317],[-50.5843,-19.2277],[-50.5462,-19.245],[-50.5147,-19.2737],[-50.5168,-19.26],[-50.4645,-19.2331],[-50.4282,-19.2364],[-50.4012,-19.2223],[-50.3212,-19.2336],[-50.2364,-19.2813],[-50.204,-19.2914],[-50.16897,-19.24253],[-50.27084,-19.03284],[-50.44267,-18.89185],[-50.4434,-18.8941],[-50.4732,-18.9214],[-50.5119,-18.952],[-50.4951,-19.0129],[-50.5031,-19.0469],[-50.5352,-19.0989],[-50.5865,-19.1395],[-50.6457,-19.1348],[-50.6745,-19.1363],[-50.6825,-19.1756],[-50.7331,-19.187],[-50.7404,-19.2132]]]]}},{"type":"Feature","properties":{"territory_id":"mg-3159803-distrito-de-perdilandia","name":"Distrito de Perdilandia","municipality_id":"mg-3159803","polling_places":1,"approx":true,"official":false,"method":"voronoi-polling-places","whole_municipality":false,"approx_coords_only":false},"geometry":{"type":"MultiPolygon","coordinates":[[[[-50.44267,-18.89185],[-50.27084,-19.03284],[-50.23762,-18.91585],[-50.22703,-18.86561],[-50.20698,-18.67968],[-50.27,-18.6842],[-50.3145,-18.7007],[-50.3523,-18.7603],[-50.3703,-18.8044],[-50.4235,-18.8327],[-50.44267,-18.89185]]]]}},{"type":"Feature","properties":{"territory_id":"mg-3159803-dom-alexandre","name":"Dom Alexandre","municipality_id":"mg-3159803","polling_places":2,"approx":true,"official":false,"method":"voronoi-polling-places","whole_municipality":false,"approx_coords_only":false},"geometry":{"type":"MultiPolygon","coordinates":[[[[-50.22703,-18.86561],[-50.14189,-18.84144],[-50.13528,-18.84066],[-50.13079,-18.83779],[-50.13034,-18.83727],[-50.06519,-18.67984],[-50.0798,-18.6719],[-50.1643,-18.6644],[-50.1989,-18.6791],[-50.20698,-18.67968],[-50.22703,-18.86561]]]]}},{"type":"Feature","properties":{"territory_id":"mg-3159803-jardim-planalto","name":"Jardim Planalto","municipality_id":"mg-3159803","polling_places":1,"approx":true,"official":false,"method":"voronoi-polling-places","whole_municipality":false,"approx_coords_only":false},"geometry":{"type":"MultiPolygon","coordinates":[[[[-50.12553,-18.85568],[-50.12287,-18.85903],[-50.09971,-18.86498],[-50.11967,-18.84956],[-50.12184,-18.84919],[-50.12393,-18.85006],[-50.12553,-18.85568]]]]}},{"type":"Feature","properties":{"territory_id":"mg-3159803-morumbi","name":"Morumbi","municipality_id":"mg-3159803","polling_places":1,"approx":true,"official":false,"method":"voronoi-polling-places","whole_municipality":false,"approx_coords_only":false},"geometry":{"type":"MultiPolygon","coordinates":[[[[-50.15299,-18.86906],[-50.12287,-18.85903],[-50.12553,-18.85568],[-50.12988,-18.85332],[-50.13245,-18.85385],[-50.15299,-18.86906]]]]}},{"type":"Feature","properties":{"territory_id":"mg-3159803-veneza","name":"Veneza","municipality_id":"mg-3159803","polling_places":1,"approx":true,"official":false,"method":"voronoi-polling-places","whole_municipality":false,"approx_coords_only":false},"geometry":{"type":"MultiPolygon","coordinates":[[[[-50.27084,-19.03284],[-50.16897,-19.24253],[-50.1602,-19.2303],[-50.1216,-19.1982],[-50.129,-19.1614],[-50.0769,-19.077],[-50.0234,-19.0443],[-49.9666,-18.9595],[-49.9842,-18.9458],[-49.99472,-18.91511],[-50.09971,-18.86498],[-50.12287,-18.85903],[-50.15299,-18.86906],[-50.23762,-18.91585],[-50.27084,-19.03284]]]]}},{"type":"Feature","properties":{"territory_id":"mg-3159803-vila-rica","name":"Vila Rica","municipality_id":"mg-3159803","polling_places":1,"approx":true,"official":false,"method":"voronoi-polling-places","whole_municipality":false,"approx_coords_only":false},"geometry":{"type":"MultiPolygon","coordinates":[[[[-50.11967,-18.84956],[-50.09971,-18.86498],[-49.99472,-18.91511],[-50.0123,-18.8638],[-50.0024,-18.834],[-49.98051,-18.80376],[-50.11814,-18.84235],[-50.11962,-18.84452],[-50.11967,-18.84956]]]]}}]}