{"type":"FeatureCollection","features":[{"type":"Feature","properties":{"territory_id":"mg-3159209-centro","name":"Centro","municipality_id":"mg-3159209","polling_places":2,"approx":true,"official":false,"method":"voronoi-polling-places","whole_municipality":false,"approx_coords_only":false},"geometry":{"type":"MultiPolygon","coordinates":[[[[-46.39598,-22.0301],[-46.3392,-22.02995],[-46.33621,-22.03074],[-46.26894,-21.94015],[-46.3416,-21.9481],[-46.3947,-22.0136],[-46.39598,-22.0301]]],[[[-46.26558,-21.93561],[-46.25121,-21.91627],[-46.2569,-21.9168],[-46.26558,-21.93561]]]]}},{"type":"Feature","properties":{"territory_id":"mg-3159209-piao","name":"Pião","municipality_id":"mg-3159209","polling_places":1,"approx":true,"official":false,"method":"voronoi-polling-places","whole_municipality":false,"approx_coords_only":false},"geometry":{"type":"MultiPolygon","coordinates":[[[[-46.4319,-22.1208],[-46.4302,-22.1484],[-46.3847,-22.1658],[-46.35287,-22.15638],[-46.33513,-22.08627],[-46.36637,-22.0719],[-46.402,-22.1061],[-46.4319,-22.1208]]]]}},{"type":"Feature","properties":{"territory_id":"mg-3159209-rio-claro","name":"Rio Claro","municipality_id":"mg-3159209","polling_places":1,"approx":true,"official":false,"method":"voronoi-polling-places","whole_municipality":false,"approx_coords_only":false},"geometry":{"type":"MultiPolygon","coordinates":[[[[-46.397,-22.0433],[-46.3473,-22.0536],[-46.36637,-22.0719],[-46.33513,-22.08627],[-46.32482,-22.08336],[-46.33621,-22.03074],[-46.3392,-22.02995],[-46.39598,-22.0301],[-46.397,-22.0433]]]]}},{"type":"Feature","properties":{"territory_id":"mg-3159209-sao-bento-de-caldas","name":"São Bento de Caldas","municipality_id":"mg-3159209","polling_places":1,"approx":true,"official":false,"method":"voronoi-polling-places","whole_municipality":false,"approx_coords_only":false},"geometry":{"type":"MultiPolygon","coordinates":[[[[-46.35287,-22.15638],[-46.2789,-22.1345],[-46.2551,-22.1459],[-46.2377,-22.1095],[-46.2384,-22.0727],[-46.22546,-22.06387],[-46.32482,-22.08336],[-46.33513,-22.08627],[-46.35287,-22.15638]]]]}},{"type":"Feature","properties":{"territory_id":"mg-3159209-vila-nova","name":"Vila Nova","municipality_id":"mg-3159209","polling_places":1,"approx":true,"official":false,"method":"voronoi-polling-places","whole_municipality":false,"approx_coords_only":false},"geometry":{"type":"MultiPolygon","coordinates":[[[[-46.33621,-22.03074],[-46.32482,-22.08336],[-46.22546,-22.06387],[-46.1764,-22.0304],[-46.1502,-21.9958],[-46.1372,-21.9436],[-46.0916,-21.8765],[-46.1301,-21.8743],[-46.1395,-21.8919],[-46.2109,-21.9125],[-46.25121,-21.91627],[-46.26558,-21.93561],[-46.2676,-21.94],[-46.26894,-21.94015],[-46.33621,-22.03074]]]]}}]}