{"type":"FeatureCollection","features":[{"type":"Feature","properties":{"territory_id":"mg-3159605-anchieta","name":"Anchieta","municipality_id":"mg-3159605","polling_places":2,"approx":true,"official":false,"method":"voronoi-polling-places","whole_municipality":false,"approx_coords_only":false},"geometry":{"type":"MultiPolygon","coordinates":[[[[-45.71237,-22.2328],[-45.71163,-22.23363],[-45.7094,-22.2377],[-45.69103,-22.24118],[-45.68722,-22.24032],[-45.67583,-22.23917],[-45.67353,-22.23855],[-45.69692,-22.20862],[-45.71237,-22.2328]]]]}},{"type":"Feature","properties":{"territory_id":"mg-3159605-balaio","name":"Balaio","municipality_id":"mg-3159605","polling_places":1,"approx":true,"official":false,"method":"voronoi-polling-places","whole_municipality":false,"approx_coords_only":false},"geometry":{"type":"MultiPolygon","coordinates":[[[[-45.61285,-22.20363],[-45.59979,-22.29875],[-45.5965,-22.2999],[-45.5747,-22.3222],[-45.5506,-22.263],[-45.556,-22.2473],[-45.55448,-22.24607],[-45.60205,-22.19434],[-45.61285,-22.20363]]]]}},{"type":"Feature","properties":{"territory_id":"mg-3159605-bom-retiro","name":"Bom Retiro","municipality_id":"mg-3159605","polling_places":1,"approx":true,"official":false,"method":"voronoi-polling-places","whole_municipality":false,"approx_coords_only":false},"geometry":{"type":"MultiPolygon","coordinates":[[[[-45.6882,-22.17732],[-45.62076,-22.20581],[-45.61285,-22.20363],[-45.60205,-22.19434],[-45.59359,-22.17674],[-45.6158,-22.1604],[-45.6649,-22.1675],[-45.6882,-22.17732]]]]}},{"type":"Feature","properties":{"territory_id":"mg-3159605-centro","name":"Centro","municipality_id":"mg-3159605","polling_places":7,"approx":true,"official":false,"method":"voronoi-polling-places","whole_municipality":false,"approx_coords_only":false},"geometry":{"type":"MultiPolygon","coordinates":[[[[-45.76157,-22.28257],[-45.70029,-22.25802],[-45.69954,-22.2585],[-45.689,-22.27961],[-45.66214,-22.27783],[-45.66309,-22.24406],[-45.67353,-22.23855],[-45.67583,-22.23917],[-45.68722,-22.24032],[-45.69103,-22.24118],[-45.7001,-22.24386],[-45.70597,-22.24333],[-45.70764,-22.24252],[-45.72696,-22.26121],[-45.76154,-22.28117],[-45.76157,-22.28257]]]]}},{"type":"Feature","properties":{"territory_id":"mg-3159605-jardim-santo-antonio","name":"Jardim Santo Antônio","municipality_id":"mg-3159605","polling_places":1,"approx":true,"official":false,"method":"voronoi-polling-places","whole_municipality":false,"approx_coords_only":false},"geometry":{"type":"MultiPolygon","coordinates":[[[[-45.7622,-22.29673],[-45.7543,-22.301],[-45.7205,-22.3004],[-45.6934,-22.2799],[-45.689,-22.27961],[-45.69954,-22.2585],[-45.70029,-22.25802],[-45.76157,-22.28257],[-45.7622,-22.29673]]]]}},{"type":"Feature","properties":{"territory_id":"mg-3159605-maristela","name":"Maristela","municipality_id":"mg-3159605","polling_places":1,"approx":true,"official":false,"method":"voronoi-polling-places","whole_municipality":false,"approx_coords_only":false},"geometry":{"type":"MultiPolygon","coordinates":[[[[-45.76547,-22.24819],[-45.76154,-22.28117],[-45.72696,-22.26121],[-45.70764,-22.24252],[-45.7094,-22.2377],[-45.71163,-22.23363],[-45.71237,-22.2328],[-45.76547,-22.24819]]]]}},{"type":"Feature","properties":{"territory_id":"mg-3159605-pouso-do-campo","name":"Pouso do Campo","municipality_id":"mg-3159605","polling_places":1,"approx":true,"official":false,"method":"voronoi-polling-places","whole_municipality":false,"approx_coords_only":false},"geometry":{"type":"MultiPolygon","coordinates":[[[[-45.8539,-22.2356],[-45.84801,-22.2592],[-45.77677,-22.21102],[-45.77686,-22.20985],[-45.8477,-22.2113],[-45.8539,-22.2356]]]]}},{"type":"Feature","properties":{"territory_id":"mg-3159605-radio","name":"Rádio","municipality_id":"mg-3159605","polling_places":1,"approx":true,"official":false,"method":"voronoi-polling-places","whole_municipality":false,"approx_coords_only":false},"geometry":{"type":"MultiPolygon","coordinates":[[[[-45.7094,-22.2377],[-45.70764,-22.24252],[-45.70597,-22.24333],[-45.7001,-22.24386],[-45.69103,-22.24118],[-45.7094,-22.2377]]]]}},{"type":"Feature","properties":{"territory_id":"mg-3159605-recanto-das-margaridas","name":"Recanto das Margaridas","municipality_id":"mg-3159605","polling_places":1,"approx":true,"official":false,"method":"voronoi-polling-places","whole_municipality":false,"approx_coords_only":false},"geometry":{"type":"MultiPolygon","coordinates":[[[[-45.77686,-22.20985],[-45.77677,-22.21102],[-45.76547,-22.24819],[-45.71237,-22.2328],[-45.69692,-22.20862],[-45.70493,-22.18437],[-45.7648,-22.2096],[-45.77686,-22.20985]]]]}},{"type":"Feature","properties":{"territory_id":"mg-3159605-sao-jose-da-cruz-das-caveiras","name":"São José da Cruz das Caveiras","municipality_id":"mg-3159605","polling_places":1,"approx":true,"official":false,"method":"voronoi-polling-places","whole_municipality":false,"approx_coords_only":false},"geometry":{"type":"MultiPolygon","coordinates":[[[[-45.66309,-22.24406],[-45.66214,-22.27783],[-45.6601,-22.2777],[-45.59979,-22.29875],[-45.61285,-22.20363],[-45.62076,-22.20581],[-45.66309,-22.24406]]]]}},{"type":"Feature","properties":{"territory_id":"mg-3159605-sertaozinho","name":"Sertãozinho","municipality_id":"mg-3159605","polling_places":1,"approx":true,"official":false,"method":"voronoi-polling-places","whole_municipality":false,"approx_coords_only":false},"geometry":{"type":"MultiPolygon","coordinates":[[[[-45.60205,-22.19434],[-45.55448,-22.24607],[-45.5183,-22.2166],[-45.5772,-22.1888],[-45.59359,-22.17674],[-45.60205,-22.19434]]]]}},{"type":"Feature","properties":{"territory_id":"mg-3159605-vintem","name":"Vintém","municipality_id":"mg-3159605","polling_places":1,"approx":true,"official":false,"method":"voronoi-polling-places","whole_municipality":false,"approx_coords_only":false},"geometry":{"type":"MultiPolygon","coordinates":[[[[-45.70493,-22.18437],[-45.69692,-22.20862],[-45.67353,-22.23855],[-45.66309,-22.24406],[-45.62076,-22.20581],[-45.6882,-22.17732],[-45.70493,-22.18437]]]]}},{"type":"Feature","properties":{"territory_id":"mg-3159605-zona-rural","name":"Zona Rural","municipality_id":"mg-3159605","polling_places":1,"approx":true,"official":false,"method":"voronoi-polling-places","whole_municipality":false,"approx_coords_only":false},"geometry":{"type":"MultiPolygon","coordinates":[[[[-45.84801,-22.2592],[-45.8418,-22.2841],[-45.7872,-22.2832],[-45.7622,-22.29673],[-45.76157,-22.28257],[-45.76154,-22.28117],[-45.76547,-22.24819],[-45.77677,-22.21102],[-45.84801,-22.2592]]]]}}]}