{"type":"FeatureCollection","features":[{"type":"Feature","properties":{"territory_id":"mg-3159407-centro","name":"Centro","municipality_id":"mg-3159407","polling_places":4,"approx":true,"official":false,"method":"voronoi-polling-places","whole_municipality":false,"approx_coords_only":false},"geometry":{"type":"MultiPolygon","coordinates":[[[[-43.97936,-21.52657],[-43.94135,-21.56346],[-43.90263,-21.60384],[-43.9015,-21.60372],[-43.87838,-21.57516],[-43.87458,-21.57089],[-43.91286,-21.505],[-43.97936,-21.52657]]]]}},{"type":"Feature","properties":{"territory_id":"mg-3159407-engenho","name":"Engenho","municipality_id":"mg-3159407","polling_places":1,"approx":true,"official":false,"method":"voronoi-polling-places","whole_municipality":false,"approx_coords_only":true},"geometry":{"type":"MultiPolygon","coordinates":[[[[-44.0854,-21.544],[-44.0526,-21.5882],[-44.0098,-21.618],[-43.9571,-21.6351],[-43.95475,-21.63673],[-43.90263,-21.60384],[-43.94135,-21.56346],[-43.97936,-21.52657],[-44.0149,-21.5381],[-44.0547,-21.5175],[-44.0854,-21.544]]]]}},{"type":"Feature","properties":{"territory_id":"mg-3159407-zona-rural","name":"Zona Rural","municipality_id":"mg-3159407","polling_places":3,"approx":true,"official":false,"method":"voronoi-polling-places","whole_municipality":false,"approx_coords_only":false},"geometry":{"type":"MultiPolygon","coordinates":[[[[-43.95475,-21.63673],[-43.8865,-21.6839],[-43.873,-21.6788],[-43.8272,-21.6068],[-43.8405,-21.5824],[-43.8146,-21.5262],[-43.8234,-21.5092],[-43.8686,-21.497],[-43.911,-21.5044],[-43.91286,-21.505],[-43.87458,-21.57089],[-43.87838,-21.57516],[-43.9015,-21.60372],[-43.90263,-21.60384],[-43.95475,-21.63673]]]]}}]}