{"type":"FeatureCollection","features":[{"type":"Feature","properties":{"territory_id":"mg-3159902-afranio-aguiar-paiva","name":"Afrânio Aguiar Paiva","municipality_id":"mg-3159902","polling_places":1,"approx":true,"official":false,"method":"voronoi-polling-places","whole_municipality":false,"approx_coords_only":false},"geometry":{"type":"MultiPolygon","coordinates":[[[[-44.91843,-20.93142],[-44.91315,-20.94573],[-44.87718,-20.98374],[-44.8652,-20.9548],[-44.8166,-20.9585],[-44.805,-20.8976],[-44.8362,-20.8642],[-44.8718,-20.808],[-44.89976,-20.79691],[-44.91843,-20.93142]]]]}},{"type":"Feature","properties":{"territory_id":"mg-3159902-aparecida-do-oeste-guarita","name":"Aparecida do Oeste (guarita)","municipality_id":"mg-3159902","polling_places":1,"approx":true,"official":false,"method":"voronoi-polling-places","whole_municipality":false,"approx_coords_only":false},"geometry":{"type":"MultiPolygon","coordinates":[[[[-45.02337,-21.04085],[-44.9988,-21.0417],[-44.976,-21.0279],[-44.95778,-21.0107],[-44.97787,-20.98536],[-45.00945,-20.99478],[-45.02337,-21.04085]]]]}},{"type":"Feature","properties":{"territory_id":"mg-3159902-cascalho","name":"Cascalho","municipality_id":"mg-3159902","polling_places":1,"approx":true,"official":false,"method":"voronoi-polling-places","whole_municipality":false,"approx_coords_only":false},"geometry":{"type":"MultiPolygon","coordinates":[[[[-44.97787,-20.98536],[-44.95778,-21.0107],[-44.9352,-20.9894],[-44.8861,-21.0053],[-44.88288,-20.99753],[-44.90104,-20.98563],[-44.94502,-20.96039],[-44.96451,-20.95475],[-44.97787,-20.98536]]]]}},{"type":"Feature","properties":{"territory_id":"mg-3159902-centro","name":"Centro","municipality_id":"mg-3159902","polling_places":3,"approx":true,"official":false,"method":"voronoi-polling-places","whole_municipality":false,"approx_coords_only":false},"geometry":{"type":"MultiPolygon","coordinates":[[[[-44.94502,-20.96039],[-44.90104,-20.98563],[-44.88288,-20.99753],[-44.87718,-20.98374],[-44.91315,-20.94573],[-44.91362,-20.94578],[-44.92142,-20.94532],[-44.92338,-20.94381],[-44.94502,-20.96039]]]]}},{"type":"Feature","properties":{"territory_id":"mg-3159902-fagundes","name":"Fagundes","municipality_id":"mg-3159902","polling_places":1,"approx":true,"official":false,"method":"voronoi-polling-places","whole_municipality":false,"approx_coords_only":false},"geometry":{"type":"MultiPolygon","coordinates":[[[[-45.06989,-20.93684],[-45.00945,-20.99478],[-44.97787,-20.98536],[-44.96451,-20.95475],[-45.00337,-20.80925],[-45.0392,-20.8093],[-45.0103,-20.8447],[-45.0053,-20.8963],[-45.06989,-20.93684]]]]}},{"type":"Feature","properties":{"territory_id":"mg-3159902-sao-benedito","name":"São Benedito","municipality_id":"mg-3159902","polling_places":1,"approx":true,"official":false,"method":"voronoi-polling-places","whole_municipality":false,"approx_coords_only":false},"geometry":{"type":"MultiPolygon","coordinates":[[[[-45.00337,-20.80925],[-44.96451,-20.95475],[-44.94502,-20.96039],[-44.92338,-20.94381],[-44.91843,-20.93142],[-44.89976,-20.79691],[-44.9056,-20.7946],[-44.9613,-20.8092],[-45.00337,-20.80925]]]]}},{"type":"Feature","properties":{"territory_id":"mg-3159902-sao-sebastiao-da-estrela","name":"São Sebastião da Estrela","municipality_id":"mg-3159902","polling_places":1,"approx":true,"official":false,"method":"voronoi-polling-places","whole_municipality":false,"approx_coords_only":false},"geometry":{"type":"MultiPolygon","coordinates":[[[[-45.0754,-20.9403],[-45.0617,-20.9634],[-45.0509,-21.0399],[-45.02337,-21.04085],[-45.00945,-20.99478],[-45.06989,-20.93684],[-45.0754,-20.9403]]]]}},{"type":"Feature","properties":{"territory_id":"mg-3159902-vila-esperanca","name":"Vila Esperança","municipality_id":"mg-3159902","polling_places":1,"approx":true,"official":false,"method":"voronoi-polling-places","whole_municipality":false,"approx_coords_only":false},"geometry":{"type":"MultiPolygon","coordinates":[[[[-44.92338,-20.94381],[-44.92142,-20.94532],[-44.91362,-20.94578],[-44.91315,-20.94573],[-44.91843,-20.93142],[-44.92338,-20.94381]]]]}}]}