{"type":"FeatureCollection","features":[{"type":"Feature","properties":{"territory_id":"mg-3159001-centro","name":"Centro","municipality_id":"mg-3159001","polling_places":1,"approx":true,"official":false,"method":"voronoi-polling-places","whole_municipality":false,"approx_coords_only":false},"geometry":{"type":"MultiPolygon","coordinates":[[[[-43.72941,-19.18144],[-43.69408,-19.20161],[-43.67169,-19.19352],[-43.64555,-19.17708],[-43.69128,-19.14652],[-43.72941,-19.18144]]]]}},{"type":"Feature","properties":{"territory_id":"mg-3159001-zona-rural","name":"Zona Rural","municipality_id":"mg-3159001","polling_places":6,"approx":true,"official":false,"method":"voronoi-polling-places","whole_municipality":false,"approx_coords_only":false},"geometry":{"type":"MultiPolygon","coordinates":[[[[-43.7787,-19.0384],[-43.7732,-19.0613],[-43.771,-19.0915],[-43.7453,-19.124],[-43.7478,-19.167],[-43.7692,-19.1935],[-43.7486,-19.2364],[-43.734,-19.2545],[-43.6798,-19.2827],[-43.6686,-19.3309],[-43.5944,-19.3481],[-43.5187,-19.3303],[-43.5181,-19.3161],[-43.5359,-19.2617],[-43.5011,-19.2242],[-43.5075,-19.1683],[-43.5491,-19.1632],[-43.5651,-19.1213],[-43.6122,-19.1012],[-43.6223,-19.0768],[-43.6591,-19.0311],[-43.7384,-19.0183],[-43.7787,-19.0384]],[[-43.72941,-19.18144],[-43.69128,-19.14652],[-43.64555,-19.17708],[-43.67169,-19.19352],[-43.69408,-19.20161],[-43.72941,-19.18144]]]]}}]}