{"type":"FeatureCollection","features":[{"type":"Feature","properties":{"territory_id":"mg-3159506-agua-limpa","name":"Água Limpa","municipality_id":"mg-3159506","polling_places":1,"approx":true,"official":false,"method":"voronoi-polling-places","whole_municipality":false,"approx_coords_only":false},"geometry":{"type":"MultiPolygon","coordinates":[[[[-41.5102,-19.4935],[-41.482,-19.5199],[-41.4615,-19.5131],[-41.45408,-19.52007],[-41.43923,-19.47378],[-41.48505,-19.44037],[-41.5102,-19.4935]]]]}},{"type":"Feature","properties":{"territory_id":"mg-3159506-aldeamento","name":"Aldeamento","municipality_id":"mg-3159506","polling_places":2,"approx":true,"official":false,"method":"voronoi-polling-places","whole_municipality":false,"approx_coords_only":false},"geometry":{"type":"MultiPolygon","coordinates":[[[[-41.36724,-19.43347],[-41.36723,-19.43352],[-41.3631,-19.45305],[-41.2842,-19.49568],[-41.2756,-19.4922],[-41.2631,-19.4724],[-41.2902,-19.4303],[-41.2826,-19.372],[-41.3248,-19.3276],[-41.33228,-19.3105],[-41.36724,-19.43347]]]]}},{"type":"Feature","properties":{"territory_id":"mg-3159506-alto-peao","name":"Alto Peão","municipality_id":"mg-3159506","polling_places":1,"approx":true,"official":false,"method":"voronoi-polling-places","whole_municipality":false,"approx_coords_only":false},"geometry":{"type":"MultiPolygon","coordinates":[[[[-41.48505,-19.44037],[-41.43923,-19.47378],[-41.3631,-19.45305],[-41.36723,-19.43352],[-41.36724,-19.43347],[-41.41923,-19.36748],[-41.48466,-19.39055],[-41.4737,-19.4164],[-41.48505,-19.44037]]]]}},{"type":"Feature","properties":{"territory_id":"mg-3159506-centro","name":"Centro","municipality_id":"mg-3159506","polling_places":1,"approx":true,"official":false,"method":"voronoi-polling-places","whole_municipality":false,"approx_coords_only":false},"geometry":{"type":"MultiPolygon","coordinates":[[[[-41.41923,-19.36748],[-41.36724,-19.43347],[-41.33228,-19.3105],[-41.349,-19.2723],[-41.40634,-19.27644],[-41.41923,-19.36748]]]]}},{"type":"Feature","properties":{"territory_id":"mg-3159506-distrito-de-sao-jose","name":"Distrito de São Jose","municipality_id":"mg-3159506","polling_places":1,"approx":true,"official":false,"method":"voronoi-polling-places","whole_municipality":false,"approx_coords_only":false},"geometry":{"type":"MultiPolygon","coordinates":[[[[-41.4994,-19.3558],[-41.48466,-19.39055],[-41.41923,-19.36748],[-41.40634,-19.27644],[-41.4197,-19.2774],[-41.4376,-19.325],[-41.4994,-19.3558]]]]}},{"type":"Feature","properties":{"territory_id":"mg-3159506-povoado-de-santaninha","name":"Povoado de Santaninha","municipality_id":"mg-3159506","polling_places":1,"approx":true,"official":false,"method":"voronoi-polling-places","whole_municipality":false,"approx_coords_only":false},"geometry":{"type":"MultiPolygon","coordinates":[[[[-41.45408,-19.52007],[-41.4321,-19.5407],[-41.3505,-19.49],[-41.2961,-19.5005],[-41.2842,-19.49568],[-41.3631,-19.45305],[-41.43923,-19.47378],[-41.45408,-19.52007]]]]}}]}