{"type":"FeatureCollection","features":[{"type":"Feature","properties":{"territory_id":"mg-3159308-centro","name":"Centro","municipality_id":"mg-3159308","polling_places":1,"approx":true,"official":false,"method":"voronoi-polling-places","whole_municipality":false,"approx_coords_only":false},"geometry":{"type":"MultiPolygon","coordinates":[[[[-44.13924,-22.21192],[-44.1013,-22.1737],[-44.05907,-22.16037],[-44.09263,-22.14523],[-44.13924,-22.21192]]]]}},{"type":"Feature","properties":{"territory_id":"mg-3159308-itaboca","name":"Itaboca","municipality_id":"mg-3159308","polling_places":1,"approx":true,"official":false,"method":"voronoi-polling-places","whole_municipality":false,"approx_coords_only":false},"geometry":{"type":"MultiPolygon","coordinates":[[[[-44.19054,-22.06036],[-44.09263,-22.14523],[-44.05907,-22.16037],[-44.0335,-22.1523],[-43.9771,-22.1464],[-43.9807,-22.0949],[-43.9696,-22.0448],[-44.0001,-22.0221],[-44.0514,-22.0324],[-44.0796,-21.9954],[-44.1233,-21.9959],[-44.1467,-22.0341],[-44.19054,-22.06036]]]]}},{"type":"Feature","properties":{"territory_id":"mg-3159308-santa-casa","name":"Santa Casa","municipality_id":"mg-3159308","polling_places":1,"approx":true,"official":false,"method":"voronoi-polling-places","whole_municipality":false,"approx_coords_only":false},"geometry":{"type":"MultiPolygon","coordinates":[[[[-44.2216,-22.131],[-44.1815,-22.1965],[-44.1794,-22.2285],[-44.1544,-22.2272],[-44.13924,-22.21192],[-44.09263,-22.14523],[-44.19054,-22.06036],[-44.2073,-22.0704],[-44.2216,-22.131]]]]}}]}