{"type":"FeatureCollection","features":[{"type":"Feature","properties":{"territory_id":"mg-3159704-campo-alegre","name":"Campo Alegre","municipality_id":"mg-3159704","polling_places":1,"approx":true,"official":false,"method":"voronoi-polling-places","whole_municipality":false,"approx_coords_only":false},"geometry":{"type":"MultiPolygon","coordinates":[[[[-46.1276,-19.5426],[-46.1048,-19.583],[-46.1062,-19.6117],[-46.0694,-19.65],[-46.0098,-19.6557],[-45.9486,-19.6083],[-45.93557,-19.58838],[-46.05123,-19.55313],[-46.1276,-19.5426]]]]}},{"type":"Feature","properties":{"territory_id":"mg-3159704-centro","name":"Centro","municipality_id":"mg-3159704","polling_places":2,"approx":true,"official":false,"method":"voronoi-polling-places","whole_municipality":false,"approx_coords_only":false},"geometry":{"type":"MultiPolygon","coordinates":[[[[-46.05123,-19.55313],[-45.93557,-19.58838],[-45.9026,-19.538],[-45.8917,-19.4802],[-45.9022,-19.4652],[-45.9775,-19.4596],[-46.0131,-19.5311],[-46.042,-19.5544],[-46.05123,-19.55313]]]]}}]}