{"type":"FeatureCollection","features":[{"type":"Feature","properties":{"territory_id":"mg-3160504-centro","name":"Centro","municipality_id":"mg-3160504","polling_places":2,"approx":true,"official":false,"method":"voronoi-polling-places","whole_municipality":true,"approx_coords_only":false},"geometry":{"type":"MultiPolygon","coordinates":[[[[-43.2726,-19.1721],[-43.307,-19.2277],[-43.2985,-19.2865],[-43.2809,-19.2801],[-43.2259,-19.2994],[-43.1912,-19.2423],[-43.1853,-19.2177],[-43.246,-19.2049],[-43.2726,-19.1721]]]]}}]}