{"type":"FeatureCollection","features":[{"type":"Feature","properties":{"territory_id":"mg-3160702-agua-espraiada","name":"Água Espraiada","municipality_id":"mg-3160702","polling_places":1,"approx":true,"official":false,"method":"voronoi-polling-places","whole_municipality":false,"approx_coords_only":false},"geometry":{"type":"MultiPolygon","coordinates":[[[[-43.57924,-21.49558],[-43.5552,-21.54625],[-43.5454,-21.5207],[-43.53562,-21.51921],[-43.53028,-21.49028],[-43.54898,-21.47423],[-43.55138,-21.47346],[-43.56791,-21.48182],[-43.57924,-21.49558]]]]}},{"type":"Feature","properties":{"territory_id":"mg-3160702-antonio-afonso","name":"Antônio Afonso","municipality_id":"mg-3160702","polling_places":1,"approx":true,"official":false,"method":"voronoi-polling-places","whole_municipality":false,"approx_coords_only":false},"geometry":{"type":"MultiPolygon","coordinates":[[[[-43.53989,-21.45901],[-43.53977,-21.45968],[-43.5214,-21.47094],[-43.51476,-21.46587],[-43.52697,-21.44688],[-43.53989,-21.45901]]]]}},{"type":"Feature","properties":{"territory_id":"mg-3160702-cachoeirinha","name":"Cachoeirinha","municipality_id":"mg-3160702","polling_places":1,"approx":true,"official":false,"method":"voronoi-polling-places","whole_municipality":false,"approx_coords_only":false},"geometry":{"type":"MultiPolygon","coordinates":[[[[-43.7061,-21.5853],[-43.666,-21.6053],[-43.6395,-21.6079],[-43.6342,-21.58],[-43.6221,-21.57735],[-43.64419,-21.49535],[-43.65494,-21.48902],[-43.6489,-21.4975],[-43.6854,-21.5293],[-43.6822,-21.5704],[-43.7061,-21.5853]]]]}},{"type":"Feature","properties":{"territory_id":"mg-3160702-centro","name":"Centro","municipality_id":"mg-3160702","polling_places":31,"approx":true,"official":false,"method":"voronoi-polling-places","whole_municipality":false,"approx_coords_only":false},"geometry":{"type":"MultiPolygon","coordinates":[[[[-43.56364,-21.45895],[-43.56054,-21.46393],[-43.55783,-21.46365],[-43.55537,-21.4645],[-43.55122,-21.46384],[-43.54867,-21.46225],[-43.54634,-21.46132],[-43.54519,-21.46099],[-43.54278,-21.461],[-43.53977,-21.45968],[-43.53989,-21.45901],[-43.54264,-21.44585],[-43.54457,-21.43515],[-43.54545,-21.42519],[-43.54586,-21.42474],[-43.55848,-21.42824],[-43.5588,-21.43279],[-43.56115,-21.45187],[-43.56364,-21.45895]]]]}},{"type":"Feature","properties":{"territory_id":"mg-3160702-corrego-do-ouro","name":"Córrego do Ouro","municipality_id":"mg-3160702","polling_places":1,"approx":true,"official":false,"method":"voronoi-polling-places","whole_municipality":false,"approx_coords_only":false},"geometry":{"type":"MultiPolygon","coordinates":[[[[-43.54545,-21.42519],[-43.54457,-21.43515],[-43.54264,-21.44585],[-43.53989,-21.45901],[-43.52697,-21.44688],[-43.53768,-21.42928],[-43.54545,-21.42519]]]]}},{"type":"Feature","properties":{"territory_id":"mg-3160702-gloria","name":"Glória","municipality_id":"mg-3160702","polling_places":1,"approx":true,"official":false,"method":"voronoi-polling-places","whole_municipality":false,"approx_coords_only":false},"geometry":{"type":"MultiPolygon","coordinates":[[[[-43.60346,-21.43012],[-43.5998,-21.45787],[-43.56364,-21.45895],[-43.56115,-21.45187],[-43.5588,-21.43279],[-43.55848,-21.42824],[-43.6011,-21.42723],[-43.60346,-21.43012]]]]}},{"type":"Feature","properties":{"territory_id":"mg-3160702-ponte-preta","name":"Ponte Preta","municipality_id":"mg-3160702","polling_places":1,"approx":true,"official":false,"method":"voronoi-polling-places","whole_municipality":false,"approx_coords_only":false},"geometry":{"type":"MultiPolygon","coordinates":[[[[-43.53768,-21.42928],[-43.52697,-21.44688],[-43.51476,-21.46587],[-43.47581,-21.45512],[-43.46916,-21.4377],[-43.53768,-21.42928]]]]}},{"type":"Feature","properties":{"territory_id":"mg-3160702-quarto-deposito","name":"Quarto Depósito","municipality_id":"mg-3160702","polling_places":2,"approx":true,"official":false,"method":"voronoi-polling-places","whole_municipality":false,"approx_coords_only":false},"geometry":{"type":"MultiPolygon","coordinates":[[[[-43.54898,-21.47423],[-43.53028,-21.49028],[-43.52649,-21.48091],[-43.5214,-21.47094],[-43.53977,-21.45968],[-43.54278,-21.461],[-43.54551,-21.4672],[-43.54522,-21.46931],[-43.54898,-21.47423]]]]}},{"type":"Feature","properties":{"territory_id":"mg-3160702-santo-antonio","name":"Santo Antônio","municipality_id":"mg-3160702","polling_places":1,"approx":true,"official":false,"method":"voronoi-polling-places","whole_municipality":false,"approx_coords_only":false},"geometry":{"type":"MultiPolygon","coordinates":[[[[-43.60055,-21.47466],[-43.57924,-21.49558],[-43.56791,-21.48182],[-43.56054,-21.46393],[-43.56364,-21.45895],[-43.5998,-21.45787],[-43.60055,-21.47466]]]]}},{"type":"Feature","properties":{"territory_id":"mg-3160702-sao-sebastiao","name":"São Sebastião","municipality_id":"mg-3160702","polling_places":3,"approx":true,"official":false,"method":"voronoi-polling-places","whole_municipality":false,"approx_coords_only":false},"geometry":{"type":"MultiPolygon","coordinates":[[[[-43.56791,-21.48182],[-43.55138,-21.47346],[-43.54898,-21.47423],[-43.54522,-21.46931],[-43.54551,-21.4672],[-43.54915,-21.46805],[-43.55122,-21.46384],[-43.55537,-21.4645],[-43.55783,-21.46365],[-43.56054,-21.46393],[-43.56791,-21.48182]]]]}},{"type":"Feature","properties":{"territory_id":"mg-3160702-vila-esperanca","name":"Vila Esperança","municipality_id":"mg-3160702","polling_places":1,"approx":true,"official":false,"method":"voronoi-polling-places","whole_municipality":false,"approx_coords_only":false},"geometry":{"type":"MultiPolygon","coordinates":[[[[-43.55122,-21.46384],[-43.54915,-21.46805],[-43.54551,-21.4672],[-43.54278,-21.461],[-43.54519,-21.46099],[-43.54634,-21.46132],[-43.54867,-21.46225],[-43.55122,-21.46384]]]]}},{"type":"Feature","properties":{"territory_id":"mg-3160702-zona-rural","name":"Zona Rural","municipality_id":"mg-3160702","polling_places":9,"approx":true,"official":false,"method":"voronoi-polling-places","whole_municipality":false,"approx_coords_only":false},"geometry":{"type":"MultiPolygon","coordinates":[[[[-43.7096,-21.4133],[-43.6771,-21.4322],[-43.6731,-21.4635],[-43.65494,-21.48902],[-43.64419,-21.49535],[-43.6221,-21.57735],[-43.5871,-21.5697],[-43.5556,-21.5473],[-43.5552,-21.54625],[-43.57924,-21.49558],[-43.60055,-21.47466],[-43.5998,-21.45787],[-43.60346,-21.43012],[-43.6011,-21.42723],[-43.55848,-21.42824],[-43.54586,-21.42474],[-43.54545,-21.42519],[-43.53768,-21.42928],[-43.46916,-21.4377],[-43.47581,-21.45512],[-43.51476,-21.46587],[-43.5214,-21.47094],[-43.52649,-21.48091],[-43.53028,-21.49028],[-43.53562,-21.51921],[-43.5028,-21.5142],[-43.4729,-21.5306],[-43.4192,-21.5309],[-43.4084,-21.5093],[-43.3448,-21.4506],[-43.3006,-21.4323],[-43.3086,-21.3918],[-43.3527,-21.358],[-43.398,-21.3869],[-43.4721,-21.4119],[-43.4698,-21.3715],[-43.5571,-21.3567],[-43.6311,-21.3757],[-43.6873,-21.3849],[-43.7096,-21.4133]]]]}}]}