{"type":"FeatureCollection","features":[{"type":"Feature","properties":{"territory_id":"mg-3160900-centro","name":"Centro","municipality_id":"mg-3160900","polling_places":3,"approx":true,"official":false,"method":"voronoi-polling-places","whole_municipality":true,"approx_coords_only":false},"geometry":{"type":"MultiPolygon","coordinates":[[[[-43.915,-20.5841],[-43.9653,-20.5971],[-44.0057,-20.5656],[-44.043,-20.6255],[-44.0223,-20.6293],[-43.9815,-20.6869],[-43.9447,-20.6763],[-43.9239,-20.6588],[-43.9095,-20.6036],[-43.915,-20.5841]]]]}}]}