{"type":"FeatureCollection","features":[{"type":"Feature","properties":{"territory_id":"mg-3160108-centro","name":"Centro","municipality_id":"mg-3160108","polling_places":2,"approx":true,"official":false,"method":"voronoi-polling-places","whole_municipality":true,"approx_coords_only":false},"geometry":{"type":"MultiPolygon","coordinates":[[[[-42.6892,-20.3444],[-42.6526,-20.3493],[-42.6419,-20.3735],[-42.5618,-20.3793],[-42.543,-20.3598],[-42.5576,-20.3439],[-42.5416,-20.2974],[-42.5551,-20.2677],[-42.6352,-20.2663],[-42.6512,-20.2767],[-42.6643,-20.327],[-42.6892,-20.3444]]]]}}]}