{"type":"FeatureCollection","features":[{"type":"Feature","properties":{"territory_id":"mg-3160009-alto-da-conceicao","name":"Alto da Conceicao","municipality_id":"mg-3160009","polling_places":1,"approx":true,"official":false,"method":"voronoi-polling-places","whole_municipality":false,"approx_coords_only":false},"geometry":{"type":"MultiPolygon","coordinates":[[[[-42.8944,-21.8124],[-42.8815,-21.8318],[-42.8305,-21.8485],[-42.7802,-21.8384],[-42.77671,-21.82831],[-42.8361,-21.79264],[-42.8628,-21.77845],[-42.8628,-21.7959],[-42.8944,-21.8124]]]]}},{"type":"Feature","properties":{"territory_id":"mg-3160009-centro","name":"Centro","municipality_id":"mg-3160009","polling_places":3,"approx":true,"official":false,"method":"voronoi-polling-places","whole_municipality":false,"approx_coords_only":false},"geometry":{"type":"MultiPolygon","coordinates":[[[[-42.8828,-21.7287],[-42.8628,-21.7558],[-42.8628,-21.77845],[-42.8361,-21.79264],[-42.77671,-21.82831],[-42.7578,-21.7737],[-42.75732,-21.75318],[-42.81853,-21.75659],[-42.87069,-21.70749],[-42.8828,-21.7287]]]]}},{"type":"Feature","properties":{"territory_id":"mg-3160009-centro-de-sao-domingos","name":"Centro de Sao Domingos","municipality_id":"mg-3160009","polling_places":1,"approx":true,"official":false,"method":"voronoi-polling-places","whole_municipality":false,"approx_coords_only":false},"geometry":{"type":"MultiPolygon","coordinates":[[[[-42.83829,-21.70058],[-42.77855,-21.72791],[-42.78097,-21.65503],[-42.8066,-21.658],[-42.823,-21.6992],[-42.83829,-21.70058]]]]}},{"type":"Feature","properties":{"territory_id":"mg-3160009-parque-de-exposicao","name":"Parque de Exposicao","municipality_id":"mg-3160009","polling_places":1,"approx":true,"official":false,"method":"voronoi-polling-places","whole_municipality":false,"approx_coords_only":false},"geometry":{"type":"MultiPolygon","coordinates":[[[[-42.87069,-21.70749],[-42.81853,-21.75659],[-42.75732,-21.75318],[-42.75701,-21.73963],[-42.77855,-21.72791],[-42.83829,-21.70058],[-42.8683,-21.7033],[-42.87069,-21.70749]]]]}},{"type":"Feature","properties":{"territory_id":"mg-3160009-sao-domingos","name":"Sao Domingos","municipality_id":"mg-3160009","polling_places":1,"approx":true,"official":false,"method":"voronoi-polling-places","whole_municipality":false,"approx_coords_only":false},"geometry":{"type":"MultiPolygon","coordinates":[[[[-42.78097,-21.65503],[-42.77855,-21.72791],[-42.75701,-21.73963],[-42.7561,-21.7005],[-42.7288,-21.6645],[-42.7462,-21.651],[-42.78097,-21.65503]]]]}}]}