{"type":"FeatureCollection","features":[{"type":"Feature","properties":{"territory_id":"mg-3160801-centro","name":"Centro","municipality_id":"mg-3160801","polling_places":2,"approx":true,"official":false,"method":"voronoi-polling-places","whole_municipality":true,"approx_coords_only":false},"geometry":{"type":"MultiPolygon","coordinates":[[[[-45.1124,-21.5424],[-45.0929,-21.612],[-45.0369,-21.6319],[-45.0283,-21.5975],[-45.0544,-21.5574],[-45.0636,-21.5002],[-45.0947,-21.5007],[-45.1124,-21.5424]]]]}}]}