{"type":"FeatureCollection","features":[{"type":"Feature","properties":{"territory_id":"mg-3160959-centro","name":"Centro","municipality_id":"mg-3160959","polling_places":2,"approx":true,"official":false,"method":"voronoi-polling-places","whole_municipality":false,"approx_coords_only":false},"geometry":{"type":"MultiPolygon","coordinates":[[[[-42.05831,-19.49906],[-42.01724,-19.55357],[-42.01518,-19.55239],[-42.01508,-19.52623],[-41.99202,-19.53367],[-41.9998,-19.4588],[-42.019,-19.4852],[-42.05831,-19.49906]]]]}},{"type":"Feature","properties":{"territory_id":"mg-3160959-corrego-belem","name":"Corrego Belem","municipality_id":"mg-3160959","polling_places":2,"approx":true,"official":false,"method":"voronoi-polling-places","whole_municipality":false,"approx_coords_only":false},"geometry":{"type":"MultiPolygon","coordinates":[[[[-42.0701,-19.5402],[-42.0486,-19.5717],[-42.01724,-19.55357],[-42.05831,-19.49906],[-42.059,-19.4993],[-42.0701,-19.5402]]],[[[-42.01518,-19.55239],[-41.9915,-19.5387],[-41.99202,-19.53367],[-42.01508,-19.52623],[-42.01518,-19.55239]]]]}}]}