{"type":"FeatureCollection","features":[{"type":"Feature","properties":{"territory_id":"mg-3160207-centro","name":"Centro","municipality_id":"mg-3160207","polling_places":1,"approx":true,"official":false,"method":"voronoi-polling-places","whole_municipality":false,"approx_coords_only":false},"geometry":{"type":"MultiPolygon","coordinates":[[[[-43.3817,-18.4466],[-43.3639,-18.4825],[-43.36623,-18.49903],[-43.21523,-18.42245],[-43.2454,-18.3983],[-43.3364,-18.394],[-43.3817,-18.4466]]]]}},{"type":"Feature","properties":{"territory_id":"mg-3160207-planalto","name":"Planalto","municipality_id":"mg-3160207","polling_places":1,"approx":true,"official":false,"method":"voronoi-polling-places","whole_municipality":false,"approx_coords_only":false},"geometry":{"type":"MultiPolygon","coordinates":[[[[-43.3701,-18.5264],[-43.2756,-18.5215],[-43.2469,-18.5289],[-43.1986,-18.5682],[-43.2152,-18.5977],[-43.1532,-18.5544],[-43.1689,-18.526],[-43.1678,-18.4821],[-43.2023,-18.4328],[-43.21523,-18.42245],[-43.36623,-18.49903],[-43.3701,-18.5264]]]]}}]}