{"type":"FeatureCollection","features":[{"type":"Feature","properties":{"territory_id":"mg-3160603-centro","name":"Centro","municipality_id":"mg-3160603","polling_places":2,"approx":true,"official":false,"method":"voronoi-polling-places","whole_municipality":false,"approx_coords_only":false},"geometry":{"type":"MultiPolygon","coordinates":[[[[-44.315,-18.2762],[-44.2999,-18.3165],[-44.2616,-18.3302],[-44.2712,-18.3604],[-44.24272,-18.39098],[-44.16358,-18.36687],[-44.1714,-18.3478],[-44.1573,-18.3031],[-44.1955,-18.2703],[-44.1953,-18.2462],[-44.2208,-18.2255],[-44.2759,-18.237],[-44.3139,-18.2317],[-44.315,-18.2762]]]]}},{"type":"Feature","properties":{"territory_id":"mg-3160603-zona-rural","name":"Zona Rural","municipality_id":"mg-3160603","polling_places":2,"approx":true,"official":false,"method":"voronoi-polling-places","whole_municipality":false,"approx_coords_only":false},"geometry":{"type":"MultiPolygon","coordinates":[[[[-44.24272,-18.39098],[-44.2347,-18.3996],[-44.1873,-18.4214],[-44.1998,-18.4765],[-44.1795,-18.5062],[-44.1306,-18.5071],[-44.1386,-18.5441],[-44.0781,-18.5575],[-44.0506,-18.5069],[-44.0073,-18.4723],[-44.0221,-18.4446],[-44.1005,-18.4369],[-44.1092,-18.4028],[-44.1566,-18.3839],[-44.16358,-18.36687],[-44.24272,-18.39098]]]]}}]}