{"type":"FeatureCollection","features":[{"type":"Feature","properties":{"territory_id":"mg-3160405-centro","name":"Centro","municipality_id":"mg-3160405","polling_places":4,"approx":true,"official":false,"method":"voronoi-polling-places","whole_municipality":false,"approx_coords_only":false},"geometry":{"type":"MultiPolygon","coordinates":[[[[-45.29673,-20.0895],[-45.29239,-20.08994],[-45.29164,-20.08957],[-45.28757,-20.08941],[-45.28537,-20.08627],[-45.25761,-20.06374],[-45.24944,-20.05512],[-45.25752,-20.01402],[-45.28631,-20.06922],[-45.29215,-20.07889],[-45.29444,-20.08644],[-45.29673,-20.0895]]]]}},{"type":"Feature","properties":{"territory_id":"mg-3160405-cidade-jardim","name":"Cidade Jardim","municipality_id":"mg-3160405","polling_places":1,"approx":true,"official":false,"method":"voronoi-polling-places","whole_municipality":false,"approx_coords_only":false},"geometry":{"type":"MultiPolygon","coordinates":[[[[-45.34282,-20.1334],[-45.3222,-20.17738],[-45.29041,-20.10887],[-45.28685,-20.0974],[-45.28704,-20.09686],[-45.29239,-20.08994],[-45.29673,-20.0895],[-45.30307,-20.092],[-45.34282,-20.1334]]]]}},{"type":"Feature","properties":{"territory_id":"mg-3160405-dom-bosco","name":"Dom Bosco","municipality_id":"mg-3160405","polling_places":3,"approx":true,"official":false,"method":"voronoi-polling-places","whole_municipality":false,"approx_coords_only":false},"geometry":{"type":"MultiPolygon","coordinates":[[[[-45.5031,-19.854],[-45.496,-19.8929],[-45.438,-19.9407],[-45.435,-19.9671],[-45.3845,-20.0306],[-45.39324,-20.05523],[-45.34282,-20.1334],[-45.30307,-20.092],[-45.29673,-20.0895],[-45.29444,-20.08644],[-45.29215,-20.07889],[-45.28631,-20.06922],[-45.25752,-20.01402],[-45.27218,-19.90821],[-45.2897,-19.9138],[-45.3074,-19.9352],[-45.3668,-19.9166],[-45.3835,-19.8846],[-45.4185,-19.871],[-45.4703,-19.8703],[-45.5031,-19.854]]]]}},{"type":"Feature","properties":{"territory_id":"mg-3160405-maria-angelica-de-castro","name":"Maria Angélica de Castro","municipality_id":"mg-3160405","polling_places":1,"approx":true,"official":false,"method":"voronoi-polling-places","whole_municipality":false,"approx_coords_only":false},"geometry":{"type":"MultiPolygon","coordinates":[[[[-45.27901,-20.09864],[-45.23451,-20.09458],[-45.24944,-20.05512],[-45.25761,-20.06374],[-45.27808,-20.08956],[-45.27901,-20.09864]]]]}},{"type":"Feature","properties":{"territory_id":"mg-3160405-nossa-senhora-de-fatima","name":"Nossa Senhora de Fátima","municipality_id":"mg-3160405","polling_places":1,"approx":true,"official":false,"method":"voronoi-polling-places","whole_municipality":false,"approx_coords_only":false},"geometry":{"type":"MultiPolygon","coordinates":[[[[-45.29239,-20.08994],[-45.28704,-20.09686],[-45.28757,-20.08941],[-45.29164,-20.08957],[-45.29239,-20.08994]]]]}},{"type":"Feature","properties":{"territory_id":"mg-3160405-planalto","name":"Planalto","municipality_id":"mg-3160405","polling_places":1,"approx":true,"official":false,"method":"voronoi-polling-places","whole_municipality":false,"approx_coords_only":false},"geometry":{"type":"MultiPolygon","coordinates":[[[[-45.3222,-20.17738],[-45.32196,-20.17803],[-45.23064,-20.10385],[-45.23451,-20.09458],[-45.27901,-20.09864],[-45.29041,-20.10887],[-45.3222,-20.17738]]]]}},{"type":"Feature","properties":{"territory_id":"mg-3160405-povoado-de-sao-jose-dos-rosas","name":"Povoado de São José dos Rosas","municipality_id":"mg-3160405","polling_places":1,"approx":true,"official":false,"method":"voronoi-polling-places","whole_municipality":false,"approx_coords_only":false},"geometry":{"type":"MultiPolygon","coordinates":[[[[-45.21249,-20.11173],[-45.19858,-20.16079],[-45.15075,-20.1714],[-45.1466,-20.1602],[-45.0968,-20.1229],[-45.1223,-20.076],[-45.0782,-20.0627],[-45.06896,-20.04749],[-45.21249,-20.11173]]]]}},{"type":"Feature","properties":{"territory_id":"mg-3160405-sao-jose","name":"São José","municipality_id":"mg-3160405","polling_places":1,"approx":true,"official":false,"method":"voronoi-polling-places","whole_municipality":false,"approx_coords_only":false},"geometry":{"type":"MultiPolygon","coordinates":[[[[-45.29041,-20.10887],[-45.27901,-20.09864],[-45.27808,-20.08956],[-45.28685,-20.0974],[-45.29041,-20.10887]]]]}},{"type":"Feature","properties":{"territory_id":"mg-3160405-sao-lucas","name":"São Lucas","municipality_id":"mg-3160405","polling_places":1,"approx":true,"official":false,"method":"voronoi-polling-places","whole_municipality":false,"approx_coords_only":false},"geometry":{"type":"MultiPolygon","coordinates":[[[[-45.28757,-20.08941],[-45.28704,-20.09686],[-45.28685,-20.0974],[-45.27808,-20.08956],[-45.25761,-20.06374],[-45.28537,-20.08627],[-45.28757,-20.08941]]]]}},{"type":"Feature","properties":{"territory_id":"mg-3160405-zona-rural","name":"Zona Rural","municipality_id":"mg-3160405","polling_places":5,"approx":true,"official":false,"method":"voronoi-polling-places","whole_municipality":false,"approx_coords_only":false},"geometry":{"type":"MultiPolygon","coordinates":[[[[-45.46,-20.1256],[-45.4405,-20.178],[-45.4564,-20.2068],[-45.3857,-20.319],[-45.3369,-20.3336],[-45.3294,-20.3128],[-45.351,-20.2687],[-45.3078,-20.2268],[-45.249,-20.2028],[-45.1928,-20.2373],[-45.1543,-20.181],[-45.15075,-20.1714],[-45.19858,-20.16079],[-45.21249,-20.11173],[-45.06896,-20.04749],[-45.0472,-20.0117],[-45.0684,-19.9993],[-45.1078,-20.0109],[-45.1434,-19.9779],[-45.1941,-19.9846],[-45.222,-19.9715],[-45.2665,-19.9064],[-45.27218,-19.90821],[-45.25752,-20.01402],[-45.24944,-20.05512],[-45.23451,-20.09458],[-45.23064,-20.10385],[-45.32196,-20.17803],[-45.3222,-20.17738],[-45.34282,-20.1334],[-45.39324,-20.05523],[-45.396,-20.063],[-45.3737,-20.1216],[-45.406,-20.1518],[-45.46,-20.1256]]]]}}]}