{"type":"FeatureCollection","features":[{"type":"Feature","properties":{"territory_id":"mg-3160306-centro","name":"Centro","municipality_id":"mg-3160306","polling_places":2,"approx":true,"official":false,"method":"voronoi-polling-places","whole_municipality":false,"approx_coords_only":false},"geometry":{"type":"MultiPolygon","coordinates":[[[[-40.4196,-16.428],[-40.3827,-16.4429],[-40.37492,-16.45801],[-40.28392,-16.40045],[-40.2849,-16.3988],[-40.3494,-16.3967],[-40.3647,-16.3761],[-40.4041,-16.3867],[-40.4196,-16.428]]],[[[-40.22277,-16.48103],[-40.2203,-16.56407],[-40.1729,-16.5774],[-40.1545,-16.5603],[-40.1704,-16.5248],[-40.1102,-16.4493],[-40.1545,-16.4173],[-40.20901,-16.43938],[-40.22277,-16.48103]]]]}},{"type":"Feature","properties":{"territory_id":"mg-3160306-distrito-de-catajas","name":"Distrito de Catajás","municipality_id":"mg-3160306","polling_places":1,"approx":true,"official":false,"method":"voronoi-polling-places","whole_municipality":false,"approx_coords_only":true},"geometry":{"type":"MultiPolygon","coordinates":[[[[-40.3727,-16.5726],[-40.3496,-16.6328],[-40.356,-16.6526],[-40.3286,-16.6514],[-40.3132,-16.6786],[-40.2755,-16.5734],[-40.2298,-16.5614],[-40.2203,-16.56407],[-40.22277,-16.48103],[-40.37072,-16.56568],[-40.3727,-16.5726]]]]}},{"type":"Feature","properties":{"territory_id":"mg-3160306-distrito-de-cristianopolis","name":"Distrito de Cristianópolis","municipality_id":"mg-3160306","polling_places":1,"approx":true,"official":false,"method":"voronoi-polling-places","whole_municipality":false,"approx_coords_only":false},"geometry":{"type":"MultiPolygon","coordinates":[[[[-40.37492,-16.45801],[-40.3524,-16.5017],[-40.37072,-16.56568],[-40.22277,-16.48103],[-40.20901,-16.43938],[-40.2214,-16.4444],[-40.2563,-16.447],[-40.28392,-16.40045],[-40.37492,-16.45801]]]]}}]}