{"type":"FeatureCollection","features":[{"type":"Feature","properties":{"territory_id":"mg-3160454-centro","name":"Centro","municipality_id":"mg-3160454","polling_places":2,"approx":true,"official":false,"method":"voronoi-polling-places","whole_municipality":false,"approx_coords_only":false},"geometry":{"type":"MultiPolygon","coordinates":[[[[-42.66864,-15.34275],[-42.66161,-15.36311],[-42.65975,-15.36895],[-42.63171,-15.38398],[-42.57465,-15.3636],[-42.57447,-15.36263],[-42.58859,-15.32248],[-42.5894,-15.31995],[-42.65019,-15.3181],[-42.66864,-15.34275]]]]}},{"type":"Feature","properties":{"territory_id":"mg-3160454-zona-rural","name":"Zona Rural","municipality_id":"mg-3160454","polling_places":14,"approx":true,"official":false,"method":"voronoi-polling-places","whole_municipality":false,"approx_coords_only":false},"geometry":{"type":"MultiPolygon","coordinates":[[[[-42.8105,-15.2412],[-42.7901,-15.2702],[-42.7628,-15.3467],[-42.7555,-15.3972],[-42.7344,-15.3936],[-42.7264,-15.4114],[-42.7008,-15.4225],[-42.6473,-15.4073],[-42.5964,-15.4279],[-42.549,-15.4923],[-42.524,-15.4688],[-42.5168,-15.429],[-42.5202,-15.3218],[-42.5672,-15.2389],[-42.6182,-15.2444],[-42.617,-15.1927],[-42.6561,-15.1679],[-42.644,-15.1139],[-42.6421,-15.0532],[-42.6565,-15.037],[-42.6848,-15.0749],[-42.6826,-15.0974],[-42.7778,-15.1598],[-42.8025,-15.194],[-42.8105,-15.2412]],[[-42.66864,-15.34275],[-42.65019,-15.3181],[-42.5894,-15.31995],[-42.58859,-15.32248],[-42.57447,-15.36263],[-42.57465,-15.3636],[-42.63171,-15.38398],[-42.65975,-15.36895],[-42.66161,-15.36311],[-42.66864,-15.34275]]]]}}]}