{"type":"FeatureCollection","features":[{"type":"Feature","properties":{"territory_id":"mg-3161304-centro","name":"Centro","municipality_id":"mg-3161304","polling_places":1,"approx":true,"official":false,"method":"voronoi-polling-places","whole_municipality":false,"approx_coords_only":false},"geometry":{"type":"MultiPolygon","coordinates":[[[[-50.1062,-19.8743],[-50.0441,-19.9164],[-50.0031,-19.9264],[-49.9699,-19.92],[-49.9062,-19.9372],[-49.8537,-19.9465],[-49.8353,-19.9333],[-49.76097,-19.92586],[-49.76973,-19.86021],[-49.83478,-19.60308],[-49.8679,-19.6361],[-49.8689,-19.67],[-49.9205,-19.7266],[-49.946,-19.7288],[-49.9838,-19.6946],[-50.0144,-19.7266],[-50.0291,-19.7605],[-50.0909,-19.7695],[-50.0831,-19.8337],[-50.1062,-19.8743]]]]}},{"type":"Feature","properties":{"territory_id":"mg-3161304-novo-horizonte","name":"Novo Horizonte","municipality_id":"mg-3161304","polling_places":2,"approx":true,"official":false,"method":"voronoi-polling-places","whole_municipality":false,"approx_coords_only":false},"geometry":{"type":"MultiPolygon","coordinates":[[[[-49.83478,-19.60308],[-49.76973,-19.86021],[-49.76097,-19.92586],[-49.7494,-19.9247],[-49.7289,-19.8782],[-49.6487,-19.8311],[-49.6706,-19.7567],[-49.6535,-19.6893],[-49.6304,-19.6764],[-49.6785,-19.6606],[-49.7745,-19.6545],[-49.8343,-19.6026],[-49.83478,-19.60308]]]]}}]}