{"type":"FeatureCollection","features":[{"type":"Feature","properties":{"territory_id":"mg-3161056-centro","name":"Centro","municipality_id":"mg-3161056","polling_places":6,"approx":true,"official":false,"method":"voronoi-polling-places","whole_municipality":true,"approx_coords_only":false},"geometry":{"type":"MultiPolygon","coordinates":[[[[-41.4904,-18.6372],[-41.4266,-18.6211],[-41.3837,-18.588],[-41.3559,-18.517],[-41.3649,-18.4989],[-41.3956,-18.5302],[-41.4599,-18.5141],[-41.5118,-18.5349],[-41.5397,-18.5815],[-41.5135,-18.5909],[-41.4904,-18.6372]]]]}}]}