{"type":"FeatureCollection","features":[{"type":"Feature","properties":{"territory_id":"mg-3161502-centro","name":"Centro","municipality_id":"mg-3161502","polling_places":3,"approx":true,"official":false,"method":"voronoi-polling-places","whole_municipality":false,"approx_coords_only":false},"geometry":{"type":"MultiPolygon","coordinates":[[[[-42.88176,-20.94364],[-42.8484,-20.9514],[-42.8129,-20.9361],[-42.7581,-20.9662],[-42.7304,-20.9382],[-42.7207,-20.8955],[-42.7299,-20.8617],[-42.7558,-20.8766],[-42.7966,-20.8664],[-42.84477,-20.87862],[-42.87325,-20.93131],[-42.88176,-20.94364]]]]}},{"type":"Feature","properties":{"territory_id":"mg-3161502-monte-celeste","name":"Monte Celeste","municipality_id":"mg-3161502","polling_places":1,"approx":true,"official":false,"method":"voronoi-polling-places","whole_municipality":false,"approx_coords_only":false},"geometry":{"type":"MultiPolygon","coordinates":[[[[-42.9331,-20.9474],[-42.915,-20.9359],[-42.88176,-20.94364],[-42.87325,-20.93131],[-42.84477,-20.87862],[-42.8518,-20.8804],[-42.8861,-20.8467],[-42.9294,-20.9125],[-42.9331,-20.9474]]]]}}]}