{"type":"FeatureCollection","features":[{"type":"Feature","properties":{"territory_id":"mg-3161908-bom-sucesso","name":"Bom Sucesso","municipality_id":"mg-3161908","polling_places":1,"approx":true,"official":false,"method":"voronoi-polling-places","whole_municipality":false,"approx_coords_only":false},"geometry":{"type":"MultiPolygon","coordinates":[[[[-43.3996,-19.6717],[-43.3865,-19.7448],[-43.38818,-19.75613],[-43.33682,-19.77802],[-43.30213,-19.75517],[-43.3292,-19.736],[-43.3338,-19.677],[-43.3996,-19.6717]]]]}},{"type":"Feature","properties":{"territory_id":"mg-3161908-borges","name":"Borges","municipality_id":"mg-3161908","polling_places":1,"approx":true,"official":false,"method":"voronoi-polling-places","whole_municipality":false,"approx_coords_only":false},"geometry":{"type":"MultiPolygon","coordinates":[[[[-43.32903,-19.90075],[-43.317,-19.8916],[-43.2845,-19.9019],[-43.2205,-19.8928],[-43.21948,-19.89187],[-43.27259,-19.81296],[-43.3183,-19.82895],[-43.32903,-19.90075]]]]}},{"type":"Feature","properties":{"territory_id":"mg-3161908-centro","name":"Centro","municipality_id":"mg-3161908","polling_places":2,"approx":true,"official":false,"method":"voronoi-polling-places","whole_municipality":false,"approx_coords_only":false},"geometry":{"type":"MultiPolygon","coordinates":[[[[-43.36927,-19.85065],[-43.34838,-19.82285],[-43.34137,-19.81468],[-43.35982,-19.818],[-43.36257,-19.82659],[-43.36262,-19.82665],[-43.36927,-19.85065]]]]}},{"type":"Feature","properties":{"territory_id":"mg-3161908-jurubeba","name":"Jurubeba","municipality_id":"mg-3161908","polling_places":1,"approx":true,"official":false,"method":"voronoi-polling-places","whole_municipality":false,"approx_coords_only":false},"geometry":{"type":"MultiPolygon","coordinates":[[[[-43.39233,-19.81553],[-43.38725,-19.81472],[-43.33734,-19.79084],[-43.33682,-19.77802],[-43.38818,-19.75613],[-43.3906,-19.7724],[-43.39233,-19.81553]]]]}},{"type":"Feature","properties":{"territory_id":"mg-3161908-recreio","name":"Recreio","municipality_id":"mg-3161908","polling_places":1,"approx":true,"official":false,"method":"voronoi-polling-places","whole_municipality":false,"approx_coords_only":false},"geometry":{"type":"MultiPolygon","coordinates":[[[[-43.40457,-19.9092],[-43.3741,-19.9088],[-43.3563,-19.9215],[-43.32903,-19.90075],[-43.3183,-19.82895],[-43.33357,-19.81007],[-43.34137,-19.81468],[-43.34838,-19.82285],[-43.36927,-19.85065],[-43.40457,-19.9092]]]]}},{"type":"Feature","properties":{"territory_id":"mg-3161908-santa-rita-de-pacas","name":"Santa Rita de Pacas","municipality_id":"mg-3161908","polling_places":1,"approx":true,"official":false,"method":"voronoi-polling-places","whole_municipality":false,"approx_coords_only":false},"geometry":{"type":"MultiPolygon","coordinates":[[[[-43.27259,-19.81296],[-43.21948,-19.89187],[-43.1931,-19.8678],[-43.2197,-19.8483],[-43.2049,-19.8173],[-43.223,-19.7834],[-43.26879,-19.77733],[-43.27259,-19.81296]]]]}},{"type":"Feature","properties":{"territory_id":"mg-3161908-santana","name":"Santana","municipality_id":"mg-3161908","polling_places":1,"approx":true,"official":false,"method":"voronoi-polling-places","whole_municipality":false,"approx_coords_only":false},"geometry":{"type":"MultiPolygon","coordinates":[[[[-43.37062,-19.81732],[-43.36262,-19.82665],[-43.36257,-19.82659],[-43.35982,-19.818],[-43.37062,-19.81732]]]]}},{"type":"Feature","properties":{"territory_id":"mg-3161908-sao-jose","name":"São José","municipality_id":"mg-3161908","polling_places":1,"approx":true,"official":false,"method":"voronoi-polling-places","whole_municipality":false,"approx_coords_only":false},"geometry":{"type":"MultiPolygon","coordinates":[[[[-43.4335,-19.8762],[-43.4194,-19.9094],[-43.40457,-19.9092],[-43.36927,-19.85065],[-43.36262,-19.82665],[-43.37062,-19.81732],[-43.38725,-19.81472],[-43.39233,-19.81553],[-43.3943,-19.8649],[-43.4335,-19.8762]]]]}},{"type":"Feature","properties":{"territory_id":"mg-3161908-una","name":"Una","municipality_id":"mg-3161908","polling_places":1,"approx":true,"official":false,"method":"voronoi-polling-places","whole_municipality":false,"approx_coords_only":false},"geometry":{"type":"MultiPolygon","coordinates":[[[[-43.38725,-19.81472],[-43.37062,-19.81732],[-43.35982,-19.818],[-43.34137,-19.81468],[-43.33357,-19.81007],[-43.33734,-19.79084],[-43.38725,-19.81472]]]]}},{"type":"Feature","properties":{"territory_id":"mg-3161908-vargem-alegre","name":"Vargem Alegre","municipality_id":"mg-3161908","polling_places":1,"approx":true,"official":false,"method":"voronoi-polling-places","whole_municipality":false,"approx_coords_only":true},"geometry":{"type":"MultiPolygon","coordinates":[[[[-43.33734,-19.79084],[-43.33357,-19.81007],[-43.3183,-19.82895],[-43.27259,-19.81296],[-43.26879,-19.77733],[-43.2713,-19.777],[-43.30213,-19.75517],[-43.33682,-19.77802],[-43.33734,-19.79084]]]]}}]}