{"type":"FeatureCollection","features":[{"type":"Feature","properties":{"territory_id":"mg-3161809-centro","name":"Centro","municipality_id":"mg-3161809","polling_places":3,"approx":true,"official":false,"method":"voronoi-polling-places","whole_municipality":false,"approx_coords_only":false},"geometry":{"type":"MultiPolygon","coordinates":[[[[-44.9053,-19.9745],[-44.88254,-20.03377],[-44.8744,-20.03173],[-44.8517,-19.98581],[-44.84882,-19.98336],[-44.85119,-19.97977],[-44.87035,-19.93052],[-44.88367,-19.92904],[-44.8775,-19.9447],[-44.9053,-19.9745]]]]}},{"type":"Feature","properties":{"territory_id":"mg-3161809-lago-azul","name":"Lago Azul","municipality_id":"mg-3161809","polling_places":1,"approx":true,"official":false,"method":"voronoi-polling-places","whole_municipality":false,"approx_coords_only":false},"geometry":{"type":"MultiPolygon","coordinates":[[[[-44.87035,-19.93052],[-44.85119,-19.97977],[-44.84882,-19.98336],[-44.80976,-20.00092],[-44.80817,-19.99982],[-44.79466,-19.94629],[-44.80862,-19.92875],[-44.87035,-19.93052]]]]}},{"type":"Feature","properties":{"territory_id":"mg-3161809-povoado-de-agua-limpa","name":"Povoado de Água Limpa","municipality_id":"mg-3161809","polling_places":1,"approx":true,"official":false,"method":"voronoi-polling-places","whole_municipality":false,"approx_coords_only":false},"geometry":{"type":"MultiPolygon","coordinates":[[[[-44.83224,-20.02383],[-44.81004,-20.06926],[-44.7931,-20.0622],[-44.7538,-20.0543],[-44.75247,-20.04153],[-44.80817,-19.99982],[-44.80976,-20.00092],[-44.83224,-20.02383]]]]}},{"type":"Feature","properties":{"territory_id":"mg-3161809-povoado-de-campo-alegre","name":"Povoado de Campo Alegre","municipality_id":"mg-3161809","polling_places":1,"approx":true,"official":false,"method":"voronoi-polling-places","whole_municipality":false,"approx_coords_only":false},"geometry":{"type":"MultiPolygon","coordinates":[[[[-44.80817,-19.99982],[-44.75247,-20.04153],[-44.7442,-19.9622],[-44.7886,-19.9539],[-44.79466,-19.94629],[-44.80817,-19.99982]]]]}},{"type":"Feature","properties":{"territory_id":"mg-3161809-povoado-de-prata-de-cima","name":"Povoado de Prata de Cima","municipality_id":"mg-3161809","polling_places":1,"approx":true,"official":false,"method":"voronoi-polling-places","whole_municipality":false,"approx_coords_only":false},"geometry":{"type":"MultiPolygon","coordinates":[[[[-44.88254,-20.03377],[-44.8608,-20.0904],[-44.81004,-20.06926],[-44.83224,-20.02383],[-44.8744,-20.03173],[-44.88254,-20.03377]]]]}},{"type":"Feature","properties":{"territory_id":"mg-3161809-zona-rural","name":"Zona Rural","municipality_id":"mg-3161809","polling_places":2,"approx":true,"official":false,"method":"voronoi-polling-places","whole_municipality":false,"approx_coords_only":false},"geometry":{"type":"MultiPolygon","coordinates":[[[[-44.8929,-19.8555],[-44.8761,-19.8732],[-44.8879,-19.9183],[-44.88367,-19.92904],[-44.87035,-19.93052],[-44.80862,-19.92875],[-44.8167,-19.9186],[-44.816,-19.8927],[-44.8545,-19.8583],[-44.8929,-19.8555]]],[[[-44.8744,-20.03173],[-44.83224,-20.02383],[-44.80976,-20.00092],[-44.84882,-19.98336],[-44.8517,-19.98581],[-44.8744,-20.03173]]]]}}]}