{"type":"FeatureCollection","features":[{"type":"Feature","properties":{"territory_id":"mg-3161700-centro","name":"Centro","municipality_id":"mg-3161700","polling_places":5,"approx":true,"official":false,"method":"voronoi-polling-places","whole_municipality":false,"approx_coords_only":false},"geometry":{"type":"MultiPolygon","coordinates":[[[[-46.0097,-18.326],[-45.9159,-18.3859],[-45.8818,-18.3805],[-45.81623,-18.39958],[-45.8351,-18.34414],[-45.83397,-18.34278],[-45.83179,-18.34118],[-45.60867,-18.38593],[-45.72796,-18.15685],[-45.7541,-18.1686],[-45.806,-18.1787],[-45.8464,-18.2328],[-45.8821,-18.2551],[-45.9079,-18.3104],[-46.0072,-18.323],[-46.0097,-18.326]]]]}},{"type":"Feature","properties":{"territory_id":"mg-3161700-distrito-de-beira-rio","name":"Distrito de Beira Rio","municipality_id":"mg-3161700","polling_places":1,"approx":true,"official":false,"method":"voronoi-polling-places","whole_municipality":false,"approx_coords_only":false},"geometry":{"type":"MultiPolygon","coordinates":[[[[-45.38644,-18.29831],[-45.3441,-18.259],[-45.3186,-18.2207],[-45.2673,-18.2209],[-45.2388,-18.1784],[-45.2318,-18.1082],[-45.1878,-18.1238],[-45.1834,-18.0902],[-45.2088,-18.0578],[-45.18,-18.0293],[-45.19446,-17.99668],[-45.38547,-18.19719],[-45.38644,-18.29831]]]]}},{"type":"Feature","properties":{"territory_id":"mg-3161700-distrito-de-canoeiros","name":"Distrito de Canoeiros","municipality_id":"mg-3161700","polling_places":1,"approx":true,"official":false,"method":"voronoi-polling-places","whole_municipality":false,"approx_coords_only":false},"geometry":{"type":"MultiPolygon","coordinates":[[[[-45.58491,-17.94553],[-45.38547,-18.19719],[-45.19446,-17.99668],[-45.1984,-17.9878],[-45.2406,-17.9762],[-45.2636,-17.9917],[-45.2904,-17.9616],[-45.3378,-17.9387],[-45.3452,-17.9103],[-45.3879,-17.9016],[-45.4466,-17.9168],[-45.4676,-17.9054],[-45.4564,-17.8471],[-45.5146,-17.8616],[-45.5836,-17.9421],[-45.58491,-17.94553]]]]}},{"type":"Feature","properties":{"territory_id":"mg-3161700-pontal-do-abaete","name":"Pontal do Abaeté","municipality_id":"mg-3161700","polling_places":1,"approx":true,"official":false,"method":"voronoi-polling-places","whole_municipality":false,"approx_coords_only":true},"geometry":{"type":"MultiPolygon","coordinates":[[[[-45.72796,-18.15685],[-45.60867,-18.38593],[-45.60344,-18.39584],[-45.5765,-18.3714],[-45.5738,-18.3572],[-45.5082,-18.3163],[-45.407,-18.3174],[-45.38644,-18.29831],[-45.38547,-18.19719],[-45.58491,-17.94553],[-45.6071,-18.0038],[-45.6336,-18.0133],[-45.6326,-18.0582],[-45.6455,-18.0883],[-45.69,-18.1398],[-45.72796,-18.15685]]]]}},{"type":"Feature","properties":{"territory_id":"mg-3161700-povoado-de-lagoa","name":"Povoado de Lagoa","municipality_id":"mg-3161700","polling_places":1,"approx":true,"official":false,"method":"voronoi-polling-places","whole_municipality":false,"approx_coords_only":false},"geometry":{"type":"MultiPolygon","coordinates":[[[[-45.8351,-18.34414],[-45.81623,-18.39958],[-45.8031,-18.4034],[-45.7742,-18.3939],[-45.748,-18.4067],[-45.7807,-18.4567],[-45.7732,-18.467],[-45.7226,-18.5071],[-45.7049,-18.4886],[-45.6448,-18.482],[-45.6283,-18.4184],[-45.60344,-18.39584],[-45.60867,-18.38593],[-45.83179,-18.34118],[-45.83397,-18.34278],[-45.8351,-18.34414]]]]}}]}