{"type":"FeatureCollection","features":[{"type":"Feature","properties":{"territory_id":"mg-3161007-centro","name":"Centro","municipality_id":"mg-3161007","polling_places":4,"approx":true,"official":false,"method":"voronoi-polling-places","whole_municipality":false,"approx_coords_only":false},"geometry":{"type":"MultiPolygon","coordinates":[[[[-43.02072,-19.83479],[-42.99393,-19.88812],[-42.98471,-19.90928],[-42.9653,-19.91142],[-42.95648,-19.90749],[-42.93233,-19.89696],[-42.89453,-19.8385],[-42.92156,-19.81089],[-42.92184,-19.81059],[-42.9795,-19.8153],[-43.0092,-19.8277],[-43.02072,-19.83479]]],[[[-42.8535,-20.02378],[-42.8384,-20.0142],[-42.755,-20.0202],[-42.7288,-20.0081],[-42.73194,-19.99851],[-42.85153,-19.97516],[-42.8535,-20.02378]]]]}},{"type":"Feature","properties":{"territory_id":"mg-3161007-distrito-conego-joao-pio","name":"Distrito Cônego João Pio","municipality_id":"mg-3161007","polling_places":2,"approx":true,"official":false,"method":"voronoi-polling-places","whole_municipality":false,"approx_coords_only":false},"geometry":{"type":"MultiPolygon","coordinates":[[[[-42.98826,-20.01655],[-42.9744,-20.0177],[-42.9513,-20.0065],[-42.9275,-20.0349],[-42.8737,-20.0366],[-42.8535,-20.02378],[-42.85153,-19.97516],[-42.85927,-19.95341],[-42.8954,-19.9552],[-42.91423,-19.97199],[-42.94726,-19.97571],[-42.98826,-20.01655]]]]}},{"type":"Feature","properties":{"territory_id":"mg-3161007-distrito-de-santana","name":"Distrito de Santana","municipality_id":"mg-3161007","polling_places":1,"approx":true,"official":false,"method":"voronoi-polling-places","whole_municipality":false,"approx_coords_only":false},"geometry":{"type":"MultiPolygon","coordinates":[[[[-42.92184,-19.81059],[-42.92156,-19.81089],[-42.89453,-19.8385],[-42.8437,-19.84744],[-42.7774,-19.7948],[-42.8061,-19.7849],[-42.8121,-19.7529],[-42.7973,-19.7129],[-42.8001,-19.7115],[-42.8567,-19.7399],[-42.9084,-19.7497],[-42.9208,-19.8105],[-42.92184,-19.81059]]]]}},{"type":"Feature","properties":{"territory_id":"mg-3161007-distrito-de-vargem-linda","name":"Distrito de Vargem Linda","municipality_id":"mg-3161007","polling_places":3,"approx":true,"official":false,"method":"voronoi-polling-places","whole_municipality":false,"approx_coords_only":false},"geometry":{"type":"MultiPolygon","coordinates":[[[[-43.061,-19.9793],[-43.0225,-20.0137],[-42.98826,-20.01655],[-42.94726,-19.97571],[-42.91423,-19.97199],[-42.8954,-19.9552],[-42.85927,-19.95341],[-42.85519,-19.94724],[-42.84782,-19.90025],[-42.8637,-19.8925],[-42.8609,-19.8611],[-42.8437,-19.84744],[-42.89453,-19.8385],[-42.93233,-19.89696],[-42.95648,-19.90749],[-42.9653,-19.91142],[-42.98471,-19.90928],[-43.059,-19.97171],[-43.061,-19.9793]]]]}},{"type":"Feature","properties":{"territory_id":"mg-3161007-distrito-ilheus-do-prata","name":"Distrito Ilhéus do Prata","municipality_id":"mg-3161007","polling_places":1,"approx":true,"official":false,"method":"voronoi-polling-places","whole_municipality":false,"approx_coords_only":false},"geometry":{"type":"MultiPolygon","coordinates":[[[[-42.85927,-19.95341],[-42.85153,-19.97516],[-42.73194,-19.99851],[-42.7399,-19.9742],[-42.7766,-19.9561],[-42.77299,-19.94821],[-42.85519,-19.94724],[-42.85927,-19.95341]]]]}},{"type":"Feature","properties":{"territory_id":"mg-3161007-distrito-juiracu","name":"Distrito Juiraçu","municipality_id":"mg-3161007","polling_places":1,"approx":true,"official":false,"method":"voronoi-polling-places","whole_municipality":false,"approx_coords_only":false},"geometry":{"type":"MultiPolygon","coordinates":[[[[-42.85519,-19.94724],[-42.77299,-19.94821],[-42.7528,-19.9041],[-42.7819,-19.872],[-42.8268,-19.9105],[-42.84782,-19.90025],[-42.85519,-19.94724]]]]}},{"type":"Feature","properties":{"territory_id":"mg-3161007-povoado-de-piedade","name":"Povoado de Piedade","municipality_id":"mg-3161007","polling_places":1,"approx":true,"official":false,"method":"voronoi-polling-places","whole_municipality":false,"approx_coords_only":false},"geometry":{"type":"MultiPolygon","coordinates":[[[[-43.0697,-19.9071],[-43.0512,-19.9421],[-43.059,-19.97171],[-42.98471,-19.90928],[-42.99393,-19.88812],[-43.02072,-19.83479],[-43.0615,-19.8599],[-43.0628,-19.8859],[-43.0697,-19.9071]]]]}}]}