{"type":"FeatureCollection","features":[{"type":"Feature","properties":{"territory_id":"mg-3161650-alto-do-baixio","name":"Alto do Baixio","municipality_id":"mg-3161650","polling_places":1,"approx":true,"official":false,"method":"voronoi-polling-places","whole_municipality":false,"approx_coords_only":true},"geometry":{"type":"MultiPolygon","coordinates":[[[[-41.4585,-18.9524],[-41.4024,-19.0235],[-41.3576,-19.0225],[-41.34428,-18.98687],[-41.36334,-18.92319],[-41.37719,-18.8908],[-41.43788,-18.91963],[-41.4585,-18.9524]]]]}},{"type":"Feature","properties":{"territory_id":"mg-3161650-centro","name":"Centro","municipality_id":"mg-3161650","polling_places":2,"approx":true,"official":false,"method":"voronoi-polling-places","whole_municipality":false,"approx_coords_only":false},"geometry":{"type":"MultiPolygon","coordinates":[[[[-41.37719,-18.8908],[-41.36334,-18.92319],[-41.34428,-18.98687],[-41.3363,-18.9655],[-41.3215,-18.9685],[-41.2987,-18.9188],[-41.2638,-18.8665],[-41.3008,-18.8261],[-41.30849,-18.82601],[-41.37719,-18.8908]]]]}},{"type":"Feature","properties":{"territory_id":"mg-3161650-povoado-conceicao-das-laranjeiras","name":"Povoado Conceição das Laranjeiras","municipality_id":"mg-3161650","polling_places":1,"approx":true,"official":false,"method":"voronoi-polling-places","whole_municipality":false,"approx_coords_only":false},"geometry":{"type":"MultiPolygon","coordinates":[[[[-41.4605,-18.8834],[-41.4305,-18.9079],[-41.43788,-18.91963],[-41.37719,-18.8908],[-41.30849,-18.82601],[-41.3606,-18.8254],[-41.4063,-18.8665],[-41.4605,-18.8834]]]]}}]}