{"type":"FeatureCollection","features":[{"type":"Feature","properties":{"territory_id":"mg-3161106-aparecida","name":"Aparecida","municipality_id":"mg-3161106","polling_places":1,"approx":true,"official":false,"method":"voronoi-polling-places","whole_municipality":false,"approx_coords_only":false},"geometry":{"type":"MultiPolygon","coordinates":[[[[-44.86266,-15.9592],[-44.86251,-15.96675],[-44.86227,-15.96713],[-44.84759,-15.9598],[-44.84868,-15.95923],[-44.86066,-15.9566],[-44.86087,-15.95678],[-44.86266,-15.9592]]]]}},{"type":"Feature","properties":{"territory_id":"mg-3161106-bandeirantes","name":"Bandeirantes","municipality_id":"mg-3161106","polling_places":1,"approx":true,"official":false,"method":"voronoi-polling-places","whole_municipality":false,"approx_coords_only":false},"geometry":{"type":"MultiPolygon","coordinates":[[[[-44.86066,-15.9566],[-44.84868,-15.95923],[-44.8557,-15.95028],[-44.86007,-15.95452],[-44.86066,-15.9566]]]]}},{"type":"Feature","properties":{"territory_id":"mg-3161106-centro","name":"Centro","municipality_id":"mg-3161106","polling_places":4,"approx":true,"official":false,"method":"voronoi-polling-places","whole_municipality":false,"approx_coords_only":false},"geometry":{"type":"MultiPolygon","coordinates":[[[[-44.8812,-15.94218],[-44.87899,-15.95304],[-44.86266,-15.9592],[-44.86087,-15.95678],[-44.86066,-15.9566],[-44.86007,-15.95452],[-44.86051,-15.95372],[-44.86198,-15.94877],[-44.86822,-15.94783],[-44.87196,-15.9466],[-44.88118,-15.94216],[-44.8812,-15.94218]]]]}},{"type":"Feature","properties":{"territory_id":"mg-3161106-jardim-graziela","name":"Jardim Graziela","municipality_id":"mg-3161106","polling_places":3,"approx":true,"official":false,"method":"voronoi-polling-places","whole_municipality":false,"approx_coords_only":false},"geometry":{"type":"MultiPolygon","coordinates":[[[[-44.88118,-15.94216],[-44.87196,-15.9466],[-44.86822,-15.94783],[-44.86198,-15.94877],[-44.86051,-15.95372],[-44.86007,-15.95452],[-44.8557,-15.95028],[-44.85554,-15.94979],[-44.85168,-15.94595],[-44.86184,-15.92006],[-44.86409,-15.92318],[-44.88118,-15.94216]]]]}},{"type":"Feature","properties":{"territory_id":"mg-3161106-joao-aguiar","name":"João Aguiar","municipality_id":"mg-3161106","polling_places":1,"approx":true,"official":false,"method":"voronoi-polling-places","whole_municipality":false,"approx_coords_only":false},"geometry":{"type":"MultiPolygon","coordinates":[[[[-44.8557,-15.95028],[-44.84868,-15.95923],[-44.84759,-15.9598],[-44.80868,-15.96517],[-44.85168,-15.94595],[-44.85554,-15.94979],[-44.8557,-15.95028]]]]}},{"type":"Feature","properties":{"territory_id":"mg-3161106-povoado-de-angical","name":"Povoado de Angical","municipality_id":"mg-3161106","polling_places":1,"approx":true,"official":false,"method":"voronoi-polling-places","whole_municipality":false,"approx_coords_only":false},"geometry":{"type":"MultiPolygon","coordinates":[[[[-44.7406,-15.92502],[-44.65253,-15.93747],[-44.64855,-15.86929],[-44.6673,-15.85804],[-44.711,-15.86592],[-44.7406,-15.92502]]]]}},{"type":"Feature","properties":{"territory_id":"mg-3161106-povoado-de-lapa-do-espirito-santo","name":"Povoado de Lapa do Espírito Santo","municipality_id":"mg-3161106","polling_places":1,"approx":true,"official":false,"method":"voronoi-polling-places","whole_municipality":false,"approx_coords_only":false},"geometry":{"type":"MultiPolygon","coordinates":[[[[-44.58958,-15.94771],[-44.56681,-16.00542],[-44.55862,-16.00718],[-44.47039,-15.99114],[-44.4302,-15.9732],[-44.4114,-15.9287],[-44.41337,-15.91256],[-44.57065,-15.91424],[-44.58958,-15.94771]]]]}},{"type":"Feature","properties":{"territory_id":"mg-3161106-povoado-de-mocambo","name":"Povoado de Mocambo","municipality_id":"mg-3161106","polling_places":1,"approx":true,"official":false,"method":"voronoi-polling-places","whole_municipality":false,"approx_coords_only":false},"geometry":{"type":"MultiPolygon","coordinates":[[[[-44.83441,-16.03353],[-44.82644,-16.08277],[-44.80944,-16.10062],[-44.77241,-16.07111],[-44.77689,-16.03003],[-44.81484,-16.0075],[-44.83441,-16.03353]]]]}},{"type":"Feature","properties":{"territory_id":"mg-3161106-povoado-de-retiro","name":"Povoado de Retiro","municipality_id":"mg-3161106","polling_places":1,"approx":true,"official":false,"method":"voronoi-polling-places","whole_municipality":false,"approx_coords_only":false},"geometry":{"type":"MultiPolygon","coordinates":[[[[-45.07469,-16.09855],[-45.06292,-16.09841],[-45.00503,-16.07883],[-44.98772,-16.04982],[-45.0249,-16.00535],[-45.04923,-16.02464],[-45.0668,-16.0613],[-45.07469,-16.09855]]]]}},{"type":"Feature","properties":{"territory_id":"mg-3161106-povoado-de-santana-de-minas","name":"Povoado de Santana de Minas","municipality_id":"mg-3161106","polling_places":1,"approx":true,"official":false,"method":"voronoi-polling-places","whole_municipality":false,"approx_coords_only":false},"geometry":{"type":"MultiPolygon","coordinates":[[[[-44.87143,-16.117],[-44.8618,-16.13053],[-44.8564,-16.129],[-44.81995,-16.15037],[-44.80944,-16.10062],[-44.82644,-16.08277],[-44.86201,-16.07969],[-44.87143,-16.117]]]]}},{"type":"Feature","properties":{"territory_id":"mg-3161106-povoado-travessao-de-minas","name":"Povoado Travessão de Minas","municipality_id":"mg-3161106","polling_places":1,"approx":true,"official":false,"method":"voronoi-polling-places","whole_municipality":false,"approx_coords_only":false},"geometry":{"type":"MultiPolygon","coordinates":[[[[-44.74341,-15.78917],[-44.73613,-15.82939],[-44.711,-15.86592],[-44.6673,-15.85804],[-44.66458,-15.8062],[-44.6833,-15.7759],[-44.7199,-15.777],[-44.74341,-15.78917]]]]}},{"type":"Feature","properties":{"territory_id":"mg-3161106-quilombo-bom-jardim-da-prata","name":"Quilombo Bom Jardim da Prata","municipality_id":"mg-3161106","polling_places":1,"approx":true,"official":false,"method":"voronoi-polling-places","whole_municipality":false,"approx_coords_only":false},"geometry":{"type":"MultiPolygon","coordinates":[[[[-44.99214,-15.89372],[-44.91053,-16.0012],[-44.90649,-16.00292],[-44.90296,-15.99891],[-44.91334,-15.93945],[-44.95918,-15.89394],[-44.99214,-15.89372]]]]}},{"type":"Feature","properties":{"territory_id":"mg-3161106-quilombo-buriti-do-meio","name":"Quilombo Buriti do Meio","municipality_id":"mg-3161106","polling_places":1,"approx":true,"official":false,"method":"voronoi-polling-places","whole_municipality":false,"approx_coords_only":false},"geometry":{"type":"MultiPolygon","coordinates":[[[[-44.63387,-16.1166],[-44.5842,-16.0832],[-44.53589,-16.07542],[-44.55862,-16.00718],[-44.56681,-16.00542],[-44.62017,-16.04639],[-44.63387,-16.1166]]]]}},{"type":"Feature","properties":{"territory_id":"mg-3161106-sagrada-familia","name":"Sagrada Família","municipality_id":"mg-3161106","polling_places":1,"approx":true,"official":false,"method":"voronoi-polling-places","whole_municipality":false,"approx_coords_only":false},"geometry":{"type":"MultiPolygon","coordinates":[[[[-44.86184,-15.92006],[-44.85168,-15.94595],[-44.80868,-15.96517],[-44.80834,-15.96526],[-44.80104,-15.95154],[-44.85151,-15.89604],[-44.86184,-15.92006]]]]}},{"type":"Feature","properties":{"territory_id":"mg-3161106-santo-antonio","name":"Santo Antônio","municipality_id":"mg-3161106","polling_places":1,"approx":true,"official":false,"method":"voronoi-polling-places","whole_municipality":false,"approx_coords_only":false},"geometry":{"type":"MultiPolygon","coordinates":[[[[-44.88021,-15.9636],[-44.86251,-15.96675],[-44.86266,-15.9592],[-44.87899,-15.95304],[-44.88021,-15.9636]]]]}},{"type":"Feature","properties":{"territory_id":"mg-3161106-sao-lucas","name":"São Lucas","municipality_id":"mg-3161106","polling_places":1,"approx":true,"official":false,"method":"voronoi-polling-places","whole_municipality":false,"approx_coords_only":false},"geometry":{"type":"MultiPolygon","coordinates":[[[[-44.89897,-15.99732],[-44.85642,-15.99379],[-44.86227,-15.96713],[-44.86251,-15.96675],[-44.88021,-15.9636],[-44.89897,-15.99732]]]]}},{"type":"Feature","properties":{"territory_id":"mg-3161106-sobradinho","name":"Sobradinho","municipality_id":"mg-3161106","polling_places":1,"approx":true,"official":false,"method":"voronoi-polling-places","whole_municipality":false,"approx_coords_only":false},"geometry":{"type":"MultiPolygon","coordinates":[[[[-44.86227,-15.96713],[-44.85642,-15.99379],[-44.81636,-16.00324],[-44.80834,-15.96526],[-44.80868,-15.96517],[-44.84759,-15.9598],[-44.86227,-15.96713]]]]}},{"type":"Feature","properties":{"territory_id":"mg-3161106-vila-do-morro","name":"Vila do Morro","municipality_id":"mg-3161106","polling_places":1,"approx":true,"official":false,"method":"voronoi-polling-places","whole_municipality":false,"approx_coords_only":false},"geometry":{"type":"MultiPolygon","coordinates":[[[[-44.71502,-16.00656],[-44.70219,-16.08375],[-44.68603,-16.10075],[-44.6739,-16.0926],[-44.66251,-16.1255],[-44.65651,-16.13182],[-44.63387,-16.1166],[-44.62017,-16.04639],[-44.66614,-16.00081],[-44.71502,-16.00656]]]]}},{"type":"Feature","properties":{"territory_id":"mg-3161106-zona-rural-de-alto-sao-joao","name":"Zona Rural de Alto São João","municipality_id":"mg-3161106","polling_places":1,"approx":true,"official":false,"method":"voronoi-polling-places","whole_municipality":false,"approx_coords_only":false},"geometry":{"type":"MultiPolygon","coordinates":[[[[-44.98068,-15.98639],[-44.95245,-16.04836],[-44.92703,-16.06201],[-44.90976,-16.04622],[-44.90649,-16.00292],[-44.91053,-16.0012],[-44.98068,-15.98639]]]]}},{"type":"Feature","properties":{"territory_id":"mg-3161106-zona-rural-de-araca","name":"Zona Rural de Araçá","municipality_id":"mg-3161106","polling_places":1,"approx":true,"official":false,"method":"voronoi-polling-places","whole_municipality":false,"approx_coords_only":false},"geometry":{"type":"MultiPolygon","coordinates":[[[[-45.00503,-16.07883],[-44.94241,-16.10527],[-44.93217,-16.09149],[-44.92703,-16.06201],[-44.95245,-16.04836],[-44.98772,-16.04982],[-45.00503,-16.07883]]]]}},{"type":"Feature","properties":{"territory_id":"mg-3161106-zona-rural-de-arrozal","name":"Zona Rural de Arrozal","municipality_id":"mg-3161106","polling_places":1,"approx":true,"official":false,"method":"voronoi-polling-places","whole_municipality":false,"approx_coords_only":false},"geometry":{"type":"MultiPolygon","coordinates":[[[[-44.79518,-15.86874],[-44.74772,-15.92537],[-44.74179,-15.92583],[-44.7406,-15.92502],[-44.711,-15.86592],[-44.73613,-15.82939],[-44.79518,-15.86874]]]]}},{"type":"Feature","properties":{"territory_id":"mg-3161106-zona-rural-de-barra-dos-caldeiroes","name":"Zona Rural de Barra dos Caldeirões","municipality_id":"mg-3161106","polling_places":1,"approx":true,"official":false,"method":"voronoi-polling-places","whole_municipality":false,"approx_coords_only":false},"geometry":{"type":"MultiPolygon","coordinates":[[[[-45.13668,-15.9206],[-45.1262,-15.9495],[-45.0913,-15.9833],[-45.0475,-15.9865],[-45.0412,-16.0079],[-45.04923,-16.02464],[-45.0249,-16.00535],[-45.00432,-15.96851],[-45.00773,-15.89237],[-45.03498,-15.86806],[-45.13668,-15.9206]]]]}},{"type":"Feature","properties":{"territory_id":"mg-3161106-zona-rural-de-barreiro","name":"Zona Rural de Barreiro","municipality_id":"mg-3161106","polling_places":1,"approx":true,"official":false,"method":"voronoi-polling-places","whole_municipality":false,"approx_coords_only":false},"geometry":{"type":"MultiPolygon","coordinates":[[[[-45.0666,-15.68404],[-45.02009,-15.72594],[-44.99495,-15.6893],[-45.0666,-15.68404]]]]}},{"type":"Feature","properties":{"territory_id":"mg-3161106-zona-rural-de-barreiro-das-cabaceiras","name":"Zona Rural de Barreiro das Cabaceiras","municipality_id":"mg-3161106","polling_places":1,"approx":true,"official":false,"method":"voronoi-polling-places","whole_municipality":false,"approx_coords_only":false},"geometry":{"type":"MultiPolygon","coordinates":[[[[-44.93217,-16.09149],[-44.87143,-16.117],[-44.86201,-16.07969],[-44.87966,-16.05255],[-44.90976,-16.04622],[-44.92703,-16.06201],[-44.93217,-16.09149]]]]}},{"type":"Feature","properties":{"territory_id":"mg-3161106-zona-rural-de-barreiro-dos-angicos","name":"Zona Rural de Barreiro dos Angicos","municipality_id":"mg-3161106","polling_places":1,"approx":true,"official":false,"method":"voronoi-polling-places","whole_municipality":false,"approx_coords_only":false},"geometry":{"type":"MultiPolygon","coordinates":[[[[-45.0249,-16.00535],[-44.98772,-16.04982],[-44.95245,-16.04836],[-44.98068,-15.98639],[-45.00432,-15.96851],[-45.0249,-16.00535]]]]}},{"type":"Feature","properties":{"territory_id":"mg-3161106-zona-rural-de-barriguda","name":"Zona Rural de Barriguda","municipality_id":"mg-3161106","polling_places":1,"approx":true,"official":false,"method":"voronoi-polling-places","whole_municipality":false,"approx_coords_only":false},"geometry":{"type":"MultiPolygon","coordinates":[[[[-44.74179,-15.92583],[-44.72044,-16.00378],[-44.71502,-16.00656],[-44.66614,-16.00081],[-44.64679,-15.94451],[-44.65253,-15.93747],[-44.7406,-15.92502],[-44.74179,-15.92583]]]]}},{"type":"Feature","properties":{"territory_id":"mg-3161106-zona-rural-de-bom-jesus-da-tapera","name":"Zona Rural de Bom Jesus da Tapera","municipality_id":"mg-3161106","polling_places":1,"approx":true,"official":false,"method":"voronoi-polling-places","whole_municipality":false,"approx_coords_only":false},"geometry":{"type":"MultiPolygon","coordinates":[[[[-45.00773,-15.89237],[-45.00432,-15.96851],[-44.98068,-15.98639],[-44.91053,-16.0012],[-44.99214,-15.89372],[-45.00773,-15.89237]]]]}},{"type":"Feature","properties":{"territory_id":"mg-3161106-zona-rural-de-brejo-da-felicidade-funil","name":"Zona Rural de Brejo da Felicidade/funil","municipality_id":"mg-3161106","polling_places":1,"approx":true,"official":false,"method":"voronoi-polling-places","whole_municipality":false,"approx_coords_only":false},"geometry":{"type":"MultiPolygon","coordinates":[[[[-45.03636,-15.82192],[-45.03498,-15.86806],[-45.00773,-15.89237],[-44.99214,-15.89372],[-44.95918,-15.89394],[-44.86128,-15.85569],[-44.85989,-15.85362],[-44.86702,-15.72978],[-45.03037,-15.81447],[-45.03636,-15.82192]]]]}},{"type":"Feature","properties":{"territory_id":"mg-3161106-zona-rural-de-brejo-dos-angicos-croa","name":"Zona Rural de Brejo dos Angicos/croá","municipality_id":"mg-3161106","polling_places":1,"approx":true,"official":false,"method":"voronoi-polling-places","whole_municipality":false,"approx_coords_only":false},"geometry":{"type":"MultiPolygon","coordinates":[[[[-44.81636,-16.00324],[-44.81484,-16.0075],[-44.77689,-16.03003],[-44.72044,-16.00378],[-44.74179,-15.92583],[-44.74772,-15.92537],[-44.80104,-15.95154],[-44.80834,-15.96526],[-44.81636,-16.00324]]]]}},{"type":"Feature","properties":{"territory_id":"mg-3161106-zona-rural-de-cedro","name":"Zona Rural de Cedro","municipality_id":"mg-3161106","polling_places":1,"approx":true,"official":false,"method":"voronoi-polling-places","whole_municipality":false,"approx_coords_only":false},"geometry":{"type":"MultiPolygon","coordinates":[[[[-45.2015,-15.68831],[-45.15929,-15.72888],[-45.08235,-15.6699],[-45.07247,-15.65251],[-45.10984,-15.60907],[-45.1218,-15.6261],[-45.18,-15.6664],[-45.2015,-15.68831]]]]}},{"type":"Feature","properties":{"territory_id":"mg-3161106-zona-rural-de-granja-primavera","name":"Zona Rural de Granja Primavera","municipality_id":"mg-3161106","polling_places":1,"approx":true,"official":false,"method":"voronoi-polling-places","whole_municipality":false,"approx_coords_only":false},"geometry":{"type":"MultiPolygon","coordinates":[[[[-44.86128,-15.85569],[-44.85151,-15.89604],[-44.80104,-15.95154],[-44.74772,-15.92537],[-44.79518,-15.86874],[-44.81959,-15.8581],[-44.85989,-15.85362],[-44.86128,-15.85569]]]]}},{"type":"Feature","properties":{"territory_id":"mg-3161106-zona-rural-de-jardim","name":"Zona Rural de Jardim","municipality_id":"mg-3161106","polling_places":1,"approx":true,"official":false,"method":"voronoi-polling-places","whole_municipality":false,"approx_coords_only":false},"geometry":{"type":"MultiPolygon","coordinates":[[[[-45.06292,-16.09841],[-44.95325,-16.14188],[-44.94241,-16.10527],[-45.00503,-16.07883],[-45.06292,-16.09841]]]]}},{"type":"Feature","properties":{"territory_id":"mg-3161106-zona-rural-de-jenipapo","name":"Zona Rural de Jenipapo","municipality_id":"mg-3161106","polling_places":1,"approx":true,"official":false,"method":"voronoi-polling-places","whole_municipality":false,"approx_coords_only":false},"geometry":{"type":"MultiPolygon","coordinates":[[[[-44.87966,-16.05255],[-44.86201,-16.07969],[-44.82644,-16.08277],[-44.83441,-16.03353],[-44.87966,-16.05255]]]]}},{"type":"Feature","properties":{"territory_id":"mg-3161106-zona-rural-de-lagoa-das-canoas","name":"Zona Rural de Lagoa das Canoas","municipality_id":"mg-3161106","polling_places":1,"approx":true,"official":false,"method":"voronoi-polling-places","whole_municipality":false,"approx_coords_only":false},"geometry":{"type":"MultiPolygon","coordinates":[[[[-44.95325,-16.14188],[-44.95167,-16.15604],[-44.8618,-16.13053],[-44.87143,-16.117],[-44.93217,-16.09149],[-44.94241,-16.10527],[-44.95325,-16.14188]]]]}},{"type":"Feature","properties":{"territory_id":"mg-3161106-zona-rural-de-lajedo","name":"Zona Rural de Lajedo","municipality_id":"mg-3161106","polling_places":1,"approx":true,"official":false,"method":"voronoi-polling-places","whole_municipality":false,"approx_coords_only":false},"geometry":{"type":"MultiPolygon","coordinates":[[[[-44.86702,-15.72978],[-44.85989,-15.85362],[-44.81959,-15.8581],[-44.75495,-15.79515],[-44.7786,-15.8074],[-44.7974,-15.7724],[-44.8585,-15.7349],[-44.86589,-15.72751],[-44.86702,-15.72978]]]]}},{"type":"Feature","properties":{"territory_id":"mg-3161106-zona-rural-de-limeira","name":"Zona Rural de Limeira","municipality_id":"mg-3161106","polling_places":1,"approx":true,"official":false,"method":"voronoi-polling-places","whole_municipality":false,"approx_coords_only":false},"geometry":{"type":"MultiPolygon","coordinates":[[[[-44.6673,-15.85804],[-44.64855,-15.86929],[-44.59414,-15.85908],[-44.6139,-15.8355],[-44.6526,-15.8256],[-44.66458,-15.8062],[-44.6673,-15.85804]]]]}},{"type":"Feature","properties":{"territory_id":"mg-3161106-zona-rural-de-papamel","name":"Zona Rural de Papamel","municipality_id":"mg-3161106","polling_places":1,"approx":true,"official":false,"method":"voronoi-polling-places","whole_municipality":false,"approx_coords_only":false},"geometry":{"type":"MultiPolygon","coordinates":[[[[-45.10984,-15.60907],[-45.07247,-15.65251],[-45.03175,-15.63035],[-45.05383,-15.56383],[-45.0942,-15.5868],[-45.10984,-15.60907]]]]}},{"type":"Feature","properties":{"territory_id":"mg-3161106-zona-rural-de-pau-d-oleo","name":"Zona Rural de Pau D'óleo","municipality_id":"mg-3161106","polling_places":1,"approx":true,"official":false,"method":"voronoi-polling-places","whole_municipality":false,"approx_coords_only":false},"geometry":{"type":"MultiPolygon","coordinates":[[[[-45.08235,-15.6699],[-45.0666,-15.68404],[-44.99495,-15.6893],[-44.96504,-15.64585],[-45.03175,-15.63035],[-45.07247,-15.65251],[-45.08235,-15.6699]]]]}},{"type":"Feature","properties":{"territory_id":"mg-3161106-zona-rural-de-pinhaozeiro","name":"Zona Rural de Pinhãozeiro","municipality_id":"mg-3161106","polling_places":1,"approx":true,"official":false,"method":"voronoi-polling-places","whole_municipality":false,"approx_coords_only":false},"geometry":{"type":"MultiPolygon","coordinates":[[[[-44.95918,-15.89394],[-44.91334,-15.93945],[-44.8812,-15.94218],[-44.88118,-15.94216],[-44.86409,-15.92318],[-44.86184,-15.92006],[-44.85151,-15.89604],[-44.86128,-15.85569],[-44.95918,-15.89394]]]]}},{"type":"Feature","properties":{"territory_id":"mg-3161106-zona-rural-de-porto-velho","name":"Zona Rural de Porto Velho","municipality_id":"mg-3161106","polling_places":1,"approx":true,"official":false,"method":"voronoi-polling-places","whole_municipality":false,"approx_coords_only":false},"geometry":{"type":"MultiPolygon","coordinates":[[[[-44.91334,-15.93945],[-44.90296,-15.99891],[-44.89897,-15.99732],[-44.88021,-15.9636],[-44.87899,-15.95304],[-44.8812,-15.94218],[-44.91334,-15.93945]]]]}},{"type":"Feature","properties":{"territory_id":"mg-3161106-zona-rural-de-primavera","name":"Zona Rural de Primavera","municipality_id":"mg-3161106","polling_places":1,"approx":true,"official":false,"method":"voronoi-polling-places","whole_municipality":false,"approx_coords_only":false},"geometry":{"type":"MultiPolygon","coordinates":[[[[-45.03037,-15.81447],[-44.86702,-15.72978],[-44.86589,-15.72751],[-44.95065,-15.64275],[-44.96504,-15.64585],[-44.99495,-15.6893],[-45.02009,-15.72594],[-45.03037,-15.81447]]]]}},{"type":"Feature","properties":{"territory_id":"mg-3161106-zona-rural-de-quatis","name":"Zona Rural de Quatis","municipality_id":"mg-3161106","polling_places":1,"approx":true,"official":false,"method":"voronoi-polling-places","whole_municipality":false,"approx_coords_only":false},"geometry":{"type":"MultiPolygon","coordinates":[[[[-44.76962,-16.07274],[-44.74594,-16.14104],[-44.68603,-16.10075],[-44.70219,-16.08375],[-44.76962,-16.07274]]],[[[-44.66251,-16.1255],[-44.6596,-16.1339],[-44.65651,-16.13182],[-44.66251,-16.1255]]]]}},{"type":"Feature","properties":{"territory_id":"mg-3161106-zona-rural-de-retiro-do-morro","name":"Zona Rural de Retiro do Morro","municipality_id":"mg-3161106","polling_places":1,"approx":true,"official":false,"method":"voronoi-polling-places","whole_municipality":false,"approx_coords_only":false},"geometry":{"type":"MultiPolygon","coordinates":[[[[-44.77689,-16.03003],[-44.77241,-16.07111],[-44.76962,-16.07274],[-44.70219,-16.08375],[-44.71502,-16.00656],[-44.72044,-16.00378],[-44.77689,-16.03003]]]]}},{"type":"Feature","properties":{"territory_id":"mg-3161106-zona-rural-de-ribeirao","name":"Zona Rural de Ribeirão","municipality_id":"mg-3161106","polling_places":1,"approx":true,"official":false,"method":"voronoi-polling-places","whole_municipality":false,"approx_coords_only":false},"geometry":{"type":"MultiPolygon","coordinates":[[[[-44.55862,-16.00718],[-44.53589,-16.07542],[-44.5078,-16.0709],[-44.4978,-16.0581],[-44.4965,-16.0206],[-44.4759,-15.9936],[-44.47039,-15.99114],[-44.55862,-16.00718]]]]}},{"type":"Feature","properties":{"territory_id":"mg-3161106-zona-rural-de-santa-helena-corredor","name":"Zona Rural de Santa Helena/corredor","municipality_id":"mg-3161106","polling_places":1,"approx":true,"official":false,"method":"voronoi-polling-places","whole_municipality":false,"approx_coords_only":false},"geometry":{"type":"MultiPolygon","coordinates":[[[[-45.22217,-15.84442],[-45.1938,-15.852],[-45.1443,-15.8996],[-45.13668,-15.9206],[-45.03498,-15.86806],[-45.03636,-15.82192],[-45.15849,-15.7316],[-45.22217,-15.84442]]]]}},{"type":"Feature","properties":{"territory_id":"mg-3161106-zona-rural-de-santa-lucilia-tamandua","name":"Zona Rural de Santa Lucília/tamanduá","municipality_id":"mg-3161106","polling_places":1,"approx":true,"official":false,"method":"voronoi-polling-places","whole_municipality":false,"approx_coords_only":false},"geometry":{"type":"MultiPolygon","coordinates":[[[[-45.15929,-15.72888],[-45.15849,-15.7316],[-45.03636,-15.82192],[-45.03037,-15.81447],[-45.02009,-15.72594],[-45.0666,-15.68404],[-45.08235,-15.6699],[-45.15929,-15.72888]]]]}},{"type":"Feature","properties":{"territory_id":"mg-3161106-zona-rural-de-santa-rita","name":"Zona Rural de Santa Rita","municipality_id":"mg-3161106","polling_places":1,"approx":true,"official":false,"method":"voronoi-polling-places","whole_municipality":false,"approx_coords_only":false},"geometry":{"type":"MultiPolygon","coordinates":[[[[-44.66614,-16.00081],[-44.62017,-16.04639],[-44.56681,-16.00542],[-44.58958,-15.94771],[-44.64679,-15.94451],[-44.66614,-16.00081]]]]}},{"type":"Feature","properties":{"territory_id":"mg-3161106-zona-rural-de-sao-domingos","name":"Zona Rural de São Domingos","municipality_id":"mg-3161106","polling_places":1,"approx":true,"official":false,"method":"voronoi-polling-places","whole_municipality":false,"approx_coords_only":false},"geometry":{"type":"MultiPolygon","coordinates":[[[[-44.81959,-15.8581],[-44.79518,-15.86874],[-44.73613,-15.82939],[-44.74341,-15.78917],[-44.75495,-15.79515],[-44.81959,-15.8581]]]]}},{"type":"Feature","properties":{"territory_id":"mg-3161106-zona-rural-de-sao-martinho","name":"Zona Rural de São Martinho","municipality_id":"mg-3161106","polling_places":1,"approx":true,"official":false,"method":"voronoi-polling-places","whole_municipality":false,"approx_coords_only":false},"geometry":{"type":"MultiPolygon","coordinates":[[[[-45.05383,-15.56383],[-45.03175,-15.63035],[-44.96504,-15.64585],[-44.95065,-15.64275],[-44.982,-15.6114],[-45.016,-15.5639],[-45.0362,-15.5538],[-45.05383,-15.56383]]]]}},{"type":"Feature","properties":{"territory_id":"mg-3161106-zona-rural-de-tabocas","name":"Zona Rural de Tabocas","municipality_id":"mg-3161106","polling_places":1,"approx":true,"official":false,"method":"voronoi-polling-places","whole_municipality":false,"approx_coords_only":false},"geometry":{"type":"MultiPolygon","coordinates":[[[[-44.58887,-15.86537],[-44.57065,-15.91424],[-44.41337,-15.91256],[-44.4198,-15.8598],[-44.4386,-15.8511],[-44.4901,-15.7995],[-44.5427,-15.785],[-44.5564,-15.7956],[-44.5629,-15.8553],[-44.5772,-15.8793],[-44.58887,-15.86537]]]]}},{"type":"Feature","properties":{"territory_id":"mg-3161106-zona-rural-de-taboquinha-da-tapera","name":"Zona Rural de Taboquinha da Tapera","municipality_id":"mg-3161106","polling_places":1,"approx":true,"official":false,"method":"voronoi-polling-places","whole_municipality":false,"approx_coords_only":false},"geometry":{"type":"MultiPolygon","coordinates":[[[[-44.65253,-15.93747],[-44.64679,-15.94451],[-44.58958,-15.94771],[-44.57065,-15.91424],[-44.58887,-15.86537],[-44.59414,-15.85908],[-44.64855,-15.86929],[-44.65253,-15.93747]]]]}},{"type":"Feature","properties":{"territory_id":"mg-3161106-zona-rural-de-tabuado","name":"Zona Rural de Tabuado","municipality_id":"mg-3161106","polling_places":1,"approx":true,"official":false,"method":"voronoi-polling-places","whole_municipality":false,"approx_coords_only":false},"geometry":{"type":"MultiPolygon","coordinates":[[[[-44.90976,-16.04622],[-44.87966,-16.05255],[-44.83441,-16.03353],[-44.81484,-16.0075],[-44.81636,-16.00324],[-44.85642,-15.99379],[-44.89897,-15.99732],[-44.90296,-15.99891],[-44.90649,-16.00292],[-44.90976,-16.04622]]]]}},{"type":"Feature","properties":{"territory_id":"mg-3161106-zona-rural-de-vargem-de-casa","name":"Zona Rural de Vargem de Casa","municipality_id":"mg-3161106","polling_places":1,"approx":true,"official":false,"method":"voronoi-polling-places","whole_municipality":false,"approx_coords_only":false},"geometry":{"type":"MultiPolygon","coordinates":[[[[-44.81995,-16.15037],[-44.8107,-16.1558],[-44.7743,-16.1601],[-44.74594,-16.14104],[-44.76962,-16.07274],[-44.77241,-16.07111],[-44.80944,-16.10062],[-44.81995,-16.15037]]]]}},{"type":"Feature","properties":{"territory_id":"mg-3161106-zona-rural-de-vargem-redonda-belmonte","name":"Zona Rural de Vargem Redonda/belmonte","municipality_id":"mg-3161106","polling_places":1,"approx":true,"official":false,"method":"voronoi-polling-places","whole_municipality":false,"approx_coords_only":false},"geometry":{"type":"MultiPolygon","coordinates":[[[[-45.0796,-16.1217],[-45.0496,-16.144],[-44.9762,-16.163],[-44.95167,-16.15604],[-44.95325,-16.14188],[-45.06292,-16.09841],[-45.07469,-16.09855],[-45.0796,-16.1217]]]]}},{"type":"Feature","properties":{"territory_id":"mg-3161106-zona-rural-de-vereda-d-antas","name":"Zona Rural de Vereda D'antas","municipality_id":"mg-3161106","polling_places":1,"approx":true,"official":false,"method":"voronoi-polling-places","whole_municipality":false,"approx_coords_only":false},"geometry":{"type":"MultiPolygon","coordinates":[[[[-45.2575,-15.7454],[-45.2256,-15.8435],[-45.22217,-15.84442],[-45.15849,-15.7316],[-45.15929,-15.72888],[-45.2015,-15.68831],[-45.2575,-15.7454]]]]}}]}