{"type":"FeatureCollection","features":[{"type":"Feature","properties":{"territory_id":"mg-3161601-centro","name":"Centro","municipality_id":"mg-3161601","polling_places":2,"approx":true,"official":false,"method":"voronoi-polling-places","whole_municipality":true,"approx_coords_only":false},"geometry":{"type":"MultiPolygon","coordinates":[[[[-42.2771,-18.972],[-42.2625,-18.9418],[-42.261,-18.8993],[-42.2739,-18.8744],[-42.2732,-18.8247],[-42.3031,-18.806],[-42.327,-18.8183],[-42.3472,-18.8427],[-42.3459,-18.8802],[-42.3621,-18.9257],[-42.355,-18.9607],[-42.2771,-18.972]]]]}}]}