{"type":"FeatureCollection","features":[{"type":"Feature","properties":{"territory_id":"mg-3161205-centro","name":"Centro","municipality_id":"mg-3161205","polling_places":2,"approx":true,"official":false,"method":"voronoi-polling-places","whole_municipality":false,"approx_coords_only":false},"geometry":{"type":"MultiPolygon","coordinates":[[[[-44.9941,-20.66839],[-44.99073,-20.69812],[-44.99006,-20.71052],[-44.98226,-20.71338],[-44.98271,-20.712],[-44.98889,-20.66787],[-44.9941,-20.66839]]]]}},{"type":"Feature","properties":{"territory_id":"mg-3161205-sao-sebastiao","name":"São Sebastião","municipality_id":"mg-3161205","polling_places":1,"approx":true,"official":false,"method":"voronoi-polling-places","whole_municipality":false,"approx_coords_only":false},"geometry":{"type":"MultiPolygon","coordinates":[[[[-45.05924,-20.80478],[-45.0565,-20.8169],[-45.0392,-20.8093],[-44.9613,-20.8092],[-44.9056,-20.7946],[-44.90431,-20.77094],[-44.98226,-20.71338],[-44.99006,-20.71052],[-45.05924,-20.80478]]]]}},{"type":"Feature","properties":{"territory_id":"mg-3161205-zona-rural","name":"Zona Rural","municipality_id":"mg-3161205","polling_places":8,"approx":true,"official":false,"method":"voronoi-polling-places","whole_municipality":false,"approx_coords_only":false},"geometry":{"type":"MultiPolygon","coordinates":[[[[-45.0852,-20.7443],[-45.0687,-20.7629],[-45.05924,-20.80478],[-44.99006,-20.71052],[-44.99073,-20.69812],[-44.9941,-20.66839],[-44.98889,-20.66787],[-44.98271,-20.712],[-44.98226,-20.71338],[-44.90431,-20.77094],[-44.9036,-20.7578],[-44.9383,-20.7355],[-44.9285,-20.6624],[-44.9412,-20.633],[-44.9592,-20.6103],[-44.9991,-20.5932],[-45.0119,-20.5703],[-45.0185,-20.6191],[-45.0462,-20.6329],[-45.0614,-20.6944],[-45.0852,-20.7443]]]]}}]}