{"type":"FeatureCollection","features":[{"type":"Feature","properties":{"territory_id":"mg-3161403-centro","name":"Centro","municipality_id":"mg-3161403","polling_places":3,"approx":true,"official":false,"method":"voronoi-polling-places","whole_municipality":true,"approx_coords_only":false},"geometry":{"type":"MultiPolygon","coordinates":[[[[-42.2013,-20.8159],[-42.2179,-20.7925],[-42.2059,-20.7633],[-42.2472,-20.7371],[-42.2947,-20.7356],[-42.3614,-20.7777],[-42.3521,-20.8215],[-42.3019,-20.8617],[-42.2598,-20.8421],[-42.21,-20.8223],[-42.2013,-20.8159]]]]}}]}