{"type":"FeatureCollection","features":[{"type":"Feature","properties":{"territory_id":"mg-3162500-alto-das-merces","name":"Alto das Merces","municipality_id":"mg-3162500","polling_places":1,"approx":true,"official":false,"method":"voronoi-polling-places","whole_municipality":false,"approx_coords_only":false},"geometry":{"type":"MultiPolygon","coordinates":[[[[-44.30343,-21.11583],[-44.29947,-21.13272],[-44.2986,-21.13641],[-44.28607,-21.13704],[-44.28594,-21.13529],[-44.28583,-21.13437],[-44.28594,-21.13381],[-44.28593,-21.13334],[-44.2856,-21.13309],[-44.2852,-21.13303],[-44.28497,-21.13302],[-44.28478,-21.13309],[-44.28463,-21.13322],[-44.28434,-21.13335],[-44.28412,-21.13331],[-44.28389,-21.13318],[-44.28364,-21.13311],[-44.28357,-21.13322],[-44.28343,-21.13327],[-44.28333,-21.13319],[-44.28337,-21.13297],[-44.28348,-21.1327],[-44.28369,-21.13246],[-44.28385,-21.13219],[-44.28401,-21.13202],[-44.28401,-21.13185],[-44.2839,-21.13168],[-44.28372,-21.13152],[-44.28346,-21.13138],[-44.28317,-21.13151],[-44.28309,-21.13166],[-44.28307,-21.13188],[-44.28298,-21.132],[-44.28297,-21.13216],[-44.28281,-21.1323],[-44.28261,-21.13244],[-44.28238,-21.13256],[-44.28209,-21.13278],[-44.28187,-21.13292],[-44.28172,-21.13309],[-44.28152,-21.13315],[-44.28131,-21.13314],[-44.28103,-21.13323],[-44.28058,-21.13329],[-44.28033,-21.13336],[-44.28006,-21.13346],[-44.27986,-21.13346],[-44.27961,-21.13341],[-44.27941,-21.13331],[-44.27919,-21.13326],[-44.27891,-21.13328],[-44.2787,-21.13334],[-44.27847,-21.1332],[-44.27821,-21.13315],[-44.27771,-21.13315],[-44.27767,-21.13301],[-44.2777,-21.13292],[-44.27765,-21.1328],[-44.27754,-21.13275],[-44.27738,-21.13272],[-44.277,-21.13256],[-44.27689,-21.13239],[-44.27673,-21.13231],[-44.27671,-21.13217],[-44.27663,-21.13202],[-44.27657,-21.13197],[-44.27641,-21.13198],[-44.27617,-21.13207],[-44.27595,-21.13209],[-44.27569,-21.13208],[-44.27547,-21.13203],[-44.27526,-21.13202],[-44.275,-21.13192],[-44.27464,-21.13188],[-44.27439,-21.1321],[-44.27415,-21.13228],[-44.27382,-21.13232],[-44.27351,-21.13254],[-44.27316,-21.13269],[-44.27296,-21.13258],[-44.27268,-21.1327],[-44.27248,-21.13277],[-44.27197,-21.13269],[-44.27172,-21.13275],[-44.27154,-21.13262],[-44.27131,-21.13215],[-44.27128,-21.13183],[-44.27129,-21.13152],[-44.27137,-21.13118],[-44.27128,-21.13094],[-44.27113,-21.13081],[-44.27097,-21.13061],[-44.27079,-21.13049],[-44.27057,-21.13051],[-44.2701,-21.13049],[-44.26991,-21.13045],[-44.26971,-21.13023],[-44.26945,-21.13009],[-44.26941,-21.13002],[-44.26939,-21.12988],[-44.26932,-21.12987],[-44.26914,-21.12991],[-44.26906,-21.12989],[-44.269,-21.1298],[-44.26901,-21.12972],[-44.26898,-21.12963],[-44.26891,-21.12955],[-44.26911,-21.12938],[-44.26915,-21.12924],[-44.26916,-21.12909],[-44.26909,-21.12899],[-44.26901,-21.12896],[-44.26877,-21.12893],[-44.26877,-21.12902],[-44.26878,-21.12878],[-44.26871,-21.12863],[-44.26861,-21.12849],[-44.26844,-21.12844],[-44.26834,-21.12835],[-44.26834,-21.12822],[-44.26831,-21.12796],[-44.26833,-21.12784],[-44.26822,-21.12771],[-44.26814,-21.12765],[-44.26809,-21.12724],[-44.26806,-21.12711],[-44.2679,-21.12686],[-44.26788,-21.12669],[-44.26783,-21.1265],[-44.26775,-21.12641],[-44.26769,-21.12626],[-44.26769,-21.12609],[-44.26765,-21.12592],[-44.26752,-21.12579],[-44.2675,-21.12567],[-44.26759,-21.12561],[-44.26763,-21.12554],[-44.26759,-21.12535],[-44.26754,-21.12517],[-44.26749,-21.12506],[-44.2861,-21.10391],[-44.29623,-21.09798],[-44.30343,-21.11583]]],[[[-44.26635,-21.13271],[-44.26628,-21.13307],[-44.26632,-21.13289],[-44.26635,-21.13271]]]]}},{"type":"Feature","properties":{"territory_id":"mg-3162500-bela-vista","name":"Bela Vista","municipality_id":"mg-3162500","polling_places":1,"approx":true,"official":false,"method":"voronoi-polling-places","whole_municipality":false,"approx_coords_only":false},"geometry":{"type":"MultiPolygon","coordinates":[[[[-44.25456,-21.1342],[-44.25291,-21.1357],[-44.25211,-21.13637],[-44.25211,-21.13638],[-44.249,-21.13124],[-44.24969,-21.13022],[-44.25011,-21.13081],[-44.25076,-21.13132],[-44.25061,-21.13173],[-44.25108,-21.13187],[-44.25153,-21.13196],[-44.25181,-21.13206],[-44.25207,-21.13221],[-44.25226,-21.13238],[-44.25236,-21.13254],[-44.25265,-21.13302],[-44.25266,-21.13315],[-44.25301,-21.13335],[-44.25361,-21.13377],[-44.25408,-21.13407],[-44.25456,-21.1342]]],[[[-44.25422,-21.12677],[-44.2538,-21.12702],[-44.25394,-21.12693],[-44.25422,-21.12677]]]]}},{"type":"Feature","properties":{"territory_id":"mg-3162500-bonfim","name":"Bonfim","municipality_id":"mg-3162500","polling_places":2,"approx":false,"official":true,"method":"official-ibge-cd2022","whole_municipality":false,"approx_coords_only":false,"official_name":"Bonfim","official_code":"3162500007","match":"direct"},"geometry":{"type":"MultiPolygon","coordinates":[[[[-44.25748,-21.14126],[-44.25763,-21.14053],[-44.25736,-21.14046],[-44.25727,-21.14042],[-44.25678,-21.14007],[-44.25659,-21.14086],[-44.25651,-21.14083],[-44.25613,-21.14056],[-44.2558,-21.13979],[-44.25544,-21.1393],[-44.25501,-21.13887],[-44.25491,-21.13884],[-44.25481,-21.13869],[-44.25475,-21.13871],[-44.25456,-21.13891],[-44.25427,-21.13906],[-44.25386,-21.13925],[-44.25349,-21.13939],[-44.25325,-21.13938],[-44.25281,-21.13931],[-44.25256,-21.13929],[-44.25191,-21.13933],[-44.25181,-21.1393],[-44.25165,-21.13884],[-44.25135,-21.13852],[-44.25116,-21.13827],[-44.25013,-21.13919],[-44.24961,-21.13871],[-44.25028,-21.13808],[-44.25031,-21.13798],[-44.24961,-21.13817],[-44.24859,-21.1384],[-44.2479,-21.1386],[-44.24745,-21.13883],[-44.24702,-21.1391],[-44.24645,-21.1395],[-44.24619,-21.13971],[-44.24596,-21.13994],[-44.24588,-21.14006],[-44.24583,-21.14019],[-44.24581,-21.14033],[-44.24585,-21.14061],[-44.2459,-21.14079],[-44.24598,-21.14095],[-44.24621,-21.14129],[-44.24639,-21.14149],[-44.24666,-21.14175],[-44.24674,-21.14184],[-44.24676,-21.14192],[-44.24683,-21.14223],[-44.24682,-21.14263],[-44.24675,-21.14295],[-44.24665,-21.14316],[-44.24654,-21.14334],[-44.24638,-21.14355],[-44.24397,-21.14568],[-44.24363,-21.14601],[-44.24321,-21.14648],[-44.24309,-21.14667],[-44.2424,-21.148],[-44.24212,-21.14862],[-44.24203,-21.14936],[-44.24002,-21.14931],[-44.23968,-21.14985],[-44.23962,-21.15011],[-44.23991,-21.15006],[-44.2403,-21.15008],[-44.2405,-21.15046],[-44.24037,-21.15076],[-44.24016,-21.15082],[-44.23987,-21.151],[-44.23964,-21.15128],[-44.24012,-21.15187],[-44.24032,-21.15221],[-44.24033,-21.15241],[-44.24014,-21.1525],[-44.23986,-21.15247],[-44.23967,-21.15237],[-44.23951,-21.15218],[-44.23934,-21.15214],[-44.23925,-21.15247],[-44.23931,-21.15288],[-44.23952,-21.15318],[-44.23982,-21.15333],[-44.24021,-21.15345],[-44.24033,-21.15365],[-44.24031,-21.15397],[-44.24034,-21.15417],[-44.24067,-21.15413],[-44.24091,-21.15419],[-44.24096,-21.15445],[-44.24111,-21.15478],[-44.24136,-21.15503],[-44.24167,-21.15518],[-44.24194,-21.15517],[-44.24245,-21.15518],[-44.24307,-21.15528],[-44.24334,-21.15553],[-44.24379,-21.15561],[-44.24417,-21.15565],[-44.24443,-21.15573],[-44.24475,-21.15597],[-44.24491,-21.15623],[-44.24506,-21.15641],[-44.24616,-21.15698],[-44.2466,-21.15716],[-44.24697,-21.15704],[-44.24734,-21.15722],[-44.24731,-21.15749],[-44.24768,-21.15761],[-44.24789,-21.15775],[-44.24812,-21.15792],[-44.24837,-21.15804],[-44.24865,-21.1581],[-44.24884,-21.158],[-44.24883,-21.15784],[-44.2492,-21.15763],[-44.24951,-21.15765],[-44.24977,-21.15775],[-44.25011,-21.15765],[-44.25051,-21.15764],[-44.25075,-21.15755],[-44.25119,-21.15748],[-44.25156,-21.15738],[-44.2519,-21.15733],[-44.25216,-21.15726],[-44.25239,-21.15714],[-44.25264,-21.15688],[-44.25283,-21.15691],[-44.25314,-21.15686],[-44.25337,-21.15669],[-44.25343,-21.15636],[-44.25358,-21.15604],[-44.25359,-21.15563],[-44.2539,-21.15457],[-44.25393,-21.15426],[-44.25387,-21.15362],[-44.25432,-21.15372],[-44.25459,-21.15386],[-44.25471,-21.15398],[-44.25484,-21.15389],[-44.25507,-21.15396],[-44.25529,-21.15396],[-44.25542,-21.15406],[-44.2557,-21.15524],[-44.25504,-21.15538],[-44.25511,-21.15591],[-44.25509,-21.15616],[-44.25513,-21.15648],[-44.25535,-21.15675],[-44.25563,-21.15691],[-44.2565,-21.15726],[-44.25667,-21.15744],[-44.25675,-21.15769],[-44.25674,-21.15868],[-44.25677,-21.1594],[-44.25663,-21.15963],[-44.25649,-21.15976],[-44.25649,-21.16007],[-44.25657,-21.16028],[-44.25674,-21.16051],[-44.25677,-21.16067],[-44.25669,-21.16089],[-44.25644,-21.16121],[-44.25567,-21.16208],[-44.25551,-21.16233],[-44.2553,-21.16299],[-44.25508,-21.16334],[-44.25469,-21.16357],[-44.25439,-21.16381],[-44.25431,-21.16391],[-44.25417,-21.16418],[-44.25394,-21.16498],[-44.25377,-21.16539],[-44.25366,-21.16552],[-44.25319,-21.16596],[-44.25294,-21.16621],[-44.25282,-21.16643],[-44.25278,-21.16663],[-44.25304,-21.16668],[-44.25328,-21.16676],[-44.25366,-21.16678],[-44.25426,-21.16679],[-44.25458,-21.1667],[-44.25466,-21.16672],[-44.2549,-21.16684],[-44.25504,-21.16696],[-44.25512,-21.16705],[-44.25528,-21.16709],[-44.25537,-21.16712],[-44.25537,-21.16721],[-44.25555,-21.16739],[-44.25563,-21.16744],[-44.25576,-21.16744],[-44.25595,-21.16759],[-44.25604,-21.1677],[-44.25613,-21.16786],[-44.25625,-21.16799],[-44.25637,-21.1681],[-44.25661,-21.16808],[-44.25709,-21.16785],[-44.25737,-21.1678],[-44.25755,-21.16774],[-44.25774,-21.16771],[-44.25798,-21.1677],[-44.25817,-21.16767],[-44.25832,-21.16762],[-44.25858,-21.16746],[-44.25893,-21.16706],[-44.25912,-21.16698],[-44.25959,-21.16685],[-44.25976,-21.16676],[-44.26004,-21.16657],[-44.26017,-21.16651],[-44.26035,-21.16635],[-44.2605,-21.16629],[-44.26081,-21.16627],[-44.26094,-21.16624],[-44.261,-21.16613],[-44.26101,-21.16602],[-44.26098,-21.1659],[-44.26101,-21.16579],[-44.26114,-21.16566],[-44.26131,-21.16559],[-44.26171,-21.16533],[-44.262,-21.16526],[-44.26242,-21.1652],[-44.26255,-21.16511],[-44.26263,-21.16496],[-44.26273,-21.16484],[-44.26281,-21.16466],[-44.26289,-21.16453],[-44.26291,-21.16442],[-44.26286,-21.16404],[-44.2629,-21.16392],[-44.26303,-21.1638],[-44.26334,-21.16359],[-44.2636,-21.16324],[-44.26366,-21.16312],[-44.26364,-21.16296],[-44.2637,-21.16287],[-44.26382,-21.1628],[-44.26468,-21.16246],[-44.2648,-21.16234],[-44.26497,-21.1618],[-44.26493,-21.16164],[-44.26501,-21.16153],[-44.26506,-21.16142],[-44.26506,-21.16131],[-44.26501,-21.16117],[-44.26476,-21.16078],[-44.26477,-21.16071],[-44.2649,-21.16066],[-44.26511,-21.16066],[-44.26525,-21.16075],[-44.2658,-21.16098],[-44.26607,-21.16101],[-44.26626,-21.16096],[-44.26638,-21.16081],[-44.26636,-21.16056],[-44.26614,-21.16044],[-44.26602,-21.16009],[-44.26599,-21.15978],[-44.26591,-21.15945],[-44.26613,-21.15924],[-44.26627,-21.15894],[-44.26642,-21.15815],[-44.26655,-21.15786],[-44.26678,-21.15706],[-44.26684,-21.15634],[-44.26697,-21.15564],[-44.26652,-21.15476],[-44.26637,-21.15459],[-44.26627,-21.15436],[-44.26606,-21.15378],[-44.26593,-21.15355],[-44.26519,-21.15262],[-44.2648,-21.15235],[-44.26405,-21.1522],[-44.26312,-21.15212],[-44.26293,-21.15208],[-44.26279,-21.15196],[-44.26256,-21.15162],[-44.26262,-21.15125],[-44.26272,-21.15088],[-44.26301,-21.15067],[-44.26322,-21.15038],[-44.26355,-21.1498],[-44.26352,-21.14941],[-44.26328,-21.14934],[-44.26272,-21.1497],[-44.26233,-21.14955],[-44.26216,-21.1493],[-44.26213,-21.14887],[-44.2625,-21.14871],[-44.26251,-21.14855],[-44.26247,-21.14836],[-44.26216,-21.14832],[-44.26207,-21.148],[-44.26185,-21.14743],[-44.26193,-21.14652],[-44.26196,-21.14593],[-44.26214,-21.14561],[-44.26248,-21.14526],[-44.26286,-21.14489],[-44.26401,-21.14345],[-44.26409,-21.14332],[-44.26417,-21.1431],[-44.26411,-21.14281],[-44.26378,-21.14271],[-44.26347,-21.14264],[-44.26311,-21.14266],[-44.26303,-21.14264],[-44.26307,-21.14268],[-44.2631,-21.14276],[-44.2631,-21.14285],[-44.26299,-21.14291],[-44.2628,-21.14304],[-44.26265,-21.14312],[-44.26253,-21.14313],[-44.26209,-21.14303],[-44.26185,-21.14295],[-44.26148,-21.14253],[-44.26138,-21.14237],[-44.26099,-21.14188],[-44.26078,-21.14168],[-44.25997,-21.14081],[-44.25923,-21.13994],[-44.25832,-21.14067],[-44.25774,-21.1411],[-44.25748,-21.14126]]]]}},{"type":"Feature","properties":{"territory_id":"mg-3162500-centro","name":"Centro","municipality_id":"mg-3162500","polling_places":7,"approx":false,"official":true,"method":"official-ibge-cd2022","whole_municipality":false,"approx_coords_only":false,"official_name":"Centro","official_code":"3162500001","match":"direct"},"geometry":{"type":"MultiPolygon","coordinates":[[[[-44.26292,-21.13094],[-44.26284,-21.13097],[-44.26277,-21.13097],[-44.26242,-21.13104],[-44.26221,-21.13105],[-44.26146,-21.13086],[-44.26112,-21.13085],[-44.26066,-21.13082],[-44.25904,-21.1306],[-44.25859,-21.13068],[-44.25822,-21.13067],[-44.25754,-21.1306],[-44.25723,-21.13063],[-44.25706,-21.13062],[-44.2573,-21.13042],[-44.25641,-21.12992],[-44.25594,-21.12968],[-44.25599,-21.12942],[-44.25632,-21.12877],[-44.25591,-21.12864],[-44.25578,-21.12862],[-44.25559,-21.12861],[-44.25495,-21.12865],[-44.25471,-21.12869],[-44.25329,-21.12859],[-44.25303,-21.12854],[-44.25302,-21.12844],[-44.25283,-21.12844],[-44.25216,-21.12879],[-44.25201,-21.1291],[-44.252,-21.1293],[-44.25156,-21.12904],[-44.25153,-21.12893],[-44.25052,-21.12936],[-44.25077,-21.12986],[-44.2509,-21.13002],[-44.25083,-21.1302],[-44.25082,-21.1303],[-44.251,-21.13078],[-44.25111,-21.13124],[-44.25087,-21.13121],[-44.25081,-21.13119],[-44.25061,-21.13173],[-44.25108,-21.13187],[-44.25153,-21.13196],[-44.25181,-21.13206],[-44.25207,-21.13221],[-44.25226,-21.13238],[-44.25236,-21.13254],[-44.25265,-21.13302],[-44.25266,-21.13315],[-44.25301,-21.13335],[-44.25361,-21.13377],[-44.25408,-21.13407],[-44.25456,-21.1342],[-44.25291,-21.1357],[-44.25211,-21.13637],[-44.25122,-21.13719],[-44.25063,-21.13768],[-44.25031,-21.13798],[-44.25028,-21.13808],[-44.24961,-21.13871],[-44.25013,-21.13919],[-44.25116,-21.13827],[-44.25135,-21.13852],[-44.25165,-21.13884],[-44.25181,-21.1393],[-44.25191,-21.13933],[-44.25256,-21.13929],[-44.25281,-21.13931],[-44.25325,-21.13938],[-44.25349,-21.13939],[-44.25386,-21.13925],[-44.25427,-21.13906],[-44.25456,-21.13891],[-44.25475,-21.13871],[-44.25481,-21.13869],[-44.25491,-21.13884],[-44.25501,-21.13887],[-44.25544,-21.1393],[-44.2558,-21.13979],[-44.25613,-21.14056],[-44.25651,-21.14083],[-44.25659,-21.14086],[-44.25678,-21.14007],[-44.25727,-21.14042],[-44.25736,-21.14046],[-44.25763,-21.14053],[-44.25748,-21.14126],[-44.25774,-21.1411],[-44.25832,-21.14067],[-44.25923,-21.13994],[-44.25997,-21.14081],[-44.26078,-21.14168],[-44.26099,-21.14188],[-44.26138,-21.14237],[-44.26148,-21.14253],[-44.26175,-21.14284],[-44.26182,-21.14294],[-44.26193,-21.14299],[-44.26253,-21.14313],[-44.26265,-21.14312],[-44.2628,-21.14304],[-44.26299,-21.14291],[-44.2631,-21.14285],[-44.2631,-21.14276],[-44.26307,-21.14268],[-44.26282,-21.14248],[-44.26277,-21.14232],[-44.26284,-21.1422],[-44.26311,-21.14189],[-44.26318,-21.14171],[-44.26318,-21.14153],[-44.26301,-21.14129],[-44.26289,-21.1412],[-44.26279,-21.14108],[-44.26266,-21.14096],[-44.26175,-21.1403],[-44.2617,-21.14015],[-44.26166,-21.13986],[-44.26167,-21.13936],[-44.26179,-21.1391],[-44.26196,-21.13882],[-44.26217,-21.13864],[-44.26295,-21.13803],[-44.26303,-21.13795],[-44.26307,-21.13779],[-44.2633,-21.138],[-44.26403,-21.13823],[-44.2645,-21.13835],[-44.26457,-21.13815],[-44.26468,-21.1377],[-44.26472,-21.13719],[-44.26425,-21.13725],[-44.26395,-21.13718],[-44.26416,-21.13653],[-44.26426,-21.13657],[-44.26452,-21.13601],[-44.26497,-21.13616],[-44.26516,-21.13618],[-44.26548,-21.13618],[-44.2656,-21.13563],[-44.26555,-21.13531],[-44.26578,-21.13435],[-44.26597,-21.13381],[-44.26613,-21.13325],[-44.26623,-21.13316],[-44.26628,-21.13307],[-44.26632,-21.13289],[-44.26617,-21.13284],[-44.26593,-21.13281],[-44.2654,-21.13286],[-44.2648,-21.13297],[-44.26368,-21.13296],[-44.26358,-21.13294],[-44.2637,-21.13263],[-44.26377,-21.13252],[-44.26389,-21.13246],[-44.26408,-21.13243],[-44.26519,-21.13246],[-44.26542,-21.1324],[-44.26546,-21.13191],[-44.26527,-21.13184],[-44.26518,-21.13178],[-44.26503,-21.13173],[-44.26468,-21.13168],[-44.26454,-21.13146],[-44.26456,-21.13133],[-44.26454,-21.13128],[-44.2645,-21.13126],[-44.26348,-21.13103],[-44.26352,-21.13096],[-44.26347,-21.13079],[-44.26334,-21.13055],[-44.26303,-21.13078],[-44.26292,-21.13094]]]]}},{"type":"Feature","properties":{"territory_id":"mg-3162500-cohab","name":"Cohab","municipality_id":"mg-3162500","polling_places":2,"approx":true,"official":false,"method":"voronoi-polling-places","whole_municipality":false,"approx_coords_only":false},"geometry":{"type":"MultiPolygon","coordinates":[[[[-44.23433,-21.11998],[-44.23117,-21.12502],[-44.22807,-21.12577],[-44.2208,-21.1147],[-44.21754,-21.11486],[-44.21762,-21.11472],[-44.21728,-21.11454],[-44.21734,-21.11441],[-44.21754,-21.11433],[-44.21814,-21.11429],[-44.21841,-21.11433],[-44.21857,-21.11444],[-44.21874,-21.1144],[-44.21886,-21.11434],[-44.219,-21.11433],[-44.21924,-21.11446],[-44.21959,-21.11449],[-44.21965,-21.11461],[-44.22023,-21.11465],[-44.22055,-21.11464],[-44.22082,-21.1147],[-44.22105,-21.11489],[-44.22129,-21.115],[-44.22134,-21.11512],[-44.22226,-21.11586],[-44.2224,-21.11602],[-44.22249,-21.11616],[-44.22267,-21.11629],[-44.22309,-21.11647],[-44.22334,-21.11661],[-44.22362,-21.11667],[-44.22378,-21.1167],[-44.22391,-21.1167],[-44.22412,-21.11661],[-44.22464,-21.11647],[-44.22493,-21.11646],[-44.22504,-21.11657],[-44.22524,-21.11659],[-44.22543,-21.11647],[-44.22565,-21.11655],[-44.22599,-21.11654],[-44.2266,-21.1166],[-44.22709,-21.11691],[-44.22749,-21.11695],[-44.22772,-21.11695],[-44.22784,-21.11703],[-44.22829,-21.11704],[-44.22862,-21.11708],[-44.22873,-21.11717],[-44.22884,-21.11725],[-44.22899,-21.11732],[-44.22916,-21.11736],[-44.22958,-21.11753],[-44.23021,-21.11774],[-44.23048,-21.11797],[-44.23097,-21.11832],[-44.23125,-21.11858],[-44.23137,-21.11863],[-44.2316,-21.11882],[-44.23178,-21.11895],[-44.23189,-21.11909],[-44.23212,-21.11925],[-44.23226,-21.11925],[-44.23244,-21.11933],[-44.23309,-21.11944],[-44.23335,-21.11938],[-44.2335,-21.11947],[-44.23363,-21.11957],[-44.23395,-21.11991],[-44.23416,-21.11998],[-44.23433,-21.11998]]],[[[-44.22314,-21.12713],[-44.20138,-21.13404],[-44.1751,-21.14045],[-44.1998,-21.1228],[-44.22273,-21.12667],[-44.22296,-21.12691],[-44.22314,-21.12713]]],[[[-44.21617,-21.11493],[-44.20788,-21.11534],[-44.20807,-21.11524],[-44.20835,-21.11518],[-44.20883,-21.11495],[-44.20922,-21.11482],[-44.21007,-21.1145],[-44.21061,-21.11426],[-44.21098,-21.11405],[-44.21131,-21.11397],[-44.21174,-21.11394],[-44.21205,-21.11384],[-44.21249,-21.11382],[-44.21295,-21.11373],[-44.21348,-21.1138],[-44.21381,-21.11393],[-44.21397,-21.11398],[-44.21412,-21.1141],[-44.2142,-21.11411],[-44.21441,-21.11412],[-44.21456,-21.11426],[-44.21464,-21.11439],[-44.21516,-21.11482],[-44.2153,-21.11483],[-44.21542,-21.11481],[-44.21572,-21.1147],[-44.21593,-21.11468],[-44.21617,-21.11493]]],[[[-44.20475,-21.1155],[-44.2047,-21.1155],[-44.20471,-21.11548],[-44.20475,-21.1155]]]]}},{"type":"Feature","properties":{"territory_id":"mg-3162500-colonia-do-bengo","name":"Colônia do Bengo","municipality_id":"mg-3162500","polling_places":1,"approx":true,"official":false,"method":"voronoi-polling-places","whole_municipality":false,"approx_coords_only":false},"geometry":{"type":"MultiPolygon","coordinates":[[[[-44.29643,-21.05082],[-44.29623,-21.09798],[-44.2861,-21.10391],[-44.27059,-21.10939],[-44.27056,-21.10922],[-44.27063,-21.10877],[-44.27066,-21.1085],[-44.27071,-21.10831],[-44.27095,-21.10808],[-44.27106,-21.10789],[-44.27118,-21.10762],[-44.27133,-21.10739],[-44.27137,-21.10719],[-44.27146,-21.10711],[-44.27164,-21.10684],[-44.27176,-21.10677],[-44.27193,-21.10652],[-44.27199,-21.10635],[-44.27201,-21.1062],[-44.27195,-21.10598],[-44.27182,-21.10576],[-44.27172,-21.10549],[-44.27148,-21.10534],[-44.27146,-21.10514],[-44.27148,-21.10425],[-44.27146,-21.10342],[-44.27141,-21.10254],[-44.27154,-21.10237],[-44.27158,-21.10225],[-44.2716,-21.10215],[-44.27187,-21.10153],[-44.27195,-21.10119],[-44.27206,-21.10047],[-44.27215,-21.10008],[-44.27227,-21.09977],[-44.27241,-21.09959],[-44.27291,-21.0992],[-44.27295,-21.0991],[-44.27295,-21.09898],[-44.27283,-21.09867],[-44.27285,-21.09851],[-44.27294,-21.09832],[-44.27292,-21.09801],[-44.27277,-21.09755],[-44.27257,-21.09732],[-44.27252,-21.09711],[-44.27251,-21.09658],[-44.27256,-21.09598],[-44.27249,-21.0958],[-44.27194,-21.09554],[-44.27076,-21.09472],[-44.27031,-21.0945],[-44.27007,-21.09446],[-44.26976,-21.09444],[-44.269,-21.09458],[-44.26859,-21.09473],[-44.26822,-21.09493],[-44.26787,-21.09508],[-44.26739,-21.09513],[-44.2671,-21.09513],[-44.26695,-21.09506],[-44.26675,-21.09475],[-44.26666,-21.09454],[-44.26656,-21.09445],[-44.26548,-21.09432],[-44.26513,-21.09431],[-44.26432,-21.09435],[-44.26422,-21.09433],[-44.26405,-21.09423],[-44.26379,-21.09385],[-44.2637,-21.09369],[-44.26356,-21.09347],[-44.26313,-21.0929],[-44.26298,-21.09274],[-44.26247,-21.09259],[-44.26217,-21.09238],[-44.26162,-21.09266],[-44.26112,-21.09336],[-44.26009,-21.09425],[-44.25871,-21.09337],[-44.25852,-21.09383],[-44.25855,-21.09497],[-44.25845,-21.09557],[-44.2584,-21.09605],[-44.25779,-21.09708],[-44.25783,-21.09797],[-44.25764,-21.09886],[-44.25715,-21.09969],[-44.25613,-21.1002],[-44.25496,-21.10016],[-44.25407,-21.09961],[-44.25372,-21.0993],[-44.25331,-21.09907],[-44.25246,-21.09894],[-44.25154,-21.09943],[-44.25058,-21.09953],[-44.24996,-21.09923],[-44.24829,-21.09778],[-44.24758,-21.09778],[-44.247,-21.09803],[-44.24642,-21.09865],[-44.24633,-21.09935],[-44.24644,-21.09976],[-44.24616,-21.10064],[-44.24588,-21.10094],[-44.24536,-21.10119],[-44.2449,-21.10126],[-44.24463,-21.10096],[-44.24462,-21.10072],[-44.24463,-21.10021],[-44.2445,-21.10001],[-44.24403,-21.09963],[-44.24408,-21.09937],[-44.24437,-21.09883],[-44.24446,-21.09859],[-44.24451,-21.09823],[-44.24447,-21.09799],[-44.24422,-21.09774],[-44.24407,-21.09772],[-44.2434,-21.09782],[-44.24322,-21.09782],[-44.24294,-21.09789],[-44.24273,-21.09805],[-44.24263,-21.09825],[-44.24257,-21.09899],[-44.24235,-21.09931],[-44.24203,-21.0995],[-44.24165,-21.09952],[-44.24124,-21.09936],[-44.24104,-21.09915],[-44.24097,-21.09884],[-44.24101,-21.09855],[-44.2411,-21.0984],[-44.24125,-21.09831],[-44.24185,-21.09827],[-44.24214,-21.09819],[-44.24245,-21.09793],[-44.24272,-21.09765],[-44.24279,-21.09748],[-44.24262,-21.0973],[-44.24233,-21.09736],[-44.24219,-21.09751],[-44.24191,-21.09768],[-44.24167,-21.09772],[-44.24139,-21.0977],[-44.24104,-21.09774],[-44.24064,-21.09759],[-44.2403,-21.09741],[-44.24017,-21.0973],[-44.24007,-21.09712],[-44.24,-21.09678],[-44.24005,-21.09664],[-44.24016,-21.09655],[-44.24034,-21.0965],[-44.24048,-21.09652],[-44.24075,-21.09671],[-44.24104,-21.09702],[-44.2412,-21.09715],[-44.24158,-21.09718],[-44.2419,-21.09717],[-44.24211,-21.09711],[-44.24222,-21.09693],[-44.24219,-21.09639],[-44.24208,-21.0962],[-44.24192,-21.09606],[-44.24123,-21.09615],[-44.24054,-21.09615],[-44.24034,-21.09605],[-44.24024,-21.09585],[-44.24024,-21.09579],[-44.25671,-21.08216],[-44.2638,-21.0838],[-44.26813,-21.07271],[-44.29534,-21.05018],[-44.29643,-21.05082]]]]}},{"type":"Feature","properties":{"territory_id":"mg-3162500-colonia-do-giarola","name":"Colônia do Giarola","municipality_id":"mg-3162500","polling_places":1,"approx":true,"official":false,"method":"voronoi-polling-places","whole_municipality":false,"approx_coords_only":false},"geometry":{"type":"MultiPolygon","coordinates":[[[[-44.29534,-21.05018],[-44.26813,-21.07271],[-44.2743,-21.0569],[-44.2861,-21.0448],[-44.29534,-21.05018]]],[[[-44.25671,-21.08216],[-44.24024,-21.09579],[-44.24024,-21.09539],[-44.24061,-21.0952],[-44.24073,-21.09507],[-44.24086,-21.09481],[-44.24087,-21.09454],[-44.24086,-21.09441],[-44.24064,-21.09414],[-44.24049,-21.094],[-44.24035,-21.09372],[-44.24033,-21.09336],[-44.24054,-21.09315],[-44.24083,-21.09321],[-44.24114,-21.09319],[-44.24141,-21.09302],[-44.24142,-21.09267],[-44.2412,-21.09238],[-44.2411,-21.09213],[-44.24117,-21.09175],[-44.24131,-21.09135],[-44.24125,-21.09099],[-44.24099,-21.09076],[-44.24094,-21.09061],[-44.24102,-21.0903],[-44.24148,-21.08971],[-44.24173,-21.08925],[-44.24198,-21.08896],[-44.24226,-21.08885],[-44.24243,-21.08874],[-44.24243,-21.08845],[-44.24235,-21.08833],[-44.24227,-21.08806],[-44.24186,-21.08782],[-44.24153,-21.08779],[-44.24129,-21.08796],[-44.24125,-21.08816],[-44.24123,-21.08847],[-44.24123,-21.08889],[-44.24094,-21.08925],[-44.24077,-21.08935],[-44.24027,-21.08938],[-44.24004,-21.08926],[-44.23992,-21.08908],[-44.24,-21.08887],[-44.24044,-21.08865],[-44.24071,-21.0884],[-44.24078,-21.0882],[-44.24083,-21.08799],[-44.24082,-21.08767],[-44.24068,-21.08721],[-44.24057,-21.08672],[-44.24049,-21.08651],[-44.24024,-21.08649],[-44.23925,-21.08695],[-44.23905,-21.087],[-44.23885,-21.0871],[-44.23868,-21.08709],[-44.23851,-21.08686],[-44.2384,-21.08659],[-44.23838,-21.08619],[-44.23828,-21.08607],[-44.23808,-21.08599],[-44.2378,-21.08601],[-44.23685,-21.08643],[-44.23648,-21.08647],[-44.23627,-21.08631],[-44.2362,-21.08607],[-44.23619,-21.08598],[-44.23631,-21.08537],[-44.23614,-21.08504],[-44.23591,-21.0848],[-44.23595,-21.08461],[-44.23599,-21.08453],[-44.23639,-21.08439],[-44.23659,-21.08441],[-44.23675,-21.08445],[-44.23702,-21.0845],[-44.23724,-21.0845],[-44.23751,-21.0844],[-44.23764,-21.08427],[-44.2377,-21.08402],[-44.23756,-21.08376],[-44.23743,-21.08341],[-44.23735,-21.08299],[-44.23736,-21.08279],[-44.23749,-21.08259],[-44.23776,-21.08247],[-44.238,-21.08233],[-44.23803,-21.08219],[-44.23792,-21.08171],[-44.23774,-21.08159],[-44.23762,-21.08159],[-44.23736,-21.08166],[-44.23696,-21.08172],[-44.23672,-21.08171],[-44.23636,-21.0814],[-44.2363,-21.08129],[-44.23633,-21.08115],[-44.23648,-21.08092],[-44.23664,-21.08072],[-44.23667,-21.08061],[-44.23666,-21.0804],[-44.23674,-21.07991],[-44.23651,-21.07986],[-44.23626,-21.07992],[-44.2354,-21.08002],[-44.23461,-21.08004],[-44.23433,-21.08002],[-44.23396,-21.08002],[-44.23386,-21.07998],[-44.23375,-21.07998],[-44.23359,-21.0798],[-44.2335,-21.07961],[-44.23357,-21.07939],[-44.23345,-21.07914],[-44.23328,-21.07893],[-44.23309,-21.07886],[-44.23296,-21.07875],[-44.23281,-21.07873],[-44.23266,-21.07879],[-44.23253,-21.07895],[-44.23253,-21.07905],[-44.23234,-21.0793],[-44.23223,-21.07937],[-44.23181,-21.07933],[-44.23136,-21.07915],[-44.23077,-21.07898],[-44.23032,-21.07867],[-44.23008,-21.07865],[-44.2299,-21.07871],[-44.2292,-21.07853],[-44.22897,-21.07851],[-44.22879,-21.07859],[-44.22858,-21.07863],[-44.22836,-21.0786],[-44.22787,-21.07866],[-44.22766,-21.07858],[-44.22754,-21.07841],[-44.22734,-21.07826],[-44.22704,-21.07813],[-44.22688,-21.07811],[-44.22672,-21.07791],[-44.22657,-21.07763],[-44.22638,-21.07758],[-44.22587,-21.07752],[-44.22554,-21.07734],[-44.2254,-21.0772],[-44.22532,-21.07702],[-44.22514,-21.07686],[-44.22512,-21.07669],[-44.22523,-21.0765],[-44.22544,-21.07632],[-44.22577,-21.0762],[-44.2259,-21.07604],[-44.22584,-21.07588],[-44.22573,-21.0757],[-44.22547,-21.0754],[-44.22529,-21.07526],[-44.225,-21.0751],[-44.22462,-21.07506],[-44.22439,-21.0751],[-44.22426,-21.0752],[-44.2245,-21.0747],[-44.25671,-21.08216]]],[[[-44.22432,-21.07825],[-44.22429,-21.07858],[-44.22424,-21.07885],[-44.2242,-21.07939],[-44.22414,-21.07992],[-44.22403,-21.08046],[-44.22397,-21.08099],[-44.22392,-21.08127],[-44.2238,-21.08241],[-44.22375,-21.08263],[-44.22365,-21.08287],[-44.22361,-21.08309],[-44.22353,-21.08333],[-44.22321,-21.08413],[-44.22311,-21.08468],[-44.22291,-21.08513],[-44.22284,-21.08534],[-44.22261,-21.08555],[-44.22213,-21.08579],[-44.2218,-21.08592],[-44.2215,-21.086],[-44.22125,-21.08616],[-44.22101,-21.08633],[-44.22074,-21.08648],[-44.22011,-21.08691],[-44.21897,-21.0861],[-44.22399,-21.07575],[-44.22393,-21.07613],[-44.22394,-21.07636],[-44.22403,-21.07682],[-44.22412,-21.0771],[-44.22429,-21.0778],[-44.22432,-21.07825]]]]}},{"type":"Feature","properties":{"territory_id":"mg-3162500-colonia-do-marcal","name":"Colônia do Marçal","municipality_id":"mg-3162500","polling_places":2,"approx":false,"official":true,"method":"official-ibge-cd2022","whole_municipality":false,"approx_coords_only":false,"official_name":"Colônia do Marçal","official_code":"3162500004","match":"direct"},"geometry":{"type":"MultiPolygon","coordinates":[[[[-44.2142,-21.11411],[-44.21441,-21.11412],[-44.21456,-21.11426],[-44.21464,-21.11439],[-44.21516,-21.11482],[-44.2153,-21.11483],[-44.21542,-21.11481],[-44.21572,-21.1147],[-44.21593,-21.11468],[-44.21621,-21.11497],[-44.21635,-21.115],[-44.21672,-21.11502],[-44.21702,-21.11519],[-44.21739,-21.11496],[-44.21752,-21.11489],[-44.21762,-21.11472],[-44.21728,-21.11454],[-44.21734,-21.11441],[-44.21754,-21.11433],[-44.21814,-21.11429],[-44.21841,-21.11433],[-44.21857,-21.11444],[-44.21874,-21.1144],[-44.21886,-21.11434],[-44.219,-21.11433],[-44.21924,-21.11446],[-44.21959,-21.11449],[-44.21965,-21.11461],[-44.22023,-21.11465],[-44.22055,-21.11464],[-44.22082,-21.1147],[-44.22105,-21.11489],[-44.22129,-21.115],[-44.22134,-21.11512],[-44.22226,-21.11586],[-44.2224,-21.11602],[-44.22249,-21.11616],[-44.22267,-21.11629],[-44.22309,-21.11647],[-44.22334,-21.11661],[-44.22362,-21.11667],[-44.22378,-21.1167],[-44.22391,-21.1167],[-44.22412,-21.11661],[-44.22464,-21.11647],[-44.22493,-21.11646],[-44.22504,-21.11657],[-44.22524,-21.11659],[-44.22543,-21.11647],[-44.22565,-21.11655],[-44.22599,-21.11654],[-44.2266,-21.1166],[-44.22709,-21.11691],[-44.22749,-21.11695],[-44.22772,-21.11695],[-44.22784,-21.11703],[-44.22829,-21.11704],[-44.22862,-21.11708],[-44.22873,-21.11717],[-44.22884,-21.11725],[-44.22899,-21.11732],[-44.22916,-21.11736],[-44.22958,-21.11753],[-44.23021,-21.11774],[-44.23048,-21.11797],[-44.23097,-21.11832],[-44.23125,-21.11858],[-44.23137,-21.11863],[-44.2316,-21.11882],[-44.23178,-21.11895],[-44.23189,-21.11909],[-44.23212,-21.11925],[-44.23226,-21.11925],[-44.23244,-21.11933],[-44.23309,-21.11944],[-44.23335,-21.11938],[-44.2335,-21.11947],[-44.23363,-21.11957],[-44.23395,-21.11991],[-44.23416,-21.11998],[-44.23441,-21.11998],[-44.23457,-21.12003],[-44.23484,-21.12003],[-44.23498,-21.12007],[-44.23509,-21.12021],[-44.23525,-21.12055],[-44.23573,-21.12112],[-44.23586,-21.12125],[-44.23593,-21.12144],[-44.23594,-21.12161],[-44.2367,-21.12163],[-44.2379,-21.12169],[-44.23992,-21.12175],[-44.24027,-21.12117],[-44.24033,-21.12039],[-44.23994,-21.11874],[-44.23908,-21.11739],[-44.23907,-21.11675],[-44.23928,-21.1163],[-44.23943,-21.11584],[-44.2399,-21.11557],[-44.24048,-21.11554],[-44.24112,-21.11558],[-44.2416,-21.11574],[-44.24206,-21.1158],[-44.24261,-21.11564],[-44.24306,-21.11535],[-44.24334,-21.11492],[-44.24335,-21.11439],[-44.24319,-21.11375],[-44.24261,-21.11259],[-44.24235,-21.11226],[-44.24196,-21.1118],[-44.24156,-21.11138],[-44.24146,-21.11097],[-44.24151,-21.11064],[-44.24171,-21.11012],[-44.24227,-21.10948],[-44.24289,-21.10906],[-44.24349,-21.10875],[-44.2439,-21.10839],[-44.24426,-21.10788],[-44.2444,-21.10742],[-44.24439,-21.10681],[-44.24424,-21.1061],[-44.24434,-21.10564],[-44.24445,-21.10494],[-44.24392,-21.10406],[-44.24371,-21.10335],[-44.24376,-21.10279],[-44.24411,-21.10247],[-44.24485,-21.10228],[-44.2464,-21.10259],[-44.24679,-21.10238],[-44.24707,-21.10196],[-44.24723,-21.10145],[-44.24707,-21.10062],[-44.24644,-21.09976],[-44.24616,-21.10064],[-44.24588,-21.10094],[-44.24536,-21.10119],[-44.2449,-21.10126],[-44.24463,-21.10096],[-44.24462,-21.10072],[-44.24463,-21.10021],[-44.2445,-21.10001],[-44.24403,-21.09963],[-44.24408,-21.09937],[-44.24437,-21.09883],[-44.24446,-21.09859],[-44.24451,-21.09823],[-44.24447,-21.09799],[-44.24422,-21.09774],[-44.24407,-21.09772],[-44.2434,-21.09782],[-44.24322,-21.09782],[-44.24294,-21.09789],[-44.24273,-21.09805],[-44.24263,-21.09825],[-44.24257,-21.09899],[-44.24235,-21.09931],[-44.24203,-21.0995],[-44.24165,-21.09952],[-44.24124,-21.09936],[-44.24104,-21.09915],[-44.24097,-21.09884],[-44.24101,-21.09855],[-44.2411,-21.0984],[-44.24125,-21.09831],[-44.24185,-21.09827],[-44.24214,-21.09819],[-44.24245,-21.09793],[-44.24272,-21.09765],[-44.24279,-21.09748],[-44.24262,-21.0973],[-44.24233,-21.09736],[-44.24219,-21.09751],[-44.24191,-21.09768],[-44.24167,-21.09772],[-44.24139,-21.0977],[-44.24104,-21.09774],[-44.24064,-21.09759],[-44.2403,-21.09741],[-44.24017,-21.0973],[-44.24007,-21.09712],[-44.24,-21.09678],[-44.24005,-21.09664],[-44.24016,-21.09655],[-44.24034,-21.0965],[-44.24048,-21.09652],[-44.24075,-21.09671],[-44.24104,-21.09702],[-44.2412,-21.09715],[-44.24158,-21.09718],[-44.2419,-21.09717],[-44.24211,-21.09711],[-44.24222,-21.09693],[-44.24219,-21.09639],[-44.24208,-21.0962],[-44.24192,-21.09606],[-44.24123,-21.09615],[-44.24054,-21.09615],[-44.24034,-21.09605],[-44.24024,-21.09585],[-44.24024,-21.09539],[-44.24061,-21.0952],[-44.24073,-21.09507],[-44.24086,-21.09481],[-44.24087,-21.09454],[-44.24086,-21.09441],[-44.24064,-21.09414],[-44.24049,-21.094],[-44.24035,-21.09372],[-44.24033,-21.09336],[-44.24054,-21.09315],[-44.24083,-21.09321],[-44.24114,-21.09319],[-44.24141,-21.09302],[-44.24142,-21.09267],[-44.2412,-21.09238],[-44.2411,-21.09213],[-44.24117,-21.09175],[-44.24131,-21.09135],[-44.24125,-21.09099],[-44.24099,-21.09076],[-44.24094,-21.09061],[-44.24102,-21.0903],[-44.24148,-21.08971],[-44.24173,-21.08925],[-44.24198,-21.08896],[-44.24226,-21.08885],[-44.24243,-21.08874],[-44.24243,-21.08845],[-44.24235,-21.08833],[-44.24227,-21.08806],[-44.24186,-21.08782],[-44.24153,-21.08779],[-44.24129,-21.08796],[-44.24125,-21.08816],[-44.24123,-21.08847],[-44.24123,-21.08889],[-44.24094,-21.08925],[-44.24077,-21.08935],[-44.24027,-21.08938],[-44.24004,-21.08926],[-44.23992,-21.08908],[-44.24,-21.08887],[-44.24044,-21.08865],[-44.24071,-21.0884],[-44.24078,-21.0882],[-44.24083,-21.08799],[-44.24082,-21.08767],[-44.24068,-21.08721],[-44.24057,-21.08672],[-44.24049,-21.08651],[-44.24024,-21.08649],[-44.23925,-21.08695],[-44.23905,-21.087],[-44.23885,-21.0871],[-44.23868,-21.08709],[-44.23851,-21.08686],[-44.2384,-21.08659],[-44.23838,-21.08619],[-44.23828,-21.08607],[-44.23808,-21.08599],[-44.2378,-21.08601],[-44.23685,-21.08643],[-44.23648,-21.08647],[-44.23627,-21.08631],[-44.2362,-21.08607],[-44.23619,-21.08598],[-44.23631,-21.08537],[-44.23614,-21.08504],[-44.23591,-21.0848],[-44.23595,-21.08461],[-44.23599,-21.08453],[-44.23639,-21.08439],[-44.23659,-21.08441],[-44.23675,-21.08445],[-44.23702,-21.0845],[-44.23724,-21.0845],[-44.23751,-21.0844],[-44.23764,-21.08427],[-44.2377,-21.08402],[-44.23756,-21.08376],[-44.23743,-21.08341],[-44.23735,-21.08299],[-44.23736,-21.08279],[-44.23749,-21.08259],[-44.23776,-21.08247],[-44.238,-21.08233],[-44.23803,-21.08219],[-44.23792,-21.08171],[-44.23774,-21.08159],[-44.23762,-21.08159],[-44.23736,-21.08166],[-44.23696,-21.08172],[-44.23672,-21.08171],[-44.23636,-21.0814],[-44.2363,-21.08129],[-44.23633,-21.08115],[-44.23648,-21.08092],[-44.23664,-21.08072],[-44.23667,-21.08061],[-44.23666,-21.0804],[-44.23674,-21.07991],[-44.23651,-21.07986],[-44.23626,-21.07992],[-44.2354,-21.08002],[-44.23461,-21.08004],[-44.23433,-21.08002],[-44.23396,-21.08002],[-44.23386,-21.07998],[-44.23375,-21.07998],[-44.23359,-21.0798],[-44.2335,-21.07961],[-44.23357,-21.07939],[-44.23345,-21.07914],[-44.23328,-21.07893],[-44.23309,-21.07886],[-44.23296,-21.07875],[-44.23281,-21.07873],[-44.23266,-21.07879],[-44.23253,-21.07895],[-44.23253,-21.07905],[-44.23234,-21.0793],[-44.23223,-21.07937],[-44.23181,-21.07933],[-44.23136,-21.07915],[-44.23077,-21.07898],[-44.23032,-21.07867],[-44.23008,-21.07865],[-44.2299,-21.07871],[-44.2292,-21.07853],[-44.22897,-21.07851],[-44.22879,-21.07859],[-44.22858,-21.07863],[-44.22836,-21.0786],[-44.22787,-21.07866],[-44.22766,-21.07858],[-44.22754,-21.07841],[-44.22734,-21.07826],[-44.22704,-21.07813],[-44.22688,-21.07811],[-44.22672,-21.07791],[-44.22657,-21.07763],[-44.22638,-21.07758],[-44.22587,-21.07752],[-44.22554,-21.07734],[-44.2254,-21.0772],[-44.22532,-21.07702],[-44.22514,-21.07686],[-44.22512,-21.07669],[-44.22523,-21.0765],[-44.22544,-21.07632],[-44.22577,-21.0762],[-44.2259,-21.07604],[-44.22584,-21.07588],[-44.22573,-21.0757],[-44.22547,-21.0754],[-44.22529,-21.07526],[-44.225,-21.0751],[-44.22462,-21.07506],[-44.22439,-21.0751],[-44.2242,-21.07524],[-44.22407,-21.07545],[-44.224,-21.07569],[-44.22393,-21.07613],[-44.22394,-21.07636],[-44.22403,-21.07682],[-44.22412,-21.0771],[-44.22429,-21.0778],[-44.22432,-21.07825],[-44.22429,-21.07858],[-44.22424,-21.07885],[-44.2242,-21.07939],[-44.22414,-21.07992],[-44.22403,-21.08046],[-44.22397,-21.08099],[-44.22392,-21.08127],[-44.2238,-21.08241],[-44.22375,-21.08263],[-44.22365,-21.08287],[-44.22361,-21.08309],[-44.22353,-21.08333],[-44.22321,-21.08413],[-44.22311,-21.08468],[-44.22291,-21.08513],[-44.22284,-21.08534],[-44.22261,-21.08555],[-44.22213,-21.08579],[-44.2218,-21.08592],[-44.2215,-21.086],[-44.22125,-21.08616],[-44.22101,-21.08633],[-44.22074,-21.08648],[-44.21943,-21.08738],[-44.21886,-21.08764],[-44.21854,-21.08773],[-44.21764,-21.08816],[-44.21725,-21.08816],[-44.21646,-21.08845],[-44.21588,-21.08856],[-44.2156,-21.08856],[-44.21525,-21.08863],[-44.21495,-21.08867],[-44.21463,-21.08867],[-44.2142,-21.08874],[-44.21382,-21.08877],[-44.21288,-21.08875],[-44.21243,-21.08879],[-44.21194,-21.08879],[-44.21104,-21.08879],[-44.21069,-21.08876],[-44.21035,-21.08876],[-44.21013,-21.08864],[-44.20975,-21.08855],[-44.20909,-21.08854],[-44.20881,-21.08856],[-44.20854,-21.08864],[-44.20824,-21.08879],[-44.20835,-21.08956],[-44.20797,-21.09074],[-44.20756,-21.09156],[-44.2074,-21.09162],[-44.20704,-21.09219],[-44.20674,-21.0928],[-44.20641,-21.09385],[-44.20656,-21.09405],[-44.20655,-21.09409],[-44.20622,-21.09452],[-44.20627,-21.09456],[-44.20659,-21.09537],[-44.2068,-21.09584],[-44.20699,-21.09664],[-44.20701,-21.09686],[-44.20699,-21.09811],[-44.20688,-21.09866],[-44.2068,-21.09891],[-44.20659,-21.09913],[-44.20649,-21.09934],[-44.20636,-21.09958],[-44.20618,-21.09979],[-44.20601,-21.09994],[-44.20573,-21.10012],[-44.2042,-21.10074],[-44.20392,-21.10088],[-44.20348,-21.10121],[-44.20339,-21.10145],[-44.20338,-21.10168],[-44.2034,-21.10189],[-44.20361,-21.10211],[-44.20385,-21.1022],[-44.20409,-21.10235],[-44.2043,-21.10251],[-44.20468,-21.10289],[-44.20496,-21.1031],[-44.20517,-21.1033],[-44.20537,-21.10353],[-44.20554,-21.10384],[-44.20579,-21.10438],[-44.20597,-21.10483],[-44.20619,-21.10546],[-44.20624,-21.10574],[-44.20616,-21.10601],[-44.20611,-21.10627],[-44.20602,-21.1065],[-44.20589,-21.10669],[-44.20581,-21.1069],[-44.20517,-21.10783],[-44.20499,-21.10802],[-44.20484,-21.10847],[-44.2048,-21.10871],[-44.20485,-21.10898],[-44.20503,-21.10913],[-44.20516,-21.10931],[-44.20545,-21.10994],[-44.20551,-21.11017],[-44.20553,-21.11045],[-44.20552,-21.11072],[-44.20548,-21.11097],[-44.20542,-21.11122],[-44.20514,-21.11168],[-44.20495,-21.11187],[-44.20477,-21.11213],[-44.20456,-21.11225],[-44.20418,-21.11258],[-44.20388,-21.11302],[-44.2038,-21.11326],[-44.20375,-21.11349],[-44.20373,-21.11401],[-44.20381,-21.11432],[-44.20405,-21.11475],[-44.20434,-21.11514],[-44.20453,-21.11536],[-44.20476,-21.1155],[-44.20501,-21.11557],[-44.20532,-21.11563],[-44.20582,-21.11569],[-44.20607,-21.1157],[-44.20659,-21.11565],[-44.20721,-21.11558],[-44.20747,-21.11556],[-44.20807,-21.11524],[-44.20835,-21.11518],[-44.20883,-21.11495],[-44.20922,-21.11482],[-44.21007,-21.1145],[-44.21061,-21.11426],[-44.21098,-21.11405],[-44.21131,-21.11397],[-44.21174,-21.11394],[-44.21205,-21.11384],[-44.21249,-21.11382],[-44.21295,-21.11373],[-44.21348,-21.1138],[-44.21381,-21.11393],[-44.21397,-21.11398],[-44.21412,-21.1141],[-44.2142,-21.11411]]]]}},{"type":"Feature","properties":{"territory_id":"mg-3162500-distrito-de-arcangelo-cajuru","name":"Distrito de Arcângelo (cajuru)","municipality_id":"mg-3162500","polling_places":1,"approx":true,"official":false,"method":"voronoi-polling-places","whole_municipality":false,"approx_coords_only":false},"geometry":{"type":"MultiPolygon","coordinates":[[[[-44.38403,-21.30387],[-44.38056,-21.31968],[-44.33136,-21.38631],[-44.26059,-21.27927],[-44.27444,-21.24363],[-44.31026,-21.24607],[-44.3239,-21.25199],[-44.38195,-21.30027],[-44.38403,-21.30387]]]]}},{"type":"Feature","properties":{"territory_id":"mg-3162500-distrito-de-sao-goncalo-do-amarante-caburu","name":"Distrito de São Gonçalo do Amarante (caburu)","municipality_id":"mg-3162500","polling_places":1,"approx":true,"official":false,"method":"voronoi-polling-places","whole_municipality":false,"approx_coords_only":false},"geometry":{"type":"MultiPolygon","coordinates":[[[[-44.36704,-21.08026],[-44.35205,-21.13336],[-44.30343,-21.11583],[-44.29623,-21.09798],[-44.29643,-21.05082],[-44.3345,-21.073],[-44.36704,-21.08026]]]]}},{"type":"Feature","properties":{"territory_id":"mg-3162500-distrito-de-sao-sebastiao-da-vitoria","name":"Distrito de São Sebastião da Vitória","municipality_id":"mg-3162500","polling_places":1,"approx":true,"official":false,"method":"voronoi-polling-places","whole_municipality":false,"approx_coords_only":false},"geometry":{"type":"MultiPolygon","coordinates":[[[[-44.48949,-21.25846],[-44.46815,-21.27784],[-44.38403,-21.30387],[-44.38195,-21.30027],[-44.4062,-21.19888],[-44.42193,-21.17244],[-44.42295,-21.17211],[-44.4254,-21.1783],[-44.4607,-21.2038],[-44.466,-21.231],[-44.48949,-21.25846]]]]}},{"type":"Feature","properties":{"territory_id":"mg-3162500-distrito-do-rio-das-mortes","name":"Distrito do Rio das Mortes","municipality_id":"mg-3162500","polling_places":1,"approx":true,"official":false,"method":"voronoi-polling-places","whole_municipality":false,"approx_coords_only":false},"geometry":{"type":"MultiPolygon","coordinates":[[[[-44.3452,-21.16963],[-44.3321,-21.21518],[-44.31026,-21.24607],[-44.27444,-21.24363],[-44.25868,-21.21518],[-44.27971,-21.18654],[-44.29028,-21.17309],[-44.29382,-21.16888],[-44.3452,-21.16963]]]]}},{"type":"Feature","properties":{"territory_id":"mg-3162500-dom-bosco","name":"Dom Bosco","municipality_id":"mg-3162500","polling_places":1,"approx":true,"official":false,"method":"voronoi-polling-places","whole_municipality":false,"approx_coords_only":false},"geometry":{"type":"MultiPolygon","coordinates":[[[[-44.24969,-21.13022],[-44.249,-21.13124],[-44.24714,-21.12959],[-44.24705,-21.12857],[-44.24862,-21.12929],[-44.24886,-21.12943],[-44.2493,-21.12982],[-44.24965,-21.13017],[-44.24969,-21.13022]]]]}},{"type":"Feature","properties":{"territory_id":"mg-3162500-fabricas","name":"Fabricas","municipality_id":"mg-3162500","polling_places":4,"approx":false,"official":true,"method":"official-ibge-cd2022","whole_municipality":false,"approx_coords_only":false,"official_name":"Fábricas","official_code":"3162500003","match":"direct"},"geometry":{"type":"MultiPolygon","coordinates":[[[[-44.25052,-21.12936],[-44.25153,-21.12893],[-44.25156,-21.12904],[-44.252,-21.1293],[-44.25201,-21.1291],[-44.25216,-21.12879],[-44.25283,-21.12844],[-44.25302,-21.12844],[-44.25303,-21.12854],[-44.2532,-21.12792],[-44.25326,-21.12762],[-44.25332,-21.12747],[-44.2534,-21.12733],[-44.25355,-21.1272],[-44.25394,-21.12693],[-44.25422,-21.12677],[-44.25542,-21.12623],[-44.25545,-21.1263],[-44.2556,-21.1262],[-44.2561,-21.12594],[-44.25632,-21.12585],[-44.25654,-21.12579],[-44.2572,-21.1257],[-44.25742,-21.12571],[-44.25768,-21.12574],[-44.2579,-21.12555],[-44.25798,-21.12538],[-44.25817,-21.12493],[-44.25822,-21.1246],[-44.25832,-21.12434],[-44.25859,-21.12401],[-44.25864,-21.12398],[-44.25872,-21.12384],[-44.25895,-21.12314],[-44.25901,-21.12283],[-44.25897,-21.12273],[-44.25943,-21.12237],[-44.25861,-21.12201],[-44.25894,-21.12072],[-44.26074,-21.11728],[-44.26109,-21.11653],[-44.26092,-21.11637],[-44.26079,-21.116],[-44.26125,-21.11543],[-44.26199,-21.11503],[-44.26223,-21.11481],[-44.2626,-21.11457],[-44.26304,-21.11439],[-44.26368,-21.11421],[-44.26412,-21.11388],[-44.26435,-21.11361],[-44.26471,-21.11322],[-44.2652,-21.11297],[-44.26617,-21.11235],[-44.26647,-21.11204],[-44.26673,-21.11165],[-44.26752,-21.11158],[-44.26872,-21.1114],[-44.26994,-21.11128],[-44.2709,-21.11122],[-44.27085,-21.11059],[-44.27076,-21.11018],[-44.27073,-21.10993],[-44.27068,-21.10973],[-44.27061,-21.10953],[-44.27056,-21.10922],[-44.27063,-21.10877],[-44.27066,-21.1085],[-44.27071,-21.10831],[-44.27095,-21.10808],[-44.27106,-21.10789],[-44.27118,-21.10762],[-44.27133,-21.10739],[-44.27137,-21.10719],[-44.27146,-21.10711],[-44.27164,-21.10684],[-44.27176,-21.10677],[-44.27193,-21.10652],[-44.27199,-21.10635],[-44.27201,-21.1062],[-44.27195,-21.10598],[-44.27182,-21.10576],[-44.27172,-21.10549],[-44.27148,-21.10534],[-44.27146,-21.10514],[-44.27148,-21.10425],[-44.27146,-21.10342],[-44.27141,-21.10254],[-44.27154,-21.10237],[-44.27158,-21.10225],[-44.2716,-21.10215],[-44.27187,-21.10153],[-44.27195,-21.10119],[-44.27206,-21.10047],[-44.27215,-21.10008],[-44.27227,-21.09977],[-44.27241,-21.09959],[-44.27291,-21.0992],[-44.27295,-21.0991],[-44.27295,-21.09898],[-44.27283,-21.09867],[-44.27285,-21.09851],[-44.27294,-21.09832],[-44.27292,-21.09801],[-44.27277,-21.09755],[-44.27257,-21.09732],[-44.27252,-21.09711],[-44.27251,-21.09658],[-44.27256,-21.09598],[-44.27249,-21.0958],[-44.27194,-21.09554],[-44.27076,-21.09472],[-44.27031,-21.0945],[-44.27007,-21.09446],[-44.26976,-21.09444],[-44.269,-21.09458],[-44.26859,-21.09473],[-44.26822,-21.09493],[-44.26787,-21.09508],[-44.26739,-21.09513],[-44.2671,-21.09513],[-44.26695,-21.09506],[-44.26675,-21.09475],[-44.26666,-21.09454],[-44.26656,-21.09445],[-44.26548,-21.09432],[-44.26513,-21.09431],[-44.26432,-21.09435],[-44.26422,-21.09433],[-44.26405,-21.09423],[-44.26379,-21.09385],[-44.2637,-21.09369],[-44.26356,-21.09347],[-44.26313,-21.0929],[-44.26298,-21.09274],[-44.26247,-21.09259],[-44.26217,-21.09238],[-44.26162,-21.09266],[-44.26112,-21.09336],[-44.26009,-21.09425],[-44.25871,-21.09337],[-44.25852,-21.09383],[-44.25855,-21.09497],[-44.25845,-21.09557],[-44.2584,-21.09605],[-44.25779,-21.09708],[-44.25783,-21.09797],[-44.25764,-21.09886],[-44.25715,-21.09969],[-44.25613,-21.1002],[-44.25496,-21.10016],[-44.25407,-21.09961],[-44.25372,-21.0993],[-44.25331,-21.09907],[-44.25246,-21.09894],[-44.25154,-21.09943],[-44.25058,-21.09953],[-44.24996,-21.09923],[-44.24829,-21.09778],[-44.24758,-21.09778],[-44.247,-21.09803],[-44.24642,-21.09865],[-44.24633,-21.09935],[-44.24644,-21.09976],[-44.24707,-21.10062],[-44.24723,-21.10145],[-44.24707,-21.10196],[-44.24679,-21.10238],[-44.2464,-21.10259],[-44.24485,-21.10228],[-44.24411,-21.10247],[-44.24376,-21.10279],[-44.24371,-21.10335],[-44.24392,-21.10406],[-44.24445,-21.10494],[-44.24434,-21.10564],[-44.24424,-21.1061],[-44.24439,-21.10681],[-44.2444,-21.10742],[-44.24426,-21.10788],[-44.2439,-21.10839],[-44.24349,-21.10875],[-44.24289,-21.10906],[-44.24227,-21.10948],[-44.24171,-21.11012],[-44.24151,-21.11064],[-44.24146,-21.11097],[-44.24156,-21.11138],[-44.24196,-21.1118],[-44.24235,-21.11226],[-44.24261,-21.11259],[-44.24319,-21.11375],[-44.24335,-21.11439],[-44.24334,-21.11492],[-44.24306,-21.11535],[-44.24261,-21.11564],[-44.24206,-21.1158],[-44.2416,-21.11574],[-44.24112,-21.11558],[-44.24048,-21.11554],[-44.2399,-21.11557],[-44.23943,-21.11584],[-44.23928,-21.1163],[-44.23907,-21.11675],[-44.23937,-21.11714],[-44.2398,-21.11763],[-44.24022,-21.11789],[-44.24057,-21.11826],[-44.24068,-21.11872],[-44.24105,-21.11927],[-44.24136,-21.1195],[-44.24162,-21.11964],[-44.24204,-21.11971],[-44.24238,-21.11979],[-44.24269,-21.11998],[-44.24301,-21.12031],[-44.24353,-21.12071],[-44.24398,-21.1211],[-44.24444,-21.12208],[-44.24476,-21.12284],[-44.24496,-21.12327],[-44.24524,-21.12393],[-44.2456,-21.12507],[-44.24568,-21.12532],[-44.24585,-21.12618],[-44.24562,-21.12671],[-44.24509,-21.12803],[-44.24463,-21.12887],[-44.24433,-21.12948],[-44.24459,-21.12959],[-44.24485,-21.12961],[-44.24508,-21.12956],[-44.24518,-21.1295],[-44.2453,-21.12939],[-44.24543,-21.12918],[-44.24554,-21.12897],[-44.24567,-21.12879],[-44.24581,-21.12865],[-44.24601,-21.12854],[-44.24618,-21.12849],[-44.24641,-21.12846],[-44.24672,-21.12847],[-44.24698,-21.12854],[-44.24862,-21.12929],[-44.24886,-21.12943],[-44.2493,-21.12982],[-44.24965,-21.13017],[-44.25011,-21.13081],[-44.25076,-21.13132],[-44.25081,-21.13119],[-44.25087,-21.13121],[-44.25111,-21.13124],[-44.251,-21.13078],[-44.25082,-21.1303],[-44.25083,-21.1302],[-44.2509,-21.13002],[-44.25077,-21.12986],[-44.25052,-21.12936]]]]}},{"type":"Feature","properties":{"territory_id":"mg-3162500-guarda-mor","name":"Guarda-mor","municipality_id":"mg-3162500","polling_places":1,"approx":true,"official":false,"method":"voronoi-polling-places","whole_municipality":false,"approx_coords_only":false},"geometry":{"type":"MultiPolygon","coordinates":[[[[-44.29028,-21.17309],[-44.27971,-21.18654],[-44.27688,-21.17839],[-44.27701,-21.17819],[-44.27705,-21.17792],[-44.27746,-21.1772],[-44.27763,-21.17701],[-44.27833,-21.17656],[-44.27856,-21.17645],[-44.2791,-21.17609],[-44.2793,-21.17587],[-44.27939,-21.1756],[-44.27951,-21.1754],[-44.2798,-21.17497],[-44.28016,-21.17436],[-44.28041,-21.17428],[-44.28071,-21.17427],[-44.28122,-21.17419],[-44.28155,-21.17412],[-44.28185,-21.17403],[-44.2829,-21.17394],[-44.28326,-21.17389],[-44.28354,-21.17389],[-44.28435,-21.17377],[-44.2846,-21.17376],[-44.28485,-21.17373],[-44.28513,-21.17366],[-44.28545,-21.17352],[-44.28571,-21.17338],[-44.28603,-21.17327],[-44.28638,-21.17317],[-44.28668,-21.17315],[-44.28701,-21.1731],[-44.28726,-21.17301],[-44.28779,-21.17278],[-44.2886,-21.17238],[-44.28925,-21.17202],[-44.28942,-21.17192],[-44.29028,-21.17309]]]]}},{"type":"Feature","properties":{"territory_id":"mg-3162500-jardim-paulo-campos","name":"Jardim Paulo Campos","municipality_id":"mg-3162500","polling_places":1,"approx":true,"official":false,"method":"voronoi-polling-places","whole_municipality":false,"approx_coords_only":false},"geometry":{"type":"MultiPolygon","coordinates":[[[[-44.24714,-21.12959],[-44.24427,-21.12963],[-44.24434,-21.12949],[-44.24459,-21.12959],[-44.24485,-21.12961],[-44.24508,-21.12956],[-44.24518,-21.1295],[-44.2453,-21.12939],[-44.24543,-21.12918],[-44.24554,-21.12897],[-44.24567,-21.12879],[-44.24581,-21.12865],[-44.24601,-21.12854],[-44.24618,-21.12849],[-44.24641,-21.12846],[-44.24672,-21.12847],[-44.24698,-21.12854],[-44.24705,-21.12857],[-44.24714,-21.12959]]],[[[-44.24568,-21.12532],[-44.24524,-21.12393],[-44.2456,-21.12507],[-44.24568,-21.12532]]],[[[-44.2367,-21.12163],[-44.23565,-21.1216],[-44.23512,-21.12164],[-44.23466,-21.12173],[-44.23416,-21.12197],[-44.23381,-21.12203],[-44.23332,-21.12228],[-44.2329,-21.12245],[-44.23279,-21.12256],[-44.23266,-21.12302],[-44.23258,-21.12345],[-44.23255,-21.12384],[-44.23245,-21.12428],[-44.23232,-21.12457],[-44.23186,-21.12514],[-44.23169,-21.12538],[-44.23158,-21.12544],[-44.23117,-21.12502],[-44.23433,-21.11998],[-44.23441,-21.11998],[-44.23457,-21.12003],[-44.23484,-21.12003],[-44.23498,-21.12007],[-44.23509,-21.12021],[-44.23525,-21.12055],[-44.23573,-21.12112],[-44.23586,-21.12125],[-44.23593,-21.12144],[-44.23594,-21.12161],[-44.2367,-21.12163]]]]}},{"type":"Feature","properties":{"territory_id":"mg-3162500-matosinhos","name":"Matosinhos","municipality_id":"mg-3162500","polling_places":7,"approx":false,"official":true,"method":"official-ibge-cd2022","whole_municipality":false,"approx_coords_only":false,"official_name":"Matosinhos","official_code":"3162500005","match":"direct"},"geometry":{"type":"MultiPolygon","coordinates":[[[[-44.2327,-21.1402],[-44.23309,-21.14002],[-44.23331,-21.13982],[-44.23363,-21.13961],[-44.23384,-21.13935],[-44.23408,-21.13924],[-44.23416,-21.13914],[-44.23438,-21.13908],[-44.2346,-21.13888],[-44.23489,-21.13872],[-44.23506,-21.1386],[-44.23536,-21.13855],[-44.23551,-21.13841],[-44.23579,-21.13831],[-44.23634,-21.1379],[-44.23661,-21.1376],[-44.23662,-21.13738],[-44.23654,-21.13714],[-44.23622,-21.13681],[-44.23573,-21.13686],[-44.23556,-21.13701],[-44.23534,-21.13705],[-44.23502,-21.137],[-44.2348,-21.13667],[-44.23453,-21.13622],[-44.23429,-21.13595],[-44.23421,-21.13584],[-44.23419,-21.13578],[-44.23422,-21.13557],[-44.23447,-21.13536],[-44.23486,-21.1353],[-44.23515,-21.13518],[-44.23522,-21.13508],[-44.23587,-21.13471],[-44.23615,-21.13442],[-44.23631,-21.13434],[-44.23686,-21.13375],[-44.23698,-21.13354],[-44.23718,-21.13339],[-44.23742,-21.13312],[-44.23784,-21.13296],[-44.23802,-21.13283],[-44.23831,-21.13278],[-44.23854,-21.13267],[-44.23883,-21.13252],[-44.23931,-21.13246],[-44.23956,-21.13237],[-44.23976,-21.13223],[-44.24001,-21.13212],[-44.24022,-21.13197],[-44.24044,-21.13186],[-44.24068,-21.13176],[-44.24117,-21.13146],[-44.24142,-21.13133],[-44.24179,-21.13124],[-44.24209,-21.1312],[-44.24251,-21.13101],[-44.24296,-21.13079],[-44.24315,-21.13062],[-44.24333,-21.13052],[-44.24349,-21.13039],[-44.24412,-21.12993],[-44.24463,-21.12887],[-44.24509,-21.12803],[-44.24562,-21.12671],[-44.24585,-21.12618],[-44.24568,-21.12532],[-44.24524,-21.12393],[-44.24496,-21.12327],[-44.24476,-21.12284],[-44.24444,-21.12208],[-44.24398,-21.1211],[-44.24353,-21.12071],[-44.24301,-21.12031],[-44.24269,-21.11998],[-44.24238,-21.11979],[-44.24204,-21.11971],[-44.24162,-21.11964],[-44.24136,-21.1195],[-44.24105,-21.11927],[-44.24068,-21.11872],[-44.24057,-21.11826],[-44.24022,-21.11789],[-44.2398,-21.11763],[-44.23937,-21.11714],[-44.23907,-21.11675],[-44.23908,-21.11739],[-44.23994,-21.11874],[-44.24033,-21.12039],[-44.24027,-21.12117],[-44.23992,-21.12175],[-44.2379,-21.12169],[-44.2367,-21.12163],[-44.23565,-21.1216],[-44.23512,-21.12164],[-44.23466,-21.12173],[-44.23416,-21.12197],[-44.23381,-21.12203],[-44.23332,-21.12228],[-44.2329,-21.12245],[-44.23279,-21.12256],[-44.23266,-21.12302],[-44.23258,-21.12345],[-44.23255,-21.12384],[-44.23245,-21.12428],[-44.23232,-21.12457],[-44.23186,-21.12514],[-44.23169,-21.12538],[-44.23135,-21.12555],[-44.231,-21.12579],[-44.2303,-21.12618],[-44.2301,-21.12633],[-44.23003,-21.12646],[-44.22996,-21.12665],[-44.22985,-21.12681],[-44.22971,-21.1271],[-44.22959,-21.12749],[-44.22942,-21.12779],[-44.22927,-21.12789],[-44.22904,-21.12799],[-44.22876,-21.12806],[-44.22849,-21.12814],[-44.22813,-21.12816],[-44.22705,-21.1285],[-44.22684,-21.1285],[-44.22663,-21.12848],[-44.22646,-21.1284],[-44.22614,-21.12822],[-44.22585,-21.12792],[-44.22536,-21.12724],[-44.22512,-21.1271],[-44.2248,-21.12694],[-44.22449,-21.12688],[-44.22413,-21.1267],[-44.22381,-21.12656],[-44.22339,-21.12629],[-44.22299,-21.12614],[-44.22245,-21.126],[-44.22212,-21.126],[-44.22214,-21.12619],[-44.22216,-21.12631],[-44.22224,-21.12639],[-44.22233,-21.12645],[-44.22255,-21.12652],[-44.22272,-21.12667],[-44.22296,-21.12691],[-44.22315,-21.12715],[-44.22341,-21.12738],[-44.22355,-21.12755],[-44.22368,-21.1276],[-44.22376,-21.12771],[-44.22374,-21.12805],[-44.22366,-21.12838],[-44.22367,-21.12851],[-44.22371,-21.12862],[-44.2238,-21.12873],[-44.22386,-21.12893],[-44.22385,-21.12903],[-44.22376,-21.12914],[-44.22374,-21.12929],[-44.22377,-21.12939],[-44.22379,-21.12953],[-44.22367,-21.12994],[-44.2236,-21.13008],[-44.22348,-21.13014],[-44.22341,-21.13031],[-44.22343,-21.13063],[-44.22349,-21.1309],[-44.22348,-21.13121],[-44.2235,-21.13137],[-44.22332,-21.13185],[-44.22322,-21.13197],[-44.22285,-21.13222],[-44.22261,-21.13244],[-44.22242,-21.13271],[-44.22239,-21.13287],[-44.22234,-21.13295],[-44.22225,-21.13316],[-44.22198,-21.13346],[-44.22178,-21.1341],[-44.22177,-21.13433],[-44.22172,-21.13458],[-44.22166,-21.13465],[-44.22157,-21.13498],[-44.22143,-21.13516],[-44.22128,-21.13547],[-44.22128,-21.1359],[-44.2213,-21.13599],[-44.22142,-21.13618],[-44.22144,-21.13635],[-44.22136,-21.13658],[-44.22123,-21.13682],[-44.22113,-21.13706],[-44.22103,-21.13715],[-44.22086,-21.13744],[-44.22078,-21.13769],[-44.2208,-21.13786],[-44.2209,-21.13799],[-44.22106,-21.13811],[-44.22112,-21.13837],[-44.22108,-21.13862],[-44.22093,-21.13886],[-44.22077,-21.13898],[-44.22048,-21.13971],[-44.22045,-21.13996],[-44.22031,-21.1401],[-44.22027,-21.14023],[-44.2203,-21.14041],[-44.22023,-21.14058],[-44.22026,-21.14068],[-44.22025,-21.14091],[-44.22029,-21.14121],[-44.22007,-21.14187],[-44.22003,-21.14213],[-44.21993,-21.14252],[-44.21984,-21.14273],[-44.21969,-21.143],[-44.2197,-21.14328],[-44.21975,-21.14351],[-44.21992,-21.14376],[-44.22002,-21.14397],[-44.22016,-21.14411],[-44.22026,-21.14431],[-44.2203,-21.14452],[-44.22153,-21.14451],[-44.22253,-21.14462],[-44.22417,-21.14488],[-44.22374,-21.14649],[-44.22369,-21.14679],[-44.2236,-21.14709],[-44.22356,-21.14739],[-44.22344,-21.14762],[-44.22284,-21.14757],[-44.22207,-21.14747],[-44.22185,-21.14883],[-44.22167,-21.15039],[-44.22152,-21.15076],[-44.22131,-21.15097],[-44.2209,-21.15113],[-44.22061,-21.1513],[-44.22043,-21.15153],[-44.22038,-21.15183],[-44.22034,-21.15255],[-44.22019,-21.15286],[-44.22004,-21.15308],[-44.21954,-21.15374],[-44.21926,-21.15404],[-44.21861,-21.15528],[-44.21845,-21.1557],[-44.21833,-21.15615],[-44.21875,-21.15645],[-44.21888,-21.15648],[-44.21913,-21.15641],[-44.21948,-21.15624],[-44.21975,-21.15618],[-44.22039,-21.15608],[-44.22073,-21.15613],[-44.22099,-21.15614],[-44.22127,-21.15606],[-44.22142,-21.15595],[-44.22165,-21.15592],[-44.22181,-21.15595],[-44.22207,-21.15596],[-44.22227,-21.156],[-44.22247,-21.15599],[-44.22266,-21.15594],[-44.22285,-21.15594],[-44.22315,-21.15601],[-44.22322,-21.15585],[-44.22344,-21.15573],[-44.22397,-21.15558],[-44.22493,-21.15535],[-44.22548,-21.15516],[-44.22564,-21.15498],[-44.22571,-21.15477],[-44.22565,-21.15453],[-44.22557,-21.15432],[-44.22552,-21.15405],[-44.2256,-21.15383],[-44.22568,-21.15363],[-44.22584,-21.15341],[-44.22599,-21.15323],[-44.22648,-21.15274],[-44.22667,-21.15248],[-44.22663,-21.15237],[-44.22599,-21.15222],[-44.22561,-21.15211],[-44.22541,-21.15198],[-44.22534,-21.15176],[-44.22495,-21.15152],[-44.22459,-21.15145],[-44.22449,-21.15131],[-44.2245,-21.15113],[-44.22455,-21.15098],[-44.22482,-21.15084],[-44.22525,-21.15075],[-44.22548,-21.15067],[-44.22579,-21.15047],[-44.22621,-21.14992],[-44.22603,-21.14961],[-44.22589,-21.14948],[-44.22591,-21.14918],[-44.2257,-21.14902],[-44.22555,-21.1486],[-44.22543,-21.14802],[-44.22539,-21.14767],[-44.22541,-21.14715],[-44.22575,-21.14709],[-44.22629,-21.14727],[-44.22683,-21.14777],[-44.22708,-21.14778],[-44.22726,-21.14769],[-44.22728,-21.14759],[-44.22712,-21.14727],[-44.22728,-21.14725],[-44.22749,-21.14715],[-44.22757,-21.14726],[-44.22784,-21.14718],[-44.22812,-21.14718],[-44.22874,-21.14711],[-44.2291,-21.1471],[-44.22952,-21.14718],[-44.22997,-21.14729],[-44.23018,-21.14743],[-44.23043,-21.14756],[-44.23069,-21.14761],[-44.23075,-21.14744],[-44.2308,-21.14724],[-44.23091,-21.1471],[-44.23098,-21.14689],[-44.23097,-21.14668],[-44.23101,-21.1465],[-44.23109,-21.14638],[-44.23116,-21.14608],[-44.23119,-21.14561],[-44.23114,-21.14523],[-44.23101,-21.14497],[-44.23099,-21.14473],[-44.23093,-21.14447],[-44.23078,-21.14436],[-44.23072,-21.14419],[-44.23054,-21.14395],[-44.2297,-21.14324],[-44.22971,-21.14299],[-44.22996,-21.14277],[-44.23046,-21.14263],[-44.23076,-21.14226],[-44.23101,-21.14205],[-44.23149,-21.14149],[-44.23174,-21.14118],[-44.23208,-21.14095],[-44.2323,-21.14072],[-44.23241,-21.14047],[-44.23262,-21.14023],[-44.2327,-21.1402]]]]}},{"type":"Feature","properties":{"territory_id":"mg-3162500-pio-xii","name":"Pio Xii","municipality_id":"mg-3162500","polling_places":1,"approx":true,"official":false,"method":"voronoi-polling-places","whole_municipality":false,"approx_coords_only":false},"geometry":{"type":"MultiPolygon","coordinates":[[[[-44.24551,-21.15664],[-44.24133,-21.20589],[-44.12431,-21.17672],[-44.1751,-21.14045],[-44.20138,-21.13404],[-44.22119,-21.1369],[-44.22113,-21.13706],[-44.22103,-21.13715],[-44.22086,-21.13744],[-44.22078,-21.13769],[-44.2208,-21.13786],[-44.2209,-21.13799],[-44.22106,-21.13811],[-44.22112,-21.13837],[-44.22108,-21.13862],[-44.22093,-21.13886],[-44.22077,-21.13898],[-44.22048,-21.13971],[-44.22045,-21.13996],[-44.22031,-21.1401],[-44.22027,-21.14023],[-44.2203,-21.14041],[-44.22023,-21.14058],[-44.22026,-21.14068],[-44.22025,-21.14091],[-44.22029,-21.14121],[-44.22007,-21.14187],[-44.22003,-21.14213],[-44.21993,-21.14252],[-44.21984,-21.14273],[-44.21969,-21.143],[-44.2197,-21.14328],[-44.21975,-21.14351],[-44.21992,-21.14376],[-44.22002,-21.14397],[-44.22016,-21.14411],[-44.22026,-21.14431],[-44.2203,-21.14452],[-44.22153,-21.14451],[-44.22253,-21.14462],[-44.22417,-21.14488],[-44.22374,-21.14649],[-44.22369,-21.14679],[-44.2236,-21.14709],[-44.22356,-21.14739],[-44.22344,-21.14762],[-44.22284,-21.14757],[-44.22207,-21.14747],[-44.22185,-21.14883],[-44.22167,-21.15039],[-44.22152,-21.15076],[-44.22131,-21.15097],[-44.2209,-21.15113],[-44.22061,-21.1513],[-44.22043,-21.15153],[-44.22038,-21.15183],[-44.22034,-21.15255],[-44.22019,-21.15286],[-44.22004,-21.15308],[-44.21954,-21.15374],[-44.21926,-21.15404],[-44.21861,-21.15528],[-44.21845,-21.1557],[-44.21833,-21.15615],[-44.21875,-21.15645],[-44.21888,-21.15648],[-44.21913,-21.15641],[-44.21948,-21.15624],[-44.21975,-21.15618],[-44.22039,-21.15608],[-44.22073,-21.15613],[-44.22099,-21.15614],[-44.22127,-21.15606],[-44.22142,-21.15595],[-44.22165,-21.15592],[-44.22181,-21.15595],[-44.22207,-21.15596],[-44.22227,-21.156],[-44.22247,-21.15599],[-44.22266,-21.15594],[-44.22285,-21.15594],[-44.22315,-21.15601],[-44.22322,-21.15585],[-44.22344,-21.15573],[-44.22397,-21.15558],[-44.22493,-21.15535],[-44.22548,-21.15516],[-44.22564,-21.15498],[-44.22571,-21.15477],[-44.22565,-21.15453],[-44.22557,-21.15432],[-44.22552,-21.15405],[-44.2256,-21.15383],[-44.22568,-21.15363],[-44.22584,-21.15341],[-44.22599,-21.15323],[-44.22648,-21.15274],[-44.22667,-21.15248],[-44.22663,-21.15237],[-44.22599,-21.15222],[-44.22561,-21.15211],[-44.22541,-21.15198],[-44.22534,-21.15176],[-44.22495,-21.15152],[-44.22459,-21.15145],[-44.22449,-21.15131],[-44.2245,-21.15113],[-44.22455,-21.15098],[-44.22482,-21.15084],[-44.22525,-21.15075],[-44.22548,-21.15067],[-44.22579,-21.15047],[-44.22621,-21.14992],[-44.22603,-21.14961],[-44.22589,-21.14948],[-44.22591,-21.14918],[-44.2257,-21.14902],[-44.22555,-21.1486],[-44.22543,-21.14802],[-44.22539,-21.14767],[-44.22541,-21.14715],[-44.22575,-21.14709],[-44.22629,-21.14727],[-44.22683,-21.14777],[-44.22708,-21.14778],[-44.22726,-21.14769],[-44.22728,-21.14759],[-44.22712,-21.14727],[-44.22728,-21.14725],[-44.22749,-21.14715],[-44.22757,-21.14726],[-44.22784,-21.14718],[-44.22812,-21.14718],[-44.22874,-21.14711],[-44.2291,-21.1471],[-44.22952,-21.14718],[-44.22997,-21.14729],[-44.23018,-21.14743],[-44.23043,-21.14756],[-44.23069,-21.14761],[-44.23075,-21.14744],[-44.2308,-21.14724],[-44.23091,-21.1471],[-44.23098,-21.14689],[-44.23097,-21.14668],[-44.23101,-21.1465],[-44.23109,-21.14638],[-44.23116,-21.14608],[-44.23119,-21.14561],[-44.23114,-21.14523],[-44.23101,-21.14497],[-44.23099,-21.14473],[-44.23093,-21.14447],[-44.23078,-21.14436],[-44.23072,-21.14419],[-44.23054,-21.14395],[-44.2297,-21.14324],[-44.22971,-21.14299],[-44.22996,-21.14277],[-44.23046,-21.14263],[-44.23076,-21.14226],[-44.23101,-21.14205],[-44.23149,-21.14149],[-44.23174,-21.14118],[-44.23208,-21.14095],[-44.2323,-21.14072],[-44.23241,-21.14047],[-44.23262,-21.14023],[-44.2327,-21.1402],[-44.23309,-21.14002],[-44.23331,-21.13982],[-44.23363,-21.13961],[-44.23384,-21.13935],[-44.23408,-21.13924],[-44.23416,-21.13914],[-44.23438,-21.13908],[-44.2346,-21.13888],[-44.23466,-21.13885],[-44.23765,-21.13928],[-44.24231,-21.14819],[-44.24212,-21.14862],[-44.24203,-21.14936],[-44.24002,-21.14931],[-44.23968,-21.14985],[-44.23962,-21.15011],[-44.23991,-21.15006],[-44.2403,-21.15008],[-44.2405,-21.15046],[-44.24037,-21.15076],[-44.24016,-21.15082],[-44.23987,-21.151],[-44.23964,-21.15128],[-44.24012,-21.15187],[-44.24032,-21.15221],[-44.24033,-21.15241],[-44.24014,-21.1525],[-44.23986,-21.15247],[-44.23967,-21.15237],[-44.23951,-21.15218],[-44.23934,-21.15214],[-44.23925,-21.15247],[-44.23931,-21.15288],[-44.23952,-21.15318],[-44.23982,-21.15333],[-44.24021,-21.15345],[-44.24033,-21.15365],[-44.24031,-21.15397],[-44.24034,-21.15417],[-44.24067,-21.15413],[-44.24091,-21.15419],[-44.24096,-21.15445],[-44.24111,-21.15478],[-44.24136,-21.15503],[-44.24167,-21.15518],[-44.24194,-21.15517],[-44.24245,-21.15518],[-44.24307,-21.15528],[-44.24334,-21.15553],[-44.24379,-21.15561],[-44.24417,-21.15565],[-44.24443,-21.15573],[-44.24475,-21.15597],[-44.24491,-21.15623],[-44.24506,-21.15641],[-44.24551,-21.15664]]]]}},{"type":"Feature","properties":{"territory_id":"mg-3162500-povoado-comunidade-de-trindade","name":"Povoado Comunidade de Trindade","municipality_id":"mg-3162500","polling_places":1,"approx":true,"official":false,"method":"voronoi-polling-places","whole_municipality":false,"approx_coords_only":false},"geometry":{"type":"MultiPolygon","coordinates":[[[[-44.35352,-21.1654],[-44.3452,-21.16963],[-44.29382,-21.16888],[-44.2986,-21.13641],[-44.29947,-21.13272],[-44.35352,-21.1654]]]]}},{"type":"Feature","properties":{"territory_id":"mg-3162500-povoado-da-vendinha","name":"Povoado da Vendinha","municipality_id":"mg-3162500","polling_places":1,"approx":true,"official":false,"method":"voronoi-polling-places","whole_municipality":false,"approx_coords_only":false},"geometry":{"type":"MultiPolygon","coordinates":[[[[-44.33136,-21.38631],[-44.33097,-21.38815],[-44.2611,-21.3705],[-44.2176,-21.3752],[-44.1988,-21.3908],[-44.16639,-21.38784],[-44.18541,-21.33324],[-44.26059,-21.27927],[-44.33136,-21.38631]]]]}},{"type":"Feature","properties":{"territory_id":"mg-3162500-povoado-de-canela","name":"Povoado de Canela","municipality_id":"mg-3162500","polling_places":1,"approx":true,"official":false,"method":"voronoi-polling-places","whole_municipality":false,"approx_coords_only":false},"geometry":{"type":"MultiPolygon","coordinates":[[[[-44.42193,-21.17244],[-44.4062,-21.19888],[-44.3239,-21.25199],[-44.31026,-21.24607],[-44.3321,-21.21518],[-44.42109,-21.1723],[-44.42193,-21.17244]]]]}},{"type":"Feature","properties":{"territory_id":"mg-3162500-povoado-de-caquende","name":"Povoado de Caquende","municipality_id":"mg-3162500","polling_places":1,"approx":true,"official":false,"method":"voronoi-polling-places","whole_municipality":false,"approx_coords_only":false},"geometry":{"type":"MultiPolygon","coordinates":[[[[-44.5748,-21.3093],[-44.5565,-21.3127],[-44.518,-21.34796],[-44.51885,-21.28453],[-44.5748,-21.3093]]]]}},{"type":"Feature","properties":{"territory_id":"mg-3162500-povoado-de-caxambu","name":"Povoado de Caxambu","municipality_id":"mg-3162500","polling_places":1,"approx":true,"official":false,"method":"voronoi-polling-places","whole_municipality":false,"approx_coords_only":false},"geometry":{"type":"MultiPolygon","coordinates":[[[[-44.42295,-21.17211],[-44.42193,-21.17244],[-44.42109,-21.1723],[-44.36955,-21.15728],[-44.35205,-21.13336],[-44.36704,-21.08026],[-44.4094,-21.0897],[-44.4067,-21.131],[-44.42295,-21.17211]]]]}},{"type":"Feature","properties":{"territory_id":"mg-3162500-povoado-de-cruzeiro-da-barra","name":"Povoado de Cruzeiro da Barra","municipality_id":"mg-3162500","polling_places":1,"approx":true,"official":false,"method":"voronoi-polling-places","whole_municipality":false,"approx_coords_only":false},"geometry":{"type":"MultiPolygon","coordinates":[[[[-44.4687,-21.34578],[-44.44603,-21.3654],[-44.38056,-21.31968],[-44.38403,-21.30387],[-44.46815,-21.27784],[-44.4687,-21.34578]]]]}},{"type":"Feature","properties":{"territory_id":"mg-3162500-povoado-de-goiabeiras","name":"Povoado de Goiabeiras","municipality_id":"mg-3162500","polling_places":1,"approx":true,"official":false,"method":"voronoi-polling-places","whole_municipality":false,"approx_coords_only":false},"geometry":{"type":"MultiPolygon","coordinates":[[[[-44.42109,-21.1723],[-44.3321,-21.21518],[-44.3452,-21.16963],[-44.35352,-21.1654],[-44.36955,-21.15728],[-44.42109,-21.1723]]]]}},{"type":"Feature","properties":{"territory_id":"mg-3162500-povoado-de-januario","name":"Povoado de Januário","municipality_id":"mg-3162500","polling_places":1,"approx":true,"official":false,"method":"voronoi-polling-places","whole_municipality":false,"approx_coords_only":false},"geometry":{"type":"MultiPolygon","coordinates":[[[[-44.4062,-21.19888],[-44.38195,-21.30027],[-44.3239,-21.25199],[-44.4062,-21.19888]]]]}},{"type":"Feature","properties":{"territory_id":"mg-3162500-povoado-do-fe","name":"Povoado do Fé","municipality_id":"mg-3162500","polling_places":1,"approx":true,"official":false,"method":"voronoi-polling-places","whole_municipality":false,"approx_coords_only":false},"geometry":{"type":"MultiPolygon","coordinates":[[[[-44.36955,-21.15728],[-44.35352,-21.1654],[-44.29947,-21.13272],[-44.30343,-21.11583],[-44.35205,-21.13336],[-44.36955,-21.15728]]]]}},{"type":"Feature","properties":{"territory_id":"mg-3162500-povoado-do-valo-novo","name":"Povoado do Valo Novo","municipality_id":"mg-3162500","polling_places":1,"approx":true,"official":false,"method":"voronoi-polling-places","whole_municipality":false,"approx_coords_only":false},"geometry":{"type":"MultiPolygon","coordinates":[[[[-44.5209,-21.3929],[-44.4818,-21.4082],[-44.44725,-21.40829],[-44.44603,-21.3654],[-44.4687,-21.34578],[-44.51314,-21.36156],[-44.5209,-21.3929]]]]}},{"type":"Feature","properties":{"territory_id":"mg-3162500-povoado-do-zueira","name":"Povoado do Zueira","municipality_id":"mg-3162500","polling_places":1,"approx":true,"official":false,"method":"voronoi-polling-places","whole_municipality":false,"approx_coords_only":false},"geometry":{"type":"MultiPolygon","coordinates":[[[[-44.44725,-21.40829],[-44.3642,-21.4085],[-44.349,-21.3927],[-44.33097,-21.38815],[-44.33136,-21.38631],[-44.38056,-21.31968],[-44.44603,-21.3654],[-44.44725,-21.40829]]]]}},{"type":"Feature","properties":{"territory_id":"mg-3162500-povoado-engenho-de-serra","name":"Povoado Engenho de Serra","municipality_id":"mg-3162500","polling_places":1,"approx":true,"official":false,"method":"voronoi-polling-places","whole_municipality":false,"approx_coords_only":false},"geometry":{"type":"MultiPolygon","coordinates":[[[[-44.51885,-21.28453],[-44.518,-21.34796],[-44.5113,-21.3541],[-44.51314,-21.36156],[-44.4687,-21.34578],[-44.46815,-21.27784],[-44.48949,-21.25846],[-44.5075,-21.2795],[-44.51885,-21.28453]]]]}},{"type":"Feature","properties":{"territory_id":"mg-3162500-rio-acima","name":"Rio Acima","municipality_id":"mg-3162500","polling_places":1,"approx":true,"official":false,"method":"voronoi-polling-places","whole_municipality":false,"approx_coords_only":false},"geometry":{"type":"MultiPolygon","coordinates":[[[[-44.27971,-21.18654],[-44.25868,-21.21518],[-44.24133,-21.20589],[-44.24551,-21.15664],[-44.24616,-21.15698],[-44.2466,-21.15716],[-44.24697,-21.15704],[-44.24734,-21.15722],[-44.24731,-21.15749],[-44.24768,-21.15761],[-44.24789,-21.15775],[-44.24812,-21.15792],[-44.24837,-21.15804],[-44.24865,-21.1581],[-44.24884,-21.158],[-44.24883,-21.15784],[-44.2492,-21.15763],[-44.24951,-21.15765],[-44.24977,-21.15775],[-44.25011,-21.15765],[-44.25051,-21.15764],[-44.25075,-21.15755],[-44.25119,-21.15748],[-44.25156,-21.15738],[-44.2519,-21.15733],[-44.25216,-21.15726],[-44.25239,-21.15714],[-44.25264,-21.15688],[-44.25283,-21.15691],[-44.25314,-21.15686],[-44.25337,-21.15669],[-44.25343,-21.15636],[-44.25358,-21.15604],[-44.25359,-21.15563],[-44.2539,-21.15457],[-44.25393,-21.15426],[-44.25387,-21.15362],[-44.25432,-21.15372],[-44.25459,-21.15386],[-44.25471,-21.15398],[-44.25484,-21.15389],[-44.25507,-21.15396],[-44.25529,-21.15396],[-44.25542,-21.15406],[-44.2557,-21.15524],[-44.25504,-21.15538],[-44.25511,-21.15591],[-44.25509,-21.15616],[-44.25513,-21.15648],[-44.25535,-21.15675],[-44.25563,-21.15691],[-44.2565,-21.15726],[-44.25667,-21.15744],[-44.25675,-21.15769],[-44.25674,-21.15868],[-44.25677,-21.1594],[-44.25663,-21.15963],[-44.25649,-21.15976],[-44.25649,-21.16007],[-44.25657,-21.16028],[-44.25674,-21.16051],[-44.25677,-21.16067],[-44.25669,-21.16089],[-44.25644,-21.16121],[-44.25567,-21.16208],[-44.25551,-21.16233],[-44.2553,-21.16299],[-44.25508,-21.16334],[-44.25469,-21.16357],[-44.25439,-21.16381],[-44.25431,-21.16391],[-44.25417,-21.16418],[-44.25394,-21.16498],[-44.25377,-21.16539],[-44.25366,-21.16552],[-44.25319,-21.16596],[-44.25294,-21.16621],[-44.25282,-21.16643],[-44.25278,-21.16663],[-44.25304,-21.16668],[-44.25328,-21.16676],[-44.25366,-21.16678],[-44.25426,-21.16679],[-44.25458,-21.1667],[-44.25466,-21.16672],[-44.2549,-21.16684],[-44.25504,-21.16696],[-44.25512,-21.16705],[-44.25528,-21.16709],[-44.25537,-21.16712],[-44.25537,-21.16721],[-44.25555,-21.16739],[-44.25563,-21.16744],[-44.25576,-21.16744],[-44.25595,-21.16759],[-44.25604,-21.1677],[-44.25613,-21.16786],[-44.25625,-21.16799],[-44.25637,-21.1681],[-44.25661,-21.16808],[-44.25709,-21.16785],[-44.25737,-21.1678],[-44.25755,-21.16774],[-44.25774,-21.16771],[-44.25798,-21.1677],[-44.25817,-21.16767],[-44.25832,-21.16762],[-44.25858,-21.16746],[-44.25893,-21.16706],[-44.25912,-21.16698],[-44.25915,-21.16716],[-44.25907,-21.16735],[-44.25895,-21.16772],[-44.2586,-21.16856],[-44.25853,-21.16877],[-44.2585,-21.16906],[-44.2584,-21.16943],[-44.2583,-21.16965],[-44.25823,-21.16985],[-44.25821,-21.16997],[-44.25816,-21.17041],[-44.25808,-21.17063],[-44.25864,-21.17127],[-44.25978,-21.172],[-44.26022,-21.17235],[-44.26062,-21.17265],[-44.2613,-21.17306],[-44.26186,-21.17338],[-44.26285,-21.17373],[-44.2732,-21.17774],[-44.27397,-21.178],[-44.27513,-21.17828],[-44.27574,-21.17845],[-44.27651,-21.17887],[-44.27673,-21.17862],[-44.27688,-21.17839],[-44.27971,-21.18654]]],[[[-44.26383,-21.14367],[-44.26375,-21.14378],[-44.26286,-21.14489],[-44.26383,-21.14367]]],[[[-44.26307,-21.14268],[-44.26282,-21.14248],[-44.26303,-21.14264],[-44.26307,-21.14268]]],[[[-44.26253,-21.14313],[-44.26209,-21.14303],[-44.26203,-21.14301],[-44.26253,-21.14313]]],[[[-44.26188,-21.14297],[-44.26185,-21.14295],[-44.26184,-21.14294],[-44.26188,-21.14297]]],[[[-44.26179,-21.14288],[-44.26148,-21.14253],[-44.26175,-21.14284],[-44.26179,-21.14288]]]]}},{"type":"Feature","properties":{"territory_id":"mg-3162500-sao-caetano","name":"Sao Caetano","municipality_id":"mg-3162500","polling_places":1,"approx":true,"official":false,"method":"voronoi-polling-places","whole_municipality":false,"approx_coords_only":false},"geometry":{"type":"MultiPolygon","coordinates":[[[[-44.2986,-21.13641],[-44.29382,-21.16888],[-44.29028,-21.17309],[-44.28942,-21.17192],[-44.28948,-21.17187],[-44.28979,-21.17164],[-44.29001,-21.17142],[-44.29015,-21.17122],[-44.29022,-21.171],[-44.29028,-21.17074],[-44.29029,-21.16962],[-44.29036,-21.16933],[-44.29059,-21.16885],[-44.29089,-21.16806],[-44.29111,-21.16764],[-44.29125,-21.16745],[-44.29128,-21.16724],[-44.29128,-21.16698],[-44.29121,-21.16674],[-44.29099,-21.16646],[-44.29081,-21.16627],[-44.29055,-21.16606],[-44.29027,-21.16589],[-44.28981,-21.16551],[-44.2894,-21.16513],[-44.28918,-21.16495],[-44.28894,-21.16481],[-44.28871,-21.1646],[-44.2884,-21.16412],[-44.28833,-21.16362],[-44.28833,-21.163],[-44.28839,-21.16244],[-44.28839,-21.1617],[-44.28844,-21.16111],[-44.28848,-21.16088],[-44.28851,-21.15999],[-44.28863,-21.15935],[-44.28885,-21.1587],[-44.28913,-21.15816],[-44.28941,-21.15769],[-44.28965,-21.15739],[-44.28994,-21.15709],[-44.29037,-21.15639],[-44.29059,-21.15589],[-44.29074,-21.15567],[-44.29092,-21.15544],[-44.29117,-21.15528],[-44.2915,-21.15521],[-44.2917,-21.15506],[-44.29191,-21.15486],[-44.29212,-21.15473],[-44.29289,-21.15434],[-44.29319,-21.15422],[-44.29422,-21.15417],[-44.29545,-21.15416],[-44.29545,-21.15315],[-44.29529,-21.15215],[-44.29531,-21.15151],[-44.29529,-21.15114],[-44.29498,-21.15095],[-44.29451,-21.15077],[-44.29336,-21.15043],[-44.29295,-21.15029],[-44.29253,-21.1502],[-44.29214,-21.15008],[-44.29187,-21.1499],[-44.29131,-21.14939],[-44.29099,-21.14914],[-44.29078,-21.14883],[-44.29057,-21.1484],[-44.2905,-21.14822],[-44.29043,-21.14784],[-44.29039,-21.14749],[-44.2902,-21.14721],[-44.28973,-21.14721],[-44.28911,-21.14729],[-44.28795,-21.14719],[-44.28744,-21.1471],[-44.2868,-21.14688],[-44.28674,-21.14666],[-44.28692,-21.14648],[-44.28712,-21.14632],[-44.2872,-21.1461],[-44.28708,-21.1459],[-44.28678,-21.14554],[-44.28646,-21.14506],[-44.28632,-21.145],[-44.28638,-21.14489],[-44.28648,-21.14485],[-44.28656,-21.14478],[-44.28662,-21.14446],[-44.2867,-21.14437],[-44.28687,-21.1441],[-44.28697,-21.14398],[-44.28709,-21.14387],[-44.28734,-21.14353],[-44.28754,-21.14315],[-44.28751,-21.14305],[-44.28738,-21.14294],[-44.28716,-21.14286],[-44.28677,-21.14287],[-44.2865,-21.1429],[-44.28583,-21.14287],[-44.28549,-21.14268],[-44.28533,-21.14254],[-44.28528,-21.14235],[-44.28535,-21.14221],[-44.28555,-21.14204],[-44.28569,-21.14187],[-44.28581,-21.14177],[-44.28612,-21.14162],[-44.2862,-21.1415],[-44.28623,-21.14109],[-44.28617,-21.1409],[-44.28646,-21.14076],[-44.28666,-21.14061],[-44.28671,-21.14042],[-44.28663,-21.14026],[-44.28643,-21.14005],[-44.28627,-21.13983],[-44.28605,-21.13929],[-44.28587,-21.13911],[-44.28571,-21.1389],[-44.28611,-21.13752],[-44.28607,-21.13704],[-44.2986,-21.13641]]]]}},{"type":"Feature","properties":{"territory_id":"mg-3162500-sao-geraldo","name":"Sao Geraldo","municipality_id":"mg-3162500","polling_places":1,"approx":true,"official":false,"method":"voronoi-polling-places","whole_municipality":false,"approx_coords_only":false},"geometry":{"type":"MultiPolygon","coordinates":[[[[-44.2861,-21.10391],[-44.26749,-21.12506],[-44.26743,-21.12492],[-44.26744,-21.12471],[-44.26714,-21.12462],[-44.26689,-21.12449],[-44.2667,-21.1243],[-44.2666,-21.12409],[-44.26647,-21.1234],[-44.26638,-21.12321],[-44.26625,-21.12304],[-44.26602,-21.12262],[-44.26543,-21.12243],[-44.265,-21.12247],[-44.26474,-21.12238],[-44.26463,-21.12219],[-44.26475,-21.12199],[-44.26493,-21.12185],[-44.26487,-21.12127],[-44.26478,-21.121],[-44.26452,-21.1209],[-44.26405,-21.12089],[-44.26379,-21.12091],[-44.2636,-21.12076],[-44.2634,-21.12053],[-44.26323,-21.12017],[-44.2632,-21.12],[-44.26339,-21.1197],[-44.26339,-21.11952],[-44.26324,-21.11931],[-44.26288,-21.11933],[-44.26266,-21.1193],[-44.26252,-21.11905],[-44.26235,-21.11884],[-44.26183,-21.1177],[-44.26116,-21.1166],[-44.26109,-21.11653],[-44.26092,-21.11637],[-44.26079,-21.116],[-44.26125,-21.11543],[-44.26199,-21.11503],[-44.26223,-21.11481],[-44.2626,-21.11457],[-44.26304,-21.11439],[-44.26368,-21.11421],[-44.26412,-21.11388],[-44.26435,-21.11361],[-44.26471,-21.11322],[-44.2652,-21.11297],[-44.26617,-21.11235],[-44.26647,-21.11204],[-44.26673,-21.11165],[-44.26752,-21.11158],[-44.26872,-21.1114],[-44.26994,-21.11128],[-44.2709,-21.11122],[-44.27085,-21.11059],[-44.27076,-21.11018],[-44.27073,-21.10993],[-44.27068,-21.10973],[-44.27061,-21.10953],[-44.27059,-21.10939],[-44.2861,-21.10391]]],[[[-44.2567,-21.12577],[-44.25647,-21.12581],[-44.25654,-21.12579],[-44.2567,-21.12577]]],[[[-44.25639,-21.12583],[-44.2561,-21.12594],[-44.25632,-21.12585],[-44.25639,-21.12583]]]]}},{"type":"Feature","properties":{"territory_id":"mg-3162500-senhor-dos-montes","name":"Senhor dos Montes","municipality_id":"mg-3162500","polling_places":3,"approx":false,"official":true,"method":"official-ibge-cd2022","whole_municipality":false,"approx_coords_only":false,"official_name":"Senhor dos Montes","official_code":"3162500002","match":"direct"},"geometry":{"type":"MultiPolygon","coordinates":[[[[-44.25545,-21.1263],[-44.25542,-21.12623],[-44.25422,-21.12677],[-44.25372,-21.12707],[-44.25355,-21.1272],[-44.2534,-21.12733],[-44.25332,-21.12747],[-44.25326,-21.12762],[-44.2532,-21.12792],[-44.25303,-21.12854],[-44.25329,-21.12859],[-44.25471,-21.12869],[-44.25495,-21.12865],[-44.25559,-21.12861],[-44.25578,-21.12862],[-44.25591,-21.12864],[-44.25632,-21.12877],[-44.25599,-21.12942],[-44.25594,-21.12968],[-44.25641,-21.12992],[-44.2573,-21.13042],[-44.25706,-21.13062],[-44.25723,-21.13063],[-44.25754,-21.1306],[-44.25822,-21.13067],[-44.25859,-21.13068],[-44.25904,-21.1306],[-44.26066,-21.13082],[-44.26112,-21.13085],[-44.26146,-21.13086],[-44.26221,-21.13105],[-44.26242,-21.13104],[-44.26277,-21.13097],[-44.26284,-21.13097],[-44.26292,-21.13094],[-44.26303,-21.13078],[-44.26334,-21.13055],[-44.26347,-21.13079],[-44.26352,-21.13096],[-44.26348,-21.13103],[-44.2645,-21.13126],[-44.26454,-21.13128],[-44.26456,-21.13133],[-44.26454,-21.13146],[-44.26468,-21.13168],[-44.26503,-21.13173],[-44.26518,-21.13178],[-44.26527,-21.13184],[-44.26546,-21.13191],[-44.26542,-21.1324],[-44.26519,-21.13246],[-44.26408,-21.13243],[-44.26389,-21.13246],[-44.26377,-21.13252],[-44.2637,-21.13263],[-44.26358,-21.13294],[-44.26368,-21.13296],[-44.2648,-21.13297],[-44.2654,-21.13286],[-44.26593,-21.13281],[-44.26617,-21.13284],[-44.26632,-21.13289],[-44.26635,-21.13271],[-44.26652,-21.13241],[-44.26681,-21.1323],[-44.26688,-21.13219],[-44.26704,-21.13185],[-44.26714,-21.13181],[-44.26723,-21.13178],[-44.26706,-21.1315],[-44.26703,-21.13141],[-44.267,-21.13112],[-44.26686,-21.13098],[-44.26735,-21.1307],[-44.26746,-21.13063],[-44.26751,-21.13053],[-44.26778,-21.13041],[-44.26796,-21.13021],[-44.26788,-21.12997],[-44.26787,-21.12982],[-44.26793,-21.12963],[-44.268,-21.12962],[-44.26824,-21.1297],[-44.26834,-21.1297],[-44.26846,-21.12967],[-44.26848,-21.12962],[-44.26845,-21.12935],[-44.26846,-21.12925],[-44.26849,-21.1292],[-44.26874,-21.12907],[-44.26877,-21.12902],[-44.26878,-21.12878],[-44.26871,-21.12863],[-44.26861,-21.12849],[-44.26844,-21.12844],[-44.26834,-21.12835],[-44.26834,-21.12822],[-44.26831,-21.12796],[-44.26833,-21.12784],[-44.26822,-21.12771],[-44.26814,-21.12765],[-44.26809,-21.12724],[-44.26806,-21.12711],[-44.2679,-21.12686],[-44.26788,-21.12669],[-44.26783,-21.1265],[-44.26775,-21.12641],[-44.26769,-21.12626],[-44.26769,-21.12609],[-44.26765,-21.12592],[-44.26752,-21.12579],[-44.2675,-21.12567],[-44.26759,-21.12561],[-44.26763,-21.12554],[-44.26759,-21.12535],[-44.26754,-21.12517],[-44.26743,-21.12492],[-44.26744,-21.12471],[-44.26714,-21.12462],[-44.26689,-21.12449],[-44.2667,-21.1243],[-44.2666,-21.12409],[-44.26647,-21.1234],[-44.26638,-21.12321],[-44.26625,-21.12304],[-44.26602,-21.12262],[-44.26543,-21.12243],[-44.265,-21.12247],[-44.26474,-21.12238],[-44.26463,-21.12219],[-44.26475,-21.12199],[-44.26493,-21.12185],[-44.26487,-21.12127],[-44.26478,-21.121],[-44.26452,-21.1209],[-44.26405,-21.12089],[-44.26379,-21.12091],[-44.2636,-21.12076],[-44.2634,-21.12053],[-44.26323,-21.12017],[-44.2632,-21.12],[-44.26339,-21.1197],[-44.26339,-21.11952],[-44.26324,-21.11931],[-44.26288,-21.11933],[-44.26266,-21.1193],[-44.26252,-21.11905],[-44.26235,-21.11884],[-44.26183,-21.1177],[-44.26116,-21.1166],[-44.26109,-21.11653],[-44.26074,-21.11728],[-44.25894,-21.12072],[-44.25861,-21.12201],[-44.25943,-21.12237],[-44.25897,-21.12273],[-44.25901,-21.12283],[-44.25895,-21.12314],[-44.25872,-21.12384],[-44.25864,-21.12398],[-44.25859,-21.12401],[-44.25832,-21.12434],[-44.25822,-21.1246],[-44.25817,-21.12493],[-44.25798,-21.12538],[-44.2579,-21.12555],[-44.25768,-21.12574],[-44.25742,-21.12571],[-44.2572,-21.1257],[-44.25689,-21.12574],[-44.25643,-21.12582],[-44.2561,-21.12594],[-44.2556,-21.1262],[-44.25545,-21.1263]]]]}},{"type":"Feature","properties":{"territory_id":"mg-3162500-solar-da-serra","name":"Solar da Serra","municipality_id":"mg-3162500","polling_places":1,"approx":true,"official":false,"method":"voronoi-polling-places","whole_municipality":false,"approx_coords_only":false},"geometry":{"type":"MultiPolygon","coordinates":[[[[-44.22011,-21.08691],[-44.21943,-21.08738],[-44.21886,-21.08764],[-44.21854,-21.08773],[-44.21807,-21.08795],[-44.21897,-21.0861],[-44.22011,-21.08691]]]]}},{"type":"Feature","properties":{"territory_id":"mg-3162500-tejuco","name":"Tejuco","municipality_id":"mg-3162500","polling_places":5,"approx":false,"official":true,"method":"official-ibge-cd2022","whole_municipality":false,"approx_coords_only":false,"official_name":"Tejuco","official_code":"3162500008","match":"direct"},"geometry":{"type":"MultiPolygon","coordinates":[[[[-44.26282,-21.14248],[-44.26303,-21.14264],[-44.26311,-21.14266],[-44.26347,-21.14264],[-44.26378,-21.14271],[-44.26411,-21.14281],[-44.26417,-21.1431],[-44.26409,-21.14332],[-44.26375,-21.14378],[-44.26286,-21.14489],[-44.26248,-21.14526],[-44.26214,-21.14561],[-44.26196,-21.14593],[-44.26193,-21.14652],[-44.26185,-21.14743],[-44.26207,-21.148],[-44.26216,-21.14832],[-44.26247,-21.14836],[-44.26251,-21.14855],[-44.2625,-21.14871],[-44.26213,-21.14887],[-44.26216,-21.1493],[-44.26233,-21.14955],[-44.26272,-21.1497],[-44.26328,-21.14934],[-44.26352,-21.14941],[-44.26355,-21.1498],[-44.26322,-21.15038],[-44.26301,-21.15067],[-44.26272,-21.15088],[-44.26262,-21.15125],[-44.26256,-21.15162],[-44.26279,-21.15196],[-44.26293,-21.15208],[-44.26312,-21.15212],[-44.26405,-21.1522],[-44.2648,-21.15235],[-44.26519,-21.15262],[-44.26593,-21.15355],[-44.26606,-21.15378],[-44.26627,-21.15436],[-44.26637,-21.15459],[-44.26652,-21.15476],[-44.26697,-21.15564],[-44.26684,-21.15634],[-44.26678,-21.15706],[-44.26655,-21.15786],[-44.26642,-21.15815],[-44.26627,-21.15894],[-44.26613,-21.15924],[-44.26591,-21.15945],[-44.26599,-21.15978],[-44.26602,-21.16009],[-44.26614,-21.16044],[-44.26636,-21.16056],[-44.26638,-21.16081],[-44.26626,-21.16096],[-44.26607,-21.16101],[-44.2658,-21.16098],[-44.26525,-21.16075],[-44.26511,-21.16066],[-44.2649,-21.16066],[-44.26477,-21.16071],[-44.26476,-21.16078],[-44.26501,-21.16117],[-44.26506,-21.16131],[-44.26506,-21.16142],[-44.26501,-21.16153],[-44.26493,-21.16164],[-44.26497,-21.1618],[-44.2648,-21.16234],[-44.26468,-21.16246],[-44.26382,-21.1628],[-44.2637,-21.16287],[-44.26364,-21.16296],[-44.26366,-21.16312],[-44.2636,-21.16324],[-44.26334,-21.16359],[-44.26303,-21.1638],[-44.2629,-21.16392],[-44.26286,-21.16404],[-44.26291,-21.16442],[-44.26289,-21.16453],[-44.26281,-21.16466],[-44.26273,-21.16484],[-44.26263,-21.16496],[-44.26255,-21.16511],[-44.26242,-21.1652],[-44.262,-21.16526],[-44.26171,-21.16533],[-44.26131,-21.16559],[-44.26114,-21.16566],[-44.26101,-21.16579],[-44.26098,-21.1659],[-44.26101,-21.16602],[-44.261,-21.16613],[-44.26094,-21.16624],[-44.26081,-21.16627],[-44.2605,-21.16629],[-44.26035,-21.16635],[-44.26017,-21.16651],[-44.26004,-21.16657],[-44.25976,-21.16676],[-44.25959,-21.16685],[-44.25912,-21.16698],[-44.25915,-21.16716],[-44.25907,-21.16735],[-44.25895,-21.16772],[-44.2586,-21.16856],[-44.25853,-21.16877],[-44.2585,-21.16906],[-44.2584,-21.16943],[-44.2583,-21.16965],[-44.25823,-21.16985],[-44.25821,-21.16997],[-44.25816,-21.17041],[-44.25808,-21.17063],[-44.25864,-21.17127],[-44.25978,-21.172],[-44.26022,-21.17235],[-44.26062,-21.17265],[-44.2613,-21.17306],[-44.26186,-21.17338],[-44.26285,-21.17373],[-44.2732,-21.17774],[-44.27397,-21.178],[-44.27513,-21.17828],[-44.27574,-21.17845],[-44.27651,-21.17887],[-44.27673,-21.17862],[-44.27701,-21.17819],[-44.27705,-21.17792],[-44.27746,-21.1772],[-44.27763,-21.17701],[-44.27833,-21.17656],[-44.27856,-21.17645],[-44.2791,-21.17609],[-44.2793,-21.17587],[-44.27939,-21.1756],[-44.27951,-21.1754],[-44.2798,-21.17497],[-44.28016,-21.17436],[-44.28041,-21.17428],[-44.28071,-21.17427],[-44.28122,-21.17419],[-44.28155,-21.17412],[-44.28185,-21.17403],[-44.2829,-21.17394],[-44.28326,-21.17389],[-44.28354,-21.17389],[-44.28435,-21.17377],[-44.2846,-21.17376],[-44.28485,-21.17373],[-44.28513,-21.17366],[-44.28545,-21.17352],[-44.28571,-21.17338],[-44.28603,-21.17327],[-44.28638,-21.17317],[-44.28668,-21.17315],[-44.28701,-21.1731],[-44.28726,-21.17301],[-44.28779,-21.17278],[-44.2886,-21.17238],[-44.28925,-21.17202],[-44.28948,-21.17187],[-44.28979,-21.17164],[-44.29001,-21.17142],[-44.29015,-21.17122],[-44.29022,-21.171],[-44.29028,-21.17074],[-44.29029,-21.16962],[-44.29036,-21.16933],[-44.29059,-21.16885],[-44.29089,-21.16806],[-44.29111,-21.16764],[-44.29125,-21.16745],[-44.29128,-21.16724],[-44.29128,-21.16698],[-44.29121,-21.16674],[-44.29099,-21.16646],[-44.29081,-21.16627],[-44.29055,-21.16606],[-44.29027,-21.16589],[-44.28981,-21.16551],[-44.2894,-21.16513],[-44.28918,-21.16495],[-44.28894,-21.16481],[-44.28871,-21.1646],[-44.2884,-21.16412],[-44.28833,-21.16362],[-44.28833,-21.163],[-44.28839,-21.16244],[-44.28839,-21.1617],[-44.28844,-21.16111],[-44.28848,-21.16088],[-44.28851,-21.15999],[-44.28863,-21.15935],[-44.28885,-21.1587],[-44.28913,-21.15816],[-44.28941,-21.15769],[-44.28965,-21.15739],[-44.28994,-21.15709],[-44.29037,-21.15639],[-44.29059,-21.15589],[-44.29074,-21.15567],[-44.29092,-21.15544],[-44.29117,-21.15528],[-44.2915,-21.15521],[-44.2917,-21.15506],[-44.29191,-21.15486],[-44.29212,-21.15473],[-44.29289,-21.15434],[-44.29319,-21.15422],[-44.29422,-21.15417],[-44.29545,-21.15416],[-44.29545,-21.15315],[-44.29529,-21.15215],[-44.29531,-21.15151],[-44.29529,-21.15114],[-44.29498,-21.15095],[-44.29451,-21.15077],[-44.29336,-21.15043],[-44.29295,-21.15029],[-44.29253,-21.1502],[-44.29214,-21.15008],[-44.29187,-21.1499],[-44.29131,-21.14939],[-44.29099,-21.14914],[-44.29078,-21.14883],[-44.29057,-21.1484],[-44.2905,-21.14822],[-44.29043,-21.14784],[-44.29039,-21.14749],[-44.2902,-21.14721],[-44.28973,-21.14721],[-44.28911,-21.14729],[-44.28795,-21.14719],[-44.28744,-21.1471],[-44.2868,-21.14688],[-44.28674,-21.14666],[-44.28692,-21.14648],[-44.28712,-21.14632],[-44.2872,-21.1461],[-44.28708,-21.1459],[-44.28678,-21.14554],[-44.28646,-21.14506],[-44.28632,-21.145],[-44.28638,-21.14489],[-44.28648,-21.14485],[-44.28656,-21.14478],[-44.28662,-21.14446],[-44.2867,-21.14437],[-44.28687,-21.1441],[-44.28697,-21.14398],[-44.28709,-21.14387],[-44.28734,-21.14353],[-44.28754,-21.14315],[-44.28751,-21.14305],[-44.28738,-21.14294],[-44.28716,-21.14286],[-44.28677,-21.14287],[-44.2865,-21.1429],[-44.28583,-21.14287],[-44.28549,-21.14268],[-44.28533,-21.14254],[-44.28528,-21.14235],[-44.28535,-21.14221],[-44.28555,-21.14204],[-44.28569,-21.14187],[-44.28581,-21.14177],[-44.28612,-21.14162],[-44.2862,-21.1415],[-44.28623,-21.14109],[-44.28617,-21.1409],[-44.28646,-21.14076],[-44.28666,-21.14061],[-44.28671,-21.14042],[-44.28663,-21.14026],[-44.28643,-21.14005],[-44.28627,-21.13983],[-44.28605,-21.13929],[-44.28587,-21.13911],[-44.28571,-21.1389],[-44.28611,-21.13752],[-44.28594,-21.13529],[-44.28583,-21.13437],[-44.28594,-21.13381],[-44.28593,-21.13334],[-44.2856,-21.13309],[-44.2852,-21.13303],[-44.28497,-21.13302],[-44.28478,-21.13309],[-44.28463,-21.13322],[-44.28434,-21.13335],[-44.28412,-21.13331],[-44.28389,-21.13318],[-44.28364,-21.13311],[-44.28357,-21.13322],[-44.28343,-21.13327],[-44.28333,-21.13319],[-44.28337,-21.13297],[-44.28348,-21.1327],[-44.28369,-21.13246],[-44.28385,-21.13219],[-44.28401,-21.13202],[-44.28401,-21.13185],[-44.2839,-21.13168],[-44.28372,-21.13152],[-44.28346,-21.13138],[-44.28317,-21.13151],[-44.28309,-21.13166],[-44.28307,-21.13188],[-44.28298,-21.132],[-44.28297,-21.13216],[-44.28281,-21.1323],[-44.28261,-21.13244],[-44.28238,-21.13256],[-44.28209,-21.13278],[-44.28187,-21.13292],[-44.28172,-21.13309],[-44.28152,-21.13315],[-44.28131,-21.13314],[-44.28103,-21.13323],[-44.28058,-21.13329],[-44.28033,-21.13336],[-44.28006,-21.13346],[-44.27986,-21.13346],[-44.27961,-21.13341],[-44.27941,-21.13331],[-44.27919,-21.13326],[-44.27891,-21.13328],[-44.2787,-21.13334],[-44.27847,-21.1332],[-44.27821,-21.13315],[-44.27771,-21.13315],[-44.27767,-21.13301],[-44.2777,-21.13292],[-44.27765,-21.1328],[-44.27754,-21.13275],[-44.27738,-21.13272],[-44.277,-21.13256],[-44.27689,-21.13239],[-44.27673,-21.13231],[-44.27671,-21.13217],[-44.27663,-21.13202],[-44.27657,-21.13197],[-44.27641,-21.13198],[-44.27617,-21.13207],[-44.27595,-21.13209],[-44.27569,-21.13208],[-44.27547,-21.13203],[-44.27526,-21.13202],[-44.275,-21.13192],[-44.27464,-21.13188],[-44.27439,-21.1321],[-44.27415,-21.13228],[-44.27382,-21.13232],[-44.27351,-21.13254],[-44.27316,-21.13269],[-44.27296,-21.13258],[-44.27268,-21.1327],[-44.27248,-21.13277],[-44.27197,-21.13269],[-44.27172,-21.13275],[-44.27154,-21.13262],[-44.27131,-21.13215],[-44.27128,-21.13183],[-44.27129,-21.13152],[-44.27137,-21.13118],[-44.27128,-21.13094],[-44.27113,-21.13081],[-44.27097,-21.13061],[-44.27079,-21.13049],[-44.27057,-21.13051],[-44.2701,-21.13049],[-44.26991,-21.13045],[-44.26971,-21.13023],[-44.26945,-21.13009],[-44.26941,-21.13002],[-44.26939,-21.12988],[-44.26932,-21.12987],[-44.26914,-21.12991],[-44.26906,-21.12989],[-44.269,-21.1298],[-44.26901,-21.12972],[-44.26898,-21.12963],[-44.26891,-21.12955],[-44.26911,-21.12938],[-44.26915,-21.12924],[-44.26916,-21.12909],[-44.26909,-21.12899],[-44.26901,-21.12896],[-44.26877,-21.12893],[-44.26877,-21.12902],[-44.26874,-21.12907],[-44.26849,-21.1292],[-44.26846,-21.12925],[-44.26845,-21.12935],[-44.26848,-21.12962],[-44.26846,-21.12967],[-44.26834,-21.1297],[-44.26824,-21.1297],[-44.268,-21.12962],[-44.26793,-21.12963],[-44.26787,-21.12982],[-44.26788,-21.12997],[-44.26796,-21.13021],[-44.26778,-21.13041],[-44.26751,-21.13053],[-44.26746,-21.13063],[-44.26735,-21.1307],[-44.26686,-21.13098],[-44.267,-21.13112],[-44.26703,-21.13141],[-44.26706,-21.1315],[-44.26723,-21.13178],[-44.26714,-21.13181],[-44.26704,-21.13185],[-44.26688,-21.13219],[-44.26681,-21.1323],[-44.26652,-21.13241],[-44.26635,-21.13271],[-44.26628,-21.13307],[-44.26623,-21.13316],[-44.26613,-21.13325],[-44.26597,-21.13381],[-44.26578,-21.13435],[-44.26559,-21.13515],[-44.26555,-21.13531],[-44.2656,-21.13563],[-44.26548,-21.13618],[-44.26516,-21.13618],[-44.26497,-21.13616],[-44.26452,-21.13601],[-44.26426,-21.13657],[-44.26416,-21.13653],[-44.26395,-21.13718],[-44.26425,-21.13725],[-44.26472,-21.13719],[-44.26468,-21.1377],[-44.26457,-21.13815],[-44.2645,-21.13835],[-44.26403,-21.13823],[-44.2633,-21.138],[-44.26307,-21.13779],[-44.26303,-21.13795],[-44.26295,-21.13803],[-44.26217,-21.13864],[-44.26196,-21.13882],[-44.26179,-21.1391],[-44.26167,-21.13936],[-44.26166,-21.13986],[-44.2617,-21.14015],[-44.26175,-21.1403],[-44.26266,-21.14096],[-44.26279,-21.14108],[-44.26289,-21.1412],[-44.26301,-21.14129],[-44.26318,-21.14153],[-44.26318,-21.14171],[-44.26311,-21.14189],[-44.26284,-21.1422],[-44.26277,-21.14232],[-44.26282,-21.14248]]]]}},{"type":"Feature","properties":{"territory_id":"mg-3162500-vila-belizario","name":"Vila Belizário","municipality_id":"mg-3162500","polling_places":1,"approx":true,"official":false,"method":"voronoi-polling-places","whole_municipality":false,"approx_coords_only":false},"geometry":{"type":"MultiPolygon","coordinates":[[[[-44.25211,-21.13638],[-44.25122,-21.13719],[-44.25063,-21.13768],[-44.25031,-21.13798],[-44.24961,-21.13817],[-44.24859,-21.1384],[-44.2479,-21.1386],[-44.24745,-21.13883],[-44.24702,-21.1391],[-44.24645,-21.1395],[-44.24619,-21.13971],[-44.24596,-21.13994],[-44.24588,-21.14006],[-44.24583,-21.14019],[-44.24581,-21.14033],[-44.24585,-21.14061],[-44.2459,-21.14079],[-44.24598,-21.14095],[-44.24621,-21.14129],[-44.24639,-21.14149],[-44.24666,-21.14175],[-44.24674,-21.14184],[-44.24676,-21.14192],[-44.24683,-21.14223],[-44.24682,-21.14263],[-44.24675,-21.14295],[-44.24665,-21.14316],[-44.24654,-21.14334],[-44.24638,-21.14355],[-44.24397,-21.14568],[-44.24363,-21.14601],[-44.24321,-21.14648],[-44.24309,-21.14667],[-44.2424,-21.148],[-44.24231,-21.14819],[-44.23765,-21.13928],[-44.23663,-21.134],[-44.23686,-21.13375],[-44.23698,-21.13354],[-44.23718,-21.13339],[-44.23742,-21.13312],[-44.23784,-21.13296],[-44.23802,-21.13283],[-44.23831,-21.13278],[-44.23854,-21.13267],[-44.23883,-21.13252],[-44.23931,-21.13246],[-44.23956,-21.13237],[-44.23976,-21.13223],[-44.24001,-21.13212],[-44.24022,-21.13197],[-44.24044,-21.13186],[-44.24068,-21.13176],[-44.24117,-21.13146],[-44.24142,-21.13133],[-44.24179,-21.13124],[-44.24209,-21.1312],[-44.24251,-21.13101],[-44.24296,-21.13079],[-44.24315,-21.13062],[-44.24333,-21.13052],[-44.24349,-21.13039],[-44.24412,-21.12993],[-44.24427,-21.12963],[-44.24714,-21.12959],[-44.249,-21.13124],[-44.25211,-21.13638]]]]}},{"type":"Feature","properties":{"territory_id":"mg-3162500-vila-santa-terezinha","name":"Vila Santa Terezinha","municipality_id":"mg-3162500","polling_places":2,"approx":true,"official":false,"method":"voronoi-polling-places","whole_municipality":false,"approx_coords_only":false},"geometry":{"type":"MultiPolygon","coordinates":[[[[-44.23765,-21.13928],[-44.23466,-21.13885],[-44.23489,-21.13872],[-44.23506,-21.1386],[-44.23536,-21.13855],[-44.23551,-21.13841],[-44.23579,-21.13831],[-44.23634,-21.1379],[-44.23661,-21.1376],[-44.23662,-21.13738],[-44.23654,-21.13714],[-44.23622,-21.13681],[-44.23573,-21.13686],[-44.23556,-21.13701],[-44.23534,-21.13705],[-44.23502,-21.137],[-44.2348,-21.13667],[-44.23453,-21.13622],[-44.23429,-21.13595],[-44.23421,-21.13584],[-44.23419,-21.13578],[-44.23422,-21.13557],[-44.23447,-21.13536],[-44.23486,-21.1353],[-44.23515,-21.13518],[-44.23522,-21.13508],[-44.23587,-21.13471],[-44.23615,-21.13442],[-44.23631,-21.13434],[-44.23663,-21.134],[-44.23765,-21.13928]]],[[[-44.23158,-21.12544],[-44.23135,-21.12555],[-44.231,-21.12579],[-44.2303,-21.12618],[-44.2301,-21.12633],[-44.23003,-21.12646],[-44.22996,-21.12665],[-44.22985,-21.12681],[-44.22971,-21.1271],[-44.22959,-21.12749],[-44.22942,-21.12779],[-44.22927,-21.12789],[-44.22904,-21.12799],[-44.22876,-21.12806],[-44.22849,-21.12814],[-44.22813,-21.12816],[-44.22705,-21.1285],[-44.22684,-21.1285],[-44.22663,-21.12848],[-44.22646,-21.1284],[-44.22614,-21.12822],[-44.22585,-21.12792],[-44.22536,-21.12724],[-44.22512,-21.1271],[-44.22506,-21.12707],[-44.2294,-21.1278],[-44.22807,-21.12577],[-44.23117,-21.12502],[-44.23158,-21.12544]]],[[[-44.22386,-21.12893],[-44.22385,-21.12903],[-44.22376,-21.12914],[-44.22374,-21.12929],[-44.22377,-21.12939],[-44.22379,-21.12953],[-44.22367,-21.12994],[-44.2236,-21.13008],[-44.22348,-21.13014],[-44.22341,-21.13031],[-44.22343,-21.13063],[-44.22349,-21.1309],[-44.22348,-21.13121],[-44.2235,-21.13137],[-44.22332,-21.13185],[-44.22322,-21.13197],[-44.22285,-21.13222],[-44.22261,-21.13244],[-44.22242,-21.13271],[-44.22239,-21.13287],[-44.22234,-21.13295],[-44.22225,-21.13316],[-44.22198,-21.13346],[-44.22178,-21.1341],[-44.22177,-21.13433],[-44.22172,-21.13458],[-44.22166,-21.13465],[-44.22157,-21.13498],[-44.22143,-21.13516],[-44.22128,-21.13547],[-44.22128,-21.1359],[-44.2213,-21.13599],[-44.22142,-21.13618],[-44.22144,-21.13635],[-44.22136,-21.13658],[-44.22123,-21.13682],[-44.22119,-21.1369],[-44.20138,-21.13404],[-44.22314,-21.12713],[-44.22315,-21.12715],[-44.22341,-21.12738],[-44.22355,-21.12755],[-44.22368,-21.1276],[-44.22376,-21.12771],[-44.22374,-21.12805],[-44.22366,-21.12838],[-44.22367,-21.12851],[-44.22371,-21.12862],[-44.2238,-21.12873],[-44.22386,-21.12893]]]]}},{"type":"Feature","properties":{"territory_id":"mg-3162500-zona-rural","name":"Zona Rural","municipality_id":"mg-3162500","polling_places":3,"approx":true,"official":false,"method":"voronoi-polling-places","whole_municipality":false,"approx_coords_only":false},"geometry":{"type":"MultiPolygon","coordinates":[[[[-44.27444,-21.24363],[-44.26059,-21.27927],[-44.18541,-21.33324],[-44.16639,-21.38784],[-44.143,-21.3857],[-44.0891,-21.4354],[-44.0054,-21.3632],[-44.0243,-21.3415],[-44.008,-21.2893],[-44.0229,-21.2416],[-44.1214,-21.1788],[-44.12431,-21.17672],[-44.24133,-21.20589],[-44.25868,-21.21518],[-44.27444,-21.24363]]]]}}]}