{"type":"FeatureCollection","features":[{"type":"Feature","properties":{"territory_id":"mg-3162955-cachoeira","name":"Cachoeira","municipality_id":"mg-3162955","polling_places":2,"approx":true,"official":false,"method":"voronoi-polling-places","whole_municipality":false,"approx_coords_only":false},"geometry":{"type":"MultiPolygon","coordinates":[[[[-43.98257,-19.70091],[-43.9819,-19.71659],[-43.98135,-19.72977],[-43.9769,-19.7311],[-43.97045,-19.72586],[-43.97009,-19.70675],[-43.97003,-19.70401],[-43.98112,-19.69375],[-43.98257,-19.70091]]]]}},{"type":"Feature","properties":{"territory_id":"mg-3162955-centro","name":"Centro","municipality_id":"mg-3162955","polling_places":2,"approx":true,"official":false,"method":"voronoi-polling-places","whole_municipality":false,"approx_coords_only":false},"geometry":{"type":"MultiPolygon","coordinates":[[[[-43.98442,-19.68528],[-43.98112,-19.69375],[-43.97003,-19.70401],[-43.96153,-19.70481],[-43.94736,-19.7071],[-43.938,-19.6995],[-43.9571,-19.6699],[-43.98442,-19.68528]]]]}},{"type":"Feature","properties":{"territory_id":"mg-3162955-dom-pedro-i","name":"Dom Pedro I","municipality_id":"mg-3162955","polling_places":2,"approx":true,"official":false,"method":"voronoi-polling-places","whole_municipality":false,"approx_coords_only":false},"geometry":{"type":"MultiPolygon","coordinates":[[[[-44.01104,-19.71993],[-44.007,-19.7221],[-43.98135,-19.72977],[-43.9819,-19.71659],[-43.98257,-19.70091],[-43.98112,-19.69375],[-43.98442,-19.68528],[-43.988,-19.6873],[-43.99086,-19.68208],[-44.00786,-19.69851],[-44.01104,-19.71993]]]]}},{"type":"Feature","properties":{"territory_id":"mg-3162955-inacia-de-carvalho","name":"Inácia de Carvalho","municipality_id":"mg-3162955","polling_places":1,"approx":true,"official":false,"method":"voronoi-polling-places","whole_municipality":false,"approx_coords_only":false},"geometry":{"type":"MultiPolygon","coordinates":[[[[-44.0386,-19.681],[-44.03807,-19.6871],[-44.00786,-19.69851],[-43.99086,-19.68208],[-44.0053,-19.6557],[-44.0386,-19.681]]]]}},{"type":"Feature","properties":{"territory_id":"mg-3162955-jardim-encantado","name":"Jardim Encantado","municipality_id":"mg-3162955","polling_places":1,"approx":true,"official":false,"method":"voronoi-polling-places","whole_municipality":false,"approx_coords_only":false},"geometry":{"type":"MultiPolygon","coordinates":[[[[-43.97045,-19.72586],[-43.94736,-19.7071],[-43.96153,-19.70481],[-43.97003,-19.70401],[-43.97009,-19.70675],[-43.97045,-19.72586]]]]}},{"type":"Feature","properties":{"territory_id":"mg-3162955-maravilhas","name":"Maravilhas","municipality_id":"mg-3162955","polling_places":1,"approx":true,"official":false,"method":"voronoi-polling-places","whole_municipality":false,"approx_coords_only":false},"geometry":{"type":"MultiPolygon","coordinates":[[[[-44.03807,-19.6871],[-44.0364,-19.7063],[-44.01104,-19.71993],[-44.00786,-19.69851],[-44.03807,-19.6871]]]]}}]}