{"type":"FeatureCollection","features":[{"type":"Feature","properties":{"territory_id":"mg-3162401-brejinho","name":"Brejinho","municipality_id":"mg-3162401","polling_places":1,"approx":true,"official":false,"method":"voronoi-polling-places","whole_municipality":false,"approx_coords_only":false},"geometry":{"type":"MultiPolygon","coordinates":[[[[-44.03675,-15.87407],[-43.9776,-15.88513],[-43.97882,-15.83322],[-44.03596,-15.84054],[-44.03675,-15.87407]]]]}},{"type":"Feature","properties":{"territory_id":"mg-3162401-canabraval","name":"Canabraval","municipality_id":"mg-3162401","polling_places":1,"approx":true,"official":false,"method":"voronoi-polling-places","whole_municipality":false,"approx_coords_only":false},"geometry":{"type":"MultiPolygon","coordinates":[[[[-43.9411,-15.80625],[-43.86802,-15.88074],[-43.85681,-15.88465],[-43.8482,-15.87882],[-43.84442,-15.82985],[-43.91771,-15.76905],[-43.9411,-15.80625]]]]}},{"type":"Feature","properties":{"territory_id":"mg-3162401-centro","name":"Centro","municipality_id":"mg-3162401","polling_places":2,"approx":true,"official":false,"method":"voronoi-polling-places","whole_municipality":false,"approx_coords_only":false},"geometry":{"type":"MultiPolygon","coordinates":[[[[-44.03547,-15.95356],[-44.02926,-15.96013],[-44.01477,-15.95206],[-44.00205,-15.92811],[-43.97422,-15.90087],[-43.97456,-15.90004],[-44.01848,-15.9179],[-44.03297,-15.94879],[-44.03547,-15.95356]]]]}},{"type":"Feature","properties":{"territory_id":"mg-3162401-condado-do-norte","name":"Condado do Norte","municipality_id":"mg-3162401","polling_places":1,"approx":true,"official":false,"method":"voronoi-polling-places","whole_municipality":false,"approx_coords_only":false},"geometry":{"type":"MultiPolygon","coordinates":[[[[-44.11683,-15.85406],[-44.10678,-15.8761],[-44.08232,-15.86796],[-44.06511,-15.83354],[-44.09646,-15.81744],[-44.11683,-15.85406]]]]}},{"type":"Feature","properties":{"territory_id":"mg-3162401-joao-moreira","name":"João Moreira","municipality_id":"mg-3162401","polling_places":1,"approx":true,"official":false,"method":"voronoi-polling-places","whole_municipality":false,"approx_coords_only":false},"geometry":{"type":"MultiPolygon","coordinates":[[[[-44.11355,-15.91419],[-44.06774,-15.92036],[-44.04234,-15.89103],[-44.03786,-15.87513],[-44.08232,-15.86796],[-44.10678,-15.8761],[-44.11355,-15.91419]]]]}},{"type":"Feature","properties":{"territory_id":"mg-3162401-pocoes","name":"Poçoes","municipality_id":"mg-3162401","polling_places":1,"approx":true,"official":false,"method":"voronoi-polling-places","whole_municipality":false,"approx_coords_only":false},"geometry":{"type":"MultiPolygon","coordinates":[[[[-44.04234,-15.89103],[-44.01848,-15.9179],[-43.97456,-15.90004],[-43.97491,-15.88915],[-43.9776,-15.88513],[-44.03675,-15.87407],[-44.03786,-15.87513],[-44.04234,-15.89103]]]]}},{"type":"Feature","properties":{"territory_id":"mg-3162401-ribeirao-de-arapuim","name":"Ribeirão de Arapuim","municipality_id":"mg-3162401","polling_places":1,"approx":true,"official":false,"method":"voronoi-polling-places","whole_municipality":false,"approx_coords_only":false},"geometry":{"type":"MultiPolygon","coordinates":[[[[-44.01468,-15.76768],[-44.01235,-15.78274],[-43.97419,-15.82415],[-43.94923,-15.81401],[-43.9411,-15.80625],[-43.91771,-15.76905],[-43.91815,-15.76552],[-43.9266,-15.7694],[-43.9872,-15.7656],[-44.01468,-15.76768]]]]}},{"type":"Feature","properties":{"territory_id":"mg-3162401-santa-clara","name":"Santa Clara","municipality_id":"mg-3162401","polling_places":1,"approx":true,"official":false,"method":"voronoi-polling-places","whole_municipality":false,"approx_coords_only":false},"geometry":{"type":"MultiPolygon","coordinates":[[[[-44.2357,-15.9805],[-44.2063,-15.9712],[-44.1722,-15.9868],[-44.1268,-15.9715],[-44.12532,-15.97345],[-44.11484,-15.91533],[-44.17131,-15.90072],[-44.171,-15.9035],[-44.2016,-15.9383],[-44.2357,-15.9805]]]]}},{"type":"Feature","properties":{"territory_id":"mg-3162401-sao-geraldo","name":"São Geraldo","municipality_id":"mg-3162401","polling_places":1,"approx":true,"official":false,"method":"voronoi-polling-places","whole_municipality":false,"approx_coords_only":false},"geometry":{"type":"MultiPolygon","coordinates":[[[[-44.01477,-15.95206],[-43.96253,-15.9257],[-43.97422,-15.90087],[-44.00205,-15.92811],[-44.01477,-15.95206]]]]}},{"type":"Feature","properties":{"territory_id":"mg-3162401-zona-rural","name":"Zona Rural","municipality_id":"mg-3162401","polling_places":27,"approx":true,"official":false,"method":"voronoi-polling-places","whole_municipality":false,"approx_coords_only":false},"geometry":{"type":"MultiPolygon","coordinates":[[[[-44.2029,-15.8286],[-44.1754,-15.8642],[-44.17131,-15.90072],[-44.11484,-15.91533],[-44.12532,-15.97345],[-44.0921,-16.0173],[-44.0674,-16.0023],[-44.0144,-16.0291],[-44.0121,-16.0466],[-43.9691,-16.0867],[-43.8906,-16.1125],[-43.852,-16.1109],[-43.8255,-16.0912],[-43.7656,-16.0892],[-43.7017,-16.0394],[-43.6851,-15.9868],[-43.6411,-15.939],[-43.6313,-15.9058],[-43.6364,-15.8634],[-43.6625,-15.8396],[-43.6346,-15.8194],[-43.6203,-15.7854],[-43.5939,-15.7537],[-43.6026,-15.7206],[-43.6435,-15.7107],[-43.6663,-15.7312],[-43.6981,-15.7301],[-43.7614,-15.7799],[-43.7937,-15.7893],[-43.8793,-15.7477],[-43.91815,-15.76552],[-43.91771,-15.76905],[-43.84442,-15.82985],[-43.8482,-15.87882],[-43.85681,-15.88465],[-43.86802,-15.88074],[-43.9411,-15.80625],[-43.94923,-15.81401],[-43.97419,-15.82415],[-44.01235,-15.78274],[-44.01468,-15.76768],[-44.0626,-15.7713],[-44.124,-15.7813],[-44.2029,-15.8286]],[[-44.11683,-15.85406],[-44.09646,-15.81744],[-44.06511,-15.83354],[-44.08232,-15.86796],[-44.03786,-15.87513],[-44.03675,-15.87407],[-44.03596,-15.84054],[-43.97882,-15.83322],[-43.9776,-15.88513],[-43.97491,-15.88915],[-43.97456,-15.90004],[-43.97422,-15.90087],[-43.96253,-15.9257],[-44.01477,-15.95206],[-44.02926,-15.96013],[-44.03547,-15.95356],[-44.03297,-15.94879],[-44.01848,-15.9179],[-44.04234,-15.89103],[-44.06774,-15.92036],[-44.11355,-15.91419],[-44.10678,-15.8761],[-44.11683,-15.85406]]]]}}]}