{"type":"FeatureCollection","features":[{"type":"Feature","properties":{"territory_id":"mg-3162302-centro","name":"Centro","municipality_id":"mg-3162302","polling_places":2,"approx":true,"official":false,"method":"voronoi-polling-places","whole_municipality":true,"approx_coords_only":false},"geometry":{"type":"MultiPolygon","coordinates":[[[[-46.0321,-21.8863],[-45.9871,-21.9102],[-45.9873,-21.9433],[-45.9604,-21.9878],[-45.9201,-21.988],[-45.9062,-22.0224],[-45.9007,-21.998],[-45.849,-21.9647],[-45.8592,-21.8938],[-45.9248,-21.9177],[-45.9612,-21.9167],[-45.9827,-21.8873],[-46.0321,-21.8863]]]]}}]}