{"type":"FeatureCollection","features":[{"type":"Feature","properties":{"territory_id":"mg-3162575-centro","name":"Centro","municipality_id":"mg-3162575","polling_places":2,"approx":true,"official":false,"method":"voronoi-polling-places","whole_municipality":false,"approx_coords_only":false},"geometry":{"type":"MultiPolygon","coordinates":[[[[-41.2324,-18.7973],[-41.1921,-18.79763],[-41.14686,-18.74741],[-41.12727,-18.72776],[-41.1398,-18.7164],[-41.17429,-18.69819],[-41.1784,-18.70245],[-41.22911,-18.7488],[-41.2324,-18.7973]]]]}},{"type":"Feature","properties":{"territory_id":"mg-3162575-divino-das-palmeiras","name":"Divino das Palmeiras","municipality_id":"mg-3162575","polling_places":1,"approx":true,"official":false,"method":"voronoi-polling-places","whole_municipality":false,"approx_coords_only":false},"geometry":{"type":"MultiPolygon","coordinates":[[[[-41.1921,-18.79763],[-41.1468,-18.798],[-41.0724,-18.7775],[-41.12727,-18.72776],[-41.14686,-18.74741],[-41.1921,-18.79763]]]]}},{"type":"Feature","properties":{"territory_id":"mg-3162575-vargem-grande","name":"Vargem Grande","municipality_id":"mg-3162575","polling_places":1,"approx":true,"official":false,"method":"voronoi-polling-places","whole_municipality":false,"approx_coords_only":false},"geometry":{"type":"MultiPolygon","coordinates":[[[[-41.22911,-18.7488],[-41.1784,-18.70245],[-41.17429,-18.69819],[-41.2023,-18.6834],[-41.2275,-18.7251],[-41.22911,-18.7488]]]]}}]}