{"type":"FeatureCollection","features":[{"type":"Feature","properties":{"territory_id":"mg-3162559-centro","name":"Centro","municipality_id":"mg-3162559","polling_places":1,"approx":true,"official":false,"method":"voronoi-polling-places","whole_municipality":false,"approx_coords_only":false},"geometry":{"type":"MultiPolygon","coordinates":[[[[-42.1882,-20.4339],[-42.1563,-20.4677],[-42.1359,-20.4687],[-42.12026,-20.40446],[-42.12155,-20.40221],[-42.18791,-20.38349],[-42.1882,-20.4339]]]]}},{"type":"Feature","properties":{"territory_id":"mg-3162559-pontoes","name":"Pontões","municipality_id":"mg-3162559","polling_places":1,"approx":true,"official":false,"method":"voronoi-polling-places","whole_municipality":false,"approx_coords_only":false},"geometry":{"type":"MultiPolygon","coordinates":[[[[-42.18189,-20.29273],[-42.12155,-20.40221],[-42.12026,-20.40446],[-42.1164,-20.3886],[-42.0887,-20.3604],[-42.1245,-20.3433],[-42.1137,-20.3053],[-42.1521,-20.2908],[-42.18189,-20.29273]]]]}},{"type":"Feature","properties":{"territory_id":"mg-3162559-santo-agostinho","name":"Santo Agostinho","municipality_id":"mg-3162559","polling_places":1,"approx":true,"official":false,"method":"voronoi-polling-places","whole_municipality":false,"approx_coords_only":false},"geometry":{"type":"MultiPolygon","coordinates":[[[[-42.2063,-20.3241],[-42.1877,-20.3476],[-42.18791,-20.38349],[-42.12155,-20.40221],[-42.18189,-20.29273],[-42.1968,-20.2937],[-42.2063,-20.3241]]]]}}]}