{"type":"FeatureCollection","features":[{"type":"Feature","properties":{"territory_id":"mg-3162948-bom-jesus-dos-campos","name":"Bom Jesus dos Campos","municipality_id":"mg-3162948","polling_places":1,"approx":true,"official":false,"method":"voronoi-polling-places","whole_municipality":false,"approx_coords_only":false},"geometry":{"type":"MultiPolygon","coordinates":[[[[-46.27862,-20.85223],[-46.268,-20.866],[-46.2457,-20.8314],[-46.1928,-20.7976],[-46.1668,-20.8009],[-46.1413,-20.774],[-46.1289,-20.7173],[-46.1504,-20.6949],[-46.1863,-20.6981],[-46.2104,-20.6821],[-46.23775,-20.68743],[-46.26339,-20.73888],[-46.27862,-20.85223]]]]}},{"type":"Feature","properties":{"territory_id":"mg-3162948-cachoeira-da-laje","name":"Cachoeira da Laje","municipality_id":"mg-3162948","polling_places":1,"approx":true,"official":false,"method":"voronoi-polling-places","whole_municipality":false,"approx_coords_only":false},"geometry":{"type":"MultiPolygon","coordinates":[[[[-46.33143,-20.73372],[-46.3267,-20.7584],[-46.2956,-20.7872],[-46.2902,-20.8372],[-46.27862,-20.85223],[-46.26339,-20.73888],[-46.32697,-20.73397],[-46.33143,-20.73372]]]]}},{"type":"Feature","properties":{"territory_id":"mg-3162948-cancan","name":"Cancan","municipality_id":"mg-3162948","polling_places":1,"approx":true,"official":false,"method":"voronoi-polling-places","whole_municipality":false,"approx_coords_only":false},"geometry":{"type":"MultiPolygon","coordinates":[[[[-46.3579,-20.6864],[-46.3368,-20.71135],[-46.33418,-20.70751],[-46.34597,-20.67953],[-46.3579,-20.6864]]]]}},{"type":"Feature","properties":{"territory_id":"mg-3162948-centro","name":"Centro","municipality_id":"mg-3162948","polling_places":2,"approx":true,"official":false,"method":"voronoi-polling-places","whole_municipality":false,"approx_coords_only":false},"geometry":{"type":"MultiPolygon","coordinates":[[[[-46.3368,-20.71135],[-46.3354,-20.713],[-46.33143,-20.73372],[-46.32697,-20.73397],[-46.26339,-20.73888],[-46.23775,-20.68743],[-46.2407,-20.688],[-46.26828,-20.66576],[-46.27289,-20.66872],[-46.33418,-20.70751],[-46.3368,-20.71135]]]]}},{"type":"Feature","properties":{"territory_id":"mg-3162948-vila-furnas","name":"Vila Furnas","municipality_id":"mg-3162948","polling_places":1,"approx":true,"official":false,"method":"voronoi-polling-places","whole_municipality":false,"approx_coords_only":false},"geometry":{"type":"MultiPolygon","coordinates":[[[[-46.34597,-20.67953],[-46.33418,-20.70751],[-46.27289,-20.66872],[-46.26828,-20.66576],[-46.2753,-20.6601],[-46.3256,-20.6678],[-46.34597,-20.67953]]]]}}]}