{"type":"FeatureCollection","features":[{"type":"Feature","properties":{"territory_id":"mg-3162708-centro","name":"Centro","municipality_id":"mg-3162708","polling_places":3,"approx":true,"official":false,"method":"voronoi-polling-places","whole_municipality":false,"approx_coords_only":false},"geometry":{"type":"MultiPolygon","coordinates":[[[[-42.02411,-15.31147],[-42.02328,-15.33907],[-42.02385,-15.34747],[-41.98601,-15.3439],[-41.97321,-15.33359],[-41.97654,-15.31371],[-41.9846,-15.30218],[-42.00148,-15.30643],[-42.01787,-15.30958],[-42.01835,-15.31638],[-42.02411,-15.31147]]]]}},{"type":"Feature","properties":{"territory_id":"mg-3162708-povoado-de-boa-sorte","name":"Povoado de Boa Sorte","municipality_id":"mg-3162708","polling_places":1,"approx":true,"official":false,"method":"voronoi-polling-places","whole_municipality":false,"approx_coords_only":false},"geometry":{"type":"MultiPolygon","coordinates":[[[[-42.22356,-15.39509],[-42.0978,-15.34901],[-42.16839,-15.30546],[-42.21529,-15.30938],[-42.2202,-15.3238],[-42.219,-15.3783],[-42.22356,-15.39509]]]]}},{"type":"Feature","properties":{"territory_id":"mg-3162708-povoado-de-sao-tiago","name":"Povoado de Sao Tiago","municipality_id":"mg-3162708","polling_places":1,"approx":true,"official":false,"method":"voronoi-polling-places","whole_municipality":false,"approx_coords_only":false},"geometry":{"type":"MultiPolygon","coordinates":[[[[-42.02168,-15.29099],[-41.99117,-15.28775],[-41.99076,-15.24078],[-42.00451,-15.19603],[-42.02168,-15.21127],[-42.02168,-15.29099]]]]}},{"type":"Feature","properties":{"territory_id":"mg-3162708-sao-joaozinho","name":"São Joãozinho","municipality_id":"mg-3162708","polling_places":3,"approx":true,"official":false,"method":"voronoi-polling-places","whole_municipality":false,"approx_coords_only":false},"geometry":{"type":"MultiPolygon","coordinates":[[[[-42.09188,-15.34908],[-42.07505,-15.3697],[-42.03179,-15.34975],[-42.02385,-15.34747],[-42.02328,-15.33907],[-42.02411,-15.31147],[-42.01835,-15.31638],[-42.01787,-15.30958],[-42.02443,-15.30905],[-42.03323,-15.30215],[-42.03885,-15.29281],[-42.06678,-15.28101],[-42.08495,-15.30186],[-42.09188,-15.34908]]]]}},{"type":"Feature","properties":{"territory_id":"mg-3162708-taboleiro-alto","name":"Taboleiro Alto","municipality_id":"mg-3162708","polling_places":1,"approx":true,"official":false,"method":"voronoi-polling-places","whole_municipality":false,"approx_coords_only":false},"geometry":{"type":"MultiPolygon","coordinates":[[[[-42.03885,-15.29281],[-42.03323,-15.30215],[-42.02443,-15.30905],[-42.01787,-15.30958],[-42.00148,-15.30643],[-41.9846,-15.30218],[-41.99117,-15.28775],[-42.02168,-15.29099],[-42.03885,-15.29281]]]]}},{"type":"Feature","properties":{"territory_id":"mg-3162708-zona-rural","name":"Zona Rural","municipality_id":"mg-3162708","polling_places":29,"approx":true,"official":false,"method":"voronoi-polling-places","whole_municipality":false,"approx_coords_only":false},"geometry":{"type":"MultiPolygon","coordinates":[[[[-42.2725,-15.1922],[-42.2082,-15.2225],[-42.1976,-15.2574],[-42.21529,-15.30938],[-42.16839,-15.30546],[-42.0978,-15.34901],[-42.22356,-15.39509],[-42.2298,-15.4181],[-42.1764,-15.4144],[-42.1116,-15.4243],[-42.0767,-15.3947],[-42.055,-15.4364],[-42.0135,-15.4687],[-41.976,-15.5209],[-41.9779,-15.5641],[-41.9351,-15.6248],[-41.9048,-15.6312],[-41.8533,-15.6046],[-41.8041,-15.6123],[-41.7479,-15.5892],[-41.7134,-15.5761],[-41.6918,-15.5243],[-41.7044,-15.5089],[-41.7403,-15.4841],[-41.7403,-15.4444],[-41.8156,-15.4067],[-41.8442,-15.4128],[-41.8803,-15.3635],[-41.8497,-15.3325],[-41.8514,-15.3075],[-41.8319,-15.2484],[-41.7771,-15.2505],[-41.7788,-15.2176],[-41.7997,-15.2042],[-41.7843,-15.1343],[-41.8023,-15.1003],[-41.8103,-15.1014],[-41.8725,-15.1165],[-41.897,-15.1519],[-41.9534,-15.1757],[-41.9947,-15.1589],[-42.0485,-15.1707],[-42.0961,-15.1824],[-42.1554,-15.0979],[-42.2231,-15.0996],[-42.2656,-15.125],[-42.2567,-15.1609],[-42.2725,-15.1922]],[[-42.09188,-15.34908],[-42.08495,-15.30186],[-42.06678,-15.28101],[-42.03885,-15.29281],[-42.02168,-15.29099],[-42.02168,-15.21127],[-42.00451,-15.19603],[-41.99076,-15.24078],[-41.99117,-15.28775],[-41.9846,-15.30218],[-41.97654,-15.31371],[-41.97321,-15.33359],[-41.98601,-15.3439],[-42.02385,-15.34747],[-42.03179,-15.34975],[-42.07505,-15.3697],[-42.09188,-15.34908]]]]}}]}