{"type":"FeatureCollection","features":[{"type":"Feature","properties":{"territory_id":"mg-3162005-centro","name":"Centro","municipality_id":"mg-3162005","polling_places":2,"approx":true,"official":false,"method":"voronoi-polling-places","whole_municipality":false,"approx_coords_only":false},"geometry":{"type":"MultiPolygon","coordinates":[[[[-45.59576,-21.89227],[-45.58857,-21.9021],[-45.58699,-21.89469],[-45.49455,-21.81725],[-45.4933,-21.8131],[-45.51197,-21.79858],[-45.52126,-21.80888],[-45.59512,-21.89206],[-45.59576,-21.89227]]]]}},{"type":"Feature","properties":{"territory_id":"mg-3162005-ferreiras","name":"Ferreiras","municipality_id":"mg-3162005","polling_places":1,"approx":true,"official":false,"method":"voronoi-polling-places","whole_municipality":false,"approx_coords_only":false},"geometry":{"type":"MultiPolygon","coordinates":[[[[-45.55377,-21.94611],[-45.5255,-22.00411],[-45.4769,-21.9898],[-45.4362,-21.9774],[-45.4879,-21.9039],[-45.49976,-21.84765],[-45.55377,-21.94611]]]]}},{"type":"Feature","properties":{"territory_id":"mg-3162005-jardim-baronesa","name":"Jardim Baronesa","municipality_id":"mg-3162005","polling_places":1,"approx":true,"official":false,"method":"voronoi-polling-places","whole_municipality":false,"approx_coords_only":false},"geometry":{"type":"MultiPolygon","coordinates":[[[[-45.61967,-21.84691],[-45.59671,-21.88744],[-45.52126,-21.80888],[-45.51197,-21.79858],[-45.5167,-21.7949],[-45.5562,-21.7891],[-45.6017,-21.8004],[-45.6061,-21.8493],[-45.61967,-21.84691]]]]}},{"type":"Feature","properties":{"territory_id":"mg-3162005-nossa-senhora-aparecida","name":"Nossa Senhora Aparecida","municipality_id":"mg-3162005","polling_places":1,"approx":true,"official":false,"method":"voronoi-polling-places","whole_municipality":false,"approx_coords_only":false},"geometry":{"type":"MultiPolygon","coordinates":[[[[-45.61436,-21.94376],[-45.61185,-21.94495],[-45.58936,-21.94397],[-45.58857,-21.9021],[-45.59576,-21.89227],[-45.5959,-21.89229],[-45.59619,-21.89245],[-45.61436,-21.94376]]]]}},{"type":"Feature","properties":{"territory_id":"mg-3162005-novo-horizonte","name":"Novo Horizonte","municipality_id":"mg-3162005","polling_places":1,"approx":true,"official":false,"method":"voronoi-polling-places","whole_municipality":false,"approx_coords_only":false},"geometry":{"type":"MultiPolygon","coordinates":[[[[-45.58936,-21.94397],[-45.55377,-21.94611],[-45.49976,-21.84765],[-45.5014,-21.8399],[-45.49455,-21.81725],[-45.58699,-21.89469],[-45.58857,-21.9021],[-45.58936,-21.94397]]]]}},{"type":"Feature","properties":{"territory_id":"mg-3162005-praiao","name":"Praiao","municipality_id":"mg-3162005","polling_places":1,"approx":true,"official":false,"method":"voronoi-polling-places","whole_municipality":false,"approx_coords_only":false},"geometry":{"type":"MultiPolygon","coordinates":[[[[-45.62986,-21.88029],[-45.62423,-21.94013],[-45.61436,-21.94376],[-45.59619,-21.89245],[-45.62986,-21.88029]]]]}},{"type":"Feature","properties":{"territory_id":"mg-3162005-ribeiros","name":"Ribeiros","municipality_id":"mg-3162005","polling_places":1,"approx":true,"official":false,"method":"voronoi-polling-places","whole_municipality":false,"approx_coords_only":false},"geometry":{"type":"MultiPolygon","coordinates":[[[[-45.61356,-22.01806],[-45.5319,-22.006],[-45.5255,-22.00411],[-45.55377,-21.94611],[-45.58936,-21.94397],[-45.61185,-21.94495],[-45.61356,-22.01806]]]]}},{"type":"Feature","properties":{"territory_id":"mg-3162005-santa-rita","name":"Santa Rita","municipality_id":"mg-3162005","polling_places":1,"approx":true,"official":false,"method":"voronoi-polling-places","whole_municipality":false,"approx_coords_only":false},"geometry":{"type":"MultiPolygon","coordinates":[[[[-45.59671,-21.88744],[-45.5959,-21.89229],[-45.59576,-21.89227],[-45.59512,-21.89206],[-45.52126,-21.80888],[-45.59671,-21.88744]]]]}},{"type":"Feature","properties":{"territory_id":"mg-3162005-serra","name":"Serra","municipality_id":"mg-3162005","polling_places":1,"approx":true,"official":false,"method":"voronoi-polling-places","whole_municipality":false,"approx_coords_only":false},"geometry":{"type":"MultiPolygon","coordinates":[[[[-45.63812,-21.84365],[-45.62986,-21.88029],[-45.59619,-21.89245],[-45.5959,-21.89229],[-45.59671,-21.88744],[-45.61967,-21.84691],[-45.63812,-21.84365]]]]}},{"type":"Feature","properties":{"territory_id":"mg-3162005-zona-rural","name":"Zona Rural","municipality_id":"mg-3162005","polling_places":2,"approx":true,"official":false,"method":"voronoi-polling-places","whole_municipality":false,"approx_coords_only":false},"geometry":{"type":"MultiPolygon","coordinates":[[[[-45.7456,-21.9235],[-45.7308,-21.955],[-45.7168,-21.9941],[-45.6843,-21.9797],[-45.6434,-21.9854],[-45.6186,-22.0188],[-45.61356,-22.01806],[-45.61185,-21.94495],[-45.61436,-21.94376],[-45.62423,-21.94013],[-45.62986,-21.88029],[-45.63812,-21.84365],[-45.7047,-21.8319],[-45.7389,-21.862],[-45.7293,-21.8835],[-45.7456,-21.9235]]]]}}]}