{"type":"FeatureCollection","features":[{"type":"Feature","properties":{"territory_id":"mg-3162906-centro","name":"Centro","municipality_id":"mg-3162906","polling_places":7,"approx":true,"official":false,"method":"voronoi-polling-places","whole_municipality":false,"approx_coords_only":false},"geometry":{"type":"MultiPolygon","coordinates":[[[[-43.02004,-21.52995],[-43.01957,-21.53927],[-43.01814,-21.53955],[-43.01471,-21.54141],[-43.01144,-21.53805],[-43.01085,-21.53796],[-43.00901,-21.53829],[-43.0068,-21.53266],[-43.00034,-21.52376],[-43.01539,-21.52976],[-43.02004,-21.52995]]]]}},{"type":"Feature","properties":{"territory_id":"mg-3162906-matriz","name":"Matriz","municipality_id":"mg-3162906","polling_places":1,"approx":true,"official":false,"method":"voronoi-polling-places","whole_municipality":false,"approx_coords_only":false},"geometry":{"type":"MultiPolygon","coordinates":[[[[-43.01471,-21.54141],[-42.99969,-21.55929],[-43.00901,-21.53829],[-43.01085,-21.53796],[-43.01144,-21.53805],[-43.01471,-21.54141]]]]}},{"type":"Feature","properties":{"territory_id":"mg-3162906-santa-rita","name":"Santa Rita","municipality_id":"mg-3162906","polling_places":1,"approx":true,"official":false,"method":"voronoi-polling-places","whole_municipality":false,"approx_coords_only":false},"geometry":{"type":"MultiPolygon","coordinates":[[[[-43.06555,-21.57808],[-43.04468,-21.61089],[-43.02,-21.5849],[-43.01984,-21.58498],[-42.99814,-21.56163],[-42.99969,-21.55929],[-43.01471,-21.54141],[-43.01814,-21.53955],[-43.01957,-21.53927],[-43.06555,-21.57808]]]]}},{"type":"Feature","properties":{"territory_id":"mg-3162906-sao-cristovao","name":"Sao Cristovao","municipality_id":"mg-3162906","polling_places":1,"approx":true,"official":false,"method":"voronoi-polling-places","whole_municipality":false,"approx_coords_only":false},"geometry":{"type":"MultiPolygon","coordinates":[[[[-43.06116,-21.49831],[-43.02004,-21.52995],[-43.01539,-21.52976],[-43.00034,-21.52376],[-42.96759,-21.50158],[-42.9848,-21.4896],[-43.0278,-21.504],[-43.0523,-21.4809],[-43.06116,-21.49831]]]]}},{"type":"Feature","properties":{"territory_id":"mg-3162906-sao-jose","name":"Sao Jose","municipality_id":"mg-3162906","polling_places":1,"approx":true,"official":false,"method":"voronoi-polling-places","whole_municipality":false,"approx_coords_only":false},"geometry":{"type":"MultiPolygon","coordinates":[[[[-43.00901,-21.53829],[-42.99969,-21.55929],[-42.99814,-21.56163],[-42.95955,-21.53681],[-42.95795,-21.50828],[-42.96759,-21.50158],[-43.00034,-21.52376],[-43.0068,-21.53266],[-43.00901,-21.53829]]]]}},{"type":"Feature","properties":{"territory_id":"mg-3162906-tres-marias","name":"Tres Marias","municipality_id":"mg-3162906","polling_places":1,"approx":true,"official":false,"method":"voronoi-polling-places","whole_municipality":false,"approx_coords_only":false},"geometry":{"type":"MultiPolygon","coordinates":[[[[-43.08751,-21.55006],[-43.06555,-21.57808],[-43.01957,-21.53927],[-43.02004,-21.52995],[-43.06116,-21.49831],[-43.08751,-21.55006]]]]}},{"type":"Feature","properties":{"territory_id":"mg-3162906-zona-rural","name":"Zona Rural","municipality_id":"mg-3162906","polling_places":4,"approx":true,"official":false,"method":"voronoi-polling-places","whole_municipality":false,"approx_coords_only":false},"geometry":{"type":"MultiPolygon","coordinates":[[[[-43.1792,-21.6489],[-43.1407,-21.6629],[-43.133,-21.6947],[-43.0915,-21.6602],[-43.04468,-21.61089],[-43.06555,-21.57808],[-43.08751,-21.55006],[-43.0912,-21.5573],[-43.1232,-21.571],[-43.1347,-21.5982],[-43.1692,-21.6176],[-43.1792,-21.6489]]],[[[-43.01984,-21.58498],[-42.9862,-21.6015],[-42.9813,-21.6498],[-42.9582,-21.6699],[-42.9133,-21.664],[-42.8692,-21.6163],[-42.8657,-21.5846],[-42.8477,-21.5285],[-42.8926,-21.5294],[-42.9097,-21.5159],[-42.9424,-21.5191],[-42.95795,-21.50828],[-42.95955,-21.53681],[-42.99814,-21.56163],[-43.01984,-21.58498]]]]}}]}