{"type":"FeatureCollection","features":[{"type":"Feature","properties":{"territory_id":"mg-3162658-centro","name":"Centro","municipality_id":"mg-3162658","polling_places":1,"approx":true,"official":false,"method":"voronoi-polling-places","whole_municipality":false,"approx_coords_only":false},"geometry":{"type":"MultiPolygon","coordinates":[[[[-44.60087,-16.51259],[-44.52326,-16.58607],[-44.48957,-16.57323],[-44.48988,-16.56385],[-44.54027,-16.47323],[-44.5868,-16.4953],[-44.60087,-16.51259]]]]}},{"type":"Feature","properties":{"territory_id":"mg-3162658-zona-rural","name":"Zona Rural","municipality_id":"mg-3162658","polling_places":6,"approx":true,"official":false,"method":"voronoi-polling-places","whole_municipality":false,"approx_coords_only":false},"geometry":{"type":"MultiPolygon","coordinates":[[[[-44.6778,-16.5455],[-44.6539,-16.5795],[-44.5879,-16.6216],[-44.5868,-16.636],[-44.5162,-16.6631],[-44.4847,-16.6276],[-44.4385,-16.6247],[-44.4082,-16.5689],[-44.4342,-16.5241],[-44.4262,-16.4718],[-44.4719,-16.4408],[-44.54027,-16.47323],[-44.48988,-16.56385],[-44.48957,-16.57323],[-44.52326,-16.58607],[-44.60087,-16.51259],[-44.6091,-16.5227],[-44.6649,-16.5255],[-44.6778,-16.5455]]]]}}]}