{"type":"FeatureCollection","features":[{"type":"Feature","properties":{"territory_id":"mg-3162609-centro","name":"Centro","municipality_id":"mg-3162609","polling_places":3,"approx":true,"official":false,"method":"voronoi-polling-places","whole_municipality":false,"approx_coords_only":false},"geometry":{"type":"MultiPolygon","coordinates":[[[[-42.2281,-19.3746],[-42.2034,-19.3756],[-42.1914,-19.4206],[-42.15338,-19.43774],[-42.15984,-19.34432],[-42.15816,-19.34037],[-42.11914,-19.32003],[-42.1195,-19.3161],[-42.1527,-19.3255],[-42.1801,-19.2635],[-42.2019,-19.2789],[-42.2065,-19.3218],[-42.2281,-19.3746]]]]}},{"type":"Feature","properties":{"territory_id":"mg-3162609-santa-maria-do-baixio","name":"Santa Maria do Baixio","municipality_id":"mg-3162609","polling_places":1,"approx":true,"official":false,"method":"voronoi-polling-places","whole_municipality":false,"approx_coords_only":false},"geometry":{"type":"MultiPolygon","coordinates":[[[[-42.15984,-19.34432],[-42.15338,-19.43774],[-42.1528,-19.438],[-42.1362,-19.4149],[-42.1347,-19.3756],[-42.1168,-19.3452],[-42.11914,-19.32003],[-42.15816,-19.34037],[-42.15984,-19.34432]]]]}}]}