{"type":"FeatureCollection","features":[{"type":"Feature","properties":{"territory_id":"mg-3162807-centro","name":"Centro","municipality_id":"mg-3162807","polling_places":4,"approx":true,"official":false,"method":"voronoi-polling-places","whole_municipality":false,"approx_coords_only":false},"geometry":{"type":"MultiPolygon","coordinates":[[[[-42.82657,-18.53126],[-42.78388,-18.6176],[-42.7341,-18.6232],[-42.7204,-18.6473],[-42.70177,-18.61516],[-42.74916,-18.56188],[-42.75758,-18.54769],[-42.76182,-18.47517],[-42.80856,-18.46313],[-42.80896,-18.4632],[-42.8251,-18.53],[-42.82657,-18.53126]]]]}},{"type":"Feature","properties":{"territory_id":"mg-3162807-conj-hab-engenho-de-serra","name":"Conj. Hab. Engenho de Serra","municipality_id":"mg-3162807","polling_places":1,"approx":true,"official":false,"method":"voronoi-polling-places","whole_municipality":false,"approx_coords_only":false},"geometry":{"type":"MultiPolygon","coordinates":[[[[-42.76182,-18.47517],[-42.75758,-18.54769],[-42.74916,-18.56188],[-42.70177,-18.61516],[-42.6855,-18.5871],[-42.7079,-18.5441],[-42.7043,-18.5084],[-42.70009,-18.48872],[-42.76182,-18.47517]]]]}},{"type":"Feature","properties":{"territory_id":"mg-3162807-distrito-da-sede","name":"Distrito da Sede","municipality_id":"mg-3162807","polling_places":1,"approx":true,"official":false,"method":"voronoi-polling-places","whole_municipality":false,"approx_coords_only":false},"geometry":{"type":"MultiPolygon","coordinates":[[[[-42.9104,-18.578],[-42.8858,-18.6356],[-42.8513,-18.675],[-42.8226,-18.6717],[-42.8025,-18.6155],[-42.78388,-18.6176],[-42.82657,-18.53126],[-42.8651,-18.5643],[-42.8956,-18.5609],[-42.9104,-18.578]]]]}},{"type":"Feature","properties":{"territory_id":"mg-3162807-distrito-de-nelson-de-sena","name":"Distrito de Nelson de Sena","municipality_id":"mg-3162807","polling_places":1,"approx":true,"official":false,"method":"voronoi-polling-places","whole_municipality":false,"approx_coords_only":false},"geometry":{"type":"MultiPolygon","coordinates":[[[[-42.80856,-18.46313],[-42.76182,-18.47517],[-42.70009,-18.48872],[-42.6927,-18.4542],[-42.7122,-18.3658],[-42.72022,-18.34158],[-42.80856,-18.46313]]]]}},{"type":"Feature","properties":{"territory_id":"mg-3162807-distrito-de-sao-geraldo-do-baguari","name":"Distrito de Sao Geraldo do Baguari","municipality_id":"mg-3162807","polling_places":1,"approx":true,"official":false,"method":"voronoi-polling-places","whole_municipality":false,"approx_coords_only":false},"geometry":{"type":"MultiPolygon","coordinates":[[[[-42.8162,-18.4069],[-42.8085,-18.4613],[-42.80896,-18.4632],[-42.80856,-18.46313],[-42.72022,-18.34158],[-42.7282,-18.3175],[-42.7545,-18.3243],[-42.8004,-18.3797],[-42.8162,-18.4069]]]]}}]}