{"type":"FeatureCollection","features":[{"type":"Feature","properties":{"territory_id":"mg-3162203-centro","name":"Centro","municipality_id":"mg-3162203","polling_places":4,"approx":true,"official":false,"method":"voronoi-polling-places","whole_municipality":true,"approx_coords_only":false},"geometry":{"type":"MultiPolygon","coordinates":[[[[-46.5945,-20.567],[-46.5861,-20.6392],[-46.5264,-20.6603],[-46.4685,-20.6596],[-46.4358,-20.6913],[-46.399,-20.6738],[-46.3579,-20.6864],[-46.3256,-20.6678],[-46.2753,-20.6601],[-46.3037,-20.5738],[-46.3368,-20.5534],[-46.3463,-20.5321],[-46.417,-20.4843],[-46.4334,-20.4339],[-46.4223,-20.4148],[-46.4736,-20.3908],[-46.4998,-20.3778],[-46.4642,-20.4431],[-46.519,-20.4948],[-46.5104,-20.5203],[-46.5353,-20.5511],[-46.5945,-20.567]]]]}}]}