{"type":"FeatureCollection","features":[{"type":"Feature","properties":{"territory_id":"mg-3162450-area-indigena-xacriaba","name":"Area Indigena Xacriaba","municipality_id":"mg-3162450","polling_places":13,"approx":true,"official":false,"method":"voronoi-polling-places","whole_municipality":false,"approx_coords_only":false},"geometry":{"type":"MultiPolygon","coordinates":[[[[-44.4837,-14.9071],[-44.4544,-14.9256],[-44.3942,-14.9305],[-44.2779,-14.9937],[-44.21567,-14.96921],[-44.23357,-14.90014],[-44.26607,-14.89719],[-44.26819,-14.8819],[-44.24339,-14.8681],[-44.32905,-14.87191],[-44.3267,-14.84481],[-44.28047,-14.84282],[-44.28047,-14.81183],[-44.2956,-14.82],[-44.3804,-14.849],[-44.4837,-14.9071]]],[[[-44.22724,-14.84191],[-44.19014,-14.84947],[-44.17456,-14.84286],[-44.12533,-14.86175],[-44.09383,-14.829],[-44.0936,-14.8275],[-44.1424,-14.799],[-44.1642,-14.7728],[-44.2128,-14.7661],[-44.21306,-14.76634],[-44.22724,-14.84191]]],[[[-44.13084,-14.93102],[-44.06214,-14.90873],[-44.0638,-14.89827],[-44.08841,-14.88151],[-44.12649,-14.88724],[-44.13084,-14.93102]]]]}},{"type":"Feature","properties":{"territory_id":"mg-3162450-area-rural","name":"Área Rural","municipality_id":"mg-3162450","polling_places":9,"approx":true,"official":false,"method":"voronoi-polling-places","whole_municipality":false,"approx_coords_only":false},"geometry":{"type":"MultiPolygon","coordinates":[[[[-44.28047,-14.84282],[-44.24648,-14.84136],[-44.23517,-14.84622],[-44.23998,-14.8666],[-44.24339,-14.8681],[-44.26819,-14.8819],[-44.26607,-14.89719],[-44.23357,-14.90014],[-44.21567,-14.96921],[-44.2154,-14.9691],[-44.1395,-14.976],[-44.106,-14.9628],[-44.0627,-14.9909],[-44.0065,-14.9787],[-44.0118,-14.9606],[-44.0558,-14.9487],[-44.06214,-14.90873],[-44.13084,-14.93102],[-44.12649,-14.88724],[-44.12533,-14.86175],[-44.17456,-14.84286],[-44.19014,-14.84947],[-44.22724,-14.84191],[-44.21306,-14.76634],[-44.2358,-14.7877],[-44.28047,-14.81183],[-44.28047,-14.84282]]],[[[-44.08841,-14.88151],[-44.0638,-14.89827],[-44.0644,-14.8945],[-44.08313,-14.87615],[-44.08841,-14.88151]]]]}},{"type":"Feature","properties":{"territory_id":"mg-3162450-centro","name":"Centro","municipality_id":"mg-3162450","polling_places":1,"approx":true,"official":false,"method":"voronoi-polling-places","whole_municipality":false,"approx_coords_only":false},"geometry":{"type":"MultiPolygon","coordinates":[[[[-44.12649,-14.88724],[-44.08841,-14.88151],[-44.08313,-14.87615],[-44.0988,-14.8608],[-44.09383,-14.829],[-44.12533,-14.86175],[-44.12649,-14.88724]]]]}},{"type":"Feature","properties":{"territory_id":"mg-3162450-forges","name":"Forges","municipality_id":"mg-3162450","polling_places":1,"approx":true,"official":false,"method":"voronoi-polling-places","whole_municipality":false,"approx_coords_only":false},"geometry":{"type":"MultiPolygon","coordinates":[[[[-44.32905,-14.87191],[-44.24339,-14.8681],[-44.23998,-14.8666],[-44.23517,-14.84622],[-44.24648,-14.84136],[-44.28047,-14.84282],[-44.3267,-14.84481],[-44.32905,-14.87191]]]]}}]}