{"type":"FeatureCollection","features":[{"type":"Feature","properties":{"territory_id":"mg-3162252-centro","name":"Centro","municipality_id":"mg-3162252","polling_places":1,"approx":true,"official":false,"method":"voronoi-polling-places","whole_municipality":false,"approx_coords_only":false},"geometry":{"type":"MultiPolygon","coordinates":[[[[-44.39222,-16.79728],[-44.38892,-16.88588],[-44.33398,-16.93243],[-44.29148,-16.81728],[-44.30628,-16.78204],[-44.31524,-16.77115],[-44.3815,-16.7876],[-44.39222,-16.79728]]]]}},{"type":"Feature","properties":{"territory_id":"mg-3162252-zona-rural","name":"Zona Rural","municipality_id":"mg-3162252","polling_places":7,"approx":true,"official":false,"method":"voronoi-polling-places","whole_municipality":false,"approx_coords_only":false},"geometry":{"type":"MultiPolygon","coordinates":[[[[-44.5738,-17.0765],[-44.4624,-17.0731],[-44.4068,-17.0282],[-44.3481,-16.9509],[-44.3323,-16.9458],[-44.2479,-16.909],[-44.2411,-16.8848],[-44.1566,-16.83],[-44.1301,-16.8214],[-44.0725,-16.7994],[-44.1097,-16.7476],[-44.146,-16.7262],[-44.1708,-16.7221],[-44.2145,-16.6903],[-44.2167,-16.6272],[-44.2475,-16.6566],[-44.2937,-16.6583],[-44.3147,-16.6889],[-44.3008,-16.709],[-44.2945,-16.766],[-44.31524,-16.77115],[-44.30628,-16.78204],[-44.29148,-16.81728],[-44.33398,-16.93243],[-44.38892,-16.88588],[-44.39222,-16.79728],[-44.4288,-16.8303],[-44.5667,-16.8582],[-44.5131,-16.9354],[-44.4807,-16.9948],[-44.5366,-17.0332],[-44.5695,-17.046],[-44.5738,-17.0765]]]]}}]}