{"type":"FeatureCollection","features":[{"type":"Feature","properties":{"territory_id":"mg-3162922-jardim-vila-rica","name":"Jardim Vila Rica","municipality_id":"mg-3162922","polling_places":1,"approx":true,"official":false,"method":"voronoi-polling-places","whole_municipality":false,"approx_coords_only":false},"geometry":{"type":"MultiPolygon","coordinates":[[[[-44.28765,-20.05809],[-44.27814,-20.10185],[-44.26194,-20.08475],[-44.26117,-20.08217],[-44.26805,-20.06972],[-44.27442,-20.06101],[-44.28765,-20.05809]]]]}},{"type":"Feature","properties":{"territory_id":"mg-3162922-marques-industrial","name":"Marques Industrial","municipality_id":"mg-3162922","polling_places":1,"approx":true,"official":false,"method":"voronoi-polling-places","whole_municipality":false,"approx_coords_only":false},"geometry":{"type":"MultiPolygon","coordinates":[[[[-44.26805,-20.06972],[-44.26117,-20.08217],[-44.24801,-20.07381],[-44.24713,-20.05943],[-44.24799,-20.05935],[-44.26805,-20.06972]]]]}},{"type":"Feature","properties":{"territory_id":"mg-3162922-nazare","name":"Nazaré","municipality_id":"mg-3162922","polling_places":1,"approx":true,"official":false,"method":"voronoi-polling-places","whole_municipality":false,"approx_coords_only":false},"geometry":{"type":"MultiPolygon","coordinates":[[[[-44.24801,-20.07381],[-44.2073,-20.09029],[-44.1963,-20.0512],[-44.23418,-20.04405],[-44.24713,-20.05943],[-44.24801,-20.07381]]]]}},{"type":"Feature","properties":{"territory_id":"mg-3162922-nossa-senhora-da-paz","name":"Nossa Senhora da Paz","municipality_id":"mg-3162922","polling_places":2,"approx":true,"official":false,"method":"voronoi-polling-places","whole_municipality":false,"approx_coords_only":false},"geometry":{"type":"MultiPolygon","coordinates":[[[[-44.27814,-20.10185],[-44.276,-20.1117],[-44.2518,-20.1251],[-44.2102,-20.1006],[-44.2073,-20.09029],[-44.24801,-20.07381],[-44.26117,-20.08217],[-44.26194,-20.08475],[-44.27814,-20.10185]]]]}},{"type":"Feature","properties":{"territory_id":"mg-3162922-pedra-branca","name":"Pedra Branca","municipality_id":"mg-3162922","polling_places":1,"approx":true,"official":false,"method":"voronoi-polling-places","whole_municipality":false,"approx_coords_only":false},"geometry":{"type":"MultiPolygon","coordinates":[[[[-44.27442,-20.06101],[-44.26805,-20.06972],[-44.24799,-20.05935],[-44.26208,-20.05641],[-44.26888,-20.05751],[-44.27442,-20.06101]]]]}},{"type":"Feature","properties":{"territory_id":"mg-3162922-tereza-cristina-i","name":"Tereza Cristina I","municipality_id":"mg-3162922","polling_places":2,"approx":true,"official":false,"method":"voronoi-polling-places","whole_municipality":false,"approx_coords_only":false},"geometry":{"type":"MultiPolygon","coordinates":[[[[-44.2878,-20.0574],[-44.28765,-20.05809],[-44.27442,-20.06101],[-44.26888,-20.05751],[-44.26208,-20.05641],[-44.25157,-20.03506],[-44.2703,-20.0039],[-44.2722,-20.0049],[-44.2878,-20.0574]]]]}},{"type":"Feature","properties":{"territory_id":"mg-3162922-tupanuara","name":"Tupanuara","municipality_id":"mg-3162922","polling_places":1,"approx":true,"official":false,"method":"voronoi-polling-places","whole_municipality":false,"approx_coords_only":false},"geometry":{"type":"MultiPolygon","coordinates":[[[[-44.26208,-20.05641],[-44.24799,-20.05935],[-44.24713,-20.05943],[-44.23418,-20.04405],[-44.2477,-20.0415],[-44.25157,-20.03506],[-44.26208,-20.05641]]]]}}]}