{"type":"FeatureCollection","features":[{"type":"Feature","properties":{"territory_id":"mg-3162104-alto-da-bela-vista","name":"Alto da Bela Vista","municipality_id":"mg-3162104","polling_places":1,"approx":false,"official":true,"method":"official-ibge-cd2022","whole_municipality":false,"approx_coords_only":false,"official_name":"Alto da Bela Vista","official_code":"3162104011","match":"direct"},"geometry":{"type":"MultiPolygon","coordinates":[[[[-46.04491,-19.29872],[-46.04465,-19.29902],[-46.0445,-19.29911],[-46.04434,-19.29925],[-46.04407,-19.29925],[-46.04385,-19.29929],[-46.04349,-19.29941],[-46.04291,-19.29985],[-46.04275,-19.30006],[-46.04282,-19.30026],[-46.04243,-19.30042],[-46.04228,-19.30068],[-46.04204,-19.30085],[-46.0416,-19.3011],[-46.04116,-19.30145],[-46.04088,-19.30172],[-46.04064,-19.30199],[-46.04073,-19.30231],[-46.04071,-19.30257],[-46.04059,-19.30294],[-46.04021,-19.30327],[-46.04033,-19.30347],[-46.04059,-19.30344],[-46.04071,-19.30362],[-46.04062,-19.30385],[-46.04023,-19.30395],[-46.03999,-19.30395],[-46.03988,-19.30422],[-46.04059,-19.30492],[-46.04143,-19.30534],[-46.04223,-19.30549],[-46.04255,-19.30595],[-46.04315,-19.30654],[-46.04364,-19.30623],[-46.04392,-19.30621],[-46.04395,-19.30634],[-46.0441,-19.30638],[-46.04437,-19.3063],[-46.04454,-19.30643],[-46.04471,-19.30625],[-46.04493,-19.3061],[-46.04502,-19.30589],[-46.04533,-19.30561],[-46.04561,-19.30542],[-46.04584,-19.30548],[-46.04599,-19.30557],[-46.04617,-19.30577],[-46.04623,-19.30552],[-46.04637,-19.30541],[-46.04638,-19.30522],[-46.04613,-19.30467],[-46.04633,-19.30462],[-46.04705,-19.30462],[-46.04731,-19.30459],[-46.04765,-19.30462],[-46.04778,-19.30467],[-46.04791,-19.30477],[-46.04801,-19.3049],[-46.04805,-19.30502],[-46.048,-19.30547],[-46.04797,-19.3058],[-46.04802,-19.30605],[-46.04814,-19.30624],[-46.04828,-19.30642],[-46.04847,-19.30673],[-46.04856,-19.30682],[-46.04867,-19.30691],[-46.04895,-19.30709],[-46.04912,-19.30723],[-46.04933,-19.30744],[-46.04994,-19.30798],[-46.05045,-19.30775],[-46.0518,-19.30634],[-46.05213,-19.30597],[-46.05231,-19.30566],[-46.05243,-19.30542],[-46.0527,-19.30496],[-46.05279,-19.30465],[-46.05288,-19.30443],[-46.05335,-19.30399],[-46.0536,-19.30373],[-46.05373,-19.30364],[-46.05375,-19.30361],[-46.05403,-19.30348],[-46.05456,-19.30292],[-46.05482,-19.30249],[-46.05508,-19.30209],[-46.05523,-19.3018],[-46.05524,-19.30154],[-46.055,-19.30125],[-46.05512,-19.30074],[-46.0552,-19.30055],[-46.05528,-19.30028],[-46.05085,-19.29959],[-46.0508,-19.29868],[-46.05054,-19.29869],[-46.04908,-19.29885],[-46.04835,-19.29889],[-46.04797,-19.29916],[-46.04491,-19.29872]]]]}},{"type":"Feature","properties":{"territory_id":"mg-3162104-boa-esperanca","name":"Boa Esperança","municipality_id":"mg-3162104","polling_places":1,"approx":false,"official":true,"method":"official-ibge-cd2022","whole_municipality":false,"approx_coords_only":false,"official_name":"Boa Esperança","official_code":"3162104009","match":"direct"},"geometry":{"type":"MultiPolygon","coordinates":[[[[-46.06766,-19.31011],[-46.06765,-19.3077],[-46.06755,-19.30554],[-46.06738,-19.30498],[-46.06718,-19.30495],[-46.06698,-19.30484],[-46.06683,-19.30472],[-46.06659,-19.30463],[-46.06632,-19.30448],[-46.06578,-19.30439],[-46.06549,-19.30438],[-46.06504,-19.30444],[-46.06471,-19.30446],[-46.06449,-19.3045],[-46.0641,-19.30463],[-46.06396,-19.30456],[-46.06353,-19.30484],[-46.06327,-19.30496],[-46.06306,-19.30504],[-46.06267,-19.30551],[-46.0622,-19.30592],[-46.06199,-19.30623],[-46.06185,-19.30634],[-46.06155,-19.30645],[-46.06092,-19.30653],[-46.06079,-19.30659],[-46.06071,-19.30679],[-46.06035,-19.30716],[-46.05998,-19.30746],[-46.05919,-19.30795],[-46.05896,-19.30816],[-46.05877,-19.30837],[-46.05857,-19.30861],[-46.05842,-19.30899],[-46.0581,-19.3095],[-46.0579,-19.30974],[-46.05783,-19.31007],[-46.05775,-19.31019],[-46.05782,-19.31042],[-46.05774,-19.31089],[-46.05774,-19.31134],[-46.05776,-19.31151],[-46.05775,-19.31174],[-46.05748,-19.31191],[-46.0573,-19.31229],[-46.05708,-19.3125],[-46.05691,-19.31257],[-46.05675,-19.31268],[-46.05673,-19.31284],[-46.05666,-19.31303],[-46.05678,-19.31314],[-46.05693,-19.3132],[-46.0573,-19.31343],[-46.05751,-19.3135],[-46.05781,-19.31356],[-46.05786,-19.31374],[-46.05801,-19.31397],[-46.05808,-19.31414],[-46.05829,-19.3141],[-46.05839,-19.31429],[-46.05859,-19.31446],[-46.05856,-19.31486],[-46.05851,-19.31519],[-46.05864,-19.31515],[-46.05867,-19.3154],[-46.05886,-19.31568],[-46.05905,-19.31582],[-46.05974,-19.31594],[-46.05997,-19.31607],[-46.06044,-19.31611],[-46.06073,-19.31623],[-46.06143,-19.31676],[-46.0625,-19.31701],[-46.06278,-19.31749],[-46.06316,-19.3181],[-46.06359,-19.31821],[-46.06429,-19.3195],[-46.06514,-19.31991],[-46.06576,-19.32001],[-46.06599,-19.31906],[-46.06589,-19.31855],[-46.0655,-19.31797],[-46.06503,-19.31765],[-46.06484,-19.31725],[-46.06474,-19.31684],[-46.06429,-19.31612],[-46.06369,-19.31537],[-46.06363,-19.31508],[-46.06408,-19.31461],[-46.06442,-19.31393],[-46.06491,-19.31316],[-46.06697,-19.31087],[-46.06766,-19.31011]]]]}},{"type":"Feature","properties":{"territory_id":"mg-3162104-centro","name":"Centro","municipality_id":"mg-3162104","polling_places":2,"approx":false,"official":true,"method":"official-ibge-cd2022","whole_municipality":false,"approx_coords_only":false,"official_name":"Centro","official_code":"3162104001","match":"direct"},"geometry":{"type":"MultiPolygon","coordinates":[[[[-46.0488,-19.31444],[-46.04932,-19.31369],[-46.04944,-19.31373],[-46.04952,-19.31364],[-46.05215,-19.31532],[-46.0527,-19.31447],[-46.05327,-19.31353],[-46.05481,-19.31453],[-46.05582,-19.31512],[-46.05603,-19.3148],[-46.05623,-19.31467],[-46.05647,-19.31464],[-46.05651,-19.31448],[-46.05667,-19.31446],[-46.05703,-19.3142],[-46.05719,-19.31412],[-46.0573,-19.31343],[-46.05693,-19.3132],[-46.05678,-19.31314],[-46.05666,-19.31303],[-46.05655,-19.3131],[-46.05639,-19.31316],[-46.05617,-19.31321],[-46.05599,-19.31298],[-46.05588,-19.31277],[-46.05556,-19.31235],[-46.05543,-19.31221],[-46.05522,-19.31173],[-46.05514,-19.31149],[-46.05505,-19.31105],[-46.05494,-19.31087],[-46.05476,-19.31079],[-46.05429,-19.31071],[-46.05409,-19.3107],[-46.05395,-19.31059],[-46.05313,-19.31005],[-46.05263,-19.30982],[-46.05236,-19.30974],[-46.05211,-19.30968],[-46.05177,-19.30957],[-46.05147,-19.30944],[-46.05131,-19.30933],[-46.051,-19.30916],[-46.05046,-19.30864],[-46.05016,-19.30828],[-46.04994,-19.30798],[-46.04933,-19.30744],[-46.04912,-19.30723],[-46.04895,-19.30709],[-46.04867,-19.30691],[-46.04847,-19.30673],[-46.04828,-19.30642],[-46.04814,-19.30624],[-46.04802,-19.30605],[-46.04797,-19.3058],[-46.048,-19.30547],[-46.04805,-19.30502],[-46.04801,-19.3049],[-46.04791,-19.30477],[-46.04778,-19.30467],[-46.04765,-19.30462],[-46.04731,-19.30459],[-46.04705,-19.30462],[-46.04633,-19.30462],[-46.04613,-19.30467],[-46.04638,-19.30522],[-46.04637,-19.30541],[-46.04623,-19.30552],[-46.04617,-19.30577],[-46.04599,-19.30557],[-46.04584,-19.30548],[-46.04561,-19.30542],[-46.04533,-19.30561],[-46.04502,-19.30589],[-46.04493,-19.3061],[-46.04471,-19.30625],[-46.04454,-19.30643],[-46.04437,-19.3063],[-46.0441,-19.30638],[-46.04395,-19.30634],[-46.04392,-19.30621],[-46.04364,-19.30623],[-46.04315,-19.30654],[-46.04255,-19.30595],[-46.04223,-19.30549],[-46.04143,-19.30534],[-46.04059,-19.30492],[-46.03988,-19.30422],[-46.03999,-19.30395],[-46.04023,-19.30395],[-46.04062,-19.30385],[-46.04071,-19.30362],[-46.04067,-19.30356],[-46.04035,-19.30367],[-46.03971,-19.30361],[-46.03907,-19.3037],[-46.03862,-19.30393],[-46.03822,-19.30426],[-46.03779,-19.30453],[-46.03718,-19.30506],[-46.03672,-19.30583],[-46.03665,-19.30654],[-46.03606,-19.30734],[-46.03504,-19.30963],[-46.03501,-19.30975],[-46.03364,-19.30939],[-46.03215,-19.30919],[-46.03128,-19.30874],[-46.03016,-19.30877],[-46.02962,-19.30888],[-46.02886,-19.30911],[-46.028,-19.30907],[-46.02732,-19.30909],[-46.02634,-19.30885],[-46.02499,-19.30883],[-46.02432,-19.31234],[-46.02469,-19.3127],[-46.02515,-19.31268],[-46.02565,-19.31323],[-46.02617,-19.31441],[-46.02664,-19.31487],[-46.02784,-19.31597],[-46.02855,-19.31704],[-46.02889,-19.31728],[-46.02969,-19.3176],[-46.03021,-19.31818],[-46.03041,-19.31836],[-46.03055,-19.31821],[-46.03232,-19.31688],[-46.0329,-19.31648],[-46.03315,-19.31634],[-46.03338,-19.31624],[-46.03358,-19.31621],[-46.03382,-19.31618],[-46.03408,-19.3162],[-46.03378,-19.31587],[-46.03463,-19.31545],[-46.03525,-19.31524],[-46.03699,-19.31541],[-46.0376,-19.31454],[-46.03824,-19.31383],[-46.03949,-19.31289],[-46.03986,-19.31267],[-46.04031,-19.31253],[-46.04083,-19.31223],[-46.04129,-19.31208],[-46.04165,-19.31208],[-46.04197,-19.312],[-46.04233,-19.31174],[-46.04239,-19.31161],[-46.04243,-19.31145],[-46.04406,-19.31236],[-46.04399,-19.31274],[-46.04393,-19.31332],[-46.04389,-19.31343],[-46.04375,-19.3136],[-46.0433,-19.31432],[-46.04323,-19.31437],[-46.04344,-19.31481],[-46.04308,-19.31515],[-46.04337,-19.31546],[-46.04376,-19.31583],[-46.04414,-19.31608],[-46.04468,-19.31648],[-46.04485,-19.31619],[-46.04496,-19.31616],[-46.04572,-19.31506],[-46.04666,-19.31565],[-46.04729,-19.31472],[-46.04821,-19.31528],[-46.0488,-19.31444]]]]}},{"type":"Feature","properties":{"territory_id":"mg-3162104-guarda-dos-ferreiros","name":"Guarda dos Ferreiros","municipality_id":"mg-3162104","polling_places":1,"approx":true,"official":false,"method":"voronoi-polling-places","whole_municipality":false,"approx_coords_only":false},"geometry":{"type":"MultiPolygon","coordinates":[[[[-46.1555,-19.4102],[-46.13634,-19.45453],[-46.11206,-19.45072],[-46.01218,-19.34022],[-46.05419,-19.32277],[-46.0542,-19.32277],[-46.06388,-19.31875],[-46.06429,-19.3195],[-46.06514,-19.31991],[-46.06576,-19.32001],[-46.06599,-19.31906],[-46.06589,-19.31855],[-46.06556,-19.31806],[-46.13311,-19.29001],[-46.1365,-19.3176],[-46.1258,-19.3691],[-46.1555,-19.4102]]]]}},{"type":"Feature","properties":{"territory_id":"mg-3162104-nossa-senhora-de-fatima","name":"Nossa Senhora de Fátima","municipality_id":"mg-3162104","polling_places":3,"approx":false,"official":true,"method":"official-ibge-cd2022","whole_municipality":false,"approx_coords_only":false,"official_name":"Nossa Senhora de Fátima","official_code":"3162104005","match":"direct"},"geometry":{"type":"MultiPolygon","coordinates":[[[[-46.05078,-19.32019],[-46.05075,-19.32013],[-46.05063,-19.3194],[-46.05057,-19.3192],[-46.05038,-19.31799],[-46.05039,-19.3179],[-46.05098,-19.31706],[-46.05215,-19.31532],[-46.04952,-19.31364],[-46.04944,-19.31373],[-46.04932,-19.31369],[-46.04821,-19.31528],[-46.04729,-19.31472],[-46.04523,-19.31773],[-46.04412,-19.31923],[-46.04381,-19.31969],[-46.04577,-19.31992],[-46.04646,-19.32003],[-46.04755,-19.32016],[-46.04816,-19.32025],[-46.04858,-19.3203],[-46.05069,-19.32059],[-46.05078,-19.32047],[-46.05084,-19.32032],[-46.05078,-19.32019]]]]}},{"type":"Feature","properties":{"territory_id":"mg-3162104-sao-geraldo","name":"São Geraldo","municipality_id":"mg-3162104","polling_places":1,"approx":false,"official":true,"method":"official-ibge-cd2022","whole_municipality":false,"approx_coords_only":false,"official_name":"São Geraldo","official_code":"3162104002","match":"direct"},"geometry":{"type":"MultiPolygon","coordinates":[[[[-46.04158,-19.31557],[-46.04201,-19.31579],[-46.04225,-19.31582],[-46.04253,-19.31556],[-46.04286,-19.3153],[-46.04308,-19.31515],[-46.04344,-19.31481],[-46.04323,-19.31437],[-46.0433,-19.31432],[-46.04375,-19.3136],[-46.04389,-19.31343],[-46.04393,-19.31332],[-46.04399,-19.31274],[-46.04406,-19.31236],[-46.04243,-19.31145],[-46.04239,-19.31161],[-46.04233,-19.31174],[-46.04197,-19.312],[-46.04165,-19.31208],[-46.04129,-19.31208],[-46.04083,-19.31223],[-46.04031,-19.31253],[-46.03986,-19.31267],[-46.03949,-19.31289],[-46.03824,-19.31383],[-46.0376,-19.31454],[-46.03699,-19.31541],[-46.03525,-19.31524],[-46.03463,-19.31545],[-46.03378,-19.31587],[-46.03408,-19.3162],[-46.0341,-19.31625],[-46.03444,-19.31653],[-46.03475,-19.31682],[-46.03543,-19.31737],[-46.03595,-19.31768],[-46.03613,-19.31785],[-46.03663,-19.31815],[-46.03776,-19.31873],[-46.03815,-19.31884],[-46.03831,-19.31883],[-46.03836,-19.31868],[-46.03881,-19.31821],[-46.03898,-19.31799],[-46.03926,-19.31766],[-46.03961,-19.3173],[-46.03975,-19.31722],[-46.03983,-19.31708],[-46.04007,-19.31691],[-46.04025,-19.31666],[-46.04044,-19.31644],[-46.04067,-19.3162],[-46.04118,-19.31583],[-46.04158,-19.31557]]]]}},{"type":"Feature","properties":{"territory_id":"mg-3162104-sao-vicente","name":"São Vicente","municipality_id":"mg-3162104","polling_places":1,"approx":false,"official":true,"method":"official-ibge-cd2022","whole_municipality":false,"approx_coords_only":false,"official_name":"São Vicente","official_code":"3162104007","match":"direct"},"geometry":{"type":"MultiPolygon","coordinates":[[[[-46.05622,-19.32045],[-46.05639,-19.32028],[-46.05673,-19.31991],[-46.05682,-19.31973],[-46.05688,-19.319],[-46.05701,-19.31884],[-46.05707,-19.31872],[-46.05712,-19.31855],[-46.05851,-19.31738],[-46.05883,-19.31749],[-46.05896,-19.31746],[-46.05937,-19.31702],[-46.05789,-19.31642],[-46.05724,-19.31612],[-46.0569,-19.31577],[-46.05481,-19.31453],[-46.05327,-19.31353],[-46.0527,-19.31447],[-46.05215,-19.31532],[-46.05098,-19.31706],[-46.05039,-19.3179],[-46.05038,-19.31799],[-46.05057,-19.3192],[-46.05063,-19.3194],[-46.05075,-19.32013],[-46.05084,-19.32032],[-46.05078,-19.32047],[-46.05069,-19.32059],[-46.05097,-19.32063],[-46.05123,-19.32064],[-46.05155,-19.32068],[-46.05172,-19.32074],[-46.05291,-19.32173],[-46.05419,-19.32277],[-46.05576,-19.32099],[-46.05622,-19.32045]]]]}},{"type":"Feature","properties":{"territory_id":"mg-3162104-sol-nascente","name":"Sol Nascente","municipality_id":"mg-3162104","polling_places":1,"approx":false,"official":true,"method":"official-ibge-cd2022","whole_municipality":false,"approx_coords_only":false,"official_name":"Sol Nascente","official_code":"3162104004","match":"direct"},"geometry":{"type":"MultiPolygon","coordinates":[[[[-46.03718,-19.32802],[-46.03759,-19.32781],[-46.03775,-19.32778],[-46.03808,-19.32762],[-46.03838,-19.32758],[-46.03871,-19.32783],[-46.03904,-19.3281],[-46.03931,-19.32789],[-46.03967,-19.32811],[-46.03999,-19.32806],[-46.04008,-19.32745],[-46.04094,-19.32705],[-46.04165,-19.32719],[-46.04181,-19.32748],[-46.04209,-19.32743],[-46.04224,-19.32716],[-46.04247,-19.32712],[-46.04272,-19.32705],[-46.04301,-19.327],[-46.04321,-19.32679],[-46.04342,-19.32662],[-46.0435,-19.32642],[-46.04381,-19.32651],[-46.04397,-19.3264],[-46.04426,-19.32647],[-46.04443,-19.32645],[-46.0446,-19.32633],[-46.04491,-19.32637],[-46.04508,-19.32648],[-46.04528,-19.32647],[-46.0454,-19.32631],[-46.04549,-19.32605],[-46.0459,-19.32589],[-46.04594,-19.32515],[-46.04628,-19.32452],[-46.0463,-19.3239],[-46.04616,-19.32227],[-46.04593,-19.32089],[-46.0458,-19.32031],[-46.04577,-19.32008],[-46.04577,-19.31992],[-46.04381,-19.31969],[-46.0431,-19.31957],[-46.04236,-19.31948],[-46.04165,-19.31937],[-46.04152,-19.31937],[-46.04007,-19.31914],[-46.03853,-19.31895],[-46.03831,-19.31883],[-46.03815,-19.31884],[-46.03776,-19.31873],[-46.03663,-19.31815],[-46.03613,-19.31785],[-46.03595,-19.31768],[-46.03543,-19.31737],[-46.03475,-19.31682],[-46.03444,-19.31653],[-46.0341,-19.31625],[-46.03408,-19.3162],[-46.03382,-19.31618],[-46.03338,-19.31624],[-46.03315,-19.31634],[-46.0329,-19.31648],[-46.03232,-19.31688],[-46.03055,-19.31821],[-46.0299,-19.31891],[-46.02845,-19.32139],[-46.02811,-19.32211],[-46.02785,-19.32281],[-46.02797,-19.32339],[-46.02831,-19.32399],[-46.0291,-19.32472],[-46.02941,-19.32517],[-46.02947,-19.32547],[-46.02941,-19.32579],[-46.02997,-19.32602],[-46.03038,-19.32667],[-46.03084,-19.32674],[-46.03122,-19.32698],[-46.03168,-19.32746],[-46.03233,-19.32763],[-46.03291,-19.32768],[-46.03363,-19.32823],[-46.03414,-19.3286],[-46.03462,-19.32845],[-46.0351,-19.32857],[-46.03571,-19.32843],[-46.03628,-19.32816],[-46.03672,-19.32807],[-46.03695,-19.32804],[-46.03718,-19.32802]]]]}},{"type":"Feature","properties":{"territory_id":"mg-3162104-taquaril","name":"Taquaril","municipality_id":"mg-3162104","polling_places":1,"approx":false,"official":true,"method":"official-ibge-cd2022","whole_municipality":false,"approx_coords_only":false,"official_name":"Taquaril","official_code":"3162104010","match":"direct"},"geometry":{"type":"MultiPolygon","coordinates":[[[[-46.05783,-19.31007],[-46.0579,-19.30974],[-46.0581,-19.3095],[-46.05842,-19.30899],[-46.05857,-19.30861],[-46.05896,-19.30816],[-46.05919,-19.30795],[-46.05951,-19.30777],[-46.06012,-19.30736],[-46.06035,-19.30716],[-46.06071,-19.30679],[-46.06079,-19.30659],[-46.06092,-19.30653],[-46.06155,-19.30645],[-46.06185,-19.30634],[-46.06199,-19.30623],[-46.0622,-19.30592],[-46.06267,-19.30551],[-46.06296,-19.30515],[-46.06239,-19.3036],[-46.06218,-19.30361],[-46.06195,-19.30357],[-46.0617,-19.30349],[-46.06144,-19.30344],[-46.06137,-19.30358],[-46.0606,-19.30318],[-46.06136,-19.30233],[-46.0607,-19.30149],[-46.06086,-19.30124],[-46.05528,-19.30028],[-46.0552,-19.30055],[-46.05512,-19.30074],[-46.055,-19.30125],[-46.05524,-19.30154],[-46.05523,-19.3018],[-46.05508,-19.30209],[-46.05482,-19.30249],[-46.05456,-19.30292],[-46.05403,-19.30348],[-46.05375,-19.30361],[-46.05373,-19.30364],[-46.0536,-19.30373],[-46.05335,-19.30399],[-46.05288,-19.30443],[-46.05279,-19.30465],[-46.0527,-19.30496],[-46.05243,-19.30542],[-46.05231,-19.30566],[-46.05213,-19.30597],[-46.0518,-19.30634],[-46.05045,-19.30775],[-46.04994,-19.30798],[-46.05016,-19.30828],[-46.05046,-19.30864],[-46.051,-19.30916],[-46.05131,-19.30933],[-46.05147,-19.30944],[-46.05177,-19.30957],[-46.05211,-19.30968],[-46.05236,-19.30974],[-46.05263,-19.30982],[-46.05313,-19.31005],[-46.05395,-19.31059],[-46.05409,-19.3107],[-46.05429,-19.31071],[-46.05476,-19.31079],[-46.05494,-19.31087],[-46.05505,-19.31105],[-46.05514,-19.31149],[-46.05522,-19.31173],[-46.05543,-19.31221],[-46.05556,-19.31235],[-46.05588,-19.31277],[-46.05599,-19.31298],[-46.05617,-19.31321],[-46.05639,-19.31316],[-46.05655,-19.3131],[-46.05666,-19.31303],[-46.05673,-19.31284],[-46.05675,-19.31268],[-46.05691,-19.31257],[-46.05708,-19.3125],[-46.0573,-19.31229],[-46.05748,-19.31191],[-46.05775,-19.31174],[-46.05776,-19.31151],[-46.05774,-19.31134],[-46.05774,-19.31089],[-46.05782,-19.31042],[-46.05775,-19.31019],[-46.05783,-19.31007]]]]}},{"type":"Feature","properties":{"territory_id":"mg-3162104-zona-rural","name":"Zona Rural","municipality_id":"mg-3162104","polling_places":4,"approx":true,"official":false,"method":"voronoi-polling-places","whole_municipality":false,"approx_coords_only":false},"geometry":{"type":"MultiPolygon","coordinates":[[[[-46.13634,-19.45453],[-46.1332,-19.4618],[-46.1276,-19.5426],[-46.042,-19.5544],[-46.0131,-19.5311],[-45.9775,-19.4596],[-45.9022,-19.4652],[-45.9007,-19.4379],[-45.8516,-19.3253],[-45.8097,-19.2419],[-45.8039,-19.196],[-45.8339,-19.1797],[-45.9216,-19.2162],[-45.931,-19.2885],[-46.002,-19.2665],[-46.0664,-19.2191],[-46.1099,-19.1969],[-46.1288,-19.2549],[-46.13311,-19.29001],[-46.06556,-19.31806],[-46.0655,-19.31797],[-46.06503,-19.31765],[-46.06484,-19.31725],[-46.06474,-19.31684],[-46.06429,-19.31612],[-46.06369,-19.31537],[-46.06363,-19.31508],[-46.06408,-19.31461],[-46.06442,-19.31393],[-46.06491,-19.31316],[-46.06697,-19.31087],[-46.06766,-19.31011],[-46.06765,-19.3077],[-46.06755,-19.30554],[-46.06738,-19.30498],[-46.06718,-19.30495],[-46.06698,-19.30484],[-46.06683,-19.30472],[-46.06659,-19.30463],[-46.06632,-19.30448],[-46.06578,-19.30439],[-46.06549,-19.30438],[-46.06504,-19.30444],[-46.06471,-19.30446],[-46.06449,-19.3045],[-46.0641,-19.30463],[-46.06396,-19.30456],[-46.06353,-19.30484],[-46.06327,-19.30496],[-46.06306,-19.30504],[-46.06296,-19.30515],[-46.06239,-19.3036],[-46.06218,-19.30361],[-46.06195,-19.30357],[-46.0617,-19.30349],[-46.06144,-19.30344],[-46.06137,-19.30358],[-46.0606,-19.30318],[-46.06136,-19.30233],[-46.0607,-19.30149],[-46.06086,-19.30124],[-46.05528,-19.30028],[-46.05085,-19.29959],[-46.0508,-19.29868],[-46.05054,-19.29869],[-46.04908,-19.29885],[-46.04835,-19.29889],[-46.04797,-19.29916],[-46.04491,-19.29872],[-46.04465,-19.29902],[-46.0445,-19.29911],[-46.04434,-19.29925],[-46.04407,-19.29925],[-46.04385,-19.29929],[-46.04349,-19.29941],[-46.04291,-19.29985],[-46.04275,-19.30006],[-46.04282,-19.30026],[-46.04243,-19.30042],[-46.04228,-19.30068],[-46.04204,-19.30085],[-46.0416,-19.3011],[-46.04116,-19.30145],[-46.04088,-19.30172],[-46.04064,-19.30199],[-46.04073,-19.30231],[-46.04071,-19.30257],[-46.04059,-19.30294],[-46.04021,-19.30327],[-46.04033,-19.30347],[-46.04059,-19.30344],[-46.04071,-19.30362],[-46.04067,-19.30356],[-46.04035,-19.30367],[-46.03971,-19.30361],[-46.03907,-19.3037],[-46.03862,-19.30393],[-46.03822,-19.30426],[-46.03779,-19.30453],[-46.03718,-19.30506],[-46.03672,-19.30583],[-46.03665,-19.30654],[-46.03606,-19.30734],[-46.03504,-19.30963],[-46.03501,-19.30975],[-46.03364,-19.30939],[-46.03215,-19.30919],[-46.03128,-19.30874],[-46.03016,-19.30877],[-46.02962,-19.30888],[-46.02886,-19.30911],[-46.028,-19.30907],[-46.02732,-19.30909],[-46.02634,-19.30885],[-46.02499,-19.30883],[-46.02432,-19.31234],[-46.02469,-19.3127],[-46.02515,-19.31268],[-46.02565,-19.31323],[-46.02617,-19.31441],[-46.02664,-19.31487],[-46.02784,-19.31597],[-46.02855,-19.31704],[-46.02889,-19.31728],[-46.02969,-19.3176],[-46.03021,-19.31818],[-46.03041,-19.31836],[-46.03055,-19.31821],[-46.0299,-19.31891],[-46.02845,-19.32139],[-46.02811,-19.32211],[-46.02785,-19.32281],[-46.02797,-19.32339],[-46.02831,-19.32399],[-46.0291,-19.32472],[-46.02941,-19.32517],[-46.02947,-19.32547],[-46.02941,-19.32579],[-46.02997,-19.32602],[-46.03038,-19.32667],[-46.03084,-19.32674],[-46.03122,-19.32698],[-46.03168,-19.32746],[-46.03233,-19.32763],[-46.03291,-19.32768],[-46.03363,-19.32823],[-46.03414,-19.3286],[-46.03462,-19.32845],[-46.0351,-19.32857],[-46.03571,-19.32843],[-46.03628,-19.32816],[-46.03672,-19.32807],[-46.03695,-19.32804],[-46.03718,-19.32802],[-46.03759,-19.32781],[-46.03775,-19.32778],[-46.03808,-19.32762],[-46.03838,-19.32758],[-46.03871,-19.32783],[-46.03904,-19.3281],[-46.03931,-19.32789],[-46.03967,-19.32811],[-46.03999,-19.32806],[-46.04008,-19.32745],[-46.04094,-19.32705],[-46.04165,-19.32719],[-46.04181,-19.32748],[-46.04209,-19.32743],[-46.04224,-19.32716],[-46.04247,-19.32712],[-46.04272,-19.32705],[-46.04301,-19.327],[-46.04321,-19.32679],[-46.04342,-19.32662],[-46.0435,-19.32642],[-46.04381,-19.32651],[-46.04397,-19.3264],[-46.04426,-19.32647],[-46.04443,-19.32645],[-46.0446,-19.32633],[-46.04491,-19.32637],[-46.04508,-19.32648],[-46.04528,-19.32647],[-46.0454,-19.32631],[-46.04549,-19.32605],[-46.0459,-19.32589],[-46.04594,-19.32515],[-46.04628,-19.32452],[-46.0463,-19.3239],[-46.04616,-19.32227],[-46.04593,-19.32089],[-46.0458,-19.32031],[-46.04577,-19.32008],[-46.04577,-19.31992],[-46.04646,-19.32003],[-46.04755,-19.32016],[-46.04816,-19.32025],[-46.04858,-19.3203],[-46.05069,-19.32059],[-46.05097,-19.32063],[-46.05123,-19.32064],[-46.05155,-19.32068],[-46.05172,-19.32074],[-46.05291,-19.32173],[-46.05419,-19.32277],[-46.01218,-19.34022],[-46.11206,-19.45072],[-46.13634,-19.45453]]],[[[-46.06388,-19.31875],[-46.0542,-19.32277],[-46.05576,-19.32099],[-46.05622,-19.32045],[-46.05639,-19.32028],[-46.05673,-19.31991],[-46.05682,-19.31973],[-46.05688,-19.319],[-46.05701,-19.31884],[-46.05707,-19.31872],[-46.05712,-19.31855],[-46.05851,-19.31738],[-46.05883,-19.31749],[-46.05896,-19.31746],[-46.05937,-19.31702],[-46.05789,-19.31642],[-46.05724,-19.31612],[-46.0569,-19.31577],[-46.05481,-19.31453],[-46.05582,-19.31512],[-46.05603,-19.3148],[-46.05623,-19.31467],[-46.05647,-19.31464],[-46.05651,-19.31448],[-46.05667,-19.31446],[-46.05703,-19.3142],[-46.05719,-19.31412],[-46.0573,-19.31343],[-46.05751,-19.3135],[-46.05781,-19.31356],[-46.05786,-19.31374],[-46.05801,-19.31397],[-46.05808,-19.31414],[-46.05829,-19.3141],[-46.05839,-19.31429],[-46.05859,-19.31446],[-46.05856,-19.31486],[-46.05851,-19.31519],[-46.05864,-19.31515],[-46.05867,-19.3154],[-46.05886,-19.31568],[-46.05905,-19.31582],[-46.05974,-19.31594],[-46.05997,-19.31607],[-46.06044,-19.31611],[-46.06073,-19.31623],[-46.06143,-19.31676],[-46.0625,-19.31701],[-46.06278,-19.31749],[-46.06316,-19.3181],[-46.06359,-19.31821],[-46.06388,-19.31875]]],[[[-46.06005,-19.30741],[-46.05998,-19.30746],[-46.05972,-19.30762],[-46.06005,-19.30741]]],[[[-46.04932,-19.31369],[-46.04821,-19.31528],[-46.0488,-19.31444],[-46.04932,-19.31369]]],[[[-46.04665,-19.31565],[-46.04523,-19.31773],[-46.04412,-19.31923],[-46.04381,-19.31969],[-46.0431,-19.31957],[-46.04236,-19.31948],[-46.04165,-19.31937],[-46.04152,-19.31937],[-46.04007,-19.31914],[-46.03853,-19.31895],[-46.03831,-19.31883],[-46.03836,-19.31868],[-46.03881,-19.31821],[-46.03898,-19.31799],[-46.03926,-19.31766],[-46.03961,-19.3173],[-46.03975,-19.31722],[-46.03983,-19.31708],[-46.04007,-19.31691],[-46.04025,-19.31666],[-46.04044,-19.31644],[-46.04067,-19.3162],[-46.04118,-19.31583],[-46.04158,-19.31557],[-46.04201,-19.31579],[-46.04225,-19.31582],[-46.04253,-19.31556],[-46.04286,-19.3153],[-46.04308,-19.31515],[-46.04337,-19.31546],[-46.04376,-19.31583],[-46.04414,-19.31608],[-46.04468,-19.31648],[-46.04485,-19.31619],[-46.04496,-19.31616],[-46.04572,-19.31506],[-46.04665,-19.31565]]],[[[-46.03382,-19.31618],[-46.03338,-19.31624],[-46.03358,-19.31621],[-46.03382,-19.31618]]]]}}]}