{"type":"FeatureCollection","features":[{"type":"Feature","properties":{"territory_id":"mg-3163409-centro","name":"Centro","municipality_id":"mg-3163409","polling_places":2,"approx":true,"official":false,"method":"voronoi-polling-places","whole_municipality":true,"approx_coords_only":false},"geometry":{"type":"MultiPolygon","coordinates":[[[[-42.5515,-19.8859],[-42.6118,-19.886],[-42.6408,-19.9062],[-42.6823,-19.8702],[-42.7819,-19.872],[-42.7528,-19.9041],[-42.7766,-19.9561],[-42.7399,-19.9742],[-42.7288,-20.0081],[-42.6531,-19.9862],[-42.6309,-19.961],[-42.6369,-19.9273],[-42.5516,-19.886],[-42.5515,-19.8859]]]]}}]}