{"type":"FeatureCollection","features":[{"type":"Feature","properties":{"territory_id":"mg-3163904-centro","name":"Centro","municipality_id":"mg-3163904","polling_places":2,"approx":true,"official":false,"method":"voronoi-polling-places","whole_municipality":false,"approx_coords_only":false},"geometry":{"type":"MultiPolygon","coordinates":[[[[-46.66344,-21.0992],[-46.65166,-21.16099],[-46.6485,-21.17994],[-46.644,-21.1767],[-46.618,-21.1931],[-46.5709,-21.1967],[-46.5506,-21.1506],[-46.5393,-21.1376],[-46.552,-21.0858],[-46.5617,-21.0623],[-46.6085,-21.0441],[-46.6368,-21.0112],[-46.6488,-21.0886],[-46.66344,-21.0992]]]]}},{"type":"Feature","properties":{"territory_id":"mg-3163904-zona-rural","name":"Zona Rural","municipality_id":"mg-3163904","polling_places":1,"approx":true,"official":false,"method":"voronoi-polling-places","whole_municipality":false,"approx_coords_only":false},"geometry":{"type":"MultiPolygon","coordinates":[[[[-46.7821,-21.1577],[-46.7303,-21.1873],[-46.6668,-21.1931],[-46.6485,-21.17994],[-46.65166,-21.16099],[-46.66344,-21.0992],[-46.6789,-21.1104],[-46.7598,-21.1182],[-46.7821,-21.1577]]]]}}]}