{"type":"FeatureCollection","features":[{"type":"Feature","properties":{"territory_id":"mg-3163508-centro","name":"Centro","municipality_id":"mg-3163508","polling_places":2,"approx":true,"official":false,"method":"voronoi-polling-places","whole_municipality":false,"approx_coords_only":false},"geometry":{"type":"MultiPolygon","coordinates":[[[[-42.70777,-18.30919],[-42.65568,-18.3225],[-42.6355,-18.2836],[-42.61998,-18.28496],[-42.63713,-18.23971],[-42.69579,-18.24228],[-42.6966,-18.24775],[-42.70777,-18.30919]]]]}},{"type":"Feature","properties":{"territory_id":"mg-3163508-zona-rural","name":"Zona Rural","municipality_id":"mg-3163508","polling_places":6,"approx":true,"official":false,"method":"voronoi-polling-places","whole_municipality":false,"approx_coords_only":false},"geometry":{"type":"MultiPolygon","coordinates":[[[[-42.7723,-18.2507],[-42.7284,-18.2842],[-42.7282,-18.3175],[-42.7122,-18.3658],[-42.6854,-18.3798],[-42.65568,-18.3225],[-42.70777,-18.30919],[-42.6966,-18.24775],[-42.69579,-18.24228],[-42.63713,-18.23971],[-42.61998,-18.28496],[-42.5623,-18.29],[-42.5531,-18.2347],[-42.5818,-18.1842],[-42.6202,-18.1688],[-42.6335,-18.1414],[-42.6837,-18.1045],[-42.6751,-18.1359],[-42.6987,-18.189],[-42.7612,-18.2139],[-42.7723,-18.2507]]]]}}]}