{"type":"FeatureCollection","features":[{"type":"Feature","properties":{"territory_id":"mg-3163805-centro","name":"Centro","municipality_id":"mg-3163805","polling_places":2,"approx":true,"official":false,"method":"voronoi-polling-places","whole_municipality":false,"approx_coords_only":false},"geometry":{"type":"MultiPolygon","coordinates":[[[[-42.74227,-20.7474],[-42.7294,-20.7499],[-42.72936,-20.75005],[-42.67319,-20.71385],[-42.67418,-20.675],[-42.71237,-20.7016],[-42.72608,-20.70993],[-42.72938,-20.71816],[-42.74227,-20.7474]]]]}},{"type":"Feature","properties":{"territory_id":"mg-3163805-sossego","name":"Sossego","municipality_id":"mg-3163805","polling_places":1,"approx":true,"official":false,"method":"voronoi-polling-places","whole_municipality":false,"approx_coords_only":false},"geometry":{"type":"MultiPolygon","coordinates":[[[[-42.7927,-20.7045],[-42.7536,-20.7452],[-42.74227,-20.7474],[-42.72938,-20.71816],[-42.72608,-20.70993],[-42.71553,-20.65989],[-42.7691,-20.6677],[-42.7823,-20.6732],[-42.7927,-20.7045]]]]}},{"type":"Feature","properties":{"territory_id":"mg-3163805-zona-rural","name":"Zona Rural","municipality_id":"mg-3163805","polling_places":2,"approx":true,"official":false,"method":"voronoi-polling-places","whole_municipality":false,"approx_coords_only":false},"geometry":{"type":"MultiPolygon","coordinates":[[[[-42.72936,-20.75005],[-42.7126,-20.8156],[-42.7094,-20.8393],[-42.6745,-20.8129],[-42.6505,-20.7586],[-42.673,-20.7211],[-42.67319,-20.71385],[-42.72936,-20.75005]]],[[[-42.72608,-20.70993],[-42.71237,-20.7016],[-42.67418,-20.675],[-42.6743,-20.6703],[-42.6978,-20.6573],[-42.71553,-20.65989],[-42.72608,-20.70993]]]]}}]}