{"type":"FeatureCollection","features":[{"type":"Feature","properties":{"territory_id":"mg-3163201-centro","name":"Centro","municipality_id":"mg-3163201","polling_places":2,"approx":true,"official":false,"method":"voronoi-polling-places","whole_municipality":true,"approx_coords_only":false},"geometry":{"type":"MultiPolygon","coordinates":[[[[-45.5747,-22.3222],[-45.5461,-22.3691],[-45.5118,-22.3726],[-45.4824,-22.355],[-45.4458,-22.3546],[-45.4496,-22.3258],[-45.5246,-22.303],[-45.5506,-22.263],[-45.5747,-22.3222]]]]}}]}