{"type":"FeatureCollection","features":[{"type":"Feature","properties":{"territory_id":"mg-3163706-alto-da-ponte","name":"Alto da Ponte","municipality_id":"mg-3163706","polling_places":1,"approx":true,"official":false,"method":"voronoi-polling-places","whole_municipality":false,"approx_coords_only":false},"geometry":{"type":"MultiPolygon","coordinates":[[[[-45.04506,-22.13285],[-45.045,-22.13331],[-45.03396,-22.14953],[-44.9988,-22.1507],[-45.00655,-22.11514],[-45.0383,-22.11496],[-45.04506,-22.13285]]]]}},{"type":"Feature","properties":{"territory_id":"mg-3163706-carioca","name":"Carioca","municipality_id":"mg-3163706","polling_places":1,"approx":true,"official":false,"method":"voronoi-polling-places","whole_municipality":false,"approx_coords_only":false},"geometry":{"type":"MultiPolygon","coordinates":[[[[-45.07996,-22.10226],[-45.07573,-22.10493],[-45.0581,-22.11042],[-45.0581,-22.09968],[-45.06258,-22.08564],[-45.0745,-22.0965],[-45.07996,-22.10226]]]]}},{"type":"Feature","properties":{"territory_id":"mg-3163706-centro","name":"Centro","municipality_id":"mg-3163706","polling_places":7,"approx":true,"official":false,"method":"voronoi-polling-places","whole_municipality":false,"approx_coords_only":false},"geometry":{"type":"MultiPolygon","coordinates":[[[[-45.06111,-22.12119],[-45.05545,-22.1227],[-45.05412,-22.12144],[-45.05286,-22.12122],[-45.05273,-22.12114],[-45.05159,-22.12058],[-45.05123,-22.12063],[-45.04725,-22.119],[-45.04526,-22.11778],[-45.04501,-22.11749],[-45.05136,-22.11558],[-45.05168,-22.11514],[-45.05239,-22.11362],[-45.0529,-22.11196],[-45.05426,-22.11165],[-45.05938,-22.11619],[-45.06072,-22.11652],[-45.06111,-22.12119]]],[[[-45.0581,-22.11042],[-45.0543,-22.1116],[-45.0581,-22.09968],[-45.0581,-22.11042]]]]}},{"type":"Feature","properties":{"territory_id":"mg-3163706-estacao","name":"Estação","municipality_id":"mg-3163706","polling_places":1,"approx":true,"official":false,"method":"voronoi-polling-places","whole_municipality":false,"approx_coords_only":false},"geometry":{"type":"MultiPolygon","coordinates":[[[[-45.0529,-22.11196],[-45.05239,-22.11362],[-45.05168,-22.11514],[-45.05136,-22.11558],[-45.04501,-22.11749],[-45.0389,-22.1147],[-45.04522,-22.10751],[-45.0529,-22.11196]]]]}},{"type":"Feature","properties":{"territory_id":"mg-3163706-marajoara","name":"Marajoara","municipality_id":"mg-3163706","polling_places":1,"approx":true,"official":false,"method":"voronoi-polling-places","whole_municipality":false,"approx_coords_only":false},"geometry":{"type":"MultiPolygon","coordinates":[[[[-45.06258,-22.08564],[-45.0581,-22.09968],[-45.0543,-22.1116],[-45.05426,-22.11165],[-45.0529,-22.11196],[-45.04522,-22.10751],[-45.0493,-22.07519],[-45.0508,-22.0749],[-45.06258,-22.08564]]]]}},{"type":"Feature","properties":{"territory_id":"mg-3163706-nossa-senhora-de-fatima","name":"Nossa Senhora de Fatima","municipality_id":"mg-3163706","polling_places":3,"approx":true,"official":false,"method":"voronoi-polling-places","whole_municipality":false,"approx_coords_only":false},"geometry":{"type":"MultiPolygon","coordinates":[[[[-45.05123,-22.12063],[-45.04839,-22.12346],[-45.04712,-22.12539],[-45.04535,-22.13231],[-45.04506,-22.13285],[-45.0383,-22.11496],[-45.0389,-22.1147],[-45.04501,-22.11749],[-45.04526,-22.11778],[-45.04725,-22.119],[-45.05123,-22.12063]]]]}},{"type":"Feature","properties":{"territory_id":"mg-3163706-nossa-senhora-de-lourdes","name":"Nossa Senhora de Lourdes","municipality_id":"mg-3163706","polling_places":1,"approx":true,"official":false,"method":"voronoi-polling-places","whole_municipality":false,"approx_coords_only":false},"geometry":{"type":"MultiPolygon","coordinates":[[[[-45.0493,-22.07519],[-45.04522,-22.10751],[-45.0389,-22.1147],[-45.0383,-22.11496],[-45.00655,-22.11514],[-45.0073,-22.1117],[-45.0072,-22.0832],[-45.0493,-22.07519]]]]}},{"type":"Feature","properties":{"territory_id":"mg-3163706-porta-do-ceu","name":"Porta do Ceu","municipality_id":"mg-3163706","polling_places":1,"approx":true,"official":false,"method":"voronoi-polling-places","whole_municipality":false,"approx_coords_only":false},"geometry":{"type":"MultiPolygon","coordinates":[[[[-45.0725,-22.1304],[-45.06815,-22.13525],[-45.05797,-22.13126],[-45.05711,-22.12734],[-45.06161,-22.12183],[-45.0725,-22.1304]]]]}},{"type":"Feature","properties":{"territory_id":"mg-3163706-sao-lourenco-velho","name":"São Lourenço Velho","municipality_id":"mg-3163706","polling_places":1,"approx":true,"official":false,"method":"voronoi-polling-places","whole_municipality":false,"approx_coords_only":false},"geometry":{"type":"MultiPolygon","coordinates":[[[[-45.07573,-22.10493],[-45.06072,-22.11652],[-45.05938,-22.11619],[-45.05426,-22.11165],[-45.0543,-22.1116],[-45.0581,-22.11042],[-45.07573,-22.10493]]]]}},{"type":"Feature","properties":{"territory_id":"mg-3163706-solar-dos-lagos","name":"Solar dos Lagos","municipality_id":"mg-3163706","polling_places":1,"approx":true,"official":false,"method":"voronoi-polling-places","whole_municipality":false,"approx_coords_only":false},"geometry":{"type":"MultiPolygon","coordinates":[[[[-45.0891,-22.1119],[-45.0725,-22.1304],[-45.06161,-22.12183],[-45.06111,-22.12119],[-45.06072,-22.11652],[-45.07573,-22.10493],[-45.07996,-22.10226],[-45.0891,-22.1119]]]]}},{"type":"Feature","properties":{"territory_id":"mg-3163706-vila-carneiro","name":"Vila Carneiro","municipality_id":"mg-3163706","polling_places":2,"approx":true,"official":false,"method":"voronoi-polling-places","whole_municipality":false,"approx_coords_only":false},"geometry":{"type":"MultiPolygon","coordinates":[[[[-45.06815,-22.13525],[-45.0604,-22.1439],[-45.0437,-22.1492],[-45.03396,-22.14953],[-45.045,-22.13331],[-45.05797,-22.13126],[-45.06815,-22.13525]]],[[[-45.06161,-22.12183],[-45.05711,-22.12734],[-45.05553,-22.12456],[-45.05545,-22.1227],[-45.06111,-22.12119],[-45.06161,-22.12183]]]]}},{"type":"Feature","properties":{"territory_id":"mg-3163706-vila-nova","name":"Vila Nova","municipality_id":"mg-3163706","polling_places":3,"approx":true,"official":false,"method":"voronoi-polling-places","whole_municipality":false,"approx_coords_only":false},"geometry":{"type":"MultiPolygon","coordinates":[[[[-45.05797,-22.13126],[-45.045,-22.13331],[-45.04506,-22.13285],[-45.04535,-22.13231],[-45.04712,-22.12539],[-45.04839,-22.12346],[-45.05123,-22.12063],[-45.05159,-22.12058],[-45.05273,-22.12114],[-45.05286,-22.12122],[-45.05412,-22.12144],[-45.05545,-22.1227],[-45.05553,-22.12456],[-45.05711,-22.12734],[-45.05797,-22.13126]]]]}}]}