{"type":"FeatureCollection","features":[{"type":"Feature","properties":{"territory_id":"mg-3163300-centro","name":"Centro","municipality_id":"mg-3163300","polling_places":2,"approx":true,"official":false,"method":"voronoi-polling-places","whole_municipality":false,"approx_coords_only":false},"geometry":{"type":"MultiPolygon","coordinates":[[[[-41.4599,-18.5141],[-41.3956,-18.5302],[-41.3649,-18.4989],[-41.3206,-18.5051],[-41.3118,-18.4767],[-41.32925,-18.44116],[-41.38353,-18.43924],[-41.4308,-18.43756],[-41.4269,-18.4449],[-41.4599,-18.5141]]]]}},{"type":"Feature","properties":{"territory_id":"mg-3163300-machados","name":"Machados","municipality_id":"mg-3163300","polling_places":1,"approx":true,"official":false,"method":"voronoi-polling-places","whole_municipality":false,"approx_coords_only":true},"geometry":{"type":"MultiPolygon","coordinates":[[[[-41.4413,-18.4178],[-41.4308,-18.43756],[-41.38353,-18.43924],[-41.32925,-18.44116],[-41.3339,-18.4317],[-41.3071,-18.3761],[-41.3228,-18.3368],[-41.288,-18.3278],[-41.328,-18.2754],[-41.3636,-18.2719],[-41.4191,-18.2816],[-41.428,-18.2965],[-41.4149,-18.3073],[-41.4413,-18.4178]]]]}}]}