{"type":"FeatureCollection","features":[{"type":"Feature","properties":{"territory_id":"mg-3163003-assentamento","name":"Assentamento","municipality_id":"mg-3163003","polling_places":1,"approx":true,"official":false,"method":"voronoi-polling-places","whole_municipality":false,"approx_coords_only":false},"geometry":{"type":"MultiPolygon","coordinates":[[[[-42.12557,-18.38678],[-42.124,-18.3939],[-42.1,-18.4278],[-42.0531,-18.4183],[-42.0506,-18.3812],[-42.0821,-18.3475],[-42.07681,-18.33151],[-42.08376,-18.33442],[-42.12557,-18.38678]]]]}},{"type":"Feature","properties":{"territory_id":"mg-3163003-centro","name":"Centro","municipality_id":"mg-3163003","polling_places":2,"approx":true,"official":false,"method":"voronoi-polling-places","whole_municipality":false,"approx_coords_only":false},"geometry":{"type":"MultiPolygon","coordinates":[[[[-42.18998,-18.31384],[-42.1677,-18.3584],[-42.1283,-18.3744],[-42.12557,-18.38678],[-42.08376,-18.33442],[-42.14958,-18.28539],[-42.156,-18.29008],[-42.18998,-18.31384]]]]}},{"type":"Feature","properties":{"territory_id":"mg-3163003-cruzeiro","name":"Cruzeiro","municipality_id":"mg-3163003","polling_places":1,"approx":true,"official":false,"method":"voronoi-polling-places","whole_municipality":false,"approx_coords_only":false},"geometry":{"type":"MultiPolygon","coordinates":[[[[-42.2086,-18.244],[-42.19,-18.2605],[-42.1903,-18.3132],[-42.18998,-18.31384],[-42.156,-18.29008],[-42.14958,-18.28539],[-42.14409,-18.22987],[-42.1494,-18.2269],[-42.1994,-18.2197],[-42.2086,-18.244]]]]}},{"type":"Feature","properties":{"territory_id":"mg-3163003-rosendo","name":"Rosendo","municipality_id":"mg-3163003","polling_places":1,"approx":true,"official":false,"method":"voronoi-polling-places","whole_municipality":false,"approx_coords_only":false},"geometry":{"type":"MultiPolygon","coordinates":[[[[-42.14958,-18.28539],[-42.08376,-18.33442],[-42.07681,-18.33151],[-42.0635,-18.2913],[-42.0661,-18.2614],[-42.0878,-18.2613],[-42.14409,-18.22987],[-42.14958,-18.28539]]]]}}]}