{"type":"FeatureCollection","features":[{"type":"Feature","properties":{"territory_id":"mg-3164431-joaquim-martins-pacheco","name":"Joaquim Martins Pacheco","municipality_id":"mg-3164431","polling_places":2,"approx":true,"official":false,"method":"voronoi-polling-places","whole_municipality":true,"approx_coords_only":false},"geometry":{"type":"MultiPolygon","coordinates":[[[[-42.6553,-21.0777],[-42.6255,-21.0766],[-42.5466,-21.044],[-42.5782,-20.9986],[-42.582,-20.9531],[-42.6119,-20.9863],[-42.6318,-21.0125],[-42.6553,-21.0777]]]]}}]}