{"type":"FeatureCollection","features":[{"type":"Feature","properties":{"territory_id":"mg-3164001-aguas-ferreas","name":"Aguas Ferreas","municipality_id":"mg-3164001","polling_places":1,"approx":true,"official":false,"method":"voronoi-polling-places","whole_municipality":false,"approx_coords_only":false},"geometry":{"type":"MultiPolygon","coordinates":[[[[-42.6531,-19.9862],[-42.6505,-20.0458],[-42.622,-20.0926],[-42.6212,-20.1602],[-42.6042,-20.16522],[-42.58012,-20.13717],[-42.50306,-20.03583],[-42.502,-19.9671],[-42.5367,-19.9534],[-42.5348,-19.9218],[-42.5516,-19.886],[-42.6369,-19.9273],[-42.6309,-19.961],[-42.6531,-19.9862]]]]}},{"type":"Feature","properties":{"territory_id":"mg-3164001-centro","name":"Centro","municipality_id":"mg-3164001","polling_places":3,"approx":true,"official":false,"method":"voronoi-polling-places","whole_municipality":false,"approx_coords_only":false},"geometry":{"type":"MultiPolygon","coordinates":[[[[-42.6042,-20.16522],[-42.562,-20.1777],[-42.5343,-20.221],[-42.5521,-20.2616],[-42.531,-20.252],[-42.5181,-20.213],[-42.4965,-20.1948],[-42.478,-20.1559],[-42.5239,-20.1375],[-42.5288,-20.0801],[-42.5033,-20.0517],[-42.50306,-20.03583],[-42.58012,-20.13717],[-42.6042,-20.16522]]]]}}]}