{"type":"FeatureCollection","features":[{"type":"Feature","properties":{"territory_id":"mg-3164605-belo-horizonte","name":"Belo Horizonte","municipality_id":"mg-3164605","polling_places":1,"approx":true,"official":false,"method":"voronoi-polling-places","whole_municipality":false,"approx_coords_only":false},"geometry":{"type":"MultiPolygon","coordinates":[[[[-45.00432,-20.27969],[-44.98158,-20.32898],[-44.9788,-20.3286],[-44.9402,-20.3045],[-44.9044,-20.2591],[-44.93655,-20.21607],[-45.00432,-20.27969]]]]}},{"type":"Feature","properties":{"territory_id":"mg-3164605-centro","name":"Centro","municipality_id":"mg-3164605","polling_places":1,"approx":true,"official":false,"method":"voronoi-polling-places","whole_municipality":false,"approx_coords_only":false},"geometry":{"type":"MultiPolygon","coordinates":[[[[-45.05098,-20.24112],[-45.04174,-20.26898],[-45.00432,-20.27969],[-44.93655,-20.21607],[-44.9416,-20.2093],[-44.9661,-20.2138],[-44.97346,-20.20635],[-45.05098,-20.24112]]]]}},{"type":"Feature","properties":{"territory_id":"mg-3164605-distrito-de-aparecida-do-oeste","name":"Distrito de Aparecida do Oeste","municipality_id":"mg-3164605","polling_places":1,"approx":true,"official":false,"method":"voronoi-polling-places","whole_municipality":false,"approx_coords_only":false},"geometry":{"type":"MultiPolygon","coordinates":[[[[-45.10875,-20.28446],[-45.05002,-20.35606],[-45.0451,-20.3556],[-45.0335,-20.336],[-45.02674,-20.33509],[-45.04174,-20.26898],[-45.05098,-20.24112],[-45.05447,-20.24046],[-45.10875,-20.28446]]]]}},{"type":"Feature","properties":{"territory_id":"mg-3164605-povoado-de-agua-limpa","name":"Povoado de Agua Limpa","municipality_id":"mg-3164605","polling_places":1,"approx":true,"official":false,"method":"voronoi-polling-places","whole_municipality":false,"approx_coords_only":false},"geometry":{"type":"MultiPolygon","coordinates":[[[[-45.1543,-20.181],[-45.13484,-20.22217],[-45.08275,-20.20829],[-45.09399,-20.12585],[-45.0968,-20.1229],[-45.1466,-20.1602],[-45.1543,-20.181]]]]}},{"type":"Feature","properties":{"territory_id":"mg-3164605-povoado-de-guarita","name":"Povoado de Guarita","municipality_id":"mg-3164605","polling_places":1,"approx":true,"official":false,"method":"voronoi-polling-places","whole_municipality":false,"approx_coords_only":false},"geometry":{"type":"MultiPolygon","coordinates":[[[[-45.1284,-20.3332],[-45.1275,-20.3633],[-45.05002,-20.35606],[-45.10875,-20.28446],[-45.1165,-20.28513],[-45.1141,-20.3314],[-45.1284,-20.3332]]]]}},{"type":"Feature","properties":{"territory_id":"mg-3164605-povoado-de-serra-negra","name":"Povoado de Serra Negra","municipality_id":"mg-3164605","polling_places":1,"approx":true,"official":false,"method":"voronoi-polling-places","whole_municipality":false,"approx_coords_only":false},"geometry":{"type":"MultiPolygon","coordinates":[[[[-45.09399,-20.12585],[-45.08275,-20.20829],[-45.05447,-20.24046],[-45.05098,-20.24112],[-44.97346,-20.20635],[-45.0084,-20.171],[-45.0715,-20.1495],[-45.09399,-20.12585]]]]}},{"type":"Feature","properties":{"territory_id":"mg-3164605-povoado-de-tres-barras","name":"Povoado de Tres Barras","municipality_id":"mg-3164605","polling_places":1,"approx":true,"official":false,"method":"voronoi-polling-places","whole_municipality":false,"approx_coords_only":false},"geometry":{"type":"MultiPolygon","coordinates":[[[[-45.13484,-20.22217],[-45.1179,-20.258],[-45.1165,-20.28513],[-45.10875,-20.28446],[-45.05447,-20.24046],[-45.08275,-20.20829],[-45.13484,-20.22217]]]]}},{"type":"Feature","properties":{"territory_id":"mg-3164605-sao-jose","name":"Sao Jose","municipality_id":"mg-3164605","polling_places":1,"approx":true,"official":false,"method":"voronoi-polling-places","whole_municipality":false,"approx_coords_only":false},"geometry":{"type":"MultiPolygon","coordinates":[[[[-45.04174,-20.26898],[-45.02674,-20.33509],[-44.98158,-20.32898],[-45.00432,-20.27969],[-45.04174,-20.26898]]]]}}]}