{"type":"FeatureCollection","features":[{"type":"Feature","properties":{"territory_id":"mg-3164902-centro","name":"Centro","municipality_id":"mg-3164902","polling_places":1,"approx":true,"official":false,"method":"voronoi-polling-places","whole_municipality":true,"approx_coords_only":false},"geometry":{"type":"MultiPolygon","coordinates":[[[[-44.9794,-22.2775],[-44.9711,-22.2185],[-45.0164,-22.1998],[-45.0437,-22.1492],[-45.0604,-22.1439],[-45.0649,-22.175],[-45.0736,-22.2369],[-45.0148,-22.2759],[-44.9794,-22.2775]]]]}}]}