{"type":"FeatureCollection","features":[{"type":"Feature","properties":{"territory_id":"mg-3164803-centro","name":"Centro","municipality_id":"mg-3164803","polling_places":2,"approx":true,"official":false,"method":"voronoi-polling-places","whole_municipality":true,"approx_coords_only":false},"geometry":{"type":"MultiPolygon","coordinates":[[[[-43.1912,-19.2423],[-43.2259,-19.2994],[-43.2809,-19.2801],[-43.2985,-19.2865],[-43.3509,-19.3259],[-43.3241,-19.3519],[-43.2859,-19.3471],[-43.2659,-19.3097],[-43.2437,-19.3252],[-43.1967,-19.3177],[-43.1398,-19.3345],[-43.1494,-19.3128],[-43.1289,-19.284],[-43.1253,-19.2371],[-43.159,-19.252],[-43.1912,-19.2423]]]]}}]}