{"type":"FeatureCollection","features":[{"type":"Feature","properties":{"territory_id":"mg-3164472-centro","name":"Centro","municipality_id":"mg-3164472","polling_places":2,"approx":true,"official":false,"method":"voronoi-polling-places","whole_municipality":true,"approx_coords_only":false},"geometry":{"type":"MultiPolygon","coordinates":[[[[-41.9017,-19.5651],[-41.8942,-19.5377],[-41.9377,-19.4981],[-41.9572,-19.455],[-41.9998,-19.4588],[-41.9915,-19.5387],[-41.9185,-19.5516],[-41.9017,-19.5651]]]]}}]}