{"type":"FeatureCollection","features":[{"type":"Feature","properties":{"territory_id":"mg-3164100-barcelona","name":"Barcelona","municipality_id":"mg-3164100","polling_places":1,"approx":true,"official":false,"method":"voronoi-polling-places","whole_municipality":false,"approx_coords_only":false},"geometry":{"type":"MultiPolygon","coordinates":[[[[-42.64609,-18.30401],[-42.57239,-18.39785],[-42.5708,-18.3885],[-42.56579,-18.38037],[-42.59604,-18.28705],[-42.6355,-18.2836],[-42.64609,-18.30401]]]]}},{"type":"Feature","properties":{"territory_id":"mg-3164100-centro","name":"Centro","municipality_id":"mg-3164100","polling_places":1,"approx":true,"official":false,"method":"voronoi-polling-places","whole_municipality":false,"approx_coords_only":false},"geometry":{"type":"MultiPolygon","coordinates":[[[[-42.6658,-18.34201],[-42.61933,-18.41804],[-42.6149,-18.4165],[-42.5773,-18.4266],[-42.57239,-18.39785],[-42.64609,-18.30401],[-42.6658,-18.34201]]]]}},{"type":"Feature","properties":{"territory_id":"mg-3164100-corrego-dantas","name":"Corrego Dantas","municipality_id":"mg-3164100","polling_places":1,"approx":true,"official":false,"method":"voronoi-polling-places","whole_municipality":false,"approx_coords_only":false},"geometry":{"type":"MultiPolygon","coordinates":[[[[-42.56217,-18.28924],[-42.47232,-18.30466],[-42.4767,-18.2992],[-42.4813,-18.2688],[-42.5097,-18.2634],[-42.5531,-18.2347],[-42.56217,-18.28924]]]]}},{"type":"Feature","properties":{"territory_id":"mg-3164100-zona-rural","name":"Zona Rural","municipality_id":"mg-3164100","polling_places":2,"approx":true,"official":false,"method":"voronoi-polling-places","whole_municipality":false,"approx_coords_only":false},"geometry":{"type":"MultiPolygon","coordinates":[[[[-42.7122,-18.3658],[-42.6927,-18.4542],[-42.7043,-18.5084],[-42.6824,-18.4858],[-42.6561,-18.4308],[-42.61933,-18.41804],[-42.6658,-18.34201],[-42.6854,-18.3798],[-42.7122,-18.3658]]],[[[-42.59604,-18.28705],[-42.56579,-18.38037],[-42.5435,-18.3442],[-42.5112,-18.3366],[-42.4724,-18.3471],[-42.4512,-18.331],[-42.47232,-18.30466],[-42.56217,-18.28924],[-42.5623,-18.29],[-42.59604,-18.28705]]]]}}]}