{"type":"FeatureCollection","features":[{"type":"Feature","properties":{"territory_id":"mg-3164704-centro","name":"Centro","municipality_id":"mg-3164704","polling_places":7,"approx":true,"official":false,"method":"voronoi-polling-places","whole_municipality":false,"approx_coords_only":false},"geometry":{"type":"MultiPolygon","coordinates":[[[[-47.03708,-20.9711],[-47.00028,-20.93325],[-46.98972,-20.92526],[-46.98354,-20.92389],[-46.98139,-20.9193],[-46.98119,-20.91897],[-46.98053,-20.91857],[-46.98006,-20.91803],[-46.97862,-20.91673],[-46.97748,-20.91288],[-46.98612,-20.91331],[-46.98796,-20.91315],[-46.98918,-20.91191],[-46.99161,-20.91285],[-46.99991,-20.91088],[-47.02328,-20.92149],[-47.03708,-20.9711]]]]}},{"type":"Feature","properties":{"territory_id":"mg-3164704-guardinha","name":"Guardinha","municipality_id":"mg-3164704","polling_places":1,"approx":true,"official":false,"method":"voronoi-polling-places","whole_municipality":false,"approx_coords_only":false},"geometry":{"type":"MultiPolygon","coordinates":[[[[-47.24,-20.8853],[-47.1813,-20.9538],[-47.1437,-20.9824],[-47.1479,-21.0355],[-47.1081,-21.0148],[-47.08542,-21.01452],[-47.10893,-20.84559],[-47.1412,-20.8579],[-47.1518,-20.878],[-47.1955,-20.8765],[-47.2269,-20.8555],[-47.2274,-20.8565],[-47.24,-20.8853]]]]}},{"type":"Feature","properties":{"territory_id":"mg-3164704-jardim-planalto","name":"Jardim Planalto","municipality_id":"mg-3164704","polling_places":1,"approx":true,"official":false,"method":"voronoi-polling-places","whole_municipality":false,"approx_coords_only":false},"geometry":{"type":"MultiPolygon","coordinates":[[[[-46.97147,-20.90913],[-46.96906,-20.92598],[-46.9634,-20.93934],[-46.88621,-21.05214],[-46.8684,-21.0106],[-46.8236,-20.9977],[-46.7981,-20.9757],[-46.8045,-20.9288],[-46.8449,-20.9156],[-46.8746,-20.8857],[-46.89988,-20.8506],[-46.96898,-20.90592],[-46.97147,-20.90913]]]]}},{"type":"Feature","properties":{"territory_id":"mg-3164704-mocoquinha","name":"Mocoquinha","municipality_id":"mg-3164704","polling_places":1,"approx":true,"official":false,"method":"voronoi-polling-places","whole_municipality":false,"approx_coords_only":false},"geometry":{"type":"MultiPolygon","coordinates":[[[[-46.98053,-20.91857],[-46.97263,-20.93139],[-46.9634,-20.93934],[-46.96906,-20.92598],[-46.97862,-20.91673],[-46.98006,-20.91803],[-46.98053,-20.91857]]]]}},{"type":"Feature","properties":{"territory_id":"mg-3164704-santa-maria","name":"Santa Maria","municipality_id":"mg-3164704","polling_places":1,"approx":true,"official":false,"method":"voronoi-polling-places","whole_municipality":false,"approx_coords_only":false},"geometry":{"type":"MultiPolygon","coordinates":[[[[-46.98918,-20.91191],[-46.98796,-20.91315],[-46.98612,-20.91331],[-46.97748,-20.91288],[-46.97682,-20.91195],[-46.98716,-20.90517],[-46.98918,-20.91191]]]]}},{"type":"Feature","properties":{"territory_id":"mg-3164704-santa-tereza","name":"Santa Tereza","municipality_id":"mg-3164704","polling_places":1,"approx":true,"official":false,"method":"voronoi-polling-places","whole_municipality":false,"approx_coords_only":false},"geometry":{"type":"MultiPolygon","coordinates":[[[[-47.04337,-20.78643],[-47.0226,-20.90288],[-46.99335,-20.89844],[-46.99025,-20.89635],[-46.96353,-20.79254],[-46.985,-20.7597],[-47.0285,-20.7313],[-47.04337,-20.78643]]]]}},{"type":"Feature","properties":{"territory_id":"mg-3164704-termopolis","name":"Termópolis","municipality_id":"mg-3164704","polling_places":1,"approx":true,"official":false,"method":"voronoi-polling-places","whole_municipality":false,"approx_coords_only":true},"geometry":{"type":"MultiPolygon","coordinates":[[[[-47.10893,-20.84559],[-47.08542,-21.01452],[-47.05512,-21.01414],[-47.03708,-20.9711],[-47.02328,-20.92149],[-47.0226,-20.90288],[-47.04337,-20.78643],[-47.0469,-20.7995],[-47.0381,-20.8358],[-47.0846,-20.8363],[-47.10893,-20.84559]]]]}},{"type":"Feature","properties":{"territory_id":"mg-3164704-verona","name":"Verona","municipality_id":"mg-3164704","polling_places":1,"approx":true,"official":false,"method":"voronoi-polling-places","whole_municipality":false,"approx_coords_only":false},"geometry":{"type":"MultiPolygon","coordinates":[[[[-46.99025,-20.89635],[-46.98755,-20.90217],[-46.96898,-20.90592],[-46.89988,-20.8506],[-46.9199,-20.8228],[-46.9631,-20.7932],[-46.96353,-20.79254],[-46.99025,-20.89635]]]]}},{"type":"Feature","properties":{"territory_id":"mg-3164704-vila-formosa","name":"Vila Formosa","municipality_id":"mg-3164704","polling_places":1,"approx":true,"official":false,"method":"voronoi-polling-places","whole_municipality":false,"approx_coords_only":false},"geometry":{"type":"MultiPolygon","coordinates":[[[[-46.97862,-20.91673],[-46.96906,-20.92598],[-46.97147,-20.90913],[-46.97682,-20.91195],[-46.97748,-20.91288],[-46.97862,-20.91673]]]]}},{"type":"Feature","properties":{"territory_id":"mg-3164704-vila-helena","name":"Vila Helena","municipality_id":"mg-3164704","polling_places":1,"approx":true,"official":false,"method":"voronoi-polling-places","whole_municipality":false,"approx_coords_only":false},"geometry":{"type":"MultiPolygon","coordinates":[[[[-47.02328,-20.92149],[-46.99991,-20.91088],[-46.99335,-20.89844],[-47.0226,-20.90288],[-47.02328,-20.92149]]]]}},{"type":"Feature","properties":{"territory_id":"mg-3164704-vila-ipe","name":"Vila Ipê","municipality_id":"mg-3164704","polling_places":1,"approx":true,"official":false,"method":"voronoi-polling-places","whole_municipality":false,"approx_coords_only":false},"geometry":{"type":"MultiPolygon","coordinates":[[[[-46.98755,-20.90217],[-46.98716,-20.90517],[-46.97682,-20.91195],[-46.97147,-20.90913],[-46.96898,-20.90592],[-46.98755,-20.90217]]]]}},{"type":"Feature","properties":{"territory_id":"mg-3164704-vila-mariana","name":"Vila Mariana","municipality_id":"mg-3164704","polling_places":1,"approx":true,"official":false,"method":"voronoi-polling-places","whole_municipality":false,"approx_coords_only":false},"geometry":{"type":"MultiPolygon","coordinates":[[[[-46.98354,-20.92389],[-46.97263,-20.93139],[-46.98053,-20.91857],[-46.98119,-20.91897],[-46.98139,-20.9193],[-46.98354,-20.92389]]]]}},{"type":"Feature","properties":{"territory_id":"mg-3164704-vila-muschioni","name":"Vila Muschioni","municipality_id":"mg-3164704","polling_places":1,"approx":true,"official":false,"method":"voronoi-polling-places","whole_municipality":false,"approx_coords_only":false},"geometry":{"type":"MultiPolygon","coordinates":[[[[-47.05512,-21.01414],[-47.0193,-21.0137],[-46.965,-21.0326],[-46.9354,-21.0619],[-46.8919,-21.0654],[-46.88621,-21.05214],[-46.9634,-20.93934],[-46.97263,-20.93139],[-46.98354,-20.92389],[-46.98972,-20.92526],[-47.00028,-20.93325],[-47.03708,-20.9711],[-47.05512,-21.01414]]]]}},{"type":"Feature","properties":{"territory_id":"mg-3164704-vila-operaria","name":"Vila Operária","municipality_id":"mg-3164704","polling_places":1,"approx":true,"official":false,"method":"voronoi-polling-places","whole_municipality":false,"approx_coords_only":false},"geometry":{"type":"MultiPolygon","coordinates":[[[[-46.99991,-20.91088],[-46.99161,-20.91285],[-46.98918,-20.91191],[-46.98716,-20.90517],[-46.98755,-20.90217],[-46.99025,-20.89635],[-46.99335,-20.89844],[-46.99991,-20.91088]]]]}}]}