{"type":"FeatureCollection","features":[{"type":"Feature","properties":{"territory_id":"mg-3164407-centro","name":"Centro","municipality_id":"mg-3164407","polling_places":1,"approx":true,"official":false,"method":"voronoi-polling-places","whole_municipality":false,"approx_coords_only":false},"geometry":{"type":"MultiPolygon","coordinates":[[[[-45.81337,-22.10901],[-45.77938,-22.2099],[-45.7648,-22.2096],[-45.76032,-22.20771],[-45.7468,-22.10312],[-45.8076,-22.0988],[-45.81337,-22.10901]]]]}},{"type":"Feature","properties":{"territory_id":"mg-3164407-furnas","name":"Furnas","municipality_id":"mg-3164407","polling_places":1,"approx":true,"official":false,"method":"voronoi-polling-places","whole_municipality":false,"approx_coords_only":false},"geometry":{"type":"MultiPolygon","coordinates":[[[[-45.876,-22.2135],[-45.8539,-22.2356],[-45.8477,-22.2113],[-45.77938,-22.2099],[-45.81337,-22.10901],[-45.8171,-22.1156],[-45.876,-22.2135]]]]}},{"type":"Feature","properties":{"territory_id":"mg-3164407-jose-m-brandao","name":"Jose M. Brandao","municipality_id":"mg-3164407","polling_places":1,"approx":true,"official":false,"method":"voronoi-polling-places","whole_municipality":false,"approx_coords_only":false},"geometry":{"type":"MultiPolygon","coordinates":[[[[-45.76032,-22.20771],[-45.71972,-22.1906],[-45.71928,-22.13401],[-45.7428,-22.1034],[-45.7468,-22.10312],[-45.76032,-22.20771]]]]}},{"type":"Feature","properties":{"territory_id":"mg-3164407-santanal","name":"Santanal","municipality_id":"mg-3164407","polling_places":1,"approx":true,"official":false,"method":"voronoi-polling-places","whole_municipality":false,"approx_coords_only":false},"geometry":{"type":"MultiPolygon","coordinates":[[[[-45.71972,-22.1906],[-45.6649,-22.1675],[-45.6916,-22.1362],[-45.7179,-22.1358],[-45.71928,-22.13401],[-45.71972,-22.1906]]]]}}]}