{"type":"FeatureCollection","features":[{"type":"Feature","properties":{"territory_id":"mg-3164506-centro","name":"Centro","municipality_id":"mg-3164506","polling_places":3,"approx":true,"official":false,"method":"voronoi-polling-places","whole_municipality":false,"approx_coords_only":false},"geometry":{"type":"MultiPolygon","coordinates":[[[[-42.61673,-18.03254],[-42.61,-18.08463],[-42.60918,-18.09475],[-42.56007,-18.12238],[-42.54826,-18.12927],[-42.54334,-18.1238],[-42.53447,-18.07967],[-42.52995,-18.06181],[-42.61262,-18.00786],[-42.61673,-18.03254]]]]}},{"type":"Feature","properties":{"territory_id":"mg-3164506-corrego-desejada","name":"Corrego Desejada","municipality_id":"mg-3164506","polling_places":1,"approx":true,"official":false,"method":"voronoi-polling-places","whole_municipality":false,"approx_coords_only":false},"geometry":{"type":"MultiPolygon","coordinates":[[[[-42.7031,-18.0917],[-42.68449,-18.10398],[-42.61673,-18.03254],[-42.61262,-18.00786],[-42.61434,-18.00278],[-42.6451,-18.0463],[-42.6939,-18.068],[-42.7031,-18.0917]]]]}},{"type":"Feature","properties":{"territory_id":"mg-3164506-limeira","name":"Limeira","municipality_id":"mg-3164506","polling_places":1,"approx":true,"official":false,"method":"voronoi-polling-places","whole_municipality":false,"approx_coords_only":false},"geometry":{"type":"MultiPolygon","coordinates":[[[[-42.55524,-18.16969],[-42.5384,-18.1605],[-42.4878,-18.1848],[-42.464,-18.1779],[-42.4722,-18.1502],[-42.46755,-18.12387],[-42.54334,-18.1238],[-42.54826,-18.12927],[-42.55524,-18.16969]]]]}},{"type":"Feature","properties":{"territory_id":"mg-3164506-mae-dos-homens","name":"Mae dos Homens","municipality_id":"mg-3164506","polling_places":1,"approx":true,"official":false,"method":"voronoi-polling-places","whole_municipality":false,"approx_coords_only":false},"geometry":{"type":"MultiPolygon","coordinates":[[[[-42.63737,-18.13856],[-42.6335,-18.1414],[-42.6202,-18.1688],[-42.5818,-18.1842],[-42.55524,-18.16969],[-42.54826,-18.12927],[-42.56007,-18.12238],[-42.60918,-18.09475],[-42.63737,-18.13856]]]]}},{"type":"Feature","properties":{"territory_id":"mg-3164506-povoado-santa-luzia","name":"Povoado Santa Luzia","municipality_id":"mg-3164506","polling_places":1,"approx":true,"official":false,"method":"voronoi-polling-places","whole_municipality":false,"approx_coords_only":false},"geometry":{"type":"MultiPolygon","coordinates":[[[[-42.54334,-18.1238],[-42.46755,-18.12387],[-42.46165,-18.09049],[-42.51017,-18.0604],[-42.52979,-18.06177],[-42.52995,-18.06181],[-42.53447,-18.07967],[-42.54334,-18.1238]]]]}},{"type":"Feature","properties":{"territory_id":"mg-3164506-povoado-viturino","name":"Povoado Viturino","municipality_id":"mg-3164506","polling_places":1,"approx":true,"official":false,"method":"voronoi-polling-places","whole_municipality":false,"approx_coords_only":false},"geometry":{"type":"MultiPolygon","coordinates":[[[[-42.51017,-18.0604],[-42.46165,-18.09049],[-42.4575,-18.067],[-42.4426,-18.058],[-42.4205,-18.0055],[-42.42779,-17.99092],[-42.46499,-17.9926],[-42.51017,-18.0604]]]]}},{"type":"Feature","properties":{"territory_id":"mg-3164506-queiros","name":"Queiros","municipality_id":"mg-3164506","polling_places":1,"approx":true,"official":false,"method":"voronoi-polling-places","whole_municipality":false,"approx_coords_only":false},"geometry":{"type":"MultiPolygon","coordinates":[[[[-42.54628,-17.94829],[-42.50665,-17.97372],[-42.46499,-17.9926],[-42.42779,-17.99092],[-42.4616,-17.9233],[-42.4866,-17.9266],[-42.5221,-17.9489],[-42.54628,-17.94829]]]]}},{"type":"Feature","properties":{"territory_id":"mg-3164506-santo-antonio-dos-araujos","name":"Santo Antonio dos Araujos","municipality_id":"mg-3164506","polling_places":1,"approx":true,"official":false,"method":"voronoi-polling-places","whole_municipality":false,"approx_coords_only":false},"geometry":{"type":"MultiPolygon","coordinates":[[[[-42.61434,-18.00278],[-42.61262,-18.00786],[-42.52995,-18.06181],[-42.52979,-18.06177],[-42.50665,-17.97372],[-42.54628,-17.94829],[-42.5619,-17.9479],[-42.5708,-17.9871],[-42.6068,-17.9921],[-42.61434,-18.00278]]]]}},{"type":"Feature","properties":{"territory_id":"mg-3164506-zona-rural","name":"Zona Rural","municipality_id":"mg-3164506","polling_places":3,"approx":true,"official":false,"method":"voronoi-polling-places","whole_municipality":false,"approx_coords_only":false},"geometry":{"type":"MultiPolygon","coordinates":[[[[-42.68449,-18.10398],[-42.6837,-18.1045],[-42.63737,-18.13856],[-42.60918,-18.09475],[-42.61,-18.08463],[-42.61673,-18.03254],[-42.68449,-18.10398]]],[[[-42.52979,-18.06177],[-42.51017,-18.0604],[-42.46499,-17.9926],[-42.50665,-17.97372],[-42.52979,-18.06177]]]]}}]}