{"type":"FeatureCollection","features":[{"type":"Feature","properties":{"territory_id":"mg-3164308-centro","name":"Centro","municipality_id":"mg-3164308","polling_places":2,"approx":true,"official":false,"method":"voronoi-polling-places","whole_municipality":false,"approx_coords_only":false},"geometry":{"type":"MultiPolygon","coordinates":[[[[-46.51107,-20.19745],[-46.45006,-20.26862],[-46.39958,-20.32855],[-46.3881,-20.3189],[-46.333,-20.3566],[-46.2798,-20.3376],[-46.2149,-20.3381],[-46.1774,-20.344],[-46.0802,-20.3388],[-46.1222,-20.2851],[-46.154,-20.2892],[-46.1679,-20.2554],[-46.2227,-20.2213],[-46.2257,-20.1846],[-46.2756,-20.1421],[-46.3097,-20.1398],[-46.31021,-20.13896],[-46.51107,-20.19745]]]]}},{"type":"Feature","properties":{"territory_id":"mg-3164308-zona-rural","name":"Zona Rural","municipality_id":"mg-3164308","polling_places":3,"approx":true,"official":false,"method":"voronoi-polling-places","whole_municipality":false,"approx_coords_only":false},"geometry":{"type":"MultiPolygon","coordinates":[[[[-46.927,-20.1592],[-46.9069,-20.1815],[-46.8727,-20.1766],[-46.8214,-20.1952],[-46.784,-20.2257],[-46.7763,-20.2747],[-46.7428,-20.2677],[-46.6956,-20.2772],[-46.6755,-20.3022],[-46.611,-20.3343],[-46.5718,-20.3423],[-46.5653,-20.3661],[-46.5197,-20.3582],[-46.4998,-20.3778],[-46.4736,-20.3908],[-46.39958,-20.32855],[-46.45006,-20.26862],[-46.51107,-20.19745],[-46.31021,-20.13896],[-46.3588,-20.0579],[-46.405,-20.0002],[-46.4506,-19.9749],[-46.4885,-19.9763],[-46.499,-20.0047],[-46.5816,-20.0124],[-46.6261,-19.9939],[-46.6294,-20.0404],[-46.6974,-20.0485],[-46.7507,-20.0271],[-46.8034,-20.0255],[-46.8305,-20.0496],[-46.8473,-20.1259],[-46.927,-20.1592]]]]}}]}