{"type":"FeatureCollection","features":[{"type":"Feature","properties":{"territory_id":"mg-3164209-centro","name":"Centro","municipality_id":"mg-3164209","polling_places":3,"approx":false,"official":true,"method":"official-ibge-cd2022","whole_municipality":false,"approx_coords_only":false,"official_name":"Centro","official_code":"3164209001","match":"direct"},"geometry":{"type":"MultiPolygon","coordinates":[[[[-45.07107,-16.36837],[-45.07049,-16.36564],[-45.06829,-16.3661],[-45.06703,-16.36634],[-45.06661,-16.36613],[-45.06693,-16.36746],[-45.06715,-16.36867],[-45.06726,-16.36918],[-45.06789,-16.37164],[-45.06955,-16.37129],[-45.06994,-16.37285],[-45.07086,-16.37244],[-45.07085,-16.37236],[-45.07125,-16.37214],[-45.07133,-16.37212],[-45.0716,-16.37217],[-45.07186,-16.37211],[-45.07206,-16.37212],[-45.0718,-16.37156],[-45.07166,-16.3708],[-45.07129,-16.36936],[-45.07107,-16.36837]]]]}},{"type":"Feature","properties":{"territory_id":"mg-3164209-novo-horizonte","name":"Novo Horizonte","municipality_id":"mg-3164209","polling_places":1,"approx":false,"official":true,"method":"official-ibge-cd2022","whole_municipality":false,"approx_coords_only":false,"official_name":"Novo Horizonte","official_code":"3164209005","match":"direct"},"geometry":{"type":"MultiPolygon","coordinates":[[[[-45.08141,-16.37693],[-45.07955,-16.3742],[-45.0789,-16.37318],[-45.07871,-16.37273],[-45.07826,-16.37212],[-45.07786,-16.37162],[-45.0772,-16.37143],[-45.07678,-16.37137],[-45.07598,-16.37122],[-45.07595,-16.37107],[-45.07669,-16.37091],[-45.0763,-16.36896],[-45.0744,-16.36936],[-45.07455,-16.37008],[-45.07166,-16.3708],[-45.0718,-16.37156],[-45.07206,-16.37212],[-45.07218,-16.37234],[-45.07337,-16.37374],[-45.07496,-16.37533],[-45.07788,-16.37859],[-45.08307,-16.37901],[-45.08328,-16.37722],[-45.08329,-16.37705],[-45.08151,-16.37669],[-45.08141,-16.37693]]]]}},{"type":"Feature","properties":{"territory_id":"mg-3164209-zona-rural","name":"Zona Rural","municipality_id":"mg-3164209","polling_places":5,"approx":true,"official":false,"method":"voronoi-polling-places","whole_municipality":false,"approx_coords_only":false},"geometry":{"type":"MultiPolygon","coordinates":[[[[-45.8306,-16.5064],[-45.7884,-16.5464],[-45.7588,-16.5314],[-45.6913,-16.5666],[-45.6429,-16.6118],[-45.6222,-16.6059],[-45.5849,-16.5626],[-45.5274,-16.5634],[-45.5064,-16.5197],[-45.4622,-16.5041],[-45.4189,-16.5029],[-45.3048,-16.5632],[-45.2571,-16.5429],[-45.1173,-16.5128],[-45.1153,-16.4814],[-45.0671,-16.4722],[-45.0381,-16.4239],[-45.0658,-16.4084],[-45.0566,-16.3646],[-45.0607,-16.2925],[-45.0466,-16.2428],[-45.0548,-16.1997],[-45.0802,-16.146],[-45.0796,-16.1217],[-45.1011,-16.1511],[-45.184,-16.1708],[-45.1702,-16.2036],[-45.2329,-16.2653],[-45.3039,-16.2679],[-45.3659,-16.325],[-45.4233,-16.2793],[-45.4838,-16.3008],[-45.5053,-16.2579],[-45.5682,-16.2229],[-45.6147,-16.1774],[-45.6552,-16.1827],[-45.6768,-16.2105],[-45.6805,-16.2499],[-45.707,-16.3022],[-45.704,-16.3476],[-45.7193,-16.3878],[-45.7127,-16.4126],[-45.7519,-16.4503],[-45.7837,-16.4615],[-45.8306,-16.5064]],[[-45.08329,-16.37705],[-45.08151,-16.37669],[-45.08141,-16.37693],[-45.07955,-16.3742],[-45.0789,-16.37318],[-45.07871,-16.37273],[-45.07826,-16.37212],[-45.07786,-16.37162],[-45.0772,-16.37143],[-45.07678,-16.37137],[-45.07598,-16.37122],[-45.07595,-16.37107],[-45.07669,-16.37091],[-45.0763,-16.36896],[-45.0744,-16.36936],[-45.07455,-16.37008],[-45.07166,-16.3708],[-45.07129,-16.36936],[-45.07107,-16.36837],[-45.07049,-16.36564],[-45.06829,-16.3661],[-45.06703,-16.36634],[-45.06661,-16.36613],[-45.06693,-16.36746],[-45.06715,-16.36867],[-45.06726,-16.36918],[-45.06789,-16.37164],[-45.06955,-16.37129],[-45.06994,-16.37285],[-45.07086,-16.37244],[-45.07085,-16.37236],[-45.07125,-16.37214],[-45.07133,-16.37212],[-45.0716,-16.37217],[-45.07186,-16.37211],[-45.07206,-16.37212],[-45.07218,-16.37234],[-45.07337,-16.37374],[-45.07496,-16.37533],[-45.07788,-16.37859],[-45.08307,-16.37901],[-45.08328,-16.37722],[-45.08329,-16.37705]]]]}}]}