{"type":"FeatureCollection","features":[{"type":"Feature","properties":{"territory_id":"mg-3165305-centro","name":"Centro","municipality_id":"mg-3165305","polling_places":3,"approx":true,"official":false,"method":"voronoi-polling-places","whole_municipality":false,"approx_coords_only":false},"geometry":{"type":"MultiPolygon","coordinates":[[[[-44.57056,-21.65683],[-44.44795,-21.70146],[-44.43325,-21.71885],[-44.4208,-21.7124],[-44.3846,-21.7142],[-44.349,-21.6875],[-44.3557,-21.6564],[-44.3992,-21.6213],[-44.3864,-21.5861],[-44.4263,-21.5548],[-44.4238,-21.5317],[-44.4563,-21.5183],[-44.4966,-21.5765],[-44.5154,-21.618],[-44.5703,-21.6545],[-44.57056,-21.65683]]]]}},{"type":"Feature","properties":{"territory_id":"mg-3165305-morro","name":"Morro","municipality_id":"mg-3165305","polling_places":1,"approx":true,"official":false,"method":"voronoi-polling-places","whole_municipality":false,"approx_coords_only":false},"geometry":{"type":"MultiPolygon","coordinates":[[[[-44.5813,-21.7514],[-44.5723,-21.7727],[-44.4924,-21.7898],[-44.497,-21.7726],[-44.4588,-21.7321],[-44.43325,-21.71885],[-44.44795,-21.70146],[-44.57056,-21.65683],[-44.5813,-21.7514]]]]}}]}