{"type":"FeatureCollection","features":[{"type":"Feature","properties":{"territory_id":"mg-3165909-centro","name":"Centro","municipality_id":"mg-3165909","polling_places":1,"approx":true,"official":false,"method":"voronoi-polling-places","whole_municipality":false,"approx_coords_only":false},"geometry":{"type":"MultiPolygon","coordinates":[[[[-43.28782,-18.00853],[-43.2809,-18.0227],[-43.2685,-18.0405],[-43.1976,-18.0201],[-43.19106,-18.02364],[-43.18718,-18.01986],[-43.15165,-17.8956],[-43.17484,-17.89325],[-43.28782,-18.00853]]]]}},{"type":"Feature","properties":{"territory_id":"mg-3165909-mangabeiras","name":"Mangabeiras","municipality_id":"mg-3165909","polling_places":1,"approx":true,"official":false,"method":"voronoi-polling-places","whole_municipality":false,"approx_coords_only":false},"geometry":{"type":"MultiPolygon","coordinates":[[[[-43.3813,-17.7977],[-43.37667,-17.86509],[-43.17484,-17.89325],[-43.15165,-17.8956],[-43.124,-17.87808],[-43.137,-17.8072],[-43.1576,-17.772],[-43.2274,-17.5627],[-43.2472,-17.5734],[-43.2479,-17.6425],[-43.3014,-17.6606],[-43.291,-17.7127],[-43.3349,-17.7341],[-43.3266,-17.765],[-43.3813,-17.7977]]]]}},{"type":"Feature","properties":{"territory_id":"mg-3165909-progresso","name":"Progresso","municipality_id":"mg-3165909","polling_places":1,"approx":true,"official":false,"method":"voronoi-polling-places","whole_municipality":false,"approx_coords_only":false},"geometry":{"type":"MultiPolygon","coordinates":[[[[-43.4082,-17.9471],[-43.3533,-17.9425],[-43.3205,-17.9544],[-43.325,-18.0063],[-43.2939,-17.9961],[-43.28782,-18.00853],[-43.17484,-17.89325],[-43.37667,-17.86509],[-43.3761,-17.8734],[-43.4082,-17.9471]]]]}},{"type":"Feature","properties":{"territory_id":"mg-3165909-zona-rural","name":"Zona Rural","municipality_id":"mg-3165909","polling_places":2,"approx":true,"official":false,"method":"voronoi-polling-places","whole_municipality":false,"approx_coords_only":false},"geometry":{"type":"MultiPolygon","coordinates":[[[[-43.19106,-18.02364],[-43.1657,-18.0374],[-43.1601,-18.0851],[-43.1373,-18.1088],[-43.1369,-18.1081],[-43.1098,-18.064],[-43.1421,-18.0447],[-43.1418,-18.0234],[-43.1072,-18.0021],[-43.1265,-17.9581],[-43.122,-17.889],[-43.124,-17.87808],[-43.15165,-17.8956],[-43.18718,-18.01986],[-43.19106,-18.02364]]]]}}]}