{"type":"FeatureCollection","features":[{"type":"Feature","properties":{"territory_id":"mg-3165578-centro","name":"Centro","municipality_id":"mg-3165578","polling_places":2,"approx":true,"official":false,"method":"voronoi-polling-places","whole_municipality":false,"approx_coords_only":false},"geometry":{"type":"MultiPolygon","coordinates":[[[[-46.2962,-22.5787],[-46.2766,-22.5941],[-46.1585,-22.6156],[-46.1529,-22.6077],[-46.137,-22.5835],[-46.1578,-22.5465],[-46.1478,-22.5185],[-46.16504,-22.51153],[-46.17429,-22.5224],[-46.29382,-22.56752],[-46.2962,-22.5787]]]]}},{"type":"Feature","properties":{"territory_id":"mg-3165578-distrito-da-ponte-segura","name":"Distrito da Ponte Segura","municipality_id":"mg-3165578","polling_places":1,"approx":true,"official":false,"method":"voronoi-polling-places","whole_municipality":false,"approx_coords_only":false},"geometry":{"type":"MultiPolygon","coordinates":[[[[-46.29382,-22.56752],[-46.17429,-22.5224],[-46.16504,-22.51153],[-46.1891,-22.5018],[-46.2228,-22.5141],[-46.2827,-22.5152],[-46.29382,-22.56752]]]]}}]}