{"type":"FeatureCollection","features":[{"type":"Feature","properties":{"territory_id":"mg-3165701-centro","name":"Centro","municipality_id":"mg-3165701","polling_places":3,"approx":true,"official":false,"method":"voronoi-polling-places","whole_municipality":false,"approx_coords_only":false},"geometry":{"type":"MultiPolygon","coordinates":[[[[-43.11941,-20.97184],[-43.1024,-20.9558],[-43.0998,-20.95649],[-43.07201,-20.91659],[-43.04251,-20.88336],[-43.04265,-20.88217],[-43.11405,-20.86231],[-43.10425,-20.91023],[-43.11076,-20.94046],[-43.11941,-20.97184]]]]}},{"type":"Feature","properties":{"territory_id":"mg-3165701-chacara","name":"Chácara","municipality_id":"mg-3165701","polling_places":1,"approx":true,"official":false,"method":"voronoi-polling-places","whole_municipality":false,"approx_coords_only":false},"geometry":{"type":"MultiPolygon","coordinates":[[[[-43.1728,-20.9254],[-43.1639,-20.9588],[-43.1305,-20.9823],[-43.11941,-20.97184],[-43.11076,-20.94046],[-43.10425,-20.91023],[-43.11405,-20.86231],[-43.14719,-20.84839],[-43.1728,-20.9254]]]]}},{"type":"Feature","properties":{"territory_id":"mg-3165701-zona-rural","name":"Zona Rural","municipality_id":"mg-3165701","polling_places":2,"approx":true,"official":false,"method":"voronoi-polling-places","whole_municipality":false,"approx_coords_only":false},"geometry":{"type":"MultiPolygon","coordinates":[[[[-43.14719,-20.84839],[-43.11405,-20.86231],[-43.04265,-20.88217],[-43.0427,-20.8818],[-43.0811,-20.8599],[-43.0578,-20.8271],[-43.0817,-20.8162],[-43.1469,-20.8475],[-43.14719,-20.84839]]],[[[-43.0998,-20.95649],[-43.0688,-20.9647],[-43.0369,-20.9294],[-43.04251,-20.88336],[-43.07201,-20.91659],[-43.0998,-20.95649]]]]}}]}