{"type":"FeatureCollection","features":[{"type":"Feature","properties":{"territory_id":"mg-3165107-centro","name":"Centro","municipality_id":"mg-3165107","polling_places":2,"approx":true,"official":false,"method":"voronoi-polling-places","whole_municipality":true,"approx_coords_only":false},"geometry":{"type":"MultiPolygon","coordinates":[[[[-47.0285,-20.7313],[-47.0764,-20.7133],[-47.101,-20.682],[-47.1267,-20.7093],[-47.1692,-20.7034],[-47.1862,-20.7314],[-47.1888,-20.7706],[-47.2249,-20.8009],[-47.2145,-20.8272],[-47.2269,-20.8555],[-47.1955,-20.8765],[-47.1518,-20.878],[-47.1412,-20.8579],[-47.0846,-20.8363],[-47.0381,-20.8358],[-47.0469,-20.7995],[-47.0285,-20.7313]]]]}}]}