{"type":"FeatureCollection","features":[{"type":"Feature","properties":{"territory_id":"mg-3165008-centro","name":"Centro","municipality_id":"mg-3165008","polling_places":5,"approx":true,"official":false,"method":"voronoi-polling-places","whole_municipality":false,"approx_coords_only":false},"geometry":{"type":"MultiPolygon","coordinates":[[[[-44.58658,-20.95593],[-44.55233,-20.98109],[-44.50642,-21.01416],[-44.48162,-21.02203],[-44.4794,-20.9602],[-44.446,-20.8992],[-44.4496,-20.87552],[-44.54592,-20.85112],[-44.58132,-20.84134],[-44.58258,-20.8723],[-44.58658,-20.95593]]]]}},{"type":"Feature","properties":{"territory_id":"mg-3165008-merces-de-agua-limpa","name":"Mercês de Agua Limpa","municipality_id":"mg-3165008","polling_places":1,"approx":true,"official":false,"method":"voronoi-polling-places","whole_municipality":false,"approx_coords_only":false},"geometry":{"type":"MultiPolygon","coordinates":[[[[-44.62778,-21.07147],[-44.62451,-21.08374],[-44.54239,-21.03901],[-44.50642,-21.01416],[-44.55233,-20.98109],[-44.62778,-21.07147]]]]}},{"type":"Feature","properties":{"territory_id":"mg-3165008-povoado-de-sao-pedro-das-carapucas","name":"Povoado de São Pedro das Carapuças","municipality_id":"mg-3165008","polling_places":1,"approx":true,"official":false,"method":"voronoi-polling-places","whole_municipality":false,"approx_coords_only":false},"geometry":{"type":"MultiPolygon","coordinates":[[[[-44.7091,-20.8489],[-44.6594,-20.8986],[-44.66103,-20.98623],[-44.58658,-20.95593],[-44.58258,-20.8723],[-44.58132,-20.84134],[-44.59756,-20.80944],[-44.6108,-20.8116],[-44.6411,-20.8563],[-44.7091,-20.8489]]]]}},{"type":"Feature","properties":{"territory_id":"mg-3165008-zona-rural","name":"Zona Rural","municipality_id":"mg-3165008","polling_places":4,"approx":true,"official":false,"method":"voronoi-polling-places","whole_municipality":false,"approx_coords_only":false},"geometry":{"type":"MultiPolygon","coordinates":[[[[-44.6611,-20.99],[-44.6488,-20.9925],[-44.62778,-21.07147],[-44.55233,-20.98109],[-44.58658,-20.95593],[-44.66103,-20.98623],[-44.6611,-20.99]]],[[[-44.62451,-21.08374],[-44.6213,-21.0958],[-44.5805,-21.1028],[-44.5087,-21.0696],[-44.4824,-21.0437],[-44.48162,-21.02203],[-44.50642,-21.01416],[-44.54239,-21.03901],[-44.62451,-21.08374]]],[[[-44.59756,-20.80944],[-44.58132,-20.84134],[-44.54592,-20.85112],[-44.4496,-20.87552],[-44.4536,-20.8492],[-44.4477,-20.7863],[-44.4751,-20.7933],[-44.5151,-20.834],[-44.5685,-20.8047],[-44.59756,-20.80944]]]]}}]}