{"type":"FeatureCollection","features":[{"type":"Feature","properties":{"territory_id":"mg-3165552-centro","name":"Centro","municipality_id":"mg-3165552","polling_places":2,"approx":true,"official":false,"method":"voronoi-polling-places","whole_municipality":false,"approx_coords_only":false},"geometry":{"type":"MultiPolygon","coordinates":[[[[-42.24984,-17.65971],[-42.2345,-17.6768],[-42.2135,-17.7396],[-42.2143,-17.771],[-42.17573,-17.76839],[-42.14373,-17.71716],[-42.1443,-17.7018],[-42.13602,-17.70482],[-42.12616,-17.68905],[-42.11861,-17.58695],[-42.1225,-17.5852],[-42.13229,-17.5308],[-42.14712,-17.54795],[-42.24984,-17.65971]]]]}},{"type":"Feature","properties":{"territory_id":"mg-3165552-distrito-de-palmeiras","name":"Distrito de Palmeiras","municipality_id":"mg-3165552","polling_places":1,"approx":true,"official":false,"method":"voronoi-polling-places","whole_municipality":false,"approx_coords_only":false},"geometry":{"type":"MultiPolygon","coordinates":[[[[-42.12616,-17.68905],[-42.01459,-17.61785],[-42.0165,-17.6155],[-42.0743,-17.6069],[-42.11861,-17.58695],[-42.12616,-17.68905]]]]}},{"type":"Feature","properties":{"territory_id":"mg-3165552-povoado-de-soturno-da-mata","name":"Povoado de Soturno da Mata","municipality_id":"mg-3165552","polling_places":1,"approx":true,"official":false,"method":"voronoi-polling-places","whole_municipality":false,"approx_coords_only":false},"geometry":{"type":"MultiPolygon","coordinates":[[[[-42.17573,-17.76839],[-42.1419,-17.7661],[-42.14373,-17.71716],[-42.17573,-17.76839]]],[[[-42.13602,-17.70482],[-42.1163,-17.712],[-42.0446,-17.6981],[-42.0427,-17.7162],[-42.0018,-17.6951],[-41.9844,-17.655],[-42.01459,-17.61785],[-42.12616,-17.68905],[-42.13602,-17.70482]]]]}},{"type":"Feature","properties":{"territory_id":"mg-3165552-zona-rural","name":"Zona Rural","municipality_id":"mg-3165552","polling_places":1,"approx":true,"official":false,"method":"voronoi-polling-places","whole_municipality":false,"approx_coords_only":false},"geometry":{"type":"MultiPolygon","coordinates":[[[[-42.2882,-17.5957],[-42.2509,-17.6152],[-42.2572,-17.6515],[-42.24984,-17.65971],[-42.14712,-17.54795],[-42.13229,-17.5308],[-42.1326,-17.5291],[-42.1672,-17.4952],[-42.1902,-17.4421],[-42.2196,-17.4591],[-42.2605,-17.5322],[-42.2527,-17.5544],[-42.2882,-17.5957]]]]}}]}