{"type":"FeatureCollection","features":[{"type":"Feature","properties":{"territory_id":"mg-3165602-centro","name":"Centro","municipality_id":"mg-3165602","polling_places":4,"approx":true,"official":false,"method":"voronoi-polling-places","whole_municipality":false,"approx_coords_only":false},"geometry":{"type":"MultiPolygon","coordinates":[[[[-42.9673,-21.8235],[-42.9352,-21.8286],[-42.8944,-21.8124],[-42.89381,-21.81209],[-42.9354,-21.75159],[-42.94874,-21.732],[-42.9608,-21.7332],[-42.9482,-21.7785],[-42.9673,-21.8235]]]]}},{"type":"Feature","properties":{"territory_id":"mg-3165602-pregos","name":"Pregos","municipality_id":"mg-3165602","polling_places":1,"approx":true,"official":false,"method":"voronoi-polling-places","whole_municipality":false,"approx_coords_only":false},"geometry":{"type":"MultiPolygon","coordinates":[[[[-42.94874,-21.732],[-42.9354,-21.75159],[-42.89381,-21.81209],[-42.8628,-21.7959],[-42.8628,-21.7558],[-42.8828,-21.7287],[-42.8683,-21.7033],[-42.8993,-21.6928],[-42.9064,-21.7278],[-42.94874,-21.732]]]]}}]}