{"type":"FeatureCollection","features":[{"type":"Feature","properties":{"territory_id":"mg-3165503-centro","name":"Centro","municipality_id":"mg-3165503","polling_places":2,"approx":true,"official":false,"method":"voronoi-polling-places","whole_municipality":true,"approx_coords_only":false},"geometry":{"type":"MultiPolygon","coordinates":[[[[-42.456,-18.8145],[-42.397,-18.8092],[-42.3742,-18.8275],[-42.327,-18.8183],[-42.3397,-18.7924],[-42.3243,-18.7483],[-42.3013,-18.7396],[-42.3518,-18.7443],[-42.4745,-18.7363],[-42.5045,-18.7873],[-42.456,-18.8145]]]]}}]}