{"type":"FeatureCollection","features":[{"type":"Feature","properties":{"territory_id":"mg-3165537-brasilia","name":"Brasília","municipality_id":"mg-3165537","polling_places":1,"approx":true,"official":false,"method":"voronoi-polling-places","whole_municipality":false,"approx_coords_only":false},"geometry":{"type":"MultiPolygon","coordinates":[[[[-44.13699,-20.04958],[-44.12292,-20.04359],[-44.13446,-20.03897],[-44.13456,-20.03906],[-44.13699,-20.04958]]]]}},{"type":"Feature","properties":{"territory_id":"mg-3165537-brasilia-sarzedo","name":"Brasília Sarzedo","municipality_id":"mg-3165537","polling_places":1,"approx":true,"official":false,"method":"voronoi-polling-places","whole_municipality":false,"approx_coords_only":false},"geometry":{"type":"MultiPolygon","coordinates":[[[[-44.14644,-20.06484],[-44.13977,-20.0751],[-44.11519,-20.04494],[-44.12292,-20.04359],[-44.13699,-20.04958],[-44.14379,-20.0582],[-44.14644,-20.06484]]]]}},{"type":"Feature","properties":{"territory_id":"mg-3165537-capao-balsamo","name":"Capão Bálsamo","municipality_id":"mg-3165537","polling_places":1,"approx":true,"official":false,"method":"voronoi-polling-places","whole_municipality":false,"approx_coords_only":false},"geometry":{"type":"MultiPolygon","coordinates":[[[[-44.10598,-20.09313],[-44.0643,-20.08],[-44.09161,-20.03282],[-44.09314,-20.03483],[-44.10598,-20.09313]]]]}},{"type":"Feature","properties":{"territory_id":"mg-3165537-engenho-seco","name":"Engenho Seco","municipality_id":"mg-3165537","polling_places":1,"approx":true,"official":false,"method":"voronoi-polling-places","whole_municipality":false,"approx_coords_only":false},"geometry":{"type":"MultiPolygon","coordinates":[[[[-44.13977,-20.0751],[-44.1243,-20.0989],[-44.10598,-20.09313],[-44.09314,-20.03483],[-44.11519,-20.04494],[-44.13977,-20.0751]]]]}},{"type":"Feature","properties":{"territory_id":"mg-3165537-imaculada-conceicao","name":"Imaculada Conceição","municipality_id":"mg-3165537","polling_places":1,"approx":true,"official":false,"method":"voronoi-polling-places","whole_municipality":false,"approx_coords_only":false},"geometry":{"type":"MultiPolygon","coordinates":[[[[-44.14926,-20.02744],[-44.14723,-20.03309],[-44.14306,-20.03385],[-44.14045,-20.03363],[-44.13703,-20.02602],[-44.14926,-20.02744]]]]}},{"type":"Feature","properties":{"territory_id":"mg-3165537-jardim-planalto","name":"Jardim Planalto","municipality_id":"mg-3165537","polling_places":1,"approx":true,"official":false,"method":"voronoi-polling-places","whole_municipality":false,"approx_coords_only":false},"geometry":{"type":"MultiPolygon","coordinates":[[[[-44.15858,-20.05431],[-44.1516,-20.0569],[-44.14644,-20.06484],[-44.14379,-20.0582],[-44.1424,-20.04254],[-44.14672,-20.04],[-44.15858,-20.05431]]]]}},{"type":"Feature","properties":{"territory_id":"mg-3165537-masterville","name":"Masterville","municipality_id":"mg-3165537","polling_places":1,"approx":true,"official":false,"method":"voronoi-polling-places","whole_municipality":false,"approx_coords_only":false},"geometry":{"type":"MultiPolygon","coordinates":[[[[-44.13464,-20.03825],[-44.13446,-20.03897],[-44.12292,-20.04359],[-44.11519,-20.04494],[-44.09314,-20.03483],[-44.09161,-20.03282],[-44.0937,-20.0292],[-44.1161,-20.0236],[-44.1299,-20.0252],[-44.13464,-20.03825]]]]}},{"type":"Feature","properties":{"territory_id":"mg-3165537-santa-rosa-de-lima","name":"Santa Rosa de Lima","municipality_id":"mg-3165537","polling_places":1,"approx":true,"official":false,"method":"voronoi-polling-places","whole_municipality":false,"approx_coords_only":false},"geometry":{"type":"MultiPolygon","coordinates":[[[[-44.14045,-20.03363],[-44.13464,-20.03825],[-44.1299,-20.0252],[-44.13703,-20.02602],[-44.14045,-20.03363]]]]}},{"type":"Feature","properties":{"territory_id":"mg-3165537-santo-antonio","name":"Santo Antônio","municipality_id":"mg-3165537","polling_places":1,"approx":true,"official":false,"method":"voronoi-polling-places","whole_municipality":false,"approx_coords_only":false},"geometry":{"type":"MultiPolygon","coordinates":[[[[-44.14379,-20.0582],[-44.13699,-20.04958],[-44.13456,-20.03906],[-44.14147,-20.04183],[-44.1424,-20.04254],[-44.14379,-20.0582]]]]}},{"type":"Feature","properties":{"territory_id":"mg-3165537-sao-joaquim","name":"São Joaquim","municipality_id":"mg-3165537","polling_places":1,"approx":true,"official":false,"method":"voronoi-polling-places","whole_municipality":false,"approx_coords_only":false},"geometry":{"type":"MultiPolygon","coordinates":[[[[-44.1812,-20.0459],[-44.17552,-20.04801],[-44.14827,-20.03559],[-44.14723,-20.03309],[-44.14926,-20.02744],[-44.18,-20.031],[-44.1812,-20.0459]]]]}},{"type":"Feature","properties":{"territory_id":"mg-3165537-vera-cruz","name":"Vera Cruz","municipality_id":"mg-3165537","polling_places":1,"approx":true,"official":false,"method":"voronoi-polling-places","whole_municipality":false,"approx_coords_only":false},"geometry":{"type":"MultiPolygon","coordinates":[[[[-44.17552,-20.04801],[-44.15858,-20.05431],[-44.14672,-20.04],[-44.14827,-20.03559],[-44.17552,-20.04801]]]]}},{"type":"Feature","properties":{"territory_id":"mg-3165537-vila-satelite","name":"Vila Satélite","municipality_id":"mg-3165537","polling_places":2,"approx":true,"official":false,"method":"voronoi-polling-places","whole_municipality":false,"approx_coords_only":false},"geometry":{"type":"MultiPolygon","coordinates":[[[[-44.14827,-20.03559],[-44.14672,-20.04],[-44.1424,-20.04254],[-44.14147,-20.04183],[-44.13456,-20.03906],[-44.13446,-20.03897],[-44.13464,-20.03825],[-44.14045,-20.03363],[-44.14306,-20.03385],[-44.14723,-20.03309],[-44.14827,-20.03559]]]]}}]}