{"type":"FeatureCollection","features":[{"type":"Feature","properties":{"territory_id":"mg-3165404-centro","name":"Centro","municipality_id":"mg-3165404","polling_places":1,"approx":true,"official":false,"method":"voronoi-polling-places","whole_municipality":false,"approx_coords_only":false},"geometry":{"type":"MultiPolygon","coordinates":[[[[-45.75541,-22.72681],[-45.74913,-22.7504],[-45.7395,-22.78659],[-45.7122,-22.7698],[-45.7326,-22.722],[-45.75541,-22.72681]]]]}},{"type":"Feature","properties":{"territory_id":"mg-3165404-jardim-de-santana","name":"Jardim de Santana","municipality_id":"mg-3165404","polling_places":1,"approx":true,"official":false,"method":"voronoi-polling-places","whole_municipality":false,"approx_coords_only":false},"geometry":{"type":"MultiPolygon","coordinates":[[[[-45.9649,-22.7469],[-45.9565,-22.8498],[-45.909,-22.8296],[-45.871,-22.8715],[-45.8481,-22.8378],[-45.768,-22.836],[-45.7709,-22.8059],[-45.7395,-22.78659],[-45.74913,-22.7504],[-45.75541,-22.72681],[-45.8051,-22.7373],[-45.8433,-22.7569],[-45.8732,-22.7254],[-45.9213,-22.7205],[-45.9649,-22.7469]]]]}}]}