{"type":"FeatureCollection","features":[{"type":"Feature","properties":{"territory_id":"mg-3165206-centro","name":"Centro","municipality_id":"mg-3165206","polling_places":2,"approx":true,"official":false,"method":"voronoi-polling-places","whole_municipality":false,"approx_coords_only":false},"geometry":{"type":"MultiPolygon","coordinates":[[[[-45.0672,-21.7398],[-45.0432,-21.7778],[-45.03649,-21.79418],[-44.97971,-21.72813],[-44.89196,-21.63363],[-44.9115,-21.642],[-44.9651,-21.6294],[-45.0369,-21.6319],[-45.0672,-21.7398]]]]}},{"type":"Feature","properties":{"territory_id":"mg-3165206-zona-rural","name":"Zona Rural","municipality_id":"mg-3165206","polling_places":1,"approx":true,"official":false,"method":"voronoi-polling-places","whole_municipality":false,"approx_coords_only":true},"geometry":{"type":"MultiPolygon","coordinates":[[[[-45.03649,-21.79418],[-45.0257,-21.8205],[-44.9823,-21.8322],[-44.9763,-21.8516],[-44.9396,-21.8295],[-44.8848,-21.8368],[-44.8662,-21.797],[-44.8875,-21.7573],[-44.8824,-21.7082],[-44.8931,-21.686],[-44.8781,-21.6277],[-44.89196,-21.63363],[-44.97971,-21.72813],[-45.03649,-21.79418]]]]}}]}