{"type":"FeatureCollection","features":[{"type":"Feature","properties":{"territory_id":"mg-3165560-matriz","name":"Matriz","municipality_id":"mg-3165560","polling_places":1,"approx":true,"official":false,"method":"voronoi-polling-places","whole_municipality":false,"approx_coords_only":false},"geometry":{"type":"MultiPolygon","coordinates":[[[[-42.8957,-20.1188],[-42.8697,-20.1447],[-42.84995,-20.145],[-42.8272,-20.07669],[-42.89194,-20.05475],[-42.8941,-20.0569],[-42.8957,-20.1188]]]]}},{"type":"Feature","properties":{"territory_id":"mg-3165560-nova-colonia","name":"Nova Colônia","municipality_id":"mg-3165560","polling_places":1,"approx":true,"official":false,"method":"voronoi-polling-places","whole_municipality":false,"approx_coords_only":false},"geometry":{"type":"MultiPolygon","coordinates":[[[[-42.84995,-20.145],[-42.811,-20.1456],[-42.7615,-20.1228],[-42.77227,-20.08624],[-42.8272,-20.07669],[-42.84995,-20.145]]]]}},{"type":"Feature","properties":{"territory_id":"mg-3165560-zona-rural","name":"Zona Rural","municipality_id":"mg-3165560","polling_places":1,"approx":true,"official":false,"method":"voronoi-polling-places","whole_municipality":false,"approx_coords_only":false},"geometry":{"type":"MultiPolygon","coordinates":[[[[-42.89194,-20.05475],[-42.8272,-20.07669],[-42.77227,-20.08624],[-42.7772,-20.0695],[-42.742,-20.0453],[-42.755,-20.0202],[-42.8384,-20.0142],[-42.8737,-20.0366],[-42.89194,-20.05475]]]]}}]}