{"type":"FeatureCollection","features":[{"type":"Feature","properties":{"territory_id":"mg-3165800-centro","name":"Centro","municipality_id":"mg-3165800","polling_places":1,"approx":true,"official":false,"method":"voronoi-polling-places","whole_municipality":true,"approx_coords_only":false},"geometry":{"type":"MultiPolygon","coordinates":[[[[-46.1992,-22.1377],[-46.1864,-22.177],[-46.1518,-22.2146],[-46.1171,-22.2087],[-46.0972,-22.1715],[-46.0998,-22.1008],[-46.1398,-22.1012],[-46.1992,-22.1377]]]]}}]}