{"type":"FeatureCollection","features":[{"type":"Feature","properties":{"territory_id":"mg-3166006-centro","name":"Centro","municipality_id":"mg-3166006","polling_places":2,"approx":true,"official":false,"method":"voronoi-polling-places","whole_municipality":false,"approx_coords_only":false},"geometry":{"type":"MultiPolygon","coordinates":[[[[-43.39433,-20.81873],[-43.34232,-20.81437],[-43.30363,-20.82006],[-43.3037,-20.8198],[-43.2664,-20.8035],[-43.2772,-20.7537],[-43.2915,-20.7384],[-43.34909,-20.74428],[-43.35998,-20.76722],[-43.39433,-20.81873]]]]}},{"type":"Feature","properties":{"territory_id":"mg-3166006-zona-rural","name":"Zona Rural","municipality_id":"mg-3166006","polling_places":2,"approx":true,"official":false,"method":"voronoi-polling-places","whole_municipality":false,"approx_coords_only":false},"geometry":{"type":"MultiPolygon","coordinates":[[[[-43.4251,-20.8237],[-43.3729,-20.8672],[-43.2952,-20.8533],[-43.30363,-20.82006],[-43.34232,-20.81437],[-43.39433,-20.81873],[-43.35998,-20.76722],[-43.34909,-20.74428],[-43.411,-20.7506],[-43.4251,-20.8237]]]]}}]}