{"type":"FeatureCollection","features":[{"type":"Feature","properties":{"territory_id":"mg-3166956-centro","name":"Centro","municipality_id":"mg-3166956","polling_places":1,"approx":true,"official":false,"method":"voronoi-polling-places","whole_municipality":false,"approx_coords_only":false},"geometry":{"type":"MultiPolygon","coordinates":[[[[-42.91982,-15.84127],[-42.86671,-15.92169],[-42.8066,-15.8732],[-42.7952,-15.8257],[-42.7695,-15.8192],[-42.7616,-15.7839],[-42.76579,-15.7689],[-42.88797,-15.78349],[-42.91982,-15.84127]]]]}},{"type":"Feature","properties":{"territory_id":"mg-3166956-fazenda-lagoa-grande","name":"Fazenda Lagoa Grande","municipality_id":"mg-3166956","polling_places":1,"approx":true,"official":false,"method":"voronoi-polling-places","whole_municipality":false,"approx_coords_only":false},"geometry":{"type":"MultiPolygon","coordinates":[[[[-42.98015,-15.81096],[-42.91982,-15.84127],[-42.88797,-15.78349],[-42.91333,-15.75045],[-42.9423,-15.816],[-42.98015,-15.81096]]]]}},{"type":"Feature","properties":{"territory_id":"mg-3166956-sanharol","name":"Sanharol","municipality_id":"mg-3166956","polling_places":1,"approx":true,"official":false,"method":"voronoi-polling-places","whole_municipality":false,"approx_coords_only":false},"geometry":{"type":"MultiPolygon","coordinates":[[[[-42.91333,-15.75045],[-42.88797,-15.78349],[-42.76579,-15.7689],[-42.7768,-15.7295],[-42.8261,-15.7357],[-42.8784,-15.6868],[-42.9016,-15.7239],[-42.91333,-15.75045]]]]}},{"type":"Feature","properties":{"territory_id":"mg-3166956-zona-rural","name":"Zona Rural","municipality_id":"mg-3166956","polling_places":2,"approx":true,"official":false,"method":"voronoi-polling-places","whole_municipality":false,"approx_coords_only":false},"geometry":{"type":"MultiPolygon","coordinates":[[[[-43.0182,-15.8059],[-43.0034,-15.8539],[-42.9461,-15.9153],[-42.9047,-15.9337],[-42.9008,-15.962],[-42.7639,-16.0126],[-42.7484,-16.0541],[-42.7256,-16.0416],[-42.7561,-15.9669],[-42.7586,-15.9323],[-42.7963,-15.9206],[-42.8131,-15.9003],[-42.8066,-15.8732],[-42.86671,-15.92169],[-42.91982,-15.84127],[-42.98015,-15.81096],[-43.0182,-15.8059]]]]}}]}