{"type":"FeatureCollection","features":[{"type":"Feature","properties":{"territory_id":"mg-3166907-centro","name":"Centro","municipality_id":"mg-3166907","polling_places":2,"approx":true,"official":false,"method":"voronoi-polling-places","whole_municipality":true,"approx_coords_only":false},"geometry":{"type":"MultiPolygon","coordinates":[[[[-45.9806,-21.5315],[-46.0163,-21.5008],[-46.0641,-21.4894],[-46.1406,-21.5039],[-46.181,-21.5192],[-46.1743,-21.5817],[-46.1256,-21.6397],[-46.084,-21.6525],[-46.1125,-21.6147],[-46.0565,-21.5787],[-46.0016,-21.5759],[-45.9806,-21.5315]]]]}}]}