{"type":"FeatureCollection","features":[{"type":"Feature","properties":{"territory_id":"mg-3166402-centro","name":"Centro","municipality_id":"mg-3166402","polling_places":1,"approx":true,"official":false,"method":"voronoi-polling-places","whole_municipality":true,"approx_coords_only":false},"geometry":{"type":"MultiPolygon","coordinates":[[[[-44.4407,-21.873],[-44.5015,-21.906],[-44.5578,-21.9044],[-44.5663,-21.9404],[-44.5565,-21.9692],[-44.5131,-21.9272],[-44.4663,-21.9244],[-44.4413,-21.9595],[-44.3958,-21.9576],[-44.3793,-21.9408],[-44.3986,-21.8664],[-44.4407,-21.873]]]]}}]}