{"type":"FeatureCollection","features":[{"type":"Feature","properties":{"territory_id":"mg-3166303-centro","name":"Centro","municipality_id":"mg-3166303","polling_places":2,"approx":true,"official":false,"method":"voronoi-polling-places","whole_municipality":false,"approx_coords_only":false},"geometry":{"type":"MultiPolygon","coordinates":[[[[-42.50777,-20.49332],[-42.49243,-20.49516],[-42.4552,-20.5011],[-42.43646,-20.43489],[-42.44255,-20.43343],[-42.47737,-20.46551],[-42.50698,-20.48691],[-42.50777,-20.49332]]]]}},{"type":"Feature","properties":{"territory_id":"mg-3166303-gomes-cardoso","name":"Gomes Cardoso","municipality_id":"mg-3166303","polling_places":1,"approx":true,"official":false,"method":"voronoi-polling-places","whole_municipality":false,"approx_coords_only":false},"geometry":{"type":"MultiPolygon","coordinates":[[[[-42.5288,-20.4589],[-42.5055,-20.4749],[-42.50698,-20.48691],[-42.47737,-20.46551],[-42.44255,-20.43343],[-42.5039,-20.4188],[-42.5266,-20.425],[-42.5288,-20.4589]]]]}},{"type":"Feature","properties":{"territory_id":"mg-3166303-povoado-de-santana","name":"Povoado de Santana","municipality_id":"mg-3166303","polling_places":1,"approx":true,"official":false,"method":"voronoi-polling-places","whole_municipality":false,"approx_coords_only":false},"geometry":{"type":"MultiPolygon","coordinates":[[[[-42.51,-20.5114],[-42.4863,-20.5573],[-42.4398,-20.5586],[-42.4276,-20.56568],[-42.4552,-20.5011],[-42.49243,-20.49516],[-42.50777,-20.49332],[-42.51,-20.5114]]]]}},{"type":"Feature","properties":{"territory_id":"mg-3166303-zona-rural","name":"Zona Rural","municipality_id":"mg-3166303","polling_places":1,"approx":true,"official":false,"method":"voronoi-polling-places","whole_municipality":false,"approx_coords_only":false},"geometry":{"type":"MultiPolygon","coordinates":[[[[-42.4552,-20.5011],[-42.4276,-20.56568],[-42.4074,-20.5774],[-42.4065,-20.5331],[-42.3857,-20.5049],[-42.4343,-20.4354],[-42.43646,-20.43489],[-42.4552,-20.5011]]]]}}]}