{"type":"FeatureCollection","features":[{"type":"Feature","properties":{"territory_id":"mg-3166501-centro","name":"Centro","municipality_id":"mg-3166501","polling_places":1,"approx":true,"official":false,"method":"voronoi-polling-places","whole_municipality":true,"approx_coords_only":false},"geometry":{"type":"MultiPolygon","coordinates":[[[[-43.3364,-18.394],[-43.2454,-18.3983],[-43.2023,-18.4328],[-43.1678,-18.4821],[-43.1016,-18.4684],[-43.1126,-18.4295],[-43.1344,-18.4241],[-43.1392,-18.3695],[-43.1677,-18.3383],[-43.2022,-18.3403],[-43.2257,-18.2991],[-43.2636,-18.3061],[-43.3364,-18.394]]]]}}]}