{"type":"FeatureCollection","features":[{"type":"Feature","properties":{"territory_id":"mg-3166204-centro","name":"Centro","municipality_id":"mg-3166204","polling_places":2,"approx":true,"official":false,"method":"voronoi-polling-places","whole_municipality":false,"approx_coords_only":false},"geometry":{"type":"MultiPolygon","coordinates":[[[[-43.60787,-21.04116],[-43.54938,-21.11488],[-43.51883,-21.07335],[-43.58007,-21.01532],[-43.58057,-21.03073],[-43.60145,-21.0212],[-43.60787,-21.04116]]]]}},{"type":"Feature","properties":{"territory_id":"mg-3166204-palmital-dos-carvalhos","name":"Palmital dos Carvalhos","municipality_id":"mg-3166204","polling_places":1,"approx":true,"official":false,"method":"voronoi-polling-places","whole_municipality":false,"approx_coords_only":false},"geometry":{"type":"MultiPolygon","coordinates":[[[[-43.679,-20.98802],[-43.66675,-21.00112],[-43.6405,-20.9536],[-43.6476,-20.9541],[-43.679,-20.98802]]]]}},{"type":"Feature","properties":{"territory_id":"mg-3166204-zona-rural","name":"Zona Rural","municipality_id":"mg-3166204","polling_places":7,"approx":true,"official":false,"method":"voronoi-polling-places","whole_municipality":false,"approx_coords_only":false},"geometry":{"type":"MultiPolygon","coordinates":[[[[-43.7086,-21.02],[-43.66,-21.0324],[-43.6313,-21.0953],[-43.6008,-21.1119],[-43.5619,-21.1319],[-43.54938,-21.11488],[-43.60787,-21.04116],[-43.60145,-21.0212],[-43.58057,-21.03073],[-43.58007,-21.01532],[-43.51883,-21.07335],[-43.5124,-21.0646],[-43.5358,-20.9956],[-43.5809,-20.9494],[-43.6405,-20.9536],[-43.66675,-21.00112],[-43.679,-20.98802],[-43.7086,-21.02]]]]}}]}