{"type":"FeatureCollection","features":[{"type":"Feature","properties":{"territory_id":"mg-3166709-centro","name":"Centro","municipality_id":"mg-3166709","polling_places":6,"approx":true,"official":false,"method":"voronoi-polling-places","whole_municipality":false,"approx_coords_only":false},"geometry":{"type":"MultiPolygon","coordinates":[[[[-40.33839,-17.67609],[-40.3318,-17.6855],[-40.3056,-17.7796],[-40.3155,-17.8038],[-40.2945,-17.8539],[-40.25453,-17.87374],[-40.22417,-17.83799],[-40.1995,-17.81934],[-40.2181,-17.7957],[-40.22155,-17.75789],[-40.22653,-17.769],[-40.23155,-17.79452],[-40.23882,-17.78982],[-40.24135,-17.78693],[-40.2424,-17.78485],[-40.24318,-17.78475],[-40.24709,-17.78293],[-40.24796,-17.78073],[-40.33839,-17.67609]]]]}},{"type":"Feature","properties":{"territory_id":"mg-3166709-distrito-de-aimorezinho","name":"Distrito de Aimorezinho","municipality_id":"mg-3166709","polling_places":1,"approx":true,"official":false,"method":"voronoi-polling-places","whole_municipality":false,"approx_coords_only":false},"geometry":{"type":"MultiPolygon","coordinates":[[[[-40.25453,-17.87374],[-40.2119,-17.8949],[-40.1741,-17.8516],[-40.1995,-17.81934],[-40.22417,-17.83799],[-40.25453,-17.87374]]]]}},{"type":"Feature","properties":{"territory_id":"mg-3166709-distrito-de-lajedao","name":"Distrito de Lajedao","municipality_id":"mg-3166709","polling_places":1,"approx":true,"official":false,"method":"voronoi-polling-places","whole_municipality":false,"approx_coords_only":false},"geometry":{"type":"MultiPolygon","coordinates":[[[[-40.347,-17.6638],[-40.33839,-17.67609],[-40.24796,-17.78073],[-40.2368,-17.7778],[-40.22653,-17.769],[-40.22155,-17.75789],[-40.2237,-17.7343],[-40.2402,-17.7349],[-40.2727,-17.7274],[-40.299,-17.6746],[-40.3228,-17.6613],[-40.3441,-17.6156],[-40.347,-17.6638]]]]}},{"type":"Feature","properties":{"territory_id":"mg-3166709-panorama","name":"Panorama","municipality_id":"mg-3166709","polling_places":1,"approx":true,"official":false,"method":"voronoi-polling-places","whole_municipality":false,"approx_coords_only":false},"geometry":{"type":"MultiPolygon","coordinates":[[[[-40.24796,-17.78073],[-40.24709,-17.78293],[-40.24318,-17.78475],[-40.2424,-17.78485],[-40.2368,-17.7778],[-40.24796,-17.78073]]]]}},{"type":"Feature","properties":{"territory_id":"mg-3166709-serra-verde","name":"Serra Verde","municipality_id":"mg-3166709","polling_places":1,"approx":true,"official":false,"method":"voronoi-polling-places","whole_municipality":false,"approx_coords_only":false},"geometry":{"type":"MultiPolygon","coordinates":[[[[-40.2424,-17.78485],[-40.24135,-17.78693],[-40.23882,-17.78982],[-40.23155,-17.79452],[-40.22653,-17.769],[-40.2368,-17.7778],[-40.2424,-17.78485]]]]}}]}