{"type":"FeatureCollection","features":[{"type":"Feature","properties":{"territory_id":"mg-3166600-centro","name":"Centro","municipality_id":"mg-3166600","polling_places":3,"approx":true,"official":false,"method":"voronoi-polling-places","whole_municipality":true,"approx_coords_only":false},"geometry":{"type":"MultiPolygon","coordinates":[[[[-45.9007,-19.4379],[-45.8644,-19.4295],[-45.8036,-19.4791],[-45.7799,-19.4737],[-45.7449,-19.4917],[-45.7317,-19.4518],[-45.6777,-19.3998],[-45.6817,-19.3436],[-45.713,-19.314],[-45.735,-19.3064],[-45.7516,-19.2706],[-45.7815,-19.268],[-45.8172,-19.3416],[-45.8516,-19.3253],[-45.9007,-19.4379]]]]}}]}