{"type":"FeatureCollection","features":[{"type":"Feature","properties":{"territory_id":"mg-3166808-distrito-catiara","name":"Distrito Catiara","municipality_id":"mg-3166808","polling_places":1,"approx":true,"official":false,"method":"voronoi-polling-places","whole_municipality":false,"approx_coords_only":false},"geometry":{"type":"MultiPolygon","coordinates":[[[[-46.9568,-19.2691],[-46.9268,-19.2893],[-46.8985,-19.2709],[-46.8373,-19.3034],[-46.7981,-19.3057],[-46.7198,-19.2959],[-46.6904,-19.3184],[-46.5937,-19.3182],[-46.5462,-19.3374],[-46.4962,-19.3137],[-46.5167,-19.2702],[-46.52275,-19.22199],[-46.53104,-19.20611],[-46.5408,-19.1933],[-46.53951,-19.18989],[-46.57205,-19.12755],[-46.67147,-19.13845],[-46.80109,-19.16471],[-46.85352,-19.17563],[-46.8557,-19.1829],[-46.9568,-19.2691]]]]}},{"type":"Feature","properties":{"territory_id":"mg-3166808-flores","name":"Flores","municipality_id":"mg-3166808","polling_places":2,"approx":true,"official":false,"method":"voronoi-polling-places","whole_municipality":false,"approx_coords_only":false},"geometry":{"type":"MultiPolygon","coordinates":[[[[-46.85352,-19.17563],[-46.80109,-19.16471],[-46.67147,-19.13845],[-46.68184,-19.1107],[-46.68199,-19.10934],[-46.78484,-19.04158],[-46.787,-19.0443],[-46.7763,-19.1065],[-46.8122,-19.1576],[-46.8465,-19.1522],[-46.85352,-19.17563]]]]}},{"type":"Feature","properties":{"territory_id":"mg-3166808-nacoes","name":"Nações","municipality_id":"mg-3166808","polling_places":1,"approx":true,"official":false,"method":"voronoi-polling-places","whole_municipality":false,"approx_coords_only":false},"geometry":{"type":"MultiPolygon","coordinates":[[[[-46.68199,-19.10934],[-46.68184,-19.1107],[-46.67147,-19.13845],[-46.57205,-19.12755],[-46.58666,-19.06059],[-46.68199,-19.10934]]]]}},{"type":"Feature","properties":{"territory_id":"mg-3166808-parque-santo-antonio","name":"Parque Santo Antônio","municipality_id":"mg-3166808","polling_places":1,"approx":true,"official":false,"method":"voronoi-polling-places","whole_municipality":false,"approx_coords_only":false},"geometry":{"type":"MultiPolygon","coordinates":[[[[-46.78484,-19.04158],[-46.68199,-19.10934],[-46.58666,-19.06059],[-46.59585,-19.01322],[-46.6237,-19.0381],[-46.6474,-19.0492],[-46.6848,-19.0062],[-46.7232,-19.0219],[-46.7533,-19.002],[-46.78484,-19.04158]]]]}},{"type":"Feature","properties":{"territory_id":"mg-3166808-povoado-de-catules","name":"Povoado de Catulés","municipality_id":"mg-3166808","polling_places":1,"approx":true,"official":false,"method":"voronoi-polling-places","whole_municipality":false,"approx_coords_only":false},"geometry":{"type":"MultiPolygon","coordinates":[[[[-46.59585,-19.01322],[-46.58666,-19.06059],[-46.57205,-19.12755],[-46.53951,-19.18989],[-46.5274,-19.1579],[-46.4968,-19.1574],[-46.4752,-19.1274],[-46.4119,-19.0672],[-46.427,-19.0566],[-46.4412,-19.0051],[-46.4964,-18.948],[-46.5078,-18.917],[-46.5675,-18.9879],[-46.59585,-19.01322]]],[[[-46.53104,-19.20611],[-46.52275,-19.22199],[-46.5235,-19.216],[-46.53104,-19.20611]]]]}}]}