{"type":"FeatureCollection","features":[{"type":"Feature","properties":{"territory_id":"mg-3166105-centro","name":"Centro","municipality_id":"mg-3166105","polling_places":5,"approx":true,"official":false,"method":"voronoi-polling-places","whole_municipality":false,"approx_coords_only":false},"geometry":{"type":"MultiPolygon","coordinates":[[[[-43.1996,-18.8605],[-43.16924,-18.92305],[-43.08772,-18.90384],[-43.00239,-18.88772],[-42.9908,-18.851],[-43.0102,-18.8245],[-43.0626,-18.7897],[-43.1007,-18.8291],[-43.1293,-18.8255],[-43.1586,-18.8546],[-43.1996,-18.8605]]]]}},{"type":"Feature","properties":{"territory_id":"mg-3166105-povoado-sao-jose-do-jacare","name":"Povoado Sao Jose do Jacare","municipality_id":"mg-3166105","polling_places":1,"approx":true,"official":false,"method":"voronoi-polling-places","whole_municipality":false,"approx_coords_only":false},"geometry":{"type":"MultiPolygon","coordinates":[[[[-43.16924,-18.92305],[-43.1681,-18.9254],[-43.156,-18.9709],[-43.0835,-19.0244],[-43.0437,-19.0345],[-42.9851,-18.9641],[-42.9846,-18.9301],[-43.0069,-18.902],[-43.00239,-18.88772],[-43.08772,-18.90384],[-43.16924,-18.92305]]]]}}]}