{"type":"FeatureCollection","features":[{"type":"Feature","properties":{"territory_id":"mg-3167806-centro","name":"Centro","municipality_id":"mg-3167806","polling_places":2,"approx":true,"official":false,"method":"voronoi-polling-places","whole_municipality":true,"approx_coords_only":false},"geometry":{"type":"MultiPolygon","coordinates":[[[[-45.0745,-22.0965],[-45.0508,-22.0749],[-45.0072,-22.0832],[-45.0073,-22.1117],[-44.9927,-22.0918],[-44.9398,-22.0769],[-44.96,-22.0223],[-44.9713,-21.9587],[-44.9966,-21.9488],[-45.0514,-21.978],[-45.0747,-22.0096],[-45.1067,-21.9755],[-45.1265,-21.982],[-45.1301,-22.0082],[-45.0836,-22.0503],[-45.0745,-22.0965]]]]}}]}