{"type":"FeatureCollection","features":[{"type":"Feature","properties":{"territory_id":"mg-3167301-centro","name":"Centro","municipality_id":"mg-3167301","polling_places":1,"approx":true,"official":false,"method":"voronoi-polling-places","whole_municipality":false,"approx_coords_only":false},"geometry":{"type":"MultiPolygon","coordinates":[[[[-43.2758,-21.1908],[-43.2448,-21.2109],[-43.2029,-21.2232],[-43.1666,-21.1861],[-43.1602,-21.147],[-43.13591,-21.12408],[-43.25419,-21.11092],[-43.2532,-21.1612],[-43.2758,-21.1908]]]]}},{"type":"Feature","properties":{"territory_id":"mg-3167301-zona-rural","name":"Zona Rural","municipality_id":"mg-3167301","polling_places":1,"approx":true,"official":false,"method":"voronoi-polling-places","whole_municipality":false,"approx_coords_only":false},"geometry":{"type":"MultiPolygon","coordinates":[[[[-43.2543,-21.1053],[-43.25419,-21.11092],[-43.13591,-21.12408],[-43.1317,-21.1201],[-43.1515,-21.0688],[-43.2397,-21.0877],[-43.2543,-21.1053]]]]}}]}