{"type":"FeatureCollection","features":[{"type":"Feature","properties":{"territory_id":"mg-3167608-alegria","name":"Alegria","municipality_id":"mg-3167608","polling_places":1,"approx":true,"official":false,"method":"voronoi-polling-places","whole_municipality":false,"approx_coords_only":false},"geometry":{"type":"MultiPolygon","coordinates":[[[[-41.92077,-19.99014],[-41.8951,-19.9973],[-41.8915,-19.9563],[-41.8439,-19.9251],[-41.802,-19.8322],[-41.827,-19.829],[-41.8895,-19.8847],[-41.92077,-19.88362],[-41.92077,-19.99014]]]]}},{"type":"Feature","properties":{"territory_id":"mg-3167608-bom-sucesso","name":"Bom Sucesso","municipality_id":"mg-3167608","polling_places":1,"approx":true,"official":false,"method":"voronoi-polling-places","whole_municipality":false,"approx_coords_only":true},"geometry":{"type":"MultiPolygon","coordinates":[[[[-42.06354,-20.0123],[-42.04208,-20.02715],[-42.01157,-19.98962],[-42.03435,-19.96237],[-42.06354,-20.0123]]]]}},{"type":"Feature","properties":{"territory_id":"mg-3167608-cachoeirao","name":"Cachoeirão","municipality_id":"mg-3167608","polling_places":1,"approx":true,"official":false,"method":"voronoi-polling-places","whole_municipality":false,"approx_coords_only":false},"geometry":{"type":"MultiPolygon","coordinates":[[[[-42.0821,-20.1494],[-42.0503,-20.1679],[-42.0272,-20.1492],[-41.99862,-20.15207],[-42.00345,-20.12307],[-42.0559,-20.09286],[-42.0748,-20.10666],[-42.0726,-20.1166],[-42.0821,-20.1494]]]]}},{"type":"Feature","properties":{"territory_id":"mg-3167608-centro","name":"Centro","municipality_id":"mg-3167608","polling_places":2,"approx":true,"official":false,"method":"voronoi-polling-places","whole_municipality":false,"approx_coords_only":false},"geometry":{"type":"MultiPolygon","coordinates":[[[[-42.0559,-20.09286],[-42.00345,-20.12307],[-41.99862,-20.15207],[-41.9585,-20.1561],[-41.98,-20.1247],[-41.95868,-20.09091],[-41.95944,-20.09086],[-42.04377,-20.0837],[-42.0559,-20.09286]]]]}},{"type":"Feature","properties":{"territory_id":"mg-3167608-sao-simao-do-rio-preto","name":"São Simão do Rio Preto","municipality_id":"mg-3167608","polling_places":1,"approx":true,"official":false,"method":"voronoi-polling-places","whole_municipality":false,"approx_coords_only":false},"geometry":{"type":"MultiPolygon","coordinates":[[[[-42.11792,-20.00191],[-42.06354,-20.0123],[-42.03435,-19.96237],[-42.04502,-19.94028],[-42.0558,-19.9503],[-42.1014,-19.9649],[-42.11792,-20.00191]]]]}},{"type":"Feature","properties":{"territory_id":"mg-3167608-sao-vicente","name":"São Vicente","municipality_id":"mg-3167608","polling_places":1,"approx":true,"official":false,"method":"voronoi-polling-places","whole_municipality":false,"approx_coords_only":false},"geometry":{"type":"MultiPolygon","coordinates":[[[[-42.04208,-20.02715],[-42.03676,-20.05625],[-41.98287,-20.02548],[-41.98307,-19.99712],[-42.01157,-19.98962],[-42.04208,-20.02715]]]]}},{"type":"Feature","properties":{"territory_id":"mg-3167608-zona-rural","name":"Zona Rural","municipality_id":"mg-3167608","polling_places":7,"approx":true,"official":false,"method":"voronoi-polling-places","whole_municipality":false,"approx_coords_only":false},"geometry":{"type":"MultiPolygon","coordinates":[[[[-42.1256,-20.0191],[-42.0819,-20.0745],[-42.0748,-20.10666],[-42.0559,-20.09286],[-42.04377,-20.0837],[-41.95944,-20.09086],[-41.95868,-20.09091],[-41.9569,-20.0881],[-41.9827,-20.0499],[-41.98287,-20.02548],[-42.03676,-20.05625],[-42.04208,-20.02715],[-42.06354,-20.0123],[-42.11792,-20.00191],[-42.1256,-20.0191]]],[[[-42.04502,-19.94028],[-42.03435,-19.96237],[-42.01157,-19.98962],[-41.98307,-19.99712],[-41.9831,-19.9931],[-41.9485,-19.9824],[-41.92077,-19.99014],[-41.92077,-19.88362],[-41.9734,-19.8818],[-41.976,-19.9191],[-42.0204,-19.9174],[-42.04502,-19.94028]]]]}}]}