{"type":"FeatureCollection","features":[{"type":"Feature","properties":{"territory_id":"mg-3167509-balanca","name":"Balança","municipality_id":"mg-3167509","polling_places":1,"approx":true,"official":false,"method":"voronoi-polling-places","whole_municipality":false,"approx_coords_only":false},"geometry":{"type":"MultiPolygon","coordinates":[[[[-43.36254,-21.9643],[-43.35775,-21.9701],[-43.3184,-21.95603],[-43.2575,-21.92352],[-43.2682,-21.9012],[-43.308,-21.9185],[-43.31782,-21.91788],[-43.36254,-21.9643]]]]}},{"type":"Feature","properties":{"territory_id":"mg-3167509-centro","name":"Centro","municipality_id":"mg-3167509","polling_places":2,"approx":true,"official":false,"method":"voronoi-polling-places","whole_municipality":false,"approx_coords_only":false},"geometry":{"type":"MultiPolygon","coordinates":[[[[-43.35775,-21.9701],[-43.3266,-22.0078],[-43.28988,-22.01034],[-43.2851,-22.00218],[-43.24717,-21.94161],[-43.2543,-21.9302],[-43.2575,-21.92352],[-43.3184,-21.95603],[-43.35775,-21.9701]]]]}},{"type":"Feature","properties":{"territory_id":"mg-3167509-cotegipe","name":"Cotegipe","municipality_id":"mg-3167509","polling_places":1,"approx":true,"official":false,"method":"voronoi-polling-places","whole_municipality":false,"approx_coords_only":false},"geometry":{"type":"MultiPolygon","coordinates":[[[[-43.3722,-21.9526],[-43.36254,-21.9643],[-43.31782,-21.91788],[-43.3458,-21.9161],[-43.3722,-21.9526]]]]}},{"type":"Feature","properties":{"territory_id":"mg-3167509-souza-aguiar","name":"Souza Aguiar","municipality_id":"mg-3167509","polling_places":1,"approx":true,"official":false,"method":"voronoi-polling-places","whole_municipality":false,"approx_coords_only":false},"geometry":{"type":"MultiPolygon","coordinates":[[[[-43.28988,-22.01034],[-43.2342,-22.0142],[-43.2277,-22.0288],[-43.221,-21.9835],[-43.24717,-21.94161],[-43.2851,-22.00218],[-43.28988,-22.01034]]]]}}]}