{"type":"FeatureCollection","features":[{"type":"Feature","properties":{"territory_id":"mg-3167202-aeroporto-industrial","name":"Aeroporto Industrial","municipality_id":"mg-3167202","polling_places":1,"approx":true,"official":false,"method":"voronoi-polling-places","whole_municipality":false,"approx_coords_only":false},"geometry":{"type":"MultiPolygon","coordinates":[[[[-44.2366,-19.43677],[-44.23068,-19.44397],[-44.22666,-19.4415],[-44.2269,-19.43727],[-44.22774,-19.43425],[-44.2311,-19.43373],[-44.2366,-19.43677]]]]}},{"type":"Feature","properties":{"territory_id":"mg-3167202-alvorada","name":"Alvorada","municipality_id":"mg-3167202","polling_places":1,"approx":true,"official":false,"method":"voronoi-polling-places","whole_municipality":false,"approx_coords_only":false},"geometry":{"type":"MultiPolygon","coordinates":[[[[-44.29591,-19.40901],[-44.29268,-19.41875],[-44.25518,-19.42987],[-44.25277,-19.42989],[-44.24609,-19.4234],[-44.26909,-19.39139],[-44.2928,-19.39201],[-44.29591,-19.40901]]]]}},{"type":"Feature","properties":{"territory_id":"mg-3167202-barreiro-de-baixo","name":"Barreiro de Baixo","municipality_id":"mg-3167202","polling_places":1,"approx":true,"official":false,"method":"voronoi-polling-places","whole_municipality":false,"approx_coords_only":false},"geometry":{"type":"MultiPolygon","coordinates":[[[[-44.35224,-19.47246],[-44.34138,-19.48336],[-44.32404,-19.42119],[-44.34929,-19.42589],[-44.35224,-19.47246]]]]}},{"type":"Feature","properties":{"territory_id":"mg-3167202-barreiro-de-cima","name":"Barreiro de Cima","municipality_id":"mg-3167202","polling_places":1,"approx":true,"official":false,"method":"voronoi-polling-places","whole_municipality":false,"approx_coords_only":false},"geometry":{"type":"MultiPolygon","coordinates":[[[[-44.34138,-19.48336],[-44.3344,-19.49035],[-44.31897,-19.48466],[-44.29091,-19.44511],[-44.29038,-19.44127],[-44.29268,-19.41875],[-44.29591,-19.40901],[-44.32404,-19.42119],[-44.34138,-19.48336]]]]}},{"type":"Feature","properties":{"territory_id":"mg-3167202-belo-vale","name":"Belo Vale","municipality_id":"mg-3167202","polling_places":1,"approx":true,"official":false,"method":"voronoi-polling-places","whole_municipality":false,"approx_coords_only":false},"geometry":{"type":"MultiPolygon","coordinates":[[[[-44.23952,-19.40278],[-44.23869,-19.41765],[-44.23683,-19.41978],[-44.22755,-19.42099],[-44.22645,-19.42038],[-44.22605,-19.41605],[-44.23952,-19.40278]]]]}},{"type":"Feature","properties":{"territory_id":"mg-3167202-bernardo-valadares","name":"Bernardo Valadares","municipality_id":"mg-3167202","polling_places":1,"approx":true,"official":false,"method":"voronoi-polling-places","whole_municipality":false,"approx_coords_only":false},"geometry":{"type":"MultiPolygon","coordinates":[[[[-44.22965,-19.42456],[-44.2289,-19.4264],[-44.2235,-19.43033],[-44.22084,-19.42919],[-44.21875,-19.42744],[-44.22645,-19.42038],[-44.22755,-19.42099],[-44.22965,-19.42456]]]]}},{"type":"Feature","properties":{"territory_id":"mg-3167202-boa-vista","name":"Boa Vista","municipality_id":"mg-3167202","polling_places":4,"approx":true,"official":false,"method":"voronoi-polling-places","whole_municipality":false,"approx_coords_only":false},"geometry":{"type":"MultiPolygon","coordinates":[[[[-44.24791,-19.4512],[-44.2472,-19.45465],[-44.24506,-19.45767],[-44.24429,-19.45786],[-44.23848,-19.46329],[-44.23572,-19.46149],[-44.23616,-19.4558],[-44.22847,-19.45329],[-44.22952,-19.45082],[-44.23175,-19.44748],[-44.23846,-19.45109],[-44.23961,-19.45036],[-44.24199,-19.44388],[-44.24791,-19.4512]]]]}},{"type":"Feature","properties":{"territory_id":"mg-3167202-bom-jardim","name":"Bom Jardim","municipality_id":"mg-3167202","polling_places":1,"approx":true,"official":false,"method":"voronoi-polling-places","whole_municipality":false,"approx_coords_only":false},"geometry":{"type":"MultiPolygon","coordinates":[[[[-44.24199,-19.44388],[-44.23961,-19.45036],[-44.23846,-19.45109],[-44.23175,-19.44748],[-44.23182,-19.44629],[-44.24194,-19.44294],[-44.24199,-19.44388]]]]}},{"type":"Feature","properties":{"territory_id":"mg-3167202-bouganville-i","name":"Bouganville I","municipality_id":"mg-3167202","polling_places":1,"approx":true,"official":false,"method":"voronoi-polling-places","whole_municipality":false,"approx_coords_only":false},"geometry":{"type":"MultiPolygon","coordinates":[[[[-44.20187,-19.38773],[-44.19835,-19.39814],[-44.18382,-19.42352],[-44.18267,-19.42542],[-44.16291,-19.3411],[-44.20021,-19.36884],[-44.20187,-19.38773]]]]}},{"type":"Feature","properties":{"territory_id":"mg-3167202-canaan","name":"Canaan","municipality_id":"mg-3167202","polling_places":1,"approx":true,"official":false,"method":"voronoi-polling-places","whole_municipality":false,"approx_coords_only":false},"geometry":{"type":"MultiPolygon","coordinates":[[[[-44.27137,-19.4654],[-44.2713,-19.46563],[-44.26537,-19.47141],[-44.25145,-19.47372],[-44.2507,-19.47159],[-44.25263,-19.4663],[-44.25918,-19.46336],[-44.27137,-19.4654]]]]}},{"type":"Feature","properties":{"territory_id":"mg-3167202-canada","name":"Canadá","municipality_id":"mg-3167202","polling_places":1,"approx":true,"official":false,"method":"voronoi-polling-places","whole_municipality":false,"approx_coords_only":false},"geometry":{"type":"MultiPolygon","coordinates":[[[[-44.21739,-19.43959],[-44.21696,-19.44527],[-44.20854,-19.44668],[-44.20365,-19.43971],[-44.20948,-19.43622],[-44.21739,-19.43959]]]]}},{"type":"Feature","properties":{"territory_id":"mg-3167202-catarina","name":"Catarina","municipality_id":"mg-3167202","polling_places":1,"approx":true,"official":false,"method":"voronoi-polling-places","whole_municipality":false,"approx_coords_only":false},"geometry":{"type":"MultiPolygon","coordinates":[[[[-44.25145,-19.47372],[-44.25126,-19.47476],[-44.24569,-19.48023],[-44.24541,-19.47999],[-44.24137,-19.47438],[-44.24473,-19.47001],[-44.24541,-19.46992],[-44.2507,-19.47159],[-44.25145,-19.47372]]]]}},{"type":"Feature","properties":{"territory_id":"mg-3167202-cdi","name":"Cdi","municipality_id":"mg-3167202","polling_places":1,"approx":true,"official":false,"method":"voronoi-polling-places","whole_municipality":false,"approx_coords_only":false},"geometry":{"type":"MultiPolygon","coordinates":[[[[-44.24275,-19.42255],[-44.24067,-19.43026],[-44.23587,-19.42747],[-44.23582,-19.4223],[-44.23683,-19.41978],[-44.23869,-19.41765],[-44.24275,-19.42255]]]]}},{"type":"Feature","properties":{"territory_id":"mg-3167202-centro","name":"Centro","municipality_id":"mg-3167202","polling_places":5,"approx":true,"official":false,"method":"voronoi-polling-places","whole_municipality":false,"approx_coords_only":false},"geometry":{"type":"MultiPolygon","coordinates":[[[[-44.25263,-19.4663],[-44.2507,-19.47159],[-44.24541,-19.46992],[-44.24473,-19.47001],[-44.24006,-19.46574],[-44.23937,-19.46552],[-44.23848,-19.46329],[-44.24429,-19.45786],[-44.24506,-19.45767],[-44.24513,-19.45784],[-44.24964,-19.46334],[-44.24982,-19.46407],[-44.25263,-19.4663]]]]}},{"type":"Feature","properties":{"territory_id":"mg-3167202-chacara-do-paiva","name":"Chácara do Paiva","municipality_id":"mg-3167202","polling_places":1,"approx":true,"official":false,"method":"voronoi-polling-places","whole_municipality":false,"approx_coords_only":false},"geometry":{"type":"MultiPolygon","coordinates":[[[[-44.23937,-19.46552],[-44.23844,-19.46702],[-44.23066,-19.46964],[-44.22819,-19.46543],[-44.22834,-19.46332],[-44.23572,-19.46149],[-44.23848,-19.46329],[-44.23937,-19.46552]]]]}},{"type":"Feature","properties":{"territory_id":"mg-3167202-cidade-de-deus","name":"Cidade de Deus","municipality_id":"mg-3167202","polling_places":2,"approx":true,"official":false,"method":"voronoi-polling-places","whole_municipality":false,"approx_coords_only":false},"geometry":{"type":"MultiPolygon","coordinates":[[[[-44.19835,-19.39814],[-44.19568,-19.4157],[-44.19385,-19.43212],[-44.19079,-19.43716],[-44.18046,-19.44061],[-44.18267,-19.42542],[-44.18382,-19.42352],[-44.19835,-19.39814]]]]}},{"type":"Feature","properties":{"territory_id":"mg-3167202-dona-silvia","name":"Dona Silvia","municipality_id":"mg-3167202","polling_places":1,"approx":true,"official":false,"method":"voronoi-polling-places","whole_municipality":false,"approx_coords_only":false},"geometry":{"type":"MultiPolygon","coordinates":[[[[-44.18267,-19.42542],[-44.18046,-19.44061],[-44.17598,-19.44395],[-44.15783,-19.44914],[-44.1468,-19.4269],[-44.1281,-19.4325],[-44.1535,-19.3709],[-44.14991,-19.33027],[-44.16291,-19.3411],[-44.18267,-19.42542]]]]}},{"type":"Feature","properties":{"territory_id":"mg-3167202-eldorado","name":"Eldorado","municipality_id":"mg-3167202","polling_places":1,"approx":true,"official":false,"method":"voronoi-polling-places","whole_municipality":false,"approx_coords_only":false},"geometry":{"type":"MultiPolygon","coordinates":[[[[-44.31897,-19.48466],[-44.27832,-19.50322],[-44.2713,-19.46563],[-44.27137,-19.4654],[-44.29091,-19.44511],[-44.31897,-19.48466]]]]}},{"type":"Feature","properties":{"territory_id":"mg-3167202-emilia","name":"Emília","municipality_id":"mg-3167202","polling_places":1,"approx":true,"official":false,"method":"voronoi-polling-places","whole_municipality":false,"approx_coords_only":false},"geometry":{"type":"MultiPolygon","coordinates":[[[[-44.23182,-19.44629],[-44.23175,-19.44748],[-44.22952,-19.45082],[-44.22303,-19.44439],[-44.22375,-19.44306],[-44.22666,-19.4415],[-44.23068,-19.44397],[-44.23182,-19.44629]]]]}},{"type":"Feature","properties":{"territory_id":"mg-3167202-esperanca","name":"Esperança","municipality_id":"mg-3167202","polling_places":1,"approx":true,"official":false,"method":"voronoi-polling-places","whole_municipality":false,"approx_coords_only":false},"geometry":{"type":"MultiPolygon","coordinates":[[[[-44.2422,-19.44218],[-44.24194,-19.44294],[-44.23182,-19.44629],[-44.23068,-19.44397],[-44.2366,-19.43677],[-44.23873,-19.43687],[-44.2422,-19.44218]]]]}},{"type":"Feature","properties":{"territory_id":"mg-3167202-estiva","name":"Estiva","municipality_id":"mg-3167202","polling_places":1,"approx":true,"official":false,"method":"voronoi-polling-places","whole_municipality":false,"approx_coords_only":false},"geometry":{"type":"MultiPolygon","coordinates":[[[[-44.3006,-19.35],[-44.29978,-19.37754],[-44.2928,-19.39201],[-44.26909,-19.39139],[-44.24426,-19.38935],[-44.21072,-19.37121],[-44.26875,-19.33641],[-44.2729,-19.3397],[-44.3006,-19.35]]]]}},{"type":"Feature","properties":{"territory_id":"mg-3167202-fatima","name":"Fátima","municipality_id":"mg-3167202","polling_places":1,"approx":true,"official":false,"method":"voronoi-polling-places","whole_municipality":false,"approx_coords_only":false},"geometry":{"type":"MultiPolygon","coordinates":[[[[-44.23616,-19.4558],[-44.23572,-19.46149],[-44.22834,-19.46332],[-44.22378,-19.45663],[-44.22847,-19.45329],[-44.23616,-19.4558]]]]}},{"type":"Feature","properties":{"territory_id":"mg-3167202-fazenda-velha","name":"Fazenda Velha","municipality_id":"mg-3167202","polling_places":1,"approx":true,"official":false,"method":"voronoi-polling-places","whole_municipality":false,"approx_coords_only":false},"geometry":{"type":"MultiPolygon","coordinates":[[[[-44.28322,-19.56752],[-44.21764,-19.57725],[-44.20718,-19.53075],[-44.26074,-19.53875],[-44.28322,-19.56752]]]]}},{"type":"Feature","properties":{"territory_id":"mg-3167202-industrial","name":"Industrial","municipality_id":"mg-3167202","polling_places":2,"approx":true,"official":false,"method":"voronoi-polling-places","whole_municipality":false,"approx_coords_only":false},"geometry":{"type":"MultiPolygon","coordinates":[[[[-44.23148,-19.47682],[-44.23032,-19.47913],[-44.22848,-19.48163],[-44.22686,-19.49198],[-44.19434,-19.52722],[-44.18385,-19.52461],[-44.19976,-19.48449],[-44.21242,-19.47364],[-44.22468,-19.47746],[-44.22169,-19.46957],[-44.22819,-19.46543],[-44.23066,-19.46964],[-44.23148,-19.47682]]]]}},{"type":"Feature","properties":{"territory_id":"mg-3167202-industrias","name":"Indústrias","municipality_id":"mg-3167202","polling_places":1,"approx":true,"official":false,"method":"voronoi-polling-places","whole_municipality":false,"approx_coords_only":false},"geometry":{"type":"MultiPolygon","coordinates":[[[[-44.21577,-19.46811],[-44.21242,-19.47364],[-44.19976,-19.48449],[-44.19993,-19.4618],[-44.21064,-19.45704],[-44.21437,-19.45849],[-44.21577,-19.46811]]]]}},{"type":"Feature","properties":{"territory_id":"mg-3167202-interlagos","name":"Interlagos","municipality_id":"mg-3167202","polling_places":2,"approx":true,"official":false,"method":"voronoi-polling-places","whole_municipality":false,"approx_coords_only":false},"geometry":{"type":"MultiPolygon","coordinates":[[[[-44.22774,-19.43425],[-44.2269,-19.43727],[-44.22666,-19.4415],[-44.22375,-19.44306],[-44.21902,-19.43927],[-44.21984,-19.43782],[-44.22084,-19.42919],[-44.2235,-19.43033],[-44.22774,-19.43425]]]]}},{"type":"Feature","properties":{"territory_id":"mg-3167202-itapoa-ii","name":"Itapoã Ii","municipality_id":"mg-3167202","polling_places":1,"approx":true,"official":false,"method":"voronoi-polling-places","whole_municipality":false,"approx_coords_only":false},"geometry":{"type":"MultiPolygon","coordinates":[[[[-44.19993,-19.4618],[-44.19976,-19.48449],[-44.18385,-19.52461],[-44.1806,-19.5238],[-44.1698,-19.4733],[-44.15783,-19.44914],[-44.17598,-19.44395],[-44.19993,-19.4618]]]]}},{"type":"Feature","properties":{"territory_id":"mg-3167202-jardim-arizona","name":"Jardim Arizona","municipality_id":"mg-3167202","polling_places":1,"approx":true,"official":false,"method":"voronoi-polling-places","whole_municipality":false,"approx_coords_only":false},"geometry":{"type":"MultiPolygon","coordinates":[[[[-44.29091,-19.44511],[-44.27137,-19.4654],[-44.25918,-19.46336],[-44.25333,-19.45648],[-44.26043,-19.44714],[-44.29038,-19.44127],[-44.29091,-19.44511]]]]}},{"type":"Feature","properties":{"territory_id":"mg-3167202-jardim-cambui","name":"Jardim Cambui","municipality_id":"mg-3167202","polling_places":1,"approx":true,"official":false,"method":"voronoi-polling-places","whole_municipality":false,"approx_coords_only":false},"geometry":{"type":"MultiPolygon","coordinates":[[[[-44.26043,-19.44714],[-44.25333,-19.45648],[-44.25301,-19.45647],[-44.2472,-19.45465],[-44.24791,-19.4512],[-44.25008,-19.44896],[-44.25901,-19.44682],[-44.26043,-19.44714]]]]}},{"type":"Feature","properties":{"territory_id":"mg-3167202-jardim-dos-pequis","name":"Jardim dos Pequis","municipality_id":"mg-3167202","polling_places":1,"approx":true,"official":false,"method":"voronoi-polling-places","whole_municipality":false,"approx_coords_only":false},"geometry":{"type":"MultiPolygon","coordinates":[[[[-44.24426,-19.38935],[-44.23952,-19.40278],[-44.22605,-19.41605],[-44.21044,-19.41253],[-44.20187,-19.38773],[-44.20021,-19.36884],[-44.21072,-19.37121],[-44.24426,-19.38935]]]]}},{"type":"Feature","properties":{"territory_id":"mg-3167202-jardim-europa","name":"Jardim Europa","municipality_id":"mg-3167202","polling_places":1,"approx":true,"official":false,"method":"voronoi-polling-places","whole_municipality":false,"approx_coords_only":false},"geometry":{"type":"MultiPolygon","coordinates":[[[[-44.24137,-19.43183],[-44.23873,-19.43687],[-44.2366,-19.43677],[-44.2311,-19.43373],[-44.23284,-19.42949],[-44.23348,-19.42881],[-44.23587,-19.42747],[-44.24067,-19.43026],[-44.24137,-19.43183]]]]}},{"type":"Feature","properties":{"territory_id":"mg-3167202-jardim-primavera-ii","name":"Jardim Primavera Ii","municipality_id":"mg-3167202","polling_places":1,"approx":true,"official":false,"method":"voronoi-polling-places","whole_municipality":false,"approx_coords_only":false},"geometry":{"type":"MultiPolygon","coordinates":[[[[-44.21614,-19.42681],[-44.20948,-19.43622],[-44.20365,-19.43971],[-44.19079,-19.43716],[-44.19385,-19.43212],[-44.21054,-19.41741],[-44.21614,-19.42681]]]]}},{"type":"Feature","properties":{"territory_id":"mg-3167202-jk","name":"Jk","municipality_id":"mg-3167202","polling_places":2,"approx":true,"official":false,"method":"voronoi-polling-places","whole_municipality":false,"approx_coords_only":false},"geometry":{"type":"MultiPolygon","coordinates":[[[[-44.26909,-19.39139],[-44.24609,-19.4234],[-44.25277,-19.42989],[-44.25028,-19.43112],[-44.24137,-19.43183],[-44.24067,-19.43026],[-44.24275,-19.42255],[-44.23869,-19.41765],[-44.23952,-19.40278],[-44.24426,-19.38935],[-44.26909,-19.39139]]]]}},{"type":"Feature","properties":{"territory_id":"mg-3167202-lontra","name":"Lontra","municipality_id":"mg-3167202","polling_places":1,"approx":true,"official":false,"method":"voronoi-polling-places","whole_municipality":false,"approx_coords_only":false},"geometry":{"type":"MultiPolygon","coordinates":[[[[-44.4599,-19.4087],[-44.40464,-19.44081],[-44.38765,-19.40563],[-44.4015,-19.4134],[-44.4252,-19.4011],[-44.4599,-19.4087]]]]}},{"type":"Feature","properties":{"territory_id":"mg-3167202-lontrinha","name":"Lontrinha","municipality_id":"mg-3167202","polling_places":1,"approx":true,"official":false,"method":"voronoi-polling-places","whole_municipality":false,"approx_coords_only":false},"geometry":{"type":"MultiPolygon","coordinates":[[[[-44.38658,-19.40503],[-44.34929,-19.42589],[-44.32404,-19.42119],[-44.29591,-19.40901],[-44.2928,-19.39201],[-44.29978,-19.37754],[-44.299,-19.4035],[-44.3521,-19.3857],[-44.38658,-19.40503]]]]}},{"type":"Feature","properties":{"territory_id":"mg-3167202-luxemburgo","name":"Luxemburgo","municipality_id":"mg-3167202","polling_places":1,"approx":true,"official":false,"method":"voronoi-polling-places","whole_municipality":false,"approx_coords_only":false},"geometry":{"type":"MultiPolygon","coordinates":[[[[-44.22084,-19.42919],[-44.21984,-19.43782],[-44.21902,-19.43927],[-44.21739,-19.43959],[-44.20948,-19.43622],[-44.21614,-19.42681],[-44.21875,-19.42744],[-44.22084,-19.42919]]]]}},{"type":"Feature","properties":{"territory_id":"mg-3167202-manoa","name":"Manoa","municipality_id":"mg-3167202","polling_places":1,"approx":true,"official":false,"method":"voronoi-polling-places","whole_municipality":false,"approx_coords_only":false},"geometry":{"type":"MultiPolygon","coordinates":[[[[-44.25028,-19.43112],[-44.2455,-19.44151],[-44.2422,-19.44218],[-44.23873,-19.43687],[-44.24137,-19.43183],[-44.25028,-19.43112]]]]}},{"type":"Feature","properties":{"territory_id":"mg-3167202-montreal","name":"Montreal","municipality_id":"mg-3167202","polling_places":2,"approx":true,"official":false,"method":"voronoi-polling-places","whole_municipality":false,"approx_coords_only":false},"geometry":{"type":"MultiPolygon","coordinates":[[[[-44.22375,-19.44306],[-44.22303,-19.44439],[-44.22072,-19.44708],[-44.22136,-19.45613],[-44.21437,-19.45849],[-44.21064,-19.45704],[-44.20854,-19.44668],[-44.21696,-19.44527],[-44.21739,-19.43959],[-44.21902,-19.43927],[-44.22375,-19.44306]]]]}},{"type":"Feature","properties":{"territory_id":"mg-3167202-morro-do-claro","name":"Morro do Claro","municipality_id":"mg-3167202","polling_places":1,"approx":true,"official":false,"method":"voronoi-polling-places","whole_municipality":false,"approx_coords_only":false},"geometry":{"type":"MultiPolygon","coordinates":[[[[-44.22468,-19.47746],[-44.21242,-19.47364],[-44.21577,-19.46811],[-44.22169,-19.46957],[-44.22468,-19.47746]]]]}},{"type":"Feature","properties":{"territory_id":"mg-3167202-morro-redondo","name":"Morro Redondo","municipality_id":"mg-3167202","polling_places":1,"approx":true,"official":false,"method":"voronoi-polling-places","whole_municipality":false,"approx_coords_only":false},"geometry":{"type":"MultiPolygon","coordinates":[[[[-44.3344,-19.49035],[-44.3134,-19.5114],[-44.3066,-19.5673],[-44.315,-19.592],[-44.30375,-19.58974],[-44.28322,-19.56752],[-44.26074,-19.53875],[-44.26953,-19.51102],[-44.27832,-19.50322],[-44.31897,-19.48466],[-44.3344,-19.49035]]]]}},{"type":"Feature","properties":{"territory_id":"mg-3167202-nossa-senhora-das-gracas","name":"Nossa Senhora das Graças","municipality_id":"mg-3167202","polling_places":1,"approx":true,"official":false,"method":"voronoi-polling-places","whole_municipality":false,"approx_coords_only":false},"geometry":{"type":"MultiPolygon","coordinates":[[[[-44.25008,-19.44896],[-44.24791,-19.4512],[-44.24199,-19.44388],[-44.24194,-19.44294],[-44.2422,-19.44218],[-44.2455,-19.44151],[-44.24791,-19.4422],[-44.25008,-19.44896]]]]}},{"type":"Feature","properties":{"territory_id":"mg-3167202-nossa-senhora-do-carmo","name":"Nossa Senhora do Carmo","municipality_id":"mg-3167202","polling_places":3,"approx":true,"official":false,"method":"voronoi-polling-places","whole_municipality":false,"approx_coords_only":false},"geometry":{"type":"MultiPolygon","coordinates":[[[[-44.29268,-19.41875],[-44.29038,-19.44127],[-44.26043,-19.44714],[-44.25901,-19.44682],[-44.25008,-19.44896],[-44.24791,-19.4422],[-44.2455,-19.44151],[-44.25028,-19.43112],[-44.25277,-19.42989],[-44.25518,-19.42987],[-44.29268,-19.41875]]]]}},{"type":"Feature","properties":{"territory_id":"mg-3167202-nova-cidade","name":"Nova Cidade","municipality_id":"mg-3167202","polling_places":3,"approx":true,"official":false,"method":"voronoi-polling-places","whole_municipality":false,"approx_coords_only":false},"geometry":{"type":"MultiPolygon","coordinates":[[[[-44.23587,-19.42747],[-44.23348,-19.42881],[-44.23284,-19.42949],[-44.2311,-19.43373],[-44.22774,-19.43425],[-44.2235,-19.43033],[-44.2289,-19.4264],[-44.22965,-19.42456],[-44.23106,-19.42461],[-44.23582,-19.4223],[-44.23587,-19.42747]]]]}},{"type":"Feature","properties":{"territory_id":"mg-3167202-novo-horizonte","name":"Novo Horizonte","municipality_id":"mg-3167202","polling_places":1,"approx":true,"official":false,"method":"voronoi-polling-places","whole_municipality":false,"approx_coords_only":false},"geometry":{"type":"MultiPolygon","coordinates":[[[[-44.24541,-19.47999],[-44.23032,-19.47913],[-44.23148,-19.47682],[-44.23837,-19.47377],[-44.24137,-19.47438],[-44.24541,-19.47999]]]]}},{"type":"Feature","properties":{"territory_id":"mg-3167202-olinto-alvim","name":"Olinto Alvim","municipality_id":"mg-3167202","polling_places":1,"approx":true,"official":false,"method":"voronoi-polling-places","whole_municipality":false,"approx_coords_only":false},"geometry":{"type":"MultiPolygon","coordinates":[[[[-44.22952,-19.45082],[-44.22847,-19.45329],[-44.22378,-19.45663],[-44.22136,-19.45613],[-44.22072,-19.44708],[-44.22303,-19.44439],[-44.22952,-19.45082]]]]}},{"type":"Feature","properties":{"territory_id":"mg-3167202-orozimbo-macedo","name":"Orozimbo Macedo","municipality_id":"mg-3167202","polling_places":1,"approx":true,"official":false,"method":"voronoi-polling-places","whole_municipality":false,"approx_coords_only":false},"geometry":{"type":"MultiPolygon","coordinates":[[[[-44.23683,-19.41978],[-44.23582,-19.4223],[-44.23106,-19.42461],[-44.22965,-19.42456],[-44.22755,-19.42099],[-44.23683,-19.41978]]]]}},{"type":"Feature","properties":{"territory_id":"mg-3167202-padre-teodoro","name":"Padre Teodoro","municipality_id":"mg-3167202","polling_places":1,"approx":true,"official":false,"method":"voronoi-polling-places","whole_municipality":false,"approx_coords_only":false},"geometry":{"type":"MultiPolygon","coordinates":[[[[-44.26953,-19.51102],[-44.26074,-19.53875],[-44.20718,-19.53075],[-44.2071,-19.5304],[-44.19434,-19.52722],[-44.22686,-19.49198],[-44.24617,-19.48946],[-44.25906,-19.4968],[-44.26953,-19.51102]]]]}},{"type":"Feature","properties":{"territory_id":"mg-3167202-quintas-da-varginha","name":"Quintas da Varginha","municipality_id":"mg-3167202","polling_places":1,"approx":true,"official":false,"method":"voronoi-polling-places","whole_municipality":false,"approx_coords_only":false},"geometry":{"type":"MultiPolygon","coordinates":[[[[-44.30375,-19.58974],[-44.2429,-19.5775],[-44.2226,-19.5993],[-44.21764,-19.57725],[-44.28322,-19.56752],[-44.30375,-19.58974]]]]}},{"type":"Feature","properties":{"territory_id":"mg-3167202-riacho-do-campo","name":"Riacho do Campo","municipality_id":"mg-3167202","polling_places":1,"approx":true,"official":false,"method":"voronoi-polling-places","whole_municipality":false,"approx_coords_only":false},"geometry":{"type":"MultiPolygon","coordinates":[[[[-44.40464,-19.44081],[-44.3551,-19.4696],[-44.35224,-19.47246],[-44.34929,-19.42589],[-44.38658,-19.40503],[-44.38765,-19.40563],[-44.40464,-19.44081]]]]}},{"type":"Feature","properties":{"territory_id":"mg-3167202-santa-felicidade","name":"Santa Felicidade","municipality_id":"mg-3167202","polling_places":1,"approx":true,"official":false,"method":"voronoi-polling-places","whole_municipality":false,"approx_coords_only":false},"geometry":{"type":"MultiPolygon","coordinates":[[[[-44.21054,-19.41741],[-44.19385,-19.43212],[-44.19568,-19.4157],[-44.19835,-19.39814],[-44.20187,-19.38773],[-44.21044,-19.41253],[-44.21054,-19.41741]]]]}},{"type":"Feature","properties":{"territory_id":"mg-3167202-santa-luzia","name":"Santa Luzia","municipality_id":"mg-3167202","polling_places":2,"approx":true,"official":false,"method":"voronoi-polling-places","whole_municipality":false,"approx_coords_only":false},"geometry":{"type":"MultiPolygon","coordinates":[[[[-44.25918,-19.46336],[-44.25263,-19.4663],[-44.24982,-19.46407],[-44.24964,-19.46334],[-44.24513,-19.45784],[-44.24506,-19.45767],[-44.2472,-19.45465],[-44.25301,-19.45647],[-44.25333,-19.45648],[-44.25918,-19.46336]]]]}},{"type":"Feature","properties":{"territory_id":"mg-3167202-santa-rosa","name":"Santa Rosa","municipality_id":"mg-3167202","polling_places":1,"approx":true,"official":false,"method":"voronoi-polling-places","whole_municipality":false,"approx_coords_only":false},"geometry":{"type":"MultiPolygon","coordinates":[[[[-44.27832,-19.50322],[-44.26953,-19.51102],[-44.25906,-19.4968],[-44.25937,-19.48296],[-44.26537,-19.47141],[-44.2713,-19.46563],[-44.27832,-19.50322]]]]}},{"type":"Feature","properties":{"territory_id":"mg-3167202-santo-antonio","name":"Santo Antônio","municipality_id":"mg-3167202","polling_places":1,"approx":true,"official":false,"method":"voronoi-polling-places","whole_municipality":false,"approx_coords_only":false},"geometry":{"type":"MultiPolygon","coordinates":[[[[-44.26537,-19.47141],[-44.25937,-19.48296],[-44.25126,-19.47476],[-44.25145,-19.47372],[-44.26537,-19.47141]]]]}},{"type":"Feature","properties":{"territory_id":"mg-3167202-sao-geraldo","name":"São Geraldo","municipality_id":"mg-3167202","polling_places":2,"approx":true,"official":false,"method":"voronoi-polling-places","whole_municipality":false,"approx_coords_only":false},"geometry":{"type":"MultiPolygon","coordinates":[[[[-44.24473,-19.47001],[-44.24137,-19.47438],[-44.23837,-19.47377],[-44.23148,-19.47682],[-44.23066,-19.46964],[-44.23844,-19.46702],[-44.23937,-19.46552],[-44.24006,-19.46574],[-44.24473,-19.47001]]]]}},{"type":"Feature","properties":{"territory_id":"mg-3167202-silva-xavier","name":"Silva Xavier","municipality_id":"mg-3167202","polling_places":1,"approx":true,"official":false,"method":"voronoi-polling-places","whole_municipality":false,"approx_coords_only":false},"geometry":{"type":"MultiPolygon","coordinates":[[[[-44.26875,-19.33641],[-44.21072,-19.37121],[-44.20021,-19.36884],[-44.16291,-19.3411],[-44.14991,-19.33027],[-44.1475,-19.303],[-44.1604,-19.2927],[-44.2314,-19.3068],[-44.26875,-19.33641]]]]}},{"type":"Feature","properties":{"territory_id":"mg-3167202-tamandua","name":"Tamanduá","municipality_id":"mg-3167202","polling_places":1,"approx":true,"official":false,"method":"voronoi-polling-places","whole_municipality":false,"approx_coords_only":false},"geometry":{"type":"MultiPolygon","coordinates":[[[[-44.21064,-19.45704],[-44.19993,-19.4618],[-44.17598,-19.44395],[-44.18046,-19.44061],[-44.19079,-19.43716],[-44.20365,-19.43971],[-44.20854,-19.44668],[-44.21064,-19.45704]]]]}},{"type":"Feature","properties":{"territory_id":"mg-3167202-vale-das-palmeiras","name":"Vale das Palmeiras","municipality_id":"mg-3167202","polling_places":1,"approx":true,"official":false,"method":"voronoi-polling-places","whole_municipality":false,"approx_coords_only":false},"geometry":{"type":"MultiPolygon","coordinates":[[[[-44.25937,-19.48296],[-44.25906,-19.4968],[-44.24617,-19.48946],[-44.24569,-19.48023],[-44.25126,-19.47476],[-44.25937,-19.48296]]]]}},{"type":"Feature","properties":{"territory_id":"mg-3167202-vapabucu","name":"Vapabuçu","municipality_id":"mg-3167202","polling_places":1,"approx":true,"official":false,"method":"voronoi-polling-places","whole_municipality":false,"approx_coords_only":false},"geometry":{"type":"MultiPolygon","coordinates":[[[[-44.22834,-19.46332],[-44.22819,-19.46543],[-44.22169,-19.46957],[-44.21577,-19.46811],[-44.21437,-19.45849],[-44.22136,-19.45613],[-44.22378,-19.45663],[-44.22834,-19.46332]]]]}},{"type":"Feature","properties":{"territory_id":"mg-3167202-varzea","name":"Várzea","municipality_id":"mg-3167202","polling_places":1,"approx":true,"official":false,"method":"voronoi-polling-places","whole_municipality":false,"approx_coords_only":false},"geometry":{"type":"MultiPolygon","coordinates":[[[[-44.24617,-19.48946],[-44.22686,-19.49198],[-44.22848,-19.48163],[-44.23032,-19.47913],[-44.24541,-19.47999],[-44.24569,-19.48023],[-44.24617,-19.48946]]]]}},{"type":"Feature","properties":{"territory_id":"mg-3167202-verde-vale","name":"Verde Vale","municipality_id":"mg-3167202","polling_places":1,"approx":true,"official":false,"method":"voronoi-polling-places","whole_municipality":false,"approx_coords_only":false},"geometry":{"type":"MultiPolygon","coordinates":[[[[-44.22645,-19.42038],[-44.21875,-19.42744],[-44.21614,-19.42681],[-44.21054,-19.41741],[-44.21044,-19.41253],[-44.22605,-19.41605],[-44.22645,-19.42038]]]]}}]}