{"type":"FeatureCollection","features":[{"type":"Feature","properties":{"territory_id":"mg-3167400-centro","name":"Centro","municipality_id":"mg-3167400","polling_places":3,"approx":true,"official":false,"method":"voronoi-polling-places","whole_municipality":true,"approx_coords_only":false},"geometry":{"type":"MultiPolygon","coordinates":[[[[-45.9036,-22.1105],[-45.8171,-22.1156],[-45.8076,-22.0988],[-45.7428,-22.1034],[-45.7314,-22.0801],[-45.6776,-22.0332],[-45.7168,-21.9941],[-45.7308,-21.955],[-45.849,-21.9647],[-45.9007,-21.998],[-45.9062,-22.0224],[-45.9041,-22.0483],[-45.9285,-22.0873],[-45.9036,-22.1105]]]]}}]}