{"type":"FeatureCollection","features":[{"type":"Feature","properties":{"territory_id":"mg-3167905-centro","name":"Centro","municipality_id":"mg-3167905","polling_places":2,"approx":true,"official":false,"method":"voronoi-polling-places","whole_municipality":false,"approx_coords_only":false},"geometry":{"type":"MultiPolygon","coordinates":[[[[-43.25551,-21.32467],[-43.24972,-21.35682],[-43.24112,-21.41824],[-43.1942,-21.4288],[-43.1597,-21.4208],[-43.1586,-21.3912],[-43.1833,-21.3515],[-43.2085,-21.318],[-43.2362,-21.334],[-43.25551,-21.32467]]]]}},{"type":"Feature","properties":{"territory_id":"mg-3167905-zona-rural","name":"Zona Rural","municipality_id":"mg-3167905","polling_places":2,"approx":true,"official":false,"method":"voronoi-polling-places","whole_municipality":false,"approx_coords_only":false},"geometry":{"type":"MultiPolygon","coordinates":[[[[-43.3527,-21.358],[-43.3086,-21.3918],[-43.3006,-21.4323],[-43.2615,-21.4393],[-43.2471,-21.4169],[-43.24112,-21.41824],[-43.24972,-21.35682],[-43.25551,-21.32467],[-43.272,-21.3167],[-43.2684,-21.2784],[-43.3242,-21.2965],[-43.3527,-21.358]]]]}}]}