{"type":"FeatureCollection","features":[{"type":"Feature","properties":{"territory_id":"mg-3167004-centro","name":"Centro","municipality_id":"mg-3167004","polling_places":1,"approx":true,"official":false,"method":"voronoi-polling-places","whole_municipality":true,"approx_coords_only":false},"geometry":{"type":"MultiPolygon","coordinates":[[[[-44.6458,-21.7741],[-44.6263,-21.8117],[-44.5817,-21.8364],[-44.6004,-21.8684],[-44.5578,-21.9044],[-44.5015,-21.906],[-44.4407,-21.873],[-44.4563,-21.7961],[-44.4924,-21.7898],[-44.5723,-21.7727],[-44.5813,-21.7514],[-44.6134,-21.7507],[-44.6458,-21.7741]]]]}}]}