{"type":"FeatureCollection","features":[{"type":"Feature","properties":{"territory_id":"mg-3167103-bela-vista","name":"Bela Vista","municipality_id":"mg-3167103","polling_places":1,"approx":true,"official":false,"method":"voronoi-polling-places","whole_municipality":false,"approx_coords_only":false},"geometry":{"type":"MultiPolygon","coordinates":[[[[-43.6086,-18.519],[-43.5987,-18.533],[-43.56602,-18.57319],[-43.53475,-18.51881],[-43.53863,-18.50169],[-43.57818,-18.45554],[-43.6086,-18.519]]]]}},{"type":"Feature","properties":{"territory_id":"mg-3167103-capivari","name":"Capivari","municipality_id":"mg-3167103","polling_places":1,"approx":true,"official":false,"method":"voronoi-polling-places","whole_municipality":false,"approx_coords_only":false},"geometry":{"type":"MultiPolygon","coordinates":[[[[-43.4617,-18.44563],[-43.44614,-18.48337],[-43.40947,-18.51623],[-43.3677,-18.50941],[-43.3639,-18.4825],[-43.3817,-18.4466],[-43.3364,-18.394],[-43.2636,-18.3061],[-43.2628,-18.3034],[-43.2755,-18.2799],[-43.3057,-18.2808],[-43.3244,-18.3231],[-43.4022,-18.2935],[-43.42554,-18.29872],[-43.4617,-18.44563]]]]}},{"type":"Feature","properties":{"territory_id":"mg-3167103-centro","name":"Centro","municipality_id":"mg-3167103","polling_places":7,"approx":true,"official":false,"method":"voronoi-polling-places","whole_municipality":false,"approx_coords_only":false},"geometry":{"type":"MultiPolygon","coordinates":[[[[-43.46936,-18.61391],[-43.43785,-18.6375],[-43.3928,-18.65931],[-43.3881,-18.66254],[-43.35869,-18.68492],[-43.3364,-18.6718],[-43.2941,-18.689],[-43.2291,-18.7421],[-43.205,-18.7172],[-43.2152,-18.6611],[-43.2057,-18.6228],[-43.2152,-18.5977],[-43.1986,-18.5682],[-43.2469,-18.5289],[-43.2756,-18.5215],[-43.34463,-18.52508],[-43.38584,-18.59904],[-43.46547,-18.60074],[-43.46936,-18.61391]],[[-43.37955,-18.60293],[-43.37593,-18.60325],[-43.37716,-18.60477],[-43.37907,-18.60395],[-43.37955,-18.60293]]]]}},{"type":"Feature","properties":{"territory_id":"mg-3167103-deputado-augusto-clementino","name":"Deputado Augusto Clementino","municipality_id":"mg-3167103","polling_places":1,"approx":true,"official":false,"method":"voronoi-polling-places","whole_municipality":false,"approx_coords_only":false},"geometry":{"type":"MultiPolygon","coordinates":[[[[-43.4566,-18.75217],[-43.4256,-18.7569],[-43.3765,-18.6954],[-43.35869,-18.68492],[-43.3881,-18.66254],[-43.3928,-18.65931],[-43.43785,-18.6375],[-43.4566,-18.75217]]]]}},{"type":"Feature","properties":{"territory_id":"mg-3167103-distrito-de-milho-verde","name":"Distrito de Milho Verde","municipality_id":"mg-3167103","polling_places":1,"approx":true,"official":false,"method":"voronoi-polling-places","whole_municipality":false,"approx_coords_only":false},"geometry":{"type":"MultiPolygon","coordinates":[[[[-43.57818,-18.45554],[-43.53863,-18.50169],[-43.44614,-18.48337],[-43.4617,-18.44563],[-43.56835,-18.43902],[-43.5704,-18.4393],[-43.57818,-18.45554]]]]}},{"type":"Feature","properties":{"territory_id":"mg-3167103-distrito-de-tres-barras","name":"Distrito de Tres Barras","municipality_id":"mg-3167103","polling_places":1,"approx":true,"official":false,"method":"voronoi-polling-places","whole_municipality":false,"approx_coords_only":true},"geometry":{"type":"MultiPolygon","coordinates":[[[[-43.53863,-18.50169],[-43.53475,-18.51881],[-43.46061,-18.57972],[-43.40947,-18.51623],[-43.44614,-18.48337],[-43.53863,-18.50169]]]]}},{"type":"Feature","properties":{"territory_id":"mg-3167103-logradouro","name":"Logradouro","municipality_id":"mg-3167103","polling_places":1,"approx":true,"official":false,"method":"voronoi-polling-places","whole_municipality":false,"approx_coords_only":false},"geometry":{"type":"MultiPolygon","coordinates":[[[[-43.46547,-18.60074],[-43.38584,-18.59904],[-43.34463,-18.52508],[-43.3701,-18.5264],[-43.3677,-18.50941],[-43.40947,-18.51623],[-43.46061,-18.57972],[-43.46547,-18.60074]]]]}},{"type":"Feature","properties":{"territory_id":"mg-3167103-pedro-lessa","name":"Pedro Lessa","municipality_id":"mg-3167103","polling_places":1,"approx":true,"official":false,"method":"voronoi-polling-places","whole_municipality":false,"approx_coords_only":false},"geometry":{"type":"MultiPolygon","coordinates":[[[[-43.56602,-18.57319],[-43.5521,-18.5903],[-43.5225,-18.5987],[-43.5072,-18.6338],[-43.50738,-18.63506],[-43.46936,-18.61391],[-43.46547,-18.60074],[-43.46061,-18.57972],[-43.53475,-18.51881],[-43.56602,-18.57319]]]]}},{"type":"Feature","properties":{"territory_id":"mg-3167103-povoado-de-pedra-redonda","name":"Povoado de Pedra Redonda","municipality_id":"mg-3167103","polling_places":1,"approx":true,"official":false,"method":"voronoi-polling-places","whole_municipality":false,"approx_coords_only":false},"geometry":{"type":"MultiPolygon","coordinates":[[[[-43.5112,-18.6622],[-43.4914,-18.7182],[-43.4938,-18.7465],[-43.4566,-18.75217],[-43.43785,-18.6375],[-43.46936,-18.61391],[-43.50738,-18.63506],[-43.5112,-18.6622]]]]}},{"type":"Feature","properties":{"territory_id":"mg-3167103-sao-goncalo-do-rio-das-pedras","name":"Sao Goncalo do Rio das Pedras","municipality_id":"mg-3167103","polling_places":1,"approx":true,"official":false,"method":"voronoi-polling-places","whole_municipality":false,"approx_coords_only":false},"geometry":{"type":"MultiPolygon","coordinates":[[[[-43.56835,-18.43902],[-43.4617,-18.44563],[-43.42554,-18.29872],[-43.4585,-18.3061],[-43.4555,-18.3261],[-43.5304,-18.4339],[-43.56835,-18.43902]]]]}},{"type":"Feature","properties":{"territory_id":"mg-3167103-zona-rural","name":"Zona Rural","municipality_id":"mg-3167103","polling_places":2,"approx":true,"official":false,"method":"voronoi-polling-places","whole_municipality":false,"approx_coords_only":false},"geometry":{"type":"MultiPolygon","coordinates":[[[[-43.37955,-18.60293],[-43.37907,-18.60395],[-43.37716,-18.60477],[-43.37593,-18.60325],[-43.37955,-18.60293]]]]}}]}