{"type":"FeatureCollection","features":[{"type":"Feature","properties":{"territory_id":"mg-3167707-centro","name":"Centro","municipality_id":"mg-3167707","polling_places":6,"approx":true,"official":false,"method":"voronoi-polling-places","whole_municipality":false,"approx_coords_only":false},"geometry":{"type":"MultiPolygon","coordinates":[[[[-42.18782,-19.23981],[-42.1801,-19.2635],[-42.1527,-19.3255],[-42.1195,-19.3161],[-42.0882,-19.2748],[-42.0867,-19.2442],[-42.0736,-19.2056],[-42.1154,-19.1898],[-42.11842,-19.17764],[-42.18782,-19.23981]]]]}},{"type":"Feature","properties":{"territory_id":"mg-3167707-plautino-soares","name":"Plautino Soares","municipality_id":"mg-3167707","polling_places":1,"approx":true,"official":false,"method":"voronoi-polling-places","whole_municipality":false,"approx_coords_only":false},"geometry":{"type":"MultiPolygon","coordinates":[[[[-42.2324,-19.156],[-42.2105,-19.1702],[-42.18782,-19.23981],[-42.11842,-19.17764],[-42.1296,-19.1326],[-42.1778,-19.1208],[-42.2324,-19.156]]]]}}]}