{"type":"FeatureCollection","features":[{"type":"Feature","properties":{"territory_id":"mg-3168002-bom-jardim","name":"Bom Jardim","municipality_id":"mg-3168002","polling_places":1,"approx":true,"official":false,"method":"voronoi-polling-places","whole_municipality":false,"approx_coords_only":false},"geometry":{"type":"MultiPolygon","coordinates":[[[[-42.23188,-15.76973],[-42.22977,-15.80099],[-42.22766,-15.80465],[-42.21128,-15.80837],[-42.19924,-15.80708],[-42.16689,-15.72617],[-42.16688,-15.72616],[-42.1932,-15.7463],[-42.23188,-15.76973]]]]}},{"type":"Feature","properties":{"territory_id":"mg-3168002-centro","name":"Centro","municipality_id":"mg-3168002","polling_places":2,"approx":true,"official":false,"method":"voronoi-polling-places","whole_municipality":false,"approx_coords_only":false},"geometry":{"type":"MultiPolygon","coordinates":[[[[-42.3276,-15.8493],[-42.2905,-15.8584],[-42.28942,-15.86116],[-42.28111,-15.85495],[-42.22686,-15.81789],[-42.22999,-15.81194],[-42.22936,-15.8105],[-42.22957,-15.80958],[-42.23885,-15.80784],[-42.27367,-15.81734],[-42.2741,-15.8182],[-42.3276,-15.8493]]]]}},{"type":"Feature","properties":{"territory_id":"mg-3168002-nossa-senhora-de-fatima","name":"Nossa Senhora de Fatima","municipality_id":"mg-3168002","polling_places":1,"approx":true,"official":false,"method":"voronoi-polling-places","whole_municipality":false,"approx_coords_only":false},"geometry":{"type":"MultiPolygon","coordinates":[[[[-42.28942,-15.86116],[-42.28054,-15.88391],[-42.19975,-15.86941],[-42.20077,-15.84444],[-42.22561,-15.81767],[-42.22686,-15.81789],[-42.28111,-15.85495],[-42.28942,-15.86116]]]]}},{"type":"Feature","properties":{"territory_id":"mg-3168002-planalto","name":"Planalto","municipality_id":"mg-3168002","polling_places":1,"approx":true,"official":false,"method":"voronoi-polling-places","whole_municipality":false,"approx_coords_only":false},"geometry":{"type":"MultiPolygon","coordinates":[[[[-42.27367,-15.81734],[-42.23885,-15.80784],[-42.22977,-15.80099],[-42.23188,-15.76973],[-42.2576,-15.7853],[-42.27367,-15.81734]]]]}},{"type":"Feature","properties":{"territory_id":"mg-3168002-povoado-lagoa-grande","name":"Povoado Lagoa Grande","municipality_id":"mg-3168002","polling_places":1,"approx":true,"official":false,"method":"voronoi-polling-places","whole_municipality":false,"approx_coords_only":false},"geometry":{"type":"MultiPolygon","coordinates":[[[[-42.16689,-15.72617],[-42.16379,-15.87974],[-42.10954,-15.9085],[-42.1036,-15.9059],[-42.09998,-15.91229],[-42.04577,-15.68431],[-42.04913,-15.67277],[-42.0598,-15.6758],[-42.1084,-15.6808],[-42.1227,-15.7276],[-42.157,-15.7186],[-42.16688,-15.72616],[-42.16689,-15.72617]]]]}},{"type":"Feature","properties":{"territory_id":"mg-3168002-sagrada-familia","name":"Sagrada Familia","municipality_id":"mg-3168002","polling_places":1,"approx":true,"official":false,"method":"voronoi-polling-places","whole_municipality":false,"approx_coords_only":false},"geometry":{"type":"MultiPolygon","coordinates":[[[[-42.22999,-15.81194],[-42.22686,-15.81789],[-42.22561,-15.81767],[-42.22247,-15.81319],[-42.22936,-15.8105],[-42.22999,-15.81194]]]]}},{"type":"Feature","properties":{"territory_id":"mg-3168002-santos-cruzeiros","name":"Santos Cruzeiros","municipality_id":"mg-3168002","polling_places":1,"approx":true,"official":false,"method":"voronoi-polling-places","whole_municipality":false,"approx_coords_only":false},"geometry":{"type":"MultiPolygon","coordinates":[[[[-42.22561,-15.81767],[-42.20077,-15.84444],[-42.19924,-15.80708],[-42.21128,-15.80837],[-42.22247,-15.81319],[-42.22561,-15.81767]]]]}},{"type":"Feature","properties":{"territory_id":"mg-3168002-sede","name":"Sede","municipality_id":"mg-3168002","polling_places":1,"approx":true,"official":false,"method":"voronoi-polling-places","whole_municipality":false,"approx_coords_only":false},"geometry":{"type":"MultiPolygon","coordinates":[[[[-42.02678,-15.98446],[-42.0032,-15.994],[-41.9362,-15.9958],[-41.9083,-16.0163],[-41.917,-15.9064],[-41.9059,-15.8752],[-41.87176,-15.84274],[-41.96816,-15.77311],[-42.02678,-15.98446]]]]}},{"type":"Feature","properties":{"territory_id":"mg-3168002-umbuzeiro","name":"Umbuzeiro","municipality_id":"mg-3168002","polling_places":1,"approx":true,"official":false,"method":"voronoi-polling-places","whole_municipality":false,"approx_coords_only":false},"geometry":{"type":"MultiPolygon","coordinates":[[[[-42.04913,-15.67277],[-42.04577,-15.68431],[-41.96816,-15.77311],[-41.87176,-15.84274],[-41.8652,-15.8365],[-41.8587,-15.8027],[-41.8805,-15.7484],[-41.894,-15.7324],[-41.9164,-15.6621],[-41.9048,-15.6312],[-41.9351,-15.6248],[-41.9891,-15.6557],[-42.04913,-15.67277]]]]}},{"type":"Feature","properties":{"territory_id":"mg-3168002-vila-formosa","name":"Vila Formosa","municipality_id":"mg-3168002","polling_places":1,"approx":true,"official":false,"method":"voronoi-polling-places","whole_municipality":false,"approx_coords_only":false},"geometry":{"type":"MultiPolygon","coordinates":[[[[-42.23885,-15.80784],[-42.22957,-15.80958],[-42.22766,-15.80465],[-42.22977,-15.80099],[-42.23885,-15.80784]]]]}},{"type":"Feature","properties":{"territory_id":"mg-3168002-zona-rural","name":"Zona Rural","municipality_id":"mg-3168002","polling_places":4,"approx":true,"official":false,"method":"voronoi-polling-places","whole_municipality":false,"approx_coords_only":false},"geometry":{"type":"MultiPolygon","coordinates":[[[[-42.28054,-15.88391],[-42.2682,-15.9155],[-42.249,-15.9112],[-42.2248,-15.9507],[-42.156,-15.9664],[-42.1409,-15.9222],[-42.10954,-15.9085],[-42.16379,-15.87974],[-42.16689,-15.72617],[-42.19924,-15.80708],[-42.20077,-15.84444],[-42.19975,-15.86941],[-42.28054,-15.88391]]],[[[-42.22957,-15.80958],[-42.22936,-15.8105],[-42.22247,-15.81319],[-42.21128,-15.80837],[-42.22766,-15.80465],[-42.22957,-15.80958]]],[[[-42.09998,-15.91229],[-42.0687,-15.9675],[-42.02678,-15.98446],[-41.96816,-15.77311],[-42.04577,-15.68431],[-42.09998,-15.91229]]]]}}]}