{"type":"FeatureCollection","features":[{"type":"Feature","properties":{"territory_id":"mg-3168606-altino-barbosa","name":"Altino Barbosa","municipality_id":"mg-3168606","polling_places":1,"approx":false,"official":true,"method":"official-ibge-cd2022","whole_municipality":false,"approx_coords_only":false,"official_name":"Altino Barbosa","official_code":"3168606009","match":"direct"},"geometry":{"type":"MultiPolygon","coordinates":[[[[-41.5053,-17.86423],[-41.50622,-17.86429],[-41.50633,-17.86209],[-41.50587,-17.86208],[-41.50548,-17.8622],[-41.50504,-17.86231],[-41.50479,-17.86214],[-41.50465,-17.86194],[-41.50469,-17.86179],[-41.50513,-17.86179],[-41.5052,-17.86111],[-41.50523,-17.86059],[-41.50386,-17.86047],[-41.50375,-17.86171],[-41.50366,-17.86183],[-41.50347,-17.86197],[-41.5031,-17.86199],[-41.50237,-17.86195],[-41.50151,-17.86182],[-41.50145,-17.86211],[-41.50145,-17.86229],[-41.50148,-17.86242],[-41.50154,-17.86255],[-41.50171,-17.86282],[-41.50178,-17.86311],[-41.50153,-17.86373],[-41.50148,-17.86396],[-41.50149,-17.86427],[-41.50136,-17.86478],[-41.50128,-17.86503],[-41.50122,-17.86564],[-41.50222,-17.86505],[-41.50238,-17.86532],[-41.50268,-17.86576],[-41.50352,-17.86534],[-41.50368,-17.86552],[-41.5038,-17.86551],[-41.50386,-17.86553],[-41.50453,-17.86578],[-41.50465,-17.86574],[-41.50496,-17.86506],[-41.50525,-17.86508],[-41.50525,-17.86454],[-41.50529,-17.86442],[-41.5053,-17.86423]]]]}},{"type":"Feature","properties":{"territory_id":"mg-3168606-bamberg","name":"Bamberg","municipality_id":"mg-3168606","polling_places":1,"approx":true,"official":false,"method":"voronoi-polling-places","whole_municipality":false,"approx_coords_only":false},"geometry":{"type":"MultiPolygon","coordinates":[[[[-41.39682,-17.73824],[-41.33634,-17.81248],[-41.30448,-17.80924],[-41.27078,-17.73497],[-41.30117,-17.66948],[-41.31246,-17.66523],[-41.39496,-17.71653],[-41.39682,-17.73824]]]]}},{"type":"Feature","properties":{"territory_id":"mg-3168606-barra-do-cedro","name":"Barra do Cedro","municipality_id":"mg-3168606","polling_places":1,"approx":true,"official":false,"method":"voronoi-polling-places","whole_municipality":false,"approx_coords_only":false},"geometry":{"type":"MultiPolygon","coordinates":[[[[-41.52326,-17.9467],[-41.49769,-18.03295],[-41.4616,-18.0071],[-41.45939,-18.00694],[-41.45938,-17.95217],[-41.49444,-17.93373],[-41.51178,-17.93649],[-41.52326,-17.9467]]]]}},{"type":"Feature","properties":{"territory_id":"mg-3168606-bela-vista","name":"Bela Vista","municipality_id":"mg-3168606","polling_places":1,"approx":false,"official":true,"method":"official-ibge-cd2022","whole_municipality":false,"approx_coords_only":false,"official_name":"Bela Vista","official_code":"3168606034","match":"direct"},"geometry":{"type":"MultiPolygon","coordinates":[[[[-41.51165,-17.85192],[-41.51273,-17.85192],[-41.51282,-17.85117],[-41.513,-17.85095],[-41.51326,-17.85084],[-41.51358,-17.85075],[-41.51387,-17.85061],[-41.51406,-17.85033],[-41.51416,-17.85007],[-41.51426,-17.84988],[-41.51476,-17.84937],[-41.51485,-17.84918],[-41.51478,-17.84897],[-41.5147,-17.84879],[-41.51469,-17.84844],[-41.51473,-17.84831],[-41.51472,-17.84826],[-41.51493,-17.8476],[-41.51504,-17.84628],[-41.51504,-17.84609],[-41.51502,-17.84586],[-41.51496,-17.84569],[-41.51486,-17.84557],[-41.51475,-17.84546],[-41.51444,-17.84541],[-41.5143,-17.84542],[-41.51419,-17.84536],[-41.51414,-17.84526],[-41.51408,-17.84523],[-41.51407,-17.84511],[-41.51412,-17.84489],[-41.51417,-17.84474],[-41.51437,-17.84435],[-41.51442,-17.84416],[-41.51442,-17.84393],[-41.51437,-17.84366],[-41.51434,-17.84353],[-41.51421,-17.84332],[-41.51399,-17.8432],[-41.51393,-17.8431],[-41.51384,-17.84264],[-41.51367,-17.84231],[-41.51356,-17.84214],[-41.51351,-17.84196],[-41.51351,-17.84178],[-41.51341,-17.84156],[-41.51344,-17.84133],[-41.5134,-17.84102],[-41.51321,-17.84049],[-41.51299,-17.84025],[-41.51287,-17.84018],[-41.51276,-17.84008],[-41.5127,-17.83995],[-41.51263,-17.83988],[-41.51261,-17.83976],[-41.51255,-17.83964],[-41.51241,-17.83958],[-41.51221,-17.83954],[-41.5119,-17.83954],[-41.51154,-17.83977],[-41.51131,-17.83972],[-41.51116,-17.83984],[-41.51098,-17.83982],[-41.51097,-17.83966],[-41.51082,-17.83952],[-41.51069,-17.83942],[-41.51039,-17.83934],[-41.51036,-17.83915],[-41.51041,-17.83897],[-41.51043,-17.83879],[-41.51041,-17.83862],[-41.51036,-17.83841],[-41.51032,-17.83833],[-41.51035,-17.8381],[-41.51034,-17.83779],[-41.51035,-17.83757],[-41.51036,-17.83743],[-41.51045,-17.83729],[-41.51052,-17.83713],[-41.51052,-17.83696],[-41.51043,-17.83679],[-41.51042,-17.83663],[-41.51044,-17.83651],[-41.51056,-17.83636],[-41.51074,-17.83622],[-41.51082,-17.83596],[-41.51093,-17.83572],[-41.51094,-17.83551],[-41.51074,-17.83512],[-41.51042,-17.83473],[-41.51036,-17.83453],[-41.51036,-17.8343],[-41.51026,-17.83401],[-41.5101,-17.83385],[-41.50977,-17.83384],[-41.50941,-17.83381],[-41.50929,-17.8336],[-41.50927,-17.83344],[-41.50928,-17.83323],[-41.50902,-17.83312],[-41.50872,-17.83258],[-41.50889,-17.83228],[-41.50919,-17.83226],[-41.50922,-17.83215],[-41.50909,-17.83199],[-41.50896,-17.83185],[-41.50867,-17.83165],[-41.5086,-17.83149],[-41.50848,-17.83106],[-41.50851,-17.83092],[-41.50861,-17.83083],[-41.50876,-17.83079],[-41.50877,-17.83033],[-41.50884,-17.82998],[-41.50782,-17.8301],[-41.5078,-17.82999],[-41.50763,-17.82968],[-41.50728,-17.82941],[-41.50667,-17.82884],[-41.50647,-17.82934],[-41.50635,-17.82957],[-41.50633,-17.82976],[-41.50642,-17.83043],[-41.50647,-17.83095],[-41.50647,-17.83125],[-41.50636,-17.8317],[-41.50637,-17.83179],[-41.50633,-17.83196],[-41.50633,-17.83212],[-41.50639,-17.83239],[-41.50664,-17.8329],[-41.50666,-17.8331],[-41.50665,-17.83331],[-41.50669,-17.83344],[-41.50714,-17.83418],[-41.50715,-17.83425],[-41.5068,-17.83438],[-41.50637,-17.83483],[-41.50604,-17.83662],[-41.50603,-17.83771],[-41.50498,-17.83765],[-41.50371,-17.83712],[-41.50153,-17.83652],[-41.5006,-17.83593],[-41.50041,-17.8374],[-41.50063,-17.83853],[-41.50122,-17.83929],[-41.50113,-17.84198],[-41.50098,-17.84246],[-41.50103,-17.84276],[-41.50138,-17.84395],[-41.50156,-17.84436],[-41.50168,-17.84457],[-41.5019,-17.84477],[-41.50269,-17.84529],[-41.50301,-17.84524],[-41.50375,-17.8453],[-41.50364,-17.84573],[-41.5037,-17.84606],[-41.50391,-17.84629],[-41.50408,-17.84632],[-41.50414,-17.84637],[-41.50441,-17.84679],[-41.50453,-17.84708],[-41.50457,-17.84727],[-41.50453,-17.84741],[-41.50448,-17.84767],[-41.50449,-17.8478],[-41.50457,-17.84785],[-41.50493,-17.84791],[-41.50598,-17.84814],[-41.50636,-17.84815],[-41.50665,-17.84821],[-41.50691,-17.84842],[-41.50699,-17.84845],[-41.50854,-17.84845],[-41.50858,-17.84841],[-41.50862,-17.84842],[-41.50864,-17.84923],[-41.50858,-17.85024],[-41.50732,-17.85021],[-41.50724,-17.85067],[-41.50724,-17.85195],[-41.50854,-17.85191],[-41.50924,-17.85191],[-41.51165,-17.85192]]]]}},{"type":"Feature","properties":{"territory_id":"mg-3168606-brejao","name":"Brejão","municipality_id":"mg-3168606","polling_places":1,"approx":true,"official":false,"method":"voronoi-polling-places","whole_municipality":false,"approx_coords_only":false},"geometry":{"type":"MultiPolygon","coordinates":[[[[-41.30448,-17.80924],[-41.22507,-17.8667],[-41.15776,-17.74099],[-41.27078,-17.73497],[-41.30448,-17.80924]]]]}},{"type":"Feature","properties":{"territory_id":"mg-3168606-cabeceira-de-sao-pedro","name":"Cabeceira de São Pedro","municipality_id":"mg-3168606","polling_places":1,"approx":true,"official":false,"method":"voronoi-polling-places","whole_municipality":false,"approx_coords_only":false},"geometry":{"type":"MultiPolygon","coordinates":[[[[-41.6655,-17.9133],[-41.64976,-17.94206],[-41.61685,-17.92606],[-41.56681,-17.87374],[-41.53576,-17.78502],[-41.54954,-17.76762],[-41.65624,-17.77367],[-41.6473,-17.7945],[-41.6026,-17.8041],[-41.6357,-17.8453],[-41.6345,-17.8818],[-41.6655,-17.9133]]]]}},{"type":"Feature","properties":{"territory_id":"mg-3168606-centro","name":"Centro","municipality_id":"mg-3168606","polling_places":7,"approx":false,"official":true,"method":"official-ibge-cd2022","whole_municipality":false,"approx_coords_only":false,"official_name":"Centro","official_code":"3168606001","match":"direct"},"geometry":{"type":"MultiPolygon","coordinates":[[[[-41.50787,-17.8691],[-41.50834,-17.86904],[-41.50878,-17.86896],[-41.51064,-17.86854],[-41.51192,-17.86829],[-41.51189,-17.86791],[-41.51268,-17.86769],[-41.51267,-17.86703],[-41.51254,-17.86687],[-41.51242,-17.86679],[-41.51227,-17.86675],[-41.51154,-17.86672],[-41.51156,-17.86637],[-41.51159,-17.86628],[-41.51187,-17.86601],[-41.51208,-17.86566],[-41.51215,-17.86538],[-41.5122,-17.86528],[-41.51255,-17.86491],[-41.51264,-17.86478],[-41.51268,-17.86468],[-41.51187,-17.86448],[-41.51171,-17.86489],[-41.51161,-17.86543],[-41.51156,-17.8655],[-41.51126,-17.86546],[-41.51132,-17.86512],[-41.51116,-17.86515],[-41.51012,-17.865],[-41.51001,-17.86492],[-41.50983,-17.86472],[-41.50983,-17.86443],[-41.50996,-17.86397],[-41.51007,-17.86336],[-41.5104,-17.86262],[-41.5105,-17.86225],[-41.51052,-17.86224],[-41.51059,-17.86227],[-41.51069,-17.86234],[-41.51094,-17.86247],[-41.511,-17.86242],[-41.51153,-17.86212],[-41.51162,-17.86232],[-41.51168,-17.86217],[-41.51187,-17.861],[-41.51459,-17.86117],[-41.51496,-17.86122],[-41.51499,-17.8609],[-41.51503,-17.86062],[-41.51516,-17.8601],[-41.51477,-17.86007],[-41.51476,-17.85948],[-41.51473,-17.859],[-41.51469,-17.85869],[-41.51465,-17.85852],[-41.51455,-17.8584],[-41.51444,-17.85836],[-41.51359,-17.85859],[-41.51333,-17.85768],[-41.51181,-17.85755],[-41.50879,-17.85734],[-41.50871,-17.85846],[-41.5068,-17.85831],[-41.50671,-17.85956],[-41.50658,-17.85955],[-41.50646,-17.86068],[-41.50633,-17.86209],[-41.50622,-17.86429],[-41.5053,-17.86423],[-41.50529,-17.86442],[-41.50525,-17.86454],[-41.50525,-17.86508],[-41.50496,-17.86506],[-41.50465,-17.86574],[-41.50453,-17.86578],[-41.50386,-17.86553],[-41.5038,-17.86551],[-41.50368,-17.86552],[-41.50352,-17.86534],[-41.50268,-17.86576],[-41.50209,-17.86611],[-41.50167,-17.867],[-41.50132,-17.86824],[-41.50126,-17.8683],[-41.50121,-17.86831],[-41.50072,-17.86832],[-41.50072,-17.86874],[-41.50074,-17.86904],[-41.50073,-17.86965],[-41.50127,-17.86964],[-41.50143,-17.86957],[-41.50154,-17.86949],[-41.50162,-17.86941],[-41.50172,-17.86927],[-41.50197,-17.86878],[-41.5023,-17.86888],[-41.50235,-17.86911],[-41.50252,-17.86953],[-41.50285,-17.86951],[-41.50324,-17.87021],[-41.50338,-17.87035],[-41.50377,-17.87041],[-41.50542,-17.87049],[-41.50597,-17.87057],[-41.50633,-17.87059],[-41.50669,-17.87064],[-41.50665,-17.86958],[-41.50671,-17.86946],[-41.50698,-17.86926],[-41.50783,-17.86911],[-41.50787,-17.8691]]]]}},{"type":"Feature","properties":{"territory_id":"mg-3168606-corrego-novo","name":"Córrego Novo","municipality_id":"mg-3168606","polling_places":1,"approx":true,"official":false,"method":"voronoi-polling-places","whole_municipality":false,"approx_coords_only":false},"geometry":{"type":"MultiPolygon","coordinates":[[[[-41.42544,-17.5481],[-41.4199,-17.58329],[-41.32651,-17.63072],[-41.29473,-17.53889],[-41.42544,-17.5481]]]]}},{"type":"Feature","properties":{"territory_id":"mg-3168606-distrito-de-crispim-jaques","name":"Distrito de Crispim Jaques","municipality_id":"mg-3168606","polling_places":1,"approx":true,"official":false,"method":"voronoi-polling-places","whole_municipality":false,"approx_coords_only":false},"geometry":{"type":"MultiPolygon","coordinates":[[[[-41.22507,-17.8667],[-41.20237,-17.93494],[-41.142,-17.9494],[-41.1531,-17.9029],[-41.1024,-17.8687],[-41.0877,-17.835],[-41.1496,-17.778],[-41.1306,-17.7522],[-41.13222,-17.72444],[-41.15776,-17.74099],[-41.22507,-17.8667]]]]}},{"type":"Feature","properties":{"territory_id":"mg-3168606-distrito-de-mucuri","name":"Distrito de Mucuri","municipality_id":"mg-3168606","polling_places":1,"approx":true,"official":false,"method":"voronoi-polling-places","whole_municipality":false,"approx_coords_only":false},"geometry":{"type":"MultiPolygon","coordinates":[[[[-41.62687,-17.56209],[-41.53471,-17.67257],[-41.45345,-17.65745],[-41.4199,-17.58329],[-41.42544,-17.5481],[-41.42691,-17.54579],[-41.59646,-17.5491],[-41.6009,-17.5573],[-41.6216,-17.5531],[-41.62687,-17.56209]]]]}},{"type":"Feature","properties":{"territory_id":"mg-3168606-distrito-de-pedro-versiani","name":"Distrito de Pedro Versiani","municipality_id":"mg-3168606","polling_places":1,"approx":true,"official":false,"method":"voronoi-polling-places","whole_municipality":false,"approx_coords_only":false},"geometry":{"type":"MultiPolygon","coordinates":[[[[-41.36388,-17.8484],[-41.33011,-17.98104],[-41.32295,-17.99207],[-41.2781,-17.9836],[-41.2521,-17.9542],[-41.2155,-17.9318],[-41.20237,-17.93494],[-41.22507,-17.8667],[-41.30448,-17.80924],[-41.33634,-17.81248],[-41.36388,-17.8484]]]]}},{"type":"Feature","properties":{"territory_id":"mg-3168606-distrito-de-rio-pretinho","name":"Distrito de Rio Pretinho","municipality_id":"mg-3168606","polling_places":1,"approx":true,"official":false,"method":"voronoi-polling-places","whole_municipality":false,"approx_coords_only":false},"geometry":{"type":"MultiPolygon","coordinates":[[[[-41.36306,-17.41087],[-41.31883,-17.43236],[-41.2744,-17.43243],[-41.23576,-17.40222],[-41.2377,-17.3934],[-41.2645,-17.3491],[-41.324,-17.3368],[-41.3514,-17.3467],[-41.3473,-17.3894],[-41.3612,-17.4112],[-41.36306,-17.41087]]]]}},{"type":"Feature","properties":{"territory_id":"mg-3168606-distrito-de-topazio","name":"Distrito de Topázio","municipality_id":"mg-3168606","polling_places":1,"approx":true,"official":false,"method":"voronoi-polling-places","whole_municipality":false,"approx_coords_only":false},"geometry":{"type":"MultiPolygon","coordinates":[[[[-41.45345,-17.65745],[-41.39496,-17.71653],[-41.31246,-17.66523],[-41.32651,-17.63072],[-41.4199,-17.58329],[-41.45345,-17.65745]]]]}},{"type":"Feature","properties":{"territory_id":"mg-3168606-doutor-laerte-laender","name":"Doutor Laerte Laender","municipality_id":"mg-3168606","polling_places":1,"approx":false,"official":true,"method":"official-ibge-cd2022","whole_municipality":false,"approx_coords_only":false,"official_name":"Doutor Laerte Laender","official_code":"3168606024","match":"direct"},"geometry":{"type":"MultiPolygon","coordinates":[[[[-41.50793,-17.87461],[-41.50742,-17.87462],[-41.50745,-17.87368],[-41.50748,-17.87339],[-41.50736,-17.87332],[-41.50729,-17.87321],[-41.50703,-17.87263],[-41.50691,-17.87231],[-41.50709,-17.8717],[-41.50708,-17.87167],[-41.50706,-17.87165],[-41.50678,-17.87156],[-41.5064,-17.873],[-41.50582,-17.87533],[-41.50553,-17.87656],[-41.50549,-17.87664],[-41.50543,-17.87672],[-41.50468,-17.87728],[-41.50461,-17.87737],[-41.50438,-17.87815],[-41.50436,-17.87833],[-41.50434,-17.87885],[-41.50513,-17.87993],[-41.50541,-17.87958],[-41.50557,-17.87951],[-41.50869,-17.87975],[-41.50944,-17.88006],[-41.50996,-17.88009],[-41.51109,-17.88023],[-41.5115,-17.88026],[-41.51182,-17.88034],[-41.51186,-17.88038],[-41.5124,-17.88042],[-41.5133,-17.8816],[-41.51344,-17.88181],[-41.51352,-17.88196],[-41.51356,-17.88209],[-41.51358,-17.88232],[-41.51351,-17.88256],[-41.51339,-17.88279],[-41.5133,-17.88293],[-41.5131,-17.88338],[-41.51277,-17.88401],[-41.51259,-17.88422],[-41.51252,-17.88426],[-41.5121,-17.8844],[-41.51255,-17.88446],[-41.51279,-17.8844],[-41.5136,-17.88307],[-41.51547,-17.87881],[-41.51629,-17.87542],[-41.51629,-17.87496],[-41.51609,-17.87488],[-41.51594,-17.87479],[-41.51425,-17.87448],[-41.51308,-17.87431],[-41.5127,-17.87428],[-41.51272,-17.87383],[-41.51145,-17.87373],[-41.51134,-17.87449],[-41.51022,-17.87449],[-41.50891,-17.87456],[-41.50793,-17.87461]]]]}},{"type":"Feature","properties":{"territory_id":"mg-3168606-fatima","name":"Fátima","municipality_id":"mg-3168606","polling_places":1,"approx":false,"official":true,"method":"official-ibge-cd2022","whole_municipality":false,"approx_coords_only":false,"official_name":"Fátima","official_code":"3168606004","match":"direct"},"geometry":{"type":"MultiPolygon","coordinates":[[[[-41.50915,-17.85296],[-41.50888,-17.85648],[-41.50879,-17.85734],[-41.51181,-17.85755],[-41.51333,-17.85768],[-41.51359,-17.85859],[-41.51444,-17.85836],[-41.51455,-17.8584],[-41.51462,-17.85847],[-41.51465,-17.85852],[-41.51469,-17.85869],[-41.51473,-17.859],[-41.51476,-17.85948],[-41.51477,-17.86007],[-41.51491,-17.86008],[-41.51493,-17.85966],[-41.51489,-17.85956],[-41.51488,-17.85916],[-41.5148,-17.85842],[-41.51475,-17.85838],[-41.51455,-17.85828],[-41.51449,-17.85824],[-41.51431,-17.85805],[-41.51425,-17.8579],[-41.51425,-17.85779],[-41.51427,-17.85775],[-41.51426,-17.85773],[-41.5143,-17.85757],[-41.51446,-17.85731],[-41.51447,-17.85709],[-41.51442,-17.85696],[-41.51417,-17.85669],[-41.51413,-17.85657],[-41.51394,-17.85632],[-41.51363,-17.85605],[-41.5136,-17.85596],[-41.5136,-17.85579],[-41.51368,-17.85568],[-41.5137,-17.85548],[-41.5138,-17.85527],[-41.51389,-17.85521],[-41.51399,-17.85518],[-41.51405,-17.85507],[-41.514,-17.85497],[-41.51385,-17.8548],[-41.51328,-17.85446],[-41.51298,-17.85424],[-41.51262,-17.85424],[-41.51246,-17.8542],[-41.51238,-17.85381],[-41.51244,-17.85377],[-41.51257,-17.85372],[-41.51263,-17.85364],[-41.51269,-17.85341],[-41.5127,-17.85326],[-41.51264,-17.85309],[-41.51259,-17.85281],[-41.51258,-17.85265],[-41.5126,-17.85251],[-41.51274,-17.8522],[-41.51273,-17.85192],[-41.50924,-17.85191],[-41.50915,-17.85296]]]]}},{"type":"Feature","properties":{"territory_id":"mg-3168606-frei-dimas","name":"Frei Dimas","municipality_id":"mg-3168606","polling_places":1,"approx":false,"official":true,"method":"official-ibge-cd2022","whole_municipality":false,"approx_coords_only":false,"official_name":"Frei Dimas","official_code":"3168606030","match":"direct"},"geometry":{"type":"MultiPolygon","coordinates":[[[[-41.52028,-17.86399],[-41.52053,-17.86396],[-41.5209,-17.86399],[-41.52117,-17.86406],[-41.52178,-17.86429],[-41.52279,-17.86449],[-41.52299,-17.86456],[-41.52358,-17.86498],[-41.52381,-17.8651],[-41.52411,-17.86519],[-41.52426,-17.86522],[-41.52512,-17.8653],[-41.52524,-17.86529],[-41.52562,-17.86514],[-41.52598,-17.86491],[-41.5265,-17.86444],[-41.52661,-17.86437],[-41.52687,-17.86425],[-41.52706,-17.86422],[-41.52746,-17.86418],[-41.52783,-17.86424],[-41.52856,-17.8642],[-41.52873,-17.86413],[-41.52905,-17.86388],[-41.5292,-17.86372],[-41.52935,-17.86345],[-41.52948,-17.86284],[-41.52964,-17.8624],[-41.52986,-17.86217],[-41.53018,-17.86192],[-41.53079,-17.86161],[-41.53093,-17.86153],[-41.53107,-17.86142],[-41.53126,-17.86121],[-41.5315,-17.86088],[-41.53156,-17.86058],[-41.53154,-17.86023],[-41.53148,-17.85999],[-41.53126,-17.85955],[-41.53092,-17.85929],[-41.53039,-17.85897],[-41.53011,-17.85868],[-41.53,-17.85851],[-41.52988,-17.85824],[-41.52984,-17.85786],[-41.52993,-17.8574],[-41.53004,-17.85717],[-41.53068,-17.8565],[-41.5308,-17.85635],[-41.53102,-17.85613],[-41.53123,-17.85596],[-41.53126,-17.8556],[-41.5311,-17.85535],[-41.53097,-17.85541],[-41.53084,-17.85551],[-41.53072,-17.85615],[-41.53044,-17.85603],[-41.53035,-17.85603],[-41.5303,-17.85606],[-41.53027,-17.85614],[-41.53019,-17.85649],[-41.5301,-17.85676],[-41.52997,-17.85695],[-41.5298,-17.85714],[-41.52944,-17.85737],[-41.52925,-17.85763],[-41.52923,-17.85773],[-41.52941,-17.85822],[-41.52965,-17.85873],[-41.52972,-17.85905],[-41.52992,-17.85941],[-41.53026,-17.85981],[-41.53052,-17.86032],[-41.53074,-17.86103],[-41.53039,-17.86117],[-41.53016,-17.86124],[-41.52892,-17.86153],[-41.52879,-17.8628],[-41.52881,-17.863],[-41.52879,-17.86312],[-41.52865,-17.86324],[-41.52824,-17.86343],[-41.52787,-17.86343],[-41.52717,-17.86318],[-41.52621,-17.86267],[-41.52526,-17.86204],[-41.52441,-17.86131],[-41.5239,-17.85965],[-41.52352,-17.8587],[-41.52296,-17.85866],[-41.52331,-17.86023],[-41.52328,-17.86038],[-41.52324,-17.8605],[-41.52318,-17.86055],[-41.52315,-17.86062],[-41.52295,-17.86085],[-41.52288,-17.8609],[-41.52259,-17.86098],[-41.52247,-17.86105],[-41.52225,-17.86124],[-41.52199,-17.86112],[-41.5217,-17.86104],[-41.52114,-17.86094],[-41.52084,-17.86184],[-41.52068,-17.86193],[-41.51995,-17.86203],[-41.5197,-17.86183],[-41.51924,-17.86177],[-41.5187,-17.86201],[-41.51825,-17.8623],[-41.51798,-17.8624],[-41.51775,-17.86245],[-41.51746,-17.86249],[-41.51716,-17.86249],[-41.517,-17.86245],[-41.51652,-17.86242],[-41.51628,-17.86248],[-41.51626,-17.86247],[-41.51625,-17.86219],[-41.51645,-17.86199],[-41.51652,-17.86189],[-41.51635,-17.86188],[-41.51632,-17.8618],[-41.51622,-17.86171],[-41.51594,-17.86162],[-41.51587,-17.86153],[-41.5158,-17.86131],[-41.51578,-17.86121],[-41.5151,-17.86118],[-41.51496,-17.86122],[-41.51494,-17.86155],[-41.51489,-17.86182],[-41.51488,-17.86202],[-41.5149,-17.86259],[-41.51497,-17.86299],[-41.51508,-17.86327],[-41.51517,-17.86343],[-41.51534,-17.86373],[-41.51572,-17.86428],[-41.51579,-17.86441],[-41.51586,-17.86461],[-41.51597,-17.86476],[-41.5163,-17.86541],[-41.51638,-17.86567],[-41.51641,-17.86598],[-41.51663,-17.86644],[-41.51688,-17.86716],[-41.51715,-17.86709],[-41.51735,-17.86701],[-41.51749,-17.86694],[-41.51783,-17.86665],[-41.51792,-17.86653],[-41.51801,-17.86637],[-41.5183,-17.86545],[-41.51847,-17.86518],[-41.51867,-17.86495],[-41.51881,-17.86484],[-41.51968,-17.86425],[-41.52005,-17.86405],[-41.52013,-17.86402],[-41.52028,-17.86399]]]]}},{"type":"Feature","properties":{"territory_id":"mg-3168606-fumaca","name":"Fumaça","municipality_id":"mg-3168606","polling_places":1,"approx":true,"official":false,"method":"voronoi-polling-places","whole_municipality":false,"approx_coords_only":false},"geometry":{"type":"MultiPolygon","coordinates":[[[[-41.32651,-17.63072],[-41.31246,-17.66523],[-41.30117,-17.66948],[-41.18137,-17.61492],[-41.28708,-17.53227],[-41.29473,-17.53889],[-41.32651,-17.63072]]]]}},{"type":"Feature","properties":{"territory_id":"mg-3168606-grao-para","name":"Grão Pará","municipality_id":"mg-3168606","polling_places":3,"approx":false,"official":true,"method":"official-ibge-cd2022","whole_municipality":false,"approx_coords_only":false,"official_name":"Grão-Pará","official_code":"3168606005","match":"direct"},"geometry":{"type":"MultiPolygon","coordinates":[[[[-41.50879,-17.85734],[-41.50888,-17.85648],[-41.50924,-17.85191],[-41.50854,-17.85191],[-41.50724,-17.85195],[-41.50542,-17.85195],[-41.50543,-17.85284],[-41.50582,-17.85412],[-41.50601,-17.85501],[-41.50513,-17.85519],[-41.50494,-17.85518],[-41.50459,-17.85526],[-41.50376,-17.85549],[-41.50348,-17.85561],[-41.50331,-17.85569],[-41.50327,-17.85578],[-41.50323,-17.85593],[-41.50325,-17.85615],[-41.50335,-17.85627],[-41.5036,-17.85651],[-41.50399,-17.85669],[-41.50409,-17.85671],[-41.50427,-17.85672],[-41.50548,-17.85653],[-41.50598,-17.85651],[-41.50587,-17.85825],[-41.50871,-17.85846],[-41.50872,-17.85822],[-41.50879,-17.85734]]]]}},{"type":"Feature","properties":{"territory_id":"mg-3168606-ipiranga","name":"Ipiranga","municipality_id":"mg-3168606","polling_places":1,"approx":false,"official":true,"method":"official-ibge-cd2022","whole_municipality":false,"approx_coords_only":false,"official_name":"Ipiranga","official_code":"3168606010","match":"direct"},"geometry":{"type":"MultiPolygon","coordinates":[[[[-41.49468,-17.86936],[-41.49535,-17.86925],[-41.49614,-17.86922],[-41.49659,-17.86926],[-41.49768,-17.8694],[-41.49848,-17.86952],[-41.49937,-17.8697],[-41.50073,-17.86965],[-41.50074,-17.86904],[-41.50072,-17.86874],[-41.50072,-17.86832],[-41.50121,-17.86831],[-41.50126,-17.8683],[-41.5013,-17.86827],[-41.50133,-17.86822],[-41.50144,-17.86783],[-41.50167,-17.867],[-41.50209,-17.86611],[-41.50268,-17.86576],[-41.50238,-17.86532],[-41.50222,-17.86505],[-41.50122,-17.86564],[-41.50128,-17.86503],[-41.50136,-17.86478],[-41.50149,-17.86427],[-41.50148,-17.86396],[-41.50153,-17.86373],[-41.50178,-17.86311],[-41.50171,-17.86282],[-41.50154,-17.86255],[-41.50148,-17.86242],[-41.50145,-17.86229],[-41.50145,-17.86211],[-41.50151,-17.86182],[-41.5021,-17.86036],[-41.50239,-17.85987],[-41.50157,-17.85972],[-41.50138,-17.86026],[-41.50106,-17.86095],[-41.501,-17.86118],[-41.50092,-17.86164],[-41.50052,-17.86159],[-41.50004,-17.86148],[-41.50003,-17.86178],[-41.50011,-17.86237],[-41.50013,-17.86274],[-41.4998,-17.86239],[-41.49908,-17.86142],[-41.49903,-17.86132],[-41.49873,-17.86126],[-41.49851,-17.86119],[-41.49841,-17.86105],[-41.49837,-17.86084],[-41.49842,-17.86022],[-41.49874,-17.858],[-41.49973,-17.85809],[-41.49986,-17.85814],[-41.49995,-17.85821],[-41.50014,-17.85839],[-41.50007,-17.85802],[-41.49993,-17.85776],[-41.49981,-17.85764],[-41.49964,-17.85754],[-41.49946,-17.85747],[-41.49899,-17.85744],[-41.49858,-17.85752],[-41.49843,-17.85764],[-41.49826,-17.85784],[-41.49795,-17.85792],[-41.49761,-17.85805],[-41.49728,-17.85797],[-41.49707,-17.85786],[-41.49677,-17.8578],[-41.49594,-17.8578],[-41.49524,-17.8579],[-41.49504,-17.85742],[-41.49332,-17.86453],[-41.4939,-17.8695],[-41.4943,-17.86943],[-41.49468,-17.86936]]]]}},{"type":"Feature","properties":{"territory_id":"mg-3168606-itamunheque","name":"Itamunheque","municipality_id":"mg-3168606","polling_places":1,"approx":true,"official":false,"method":"voronoi-polling-places","whole_municipality":false,"approx_coords_only":false},"geometry":{"type":"MultiPolygon","coordinates":[[[[-41.45939,-18.00694],[-41.3936,-18.0021],[-41.3692,-18.0317],[-41.3439,-18.0243],[-41.33,-17.9934],[-41.32295,-17.99207],[-41.33011,-17.98104],[-41.43215,-17.91687],[-41.45938,-17.95217],[-41.45939,-18.00694]]]]}},{"type":"Feature","properties":{"territory_id":"mg-3168606-jaqueira","name":"Jaqueira","municipality_id":"mg-3168606","polling_places":1,"approx":true,"official":false,"method":"voronoi-polling-places","whole_municipality":false,"approx_coords_only":false},"geometry":{"type":"MultiPolygon","coordinates":[[[[-41.61685,-17.92606],[-41.52326,-17.9467],[-41.51178,-17.93649],[-41.51689,-17.89729],[-41.52185,-17.89344],[-41.56681,-17.87374],[-41.61685,-17.92606]]]]}},{"type":"Feature","properties":{"territory_id":"mg-3168606-jardim-das-acacias","name":"Jardim das Acácias","municipality_id":"mg-3168606","polling_places":1,"approx":false,"official":true,"method":"official-ibge-cd2022","whole_municipality":false,"approx_coords_only":false,"official_name":"Jardim das Acácias","official_code":"3168606027","match":"direct"},"geometry":{"type":"MultiPolygon","coordinates":[[[[-41.51711,-17.86793],[-41.51732,-17.86871],[-41.51776,-17.86855],[-41.51815,-17.86941],[-41.52006,-17.87002],[-41.52167,-17.86992],[-41.52225,-17.86998],[-41.52275,-17.87061],[-41.52337,-17.87094],[-41.52394,-17.87136],[-41.52528,-17.87209],[-41.52672,-17.87282],[-41.52768,-17.87328],[-41.52858,-17.8736],[-41.52982,-17.874],[-41.53075,-17.87437],[-41.53207,-17.87461],[-41.53236,-17.87472],[-41.53315,-17.87357],[-41.53397,-17.87282],[-41.53456,-17.87231],[-41.53511,-17.87179],[-41.53561,-17.87148],[-41.53649,-17.8708],[-41.53495,-17.86835],[-41.53271,-17.87035],[-41.53224,-17.87066],[-41.53188,-17.87086],[-41.53141,-17.87096],[-41.53082,-17.87098],[-41.53023,-17.87053],[-41.52951,-17.86948],[-41.52906,-17.86933],[-41.52858,-17.86935],[-41.52831,-17.86954],[-41.52823,-17.86954],[-41.52781,-17.8697],[-41.52756,-17.86972],[-41.52676,-17.86958],[-41.5255,-17.86857],[-41.52536,-17.86848],[-41.52526,-17.86848],[-41.52512,-17.8682],[-41.5249,-17.86817],[-41.52482,-17.8681],[-41.52476,-17.868],[-41.52473,-17.86785],[-41.52473,-17.8677],[-41.52487,-17.86755],[-41.52502,-17.86749],[-41.5252,-17.86747],[-41.52527,-17.86736],[-41.52527,-17.86722],[-41.52506,-17.867],[-41.52497,-17.86699],[-41.52493,-17.86685],[-41.52491,-17.86665],[-41.52487,-17.86657],[-41.52478,-17.86649],[-41.52468,-17.86647],[-41.52392,-17.86658],[-41.5238,-17.86655],[-41.52367,-17.86659],[-41.52354,-17.86657],[-41.52339,-17.8666],[-41.52328,-17.86658],[-41.523,-17.8666],[-41.52275,-17.86655],[-41.52228,-17.86644],[-41.52203,-17.86616],[-41.52196,-17.86603],[-41.52187,-17.86593],[-41.52179,-17.86592],[-41.52173,-17.86587],[-41.52158,-17.86584],[-41.52058,-17.86588],[-41.52025,-17.86595],[-41.51894,-17.8664],[-41.51863,-17.86658],[-41.51832,-17.86682],[-41.51777,-17.86716],[-41.51749,-17.86728],[-41.51717,-17.86739],[-41.51701,-17.86751],[-41.51711,-17.86793]]]]}},{"type":"Feature","properties":{"territory_id":"mg-3168606-jardim-iracema","name":"Jardim Iracema","municipality_id":"mg-3168606","polling_places":1,"approx":false,"official":true,"method":"official-ibge-cd2022","whole_municipality":false,"approx_coords_only":false,"official_name":"Jardim Iracema","official_code":"3168606006","match":"direct"},"geometry":{"type":"MultiPolygon","coordinates":[[[[-41.50267,-17.85524],[-41.50293,-17.8557],[-41.50325,-17.85615],[-41.50323,-17.85593],[-41.50327,-17.85578],[-41.50331,-17.85569],[-41.50348,-17.85561],[-41.50376,-17.85549],[-41.50459,-17.85526],[-41.50494,-17.85518],[-41.50513,-17.85519],[-41.50601,-17.85501],[-41.50582,-17.85412],[-41.50543,-17.85284],[-41.50542,-17.85195],[-41.50405,-17.85195],[-41.50285,-17.85201],[-41.50226,-17.85265],[-41.5014,-17.85271],[-41.50096,-17.85272],[-41.50072,-17.85274],[-41.50041,-17.85283],[-41.50028,-17.85288],[-41.5001,-17.853],[-41.49991,-17.85309],[-41.49962,-17.85313],[-41.49854,-17.8531],[-41.4981,-17.85304],[-41.49749,-17.85292],[-41.497,-17.85297],[-41.49617,-17.85311],[-41.49603,-17.85309],[-41.49599,-17.85322],[-41.49594,-17.85351],[-41.49598,-17.85379],[-41.49691,-17.85551],[-41.49729,-17.85604],[-41.49779,-17.85658],[-41.49794,-17.85663],[-41.49808,-17.85662],[-41.49824,-17.85656],[-41.49888,-17.8566],[-41.49925,-17.8566],[-41.49995,-17.85648],[-41.50054,-17.85658],[-41.50083,-17.85667],[-41.50099,-17.85675],[-41.50114,-17.85685],[-41.50128,-17.85697],[-41.50192,-17.85631],[-41.50202,-17.85634],[-41.50208,-17.85631],[-41.50176,-17.8555],[-41.50242,-17.85528],[-41.50267,-17.85524]]]]}},{"type":"Feature","properties":{"territory_id":"mg-3168606-joaquim-pedrosa","name":"Joaquim Pedrosa","municipality_id":"mg-3168606","polling_places":1,"approx":false,"official":true,"method":"official-ibge-cd2022","whole_municipality":false,"approx_coords_only":false,"official_name":"Joaquim Pedrosa","official_code":"3168606032","match":"direct"},"geometry":{"type":"MultiPolygon","coordinates":[[[[-41.51273,-17.85192],[-41.51274,-17.8522],[-41.5126,-17.85251],[-41.51258,-17.85265],[-41.51259,-17.85281],[-41.51264,-17.85309],[-41.5127,-17.85326],[-41.51269,-17.85341],[-41.51263,-17.85364],[-41.51257,-17.85372],[-41.51244,-17.85377],[-41.51238,-17.85381],[-41.51246,-17.8542],[-41.51262,-17.85424],[-41.51298,-17.85424],[-41.51327,-17.85444],[-41.51315,-17.85418],[-41.51353,-17.85355],[-41.5143,-17.85357],[-41.51439,-17.85323],[-41.51447,-17.85326],[-41.51446,-17.85334],[-41.51448,-17.8534],[-41.51458,-17.85354],[-41.51485,-17.85383],[-41.51496,-17.85399],[-41.51504,-17.85423],[-41.51504,-17.85432],[-41.51494,-17.85474],[-41.51486,-17.85491],[-41.51482,-17.85513],[-41.51488,-17.85537],[-41.5162,-17.85511],[-41.51679,-17.85489],[-41.51712,-17.85474],[-41.51728,-17.85469],[-41.5176,-17.85461],[-41.51835,-17.85432],[-41.51822,-17.85401],[-41.51827,-17.85366],[-41.52057,-17.85401],[-41.52081,-17.85402],[-41.52134,-17.8538],[-41.52204,-17.85359],[-41.5224,-17.85368],[-41.52291,-17.85352],[-41.52394,-17.85341],[-41.52482,-17.85228],[-41.52551,-17.85102],[-41.52642,-17.85031],[-41.52615,-17.84801],[-41.52423,-17.84517],[-41.52347,-17.84597],[-41.52198,-17.84653],[-41.52136,-17.84595],[-41.52105,-17.84555],[-41.52078,-17.84543],[-41.5206,-17.84531],[-41.52049,-17.84517],[-41.52021,-17.84507],[-41.51998,-17.84505],[-41.51989,-17.84439],[-41.51926,-17.84433],[-41.51927,-17.84424],[-41.51932,-17.84414],[-41.51948,-17.84402],[-41.51972,-17.84388],[-41.52008,-17.84375],[-41.52051,-17.84375],[-41.52075,-17.84364],[-41.52081,-17.84344],[-41.52041,-17.84302],[-41.52032,-17.84279],[-41.52032,-17.84249],[-41.52013,-17.8429],[-41.52008,-17.84305],[-41.51995,-17.84328],[-41.51975,-17.84313],[-41.51971,-17.84289],[-41.51984,-17.8424],[-41.51895,-17.84193],[-41.51863,-17.84155],[-41.51799,-17.84106],[-41.5177,-17.84104],[-41.51738,-17.84122],[-41.51714,-17.8413],[-41.51692,-17.84127],[-41.51689,-17.84027],[-41.51428,-17.84034],[-41.51421,-17.84078],[-41.51408,-17.84126],[-41.51397,-17.84129],[-41.51337,-17.83979],[-41.51323,-17.83984],[-41.5133,-17.84005],[-41.51299,-17.84025],[-41.51321,-17.84049],[-41.5134,-17.84102],[-41.51344,-17.84133],[-41.51341,-17.84156],[-41.51351,-17.84178],[-41.51351,-17.84196],[-41.51356,-17.84214],[-41.51367,-17.84231],[-41.51384,-17.84264],[-41.51393,-17.8431],[-41.51399,-17.8432],[-41.51421,-17.84332],[-41.51429,-17.84344],[-41.51434,-17.84353],[-41.51437,-17.84366],[-41.51442,-17.84393],[-41.51442,-17.84416],[-41.51437,-17.84435],[-41.51417,-17.84474],[-41.51412,-17.84489],[-41.51407,-17.84511],[-41.51408,-17.84523],[-41.51414,-17.84526],[-41.51419,-17.84536],[-41.5143,-17.84542],[-41.51444,-17.84541],[-41.51475,-17.84546],[-41.51486,-17.84557],[-41.51496,-17.84569],[-41.51502,-17.84586],[-41.51504,-17.84609],[-41.51504,-17.84628],[-41.51493,-17.8476],[-41.51472,-17.84826],[-41.51473,-17.84831],[-41.51469,-17.84844],[-41.5147,-17.84879],[-41.51478,-17.84897],[-41.51485,-17.84918],[-41.51476,-17.84937],[-41.51426,-17.84988],[-41.51416,-17.85007],[-41.51406,-17.85033],[-41.51387,-17.85061],[-41.51358,-17.85075],[-41.51326,-17.85084],[-41.513,-17.85095],[-41.51282,-17.85117],[-41.51273,-17.8519],[-41.51273,-17.85192]]]]}},{"type":"Feature","properties":{"territory_id":"mg-3168606-lajinha","name":"Lajinha","municipality_id":"mg-3168606","polling_places":1,"approx":true,"official":false,"method":"voronoi-polling-places","whole_municipality":false,"approx_coords_only":false},"geometry":{"type":"MultiPolygon","coordinates":[[[[-41.64976,-17.94206],[-41.6441,-17.9524],[-41.593,-17.9709],[-41.5928,-18.008],[-41.5709,-18.019],[-41.5405,-18.008],[-41.5039,-18.0374],[-41.49769,-18.03295],[-41.52326,-17.9467],[-41.61685,-17.92606],[-41.64976,-17.94206]]]]}},{"type":"Feature","properties":{"territory_id":"mg-3168606-manoel-pimenta","name":"Manoel Pimenta","municipality_id":"mg-3168606","polling_places":1,"approx":false,"official":true,"method":"official-ibge-cd2022","whole_municipality":false,"approx_coords_only":false,"official_name":"Manoel Pimenta","official_code":"3168606017","match":"direct"},"geometry":{"type":"MultiPolygon","coordinates":[[[[-41.49769,-17.87239],[-41.49753,-17.87286],[-41.49746,-17.87328],[-41.49728,-17.87355],[-41.49723,-17.87369],[-41.4972,-17.87383],[-41.49719,-17.87397],[-41.49721,-17.87419],[-41.49734,-17.87436],[-41.49756,-17.8748],[-41.49766,-17.87495],[-41.4978,-17.87508],[-41.49799,-17.8752],[-41.49809,-17.87554],[-41.49872,-17.87536],[-41.49886,-17.87538],[-41.49901,-17.87547],[-41.49947,-17.87617],[-41.49952,-17.87618],[-41.49971,-17.87613],[-41.49978,-17.87609],[-41.49978,-17.87601],[-41.4997,-17.8758],[-41.49959,-17.87562],[-41.49897,-17.87506],[-41.49824,-17.87477],[-41.4982,-17.87468],[-41.49823,-17.87445],[-41.49831,-17.87431],[-41.49886,-17.87456],[-41.49975,-17.87407],[-41.49984,-17.87404],[-41.50016,-17.8752],[-41.50061,-17.87575],[-41.5006,-17.87584],[-41.50063,-17.87598],[-41.50063,-17.87614],[-41.50067,-17.87663],[-41.5003,-17.87692],[-41.50043,-17.877],[-41.50016,-17.87723],[-41.50011,-17.8775],[-41.50013,-17.87754],[-41.50032,-17.87762],[-41.50097,-17.87781],[-41.50327,-17.87819],[-41.50329,-17.87779],[-41.50316,-17.87674],[-41.50316,-17.87665],[-41.50327,-17.87644],[-41.50366,-17.87583],[-41.50399,-17.87491],[-41.50443,-17.87382],[-41.50454,-17.8728],[-41.50465,-17.8715],[-41.50505,-17.87105],[-41.50518,-17.87089],[-41.50542,-17.87049],[-41.50377,-17.87041],[-41.50338,-17.87035],[-41.50324,-17.87021],[-41.50285,-17.86951],[-41.50252,-17.86953],[-41.50235,-17.86911],[-41.5023,-17.86888],[-41.50197,-17.86878],[-41.50172,-17.86927],[-41.50162,-17.86941],[-41.50143,-17.86957],[-41.50127,-17.86964],[-41.49937,-17.8697],[-41.49807,-17.86946],[-41.49811,-17.86967],[-41.49836,-17.87005],[-41.49818,-17.87034],[-41.49812,-17.8707],[-41.49792,-17.87097],[-41.49792,-17.87112],[-41.49778,-17.87164],[-41.49776,-17.87178],[-41.49743,-17.8719],[-41.49774,-17.87226],[-41.49769,-17.87239]]]]}},{"type":"Feature","properties":{"territory_id":"mg-3168606-marajoara","name":"Marajoara","municipality_id":"mg-3168606","polling_places":1,"approx":false,"official":true,"method":"official-ibge-cd2022","whole_municipality":false,"approx_coords_only":false,"official_name":"Marajoara","official_code":"3168606025","match":"direct"},"geometry":{"type":"MultiPolygon","coordinates":[[[[-41.51069,-17.87449],[-41.51134,-17.87449],[-41.51145,-17.87373],[-41.51146,-17.87348],[-41.51186,-17.87245],[-41.51198,-17.87225],[-41.51254,-17.87084],[-41.51265,-17.87067],[-41.51268,-17.87056],[-41.51276,-17.86972],[-41.51282,-17.8697],[-41.51253,-17.86877],[-41.51246,-17.86867],[-41.5124,-17.86862],[-41.51197,-17.86835],[-41.51192,-17.86829],[-41.51064,-17.86854],[-41.50878,-17.86896],[-41.50698,-17.86926],[-41.50671,-17.86946],[-41.50665,-17.86958],[-41.50669,-17.87064],[-41.50681,-17.87087],[-41.50683,-17.87106],[-41.50684,-17.87123],[-41.50678,-17.87156],[-41.50706,-17.87165],[-41.50708,-17.87167],[-41.50709,-17.8717],[-41.50691,-17.87231],[-41.50703,-17.87263],[-41.50729,-17.87321],[-41.50736,-17.87332],[-41.50748,-17.87339],[-41.50745,-17.87368],[-41.50742,-17.87462],[-41.50793,-17.87461],[-41.51022,-17.87449],[-41.51069,-17.87449]]]]}},{"type":"Feature","properties":{"territory_id":"mg-3168606-maravilha","name":"Maravilha","municipality_id":"mg-3168606","polling_places":1,"approx":true,"official":false,"method":"voronoi-polling-places","whole_municipality":false,"approx_coords_only":false},"geometry":{"type":"MultiPolygon","coordinates":[[[[-41.18019,-17.61502],[-41.14641,-17.6484],[-41.1412,-17.6492],[-41.0866,-17.6037],[-41.0472,-17.6041],[-41.0606,-17.5685],[-41.098,-17.5602],[-41.1311,-17.5307],[-41.15738,-17.53813],[-41.18019,-17.61502]]]]}},{"type":"Feature","properties":{"territory_id":"mg-3168606-olga-prates-correia","name":"Olga Prates Correia","municipality_id":"mg-3168606","polling_places":1,"approx":true,"official":false,"method":"voronoi-polling-places","whole_municipality":false,"approx_coords_only":false},"geometry":{"type":"MultiPolygon","coordinates":[[[[-41.56681,-17.87374],[-41.52185,-17.89344],[-41.51361,-17.88306],[-41.51547,-17.87881],[-41.51629,-17.87542],[-41.51629,-17.87496],[-41.51609,-17.87488],[-41.51594,-17.87479],[-41.51425,-17.87448],[-41.51308,-17.87431],[-41.5127,-17.87428],[-41.51272,-17.87383],[-41.51145,-17.87373],[-41.51146,-17.87348],[-41.51186,-17.87245],[-41.51198,-17.87225],[-41.51254,-17.87084],[-41.51265,-17.87067],[-41.51268,-17.87056],[-41.51276,-17.86972],[-41.51282,-17.8697],[-41.51253,-17.86877],[-41.51246,-17.86867],[-41.5124,-17.86862],[-41.51197,-17.86835],[-41.51192,-17.86829],[-41.51189,-17.86791],[-41.51268,-17.86769],[-41.51267,-17.86703],[-41.51254,-17.86687],[-41.51242,-17.86679],[-41.51227,-17.86675],[-41.51154,-17.86672],[-41.51156,-17.86637],[-41.51159,-17.86628],[-41.51187,-17.86601],[-41.51208,-17.86566],[-41.51215,-17.86538],[-41.5122,-17.86528],[-41.51255,-17.86491],[-41.51264,-17.86478],[-41.51268,-17.86468],[-41.51187,-17.86448],[-41.51171,-17.86489],[-41.51161,-17.86543],[-41.51156,-17.8655],[-41.51126,-17.86546],[-41.51132,-17.86512],[-41.51116,-17.86515],[-41.51012,-17.865],[-41.51001,-17.86492],[-41.50983,-17.86472],[-41.50983,-17.86443],[-41.50996,-17.86397],[-41.51007,-17.86336],[-41.5104,-17.86262],[-41.5105,-17.86225],[-41.51052,-17.86224],[-41.51059,-17.86227],[-41.51069,-17.86234],[-41.51094,-17.86247],[-41.511,-17.86242],[-41.51153,-17.86212],[-41.51162,-17.86232],[-41.51168,-17.86217],[-41.51187,-17.861],[-41.51459,-17.86117],[-41.51496,-17.86122],[-41.51499,-17.8609],[-41.51503,-17.86062],[-41.51516,-17.8601],[-41.51491,-17.86008],[-41.51493,-17.85966],[-41.51489,-17.85956],[-41.51488,-17.85916],[-41.5148,-17.85842],[-41.51475,-17.85838],[-41.51455,-17.85828],[-41.51449,-17.85824],[-41.51431,-17.85805],[-41.51425,-17.8579],[-41.51425,-17.85779],[-41.51427,-17.85775],[-41.51426,-17.85773],[-41.5143,-17.85757],[-41.51446,-17.85731],[-41.51447,-17.85709],[-41.51442,-17.85696],[-41.51417,-17.85669],[-41.51413,-17.85657],[-41.51394,-17.85632],[-41.51363,-17.85605],[-41.5136,-17.85596],[-41.5136,-17.85579],[-41.51368,-17.85568],[-41.5137,-17.85548],[-41.5138,-17.85527],[-41.51389,-17.85521],[-41.51399,-17.85518],[-41.51405,-17.85507],[-41.514,-17.85497],[-41.51385,-17.8548],[-41.51328,-17.85446],[-41.51298,-17.85424],[-41.51327,-17.85444],[-41.51315,-17.85418],[-41.51353,-17.85355],[-41.5143,-17.85357],[-41.51439,-17.85323],[-41.51447,-17.85326],[-41.51446,-17.85334],[-41.51448,-17.8534],[-41.51458,-17.85354],[-41.51485,-17.85383],[-41.51496,-17.85399],[-41.51504,-17.85423],[-41.51504,-17.85432],[-41.51494,-17.85474],[-41.51486,-17.85491],[-41.51482,-17.85513],[-41.51488,-17.85537],[-41.5162,-17.85511],[-41.51679,-17.85489],[-41.51712,-17.85474],[-41.51728,-17.85469],[-41.5176,-17.85461],[-41.51835,-17.85432],[-41.51822,-17.85401],[-41.51827,-17.85366],[-41.52057,-17.85401],[-41.52081,-17.85402],[-41.52134,-17.8538],[-41.52204,-17.85359],[-41.5224,-17.85368],[-41.52291,-17.85352],[-41.52394,-17.85341],[-41.52482,-17.85228],[-41.52551,-17.85102],[-41.52642,-17.85031],[-41.52615,-17.84801],[-41.52848,-17.84688],[-41.52819,-17.84652],[-41.52918,-17.84552],[-41.52894,-17.84508],[-41.52826,-17.84389],[-41.52843,-17.84358],[-41.52831,-17.84334],[-41.52787,-17.84273],[-41.52791,-17.84264],[-41.52721,-17.84254],[-41.52658,-17.84231],[-41.52565,-17.84191],[-41.52546,-17.84172],[-41.52529,-17.8413],[-41.52527,-17.8411],[-41.52528,-17.8408],[-41.52526,-17.84073],[-41.52519,-17.84009],[-41.52497,-17.83943],[-41.52464,-17.83904],[-41.52432,-17.83872],[-41.52367,-17.83799],[-41.52266,-17.83691],[-41.52215,-17.83665],[-41.52189,-17.8366],[-41.52155,-17.83659],[-41.52075,-17.83663],[-41.5211,-17.83551],[-41.5199,-17.83503],[-41.51902,-17.8346],[-41.51836,-17.83418],[-41.51739,-17.83369],[-41.51627,-17.8335],[-41.51546,-17.83246],[-41.51377,-17.8295],[-41.5099,-17.83006],[-41.50814,-17.8273],[-41.50834,-17.82415],[-41.50579,-17.82079],[-41.50436,-17.82154],[-41.50265,-17.82219],[-41.50586,-17.82563],[-41.50698,-17.82681],[-41.50758,-17.82746],[-41.50713,-17.82812],[-41.50667,-17.82884],[-41.50647,-17.82934],[-41.50635,-17.82957],[-41.50633,-17.82976],[-41.50642,-17.83043],[-41.50647,-17.83095],[-41.50647,-17.83125],[-41.50636,-17.8317],[-41.50637,-17.83179],[-41.50633,-17.83196],[-41.50633,-17.83212],[-41.50639,-17.83239],[-41.50664,-17.8329],[-41.50666,-17.8331],[-41.50665,-17.83331],[-41.50669,-17.83344],[-41.50714,-17.83418],[-41.50715,-17.83425],[-41.5068,-17.83438],[-41.50637,-17.83483],[-41.50604,-17.83662],[-41.50603,-17.83771],[-41.50498,-17.83765],[-41.50371,-17.83712],[-41.50153,-17.83652],[-41.5006,-17.83593],[-41.50041,-17.8374],[-41.50063,-17.83853],[-41.50122,-17.83929],[-41.50113,-17.84198],[-41.50098,-17.84246],[-41.50103,-17.84276],[-41.50138,-17.84395],[-41.50156,-17.84436],[-41.50168,-17.84457],[-41.5019,-17.84477],[-41.50269,-17.84529],[-41.50301,-17.84524],[-41.50375,-17.8453],[-41.50364,-17.84573],[-41.5037,-17.84606],[-41.50391,-17.84629],[-41.50408,-17.84632],[-41.50414,-17.84637],[-41.50441,-17.84679],[-41.50453,-17.84708],[-41.50457,-17.84727],[-41.50453,-17.84741],[-41.50448,-17.84767],[-41.50449,-17.8478],[-41.50457,-17.84785],[-41.50493,-17.84791],[-41.50598,-17.84814],[-41.50636,-17.84815],[-41.50665,-17.84821],[-41.50691,-17.84842],[-41.50699,-17.84845],[-41.50854,-17.84845],[-41.50858,-17.84841],[-41.50862,-17.84842],[-41.50864,-17.84923],[-41.50858,-17.85024],[-41.50732,-17.85021],[-41.50724,-17.85067],[-41.50724,-17.85195],[-41.50542,-17.85195],[-41.50405,-17.85195],[-41.50285,-17.85201],[-41.50049,-17.85221],[-41.50018,-17.85219],[-41.49999,-17.85217],[-41.49975,-17.85212],[-41.49952,-17.85204],[-41.49907,-17.85185],[-41.49892,-17.85176],[-41.49877,-17.85166],[-41.49805,-17.85123],[-41.49625,-17.85005],[-41.49606,-17.84991],[-41.49525,-17.84912],[-41.49521,-17.84908],[-41.49518,-17.84894],[-41.49483,-17.84867],[-41.49447,-17.84846],[-41.49407,-17.84866],[-41.49293,-17.84884],[-41.49209,-17.84864],[-41.49158,-17.84846],[-41.4902,-17.84813],[-41.49041,-17.84862],[-41.49068,-17.8491],[-41.49099,-17.8496],[-41.49112,-17.84975],[-41.49097,-17.84993],[-41.49023,-17.84989],[-41.49012,-17.8499],[-41.48999,-17.84995],[-41.48991,-17.85005],[-41.48916,-17.85106],[-41.4887,-17.8517],[-41.48647,-17.8489],[-41.48425,-17.80531],[-41.48746,-17.80035],[-41.53576,-17.78502],[-41.56681,-17.87374]],[[-41.51496,-17.86122],[-41.51494,-17.86155],[-41.51489,-17.86182],[-41.51488,-17.86202],[-41.5149,-17.86259],[-41.51497,-17.86299],[-41.51508,-17.86327],[-41.51517,-17.86343],[-41.51534,-17.86373],[-41.51572,-17.86428],[-41.51579,-17.86441],[-41.51586,-17.86461],[-41.51597,-17.86476],[-41.5163,-17.86541],[-41.51638,-17.86567],[-41.51641,-17.86598],[-41.51663,-17.86644],[-41.51688,-17.86716],[-41.51715,-17.86709],[-41.51735,-17.86701],[-41.51749,-17.86694],[-41.51783,-17.86665],[-41.51792,-17.86653],[-41.51801,-17.86637],[-41.5183,-17.86545],[-41.51847,-17.86518],[-41.51867,-17.86495],[-41.51881,-17.86484],[-41.51968,-17.86425],[-41.52005,-17.86405],[-41.52013,-17.86402],[-41.52028,-17.86399],[-41.52053,-17.86396],[-41.5209,-17.86399],[-41.52117,-17.86406],[-41.52178,-17.86429],[-41.52279,-17.86449],[-41.52299,-17.86456],[-41.52358,-17.86498],[-41.52381,-17.8651],[-41.52411,-17.86519],[-41.52426,-17.86522],[-41.52512,-17.8653],[-41.52524,-17.86529],[-41.52562,-17.86514],[-41.52598,-17.86491],[-41.5265,-17.86444],[-41.52661,-17.86437],[-41.52687,-17.86425],[-41.52706,-17.86422],[-41.52746,-17.86418],[-41.52783,-17.86424],[-41.52856,-17.8642],[-41.52873,-17.86413],[-41.52905,-17.86388],[-41.5292,-17.86372],[-41.52935,-17.86345],[-41.52948,-17.86284],[-41.52964,-17.8624],[-41.52986,-17.86217],[-41.53018,-17.86192],[-41.53079,-17.86161],[-41.53093,-17.86153],[-41.53107,-17.86142],[-41.53126,-17.86121],[-41.5315,-17.86088],[-41.53156,-17.86058],[-41.53154,-17.86023],[-41.53148,-17.85999],[-41.53126,-17.85955],[-41.53092,-17.85929],[-41.53039,-17.85897],[-41.53011,-17.85868],[-41.53,-17.85851],[-41.52988,-17.85824],[-41.52984,-17.85786],[-41.52993,-17.8574],[-41.53004,-17.85717],[-41.53068,-17.8565],[-41.5308,-17.85635],[-41.53102,-17.85613],[-41.53123,-17.85596],[-41.53126,-17.8556],[-41.5311,-17.85535],[-41.53097,-17.85541],[-41.53084,-17.85551],[-41.53072,-17.85615],[-41.53044,-17.85603],[-41.53035,-17.85603],[-41.5303,-17.85606],[-41.53027,-17.85614],[-41.53019,-17.85649],[-41.5301,-17.85676],[-41.52997,-17.85695],[-41.5298,-17.85714],[-41.52944,-17.85737],[-41.52925,-17.85763],[-41.52923,-17.85773],[-41.52941,-17.85822],[-41.52965,-17.85873],[-41.52972,-17.85905],[-41.52992,-17.85941],[-41.53026,-17.85981],[-41.53052,-17.86032],[-41.53074,-17.86103],[-41.53039,-17.86117],[-41.53016,-17.86124],[-41.52892,-17.86153],[-41.52879,-17.8628],[-41.52881,-17.863],[-41.52879,-17.86312],[-41.52865,-17.86324],[-41.52824,-17.86343],[-41.52787,-17.86343],[-41.52717,-17.86318],[-41.52621,-17.86267],[-41.52526,-17.86204],[-41.52441,-17.86131],[-41.5239,-17.85965],[-41.52352,-17.8587],[-41.52296,-17.85866],[-41.52331,-17.86023],[-41.52328,-17.86038],[-41.52324,-17.8605],[-41.52318,-17.86055],[-41.52315,-17.86062],[-41.52295,-17.86085],[-41.52288,-17.8609],[-41.52259,-17.86098],[-41.52247,-17.86105],[-41.52225,-17.86124],[-41.52199,-17.86112],[-41.5217,-17.86104],[-41.52114,-17.86094],[-41.52084,-17.86184],[-41.52068,-17.86193],[-41.51995,-17.86203],[-41.5197,-17.86183],[-41.51924,-17.86177],[-41.5187,-17.86201],[-41.51825,-17.8623],[-41.51798,-17.8624],[-41.51775,-17.86245],[-41.51746,-17.86249],[-41.51716,-17.86249],[-41.517,-17.86245],[-41.51652,-17.86242],[-41.51628,-17.86248],[-41.51626,-17.86247],[-41.51625,-17.86219],[-41.51645,-17.86199],[-41.51652,-17.86189],[-41.51635,-17.86188],[-41.51632,-17.8618],[-41.51622,-17.86171],[-41.51594,-17.86162],[-41.51587,-17.86153],[-41.5158,-17.86131],[-41.51578,-17.86121],[-41.5151,-17.86118],[-41.51496,-17.86122]],[[-41.53649,-17.8708],[-41.53495,-17.86835],[-41.53271,-17.87035],[-41.53224,-17.87066],[-41.53188,-17.87086],[-41.53141,-17.87096],[-41.53082,-17.87098],[-41.53023,-17.87053],[-41.52951,-17.86948],[-41.52906,-17.86933],[-41.52858,-17.86935],[-41.52831,-17.86954],[-41.52823,-17.86954],[-41.52781,-17.8697],[-41.52756,-17.86972],[-41.52676,-17.86958],[-41.5255,-17.86857],[-41.52536,-17.86848],[-41.52526,-17.86848],[-41.52512,-17.8682],[-41.5249,-17.86817],[-41.52482,-17.8681],[-41.52476,-17.868],[-41.52473,-17.86785],[-41.52473,-17.8677],[-41.52487,-17.86755],[-41.52502,-17.86749],[-41.5252,-17.86747],[-41.52527,-17.86736],[-41.52527,-17.86722],[-41.52506,-17.867],[-41.52497,-17.86699],[-41.52493,-17.86685],[-41.52491,-17.86665],[-41.52487,-17.86657],[-41.52478,-17.86649],[-41.52468,-17.86647],[-41.52392,-17.86658],[-41.5238,-17.86655],[-41.52367,-17.86659],[-41.52354,-17.86657],[-41.52339,-17.8666],[-41.52328,-17.86658],[-41.523,-17.8666],[-41.52275,-17.86655],[-41.52228,-17.86644],[-41.52203,-17.86616],[-41.52196,-17.86603],[-41.52187,-17.86593],[-41.52179,-17.86592],[-41.52173,-17.86587],[-41.52158,-17.86584],[-41.52058,-17.86588],[-41.52025,-17.86595],[-41.51894,-17.8664],[-41.51863,-17.86658],[-41.51832,-17.86682],[-41.51777,-17.86716],[-41.51749,-17.86728],[-41.51717,-17.86739],[-41.51701,-17.86751],[-41.51711,-17.86793],[-41.51732,-17.86871],[-41.51776,-17.86855],[-41.51815,-17.86941],[-41.52006,-17.87002],[-41.52167,-17.86992],[-41.52225,-17.86998],[-41.52275,-17.87061],[-41.52337,-17.87094],[-41.52394,-17.87136],[-41.52528,-17.87209],[-41.52672,-17.87282],[-41.52768,-17.87328],[-41.52858,-17.8736],[-41.52982,-17.874],[-41.53075,-17.87437],[-41.53207,-17.87461],[-41.53236,-17.87472],[-41.53315,-17.87357],[-41.53397,-17.87282],[-41.53456,-17.87231],[-41.53511,-17.87179],[-41.53561,-17.87148],[-41.53649,-17.8708]]],[[[-41.51465,-17.85852],[-41.51455,-17.8584],[-41.51462,-17.85847],[-41.51465,-17.85852]]],[[[-41.51434,-17.84353],[-41.51421,-17.84332],[-41.51429,-17.84344],[-41.51434,-17.84353]]],[[[-41.51358,-17.88232],[-41.51351,-17.88256],[-41.51339,-17.88279],[-41.51137,-17.88025],[-41.5115,-17.88026],[-41.51182,-17.88034],[-41.51186,-17.88038],[-41.5124,-17.88042],[-41.5133,-17.8816],[-41.51344,-17.88181],[-41.51352,-17.88196],[-41.51356,-17.88209],[-41.51358,-17.88232]]],[[[-41.51273,-17.85192],[-41.50924,-17.85191],[-41.51165,-17.85192],[-41.51273,-17.85192]]],[[[-41.50879,-17.85734],[-41.50871,-17.85846],[-41.50872,-17.85822],[-41.50879,-17.85734]]],[[[-41.50815,-17.86907],[-41.50698,-17.86926],[-41.50783,-17.86911],[-41.50787,-17.8691],[-41.50815,-17.86907]]],[[[-41.50684,-17.87123],[-41.50678,-17.87156],[-41.5064,-17.873],[-41.50621,-17.87375],[-41.50463,-17.87176],[-41.50465,-17.8715],[-41.50505,-17.87105],[-41.50518,-17.87089],[-41.50542,-17.87049],[-41.50597,-17.87057],[-41.50633,-17.87059],[-41.50669,-17.87064],[-41.50681,-17.87087],[-41.50683,-17.87106],[-41.50684,-17.87123]]],[[[-41.5068,-17.85832],[-41.50671,-17.85956],[-41.50658,-17.85955],[-41.50646,-17.86068],[-41.50633,-17.86209],[-41.50587,-17.86208],[-41.50548,-17.8622],[-41.50504,-17.86231],[-41.50479,-17.86214],[-41.50465,-17.86194],[-41.50469,-17.86179],[-41.50513,-17.86179],[-41.5052,-17.86111],[-41.50523,-17.86059],[-41.50386,-17.86047],[-41.50375,-17.86171],[-41.50366,-17.86183],[-41.50347,-17.86197],[-41.5031,-17.86199],[-41.50237,-17.86195],[-41.50151,-17.86182],[-41.5021,-17.86036],[-41.50239,-17.85987],[-41.50157,-17.85972],[-41.50138,-17.86026],[-41.50106,-17.86095],[-41.501,-17.86118],[-41.50092,-17.86164],[-41.50052,-17.86159],[-41.50004,-17.86148],[-41.50003,-17.86178],[-41.50011,-17.86237],[-41.50013,-17.86274],[-41.4998,-17.86239],[-41.49908,-17.86142],[-41.49903,-17.86132],[-41.49873,-17.86126],[-41.49851,-17.86119],[-41.49841,-17.86105],[-41.49837,-17.86084],[-41.49842,-17.86022],[-41.49874,-17.858],[-41.49973,-17.85809],[-41.49986,-17.85814],[-41.49995,-17.85821],[-41.50014,-17.85839],[-41.50007,-17.85802],[-41.49993,-17.85776],[-41.49981,-17.85764],[-41.49964,-17.85754],[-41.49946,-17.85747],[-41.49899,-17.85744],[-41.49858,-17.85752],[-41.49843,-17.85764],[-41.49826,-17.85784],[-41.49795,-17.85792],[-41.49761,-17.85805],[-41.49728,-17.85797],[-41.49707,-17.85786],[-41.49677,-17.8578],[-41.49708,-17.85759],[-41.49757,-17.85753],[-41.49763,-17.85748],[-41.49766,-17.85741],[-41.49768,-17.85686],[-41.49784,-17.85689],[-41.49796,-17.85685],[-41.49815,-17.85673],[-41.49822,-17.85664],[-41.49824,-17.85656],[-41.49888,-17.8566],[-41.49925,-17.8566],[-41.49995,-17.85648],[-41.50054,-17.85658],[-41.50083,-17.85667],[-41.50099,-17.85675],[-41.50114,-17.85685],[-41.50128,-17.85697],[-41.50192,-17.85631],[-41.50202,-17.85634],[-41.50208,-17.85631],[-41.50176,-17.8555],[-41.50242,-17.85528],[-41.50267,-17.85524],[-41.50293,-17.8557],[-41.50325,-17.85615],[-41.50335,-17.85627],[-41.5036,-17.85651],[-41.50399,-17.85669],[-41.50409,-17.85671],[-41.50427,-17.85672],[-41.50548,-17.85653],[-41.50598,-17.85651],[-41.50587,-17.85825],[-41.5068,-17.85832]]],[[[-41.49493,-17.85786],[-41.49462,-17.85916],[-41.4934,-17.85763],[-41.49439,-17.85775],[-41.49493,-17.85786]]],[[[-41.49266,-17.85669],[-41.4914,-17.85511],[-41.49174,-17.85469],[-41.49192,-17.85444],[-41.4925,-17.85433],[-41.49262,-17.85624],[-41.49266,-17.85669]]]]}},{"type":"Feature","properties":{"territory_id":"mg-3168606-potonzinho","name":"Potonzinho","municipality_id":"mg-3168606","polling_places":1,"approx":true,"official":false,"method":"voronoi-polling-places","whole_municipality":false,"approx_coords_only":false},"geometry":{"type":"MultiPolygon","coordinates":[[[[-41.49444,-17.93373],[-41.45938,-17.95217],[-41.43215,-17.91687],[-41.43464,-17.90616],[-41.47717,-17.89695],[-41.49444,-17.93373]]]]}},{"type":"Feature","properties":{"territory_id":"mg-3168606-sao-cristovao","name":"São Cristóvão","municipality_id":"mg-3168606","polling_places":1,"approx":false,"official":true,"method":"official-ibge-cd2022","whole_municipality":false,"approx_coords_only":false,"official_name":"São Cristóvão","official_code":"3168606033","match":"direct"},"geometry":{"type":"MultiPolygon","coordinates":[[[[-41.50758,-17.82746],[-41.50713,-17.82812],[-41.50667,-17.82884],[-41.50728,-17.82941],[-41.50763,-17.82968],[-41.5078,-17.82999],[-41.50782,-17.8301],[-41.50884,-17.82998],[-41.50877,-17.83033],[-41.50876,-17.83079],[-41.50861,-17.83083],[-41.50851,-17.83092],[-41.50848,-17.83106],[-41.5086,-17.83149],[-41.50867,-17.83165],[-41.50896,-17.83185],[-41.50909,-17.83199],[-41.50922,-17.83215],[-41.50919,-17.83226],[-41.50889,-17.83228],[-41.50872,-17.83258],[-41.50902,-17.83312],[-41.50928,-17.83323],[-41.50927,-17.83344],[-41.50929,-17.8336],[-41.50941,-17.83381],[-41.50977,-17.83384],[-41.5101,-17.83385],[-41.51026,-17.83401],[-41.51036,-17.8343],[-41.51036,-17.83453],[-41.51042,-17.83473],[-41.51074,-17.83512],[-41.51094,-17.83551],[-41.51093,-17.83572],[-41.51082,-17.83596],[-41.51074,-17.83622],[-41.51056,-17.83636],[-41.51044,-17.83651],[-41.51042,-17.83663],[-41.51043,-17.83679],[-41.51052,-17.83696],[-41.51052,-17.83713],[-41.51045,-17.83729],[-41.51036,-17.83743],[-41.51035,-17.83757],[-41.51034,-17.83779],[-41.51035,-17.8381],[-41.51032,-17.83833],[-41.51036,-17.83841],[-41.51041,-17.83862],[-41.51043,-17.83879],[-41.51041,-17.83897],[-41.51036,-17.83915],[-41.51039,-17.83934],[-41.51069,-17.83942],[-41.51082,-17.83952],[-41.51097,-17.83966],[-41.51098,-17.83982],[-41.51116,-17.83984],[-41.51131,-17.83972],[-41.51154,-17.83977],[-41.5119,-17.83954],[-41.51221,-17.83954],[-41.51241,-17.83958],[-41.51255,-17.83964],[-41.51261,-17.83976],[-41.51263,-17.83988],[-41.5127,-17.83995],[-41.51276,-17.84008],[-41.51287,-17.84018],[-41.51299,-17.84025],[-41.5133,-17.84005],[-41.51323,-17.83984],[-41.51337,-17.83979],[-41.51397,-17.84129],[-41.51408,-17.84126],[-41.51421,-17.84078],[-41.51428,-17.84034],[-41.51689,-17.84027],[-41.51692,-17.84127],[-41.51714,-17.8413],[-41.51738,-17.84122],[-41.5177,-17.84104],[-41.51799,-17.84106],[-41.51863,-17.84155],[-41.51895,-17.84193],[-41.51984,-17.8424],[-41.51971,-17.84289],[-41.51975,-17.84313],[-41.51995,-17.84328],[-41.52008,-17.84305],[-41.52013,-17.8429],[-41.52032,-17.84249],[-41.52032,-17.84279],[-41.52041,-17.84302],[-41.52081,-17.84344],[-41.52075,-17.84364],[-41.52051,-17.84375],[-41.52008,-17.84375],[-41.51972,-17.84388],[-41.51948,-17.84402],[-41.51932,-17.84414],[-41.51927,-17.84424],[-41.51926,-17.84433],[-41.51989,-17.84439],[-41.51998,-17.84505],[-41.52021,-17.84507],[-41.52049,-17.84517],[-41.5206,-17.84531],[-41.52078,-17.84543],[-41.52105,-17.84555],[-41.52136,-17.84595],[-41.52198,-17.84653],[-41.52347,-17.84597],[-41.52423,-17.84517],[-41.52615,-17.84801],[-41.52848,-17.84688],[-41.52819,-17.84652],[-41.52918,-17.84552],[-41.52894,-17.84508],[-41.52826,-17.84389],[-41.52843,-17.84358],[-41.52831,-17.84334],[-41.52787,-17.84273],[-41.52791,-17.84264],[-41.52721,-17.84254],[-41.52658,-17.84231],[-41.52565,-17.84191],[-41.52546,-17.84172],[-41.52529,-17.8413],[-41.52527,-17.8411],[-41.52528,-17.8408],[-41.52526,-17.84073],[-41.52519,-17.84009],[-41.52497,-17.83943],[-41.52464,-17.83904],[-41.52432,-17.83872],[-41.52367,-17.83799],[-41.52266,-17.83691],[-41.52215,-17.83665],[-41.52189,-17.8366],[-41.52155,-17.83659],[-41.52075,-17.83663],[-41.5211,-17.83551],[-41.5199,-17.83503],[-41.51902,-17.8346],[-41.51836,-17.83418],[-41.51739,-17.83369],[-41.51627,-17.8335],[-41.51546,-17.83246],[-41.51377,-17.8295],[-41.5099,-17.83006],[-41.50814,-17.8273],[-41.50834,-17.82415],[-41.50579,-17.82079],[-41.50436,-17.82154],[-41.50265,-17.82219],[-41.50586,-17.82563],[-41.50698,-17.82681],[-41.50758,-17.82746]]]]}},{"type":"Feature","properties":{"territory_id":"mg-3168606-sao-jacinto","name":"São Jacinto","municipality_id":"mg-3168606","polling_places":3,"approx":false,"official":true,"method":"official-ibge-cd2022","whole_municipality":false,"approx_coords_only":false,"official_name":"São Jacinto","official_code":"3168606039","match":"direct"},"geometry":{"type":"MultiPolygon","coordinates":[[[[-41.49521,-17.84908],[-41.49518,-17.84894],[-41.49483,-17.84867],[-41.49447,-17.84846],[-41.49407,-17.84866],[-41.49293,-17.84884],[-41.49209,-17.84864],[-41.49158,-17.84846],[-41.4902,-17.84813],[-41.49041,-17.84862],[-41.49068,-17.8491],[-41.49099,-17.8496],[-41.49112,-17.84975],[-41.49097,-17.84993],[-41.49023,-17.84989],[-41.49012,-17.8499],[-41.48999,-17.84995],[-41.48991,-17.85005],[-41.48916,-17.85106],[-41.48841,-17.85209],[-41.48834,-17.85216],[-41.48821,-17.85228],[-41.487,-17.85299],[-41.48566,-17.85389],[-41.48406,-17.855],[-41.4839,-17.85534],[-41.48385,-17.85548],[-41.48376,-17.8556],[-41.48321,-17.8561],[-41.48308,-17.85629],[-41.48304,-17.85637],[-41.48282,-17.85697],[-41.48282,-17.85704],[-41.48281,-17.85713],[-41.48289,-17.85747],[-41.48294,-17.85754],[-41.48301,-17.85776],[-41.48341,-17.85695],[-41.48364,-17.85661],[-41.48393,-17.85629],[-41.48465,-17.8558],[-41.48536,-17.85586],[-41.48561,-17.85561],[-41.48606,-17.85529],[-41.48755,-17.85435],[-41.48786,-17.85407],[-41.48793,-17.85424],[-41.48848,-17.85426],[-41.48955,-17.85435],[-41.48957,-17.85462],[-41.48966,-17.85499],[-41.48973,-17.85492],[-41.49006,-17.8544],[-41.49028,-17.85483],[-41.4905,-17.85516],[-41.49062,-17.8551],[-41.49093,-17.85475],[-41.49099,-17.85541],[-41.49108,-17.85551],[-41.49174,-17.85469],[-41.49192,-17.85444],[-41.4925,-17.85433],[-41.49262,-17.85624],[-41.49269,-17.85703],[-41.49272,-17.85762],[-41.49324,-17.8576],[-41.49439,-17.85775],[-41.49494,-17.85786],[-41.49504,-17.85742],[-41.49524,-17.8579],[-41.49594,-17.8578],[-41.49677,-17.8578],[-41.49708,-17.85759],[-41.49757,-17.85753],[-41.49763,-17.85748],[-41.49766,-17.85741],[-41.49768,-17.85686],[-41.49784,-17.85689],[-41.49796,-17.85685],[-41.49815,-17.85673],[-41.49822,-17.85664],[-41.49824,-17.85656],[-41.49808,-17.85662],[-41.49794,-17.85663],[-41.49779,-17.85658],[-41.49729,-17.85604],[-41.49691,-17.85551],[-41.49598,-17.85379],[-41.49594,-17.85351],[-41.49599,-17.85322],[-41.49603,-17.85309],[-41.49617,-17.85311],[-41.497,-17.85297],[-41.49749,-17.85292],[-41.4981,-17.85304],[-41.49854,-17.8531],[-41.49962,-17.85313],[-41.49991,-17.85309],[-41.5001,-17.853],[-41.50028,-17.85288],[-41.50041,-17.85283],[-41.50072,-17.85274],[-41.50096,-17.85272],[-41.5014,-17.85271],[-41.50226,-17.85265],[-41.50285,-17.85201],[-41.50049,-17.85221],[-41.50018,-17.85219],[-41.49999,-17.85217],[-41.49975,-17.85212],[-41.49952,-17.85204],[-41.49907,-17.85185],[-41.49892,-17.85176],[-41.49877,-17.85166],[-41.49805,-17.85123],[-41.49625,-17.85005],[-41.49606,-17.84991],[-41.49525,-17.84912],[-41.49521,-17.84908]]]]}},{"type":"Feature","properties":{"territory_id":"mg-3168606-sao-jeronimo","name":"São Jerônimo","municipality_id":"mg-3168606","polling_places":1,"approx":true,"official":false,"method":"voronoi-polling-places","whole_municipality":false,"approx_coords_only":false},"geometry":{"type":"MultiPolygon","coordinates":[[[[-41.6722,-17.7365],[-41.65624,-17.77367],[-41.54954,-17.76762],[-41.53471,-17.67257],[-41.62687,-17.56209],[-41.6503,-17.6021],[-41.6395,-17.6074],[-41.633,-17.6784],[-41.6462,-17.7164],[-41.6722,-17.7365]]]]}},{"type":"Feature","properties":{"territory_id":"mg-3168606-serra-do-honorio","name":"Serra do Honório","municipality_id":"mg-3168606","polling_places":1,"approx":true,"official":false,"method":"voronoi-polling-places","whole_municipality":false,"approx_coords_only":false},"geometry":{"type":"MultiPolygon","coordinates":[[[[-41.59646,-17.5491],[-41.42691,-17.54579],[-41.42454,-17.52216],[-41.46793,-17.4301],[-41.5008,-17.4579],[-41.5295,-17.4993],[-41.5656,-17.4921],[-41.59646,-17.5491]]]]}},{"type":"Feature","properties":{"territory_id":"mg-3168606-taquara","name":"Taquara","municipality_id":"mg-3168606","polling_places":1,"approx":true,"official":false,"method":"voronoi-polling-places","whole_municipality":false,"approx_coords_only":false},"geometry":{"type":"MultiPolygon","coordinates":[[[[-41.51689,-17.89729],[-41.51178,-17.93649],[-41.49444,-17.93373],[-41.47717,-17.89695],[-41.48201,-17.89183],[-41.50142,-17.89487],[-41.50139,-17.89511],[-41.5015,-17.89619],[-41.50138,-17.89697],[-41.50005,-17.89824],[-41.49968,-17.89906],[-41.49975,-17.89953],[-41.49998,-17.89957],[-41.50014,-17.89945],[-41.50018,-17.89936],[-41.50068,-17.89939],[-41.50059,-17.89992],[-41.50052,-17.9008],[-41.50062,-17.90162],[-41.50062,-17.90224],[-41.5006,-17.90233],[-41.50129,-17.90241],[-41.50197,-17.9023],[-41.50211,-17.90222],[-41.50215,-17.90215],[-41.5023,-17.90205],[-41.50341,-17.90134],[-41.50416,-17.90089],[-41.50438,-17.90075],[-41.50953,-17.89849],[-41.50981,-17.89831],[-41.51029,-17.89826],[-41.51065,-17.89805],[-41.51188,-17.8965],[-41.51689,-17.89729]]]]}},{"type":"Feature","properties":{"territory_id":"mg-3168606-topazio","name":"Topázio","municipality_id":"mg-3168606","polling_places":2,"approx":true,"official":false,"method":"voronoi-polling-places","whole_municipality":false,"approx_coords_only":false},"geometry":{"type":"MultiPolygon","coordinates":[[[[-41.42691,-17.54579],[-41.42544,-17.5481],[-41.29473,-17.53889],[-41.28708,-17.53227],[-41.18137,-17.61492],[-41.18019,-17.61502],[-41.15738,-17.53813],[-41.1633,-17.5398],[-41.2555,-17.4845],[-41.2286,-17.4348],[-41.23576,-17.40222],[-41.2744,-17.43243],[-41.31883,-17.43236],[-41.42454,-17.52216],[-41.42691,-17.54579]]]]}},{"type":"Feature","properties":{"territory_id":"mg-3168606-turma-37","name":"Turma 37","municipality_id":"mg-3168606","polling_places":1,"approx":true,"official":false,"method":"voronoi-polling-places","whole_municipality":false,"approx_coords_only":false},"geometry":{"type":"MultiPolygon","coordinates":[[[[-41.48647,-17.8489],[-41.48598,-17.85367],[-41.48566,-17.85389],[-41.48406,-17.855],[-41.4839,-17.85534],[-41.48385,-17.85548],[-41.48376,-17.8556],[-41.48321,-17.8561],[-41.48308,-17.85629],[-41.48304,-17.85637],[-41.48282,-17.85697],[-41.48282,-17.85704],[-41.48281,-17.85713],[-41.48289,-17.85747],[-41.48294,-17.85754],[-41.48301,-17.85776],[-41.48341,-17.85695],[-41.48364,-17.85661],[-41.48393,-17.85629],[-41.48465,-17.8558],[-41.48536,-17.85586],[-41.48561,-17.85561],[-41.48579,-17.85548],[-41.48201,-17.89183],[-41.47717,-17.89695],[-41.43464,-17.90616],[-41.41516,-17.85786],[-41.48425,-17.80531],[-41.48647,-17.8489]]]]}},{"type":"Feature","properties":{"territory_id":"mg-3168606-vila-barreiros","name":"Vila Barreiros","municipality_id":"mg-3168606","polling_places":1,"approx":false,"official":true,"method":"official-ibge-cd2022","whole_municipality":false,"approx_coords_only":false,"official_name":"Barreiros","official_code":"3168606021","match":"prefix"},"geometry":{"type":"MultiPolygon","coordinates":[[[[-41.50438,-17.90075],[-41.50953,-17.89849],[-41.50981,-17.89831],[-41.51029,-17.89826],[-41.51065,-17.89805],[-41.51251,-17.89571],[-41.51232,-17.89511],[-41.51158,-17.8946],[-41.50967,-17.89455],[-41.50892,-17.89447],[-41.50818,-17.8942],[-41.5075,-17.89386],[-41.50697,-17.89366],[-41.50643,-17.89349],[-41.506,-17.89313],[-41.50592,-17.89231],[-41.50617,-17.8917],[-41.50621,-17.89125],[-41.50633,-17.89066],[-41.50632,-17.89044],[-41.50627,-17.89019],[-41.50588,-17.88968],[-41.50574,-17.88957],[-41.50554,-17.88949],[-41.50517,-17.88944],[-41.50503,-17.88921],[-41.50506,-17.88908],[-41.50511,-17.88898],[-41.50504,-17.88872],[-41.50493,-17.88812],[-41.50496,-17.88789],[-41.50522,-17.88697],[-41.50539,-17.88647],[-41.50518,-17.88567],[-41.50587,-17.88544],[-41.50578,-17.88512],[-41.50527,-17.88516],[-41.50496,-17.88525],[-41.50473,-17.88549],[-41.50467,-17.88586],[-41.50465,-17.88621],[-41.50466,-17.88638],[-41.50459,-17.88666],[-41.50452,-17.88681],[-41.50437,-17.88731],[-41.50423,-17.88765],[-41.50415,-17.88801],[-41.50408,-17.8882],[-41.50406,-17.88837],[-41.50402,-17.88859],[-41.5039,-17.88964],[-41.50384,-17.88982],[-41.50329,-17.89051],[-41.50252,-17.89125],[-41.50199,-17.89135],[-41.50186,-17.89149],[-41.50149,-17.89153],[-41.50137,-17.89213],[-41.50136,-17.89322],[-41.50149,-17.8943],[-41.50139,-17.89511],[-41.5015,-17.89619],[-41.50138,-17.89697],[-41.50005,-17.89824],[-41.49968,-17.89906],[-41.49975,-17.89953],[-41.49998,-17.89957],[-41.50014,-17.89945],[-41.50018,-17.89936],[-41.50068,-17.89939],[-41.50059,-17.89992],[-41.50052,-17.9008],[-41.50062,-17.90162],[-41.50062,-17.90224],[-41.5006,-17.90233],[-41.50129,-17.90241],[-41.50197,-17.9023],[-41.50211,-17.90222],[-41.50215,-17.90215],[-41.5023,-17.90205],[-41.50341,-17.90134],[-41.50416,-17.90089],[-41.50438,-17.90075]]]]}},{"type":"Feature","properties":{"territory_id":"mg-3168606-vila-progresso","name":"Vila Progresso","municipality_id":"mg-3168606","polling_places":1,"approx":true,"official":false,"method":"voronoi-polling-places","whole_municipality":false,"approx_coords_only":false},"geometry":{"type":"MultiPolygon","coordinates":[[[[-41.52185,-17.89344],[-41.51689,-17.89729],[-41.51188,-17.8965],[-41.51251,-17.89571],[-41.51232,-17.89511],[-41.51158,-17.8946],[-41.50967,-17.89455],[-41.50892,-17.89447],[-41.50818,-17.8942],[-41.5075,-17.89386],[-41.50697,-17.89366],[-41.50643,-17.89349],[-41.506,-17.89313],[-41.50592,-17.89231],[-41.50617,-17.8917],[-41.50621,-17.89125],[-41.50633,-17.89066],[-41.50632,-17.89044],[-41.50627,-17.89019],[-41.50588,-17.88968],[-41.50574,-17.88957],[-41.50554,-17.88949],[-41.50517,-17.88944],[-41.50503,-17.88921],[-41.50506,-17.88908],[-41.50511,-17.88898],[-41.50504,-17.88872],[-41.50493,-17.88812],[-41.50496,-17.88789],[-41.50522,-17.88697],[-41.50539,-17.88647],[-41.50518,-17.88567],[-41.50587,-17.88544],[-41.50578,-17.88512],[-41.50527,-17.88516],[-41.50496,-17.88525],[-41.50473,-17.88549],[-41.50467,-17.88586],[-41.50465,-17.88621],[-41.50466,-17.88638],[-41.50459,-17.88666],[-41.50452,-17.88681],[-41.50437,-17.88731],[-41.50423,-17.88765],[-41.50415,-17.88801],[-41.50408,-17.8882],[-41.50406,-17.88837],[-41.50402,-17.88859],[-41.5039,-17.88964],[-41.50384,-17.88982],[-41.50329,-17.89051],[-41.50252,-17.89125],[-41.50199,-17.89135],[-41.50186,-17.89149],[-41.50149,-17.89153],[-41.50137,-17.89213],[-41.50136,-17.89322],[-41.50149,-17.8943],[-41.50142,-17.89487],[-41.48201,-17.89183],[-41.48579,-17.85548],[-41.48606,-17.85529],[-41.48755,-17.85435],[-41.48786,-17.85407],[-41.48793,-17.85424],[-41.48848,-17.85426],[-41.48955,-17.85435],[-41.48957,-17.85462],[-41.48966,-17.85499],[-41.48973,-17.85492],[-41.49006,-17.8544],[-41.49028,-17.85483],[-41.4905,-17.85516],[-41.49062,-17.8551],[-41.49093,-17.85475],[-41.49099,-17.85541],[-41.49108,-17.85551],[-41.4914,-17.85511],[-41.49266,-17.85669],[-41.49269,-17.85703],[-41.49272,-17.85762],[-41.49324,-17.8576],[-41.4934,-17.85763],[-41.49462,-17.85916],[-41.49332,-17.86453],[-41.4939,-17.8695],[-41.49169,-17.87001],[-41.49155,-17.87003],[-41.49128,-17.86999],[-41.49089,-17.8703],[-41.49037,-17.87167],[-41.49036,-17.87179],[-41.49037,-17.87188],[-41.49043,-17.87204],[-41.49056,-17.8724],[-41.48998,-17.872],[-41.48975,-17.87296],[-41.48877,-17.87413],[-41.48853,-17.87438],[-41.48806,-17.87416],[-41.48779,-17.87418],[-41.4877,-17.87416],[-41.48762,-17.87411],[-41.48758,-17.87405],[-41.48755,-17.87399],[-41.48754,-17.87388],[-41.48713,-17.87443],[-41.48707,-17.87448],[-41.48695,-17.87452],[-41.48688,-17.87453],[-41.48678,-17.87451],[-41.48669,-17.87446],[-41.48659,-17.87437],[-41.48652,-17.8743],[-41.48648,-17.8741],[-41.4863,-17.87428],[-41.48552,-17.87517],[-41.48529,-17.8755],[-41.48844,-17.87545],[-41.48932,-17.87568],[-41.48969,-17.87564],[-41.49005,-17.87541],[-41.49017,-17.87535],[-41.49039,-17.87532],[-41.49121,-17.87546],[-41.49191,-17.87564],[-41.49201,-17.87568],[-41.49199,-17.87633],[-41.49196,-17.87667],[-41.49209,-17.87686],[-41.49221,-17.87694],[-41.49229,-17.87704],[-41.49309,-17.87752],[-41.49416,-17.87786],[-41.49424,-17.87757],[-41.49438,-17.87753],[-41.4946,-17.87725],[-41.49469,-17.8771],[-41.49472,-17.87693],[-41.49471,-17.87679],[-41.49469,-17.87672],[-41.49471,-17.8765],[-41.49482,-17.8763],[-41.49488,-17.87616],[-41.49492,-17.87594],[-41.495,-17.87583],[-41.495,-17.87556],[-41.49505,-17.87547],[-41.49516,-17.87537],[-41.49521,-17.87524],[-41.49533,-17.8751],[-41.49598,-17.87467],[-41.49614,-17.87451],[-41.49618,-17.87452],[-41.49632,-17.87445],[-41.4965,-17.87442],[-41.49667,-17.87417],[-41.49698,-17.87417],[-41.49704,-17.87393],[-41.49685,-17.87359],[-41.49685,-17.87347],[-41.49714,-17.8733],[-41.49713,-17.87311],[-41.49718,-17.87275],[-41.49717,-17.87263],[-41.49713,-17.87243],[-41.49722,-17.87221],[-41.49733,-17.87204],[-41.49743,-17.8719],[-41.49774,-17.87226],[-41.49769,-17.87239],[-41.49753,-17.87286],[-41.49746,-17.87328],[-41.49728,-17.87355],[-41.49723,-17.87369],[-41.4972,-17.87383],[-41.49719,-17.87397],[-41.49721,-17.87419],[-41.49734,-17.87436],[-41.49756,-17.8748],[-41.49766,-17.87495],[-41.4978,-17.87508],[-41.49799,-17.8752],[-41.49809,-17.87554],[-41.49872,-17.87536],[-41.49886,-17.87538],[-41.49901,-17.87547],[-41.49947,-17.87617],[-41.49952,-17.87618],[-41.49971,-17.87613],[-41.49978,-17.87609],[-41.49978,-17.87601],[-41.4997,-17.8758],[-41.49959,-17.87562],[-41.49897,-17.87506],[-41.49824,-17.87477],[-41.4982,-17.87468],[-41.49823,-17.87445],[-41.49831,-17.87431],[-41.49886,-17.87456],[-41.49975,-17.87407],[-41.49984,-17.87404],[-41.50016,-17.8752],[-41.50061,-17.87575],[-41.5006,-17.87584],[-41.50063,-17.87598],[-41.50063,-17.87614],[-41.50067,-17.87663],[-41.5003,-17.87692],[-41.50043,-17.877],[-41.50016,-17.87723],[-41.50011,-17.8775],[-41.50013,-17.87754],[-41.50032,-17.87762],[-41.50097,-17.87781],[-41.50327,-17.87819],[-41.50329,-17.87779],[-41.50316,-17.87674],[-41.50316,-17.87665],[-41.50327,-17.87644],[-41.50366,-17.87583],[-41.50399,-17.87491],[-41.50443,-17.87382],[-41.50454,-17.8728],[-41.50463,-17.87176],[-41.50621,-17.87375],[-41.50582,-17.87533],[-41.50553,-17.87656],[-41.50549,-17.87664],[-41.50543,-17.87672],[-41.50468,-17.87728],[-41.50461,-17.87737],[-41.50438,-17.87815],[-41.50436,-17.87833],[-41.50434,-17.87885],[-41.50513,-17.87993],[-41.50541,-17.87958],[-41.50557,-17.87951],[-41.50869,-17.87975],[-41.50944,-17.88006],[-41.50996,-17.88009],[-41.51109,-17.88023],[-41.51137,-17.88025],[-41.51339,-17.88279],[-41.5133,-17.88293],[-41.5131,-17.88338],[-41.51277,-17.88401],[-41.51259,-17.88422],[-41.51252,-17.88426],[-41.5121,-17.8844],[-41.51255,-17.88446],[-41.51279,-17.8844],[-41.5136,-17.88307],[-41.51361,-17.88306],[-41.52185,-17.89344]]],[[[-41.49937,-17.8697],[-41.49807,-17.86946],[-41.49659,-17.86926],[-41.49768,-17.8694],[-41.49848,-17.86952],[-41.49937,-17.8697]]],[[[-41.49535,-17.86925],[-41.4939,-17.8695],[-41.4943,-17.86943],[-41.49468,-17.86936],[-41.49535,-17.86925]]],[[[-41.4887,-17.8517],[-41.48841,-17.85209],[-41.48834,-17.85216],[-41.48821,-17.85228],[-41.487,-17.85299],[-41.48598,-17.85367],[-41.48647,-17.8489],[-41.4887,-17.8517]]]]}},{"type":"Feature","properties":{"territory_id":"mg-3168606-vila-sao-joao","name":"Vila São João","municipality_id":"mg-3168606","polling_places":2,"approx":false,"official":true,"method":"official-ibge-cd2022","whole_municipality":false,"approx_coords_only":false,"official_name":"São João","official_code":"3168606014","match":"prefix"},"geometry":{"type":"MultiPolygon","coordinates":[[[[-41.49056,-17.8724],[-41.48998,-17.872],[-41.48975,-17.87296],[-41.48877,-17.87413],[-41.48853,-17.87438],[-41.48806,-17.87416],[-41.48779,-17.87418],[-41.4877,-17.87416],[-41.48762,-17.87411],[-41.48758,-17.87405],[-41.48755,-17.87399],[-41.48754,-17.87388],[-41.48713,-17.87443],[-41.48707,-17.87448],[-41.48695,-17.87452],[-41.48688,-17.87453],[-41.48678,-17.87451],[-41.48669,-17.87446],[-41.48659,-17.87437],[-41.48652,-17.8743],[-41.48648,-17.8741],[-41.4863,-17.87428],[-41.48552,-17.87517],[-41.48529,-17.8755],[-41.48844,-17.87545],[-41.48932,-17.87568],[-41.48969,-17.87564],[-41.49005,-17.87541],[-41.49017,-17.87535],[-41.49039,-17.87532],[-41.49121,-17.87546],[-41.49191,-17.87564],[-41.49201,-17.87568],[-41.49199,-17.87633],[-41.49196,-17.87667],[-41.49209,-17.87686],[-41.49221,-17.87694],[-41.49229,-17.87704],[-41.49309,-17.87752],[-41.49416,-17.87786],[-41.49424,-17.87757],[-41.49438,-17.87753],[-41.4946,-17.87725],[-41.49469,-17.8771],[-41.49472,-17.87693],[-41.49471,-17.87679],[-41.49469,-17.87672],[-41.49471,-17.8765],[-41.49482,-17.8763],[-41.49488,-17.87616],[-41.49492,-17.87594],[-41.495,-17.87583],[-41.495,-17.87556],[-41.49505,-17.87547],[-41.49516,-17.87537],[-41.49521,-17.87524],[-41.49533,-17.8751],[-41.49598,-17.87467],[-41.49614,-17.87451],[-41.49618,-17.87452],[-41.49632,-17.87445],[-41.4965,-17.87442],[-41.49667,-17.87417],[-41.49698,-17.87417],[-41.49704,-17.87393],[-41.49685,-17.87359],[-41.49685,-17.87347],[-41.49714,-17.8733],[-41.49713,-17.87311],[-41.49718,-17.87275],[-41.49717,-17.87263],[-41.49713,-17.87243],[-41.49722,-17.87221],[-41.49733,-17.87204],[-41.49743,-17.8719],[-41.49776,-17.87178],[-41.49778,-17.87164],[-41.49792,-17.87112],[-41.49792,-17.87097],[-41.49812,-17.8707],[-41.49818,-17.87034],[-41.49836,-17.87005],[-41.49811,-17.86967],[-41.49807,-17.86946],[-41.49659,-17.86926],[-41.49614,-17.86922],[-41.49535,-17.86925],[-41.4939,-17.8695],[-41.49169,-17.87001],[-41.49155,-17.87003],[-41.49128,-17.86999],[-41.49089,-17.8703],[-41.49037,-17.87167],[-41.49036,-17.87179],[-41.49037,-17.87188],[-41.49043,-17.87204],[-41.49056,-17.8724]]]]}},{"type":"Feature","properties":{"territory_id":"mg-3168606-volta-bala","name":"Volta Bala","municipality_id":"mg-3168606","polling_places":1,"approx":true,"official":false,"method":"voronoi-polling-places","whole_municipality":false,"approx_coords_only":false},"geometry":{"type":"MultiPolygon","coordinates":[[[[-41.30117,-17.66948],[-41.27078,-17.73497],[-41.15776,-17.74099],[-41.13222,-17.72444],[-41.1332,-17.7076],[-41.1925,-17.6413],[-41.14641,-17.6484],[-41.18019,-17.61502],[-41.18137,-17.61492],[-41.30117,-17.66948]]]]}},{"type":"Feature","properties":{"territory_id":"mg-3168606-zona-rural","name":"Zona Rural","municipality_id":"mg-3168606","polling_places":4,"approx":true,"official":false,"method":"voronoi-polling-places","whole_municipality":false,"approx_coords_only":false},"geometry":{"type":"MultiPolygon","coordinates":[[[[-41.54954,-17.76762],[-41.53576,-17.78502],[-41.48746,-17.80035],[-41.48425,-17.80531],[-41.41516,-17.85786],[-41.43464,-17.90616],[-41.43215,-17.91687],[-41.33011,-17.98104],[-41.36388,-17.8484],[-41.33634,-17.81248],[-41.39682,-17.73824],[-41.39496,-17.71653],[-41.45345,-17.65745],[-41.53471,-17.67257],[-41.54954,-17.76762]]],[[[-41.46793,-17.4301],[-41.42454,-17.52216],[-41.31883,-17.43236],[-41.36306,-17.41087],[-41.4308,-17.3987],[-41.46793,-17.4301]]]]}}]}