{"type":"FeatureCollection","features":[{"type":"Feature","properties":{"territory_id":"mg-3168705-alegre","name":"Alegre","municipality_id":"mg-3168705","polling_places":1,"approx":false,"official":true,"method":"official-ibge-cd2022","whole_municipality":false,"approx_coords_only":false,"official_name":"Alegre","official_code":"3168705004","match":"direct"},"geometry":{"type":"MultiPolygon","coordinates":[[[[-42.61666,-19.53728],[-42.61749,-19.53671],[-42.61884,-19.53671],[-42.62021,-19.53734],[-42.6209,-19.53722],[-42.62167,-19.53752],[-42.62259,-19.53822],[-42.62216,-19.53907],[-42.62258,-19.53928],[-42.62268,-19.53908],[-42.62565,-19.53929],[-42.62648,-19.53771],[-42.62862,-19.53692],[-42.62854,-19.53665],[-42.62846,-19.5359],[-42.62853,-19.53506],[-42.6288,-19.53454],[-42.62883,-19.53439],[-42.62914,-19.534],[-42.62965,-19.53344],[-42.62981,-19.53323],[-42.62927,-19.53305],[-42.62815,-19.53401],[-42.62744,-19.53432],[-42.62663,-19.53445],[-42.62584,-19.53446],[-42.62491,-19.53426],[-42.62405,-19.53379],[-42.61977,-19.53094],[-42.61859,-19.53018],[-42.61756,-19.52976],[-42.6168,-19.5296],[-42.61587,-19.52961],[-42.6148,-19.5298],[-42.61324,-19.53014],[-42.61307,-19.53049],[-42.6128,-19.53094],[-42.61249,-19.53154],[-42.61233,-19.53158],[-42.61219,-19.53167],[-42.61212,-19.53178],[-42.61208,-19.53192],[-42.611,-19.53207],[-42.61081,-19.53213],[-42.61028,-19.53237],[-42.60988,-19.53264],[-42.60965,-19.53283],[-42.60905,-19.53317],[-42.60816,-19.53391],[-42.60691,-19.53489],[-42.60676,-19.53508],[-42.60664,-19.53536],[-42.60642,-19.53626],[-42.60611,-19.53679],[-42.60597,-19.53694],[-42.60563,-19.53724],[-42.60514,-19.53752],[-42.6045,-19.53778],[-42.60421,-19.53784],[-42.60396,-19.53787],[-42.60373,-19.53787],[-42.6033,-19.53781],[-42.60292,-19.53787],[-42.60252,-19.53798],[-42.60147,-19.53829],[-42.60121,-19.53831],[-42.60053,-19.53833],[-42.5999,-19.53831],[-42.59802,-19.5383],[-42.59552,-19.53846],[-42.59521,-19.53849],[-42.59696,-19.54262],[-42.60664,-19.5404],[-42.60937,-19.53961],[-42.61367,-19.53824],[-42.61374,-19.53833],[-42.61378,-19.53843],[-42.61381,-19.53855],[-42.6138,-19.53885],[-42.61367,-19.53938],[-42.61363,-19.53951],[-42.61361,-19.53967],[-42.61367,-19.53985],[-42.61382,-19.54004],[-42.61393,-19.54004],[-42.61407,-19.53998],[-42.61413,-19.53986],[-42.61423,-19.53938],[-42.61478,-19.53925],[-42.61499,-19.53915],[-42.61512,-19.53905],[-42.61514,-19.53888],[-42.61508,-19.53846],[-42.61507,-19.53815],[-42.61511,-19.53804],[-42.61523,-19.53793],[-42.61537,-19.53793],[-42.61549,-19.53781],[-42.61565,-19.5376],[-42.61666,-19.53728]]]]}},{"type":"Feature","properties":{"territory_id":"mg-3168705-alphaville","name":"Alphaville","municipality_id":"mg-3168705","polling_places":1,"approx":false,"official":true,"method":"official-ibge-cd2022","whole_municipality":false,"approx_coords_only":false,"official_name":"Alphaville","official_code":"3168705009","match":"direct"},"geometry":{"type":"MultiPolygon","coordinates":[[[[-42.58919,-19.55932],[-42.58892,-19.55966],[-42.58864,-19.55939],[-42.58789,-19.56001],[-42.58748,-19.56056],[-42.58676,-19.5614],[-42.58601,-19.56242],[-42.58584,-19.56279],[-42.58622,-19.56405],[-42.58658,-19.56438],[-42.58731,-19.56465],[-42.58808,-19.5649],[-42.58847,-19.56497],[-42.58887,-19.56539],[-42.58906,-19.56538],[-42.58924,-19.56525],[-42.5893,-19.56496],[-42.58939,-19.56481],[-42.5897,-19.56468],[-42.58997,-19.56455],[-42.59028,-19.56436],[-42.59043,-19.56419],[-42.59041,-19.56462],[-42.59032,-19.56495],[-42.59012,-19.56541],[-42.58988,-19.5658],[-42.58957,-19.56627],[-42.58928,-19.5666],[-42.58899,-19.56685],[-42.58993,-19.56753],[-42.58994,-19.56767],[-42.59008,-19.56793],[-42.5904,-19.56807],[-42.59064,-19.56812],[-42.59068,-19.56808],[-42.5955,-19.57159],[-42.59599,-19.5742],[-42.59594,-19.57729],[-42.59683,-19.57843],[-42.59854,-19.5775],[-42.59778,-19.57519],[-42.59791,-19.57362],[-42.59741,-19.57243],[-42.59715,-19.57192],[-42.59655,-19.5711],[-42.59585,-19.57038],[-42.59446,-19.56956],[-42.59389,-19.56905],[-42.59342,-19.56883],[-42.59301,-19.56853],[-42.59254,-19.56806],[-42.5919,-19.56771],[-42.59129,-19.56745],[-42.591,-19.56692],[-42.5912,-19.56652],[-42.59162,-19.56608],[-42.59219,-19.56535],[-42.5923,-19.56507],[-42.59237,-19.56469],[-42.5923,-19.56419],[-42.59201,-19.56366],[-42.5916,-19.56333],[-42.59135,-19.563],[-42.59146,-19.56271],[-42.59175,-19.56278],[-42.59219,-19.56304],[-42.59268,-19.56319],[-42.594,-19.56284],[-42.59494,-19.5628],[-42.59558,-19.56271],[-42.59618,-19.56271],[-42.59682,-19.56275],[-42.59754,-19.56293],[-42.59814,-19.56328],[-42.59834,-19.56363],[-42.59858,-19.56399],[-42.59915,-19.56434],[-42.59975,-19.56452],[-42.60043,-19.5648],[-42.60124,-19.56506],[-42.60204,-19.56471],[-42.6023,-19.56475],[-42.60261,-19.56475],[-42.6033,-19.56471],[-42.60354,-19.56431],[-42.6032,-19.56404],[-42.60268,-19.56421],[-42.60247,-19.5642],[-42.60225,-19.56359],[-42.60192,-19.56336],[-42.60152,-19.56327],[-42.60107,-19.56326],[-42.60063,-19.5631],[-42.60045,-19.56295],[-42.60018,-19.56283],[-42.59998,-19.5627],[-42.59979,-19.56253],[-42.59927,-19.5624],[-42.59924,-19.56236],[-42.59894,-19.56245],[-42.59843,-19.56227],[-42.59803,-19.56198],[-42.59772,-19.56166],[-42.59727,-19.56152],[-42.59698,-19.5615],[-42.59666,-19.56139],[-42.59641,-19.56123],[-42.59622,-19.56105],[-42.59611,-19.56093],[-42.59587,-19.56079],[-42.59555,-19.56067],[-42.59517,-19.56049],[-42.59456,-19.5601],[-42.5945,-19.55986],[-42.59452,-19.55961],[-42.59459,-19.55942],[-42.59469,-19.55927],[-42.5949,-19.55912],[-42.59483,-19.5586],[-42.59448,-19.5581],[-42.59388,-19.55801],[-42.59364,-19.55803],[-42.58988,-19.55694],[-42.58819,-19.55672],[-42.58804,-19.55701],[-42.58813,-19.55722],[-42.58834,-19.55753],[-42.58815,-19.55788],[-42.58813,-19.55819],[-42.58846,-19.55883],[-42.58879,-19.55912],[-42.58915,-19.55931],[-42.58919,-19.55932]]]]}},{"type":"Feature","properties":{"territory_id":"mg-3168705-alvorada","name":"Alvorada","municipality_id":"mg-3168705","polling_places":1,"approx":false,"official":true,"method":"official-ibge-cd2022","whole_municipality":false,"approx_coords_only":false,"official_name":"Alvorada","official_code":"3168705034","match":"direct"},"geometry":{"type":"MultiPolygon","coordinates":[[[[-42.66016,-19.55065],[-42.66134,-19.55152],[-42.66178,-19.55205],[-42.662,-19.55194],[-42.66241,-19.55171],[-42.66183,-19.55118],[-42.66044,-19.5502],[-42.66091,-19.54962],[-42.66091,-19.54956],[-42.66106,-19.54948],[-42.66107,-19.54943],[-42.6613,-19.54908],[-42.66194,-19.54842],[-42.66224,-19.54845],[-42.66236,-19.54849],[-42.66252,-19.54858],[-42.66261,-19.54867],[-42.663,-19.54838],[-42.66332,-19.54808],[-42.66325,-19.548],[-42.66315,-19.54799],[-42.66298,-19.548],[-42.66275,-19.54797],[-42.6617,-19.54762],[-42.66032,-19.54724],[-42.66067,-19.54582],[-42.66066,-19.54578],[-42.66053,-19.54572],[-42.66158,-19.54514],[-42.66127,-19.54469],[-42.65964,-19.54541],[-42.65933,-19.54619],[-42.65843,-19.54601],[-42.65818,-19.54642],[-42.6584,-19.54677],[-42.65785,-19.54706],[-42.65738,-19.54744],[-42.65708,-19.54761],[-42.65683,-19.54782],[-42.65677,-19.54795],[-42.65628,-19.54844],[-42.65623,-19.54847],[-42.6562,-19.54855],[-42.65589,-19.54986],[-42.65574,-19.5504],[-42.65555,-19.55084],[-42.65543,-19.55093],[-42.65584,-19.55173],[-42.65605,-19.552],[-42.65613,-19.55204],[-42.65644,-19.55285],[-42.65645,-19.55293],[-42.65642,-19.55301],[-42.65623,-19.55322],[-42.65689,-19.55365],[-42.65821,-19.55388],[-42.6587,-19.55333],[-42.65937,-19.55244],[-42.65989,-19.55185],[-42.66013,-19.55127],[-42.66016,-19.55065]]]]}},{"type":"Feature","properties":{"territory_id":"mg-3168705-ana-moura","name":"Ana Moura","municipality_id":"mg-3168705","polling_places":1,"approx":false,"official":true,"method":"official-ibge-cd2022","whole_municipality":false,"approx_coords_only":false,"official_name":"Ana Moura","official_code":"3168705001","match":"direct"},"geometry":{"type":"MultiPolygon","coordinates":[[[[-42.66959,-19.56859],[-42.66819,-19.56778],[-42.66763,-19.56732],[-42.66717,-19.56644],[-42.66829,-19.56466],[-42.66757,-19.5646],[-42.66717,-19.56458],[-42.66663,-19.56449],[-42.66662,-19.56378],[-42.66659,-19.56344],[-42.66677,-19.56302],[-42.6668,-19.56289],[-42.66682,-19.56209],[-42.66277,-19.56201],[-42.66016,-19.56215],[-42.65792,-19.56166],[-42.65664,-19.56197],[-42.65664,-19.56225],[-42.65565,-19.56526],[-42.65317,-19.56722],[-42.65315,-19.56738],[-42.65246,-19.56819],[-42.65111,-19.56941],[-42.65336,-19.57043],[-42.65567,-19.57133],[-42.6572,-19.57248],[-42.65769,-19.57441],[-42.6582,-19.57613],[-42.66012,-19.57657],[-42.66001,-19.57801],[-42.66126,-19.57888],[-42.66279,-19.57929],[-42.66374,-19.57992],[-42.66453,-19.58233],[-42.66502,-19.58371],[-42.66517,-19.58368],[-42.66561,-19.5835],[-42.66607,-19.58343],[-42.66702,-19.58333],[-42.66799,-19.58333],[-42.66845,-19.58345],[-42.66896,-19.58347],[-42.66944,-19.58354],[-42.66991,-19.58367],[-42.67037,-19.58379],[-42.67122,-19.5842],[-42.67165,-19.58438],[-42.67207,-19.58464],[-42.67258,-19.58491],[-42.67331,-19.58553],[-42.67365,-19.58587],[-42.67413,-19.58631],[-42.6745,-19.58661],[-42.67579,-19.58773],[-42.67613,-19.5881],[-42.67644,-19.58854],[-42.6771,-19.58939],[-42.67739,-19.58973],[-42.67781,-19.5901],[-42.6782,-19.5904],[-42.67863,-19.59076],[-42.67953,-19.59131],[-42.67995,-19.59152],[-42.68036,-19.59175],[-42.68075,-19.59209],[-42.68148,-19.59269],[-42.68187,-19.59306],[-42.68264,-19.5937],[-42.68296,-19.59404],[-42.68323,-19.59441],[-42.68376,-19.59494],[-42.68447,-19.59554],[-42.68481,-19.59593],[-42.68493,-19.59643],[-42.6852,-19.5968],[-42.68542,-19.59728],[-42.68566,-19.5977],[-42.68596,-19.59809],[-42.6863,-19.59859],[-42.68652,-19.59898],[-42.68681,-19.59933],[-42.68725,-19.59965],[-42.68763,-19.60002],[-42.68805,-19.60034],[-42.68853,-19.60066],[-42.68897,-19.60107],[-42.68948,-19.60148],[-42.69045,-19.60208],[-42.69094,-19.6024],[-42.69135,-19.60274],[-42.69174,-19.60311],[-42.69274,-19.60389],[-42.69306,-19.60426],[-42.69347,-19.60483],[-42.6943,-19.60557],[-42.69481,-19.60598],[-42.69525,-19.60678],[-42.69542,-19.6072],[-42.69566,-19.60759],[-42.69625,-19.60844],[-42.69668,-19.60899],[-42.69686,-19.60945],[-42.69712,-19.60986],[-42.69756,-19.6103],[-42.69817,-19.61106],[-42.69866,-19.61131],[-42.69968,-19.61161],[-42.70019,-19.6116],[-42.7007,-19.61153],[-42.70118,-19.61144],[-42.702,-19.61098],[-42.70244,-19.61077],[-42.70285,-19.61052],[-42.70339,-19.61015],[-42.70377,-19.6098],[-42.7046,-19.6092],[-42.70547,-19.60872],[-42.70632,-19.60828],[-42.70678,-19.60826],[-42.70724,-19.6083],[-42.7077,-19.60828],[-42.70824,-19.60827],[-42.70872,-19.60816],[-42.70918,-19.60781],[-42.70945,-19.60738],[-42.7094,-19.60694],[-42.7092,-19.60652],[-42.70881,-19.60597],[-42.70864,-19.60556],[-42.70842,-19.60517],[-42.70815,-19.6048],[-42.70798,-19.60439],[-42.70793,-19.60381],[-42.70813,-19.60328],[-42.70832,-19.60287],[-42.70849,-19.60241],[-42.70868,-19.60199],[-42.7088,-19.60151],[-42.70907,-19.60096],[-42.70919,-19.60052],[-42.70936,-19.60011],[-42.70936,-19.59958],[-42.70923,-19.5991],[-42.70892,-19.59861],[-42.70831,-19.59815],[-42.70787,-19.59795],[-42.70731,-19.59774],[-42.70678,-19.59765],[-42.70637,-19.5974],[-42.70571,-19.59715],[-42.7052,-19.59699],[-42.70471,-19.59669],[-42.7043,-19.59641],[-42.7035,-19.59584],[-42.70313,-19.59547],[-42.70277,-19.59497],[-42.70211,-19.59433],[-42.70177,-19.59396],[-42.70136,-19.59345],[-42.7006,-19.59272],[-42.6999,-19.5921],[-42.6996,-19.59176],[-42.69929,-19.59143],[-42.69902,-19.59104],[-42.6988,-19.59065],[-42.69856,-19.59015],[-42.69817,-19.58923],[-42.69797,-19.58868],[-42.69791,-19.58838],[-42.69693,-19.58768],[-42.69606,-19.5871],[-42.69569,-19.58676],[-42.69535,-19.58641],[-42.69494,-19.58595],[-42.69428,-19.58526],[-42.69387,-19.5849],[-42.69355,-19.58458],[-42.69253,-19.58347],[-42.69216,-19.58301],[-42.69153,-19.5823],[-42.69126,-19.58194],[-42.69058,-19.58115],[-42.69019,-19.58083],[-42.6898,-19.58058],[-42.68939,-19.58035],[-42.68891,-19.58021],[-42.68835,-19.57994],[-42.68789,-19.57953],[-42.68757,-19.5792],[-42.68728,-19.57879],[-42.68708,-19.57838],[-42.68684,-19.57792],[-42.68667,-19.5775],[-42.68642,-19.57711],[-42.68618,-19.57665],[-42.68513,-19.57505],[-42.68484,-19.5747],[-42.68401,-19.57385],[-42.68243,-19.57247],[-42.68066,-19.57121],[-42.68022,-19.57105],[-42.67918,-19.57085],[-42.67869,-19.57071],[-42.67818,-19.57055],[-42.6777,-19.57034],[-42.67726,-19.57014],[-42.67687,-19.56984],[-42.67648,-19.56943],[-42.67619,-19.56899],[-42.67577,-19.56878],[-42.67531,-19.56865],[-42.67483,-19.56853],[-42.67437,-19.56839],[-42.67383,-19.5681],[-42.67339,-19.5678],[-42.67303,-19.56745],[-42.67271,-19.56702],[-42.67215,-19.56593],[-42.67037,-19.56785],[-42.66959,-19.56859]]]]}},{"type":"Feature","properties":{"territory_id":"mg-3168705-ana-rita","name":"Ana Rita","municipality_id":"mg-3168705","polling_places":1,"approx":false,"official":true,"method":"official-ibge-cd2022","whole_municipality":false,"approx_coords_only":false,"official_name":"Ana Rita","official_code":"3168705028","match":"direct"},"geometry":{"type":"MultiPolygon","coordinates":[[[[-42.64112,-19.58778],[-42.64077,-19.58775],[-42.64078,-19.58678],[-42.64088,-19.58619],[-42.64066,-19.58622],[-42.64008,-19.58623],[-42.63924,-19.58654],[-42.63797,-19.58756],[-42.63792,-19.58799],[-42.63832,-19.58842],[-42.63828,-19.58887],[-42.63719,-19.58976],[-42.63665,-19.58974],[-42.63616,-19.59024],[-42.63627,-19.59088],[-42.63624,-19.59119],[-42.63677,-19.5913],[-42.63772,-19.59179],[-42.63818,-19.59192],[-42.63864,-19.59188],[-42.6392,-19.5919],[-42.63971,-19.5919],[-42.64017,-19.59201],[-42.64126,-19.5924],[-42.64177,-19.59247],[-42.64223,-19.59238],[-42.64323,-19.59221],[-42.64434,-19.5921],[-42.64485,-19.59198],[-42.64526,-19.59185],[-42.64569,-19.59175],[-42.64618,-19.59164],[-42.64697,-19.5916],[-42.64737,-19.59152],[-42.64842,-19.59153],[-42.64931,-19.59148],[-42.64979,-19.59149],[-42.65026,-19.59154],[-42.65216,-19.5921],[-42.65262,-19.59231],[-42.65345,-19.59279],[-42.65388,-19.59302],[-42.65464,-19.59336],[-42.6552,-19.59339],[-42.65575,-19.59334],[-42.65621,-19.59325],[-42.65667,-19.59311],[-42.65706,-19.59283],[-42.65743,-19.59239],[-42.65798,-19.59159],[-42.65849,-19.59076],[-42.65868,-19.59023],[-42.65892,-19.5895],[-42.65845,-19.58953],[-42.65745,-19.58964],[-42.6568,-19.59004],[-42.65601,-19.59037],[-42.6548,-19.59066],[-42.65404,-19.59028],[-42.65298,-19.58988],[-42.65251,-19.58936],[-42.65223,-19.58916],[-42.6519,-19.589],[-42.65156,-19.58878],[-42.65137,-19.58828],[-42.65046,-19.58796],[-42.65013,-19.58781],[-42.64943,-19.58736],[-42.64927,-19.58732],[-42.64912,-19.58705],[-42.64906,-19.58673],[-42.64909,-19.58661],[-42.64902,-19.58646],[-42.64866,-19.58647],[-42.64849,-19.58639],[-42.64842,-19.58623],[-42.64824,-19.58608],[-42.64815,-19.58585],[-42.64815,-19.58515],[-42.64822,-19.5846],[-42.64827,-19.5844],[-42.64831,-19.58427],[-42.64836,-19.58426],[-42.64848,-19.58395],[-42.64851,-19.58391],[-42.64824,-19.58299],[-42.64805,-19.58289],[-42.64773,-19.58288],[-42.64744,-19.58289],[-42.64738,-19.5829],[-42.64714,-19.58308],[-42.64635,-19.5833],[-42.646,-19.58356],[-42.64487,-19.58478],[-42.64469,-19.58487],[-42.64426,-19.58501],[-42.64387,-19.58509],[-42.64369,-19.5851],[-42.64349,-19.58509],[-42.64306,-19.5849],[-42.64299,-19.58487],[-42.64291,-19.58487],[-42.64273,-19.58481],[-42.64259,-19.58489],[-42.64232,-19.58514],[-42.64229,-19.58528],[-42.6423,-19.58536],[-42.64239,-19.58555],[-42.64275,-19.58592],[-42.64212,-19.58609],[-42.64205,-19.58595],[-42.64165,-19.58611],[-42.64164,-19.58625],[-42.64168,-19.58675],[-42.64167,-19.58717],[-42.64136,-19.58718],[-42.64119,-19.58748],[-42.64118,-19.58763],[-42.64114,-19.58778],[-42.64112,-19.58778]]]]}},{"type":"Feature","properties":{"territory_id":"mg-3168705-bela-vista","name":"Bela Vista","municipality_id":"mg-3168705","polling_places":1,"approx":false,"official":true,"method":"official-ibge-cd2022","whole_municipality":false,"approx_coords_only":false,"official_name":"Bela Vista","official_code":"3168705026","match":"direct"},"geometry":{"type":"MultiPolygon","coordinates":[[[[-42.64156,-19.58506],[-42.64207,-19.58461],[-42.64245,-19.58434],[-42.64254,-19.58423],[-42.64297,-19.58421],[-42.64286,-19.58207],[-42.64287,-19.58201],[-42.64319,-19.58194],[-42.64317,-19.58168],[-42.64276,-19.58185],[-42.64237,-19.58211],[-42.64218,-19.58227],[-42.64153,-19.58308],[-42.64135,-19.58335],[-42.64109,-19.58368],[-42.64092,-19.58384],[-42.64083,-19.58391],[-42.64073,-19.58397],[-42.63941,-19.58449],[-42.6385,-19.58489],[-42.63766,-19.58523],[-42.6376,-19.58596],[-42.63597,-19.58699],[-42.63528,-19.58857],[-42.63519,-19.59108],[-42.6357,-19.59112],[-42.63624,-19.59119],[-42.63627,-19.59088],[-42.63616,-19.59024],[-42.63665,-19.58974],[-42.63719,-19.58976],[-42.63828,-19.58887],[-42.63832,-19.58842],[-42.63792,-19.58799],[-42.63797,-19.58756],[-42.63924,-19.58654],[-42.64008,-19.58623],[-42.64066,-19.58622],[-42.64088,-19.58619],[-42.64122,-19.5855],[-42.64127,-19.58541],[-42.64135,-19.58533],[-42.64156,-19.58506]]]]}},{"type":"Feature","properties":{"territory_id":"mg-3168705-bromelias","name":"Bromelias","municipality_id":"mg-3168705","polling_places":1,"approx":false,"official":true,"method":"official-ibge-cd2022","whole_municipality":false,"approx_coords_only":false,"official_name":"Bromélias","official_code":"3168705032","match":"direct"},"geometry":{"type":"MultiPolygon","coordinates":[[[[-42.65124,-19.53806],[-42.65105,-19.53782],[-42.65101,-19.53785],[-42.65092,-19.5381],[-42.65078,-19.5384],[-42.65074,-19.53859],[-42.65067,-19.53984],[-42.64914,-19.54065],[-42.64935,-19.54084],[-42.64917,-19.54149],[-42.64901,-19.54188],[-42.64925,-19.54203],[-42.64957,-19.54235],[-42.64968,-19.54275],[-42.64981,-19.54303],[-42.6501,-19.54344],[-42.6509,-19.54414],[-42.65142,-19.54464],[-42.65172,-19.54488],[-42.65206,-19.54507],[-42.65241,-19.54514],[-42.65362,-19.5453],[-42.65426,-19.54559],[-42.6552,-19.54631],[-42.65584,-19.54672],[-42.65627,-19.54723],[-42.65683,-19.54782],[-42.65708,-19.54761],[-42.65738,-19.54744],[-42.65785,-19.54706],[-42.6584,-19.54677],[-42.65818,-19.54642],[-42.65843,-19.54601],[-42.65933,-19.54619],[-42.65964,-19.54541],[-42.66127,-19.54469],[-42.6627,-19.54187],[-42.66181,-19.54187],[-42.66082,-19.54176],[-42.65924,-19.54139],[-42.65873,-19.54119],[-42.65832,-19.54086],[-42.6579,-19.54041],[-42.65763,-19.53995],[-42.65725,-19.53912],[-42.65707,-19.53863],[-42.65698,-19.53818],[-42.65685,-19.53774],[-42.65666,-19.53661],[-42.65663,-19.53606],[-42.65663,-19.535],[-42.65672,-19.53398],[-42.6544,-19.53469],[-42.65421,-19.53438],[-42.6542,-19.53387],[-42.65443,-19.53349],[-42.65477,-19.53319],[-42.65501,-19.53276],[-42.65504,-19.53245],[-42.65432,-19.53152],[-42.65371,-19.53199],[-42.65227,-19.53211],[-42.65174,-19.53237],[-42.65091,-19.53289],[-42.65038,-19.53327],[-42.64894,-19.53372],[-42.64929,-19.53458],[-42.65118,-19.53613],[-42.65222,-19.53722],[-42.65124,-19.53806]]]]}},{"type":"Feature","properties":{"territory_id":"mg-3168705-cachoeira-do-vale","name":"Cachoeira do Vale","municipality_id":"mg-3168705","polling_places":3,"approx":false,"official":true,"method":"official-ibge-cd2022","whole_municipality":false,"approx_coords_only":false,"official_name":"Vila Cachoeira do Vale","official_code":"3168705039","match":"prefix"},"geometry":{"type":"MultiPolygon","coordinates":[[[[-42.65672,-19.53398],[-42.65663,-19.535],[-42.65663,-19.53606],[-42.65666,-19.53661],[-42.65685,-19.53774],[-42.65698,-19.53818],[-42.65707,-19.53863],[-42.65725,-19.53912],[-42.65763,-19.53995],[-42.6579,-19.54041],[-42.65832,-19.54087],[-42.65873,-19.54119],[-42.65924,-19.54139],[-42.6597,-19.54151],[-42.66082,-19.54176],[-42.66181,-19.54187],[-42.66339,-19.54187],[-42.66397,-19.54205],[-42.66458,-19.54216],[-42.66514,-19.5423],[-42.66558,-19.54251],[-42.66604,-19.54276],[-42.66652,-19.54299],[-42.66694,-19.54331],[-42.66732,-19.54359],[-42.66769,-19.54388],[-42.66815,-19.5442],[-42.6689,-19.54485],[-42.66937,-19.54517],[-42.66973,-19.54547],[-42.67044,-19.54611],[-42.67129,-19.54664],[-42.67172,-19.54689],[-42.67223,-19.54723],[-42.67274,-19.54753],[-42.67316,-19.54781],[-42.67367,-19.54811],[-42.67408,-19.54831],[-42.67454,-19.54861],[-42.67496,-19.54884],[-42.6753,-19.54914],[-42.67571,-19.54946],[-42.67586,-19.54962],[-42.67675,-19.54962],[-42.67795,-19.54927],[-42.67868,-19.54744],[-42.67919,-19.54488],[-42.6799,-19.54478],[-42.68029,-19.5447],[-42.68061,-19.5446],[-42.68157,-19.54407],[-42.6821,-19.54382],[-42.68523,-19.5422],[-42.68586,-19.54181],[-42.68696,-19.54128],[-42.68896,-19.54073],[-42.68804,-19.53896],[-42.68634,-19.53791],[-42.68512,-19.53851],[-42.6831,-19.54081],[-42.68222,-19.54139],[-42.6796,-19.5417],[-42.67859,-19.54131],[-42.67398,-19.54104],[-42.67313,-19.54048],[-42.67241,-19.53587],[-42.66979,-19.53231],[-42.66878,-19.53121],[-42.6671,-19.52819],[-42.66634,-19.52706],[-42.66563,-19.5268],[-42.66292,-19.52648],[-42.66172,-19.52648],[-42.65945,-19.52606],[-42.65886,-19.52589],[-42.65862,-19.52627],[-42.65812,-19.52697],[-42.6578,-19.52732],[-42.65759,-19.52778],[-42.65715,-19.5289],[-42.65703,-19.52937],[-42.65698,-19.52992],[-42.65679,-19.53129],[-42.65672,-19.53224],[-42.65672,-19.53392],[-42.65672,-19.53398]]]]}},{"type":"Feature","properties":{"territory_id":"mg-3168705-centro-norte","name":"Centro Norte","municipality_id":"mg-3168705","polling_places":1,"approx":true,"official":false,"method":"voronoi-polling-places","whole_municipality":false,"approx_coords_only":false},"geometry":{"type":"MultiPolygon","coordinates":[[[[-42.70828,-19.59814],[-42.70787,-19.59795],[-42.70731,-19.59774],[-42.70687,-19.59767],[-42.7067,-19.5976],[-42.70637,-19.5974],[-42.70571,-19.59715],[-42.7052,-19.59699],[-42.70471,-19.59669],[-42.7043,-19.59641],[-42.7035,-19.59584],[-42.70313,-19.59547],[-42.70277,-19.59497],[-42.70211,-19.59433],[-42.70177,-19.59396],[-42.70136,-19.59345],[-42.7006,-19.59272],[-42.6999,-19.5921],[-42.6996,-19.59176],[-42.69929,-19.59143],[-42.69902,-19.59104],[-42.6988,-19.59065],[-42.69856,-19.59015],[-42.69817,-19.58923],[-42.69797,-19.58868],[-42.69791,-19.58838],[-42.69693,-19.58768],[-42.69606,-19.5871],[-42.69569,-19.58676],[-42.69535,-19.58641],[-42.69494,-19.58595],[-42.69428,-19.58526],[-42.69387,-19.5849],[-42.69355,-19.58458],[-42.69253,-19.58347],[-42.69216,-19.58301],[-42.69153,-19.5823],[-42.69126,-19.58194],[-42.69058,-19.58115],[-42.69019,-19.58083],[-42.6898,-19.58058],[-42.68939,-19.58035],[-42.68891,-19.58021],[-42.68835,-19.57994],[-42.68789,-19.57953],[-42.68757,-19.5792],[-42.68728,-19.57879],[-42.68708,-19.57838],[-42.68684,-19.57792],[-42.68667,-19.5775],[-42.68642,-19.57711],[-42.68618,-19.57665],[-42.68513,-19.57505],[-42.68484,-19.5747],[-42.68401,-19.57385],[-42.68243,-19.57247],[-42.68066,-19.57121],[-42.68022,-19.57105],[-42.67918,-19.57085],[-42.67869,-19.57071],[-42.67818,-19.57055],[-42.6777,-19.57034],[-42.67726,-19.57014],[-42.67687,-19.56984],[-42.67648,-19.56943],[-42.67619,-19.56899],[-42.67577,-19.56878],[-42.67531,-19.56865],[-42.67483,-19.56853],[-42.67437,-19.56839],[-42.67383,-19.5681],[-42.67339,-19.5678],[-42.67303,-19.56745],[-42.67271,-19.56702],[-42.67215,-19.56593],[-42.67188,-19.56534],[-42.67179,-19.56483],[-42.67178,-19.56467],[-42.67358,-19.56483],[-42.67356,-19.56326],[-42.6736,-19.5628],[-42.67435,-19.56148],[-42.67437,-19.56057],[-42.67474,-19.55871],[-42.6736,-19.55645],[-42.673,-19.55616],[-42.67232,-19.55622],[-42.67181,-19.55613],[-42.6719,-19.55599],[-42.67209,-19.55401],[-42.6735,-19.55237],[-42.67407,-19.55197],[-42.67521,-19.55133],[-42.67586,-19.54962],[-42.67675,-19.54962],[-42.67795,-19.54927],[-42.67868,-19.54744],[-42.67919,-19.54488],[-42.6799,-19.54478],[-42.68029,-19.5447],[-42.68061,-19.5446],[-42.68157,-19.54407],[-42.6821,-19.54382],[-42.68523,-19.5422],[-42.68586,-19.54181],[-42.68696,-19.54128],[-42.68896,-19.54073],[-42.68892,-19.54065],[-42.689,-19.5407],[-42.70828,-19.59814]]],[[[-42.68515,-19.5385],[-42.68512,-19.53851],[-42.6831,-19.54081],[-42.68222,-19.54139],[-42.6796,-19.5417],[-42.67859,-19.54131],[-42.67398,-19.54104],[-42.67313,-19.54048],[-42.67241,-19.53587],[-42.66979,-19.53231],[-42.66878,-19.53121],[-42.6671,-19.52819],[-42.66707,-19.52814],[-42.68515,-19.5385]]],[[[-42.67454,-19.54861],[-42.67418,-19.54838],[-42.67408,-19.54831],[-42.67454,-19.54861]]],[[[-42.67257,-19.58491],[-42.65974,-19.58745],[-42.66001,-19.58698],[-42.66035,-19.58666],[-42.66066,-19.58631],[-42.66144,-19.58565],[-42.66226,-19.58505],[-42.66314,-19.58433],[-42.66369,-19.58403],[-42.66415,-19.58394],[-42.66469,-19.58378],[-42.66502,-19.58371],[-42.66517,-19.58368],[-42.66561,-19.5835],[-42.66607,-19.58343],[-42.66702,-19.58333],[-42.66799,-19.58333],[-42.66845,-19.58345],[-42.66896,-19.58347],[-42.66944,-19.58354],[-42.66991,-19.58367],[-42.67037,-19.58379],[-42.67122,-19.5842],[-42.67165,-19.58438],[-42.67207,-19.58464],[-42.67257,-19.58491]]],[[[-42.66973,-19.54547],[-42.66941,-19.54521],[-42.66911,-19.54613],[-42.66828,-19.54743],[-42.66716,-19.5481],[-42.66466,-19.55058],[-42.66432,-19.55095],[-42.66393,-19.55125],[-42.66332,-19.55175],[-42.66328,-19.55178],[-42.66402,-19.55254],[-42.66344,-19.55195],[-42.66314,-19.55164],[-42.66247,-19.55076],[-42.6623,-19.55056],[-42.66179,-19.55012],[-42.66162,-19.55],[-42.66125,-19.54982],[-42.66105,-19.54962],[-42.66091,-19.54956],[-42.66106,-19.54948],[-42.66107,-19.54943],[-42.6613,-19.54908],[-42.66194,-19.54842],[-42.66224,-19.54845],[-42.66236,-19.54849],[-42.66252,-19.54858],[-42.66261,-19.54867],[-42.663,-19.54838],[-42.66332,-19.54808],[-42.66325,-19.548],[-42.66315,-19.54799],[-42.66298,-19.548],[-42.66275,-19.54797],[-42.6617,-19.54762],[-42.66032,-19.54724],[-42.66067,-19.54582],[-42.66066,-19.54578],[-42.66053,-19.54572],[-42.66158,-19.54514],[-42.66127,-19.54469],[-42.6627,-19.54187],[-42.66339,-19.54187],[-42.66397,-19.54205],[-42.66458,-19.54216],[-42.66514,-19.5423],[-42.66558,-19.54251],[-42.66604,-19.54276],[-42.66652,-19.54299],[-42.66694,-19.54331],[-42.66732,-19.54359],[-42.66769,-19.54388],[-42.66815,-19.5442],[-42.6689,-19.54485],[-42.66937,-19.54517],[-42.66973,-19.54547]]],[[[-42.66849,-19.55292],[-42.66759,-19.55419],[-42.66753,-19.55427],[-42.66849,-19.55292]]],[[[-42.6594,-19.55525],[-42.65803,-19.55705],[-42.65675,-19.55798],[-42.65664,-19.56197],[-42.65664,-19.56225],[-42.65565,-19.56526],[-42.65317,-19.56722],[-42.65315,-19.56738],[-42.65246,-19.56819],[-42.65111,-19.56941],[-42.65035,-19.56875],[-42.65029,-19.56765],[-42.65032,-19.56616],[-42.65062,-19.56442],[-42.65036,-19.56326],[-42.64983,-19.56184],[-42.64954,-19.56144],[-42.64885,-19.56125],[-42.64798,-19.56079],[-42.64587,-19.56127],[-42.64437,-19.56119],[-42.64278,-19.56062],[-42.6412,-19.5601],[-42.64108,-19.55999],[-42.64094,-19.55993],[-42.64113,-19.55977],[-42.64162,-19.55958],[-42.64192,-19.55944],[-42.64213,-19.55931],[-42.64223,-19.55916],[-42.64228,-19.55896],[-42.64229,-19.55886],[-42.64226,-19.55868],[-42.64172,-19.55771],[-42.64158,-19.55735],[-42.64122,-19.5556],[-42.64106,-19.5546],[-42.64164,-19.55403],[-42.64169,-19.55413],[-42.64312,-19.55507],[-42.64448,-19.55368],[-42.64518,-19.55292],[-42.6451,-19.55258],[-42.64498,-19.5524],[-42.64445,-19.552],[-42.64453,-19.55194],[-42.64456,-19.55188],[-42.64479,-19.55186],[-42.64572,-19.55198],[-42.6457,-19.55174],[-42.64555,-19.55074],[-42.64593,-19.5506],[-42.64603,-19.55059],[-42.64654,-19.55036],[-42.64696,-19.55032],[-42.64702,-19.55028],[-42.64705,-19.55036],[-42.64762,-19.55037],[-42.6476,-19.55021],[-42.64768,-19.54993],[-42.64765,-19.5497],[-42.64763,-19.549],[-42.64765,-19.5482],[-42.64758,-19.54776],[-42.64748,-19.54686],[-42.64762,-19.54606],[-42.64783,-19.54557],[-42.64798,-19.54555],[-42.64818,-19.54526],[-42.64869,-19.54399],[-42.64894,-19.54385],[-42.64935,-19.54387],[-42.64974,-19.54402],[-42.64974,-19.5439],[-42.6499,-19.54374],[-42.64932,-19.54321],[-42.64912,-19.54279],[-42.64878,-19.54246],[-42.64901,-19.54188],[-42.64925,-19.54203],[-42.64957,-19.54235],[-42.64968,-19.54275],[-42.64981,-19.54303],[-42.6501,-19.54344],[-42.6509,-19.54414],[-42.65142,-19.54464],[-42.65172,-19.54488],[-42.65206,-19.54507],[-42.65241,-19.54514],[-42.65362,-19.5453],[-42.65426,-19.54559],[-42.6552,-19.54631],[-42.65584,-19.54672],[-42.65627,-19.54723],[-42.65683,-19.54782],[-42.65677,-19.54795],[-42.65628,-19.54844],[-42.65623,-19.54847],[-42.6562,-19.54855],[-42.65589,-19.54986],[-42.65574,-19.5504],[-42.65555,-19.55084],[-42.65543,-19.55093],[-42.65584,-19.55173],[-42.65605,-19.552],[-42.65613,-19.55204],[-42.65644,-19.55285],[-42.65645,-19.55293],[-42.65642,-19.55301],[-42.65623,-19.55322],[-42.65689,-19.55365],[-42.65821,-19.55388],[-42.6587,-19.55333],[-42.6594,-19.55525]]],[[[-42.65832,-19.54087],[-42.65832,-19.54086],[-42.6579,-19.54041],[-42.65832,-19.54087]]],[[[-42.65712,-19.52902],[-42.65703,-19.52937],[-42.65698,-19.52992],[-42.65679,-19.53129],[-42.65672,-19.53224],[-42.65672,-19.53392],[-42.65672,-19.53398],[-42.6544,-19.53469],[-42.65421,-19.53438],[-42.6542,-19.53387],[-42.65443,-19.53349],[-42.65477,-19.53319],[-42.65501,-19.53276],[-42.65504,-19.53245],[-42.65432,-19.53152],[-42.65371,-19.53199],[-42.65227,-19.53211],[-42.65174,-19.53237],[-42.65091,-19.53289],[-42.65038,-19.53327],[-42.64894,-19.53372],[-42.64929,-19.53458],[-42.65118,-19.53613],[-42.65222,-19.53722],[-42.65124,-19.53806],[-42.65105,-19.53782],[-42.65101,-19.53785],[-42.65092,-19.5381],[-42.65078,-19.5384],[-42.65074,-19.53859],[-42.65067,-19.53984],[-42.64914,-19.54065],[-42.64935,-19.54084],[-42.64917,-19.54149],[-42.64901,-19.54188],[-42.64808,-19.54154],[-42.64759,-19.54131],[-42.6474,-19.54134],[-42.6472,-19.5414],[-42.64678,-19.54175],[-42.64601,-19.54256],[-42.64581,-19.54284],[-42.64559,-19.54331],[-42.64517,-19.54457],[-42.64497,-19.54503],[-42.64473,-19.54531],[-42.6446,-19.54551],[-42.64458,-19.5457],[-42.6445,-19.54658],[-42.64428,-19.5477],[-42.64419,-19.54786],[-42.64399,-19.54799],[-42.64367,-19.54808],[-42.64353,-19.54805],[-42.64347,-19.54792],[-42.64345,-19.54752],[-42.64333,-19.54739],[-42.64308,-19.54738],[-42.64293,-19.54728],[-42.6428,-19.54714],[-42.6426,-19.54694],[-42.64247,-19.54691],[-42.64219,-19.54689],[-42.64145,-19.54665],[-42.64133,-19.5469],[-42.64102,-19.54733],[-42.64087,-19.54738],[-42.64055,-19.54768],[-42.64039,-19.54789],[-42.64038,-19.54842],[-42.64027,-19.54861],[-42.64009,-19.54879],[-42.63992,-19.54926],[-42.63992,-19.54982],[-42.63995,-19.5501],[-42.64004,-19.55035],[-42.64,-19.55051],[-42.63988,-19.55073],[-42.63977,-19.55111],[-42.63972,-19.55148],[-42.63981,-19.55179],[-42.63977,-19.55229],[-42.63979,-19.55274],[-42.63982,-19.55287],[-42.64002,-19.55299],[-42.64022,-19.55318],[-42.64033,-19.55336],[-42.64036,-19.55359],[-42.64031,-19.55394],[-42.64013,-19.55422],[-42.64004,-19.55444],[-42.64001,-19.5548],[-42.64005,-19.55499],[-42.64042,-19.55535],[-42.64051,-19.55546],[-42.64032,-19.55569],[-42.64053,-19.55568],[-42.64064,-19.55586],[-42.64077,-19.55602],[-42.63999,-19.55611],[-42.63993,-19.55614],[-42.63957,-19.55609],[-42.63874,-19.55553],[-42.63673,-19.55458],[-42.63635,-19.55459],[-42.63707,-19.55109],[-42.6375,-19.55082],[-42.63894,-19.54981],[-42.63822,-19.54895],[-42.63774,-19.54927],[-42.63684,-19.54823],[-42.63685,-19.54815],[-42.63668,-19.54803],[-42.63654,-19.54796],[-42.6366,-19.54763],[-42.63657,-19.54755],[-42.6365,-19.54748],[-42.63548,-19.54695],[-42.6354,-19.54685],[-42.63477,-19.54666],[-42.6344,-19.54651],[-42.63389,-19.54633],[-42.63352,-19.54609],[-42.63326,-19.54596],[-42.63307,-19.5458],[-42.63296,-19.54569],[-42.63291,-19.54558],[-42.63249,-19.54453],[-42.6323,-19.544],[-42.6324,-19.54379],[-42.63214,-19.54364],[-42.63073,-19.5465],[-42.62827,-19.54726],[-42.62672,-19.5477],[-42.62549,-19.54816],[-42.62498,-19.54963],[-42.62443,-19.55197],[-42.62361,-19.55399],[-42.62233,-19.55473],[-42.62116,-19.55576],[-42.61885,-19.55819],[-42.61298,-19.56183],[-42.61351,-19.56238],[-42.61536,-19.56431],[-42.61512,-19.5672],[-42.61657,-19.56991],[-42.61926,-19.57685],[-42.63313,-19.57421],[-42.63316,-19.57349],[-42.63321,-19.57296],[-42.63324,-19.57239],[-42.63332,-19.57197],[-42.63424,-19.57125],[-42.63445,-19.571],[-42.63471,-19.57096],[-42.63547,-19.57069],[-42.63566,-19.57068],[-42.63717,-19.57016],[-42.63731,-19.57019],[-42.63801,-19.5699],[-42.63831,-19.56975],[-42.64027,-19.56876],[-42.64039,-19.56986],[-42.64057,-19.57249],[-42.6406,-19.57278],[-42.64066,-19.57302],[-42.64079,-19.57325],[-42.64096,-19.57342],[-42.64105,-19.57356],[-42.64109,-19.57368],[-42.6411,-19.57376],[-42.6418,-19.57467],[-42.64175,-19.57468],[-42.63906,-19.57729],[-42.63978,-19.57716],[-42.63987,-19.57743],[-42.63997,-19.57757],[-42.64022,-19.57785],[-42.64093,-19.57815],[-42.64097,-19.57827],[-42.64081,-19.57844],[-42.64073,-19.57859],[-42.64077,-19.57869],[-42.64085,-19.57874],[-42.64104,-19.57876],[-42.64125,-19.57873],[-42.64144,-19.57865],[-42.642,-19.57835],[-42.6422,-19.57845],[-42.64245,-19.57913],[-42.64251,-19.57924],[-42.64261,-19.57926],[-42.64325,-19.58047],[-42.6435,-19.58089],[-42.64404,-19.58165],[-42.64416,-19.5819],[-42.6442,-19.58185],[-42.6442,-19.58181],[-42.64428,-19.58184],[-42.6444,-19.5819],[-42.64486,-19.58222],[-42.64491,-19.58228],[-42.64495,-19.5824],[-42.64584,-19.58224],[-42.64579,-19.58211],[-42.64571,-19.582],[-42.64622,-19.58165],[-42.64628,-19.58153],[-42.64697,-19.58108],[-42.64724,-19.58089],[-42.64752,-19.58093],[-42.64766,-19.58104],[-42.64778,-19.58118],[-42.6478,-19.58136],[-42.64774,-19.58162],[-42.64772,-19.58181],[-42.6479,-19.58191],[-42.64776,-19.58184],[-42.64756,-19.58266],[-42.64752,-19.58276],[-42.64738,-19.5829],[-42.64714,-19.58308],[-42.64635,-19.5833],[-42.646,-19.58356],[-42.64487,-19.58478],[-42.64469,-19.58487],[-42.64426,-19.58501],[-42.64387,-19.58509],[-42.64369,-19.5851],[-42.64349,-19.58509],[-42.64306,-19.5849],[-42.64299,-19.58487],[-42.64291,-19.58487],[-42.64273,-19.58481],[-42.64259,-19.58489],[-42.64232,-19.58514],[-42.64229,-19.58528],[-42.6423,-19.58536],[-42.64239,-19.58555],[-42.64275,-19.58592],[-42.64212,-19.58609],[-42.64205,-19.58595],[-42.64165,-19.58611],[-42.64164,-19.58625],[-42.64168,-19.58675],[-42.64167,-19.58717],[-42.64136,-19.58718],[-42.64119,-19.58748],[-42.64118,-19.58763],[-42.64114,-19.58778],[-42.64112,-19.58778],[-42.64077,-19.58775],[-42.64078,-19.58678],[-42.64088,-19.58619],[-42.64122,-19.5855],[-42.64127,-19.58541],[-42.64135,-19.58533],[-42.64156,-19.58506],[-42.64207,-19.58461],[-42.64245,-19.58434],[-42.64254,-19.58423],[-42.64297,-19.58421],[-42.64286,-19.58207],[-42.64287,-19.58201],[-42.64319,-19.58194],[-42.64317,-19.58168],[-42.64276,-19.58185],[-42.64237,-19.58211],[-42.64218,-19.58227],[-42.64153,-19.58308],[-42.64135,-19.58335],[-42.64109,-19.58368],[-42.64092,-19.58384],[-42.64083,-19.58391],[-42.64073,-19.58397],[-42.63941,-19.58449],[-42.6385,-19.58489],[-42.63766,-19.58523],[-42.6376,-19.58596],[-42.63597,-19.58699],[-42.63528,-19.58857],[-42.63519,-19.59108],[-42.6357,-19.59112],[-42.63624,-19.59119],[-42.63677,-19.5913],[-42.63772,-19.59179],[-42.63778,-19.59181],[-42.5731,-19.6134],[-42.5655,-19.5862],[-42.5236,-19.5567],[-42.5038,-19.5149],[-42.5143,-19.4923],[-42.5736,-19.5153],[-42.5762,-19.5366],[-42.60857,-19.53357],[-42.60816,-19.53391],[-42.60691,-19.53489],[-42.60676,-19.53508],[-42.60664,-19.53536],[-42.60642,-19.53626],[-42.60611,-19.53679],[-42.60597,-19.53694],[-42.60563,-19.53724],[-42.60514,-19.53752],[-42.6045,-19.53778],[-42.60421,-19.53784],[-42.60396,-19.53787],[-42.60373,-19.53787],[-42.6033,-19.53781],[-42.60292,-19.53787],[-42.60252,-19.53798],[-42.60147,-19.53829],[-42.60121,-19.53831],[-42.60053,-19.53833],[-42.5999,-19.53831],[-42.59802,-19.5383],[-42.59552,-19.53846],[-42.59521,-19.53849],[-42.59441,-19.53859],[-42.59368,-19.53876],[-42.59295,-19.53898],[-42.59197,-19.53942],[-42.59077,-19.54],[-42.59058,-19.54007],[-42.59035,-19.54011],[-42.58978,-19.54011],[-42.5893,-19.54013],[-42.58917,-19.54017],[-42.58893,-19.54036],[-42.58887,-19.54059],[-42.58881,-19.54063],[-42.58871,-19.54066],[-42.58826,-19.54097],[-42.58839,-19.54113],[-42.58832,-19.54135],[-42.58841,-19.54169],[-42.58826,-19.54173],[-42.58802,-19.54163],[-42.58774,-19.54192],[-42.58746,-19.5424],[-42.58731,-19.54261],[-42.58684,-19.54292],[-42.58673,-19.54331],[-42.58689,-19.54386],[-42.58706,-19.54433],[-42.58677,-19.54452],[-42.5867,-19.54469],[-42.58663,-19.54495],[-42.58673,-19.54552],[-42.58667,-19.54579],[-42.58625,-19.5466],[-42.58613,-19.54689],[-42.58617,-19.54708],[-42.58637,-19.54741],[-42.58635,-19.54778],[-42.58603,-19.54813],[-42.5859,-19.54832],[-42.5869,-19.54841],[-42.58699,-19.54895],[-42.58709,-19.54929],[-42.58929,-19.54924],[-42.59189,-19.54802],[-42.59491,-19.54703],[-42.59827,-19.54569],[-42.59696,-19.54262],[-42.60664,-19.5404],[-42.60937,-19.53961],[-42.61367,-19.53824],[-42.61374,-19.53833],[-42.61378,-19.53843],[-42.61381,-19.53855],[-42.6138,-19.53885],[-42.61367,-19.53938],[-42.61363,-19.53951],[-42.61361,-19.53967],[-42.61367,-19.53985],[-42.61382,-19.54004],[-42.61393,-19.54004],[-42.61407,-19.53998],[-42.61413,-19.53986],[-42.61423,-19.53938],[-42.61478,-19.53925],[-42.61499,-19.53915],[-42.61512,-19.53905],[-42.61514,-19.53888],[-42.61508,-19.53846],[-42.61507,-19.53815],[-42.61511,-19.53804],[-42.61523,-19.53793],[-42.61537,-19.53793],[-42.61549,-19.53781],[-42.61565,-19.5376],[-42.61666,-19.53728],[-42.61749,-19.53671],[-42.61884,-19.53671],[-42.62021,-19.53734],[-42.6209,-19.53722],[-42.62167,-19.53752],[-42.62259,-19.53822],[-42.62216,-19.53907],[-42.62258,-19.53928],[-42.62268,-19.53908],[-42.62565,-19.53929],[-42.62648,-19.53771],[-42.62862,-19.53692],[-42.62854,-19.53665],[-42.62846,-19.5359],[-42.62853,-19.53506],[-42.6288,-19.53454],[-42.62883,-19.53439],[-42.62914,-19.534],[-42.62965,-19.53344],[-42.62981,-19.53323],[-42.62927,-19.53305],[-42.62815,-19.53401],[-42.62744,-19.53432],[-42.62663,-19.53445],[-42.62584,-19.53446],[-42.62491,-19.53426],[-42.62405,-19.53379],[-42.62185,-19.53233],[-42.65712,-19.52902]],[[-42.64601,-19.54043],[-42.64452,-19.53938],[-42.64421,-19.5372],[-42.64266,-19.53724],[-42.6411,-19.53668],[-42.64039,-19.53653],[-42.63958,-19.53629],[-42.63872,-19.53609],[-42.63791,-19.53616],[-42.63754,-19.5357],[-42.6374,-19.53614],[-42.63726,-19.5368],[-42.63628,-19.53871],[-42.63584,-19.53959],[-42.63564,-19.54008],[-42.63504,-19.54122],[-42.63436,-19.54261],[-42.6345,-19.54312],[-42.63453,-19.5433],[-42.63542,-19.54379],[-42.63559,-19.54382],[-42.63609,-19.54383],[-42.63622,-19.54355],[-42.63645,-19.54315],[-42.63664,-19.54296],[-42.63685,-19.54285],[-42.63739,-19.54287],[-42.63768,-19.54288],[-42.638,-19.54289],[-42.63833,-19.54292],[-42.6388,-19.54312],[-42.63921,-19.54325],[-42.63965,-19.54334],[-42.64008,-19.54338],[-42.64036,-19.54336],[-42.64054,-19.54329],[-42.64061,-19.54318],[-42.64061,-19.54284],[-42.64069,-19.54257],[-42.64081,-19.54241],[-42.64085,-19.5422],[-42.64089,-19.5421],[-42.64083,-19.5415],[-42.64216,-19.54184],[-42.64284,-19.54207],[-42.64344,-19.54144],[-42.64416,-19.54168],[-42.64397,-19.54249],[-42.64461,-19.54268],[-42.64544,-19.54182],[-42.64598,-19.54094],[-42.64601,-19.54043]],[[-42.60354,-19.56431],[-42.6032,-19.56404],[-42.60268,-19.56421],[-42.60247,-19.5642],[-42.60225,-19.56359],[-42.60192,-19.56336],[-42.60152,-19.56327],[-42.60107,-19.56326],[-42.60063,-19.5631],[-42.60045,-19.56295],[-42.60018,-19.56283],[-42.59998,-19.5627],[-42.59979,-19.56253],[-42.59927,-19.5624],[-42.59924,-19.56236],[-42.59894,-19.56245],[-42.59843,-19.56227],[-42.59803,-19.56198],[-42.59772,-19.56166],[-42.59727,-19.56152],[-42.59698,-19.5615],[-42.59666,-19.56139],[-42.59641,-19.56123],[-42.59622,-19.56105],[-42.59611,-19.56093],[-42.59587,-19.56079],[-42.59555,-19.56067],[-42.59517,-19.56049],[-42.59456,-19.5601],[-42.5945,-19.55986],[-42.59452,-19.55961],[-42.59459,-19.55942],[-42.59469,-19.55927],[-42.5949,-19.55912],[-42.59483,-19.5586],[-42.59448,-19.5581],[-42.59388,-19.55801],[-42.59364,-19.55803],[-42.58988,-19.55694],[-42.58819,-19.55672],[-42.58804,-19.55701],[-42.58813,-19.55722],[-42.58834,-19.55753],[-42.58815,-19.55788],[-42.58813,-19.55819],[-42.58846,-19.55883],[-42.58879,-19.55912],[-42.58915,-19.55931],[-42.58919,-19.55932],[-42.58892,-19.55966],[-42.58864,-19.55939],[-42.58789,-19.56001],[-42.58748,-19.56056],[-42.58676,-19.5614],[-42.58601,-19.56242],[-42.58584,-19.56279],[-42.58622,-19.56405],[-42.58658,-19.56438],[-42.58731,-19.56465],[-42.58808,-19.5649],[-42.58847,-19.56497],[-42.58887,-19.56539],[-42.58906,-19.56538],[-42.58924,-19.56525],[-42.5893,-19.56496],[-42.58939,-19.56481],[-42.5897,-19.56468],[-42.58997,-19.56455],[-42.59028,-19.56436],[-42.59043,-19.56419],[-42.59041,-19.56462],[-42.59032,-19.56495],[-42.59012,-19.56541],[-42.58988,-19.5658],[-42.58957,-19.56627],[-42.58928,-19.5666],[-42.58899,-19.56685],[-42.58993,-19.56753],[-42.58994,-19.56767],[-42.59008,-19.56793],[-42.5904,-19.56807],[-42.59064,-19.56812],[-42.59068,-19.56808],[-42.5955,-19.57159],[-42.59599,-19.5742],[-42.59594,-19.57729],[-42.59683,-19.57843],[-42.59854,-19.5775],[-42.59778,-19.57519],[-42.59791,-19.57362],[-42.59741,-19.57243],[-42.59715,-19.57192],[-42.59655,-19.5711],[-42.59585,-19.57038],[-42.59446,-19.56956],[-42.59389,-19.56905],[-42.59342,-19.56883],[-42.59301,-19.56853],[-42.59254,-19.56806],[-42.5919,-19.56771],[-42.59129,-19.56745],[-42.591,-19.56692],[-42.5912,-19.56652],[-42.59162,-19.56608],[-42.59219,-19.56535],[-42.5923,-19.56507],[-42.59237,-19.56469],[-42.5923,-19.56419],[-42.59201,-19.56366],[-42.5916,-19.56333],[-42.59135,-19.563],[-42.59146,-19.56271],[-42.59175,-19.56278],[-42.59219,-19.56304],[-42.59268,-19.56319],[-42.594,-19.56284],[-42.59494,-19.5628],[-42.59558,-19.56271],[-42.59618,-19.56271],[-42.59682,-19.56275],[-42.59754,-19.56293],[-42.59814,-19.56328],[-42.59834,-19.56363],[-42.59858,-19.56399],[-42.59915,-19.56434],[-42.59975,-19.56452],[-42.60043,-19.5648],[-42.60124,-19.56506],[-42.60204,-19.56471],[-42.6023,-19.56475],[-42.60261,-19.56475],[-42.6033,-19.56471],[-42.60354,-19.56431]],[[-42.58817,-19.5795],[-42.58807,-19.57753],[-42.58725,-19.57583],[-42.5854,-19.5742],[-42.58228,-19.57351],[-42.57997,-19.57318],[-42.57815,-19.57345],[-42.57631,-19.57485],[-42.57494,-19.57672],[-42.57517,-19.57983],[-42.57517,-19.57998],[-42.57661,-19.58028],[-42.57598,-19.58127],[-42.57635,-19.58239],[-42.57571,-19.58242],[-42.57474,-19.58282],[-42.57465,-19.58391],[-42.57587,-19.5837],[-42.57713,-19.58419],[-42.57756,-19.5854],[-42.57814,-19.58618],[-42.57916,-19.58712],[-42.5799,-19.58752],[-42.5808,-19.58775],[-42.58187,-19.58706],[-42.58266,-19.58697],[-42.5832,-19.58752],[-42.58379,-19.58787],[-42.58575,-19.5889],[-42.58732,-19.58741],[-42.5865,-19.58632],[-42.58696,-19.58524],[-42.58787,-19.58234],[-42.58817,-19.5795]]],[[[-42.64831,-19.58427],[-42.64822,-19.5846],[-42.64827,-19.5844],[-42.64831,-19.58427]]]]}},{"type":"Feature","properties":{"territory_id":"mg-3168705-funcionarios","name":"Funcionarios","municipality_id":"mg-3168705","polling_places":1,"approx":false,"official":true,"method":"official-ibge-cd2022","whole_municipality":false,"approx_coords_only":false,"official_name":"Funcionários","official_code":"3168705019","match":"direct"},"geometry":{"type":"MultiPolygon","coordinates":[[[[-42.64702,-19.55028],[-42.64705,-19.55036],[-42.64762,-19.55037],[-42.6476,-19.55021],[-42.64768,-19.54993],[-42.64765,-19.5497],[-42.64763,-19.549],[-42.64765,-19.5482],[-42.64758,-19.54776],[-42.64748,-19.54686],[-42.64762,-19.54606],[-42.64783,-19.54557],[-42.64798,-19.54555],[-42.64818,-19.54526],[-42.64869,-19.54399],[-42.64894,-19.54385],[-42.64935,-19.54387],[-42.64974,-19.54402],[-42.64974,-19.5439],[-42.6499,-19.54374],[-42.64932,-19.54321],[-42.64912,-19.54279],[-42.64878,-19.54246],[-42.64901,-19.54188],[-42.64808,-19.54154],[-42.64759,-19.54131],[-42.6474,-19.54134],[-42.6472,-19.5414],[-42.64678,-19.54175],[-42.64601,-19.54256],[-42.64581,-19.54284],[-42.64559,-19.54331],[-42.64517,-19.54457],[-42.64497,-19.54503],[-42.64473,-19.54531],[-42.6446,-19.54551],[-42.64458,-19.5457],[-42.64503,-19.54579],[-42.64509,-19.54647],[-42.64512,-19.54719],[-42.64511,-19.54751],[-42.64505,-19.5477],[-42.64563,-19.5484],[-42.64563,-19.54849],[-42.64565,-19.54857],[-42.64565,-19.54862],[-42.64541,-19.54925],[-42.64593,-19.5506],[-42.64603,-19.55059],[-42.64654,-19.55036],[-42.64696,-19.55032],[-42.64702,-19.55028]]]]}},{"type":"Feature","properties":{"territory_id":"mg-3168705-limoeiro","name":"Limoeiro","municipality_id":"mg-3168705","polling_places":1,"approx":false,"official":true,"method":"official-ibge-cd2022","whole_municipality":false,"approx_coords_only":false,"official_name":"Limoeiro","official_code":"3168705007","match":"direct"},"geometry":{"type":"MultiPolygon","coordinates":[[[[-42.58887,-19.54059],[-42.58881,-19.54063],[-42.58871,-19.54066],[-42.58826,-19.54097],[-42.58839,-19.54113],[-42.58832,-19.54135],[-42.58841,-19.54169],[-42.58826,-19.54173],[-42.58802,-19.54163],[-42.58774,-19.54192],[-42.58746,-19.5424],[-42.58731,-19.54261],[-42.58684,-19.54292],[-42.58673,-19.54331],[-42.58689,-19.54386],[-42.58706,-19.54433],[-42.58677,-19.54452],[-42.5867,-19.54469],[-42.58663,-19.54495],[-42.58673,-19.54552],[-42.58667,-19.54579],[-42.58625,-19.5466],[-42.58613,-19.54689],[-42.58617,-19.54708],[-42.58637,-19.54741],[-42.58635,-19.54778],[-42.58603,-19.54813],[-42.5859,-19.54832],[-42.5869,-19.54841],[-42.58699,-19.54895],[-42.58709,-19.54929],[-42.58929,-19.54924],[-42.59189,-19.54802],[-42.59491,-19.54703],[-42.59827,-19.54569],[-42.59521,-19.53849],[-42.59441,-19.53859],[-42.59368,-19.53876],[-42.59295,-19.53898],[-42.59197,-19.53942],[-42.59077,-19.54],[-42.59058,-19.54007],[-42.59035,-19.54011],[-42.58978,-19.54011],[-42.5893,-19.54013],[-42.58917,-19.54017],[-42.58893,-19.54036],[-42.58887,-19.54059]]]]}},{"type":"Feature","properties":{"territory_id":"mg-3168705-macuco","name":"Macuco","municipality_id":"mg-3168705","polling_places":1,"approx":false,"official":true,"method":"official-ibge-cd2022","whole_municipality":false,"approx_coords_only":false,"official_name":"Macuco","official_code":"3168705010","match":"direct"},"geometry":{"type":"MultiPolygon","coordinates":[[[[-42.57661,-19.58028],[-42.57598,-19.58127],[-42.57635,-19.58239],[-42.57571,-19.58242],[-42.57474,-19.58282],[-42.57465,-19.58391],[-42.57587,-19.5837],[-42.57713,-19.58419],[-42.57756,-19.5854],[-42.57814,-19.58618],[-42.57916,-19.58712],[-42.5799,-19.58752],[-42.5808,-19.58775],[-42.58187,-19.58706],[-42.58266,-19.58697],[-42.5832,-19.58752],[-42.58379,-19.58787],[-42.58575,-19.5889],[-42.58732,-19.58741],[-42.5865,-19.58632],[-42.58696,-19.58524],[-42.58787,-19.58234],[-42.58817,-19.5795],[-42.58807,-19.57753],[-42.58725,-19.57583],[-42.5854,-19.5742],[-42.58228,-19.57351],[-42.57997,-19.57318],[-42.57815,-19.57345],[-42.57631,-19.57485],[-42.57494,-19.57672],[-42.57517,-19.57983],[-42.57517,-19.57998],[-42.57661,-19.58028]]]]}},{"type":"Feature","properties":{"territory_id":"mg-3168705-novo-horizonte","name":"Novo Horizonte","municipality_id":"mg-3168705","polling_places":1,"approx":false,"official":true,"method":"official-ibge-cd2022","whole_municipality":false,"approx_coords_only":false,"official_name":"Novo Horizonte","official_code":"3168705012","match":"direct"},"geometry":{"type":"MultiPolygon","coordinates":[[[[-42.63684,-19.54823],[-42.63685,-19.54815],[-42.63668,-19.54803],[-42.63654,-19.54796],[-42.6366,-19.54763],[-42.63657,-19.54755],[-42.6365,-19.54748],[-42.63548,-19.54695],[-42.6354,-19.54685],[-42.63477,-19.54666],[-42.6344,-19.54651],[-42.63389,-19.54633],[-42.63352,-19.54609],[-42.63326,-19.54596],[-42.63307,-19.5458],[-42.63296,-19.54569],[-42.63291,-19.54558],[-42.63249,-19.54453],[-42.6323,-19.544],[-42.6324,-19.54379],[-42.63214,-19.54364],[-42.63073,-19.5465],[-42.62827,-19.54726],[-42.62672,-19.5477],[-42.62549,-19.54816],[-42.62498,-19.54963],[-42.62443,-19.55197],[-42.62361,-19.55399],[-42.62233,-19.55473],[-42.62116,-19.55576],[-42.61885,-19.55819],[-42.61298,-19.56183],[-42.61351,-19.56238],[-42.62445,-19.55949],[-42.62974,-19.55813],[-42.63218,-19.55626],[-42.63481,-19.55461],[-42.63635,-19.55459],[-42.63707,-19.55109],[-42.6375,-19.55082],[-42.63894,-19.54981],[-42.63822,-19.54895],[-42.63774,-19.54927],[-42.63684,-19.54823]]]]}},{"type":"Feature","properties":{"territory_id":"mg-3168705-novo-tempo","name":"Novo Tempo","municipality_id":"mg-3168705","polling_places":1,"approx":false,"official":true,"method":"official-ibge-cd2022","whole_municipality":false,"approx_coords_only":false,"official_name":"Novo Tempo","official_code":"3168705037","match":"direct"},"geometry":{"type":"MultiPolygon","coordinates":[[[[-42.66753,-19.55427],[-42.66741,-19.5542],[-42.66711,-19.5542],[-42.66638,-19.55437],[-42.66607,-19.55438],[-42.66585,-19.55422],[-42.66519,-19.55366],[-42.66402,-19.55254],[-42.66344,-19.55195],[-42.66314,-19.55164],[-42.66247,-19.55076],[-42.6623,-19.55056],[-42.66179,-19.55012],[-42.66162,-19.55],[-42.66125,-19.54982],[-42.66105,-19.54962],[-42.66091,-19.54956],[-42.66091,-19.54962],[-42.66044,-19.5502],[-42.66183,-19.55118],[-42.66241,-19.55171],[-42.662,-19.55194],[-42.66178,-19.55205],[-42.66134,-19.55152],[-42.66016,-19.55065],[-42.66013,-19.55127],[-42.65989,-19.55185],[-42.65937,-19.55244],[-42.6587,-19.55333],[-42.6594,-19.55525],[-42.65803,-19.55705],[-42.65675,-19.55798],[-42.65664,-19.56197],[-42.65792,-19.56166],[-42.66016,-19.56215],[-42.66277,-19.56201],[-42.66682,-19.56209],[-42.6668,-19.56289],[-42.66677,-19.56302],[-42.66659,-19.56344],[-42.66662,-19.56378],[-42.66663,-19.56449],[-42.66717,-19.56458],[-42.66757,-19.5646],[-42.66829,-19.56466],[-42.66717,-19.56644],[-42.66763,-19.56732],[-42.66819,-19.56778],[-42.66959,-19.56859],[-42.67037,-19.56785],[-42.67215,-19.56593],[-42.67188,-19.56534],[-42.67179,-19.56483],[-42.67178,-19.56467],[-42.67358,-19.56483],[-42.67356,-19.56326],[-42.6736,-19.5628],[-42.67435,-19.56148],[-42.67437,-19.56057],[-42.67474,-19.55871],[-42.6736,-19.55645],[-42.673,-19.55616],[-42.67232,-19.55622],[-42.67181,-19.55613],[-42.6719,-19.55599],[-42.67209,-19.55401],[-42.6735,-19.55237],[-42.67407,-19.55197],[-42.67521,-19.55133],[-42.67586,-19.54962],[-42.67571,-19.54946],[-42.6753,-19.54914],[-42.67496,-19.54884],[-42.67454,-19.54861],[-42.67418,-19.54838],[-42.67358,-19.54928],[-42.67244,-19.55047],[-42.67135,-19.55112],[-42.67009,-19.55197],[-42.66952,-19.55239],[-42.66849,-19.55292],[-42.66759,-19.55419],[-42.66753,-19.55427]]]]}},{"type":"Feature","properties":{"territory_id":"mg-3168705-primavera","name":"Primavera","municipality_id":"mg-3168705","polling_places":1,"approx":false,"official":true,"method":"official-ibge-cd2022","whole_municipality":false,"approx_coords_only":false,"official_name":"Primavera","official_code":"3168705023","match":"direct"},"geometry":{"type":"MultiPolygon","coordinates":[[[[-42.64027,-19.56876],[-42.64039,-19.56986],[-42.64142,-19.56986],[-42.64128,-19.57067],[-42.64127,-19.57147],[-42.64181,-19.5719],[-42.64212,-19.57282],[-42.6422,-19.57351],[-42.64264,-19.57417],[-42.64325,-19.57436],[-42.64405,-19.57417],[-42.64558,-19.57463],[-42.64624,-19.57296],[-42.64665,-19.57267],[-42.64783,-19.57282],[-42.64903,-19.57319],[-42.65027,-19.57322],[-42.65088,-19.57296],[-42.65077,-19.57221],[-42.64982,-19.57169],[-42.64957,-19.57084],[-42.64966,-19.57047],[-42.65111,-19.56941],[-42.65035,-19.56875],[-42.65029,-19.56765],[-42.65032,-19.56616],[-42.65062,-19.56442],[-42.65036,-19.56326],[-42.64983,-19.56184],[-42.64954,-19.56144],[-42.64885,-19.56125],[-42.64798,-19.56079],[-42.64587,-19.56127],[-42.64437,-19.56119],[-42.64278,-19.56062],[-42.6412,-19.5601],[-42.64108,-19.55999],[-42.64094,-19.55993],[-42.64113,-19.55977],[-42.64162,-19.55958],[-42.64192,-19.55944],[-42.64213,-19.55931],[-42.64223,-19.55916],[-42.64228,-19.55896],[-42.64229,-19.55886],[-42.64226,-19.55868],[-42.64172,-19.55771],[-42.64158,-19.55735],[-42.64122,-19.5556],[-42.64106,-19.5546],[-42.64042,-19.55535],[-42.64051,-19.55546],[-42.64032,-19.55569],[-42.64053,-19.55568],[-42.64064,-19.55586],[-42.64077,-19.55602],[-42.63999,-19.55611],[-42.63993,-19.55614],[-42.63957,-19.55609],[-42.63874,-19.55553],[-42.63673,-19.55458],[-42.63481,-19.55461],[-42.63218,-19.55626],[-42.62974,-19.55813],[-42.62445,-19.55949],[-42.61351,-19.56238],[-42.61536,-19.56431],[-42.61512,-19.5672],[-42.61657,-19.56991],[-42.61926,-19.57685],[-42.63313,-19.57421],[-42.63316,-19.57349],[-42.63321,-19.57296],[-42.63324,-19.57239],[-42.63332,-19.57197],[-42.63424,-19.57125],[-42.63445,-19.571],[-42.63471,-19.57096],[-42.63547,-19.57069],[-42.63566,-19.57068],[-42.63717,-19.57016],[-42.63731,-19.57019],[-42.63801,-19.5699],[-42.63831,-19.56975],[-42.64027,-19.56876]]]]}},{"type":"Feature","properties":{"territory_id":"mg-3168705-quitandinha","name":"Quitandinha","municipality_id":"mg-3168705","polling_places":1,"approx":false,"official":true,"method":"official-ibge-cd2022","whole_municipality":false,"approx_coords_only":false,"official_name":"Quitandinha","official_code":"3168705015","match":"direct"},"geometry":{"type":"MultiPolygon","coordinates":[[[[-42.63768,-19.54288],[-42.638,-19.54289],[-42.63833,-19.54292],[-42.6388,-19.54312],[-42.63921,-19.54325],[-42.63965,-19.54334],[-42.64008,-19.54338],[-42.64036,-19.54336],[-42.64054,-19.54329],[-42.64061,-19.54318],[-42.64061,-19.54284],[-42.64069,-19.54257],[-42.64081,-19.54241],[-42.64085,-19.5422],[-42.64089,-19.5421],[-42.64083,-19.5415],[-42.64216,-19.54184],[-42.64284,-19.54207],[-42.64344,-19.54144],[-42.64416,-19.54168],[-42.64397,-19.54249],[-42.64461,-19.54268],[-42.64544,-19.54182],[-42.64598,-19.54094],[-42.64601,-19.54043],[-42.64452,-19.53938],[-42.64421,-19.5372],[-42.64266,-19.53724],[-42.6411,-19.53668],[-42.64039,-19.53653],[-42.63958,-19.53629],[-42.63872,-19.53609],[-42.63791,-19.53616],[-42.63754,-19.5357],[-42.6374,-19.53614],[-42.63726,-19.5368],[-42.63628,-19.53871],[-42.63584,-19.53959],[-42.63564,-19.54008],[-42.63504,-19.54122],[-42.63436,-19.54261],[-42.6345,-19.54312],[-42.63453,-19.5433],[-42.63542,-19.54379],[-42.63559,-19.54382],[-42.63609,-19.54383],[-42.63622,-19.54355],[-42.63645,-19.54315],[-42.63664,-19.54296],[-42.63685,-19.54285],[-42.63739,-19.54287],[-42.63768,-19.54288]]]]}},{"type":"Feature","properties":{"territory_id":"mg-3168705-santa-cecilia","name":"Santa Cecilia","municipality_id":"mg-3168705","polling_places":1,"approx":false,"official":true,"method":"official-ibge-cd2022","whole_municipality":false,"approx_coords_only":false,"official_name":"Santa Cecília","official_code":"3168705029","match":"direct"},"geometry":{"type":"MultiPolygon","coordinates":[[[[-42.64776,-19.58184],[-42.64756,-19.58266],[-42.64752,-19.58276],[-42.64738,-19.5829],[-42.64744,-19.58289],[-42.64773,-19.58288],[-42.64805,-19.58289],[-42.64824,-19.58299],[-42.64851,-19.58391],[-42.64848,-19.58395],[-42.64836,-19.58426],[-42.64831,-19.58427],[-42.64822,-19.5846],[-42.64815,-19.58515],[-42.64815,-19.58585],[-42.64824,-19.58608],[-42.64842,-19.58623],[-42.64849,-19.58639],[-42.64866,-19.58647],[-42.64902,-19.58646],[-42.64909,-19.58661],[-42.64906,-19.58673],[-42.64912,-19.58705],[-42.64927,-19.58732],[-42.64943,-19.58736],[-42.65013,-19.58781],[-42.65046,-19.58796],[-42.65137,-19.58828],[-42.65156,-19.58878],[-42.6519,-19.589],[-42.65223,-19.58916],[-42.65251,-19.58936],[-42.65298,-19.58988],[-42.65404,-19.59028],[-42.6548,-19.59066],[-42.65566,-19.59046],[-42.65552,-19.59019],[-42.65532,-19.5897],[-42.65499,-19.58914],[-42.65488,-19.58883],[-42.65447,-19.58809],[-42.65427,-19.58779],[-42.65388,-19.58751],[-42.65336,-19.58695],[-42.65688,-19.5855],[-42.65769,-19.58425],[-42.65811,-19.58308],[-42.65697,-19.58369],[-42.6557,-19.58406],[-42.65492,-19.58312],[-42.65461,-19.58264],[-42.65412,-19.58235],[-42.65386,-19.5823],[-42.6535,-19.58235],[-42.65326,-19.5823],[-42.65315,-19.58222],[-42.65299,-19.58227],[-42.65269,-19.58233],[-42.65239,-19.5826],[-42.6522,-19.58263],[-42.6521,-19.58247],[-42.65192,-19.5825],[-42.65151,-19.58252],[-42.65134,-19.5826],[-42.65106,-19.58261],[-42.65084,-19.58248],[-42.65069,-19.58243],[-42.65034,-19.58236],[-42.65019,-19.58239],[-42.65008,-19.58255],[-42.64988,-19.5827],[-42.64983,-19.58248],[-42.64974,-19.58237],[-42.64948,-19.58226],[-42.64923,-19.58228],[-42.6491,-19.58219],[-42.64909,-19.58199],[-42.64893,-19.58189],[-42.64878,-19.58187],[-42.6487,-19.5817],[-42.64846,-19.5817],[-42.64832,-19.58184],[-42.6481,-19.58187],[-42.64802,-19.58193],[-42.6479,-19.58191],[-42.64776,-19.58184]]]]}},{"type":"Feature","properties":{"territory_id":"mg-3168705-sao-jose","name":"Sao Jose","municipality_id":"mg-3168705","polling_places":1,"approx":false,"official":true,"method":"official-ibge-cd2022","whole_municipality":false,"approx_coords_only":false,"official_name":"São José","official_code":"3168705030","match":"direct"},"geometry":{"type":"MultiPolygon","coordinates":[[[[-42.6418,-19.57467],[-42.64175,-19.57468],[-42.63906,-19.57729],[-42.63978,-19.57716],[-42.63987,-19.57743],[-42.63997,-19.57757],[-42.64022,-19.57785],[-42.64093,-19.57815],[-42.64097,-19.57827],[-42.64081,-19.57844],[-42.64073,-19.57859],[-42.64077,-19.57869],[-42.64085,-19.57874],[-42.64104,-19.57876],[-42.64125,-19.57873],[-42.64144,-19.57865],[-42.642,-19.57835],[-42.6422,-19.57845],[-42.64245,-19.57913],[-42.64251,-19.57924],[-42.64261,-19.57926],[-42.64325,-19.58047],[-42.6435,-19.58089],[-42.64404,-19.58165],[-42.64416,-19.5819],[-42.6442,-19.58185],[-42.6442,-19.58181],[-42.64428,-19.58184],[-42.6444,-19.5819],[-42.64486,-19.58222],[-42.64491,-19.58228],[-42.64495,-19.5824],[-42.64584,-19.58224],[-42.64579,-19.58211],[-42.64571,-19.582],[-42.64622,-19.58165],[-42.64628,-19.58153],[-42.64697,-19.58108],[-42.64724,-19.58089],[-42.64752,-19.58093],[-42.64766,-19.58104],[-42.64778,-19.58118],[-42.6478,-19.58136],[-42.64774,-19.58162],[-42.64772,-19.58181],[-42.6479,-19.58191],[-42.64802,-19.58193],[-42.6481,-19.58187],[-42.64832,-19.58184],[-42.64846,-19.5817],[-42.6487,-19.5817],[-42.64878,-19.58187],[-42.64893,-19.58189],[-42.64909,-19.58199],[-42.6491,-19.58219],[-42.64923,-19.58228],[-42.64948,-19.58226],[-42.64974,-19.58237],[-42.64983,-19.58248],[-42.64988,-19.5827],[-42.65008,-19.58255],[-42.65019,-19.58239],[-42.65034,-19.58236],[-42.65069,-19.58243],[-42.65084,-19.58248],[-42.65106,-19.58261],[-42.65134,-19.5826],[-42.65151,-19.58252],[-42.65192,-19.5825],[-42.6521,-19.58247],[-42.6522,-19.58263],[-42.65239,-19.5826],[-42.65269,-19.58233],[-42.65299,-19.58227],[-42.65315,-19.58222],[-42.65326,-19.5823],[-42.6535,-19.58235],[-42.65386,-19.5823],[-42.65412,-19.58235],[-42.65461,-19.58264],[-42.65492,-19.58312],[-42.6557,-19.58406],[-42.65697,-19.58369],[-42.65811,-19.58308],[-42.65769,-19.58425],[-42.65688,-19.5855],[-42.65336,-19.58695],[-42.65388,-19.58751],[-42.65427,-19.58779],[-42.65447,-19.58809],[-42.65488,-19.58883],[-42.65499,-19.58914],[-42.65532,-19.5897],[-42.65552,-19.59019],[-42.65566,-19.59046],[-42.65601,-19.59037],[-42.6568,-19.59004],[-42.65745,-19.58964],[-42.65845,-19.58953],[-42.65892,-19.5895],[-42.65931,-19.58827],[-42.6595,-19.58786],[-42.66001,-19.58698],[-42.66035,-19.58666],[-42.66066,-19.58631],[-42.66144,-19.58565],[-42.66226,-19.58505],[-42.66314,-19.58433],[-42.66369,-19.58403],[-42.66415,-19.58394],[-42.66469,-19.58378],[-42.66502,-19.58371],[-42.66453,-19.58233],[-42.66374,-19.57992],[-42.66279,-19.57929],[-42.66126,-19.57888],[-42.66001,-19.57801],[-42.66012,-19.57657],[-42.6582,-19.57613],[-42.65769,-19.57441],[-42.6572,-19.57248],[-42.65567,-19.57133],[-42.65336,-19.57043],[-42.65111,-19.56941],[-42.64966,-19.57047],[-42.64957,-19.57084],[-42.64982,-19.57169],[-42.65077,-19.57221],[-42.65088,-19.57296],[-42.65027,-19.57322],[-42.64903,-19.57319],[-42.64783,-19.57282],[-42.64665,-19.57267],[-42.64624,-19.57296],[-42.64558,-19.57463],[-42.64405,-19.57417],[-42.64325,-19.57436],[-42.64264,-19.57417],[-42.6422,-19.57351],[-42.64212,-19.57282],[-42.64181,-19.5719],[-42.64127,-19.57147],[-42.64128,-19.57067],[-42.64142,-19.56986],[-42.64039,-19.56986],[-42.64057,-19.57249],[-42.6406,-19.57278],[-42.64066,-19.57302],[-42.64079,-19.57325],[-42.64096,-19.57342],[-42.64105,-19.57356],[-42.64109,-19.57368],[-42.6411,-19.57376],[-42.6418,-19.57467]]]]}},{"type":"Feature","properties":{"territory_id":"mg-3168705-timirim","name":"Timirim","municipality_id":"mg-3168705","polling_places":1,"approx":false,"official":true,"method":"official-ibge-cd2022","whole_municipality":false,"approx_coords_only":false,"official_name":"Timirim","official_code":"3168705018","match":"direct"},"geometry":{"type":"MultiPolygon","coordinates":[[[[-42.64164,-19.55403],[-42.64169,-19.55413],[-42.64312,-19.55507],[-42.64448,-19.55368],[-42.64518,-19.55292],[-42.6451,-19.55258],[-42.64498,-19.5524],[-42.64445,-19.552],[-42.64453,-19.55194],[-42.64456,-19.55188],[-42.64479,-19.55186],[-42.64572,-19.55198],[-42.6457,-19.55174],[-42.64555,-19.55074],[-42.64593,-19.5506],[-42.64541,-19.54925],[-42.64565,-19.54862],[-42.64565,-19.54857],[-42.64563,-19.54849],[-42.64563,-19.5484],[-42.64505,-19.5477],[-42.64511,-19.54751],[-42.64512,-19.54719],[-42.64509,-19.54647],[-42.64503,-19.54579],[-42.64458,-19.5457],[-42.6445,-19.54658],[-42.64428,-19.5477],[-42.64419,-19.54786],[-42.64399,-19.54799],[-42.64367,-19.54808],[-42.64353,-19.54805],[-42.64347,-19.54792],[-42.64345,-19.54752],[-42.64333,-19.54739],[-42.64308,-19.54738],[-42.64293,-19.54728],[-42.6428,-19.54714],[-42.6426,-19.54694],[-42.64247,-19.54691],[-42.64219,-19.54689],[-42.64145,-19.54665],[-42.64133,-19.5469],[-42.64102,-19.54733],[-42.64087,-19.54738],[-42.64055,-19.54768],[-42.64039,-19.54789],[-42.64038,-19.54842],[-42.64027,-19.54861],[-42.64009,-19.54879],[-42.63992,-19.54926],[-42.63992,-19.54982],[-42.63995,-19.5501],[-42.64004,-19.55035],[-42.64,-19.55051],[-42.63988,-19.55073],[-42.63977,-19.55111],[-42.63972,-19.55148],[-42.63981,-19.55179],[-42.63977,-19.55229],[-42.63979,-19.55274],[-42.63982,-19.55287],[-42.64002,-19.55299],[-42.64022,-19.55318],[-42.64033,-19.55336],[-42.64036,-19.55359],[-42.64031,-19.55394],[-42.64013,-19.55422],[-42.64004,-19.55444],[-42.64001,-19.5548],[-42.64005,-19.55499],[-42.64042,-19.55535],[-42.64106,-19.5546],[-42.64164,-19.55403]]]]}},{"type":"Feature","properties":{"territory_id":"mg-3168705-vale-verde","name":"Vale Verde","municipality_id":"mg-3168705","polling_places":1,"approx":false,"official":true,"method":"official-ibge-cd2022","whole_municipality":false,"approx_coords_only":false,"official_name":"Vale Verde","official_code":"3168705036","match":"direct"},"geometry":{"type":"MultiPolygon","coordinates":[[[[-42.66328,-19.55178],[-42.66402,-19.55254],[-42.66519,-19.55366],[-42.66585,-19.55422],[-42.66607,-19.55438],[-42.66638,-19.55437],[-42.66711,-19.5542],[-42.66741,-19.5542],[-42.66753,-19.55427],[-42.66849,-19.55292],[-42.66952,-19.55239],[-42.67009,-19.55197],[-42.67135,-19.55112],[-42.67244,-19.55047],[-42.67358,-19.54928],[-42.67418,-19.54838],[-42.67408,-19.54831],[-42.67367,-19.54811],[-42.67316,-19.54781],[-42.67274,-19.54753],[-42.67223,-19.54723],[-42.67172,-19.54689],[-42.67129,-19.54664],[-42.67044,-19.54611],[-42.66973,-19.54547],[-42.66941,-19.54521],[-42.66911,-19.54613],[-42.66828,-19.54743],[-42.66716,-19.5481],[-42.66466,-19.55058],[-42.66432,-19.55095],[-42.66393,-19.55125],[-42.66332,-19.55175],[-42.66328,-19.55178]]]]}}]}