{"type":"FeatureCollection","features":[{"type":"Feature","properties":{"territory_id":"mg-3168408-bananal-de-baixo","name":"Bananal de Baixo","municipality_id":"mg-3168408","polling_places":1,"approx":true,"official":false,"method":"voronoi-polling-places","whole_municipality":false,"approx_coords_only":false},"geometry":{"type":"MultiPolygon","coordinates":[[[[-41.91216,-19.3732],[-41.8876,-19.3865],[-41.85494,-19.41461],[-41.83104,-19.32041],[-41.91216,-19.3732]]]]}},{"type":"Feature","properties":{"territory_id":"mg-3168408-bananal-de-cima","name":"Bananal de Cima","municipality_id":"mg-3168408","polling_places":1,"approx":true,"official":false,"method":"voronoi-polling-places","whole_municipality":false,"approx_coords_only":false},"geometry":{"type":"MultiPolygon","coordinates":[[[[-41.85494,-19.41461],[-41.8467,-19.4217],[-41.8228,-19.4273],[-41.7677,-19.4065],[-41.74816,-19.36294],[-41.77226,-19.31961],[-41.82864,-19.31586],[-41.83104,-19.32041],[-41.85494,-19.41461]]]]}},{"type":"Feature","properties":{"territory_id":"mg-3168408-beija-flor","name":"Beija-flor","municipality_id":"mg-3168408","polling_places":1,"approx":true,"official":false,"method":"voronoi-polling-places","whole_municipality":false,"approx_coords_only":false},"geometry":{"type":"MultiPolygon","coordinates":[[[[-42.01006,-19.19812],[-42.00298,-19.28178],[-42.00156,-19.28469],[-41.91792,-19.23992],[-41.9585,-19.2312],[-41.9309,-19.1781],[-41.9669,-19.1401],[-42.0064,-19.1691],[-42.01006,-19.19812]]]]}},{"type":"Feature","properties":{"territory_id":"mg-3168408-cafemirim","name":"Cafemirim","municipality_id":"mg-3168408","polling_places":1,"approx":true,"official":false,"method":"voronoi-polling-places","whole_municipality":false,"approx_coords_only":false},"geometry":{"type":"MultiPolygon","coordinates":[[[[-42.02975,-19.31688],[-42.02097,-19.33623],[-42.00156,-19.28469],[-42.00298,-19.28178],[-42.00589,-19.2819],[-42.02975,-19.31688]]]]}},{"type":"Feature","properties":{"territory_id":"mg-3168408-centro","name":"Centro","municipality_id":"mg-3168408","polling_places":3,"approx":true,"official":false,"method":"voronoi-polling-places","whole_municipality":false,"approx_coords_only":false},"geometry":{"type":"MultiPolygon","coordinates":[[[[-42.05366,-19.2504],[-42.04768,-19.27919],[-42.02975,-19.31688],[-42.00589,-19.2819],[-42.00298,-19.28178],[-42.01006,-19.19812],[-42.0142,-19.2309],[-42.0377,-19.2534],[-42.05366,-19.2504]]],[[[-42.02097,-19.33623],[-42.00561,-19.37897],[-41.9913,-19.3804],[-41.9596,-19.3475],[-41.9553,-19.34983],[-41.90797,-19.24209],[-41.90797,-19.24206],[-41.91792,-19.23992],[-42.00156,-19.28469],[-42.02097,-19.33623]]]]}},{"type":"Feature","properties":{"territory_id":"mg-3168408-dom-carloto","name":"Dom Carloto","municipality_id":"mg-3168408","polling_places":1,"approx":true,"official":false,"method":"voronoi-polling-places","whole_municipality":false,"approx_coords_only":false},"geometry":{"type":"MultiPolygon","coordinates":[[[[-42.1195,-19.3161],[-42.11726,-19.34022],[-42.04768,-19.27919],[-42.05366,-19.2504],[-42.0867,-19.2442],[-42.0882,-19.2748],[-42.1195,-19.3161]]]]}},{"type":"Feature","properties":{"territory_id":"mg-3168408-pega-bem","name":"Pega Bem","municipality_id":"mg-3168408","polling_places":1,"approx":true,"official":false,"method":"voronoi-polling-places","whole_municipality":false,"approx_coords_only":false},"geometry":{"type":"MultiPolygon","coordinates":[[[[-41.77226,-19.31961],[-41.74816,-19.36294],[-41.7459,-19.3579],[-41.7037,-19.3323],[-41.6839,-19.3054],[-41.7039,-19.2732],[-41.74597,-19.25751],[-41.77226,-19.31961]]]]}},{"type":"Feature","properties":{"territory_id":"mg-3168408-sao-vicente-do-rio-doce","name":"São Vicente do Rio Doce","municipality_id":"mg-3168408","polling_places":1,"approx":true,"official":false,"method":"voronoi-polling-places","whole_municipality":false,"approx_coords_only":false},"geometry":{"type":"MultiPolygon","coordinates":[[[[-41.90797,-19.24206],[-41.90797,-19.24209],[-41.82864,-19.31586],[-41.77226,-19.31961],[-41.74597,-19.25751],[-41.7763,-19.2462],[-41.7828,-19.2179],[-41.8877,-19.2184],[-41.9073,-19.2422],[-41.90797,-19.24206]]]]}},{"type":"Feature","properties":{"territory_id":"mg-3168408-taruacu-de-minas","name":"Taruaçu de Minas","municipality_id":"mg-3168408","polling_places":1,"approx":true,"official":false,"method":"voronoi-polling-places","whole_municipality":false,"approx_coords_only":false},"geometry":{"type":"MultiPolygon","coordinates":[[[[-42.11726,-19.34022],[-42.1168,-19.3452],[-42.0977,-19.3632],[-42.042,-19.357],[-42.0284,-19.3767],[-42.00561,-19.37897],[-42.02097,-19.33623],[-42.02975,-19.31688],[-42.04768,-19.27919],[-42.11726,-19.34022]]]]}},{"type":"Feature","properties":{"territory_id":"mg-3168408-vai-volta","name":"Vai Volta","municipality_id":"mg-3168408","polling_places":1,"approx":true,"official":false,"method":"voronoi-polling-places","whole_municipality":false,"approx_coords_only":false},"geometry":{"type":"MultiPolygon","coordinates":[[[[-41.9553,-19.34983],[-41.91216,-19.3732],[-41.83104,-19.32041],[-41.82864,-19.31586],[-41.90797,-19.24209],[-41.9553,-19.34983]]]]}}]}