{"type":"FeatureCollection","features":[{"type":"Feature","properties":{"territory_id":"mg-3168903-cabiceira-da-lagoinha","name":"Cabiceira da Lagoinha","municipality_id":"mg-3168903","polling_places":1,"approx":true,"official":false,"method":"voronoi-polling-places","whole_municipality":false,"approx_coords_only":false},"geometry":{"type":"MultiPolygon","coordinates":[[[[-46.05422,-19.07115],[-45.96463,-19.07249],[-45.9651,-19.05803],[-45.96936,-19.00734],[-45.97498,-18.9978],[-46.02174,-18.93978],[-46.0282,-18.9459],[-46.0386,-18.9935],[-46.05422,-19.07115]]]]}},{"type":"Feature","properties":{"territory_id":"mg-3168903-centro","name":"Centro","municipality_id":"mg-3168903","polling_places":5,"approx":true,"official":false,"method":"voronoi-polling-places","whole_municipality":false,"approx_coords_only":false},"geometry":{"type":"MultiPolygon","coordinates":[[[[-46.02174,-18.93978],[-45.97498,-18.9978],[-45.96936,-19.00734],[-45.9651,-19.05803],[-45.96463,-19.07249],[-45.88965,-19.08041],[-45.79418,-18.98632],[-45.78144,-18.97415],[-45.96541,-18.83942],[-45.9771,-18.8975],[-46.02174,-18.93978]]]]}},{"type":"Feature","properties":{"territory_id":"mg-3168903-zona-rural","name":"Zona Rural","municipality_id":"mg-3168903","polling_places":3,"approx":true,"official":false,"method":"voronoi-polling-places","whole_municipality":false,"approx_coords_only":false},"geometry":{"type":"MultiPolygon","coordinates":[[[[-46.0558,-19.079],[-46.0018,-19.1794],[-45.9837,-19.189],[-45.9328,-19.1566],[-45.8759,-19.1545],[-45.8339,-19.1797],[-45.8039,-19.196],[-45.7841,-19.1572],[-45.742,-19.0511],[-45.7156,-19.0315],[-45.6994,-18.9847],[-45.6692,-18.8452],[-45.6454,-18.8365],[-45.637,-18.7919],[-45.702,-18.7611],[-45.6922,-18.7085],[-45.6683,-18.7005],[-45.6391,-18.665],[-45.6372,-18.609],[-45.6155,-18.5724],[-45.6225,-18.522],[-45.6448,-18.482],[-45.7049,-18.4886],[-45.7226,-18.5071],[-45.7732,-18.467],[-45.7944,-18.4859],[-45.8015,-18.5359],[-45.8291,-18.5872],[-45.8331,-18.6128],[-45.8623,-18.6397],[-45.8624,-18.6716],[-45.899,-18.7385],[-45.9499,-18.7623],[-45.96541,-18.83942],[-45.78144,-18.97415],[-45.79418,-18.98632],[-45.88965,-19.08041],[-45.96463,-19.07249],[-46.05422,-19.07115],[-46.0558,-19.079]]]]}}]}