{"type":"FeatureCollection","features":[{"type":"Feature","properties":{"territory_id":"mg-3168101-centro","name":"Centro","municipality_id":"mg-3168101","polling_places":2,"approx":true,"official":false,"method":"voronoi-polling-places","whole_municipality":false,"approx_coords_only":false},"geometry":{"type":"MultiPolygon","coordinates":[[[[-46.9557,-20.02331],[-46.9533,-20.0272],[-46.8584,-20.0312],[-46.8305,-20.0496],[-46.8034,-20.0255],[-46.7507,-20.0271],[-46.6974,-20.0485],[-46.6294,-20.0404],[-46.6261,-19.9939],[-46.6286,-19.9414],[-46.6006,-19.9268],[-46.6125,-19.9054],[-46.6671,-19.872],[-46.6796,-19.8974],[-46.7143,-19.8458],[-46.826,-19.7746],[-46.8713,-19.787],[-46.89638,-19.7852],[-46.89775,-19.79091],[-46.9557,-20.02331]]]]}},{"type":"Feature","properties":{"territory_id":"mg-3168101-zona-rural","name":"Zona Rural","municipality_id":"mg-3168101","polling_places":1,"approx":true,"official":false,"method":"voronoi-polling-places","whole_municipality":false,"approx_coords_only":false},"geometry":{"type":"MultiPolygon","coordinates":[[[[-47.1688,-19.8703],[-47.1007,-19.9098],[-47.0635,-19.9606],[-47.0546,-19.9918],[-47.018,-20.0131],[-46.9639,-20.01],[-46.9557,-20.02331],[-46.89775,-19.79091],[-46.89638,-19.7852],[-46.977,-19.7794],[-47.0149,-19.8066],[-47.0428,-19.8087],[-47.0735,-19.8368],[-47.1216,-19.8477],[-47.1688,-19.8703]]]]}}]}