{"type":"FeatureCollection","features":[{"type":"Feature","properties":{"territory_id":"mg-3168507-alice-lopes-baiao","name":"Alice Lopes Baião","municipality_id":"mg-3168507","polling_places":1,"approx":true,"official":false,"method":"voronoi-polling-places","whole_municipality":false,"approx_coords_only":false},"geometry":{"type":"MultiPolygon","coordinates":[[[[-42.86873,-20.65915],[-42.85629,-20.66094],[-42.85763,-20.65466],[-42.85889,-20.65408],[-42.86873,-20.65915]]]]}},{"type":"Feature","properties":{"territory_id":"mg-3168507-centro","name":"Centro","municipality_id":"mg-3168507","polling_places":8,"approx":true,"official":false,"method":"voronoi-polling-places","whole_municipality":false,"approx_coords_only":false},"geometry":{"type":"MultiPolygon","coordinates":[[[[-42.94468,-20.62494],[-42.9296,-20.6614],[-42.92761,-20.66446],[-42.87724,-20.65861],[-42.86873,-20.65915],[-42.85889,-20.65408],[-42.85763,-20.65466],[-42.85629,-20.66094],[-42.85086,-20.66267],[-42.84405,-20.6677],[-42.84884,-20.63266],[-42.84625,-20.61948],[-42.94468,-20.62494]],[[-42.86217,-20.65093],[-42.85002,-20.63537],[-42.85244,-20.64384],[-42.8538,-20.65263],[-42.8568,-20.6531],[-42.85791,-20.6525],[-42.85787,-20.65141],[-42.85774,-20.6508],[-42.86217,-20.65093]]]]}},{"type":"Feature","properties":{"territory_id":"mg-3168507-dona-amelia","name":"Dona Amélia","municipality_id":"mg-3168507","polling_places":2,"approx":true,"official":false,"method":"voronoi-polling-places","whole_municipality":false,"approx_coords_only":false},"geometry":{"type":"MultiPolygon","coordinates":[[[[-42.92761,-20.66446],[-42.911,-20.69],[-42.883,-20.6951],[-42.8455,-20.6737],[-42.83935,-20.67365],[-42.84405,-20.6677],[-42.85086,-20.66267],[-42.85629,-20.66094],[-42.86873,-20.65915],[-42.87724,-20.65861],[-42.92761,-20.66446]]],[[[-42.86217,-20.65093],[-42.85774,-20.6508],[-42.85244,-20.64384],[-42.85002,-20.63537],[-42.86217,-20.65093]]]]}},{"type":"Feature","properties":{"territory_id":"mg-3168507-progresso","name":"Progresso","municipality_id":"mg-3168507","polling_places":1,"approx":true,"official":false,"method":"voronoi-polling-places","whole_municipality":false,"approx_coords_only":false},"geometry":{"type":"MultiPolygon","coordinates":[[[[-42.84884,-20.63266],[-42.84405,-20.6677],[-42.83935,-20.67365],[-42.7823,-20.6732],[-42.7691,-20.6677],[-42.7656,-20.6257],[-42.8012,-20.606],[-42.80563,-20.60305],[-42.84625,-20.61948],[-42.84884,-20.63266]]]]}},{"type":"Feature","properties":{"territory_id":"mg-3168507-vila-santana","name":"Vila Santana","municipality_id":"mg-3168507","polling_places":1,"approx":true,"official":false,"method":"voronoi-polling-places","whole_municipality":false,"approx_coords_only":false},"geometry":{"type":"MultiPolygon","coordinates":[[[[-42.85791,-20.6525],[-42.8568,-20.6531],[-42.8538,-20.65263],[-42.85244,-20.64384],[-42.85774,-20.6508],[-42.85787,-20.65141],[-42.85791,-20.6525]]]]}},{"type":"Feature","properties":{"territory_id":"mg-3168507-zona-rural","name":"Zona Rural","municipality_id":"mg-3168507","polling_places":1,"approx":true,"official":false,"method":"voronoi-polling-places","whole_municipality":false,"approx_coords_only":false},"geometry":{"type":"MultiPolygon","coordinates":[[[[-42.9473,-20.6186],[-42.94468,-20.62494],[-42.84625,-20.61948],[-42.80563,-20.60305],[-42.8697,-20.5605],[-42.882,-20.5686],[-42.9473,-20.6186]]]]}}]}