{"type":"FeatureCollection","features":[{"type":"Feature","properties":{"territory_id":"mg-3168051-centro","name":"Centro","municipality_id":"mg-3168051","polling_places":3,"approx":true,"official":false,"method":"voronoi-polling-places","whole_municipality":true,"approx_coords_only":false},"geometry":{"type":"MultiPolygon","coordinates":[[[[-41.5909,-19.8073],[-41.5806,-19.7733],[-41.555,-19.7554],[-41.5558,-19.7298],[-41.5158,-19.7178],[-41.4953,-19.6965],[-41.5851,-19.6831],[-41.6414,-19.6672],[-41.6798,-19.6897],[-41.6652,-19.7686],[-41.6736,-19.7987],[-41.655,-19.8321],[-41.5909,-19.8073]]]]}}]}