{"type":"FeatureCollection","features":[{"type":"Feature","properties":{"territory_id":"mg-3168200-altolandia","name":"Altolândia","municipality_id":"mg-3168200","polling_places":1,"approx":true,"official":false,"method":"voronoi-polling-places","whole_municipality":false,"approx_coords_only":true},"geometry":{"type":"MultiPolygon","coordinates":[[[[-46.3215,-19.8156],[-46.3109,-19.8627],[-46.2757,-19.9131],[-46.2365,-19.9202],[-46.2223,-19.8997],[-46.16418,-19.94115],[-46.16418,-19.80262],[-46.208,-19.8039],[-46.2256,-19.7964],[-46.2434,-19.7847],[-46.3215,-19.8156]]]]}},{"type":"Feature","properties":{"territory_id":"mg-3168200-centro","name":"Centro","municipality_id":"mg-3168200","polling_places":1,"approx":true,"official":false,"method":"voronoi-polling-places","whole_municipality":false,"approx_coords_only":true},"geometry":{"type":"MultiPolygon","coordinates":[[[[-46.16418,-19.94115],[-46.1421,-19.9569],[-46.1165,-19.9601],[-46.0283,-19.9485],[-45.9901,-19.9508],[-45.9888,-19.9129],[-46.0267,-19.8708],[-46.0642,-19.8666],[-46.0882,-19.8329],[-46.1327,-19.8017],[-46.16418,-19.80262],[-46.16418,-19.94115]]]]}}]}