{"type":"FeatureCollection","features":[{"type":"Feature","properties":{"territory_id":"mg-3168309-centro","name":"Centro","municipality_id":"mg-3168309","polling_places":2,"approx":true,"official":false,"method":"voronoi-polling-places","whole_municipality":false,"approx_coords_only":false},"geometry":{"type":"MultiPolygon","coordinates":[[[[-43.75064,-19.56206],[-43.74625,-19.58217],[-43.72525,-19.68344],[-43.70065,-19.74335],[-43.6331,-19.715],[-43.6289,-19.6946],[-43.5986,-19.627],[-43.5936,-19.5781],[-43.5748,-19.5451],[-43.5822,-19.5137],[-43.6369,-19.5587],[-43.7187,-19.5496],[-43.75064,-19.56206]]]]}},{"type":"Feature","properties":{"territory_id":"mg-3168309-cumbe","name":"Cumbe","municipality_id":"mg-3168309","polling_places":1,"approx":true,"official":false,"method":"voronoi-polling-places","whole_municipality":false,"approx_coords_only":false},"geometry":{"type":"MultiPolygon","coordinates":[[[[-43.7704,-19.7255],[-43.7084,-19.7466],[-43.70065,-19.74335],[-43.72525,-19.68344],[-43.76525,-19.69203],[-43.7704,-19.7255]]]]}},{"type":"Feature","properties":{"territory_id":"mg-3168309-engenho","name":"Engenho","municipality_id":"mg-3168309","polling_places":1,"approx":true,"official":false,"method":"voronoi-polling-places","whole_municipality":false,"approx_coords_only":false},"geometry":{"type":"MultiPolygon","coordinates":[[[[-43.7822,-19.6111],[-43.755,-19.6254],[-43.76525,-19.69203],[-43.72525,-19.68344],[-43.74625,-19.58217],[-43.75064,-19.56206],[-43.7679,-19.5688],[-43.7822,-19.6111]]]]}}]}