{"type":"FeatureCollection","features":[{"type":"Feature","properties":{"territory_id":"mg-3169505-assentamento-primeiro-de-junho","name":"Assentamento Primeiro de Junho","municipality_id":"mg-3169505","polling_places":1,"approx":true,"official":false,"method":"voronoi-polling-places","whole_municipality":false,"approx_coords_only":false},"geometry":{"type":"MultiPolygon","coordinates":[[[[-41.75388,-18.98611],[-41.7405,-18.9998],[-41.7358,-19.0485],[-41.6986,-19.0457],[-41.7051,-19.0947],[-41.6744,-19.1483],[-41.6339,-19.1771],[-41.6114,-19.142],[-41.6171,-19.1165],[-41.5591,-19.1009],[-41.5319,-19.0376],[-41.53522,-19.02219],[-41.56554,-19.01266],[-41.647,-18.98761],[-41.75322,-18.9804],[-41.75388,-18.98611]]]]}},{"type":"Feature","properties":{"territory_id":"mg-3169505-centro","name":"Centro","municipality_id":"mg-3169505","polling_places":3,"approx":true,"official":false,"method":"voronoi-polling-places","whole_municipality":false,"approx_coords_only":false},"geometry":{"type":"MultiPolygon","coordinates":[[[[-41.75322,-18.9804],[-41.647,-18.98761],[-41.56554,-19.01266],[-41.53522,-19.02219],[-41.5371,-19.0135],[-41.6127,-18.9742],[-41.6728,-18.9633],[-41.7058,-18.9406],[-41.7134,-18.9101],[-41.75076,-18.89978],[-41.75322,-18.9804]]]]}},{"type":"Feature","properties":{"territory_id":"mg-3169505-distrito-sao-geraldo-de-tumiritinga","name":"Distrito São Geraldo de Tumiritinga","municipality_id":"mg-3169505","polling_places":1,"approx":true,"official":false,"method":"voronoi-polling-places","whole_municipality":false,"approx_coords_only":false},"geometry":{"type":"MultiPolygon","coordinates":[[[[-41.9373,-18.9831],[-41.889,-19.0215],[-41.8043,-18.9759],[-41.7666,-18.9731],[-41.75388,-18.98611],[-41.75322,-18.9804],[-41.75076,-18.89978],[-41.759,-18.8975],[-41.8435,-18.9247],[-41.8923,-18.9334],[-41.9373,-18.9831]]]]}}]}