{"type":"FeatureCollection","features":[{"type":"Feature","properties":{"territory_id":"mg-3169604-bairro-das-andorinhas","name":"Bairro das Andorinhas","municipality_id":"mg-3169604","polling_places":1,"approx":false,"official":true,"method":"official-ibge-cd2022","whole_municipality":false,"approx_coords_only":false,"official_name":"das Andorinhas","official_code":"3169604002","match":"prefix"},"geometry":{"type":"MultiPolygon","coordinates":[[[[-48.70706,-18.59769],[-48.7072,-18.59715],[-48.70715,-18.59471],[-48.70596,-18.59556],[-48.70144,-18.59929],[-48.70447,-18.60262],[-48.70632,-18.60468],[-48.70635,-18.60484],[-48.70632,-18.60509],[-48.7086,-18.60486],[-48.7086,-18.60481],[-48.70863,-18.60472],[-48.7086,-18.60458],[-48.70868,-18.60422],[-48.70872,-18.60405],[-48.70887,-18.60396],[-48.70894,-18.60354],[-48.70887,-18.60339],[-48.70892,-18.60318],[-48.70892,-18.6022],[-48.70839,-18.60155],[-48.70836,-18.60127],[-48.70841,-18.59998],[-48.70846,-18.59958],[-48.70861,-18.59916],[-48.70865,-18.59825],[-48.70872,-18.59807],[-48.70873,-18.59798],[-48.70706,-18.59769]]]]}},{"type":"Feature","properties":{"territory_id":"mg-3169604-boa-vista","name":"Boa Vista","municipality_id":"mg-3169604","polling_places":1,"approx":false,"official":true,"method":"official-ibge-cd2022","whole_municipality":false,"approx_coords_only":false,"official_name":"Boa Vista","official_code":"3169604010","match":"direct"},"geometry":{"type":"MultiPolygon","coordinates":[[[[-48.7033,-18.5812],[-48.70167,-18.58222],[-48.70236,-18.58323],[-48.70216,-18.58336],[-48.70355,-18.58326],[-48.70353,-18.58463],[-48.70346,-18.58664],[-48.70348,-18.58827],[-48.7032,-18.58831],[-48.70327,-18.58953],[-48.70354,-18.58966],[-48.704,-18.58974],[-48.70452,-18.58992],[-48.70503,-18.58976],[-48.70561,-18.58984],[-48.70574,-18.58992],[-48.70614,-18.58985],[-48.7069,-18.58997],[-48.70723,-18.5901],[-48.70749,-18.59024],[-48.70773,-18.59018],[-48.70788,-18.59004],[-48.7079,-18.58938],[-48.70814,-18.58856],[-48.7081,-18.58818],[-48.70806,-18.58799],[-48.70805,-18.58782],[-48.708,-18.58753],[-48.70787,-18.58601],[-48.70785,-18.58544],[-48.70768,-18.58449],[-48.7076,-18.58417],[-48.70744,-18.58373],[-48.70746,-18.58321],[-48.70742,-18.58297],[-48.70734,-18.58262],[-48.70722,-18.58248],[-48.70721,-18.58224],[-48.70693,-18.58189],[-48.70663,-18.58123],[-48.70655,-18.58098],[-48.70615,-18.58011],[-48.70581,-18.57963],[-48.7033,-18.5812]]]]}},{"type":"Feature","properties":{"territory_id":"mg-3169604-bom-sucesso","name":"Bom Sucesso","municipality_id":"mg-3169604","polling_places":1,"approx":false,"official":true,"method":"official-ibge-cd2022","whole_municipality":false,"approx_coords_only":false,"official_name":"Bom Sucesso","official_code":"3169604009","match":"direct"},"geometry":{"type":"MultiPolygon","coordinates":[[[[-48.7128,-18.57809],[-48.71319,-18.57612],[-48.71171,-18.57594],[-48.71147,-18.57846],[-48.71107,-18.57841],[-48.71096,-18.58117],[-48.71057,-18.58179],[-48.70989,-18.58231],[-48.70744,-18.58373],[-48.7076,-18.58417],[-48.70768,-18.58449],[-48.70785,-18.58544],[-48.70787,-18.58601],[-48.708,-18.58753],[-48.70805,-18.58782],[-48.70806,-18.58799],[-48.7081,-18.58818],[-48.70814,-18.58856],[-48.7079,-18.58938],[-48.70788,-18.59004],[-48.70811,-18.59027],[-48.70878,-18.59085],[-48.70917,-18.59082],[-48.70937,-18.59087],[-48.70947,-18.59095],[-48.70977,-18.59091],[-48.71061,-18.59085],[-48.71084,-18.59045],[-48.7112,-18.59074],[-48.71144,-18.59076],[-48.71199,-18.59052],[-48.71208,-18.59045],[-48.71252,-18.59042],[-48.71283,-18.59009],[-48.71312,-18.58995],[-48.71343,-18.58992],[-48.71362,-18.58998],[-48.71377,-18.5898],[-48.71463,-18.5894],[-48.71483,-18.58925],[-48.71537,-18.58901],[-48.7155,-18.58904],[-48.71438,-18.58651],[-48.71561,-18.58601],[-48.71483,-18.58069],[-48.71426,-18.58054],[-48.71479,-18.57845],[-48.7128,-18.57809]]]]}},{"type":"Feature","properties":{"territory_id":"mg-3169604-centro","name":"Centro","municipality_id":"mg-3169604","polling_places":3,"approx":false,"official":true,"method":"official-ibge-cd2022","whole_municipality":false,"approx_coords_only":false,"official_name":"Centro","official_code":"3169604001","match":"direct"},"geometry":{"type":"MultiPolygon","coordinates":[[[[-48.70279,-18.59817],[-48.70596,-18.59556],[-48.70715,-18.59471],[-48.7072,-18.59715],[-48.70706,-18.59769],[-48.70873,-18.59798],[-48.70889,-18.59694],[-48.70889,-18.59656],[-48.70894,-18.59615],[-48.70898,-18.59599],[-48.70902,-18.59572],[-48.7092,-18.59542],[-48.70919,-18.59523],[-48.70949,-18.59401],[-48.70984,-18.59321],[-48.7099,-18.59296],[-48.70993,-18.59247],[-48.70997,-18.59218],[-48.70977,-18.59091],[-48.70947,-18.59095],[-48.70937,-18.59087],[-48.70917,-18.59082],[-48.70878,-18.59085],[-48.70811,-18.59027],[-48.70788,-18.59004],[-48.70773,-18.59018],[-48.70749,-18.59024],[-48.70723,-18.5901],[-48.7069,-18.58997],[-48.70614,-18.58985],[-48.70574,-18.58992],[-48.70561,-18.58984],[-48.70503,-18.58976],[-48.70452,-18.58992],[-48.704,-18.58974],[-48.70354,-18.58966],[-48.70327,-18.58953],[-48.70242,-18.58934],[-48.70113,-18.58964],[-48.70054,-18.5898],[-48.70032,-18.58982],[-48.70008,-18.58988],[-48.7005,-18.59606],[-48.69936,-18.59701],[-48.70144,-18.59929],[-48.70279,-18.59817]]]]}},{"type":"Feature","properties":{"territory_id":"mg-3169604-nova-esperanca","name":"Nova Esperanca","municipality_id":"mg-3169604","polling_places":1,"approx":false,"official":true,"method":"official-ibge-cd2022","whole_municipality":false,"approx_coords_only":false,"official_name":"Nova Esperança","official_code":"3169604008","match":"direct"},"geometry":{"type":"MultiPolygon","coordinates":[[[[-48.67834,-18.60886],[-48.67865,-18.61014],[-48.67924,-18.61228],[-48.68227,-18.60971],[-48.68392,-18.61153],[-48.68432,-18.6103],[-48.68494,-18.60923],[-48.68557,-18.60848],[-48.68742,-18.60689],[-48.68711,-18.60653],[-48.68593,-18.60533],[-48.68519,-18.60455],[-48.68165,-18.60064],[-48.6813,-18.6004],[-48.68096,-18.60021],[-48.67687,-18.59866],[-48.67579,-18.59955],[-48.67652,-18.60215],[-48.67673,-18.60286],[-48.67757,-18.60604],[-48.67804,-18.60775],[-48.67834,-18.60886]]]]}},{"type":"Feature","properties":{"territory_id":"mg-3169604-paineiras","name":"Paineiras","municipality_id":"mg-3169604","polling_places":1,"approx":true,"official":false,"method":"voronoi-polling-places","whole_municipality":false,"approx_coords_only":false},"geometry":{"type":"MultiPolygon","coordinates":[[[[-48.8395,-18.6491],[-48.8323,-18.6942],[-48.8042,-18.688],[-48.7316,-18.7317],[-48.6667,-18.7622],[-48.6267,-18.7618],[-48.5811,-18.7976],[-48.6012,-18.8395],[-48.5625,-18.8241],[-48.553,-18.7884],[-48.4982,-18.7572],[-48.5077,-18.7344],[-48.513,-18.657],[-48.534,-18.6289],[-48.5174,-18.5947],[-48.5332,-18.5593],[-48.5598,-18.5543],[-48.5699,-18.5],[-48.6043,-18.4777],[-48.593,-18.4118],[-48.6538,-18.3428],[-48.69916,-18.34777],[-48.82998,-18.60876],[-48.8395,-18.6491]],[[-48.71561,-18.58601],[-48.71483,-18.58069],[-48.71426,-18.58054],[-48.71479,-18.57845],[-48.7128,-18.57809],[-48.71319,-18.57612],[-48.71171,-18.57594],[-48.71147,-18.57846],[-48.71107,-18.57841],[-48.71096,-18.58117],[-48.71057,-18.58179],[-48.70989,-18.58231],[-48.70744,-18.58373],[-48.70746,-18.58321],[-48.70742,-18.58297],[-48.70734,-18.58262],[-48.70722,-18.58248],[-48.70721,-18.58224],[-48.70693,-18.58189],[-48.70663,-18.58123],[-48.70655,-18.58098],[-48.70615,-18.58011],[-48.70581,-18.57963],[-48.7033,-18.5812],[-48.70167,-18.58222],[-48.70236,-18.58323],[-48.70216,-18.58336],[-48.70355,-18.58326],[-48.70353,-18.58463],[-48.70346,-18.58664],[-48.70348,-18.58827],[-48.7032,-18.58831],[-48.70327,-18.58953],[-48.70242,-18.58934],[-48.70113,-18.58964],[-48.70054,-18.5898],[-48.70032,-18.58982],[-48.70008,-18.58988],[-48.7005,-18.59606],[-48.69936,-18.59701],[-48.70144,-18.59929],[-48.70447,-18.60262],[-48.70632,-18.60468],[-48.70635,-18.60484],[-48.70632,-18.60509],[-48.7086,-18.60486],[-48.7086,-18.60481],[-48.70863,-18.60472],[-48.7086,-18.60458],[-48.70868,-18.60422],[-48.70872,-18.60405],[-48.70887,-18.60396],[-48.70894,-18.60354],[-48.70887,-18.60339],[-48.70892,-18.60318],[-48.70892,-18.6022],[-48.70839,-18.60155],[-48.70836,-18.60127],[-48.70841,-18.59998],[-48.70846,-18.59958],[-48.70861,-18.59916],[-48.70865,-18.59825],[-48.70872,-18.59807],[-48.70873,-18.59798],[-48.70889,-18.59694],[-48.70889,-18.59656],[-48.70894,-18.59615],[-48.70898,-18.59599],[-48.70902,-18.59572],[-48.7092,-18.59542],[-48.70919,-18.59523],[-48.70949,-18.59401],[-48.70984,-18.59321],[-48.7099,-18.59296],[-48.70993,-18.59247],[-48.70997,-18.59218],[-48.70977,-18.59091],[-48.71061,-18.59085],[-48.71084,-18.59045],[-48.7112,-18.59074],[-48.71144,-18.59076],[-48.71199,-18.59052],[-48.71208,-18.59045],[-48.71252,-18.59042],[-48.71283,-18.59009],[-48.71312,-18.58995],[-48.71343,-18.58992],[-48.71362,-18.58998],[-48.71377,-18.5898],[-48.71463,-18.5894],[-48.71483,-18.58925],[-48.71537,-18.58901],[-48.7155,-18.58904],[-48.71438,-18.58651],[-48.71561,-18.58601]],[[-48.69698,-18.60606],[-48.69331,-18.60202],[-48.68738,-18.59548],[-48.68672,-18.59466],[-48.68667,-18.59457],[-48.68662,-18.5946],[-48.68616,-18.5947],[-48.68514,-18.59519],[-48.68349,-18.59561],[-48.68249,-18.59584],[-48.68232,-18.59586],[-48.68187,-18.59657],[-48.68109,-18.59777],[-48.68086,-18.59815],[-48.68069,-18.59857],[-48.68065,-18.59928],[-48.68054,-18.59962],[-48.68035,-18.59997],[-48.68096,-18.60021],[-48.67687,-18.59866],[-48.67579,-18.59955],[-48.67652,-18.60215],[-48.67673,-18.60286],[-48.67757,-18.60604],[-48.67804,-18.60775],[-48.67834,-18.60886],[-48.67865,-18.61014],[-48.67924,-18.61228],[-48.68227,-18.60971],[-48.68392,-18.61153],[-48.68432,-18.6103],[-48.68494,-18.60923],[-48.68557,-18.60848],[-48.68742,-18.60689],[-48.68797,-18.60645],[-48.68793,-18.60658],[-48.68797,-18.60672],[-48.68803,-18.60681],[-48.68814,-18.6069],[-48.68827,-18.60693],[-48.69113,-18.60666],[-48.69423,-18.60634],[-48.69698,-18.60606]]],[[[-48.70144,-18.59929],[-48.70279,-18.59817],[-48.70596,-18.59556],[-48.70144,-18.59929]]]]}},{"type":"Feature","properties":{"territory_id":"mg-3169604-primavera","name":"Primavera","municipality_id":"mg-3169604","polling_places":1,"approx":false,"official":true,"method":"official-ibge-cd2022","whole_municipality":false,"approx_coords_only":false,"official_name":"Primavera","official_code":"3169604006","match":"direct"},"geometry":{"type":"MultiPolygon","coordinates":[[[[-48.69423,-18.60634],[-48.69698,-18.60606],[-48.69331,-18.60202],[-48.69282,-18.60242],[-48.69268,-18.6023],[-48.69251,-18.60224],[-48.69233,-18.60225],[-48.69217,-18.60233],[-48.69205,-18.60247],[-48.69199,-18.60264],[-48.692,-18.60282],[-48.69205,-18.60293],[-48.69211,-18.60301],[-48.68797,-18.60645],[-48.68793,-18.60658],[-48.68797,-18.60672],[-48.68803,-18.60681],[-48.68814,-18.6069],[-48.68827,-18.60693],[-48.69113,-18.60666],[-48.69423,-18.60634]]]]}},{"type":"Feature","properties":{"territory_id":"mg-3169604-tiradentes","name":"Tiradentes","municipality_id":"mg-3169604","polling_places":1,"approx":false,"official":true,"method":"official-ibge-cd2022","whole_municipality":false,"approx_coords_only":false,"official_name":"Tiradentes","official_code":"3169604007","match":"direct"},"geometry":{"type":"MultiPolygon","coordinates":[[[[-48.68308,-18.60222],[-48.68519,-18.60455],[-48.68593,-18.60533],[-48.68711,-18.60653],[-48.68742,-18.60689],[-48.68818,-18.60628],[-48.69211,-18.60301],[-48.69205,-18.60293],[-48.692,-18.60282],[-48.69199,-18.60264],[-48.69205,-18.60247],[-48.69217,-18.60233],[-48.69233,-18.60225],[-48.69251,-18.60224],[-48.69268,-18.6023],[-48.69282,-18.60242],[-48.69331,-18.60202],[-48.68738,-18.59548],[-48.68672,-18.59466],[-48.68667,-18.59457],[-48.68662,-18.5946],[-48.68616,-18.5947],[-48.68514,-18.59519],[-48.68349,-18.59561],[-48.68249,-18.59584],[-48.68232,-18.59586],[-48.68187,-18.59657],[-48.68109,-18.59777],[-48.68086,-18.59815],[-48.68069,-18.59857],[-48.68065,-18.59928],[-48.68054,-18.59962],[-48.68035,-18.59997],[-48.68096,-18.60021],[-48.6813,-18.6004],[-48.68167,-18.60066],[-48.68308,-18.60222]]]]}},{"type":"Feature","properties":{"territory_id":"mg-3169604-zona-rural","name":"Zona Rural","municipality_id":"mg-3169604","polling_places":2,"approx":true,"official":false,"method":"voronoi-polling-places","whole_municipality":false,"approx_coords_only":false},"geometry":{"type":"MultiPolygon","coordinates":[[[[-49.0538,-18.4026],[-49.026,-18.4308],[-49.0452,-18.4759],[-49.0428,-18.5066],[-49.0047,-18.537],[-48.932,-18.5563],[-48.9157,-18.5892],[-48.8293,-18.6059],[-48.82998,-18.60876],[-48.69916,-18.34777],[-48.7423,-18.3525],[-48.7577,-18.3448],[-48.828,-18.3752],[-48.8321,-18.3461],[-48.9177,-18.3059],[-48.9595,-18.3235],[-49.006,-18.3744],[-49.0296,-18.3688],[-49.0538,-18.4026]]]]}}]}