{"type":"FeatureCollection","features":[{"type":"Feature","properties":{"territory_id":"mg-3169307-amadeu-miguel","name":"Amadeu Miguel","municipality_id":"mg-3169307","polling_places":1,"approx":false,"official":true,"method":"official-ibge-cd2022","whole_municipality":false,"approx_coords_only":false,"official_name":"Amadeu Miguel","official_code":"3169307030","match":"direct"},"geometry":{"type":"MultiPolygon","coordinates":[[[[-45.32661,-21.68415],[-45.33191,-21.68679],[-45.33137,-21.68571],[-45.33106,-21.6849],[-45.33097,-21.68449],[-45.33097,-21.6842],[-45.33082,-21.6833],[-45.331,-21.68193],[-45.33131,-21.67904],[-45.33147,-21.6787],[-45.33046,-21.67818],[-45.33029,-21.67812],[-45.33018,-21.67824],[-45.32981,-21.67878],[-45.32848,-21.68085],[-45.32787,-21.68176],[-45.32638,-21.68404],[-45.32661,-21.68415]]]]}},{"type":"Feature","properties":{"territory_id":"mg-3169307-bela-vista","name":"Bela Vista","municipality_id":"mg-3169307","polling_places":1,"approx":false,"official":true,"method":"official-ibge-cd2022","whole_municipality":false,"approx_coords_only":false,"official_name":"Vila Bela Vista","official_code":"3169307102","match":"prefix"},"geometry":{"type":"MultiPolygon","coordinates":[[[[-45.24562,-21.69039],[-45.24508,-21.68714],[-45.24552,-21.68708],[-45.24541,-21.68612],[-45.24493,-21.68618],[-45.24245,-21.68659],[-45.24238,-21.6869],[-45.24227,-21.68706],[-45.24219,-21.68728],[-45.24224,-21.68745],[-45.24231,-21.6876],[-45.24247,-21.68773],[-45.2425,-21.68793],[-45.2425,-21.68814],[-45.24258,-21.68869],[-45.24262,-21.68884],[-45.24271,-21.68906],[-45.24268,-21.68937],[-45.24271,-21.68967],[-45.24286,-21.69009],[-45.24298,-21.69014],[-45.24311,-21.69013],[-45.24323,-21.69027],[-45.24333,-21.69044],[-45.24334,-21.69065],[-45.24364,-21.69092],[-45.2439,-21.69131],[-45.2441,-21.69222],[-45.24422,-21.69259],[-45.24461,-21.69251],[-45.2455,-21.69212],[-45.24571,-21.69263],[-45.24605,-21.69242],[-45.24636,-21.69226],[-45.2466,-21.69222],[-45.24679,-21.69223],[-45.24671,-21.69217],[-45.24638,-21.69202],[-45.2462,-21.69106],[-45.24668,-21.69083],[-45.24663,-21.69061],[-45.24744,-21.69002],[-45.24772,-21.68923],[-45.24726,-21.68954],[-45.24652,-21.69014],[-45.24632,-21.69026],[-45.24608,-21.69031],[-45.24562,-21.69039]]]]}},{"type":"Feature","properties":{"territory_id":"mg-3169307-centro","name":"Centro","municipality_id":"mg-3169307","polling_places":12,"approx":false,"official":true,"method":"official-ibge-cd2022","whole_municipality":false,"approx_coords_only":false,"official_name":"Centro","official_code":"3169307034","match":"direct"},"geometry":{"type":"MultiPolygon","coordinates":[[[[-45.25139,-21.6961],[-45.25116,-21.69626],[-45.25105,-21.69643],[-45.25092,-21.69654],[-45.25038,-21.69707],[-45.2503,-21.69717],[-45.25028,-21.69723],[-45.2503,-21.69727],[-45.25054,-21.69743],[-45.25052,-21.69748],[-45.2505,-21.69748],[-45.2505,-21.69752],[-45.25048,-21.69752],[-45.25047,-21.69755],[-45.25046,-21.69755],[-45.25045,-21.69758],[-45.25043,-21.69758],[-45.25043,-21.69761],[-45.25041,-21.69761],[-45.25041,-21.69764],[-45.25037,-21.69762],[-45.25035,-21.69763],[-45.25032,-21.69761],[-45.25025,-21.69761],[-45.25023,-21.69759],[-45.25021,-21.6976],[-45.25018,-21.69758],[-45.25016,-21.69759],[-45.25014,-21.69757],[-45.25012,-21.69759],[-45.25008,-21.69759],[-45.25007,-21.6976],[-45.25002,-21.6976],[-45.25002,-21.69761],[-45.24994,-21.69761],[-45.24994,-21.69762],[-45.24989,-21.69762],[-45.24977,-21.6977],[-45.24987,-21.6977],[-45.25008,-21.69775],[-45.25086,-21.69818],[-45.25179,-21.6987],[-45.25201,-21.69888],[-45.25218,-21.69909],[-45.2525,-21.69954],[-45.2527,-21.69972],[-45.2529,-21.69984],[-45.25313,-21.69995],[-45.25326,-21.69996],[-45.25366,-21.70007],[-45.25411,-21.70025],[-45.25433,-21.6995],[-45.25648,-21.70004],[-45.25719,-21.70019],[-45.25808,-21.70045],[-45.25825,-21.69992],[-45.2584,-21.69953],[-45.25851,-21.69934],[-45.2591,-21.69956],[-45.25944,-21.69877],[-45.26017,-21.69803],[-45.26088,-21.69751],[-45.26148,-21.69751],[-45.26158,-21.69709],[-45.26161,-21.69688],[-45.2616,-21.69664],[-45.26157,-21.69643],[-45.26142,-21.69608],[-45.26131,-21.69591],[-45.26117,-21.69577],[-45.26094,-21.69558],[-45.26081,-21.69548],[-45.26042,-21.69541],[-45.26011,-21.69539],[-45.25994,-21.6954],[-45.25977,-21.69543],[-45.25958,-21.6955],[-45.2593,-21.69564],[-45.25918,-21.69575],[-45.25915,-21.69565],[-45.25905,-21.69547],[-45.25948,-21.69507],[-45.25921,-21.69487],[-45.25813,-21.69417],[-45.25876,-21.69343],[-45.2589,-21.69309],[-45.2584,-21.69252],[-45.2578,-21.6918],[-45.25756,-21.69153],[-45.25747,-21.69147],[-45.25577,-21.69076],[-45.25578,-21.69206],[-45.25583,-21.69395],[-45.25476,-21.69406],[-45.25472,-21.69409],[-45.25372,-21.69421],[-45.25123,-21.69457],[-45.25126,-21.69461],[-45.25126,-21.69466],[-45.25123,-21.6947],[-45.25118,-21.69472],[-45.25114,-21.69472],[-45.2511,-21.6947],[-45.25108,-21.69466],[-45.25107,-21.69462],[-45.25084,-21.69461],[-45.25063,-21.69475],[-45.25081,-21.69504],[-45.25139,-21.6961]]]]}},{"type":"Feature","properties":{"territory_id":"mg-3169307-chacara-das-rosas","name":"Chácara das Rosas","municipality_id":"mg-3169307","polling_places":1,"approx":false,"official":true,"method":"official-ibge-cd2022","whole_municipality":false,"approx_coords_only":false,"official_name":"Chácara das Rosas","official_code":"3169307033","match":"direct"},"geometry":{"type":"MultiPolygon","coordinates":[[[[-45.26176,-21.69092],[-45.26105,-21.69198],[-45.26039,-21.69307],[-45.26006,-21.69354],[-45.26124,-21.6942],[-45.26095,-21.69466],[-45.26085,-21.69489],[-45.26146,-21.69505],[-45.26229,-21.69522],[-45.26246,-21.69531],[-45.26332,-21.69581],[-45.26329,-21.69592],[-45.2633,-21.69605],[-45.26363,-21.69628],[-45.26385,-21.69646],[-45.2643,-21.69679],[-45.26527,-21.69757],[-45.26535,-21.69746],[-45.26491,-21.69711],[-45.26543,-21.69646],[-45.26488,-21.69604],[-45.26525,-21.69543],[-45.26561,-21.69506],[-45.26593,-21.69459],[-45.26574,-21.69395],[-45.26565,-21.6934],[-45.26551,-21.69276],[-45.2651,-21.69202],[-45.26452,-21.69129],[-45.26395,-21.6909],[-45.26354,-21.69066],[-45.2631,-21.69065],[-45.26191,-21.69068],[-45.26176,-21.69092]]]]}},{"type":"Feature","properties":{"territory_id":"mg-3169307-cotia","name":"Cotia","municipality_id":"mg-3169307","polling_places":3,"approx":false,"official":true,"method":"official-ibge-cd2022","whole_municipality":false,"approx_coords_only":false,"official_name":"Cotia","official_code":"3169307036","match":"direct"},"geometry":{"type":"MultiPolygon","coordinates":[[[[-45.26192,-21.70308],[-45.26202,-21.70345],[-45.26205,-21.7035],[-45.26228,-21.70438],[-45.2624,-21.70476],[-45.26276,-21.70464],[-45.2628,-21.70459],[-45.26355,-21.70391],[-45.26466,-21.70295],[-45.26509,-21.70338],[-45.26509,-21.70347],[-45.26546,-21.70331],[-45.26553,-21.70327],[-45.26537,-21.703],[-45.26517,-21.70278],[-45.2649,-21.70259],[-45.26422,-21.70214],[-45.26384,-21.70186],[-45.26364,-21.70168],[-45.26258,-21.70253],[-45.26192,-21.70308]]]]}},{"type":"Feature","properties":{"territory_id":"mg-3169307-flora","name":"Flora","municipality_id":"mg-3169307","polling_places":1,"approx":false,"official":true,"method":"official-ibge-cd2022","whole_municipality":false,"approx_coords_only":false,"official_name":"Flora","official_code":"3169307043","match":"direct"},"geometry":{"type":"MultiPolygon","coordinates":[[[[-45.36116,-21.63681],[-45.36113,-21.63704],[-45.36087,-21.63701],[-45.36045,-21.63701],[-45.36029,-21.63697],[-45.36026,-21.63703],[-45.36011,-21.63717],[-45.36017,-21.63743],[-45.36005,-21.63758],[-45.35904,-21.63795],[-45.35884,-21.63806],[-45.35803,-21.63874],[-45.35771,-21.63882],[-45.35739,-21.63894],[-45.35708,-21.63903],[-45.35671,-21.63923],[-45.35644,-21.63941],[-45.35626,-21.63971],[-45.35605,-21.63999],[-45.35575,-21.64028],[-45.3555,-21.64059],[-45.35458,-21.64139],[-45.35383,-21.642],[-45.35329,-21.64238],[-45.35289,-21.64275],[-45.35271,-21.64323],[-45.35197,-21.64441],[-45.35179,-21.64463],[-45.35158,-21.64458],[-45.35135,-21.64458],[-45.35119,-21.64462],[-45.35106,-21.6447],[-45.3509,-21.64487],[-45.35109,-21.64502],[-45.35137,-21.64512],[-45.35213,-21.64576],[-45.3538,-21.64562],[-45.35877,-21.64543],[-45.36059,-21.64508],[-45.36108,-21.64447],[-45.36121,-21.64386],[-45.36433,-21.64008],[-45.36486,-21.63852],[-45.36513,-21.63706],[-45.36488,-21.63665],[-45.36442,-21.63628],[-45.36414,-21.63612],[-45.36395,-21.63607],[-45.36374,-21.63605],[-45.3636,-21.63613],[-45.36334,-21.63637],[-45.36303,-21.6364],[-45.36271,-21.63636],[-45.36226,-21.63615],[-45.3621,-21.63619],[-45.362,-21.63631],[-45.36197,-21.63639],[-45.3618,-21.63656],[-45.3617,-21.63674],[-45.36162,-21.63682],[-45.36145,-21.63684],[-45.36131,-21.63683],[-45.36116,-21.63681]]]]}},{"type":"Feature","properties":{"territory_id":"mg-3169307-jardim-america","name":"Jardim América","municipality_id":"mg-3169307","polling_places":1,"approx":false,"official":true,"method":"official-ibge-cd2022","whole_municipality":false,"approx_coords_only":false,"official_name":"Jardim América","official_code":"3169307049","match":"direct"},"geometry":{"type":"MultiPolygon","coordinates":[[[[-45.26471,-21.67309],[-45.26468,-21.67341],[-45.26482,-21.67365],[-45.26548,-21.67462],[-45.26596,-21.67528],[-45.26617,-21.67546],[-45.26841,-21.67649],[-45.26906,-21.67682],[-45.2704,-21.67472],[-45.27064,-21.67442],[-45.27126,-21.67385],[-45.2695,-21.67302],[-45.26821,-21.67245],[-45.26565,-21.67127],[-45.26471,-21.67309]]]]}},{"type":"Feature","properties":{"territory_id":"mg-3169307-jardim-esperanca","name":"Jardim Esperança","municipality_id":"mg-3169307","polling_places":1,"approx":false,"official":true,"method":"official-ibge-cd2022","whole_municipality":false,"approx_coords_only":false,"official_name":"Jardim Esperança","official_code":"3169307067","match":"direct"},"geometry":{"type":"MultiPolygon","coordinates":[[[[-45.24006,-21.7125],[-45.24007,-21.71354],[-45.24133,-21.71389],[-45.24138,-21.71225],[-45.24138,-21.71105],[-45.24012,-21.71104],[-45.24008,-21.71223],[-45.24006,-21.7125]]]]}},{"type":"Feature","properties":{"territory_id":"mg-3169307-jardim-paraiso","name":"Jardim Paraíso","municipality_id":"mg-3169307","polling_places":1,"approx":false,"official":true,"method":"official-ibge-cd2022","whole_municipality":false,"approx_coords_only":false,"official_name":"Jardim Paraíso","official_code":"3169307066","match":"direct"},"geometry":{"type":"MultiPolygon","coordinates":[[[[-45.25862,-21.72363],[-45.25869,-21.72367],[-45.25888,-21.72387],[-45.25914,-21.72397],[-45.25924,-21.72398],[-45.25937,-21.72409],[-45.25937,-21.72425],[-45.25926,-21.72441],[-45.25935,-21.72453],[-45.25948,-21.72466],[-45.25959,-21.72467],[-45.25967,-21.72483],[-45.25969,-21.725],[-45.25985,-21.72509],[-45.25995,-21.72539],[-45.26009,-21.72545],[-45.26019,-21.72551],[-45.26013,-21.72573],[-45.25996,-21.72613],[-45.26011,-21.72614],[-45.26172,-21.72639],[-45.26195,-21.7264],[-45.26243,-21.72647],[-45.26311,-21.72659],[-45.26291,-21.72522],[-45.26282,-21.72427],[-45.26268,-21.72351],[-45.26258,-21.72257],[-45.26246,-21.72171],[-45.26084,-21.7218],[-45.26076,-21.72186],[-45.26014,-21.72266],[-45.26,-21.72273],[-45.25959,-21.72289],[-45.25878,-21.72329],[-45.25873,-21.72338],[-45.25862,-21.72363]]]]}},{"type":"Feature","properties":{"territory_id":"mg-3169307-nossa-senhora-aparecida","name":"Nossa Senhora Aparecida","municipality_id":"mg-3169307","polling_places":1,"approx":false,"official":true,"method":"official-ibge-cd2022","whole_municipality":false,"approx_coords_only":false,"official_name":"Nossa Senhora Aparecida","official_code":"3169307079","match":"direct"},"geometry":{"type":"MultiPolygon","coordinates":[[[[-45.26909,-21.68311],[-45.26735,-21.68216],[-45.26677,-21.68181],[-45.26608,-21.68145],[-45.26514,-21.68293],[-45.26445,-21.68389],[-45.26402,-21.68437],[-45.2635,-21.68486],[-45.26363,-21.685],[-45.26394,-21.68525],[-45.26473,-21.68585],[-45.26436,-21.68618],[-45.26418,-21.68627],[-45.26475,-21.6865],[-45.2654,-21.6867],[-45.26548,-21.68647],[-45.26548,-21.68639],[-45.26784,-21.68558],[-45.26849,-21.68558],[-45.26865,-21.6856],[-45.26874,-21.68559],[-45.2695,-21.68566],[-45.27062,-21.68584],[-45.27112,-21.68606],[-45.27137,-21.68621],[-45.27174,-21.68649],[-45.2719,-21.68658],[-45.2726,-21.68687],[-45.27299,-21.6869],[-45.27111,-21.68423],[-45.27073,-21.68402],[-45.26967,-21.68343],[-45.26909,-21.68311]]]]}},{"type":"Feature","properties":{"territory_id":"mg-3169307-nova-tres-coracoes","name":"Nova Três Corações","municipality_id":"mg-3169307","polling_places":1,"approx":false,"official":true,"method":"official-ibge-cd2022","whole_municipality":false,"approx_coords_only":false,"official_name":"Nova Três Corações","official_code":"3169307077","match":"direct"},"geometry":{"type":"MultiPolygon","coordinates":[[[[-45.2824,-21.70944],[-45.28227,-21.70948],[-45.28209,-21.70945],[-45.28192,-21.70945],[-45.28174,-21.70951],[-45.28155,-21.70966],[-45.28126,-21.71012],[-45.28116,-21.71023],[-45.28099,-21.7103],[-45.28094,-21.71042],[-45.28078,-21.71066],[-45.28022,-21.71109],[-45.27944,-21.71127],[-45.27766,-21.7113],[-45.27647,-21.71108],[-45.27605,-21.71067],[-45.27569,-21.71016],[-45.27547,-21.71004],[-45.2749,-21.70983],[-45.27416,-21.70998],[-45.27406,-21.71046],[-45.274,-21.71057],[-45.27396,-21.71069],[-45.27397,-21.71099],[-45.27407,-21.71134],[-45.27407,-21.71142],[-45.27396,-21.71201],[-45.27415,-21.71243],[-45.27445,-21.71284],[-45.27492,-21.7136],[-45.27523,-21.71397],[-45.27576,-21.71441],[-45.27633,-21.71497],[-45.2764,-21.71517],[-45.27667,-21.71564],[-45.27677,-21.71604],[-45.27694,-21.71629],[-45.27702,-21.71668],[-45.2769,-21.71699],[-45.27687,-21.71741],[-45.27661,-21.71771],[-45.27654,-21.71818],[-45.27663,-21.71865],[-45.27658,-21.71903],[-45.27706,-21.71961],[-45.27773,-21.71916],[-45.27829,-21.71981],[-45.27824,-21.72],[-45.27822,-21.72018],[-45.27814,-21.72039],[-45.27788,-21.72065],[-45.2776,-21.72086],[-45.27694,-21.72121],[-45.27672,-21.72128],[-45.27644,-21.72133],[-45.27584,-21.72141],[-45.27554,-21.72148],[-45.27482,-21.72157],[-45.27449,-21.72158],[-45.27413,-21.72147],[-45.27411,-21.72171],[-45.27407,-21.72197],[-45.27393,-21.72226],[-45.27379,-21.72247],[-45.27332,-21.723],[-45.27294,-21.72352],[-45.2725,-21.72417],[-45.27219,-21.72468],[-45.27212,-21.72484],[-45.27214,-21.72535],[-45.27222,-21.72578],[-45.27231,-21.72648],[-45.27227,-21.72727],[-45.27231,-21.72776],[-45.27228,-21.72817],[-45.27208,-21.72877],[-45.27197,-21.72925],[-45.27168,-21.72937],[-45.27157,-21.72938],[-45.27125,-21.72953],[-45.26887,-21.73058],[-45.2687,-21.73062],[-45.26843,-21.73063],[-45.26765,-21.73049],[-45.26758,-21.73052],[-45.26741,-21.73063],[-45.26683,-21.73103],[-45.26674,-21.73115],[-45.2671,-21.73128],[-45.26743,-21.73146],[-45.26776,-21.73174],[-45.26894,-21.73283],[-45.26918,-21.7331],[-45.26942,-21.73346],[-45.26965,-21.73393],[-45.26976,-21.73436],[-45.26977,-21.73484],[-45.26975,-21.73525],[-45.26967,-21.73562],[-45.26937,-21.73634],[-45.26914,-21.737],[-45.26903,-21.73745],[-45.269,-21.73796],[-45.26903,-21.73849],[-45.26935,-21.74026],[-45.26934,-21.74087],[-45.2693,-21.74121],[-45.26923,-21.74155],[-45.26841,-21.74393],[-45.26782,-21.74574],[-45.26689,-21.74842],[-45.26668,-21.7489],[-45.26637,-21.74952],[-45.26564,-21.75068],[-45.26542,-21.75114],[-45.26532,-21.75155],[-45.26528,-21.75191],[-45.26537,-21.7541],[-45.26532,-21.75466],[-45.26519,-21.75509],[-45.26498,-21.7555],[-45.26402,-21.75675],[-45.2637,-21.75741],[-45.26363,-21.75786],[-45.26365,-21.75819],[-45.26382,-21.75865],[-45.26404,-21.759],[-45.26432,-21.75929],[-45.26494,-21.75978],[-45.26599,-21.76055],[-45.26639,-21.7609],[-45.26682,-21.76135],[-45.27187,-21.76744],[-45.27214,-21.76752],[-45.2726,-21.76779],[-45.27276,-21.76783],[-45.27297,-21.76782],[-45.27313,-21.76778],[-45.27444,-21.76723],[-45.2748,-21.7671],[-45.27512,-21.76707],[-45.27564,-21.76684],[-45.27646,-21.76667],[-45.2771,-21.76659],[-45.27743,-21.76662],[-45.27878,-21.76716],[-45.27931,-21.76727],[-45.27984,-21.76717],[-45.28046,-21.76708],[-45.28086,-21.76693],[-45.2816,-21.76648],[-45.28194,-21.76619],[-45.28246,-21.76572],[-45.28313,-21.76537],[-45.28406,-21.76515],[-45.28442,-21.7651],[-45.28521,-21.76524],[-45.28866,-21.76554],[-45.28939,-21.76546],[-45.29,-21.76546],[-45.29056,-21.76551],[-45.29083,-21.76559],[-45.29115,-21.76592],[-45.29132,-21.766],[-45.29179,-21.76606],[-45.29196,-21.76605],[-45.29221,-21.76613],[-45.29253,-21.76614],[-45.29276,-21.76611],[-45.29302,-21.76617],[-45.29328,-21.76629],[-45.29352,-21.76635],[-45.29371,-21.76632],[-45.29423,-21.76608],[-45.29447,-21.76606],[-45.29481,-21.76607],[-45.29517,-21.76613],[-45.29549,-21.76625],[-45.2957,-21.76635],[-45.29585,-21.76638],[-45.29636,-21.76629],[-45.29662,-21.76659],[-45.29689,-21.7667],[-45.29741,-21.76672],[-45.29848,-21.76672],[-45.2992,-21.76676],[-45.29966,-21.76674],[-45.30021,-21.76677],[-45.30079,-21.76689],[-45.30152,-21.7671],[-45.30178,-21.76721],[-45.30209,-21.76731],[-45.3024,-21.76639],[-45.30259,-21.76621],[-45.30317,-21.7661],[-45.30367,-21.76612],[-45.30406,-21.76621],[-45.30423,-21.76628],[-45.30448,-21.76629],[-45.305,-21.76639],[-45.30538,-21.76652],[-45.30564,-21.7667],[-45.30638,-21.76758],[-45.30659,-21.76787],[-45.30689,-21.76834],[-45.30749,-21.76872],[-45.30822,-21.76914],[-45.30854,-21.76913],[-45.30887,-21.76905],[-45.31101,-21.76848],[-45.31209,-21.76816],[-45.31204,-21.76753],[-45.31193,-21.76727],[-45.31158,-21.7667],[-45.31108,-21.76617],[-45.31086,-21.76602],[-45.31062,-21.76581],[-45.31013,-21.76505],[-45.30979,-21.76438],[-45.30946,-21.76356],[-45.30927,-21.76303],[-45.30928,-21.76257],[-45.30949,-21.76203],[-45.30968,-21.76171],[-45.30996,-21.76133],[-45.31002,-21.76107],[-45.30986,-21.7607],[-45.3095,-21.76005],[-45.3093,-21.75976],[-45.30892,-21.75947],[-45.30894,-21.7594],[-45.30949,-21.7591],[-45.30978,-21.75891],[-45.31007,-21.75864],[-45.31035,-21.75829],[-45.31061,-21.75803],[-45.31081,-21.75767],[-45.31094,-21.75749],[-45.31161,-21.75711],[-45.31174,-21.75711],[-45.3119,-21.75716],[-45.31243,-21.75755],[-45.31296,-21.75789],[-45.31325,-21.75806],[-45.31431,-21.75858],[-45.31462,-21.75866],[-45.31513,-21.75872],[-45.31539,-21.75855],[-45.31598,-21.75827],[-45.31623,-21.7582],[-45.31646,-21.75815],[-45.31679,-21.7581],[-45.31705,-21.75804],[-45.3176,-21.75778],[-45.31783,-21.7577],[-45.31824,-21.75773],[-45.3185,-21.75769],[-45.31867,-21.75765],[-45.31912,-21.75722],[-45.31935,-21.75705],[-45.31952,-21.75694],[-45.31988,-21.75637],[-45.32002,-21.75608],[-45.32052,-21.75426],[-45.32051,-21.75397],[-45.32003,-21.75251],[-45.31996,-21.75219],[-45.32023,-21.75088],[-45.32026,-21.75044],[-45.32031,-21.74999],[-45.32036,-21.7498],[-45.3205,-21.74944],[-45.32054,-21.74922],[-45.32055,-21.74898],[-45.32062,-21.74861],[-45.3209,-21.74785],[-45.32089,-21.74761],[-45.32078,-21.74669],[-45.32071,-21.74627],[-45.32057,-21.74589],[-45.32029,-21.74539],[-45.31997,-21.74501],[-45.31967,-21.7446],[-45.31963,-21.74437],[-45.31954,-21.74403],[-45.31942,-21.7438],[-45.31927,-21.74359],[-45.3191,-21.74317],[-45.31897,-21.74279],[-45.31871,-21.74244],[-45.31624,-21.74048],[-45.31593,-21.74015],[-45.31521,-21.73902],[-45.31507,-21.73874],[-45.3149,-21.73854],[-45.31471,-21.7384],[-45.31463,-21.73826],[-45.3146,-21.73807],[-45.31463,-21.73763],[-45.31463,-21.73717],[-45.31468,-21.73696],[-45.31468,-21.73658],[-45.31474,-21.73621],[-45.3147,-21.73599],[-45.31457,-21.73556],[-45.31435,-21.73533],[-45.31471,-21.73529],[-45.31664,-21.73556],[-45.31715,-21.73566],[-45.31794,-21.73597],[-45.31776,-21.73505],[-45.31755,-21.73455],[-45.31758,-21.73405],[-45.31724,-21.73317],[-45.31715,-21.73267],[-45.31722,-21.73209],[-45.31718,-21.73186],[-45.31707,-21.73151],[-45.31711,-21.7312],[-45.31711,-21.7309],[-45.31685,-21.73061],[-45.31613,-21.72977],[-45.31609,-21.72912],[-45.3162,-21.72845],[-45.31642,-21.72786],[-45.31644,-21.7275],[-45.31626,-21.72719],[-45.3158,-21.72684],[-45.31547,-21.72665],[-45.31517,-21.72627],[-45.31492,-21.72586],[-45.31495,-21.72569],[-45.31489,-21.72551],[-45.31445,-21.72482],[-45.31424,-21.72465],[-45.3138,-21.72455],[-45.31323,-21.7245],[-45.31265,-21.72419],[-45.31253,-21.72418],[-45.31245,-21.72412],[-45.31245,-21.724],[-45.31251,-21.72376],[-45.31269,-21.72346],[-45.3127,-21.72325],[-45.31276,-21.72302],[-45.31294,-21.723],[-45.31316,-21.72301],[-45.31321,-21.72297],[-45.31319,-21.72284],[-45.31326,-21.72266],[-45.3136,-21.72244],[-45.31373,-21.72203],[-45.31378,-21.72178],[-45.3139,-21.72173],[-45.31408,-21.72168],[-45.31417,-21.72155],[-45.31413,-21.72126],[-45.31296,-21.72],[-45.3127,-21.71959],[-45.3125,-21.71868],[-45.31232,-21.7185],[-45.31203,-21.71854],[-45.31146,-21.71842],[-45.31091,-21.71805],[-45.31069,-21.71757],[-45.31072,-21.71725],[-45.31044,-21.71664],[-45.3103,-21.71644],[-45.31039,-21.71622],[-45.31082,-21.71598],[-45.31091,-21.71572],[-45.31092,-21.71523],[-45.31079,-21.71492],[-45.30987,-21.71396],[-45.3096,-21.71378],[-45.30939,-21.71348],[-45.30933,-21.7131],[-45.30939,-21.713],[-45.30956,-21.71285],[-45.30958,-21.71265],[-45.30954,-21.71205],[-45.30949,-21.71194],[-45.30915,-21.71151],[-45.30902,-21.71126],[-45.309,-21.71103],[-45.30924,-21.71026],[-45.3093,-21.70998],[-45.30925,-21.70939],[-45.30917,-21.70897],[-45.30891,-21.70843],[-45.30877,-21.70821],[-45.3087,-21.70786],[-45.30868,-21.70758],[-45.30863,-21.70735],[-45.30853,-21.70704],[-45.30834,-21.70678],[-45.30809,-21.70658],[-45.30799,-21.7063],[-45.30809,-21.70565],[-45.30806,-21.70525],[-45.30791,-21.70491],[-45.30785,-21.70464],[-45.30792,-21.70417],[-45.30784,-21.70399],[-45.30759,-21.70356],[-45.30732,-21.70317],[-45.30719,-21.70284],[-45.30725,-21.70234],[-45.3073,-21.70217],[-45.3074,-21.70203],[-45.30759,-21.70195],[-45.30773,-21.70178],[-45.30771,-21.70158],[-45.30747,-21.70145],[-45.30743,-21.70135],[-45.3075,-21.70122],[-45.30772,-21.70112],[-45.30791,-21.70108],[-45.30807,-21.70101],[-45.30819,-21.70085],[-45.30839,-21.70069],[-45.30863,-21.70059],[-45.30905,-21.7005],[-45.30916,-21.70043],[-45.30945,-21.7],[-45.30939,-21.69978],[-45.30911,-21.6996],[-45.30833,-21.69922],[-45.30829,-21.69915],[-45.30828,-21.69905],[-45.30834,-21.69898],[-45.30879,-21.69898],[-45.30903,-21.69893],[-45.30912,-21.69882],[-45.30919,-21.6986],[-45.30929,-21.69844],[-45.30947,-21.69822],[-45.30946,-21.69812],[-45.30939,-21.6979],[-45.30918,-21.69747],[-45.30914,-21.69735],[-45.30917,-21.69728],[-45.30925,-21.69729],[-45.30937,-21.69737],[-45.30953,-21.69742],[-45.30997,-21.69738],[-45.31046,-21.69718],[-45.31093,-21.69691],[-45.31124,-21.69668],[-45.31132,-21.69605],[-45.30964,-21.69609],[-45.30884,-21.69614],[-45.30833,-21.69622],[-45.30784,-21.69635],[-45.30728,-21.69659],[-45.30658,-21.69697],[-45.30497,-21.69781],[-45.30406,-21.69821],[-45.30314,-21.69852],[-45.30154,-21.6989],[-45.29501,-21.70027],[-45.29432,-21.70046],[-45.29371,-21.70072],[-45.29316,-21.70104],[-45.29228,-21.70161],[-45.29065,-21.70268],[-45.2893,-21.70363],[-45.28854,-21.70411],[-45.28805,-21.70439],[-45.28753,-21.70472],[-45.28692,-21.70498],[-45.2858,-21.70524],[-45.28538,-21.70538],[-45.28513,-21.70551],[-45.28493,-21.70567],[-45.28474,-21.70585],[-45.28444,-21.70626],[-45.284,-21.70679],[-45.28379,-21.70695],[-45.28349,-21.70706],[-45.28322,-21.70705],[-45.2832,-21.70746],[-45.28332,-21.70784],[-45.28333,-21.70806],[-45.28327,-21.70823],[-45.28326,-21.70834],[-45.28314,-21.7087],[-45.283,-21.70898],[-45.28288,-21.70914],[-45.28277,-21.70913],[-45.28254,-21.70931],[-45.2824,-21.70944]]]]}},{"type":"Feature","properties":{"territory_id":"mg-3169307-parque-bandeirantes","name":"Parque Bandeirantes","municipality_id":"mg-3169307","polling_places":1,"approx":true,"official":false,"method":"voronoi-polling-places","whole_municipality":false,"approx_coords_only":false},"geometry":{"type":"MultiPolygon","coordinates":[[[[-45.4169,-21.6675],[-45.4037,-21.6826],[-45.3762,-21.6757],[-45.3399,-21.7151],[-45.34532,-21.76364],[-45.31468,-21.73686],[-45.31468,-21.73658],[-45.31474,-21.73621],[-45.3147,-21.73599],[-45.31457,-21.73556],[-45.31435,-21.73533],[-45.31471,-21.73529],[-45.31664,-21.73556],[-45.31715,-21.73566],[-45.31794,-21.73597],[-45.31776,-21.73505],[-45.31755,-21.73455],[-45.31758,-21.73405],[-45.31724,-21.73317],[-45.31715,-21.73267],[-45.31722,-21.73209],[-45.31718,-21.73186],[-45.31707,-21.73151],[-45.31711,-21.7312],[-45.31711,-21.7309],[-45.31685,-21.73061],[-45.31613,-21.72977],[-45.31609,-21.72912],[-45.3162,-21.72845],[-45.31642,-21.72786],[-45.31644,-21.7275],[-45.31626,-21.72719],[-45.3158,-21.72684],[-45.31547,-21.72665],[-45.31517,-21.72627],[-45.31492,-21.72586],[-45.31495,-21.72569],[-45.31489,-21.72551],[-45.31445,-21.72482],[-45.31424,-21.72465],[-45.3138,-21.72455],[-45.31323,-21.7245],[-45.31265,-21.72419],[-45.31253,-21.72418],[-45.31245,-21.72412],[-45.31245,-21.724],[-45.31251,-21.72376],[-45.31269,-21.72346],[-45.3127,-21.72325],[-45.31276,-21.72302],[-45.31294,-21.723],[-45.31316,-21.72301],[-45.31321,-21.72297],[-45.31319,-21.72284],[-45.31326,-21.72266],[-45.3136,-21.72244],[-45.31373,-21.72203],[-45.31378,-21.72178],[-45.3139,-21.72173],[-45.31408,-21.72168],[-45.31417,-21.72155],[-45.31413,-21.72126],[-45.31296,-21.72],[-45.3127,-21.71959],[-45.3125,-21.71868],[-45.31232,-21.7185],[-45.31203,-21.71854],[-45.31146,-21.71842],[-45.31091,-21.71805],[-45.31069,-21.71757],[-45.31072,-21.71725],[-45.31044,-21.71664],[-45.3103,-21.71644],[-45.31039,-21.71622],[-45.31082,-21.71598],[-45.31091,-21.71572],[-45.31092,-21.71523],[-45.31079,-21.71492],[-45.30987,-21.71396],[-45.3096,-21.71378],[-45.30939,-21.71348],[-45.30933,-21.7131],[-45.30939,-21.713],[-45.30956,-21.71285],[-45.30958,-21.71265],[-45.30954,-21.71205],[-45.30949,-21.71194],[-45.30915,-21.71151],[-45.30902,-21.71126],[-45.309,-21.71103],[-45.30924,-21.71026],[-45.3093,-21.70998],[-45.30925,-21.70939],[-45.30917,-21.70897],[-45.30891,-21.70843],[-45.30877,-21.70821],[-45.3087,-21.70786],[-45.30868,-21.70758],[-45.30863,-21.70735],[-45.30853,-21.70704],[-45.30834,-21.70678],[-45.30809,-21.70658],[-45.30799,-21.7063],[-45.30809,-21.70565],[-45.30806,-21.70525],[-45.30791,-21.70491],[-45.30785,-21.70464],[-45.30792,-21.70417],[-45.30784,-21.70399],[-45.30759,-21.70356],[-45.30732,-21.70317],[-45.30719,-21.70284],[-45.30725,-21.70234],[-45.3073,-21.70217],[-45.3074,-21.70203],[-45.30759,-21.70195],[-45.30773,-21.70178],[-45.30771,-21.70158],[-45.30747,-21.70145],[-45.30743,-21.70135],[-45.3075,-21.70122],[-45.30772,-21.70112],[-45.30791,-21.70108],[-45.30807,-21.70101],[-45.30819,-21.70085],[-45.30839,-21.70069],[-45.30863,-21.70059],[-45.30905,-21.7005],[-45.30916,-21.70043],[-45.30945,-21.7],[-45.30939,-21.69978],[-45.30911,-21.6996],[-45.30833,-21.69922],[-45.30829,-21.69915],[-45.30828,-21.69905],[-45.30834,-21.69898],[-45.30879,-21.69898],[-45.30903,-21.69893],[-45.30912,-21.69882],[-45.30919,-21.6986],[-45.30929,-21.69844],[-45.30947,-21.69822],[-45.30946,-21.69812],[-45.30939,-21.6979],[-45.30918,-21.69747],[-45.30914,-21.69735],[-45.30917,-21.69728],[-45.30925,-21.69729],[-45.30937,-21.69737],[-45.30953,-21.69742],[-45.30997,-21.69738],[-45.31046,-21.69718],[-45.31093,-21.69691],[-45.31124,-21.69668],[-45.31132,-21.69605],[-45.30964,-21.69609],[-45.30884,-21.69614],[-45.30833,-21.69622],[-45.30784,-21.69635],[-45.30728,-21.69659],[-45.30658,-21.69697],[-45.30497,-21.69781],[-45.30406,-21.69821],[-45.30314,-21.69852],[-45.30154,-21.6989],[-45.29501,-21.70027],[-45.29432,-21.70046],[-45.29371,-21.70072],[-45.29316,-21.70104],[-45.29228,-21.70161],[-45.29065,-21.70268],[-45.2893,-21.70363],[-45.28854,-21.70411],[-45.28805,-21.70439],[-45.28753,-21.70472],[-45.28692,-21.70498],[-45.2858,-21.70524],[-45.28538,-21.70538],[-45.28513,-21.70551],[-45.28493,-21.70567],[-45.28474,-21.70585],[-45.28444,-21.70626],[-45.284,-21.70679],[-45.28379,-21.70695],[-45.28349,-21.70706],[-45.28322,-21.70705],[-45.2832,-21.70746],[-45.28332,-21.70784],[-45.28333,-21.70806],[-45.28327,-21.70823],[-45.28326,-21.70834],[-45.28314,-21.7087],[-45.283,-21.70898],[-45.28291,-21.7091],[-45.2658,-21.69414],[-45.26574,-21.69395],[-45.26565,-21.6934],[-45.26551,-21.69276],[-45.2651,-21.69202],[-45.26452,-21.69129],[-45.26395,-21.6909],[-45.26354,-21.69066],[-45.2631,-21.69065],[-45.26191,-21.69068],[-45.26188,-21.69072],[-45.26126,-21.69017],[-45.23166,-21.65555],[-45.20405,-21.54305],[-45.2546,-21.5541],[-45.2848,-21.6005],[-45.3309,-21.5838],[-45.3468,-21.6317],[-45.3913,-21.6296],[-45.4169,-21.6675]],[[-45.36513,-21.63706],[-45.36488,-21.63665],[-45.36442,-21.63628],[-45.36414,-21.63612],[-45.36395,-21.63607],[-45.36374,-21.63605],[-45.3636,-21.63613],[-45.36334,-21.63637],[-45.36303,-21.6364],[-45.36271,-21.63636],[-45.36226,-21.63615],[-45.3621,-21.63619],[-45.362,-21.63631],[-45.36197,-21.63639],[-45.3618,-21.63656],[-45.3617,-21.63674],[-45.36162,-21.63682],[-45.36145,-21.63684],[-45.36131,-21.63683],[-45.36116,-21.63681],[-45.36113,-21.63704],[-45.36087,-21.63701],[-45.36045,-21.63701],[-45.36029,-21.63697],[-45.36026,-21.63703],[-45.36011,-21.63717],[-45.36017,-21.63743],[-45.36005,-21.63758],[-45.35904,-21.63795],[-45.35884,-21.63806],[-45.35803,-21.63874],[-45.35771,-21.63882],[-45.35739,-21.63894],[-45.35708,-21.63903],[-45.35671,-21.63923],[-45.35644,-21.63941],[-45.35626,-21.63971],[-45.35605,-21.63999],[-45.35575,-21.64028],[-45.3555,-21.64059],[-45.35458,-21.64139],[-45.35383,-21.642],[-45.35329,-21.64238],[-45.35289,-21.64275],[-45.35271,-21.64323],[-45.35197,-21.64441],[-45.35179,-21.64463],[-45.35158,-21.64458],[-45.35135,-21.64458],[-45.35119,-21.64462],[-45.35106,-21.6447],[-45.3509,-21.64487],[-45.35109,-21.64502],[-45.35137,-21.64512],[-45.35213,-21.64576],[-45.3538,-21.64562],[-45.35877,-21.64543],[-45.36059,-21.64508],[-45.36108,-21.64447],[-45.36121,-21.64386],[-45.36433,-21.64008],[-45.36486,-21.63852],[-45.36513,-21.63706]],[[-45.33191,-21.68679],[-45.33137,-21.68571],[-45.33106,-21.6849],[-45.33097,-21.68449],[-45.33097,-21.6842],[-45.33082,-21.6833],[-45.331,-21.68193],[-45.33131,-21.67904],[-45.33147,-21.6787],[-45.33046,-21.67818],[-45.33029,-21.67812],[-45.33018,-21.67824],[-45.32981,-21.67878],[-45.32848,-21.68085],[-45.32787,-21.68176],[-45.32638,-21.68404],[-45.32661,-21.68415],[-45.33191,-21.68679]],[[-45.27908,-21.67265],[-45.27894,-21.67191],[-45.27859,-21.67203],[-45.27854,-21.6718],[-45.27825,-21.67146],[-45.27805,-21.67139],[-45.27746,-21.67126],[-45.27667,-21.67113],[-45.27591,-21.67082],[-45.27573,-21.67073],[-45.27547,-21.67069],[-45.27525,-21.67068],[-45.27445,-21.67088],[-45.27362,-21.67111],[-45.27272,-21.67132],[-45.27254,-21.67194],[-45.27229,-21.67266],[-45.2722,-21.67279],[-45.27213,-21.67283],[-45.27138,-21.67374],[-45.27126,-21.67385],[-45.2695,-21.67302],[-45.26821,-21.67245],[-45.26565,-21.67127],[-45.26471,-21.67309],[-45.26468,-21.67341],[-45.26482,-21.67365],[-45.26548,-21.67462],[-45.26596,-21.67528],[-45.26617,-21.67546],[-45.26841,-21.67649],[-45.26906,-21.67682],[-45.2704,-21.67472],[-45.27064,-21.67442],[-45.27172,-21.67459],[-45.27473,-21.675],[-45.27496,-21.675],[-45.2763,-21.67487],[-45.27797,-21.67475],[-45.27807,-21.67478],[-45.27813,-21.67486],[-45.27847,-21.67491],[-45.27881,-21.67348],[-45.27908,-21.67265]],[[-45.27299,-21.6869],[-45.27111,-21.68423],[-45.27073,-21.68402],[-45.26967,-21.68343],[-45.26909,-21.68311],[-45.26735,-21.68216],[-45.26677,-21.68181],[-45.26608,-21.68145],[-45.26514,-21.68293],[-45.26445,-21.68389],[-45.26402,-21.68437],[-45.2635,-21.68486],[-45.26363,-21.685],[-45.26394,-21.68525],[-45.26473,-21.68585],[-45.26436,-21.68618],[-45.26418,-21.68627],[-45.26475,-21.6865],[-45.2654,-21.6867],[-45.26548,-21.68647],[-45.26548,-21.68639],[-45.26784,-21.68558],[-45.26849,-21.68558],[-45.26865,-21.6856],[-45.26874,-21.68559],[-45.2695,-21.68566],[-45.27062,-21.68584],[-45.27112,-21.68606],[-45.27137,-21.68621],[-45.27174,-21.68649],[-45.2719,-21.68658],[-45.2726,-21.68687],[-45.27299,-21.6869]]]]}},{"type":"Feature","properties":{"territory_id":"mg-3169307-parque-jussara","name":"Parque Jussara","municipality_id":"mg-3169307","polling_places":2,"approx":false,"official":true,"method":"official-ibge-cd2022","whole_municipality":false,"approx_coords_only":false,"official_name":"Parque Jussara","official_code":"3169307092","match":"direct"},"geometry":{"type":"MultiPolygon","coordinates":[[[[-45.23685,-21.70344],[-45.23607,-21.70313],[-45.23622,-21.70218],[-45.23623,-21.70182],[-45.23573,-21.7019],[-45.23507,-21.70197],[-45.23486,-21.70202],[-45.23447,-21.70213],[-45.23398,-21.70243],[-45.23283,-21.70323],[-45.23265,-21.70333],[-45.23149,-21.70382],[-45.23024,-21.70427],[-45.22999,-21.70439],[-45.22999,-21.70445],[-45.23007,-21.70447],[-45.23241,-21.70414],[-45.2328,-21.70395],[-45.23349,-21.70489],[-45.23368,-21.70477],[-45.23488,-21.70619],[-45.23536,-21.70679],[-45.23584,-21.70733],[-45.23599,-21.70747],[-45.2362,-21.70759],[-45.2363,-21.70733],[-45.23675,-21.70676],[-45.237,-21.70618],[-45.2365,-21.70563],[-45.23702,-21.70448],[-45.23741,-21.70366],[-45.23799,-21.70238],[-45.23803,-21.70233],[-45.23818,-21.70161],[-45.23771,-21.70161],[-45.23746,-21.70215],[-45.23685,-21.70344]]]]}},{"type":"Feature","properties":{"territory_id":"mg-3169307-rio-do-peixe","name":"Rio do Peixe","municipality_id":"mg-3169307","polling_places":2,"approx":false,"official":true,"method":"official-ibge-cd2022","whole_municipality":false,"approx_coords_only":false,"official_name":"Rio do Peixe","official_code":"3169307087","match":"direct"},"geometry":{"type":"MultiPolygon","coordinates":[[[[-45.25068,-21.68678],[-45.25077,-21.68741],[-45.25079,-21.68785],[-45.25065,-21.68833],[-45.25053,-21.68866],[-45.25179,-21.68923],[-45.25185,-21.68915],[-45.25195,-21.68907],[-45.25222,-21.68895],[-45.25217,-21.68865],[-45.25202,-21.68715],[-45.25237,-21.68604],[-45.25234,-21.68576],[-45.25211,-21.68576],[-45.25107,-21.68548],[-45.25087,-21.68603],[-45.25079,-21.68634],[-45.25068,-21.68678]]]]}},{"type":"Feature","properties":{"territory_id":"mg-3169307-santa-tereza","name":"Santa Tereza","municipality_id":"mg-3169307","polling_places":2,"approx":true,"official":false,"method":"voronoi-polling-places","whole_municipality":false,"approx_coords_only":false},"geometry":{"type":"MultiPolygon","coordinates":[[[[-45.3457,-21.767],[-45.3282,-21.7966],[-45.2968,-21.8188],[-45.2409,-21.7993],[-45.21878,-21.78298],[-45.22654,-21.72517],[-45.23166,-21.65555],[-45.26126,-21.69017],[-45.26188,-21.69072],[-45.26176,-21.69092],[-45.26105,-21.69198],[-45.26039,-21.69307],[-45.26006,-21.69354],[-45.26124,-21.6942],[-45.26095,-21.69466],[-45.26085,-21.69489],[-45.26146,-21.69505],[-45.26229,-21.69522],[-45.26246,-21.69531],[-45.26332,-21.69581],[-45.26329,-21.69592],[-45.2633,-21.69605],[-45.26363,-21.69628],[-45.26385,-21.69646],[-45.2643,-21.69679],[-45.26527,-21.69757],[-45.26535,-21.69746],[-45.26491,-21.69711],[-45.26543,-21.69646],[-45.26488,-21.69604],[-45.26525,-21.69543],[-45.26561,-21.69506],[-45.26593,-21.69459],[-45.2658,-21.69414],[-45.28291,-21.7091],[-45.28288,-21.70914],[-45.28277,-21.70913],[-45.28254,-21.70931],[-45.2824,-21.70944],[-45.28227,-21.70948],[-45.28209,-21.70945],[-45.28192,-21.70945],[-45.28174,-21.70951],[-45.28155,-21.70966],[-45.28126,-21.71012],[-45.28116,-21.71023],[-45.28099,-21.7103],[-45.28094,-21.71042],[-45.28078,-21.71066],[-45.28022,-21.71109],[-45.27944,-21.71127],[-45.27766,-21.7113],[-45.27647,-21.71108],[-45.27605,-21.71067],[-45.27569,-21.71016],[-45.27547,-21.71004],[-45.2749,-21.70983],[-45.27416,-21.70998],[-45.27406,-21.71046],[-45.274,-21.71057],[-45.27396,-21.71069],[-45.27397,-21.71099],[-45.27407,-21.71134],[-45.27407,-21.71142],[-45.27396,-21.71201],[-45.27415,-21.71243],[-45.27445,-21.71284],[-45.27492,-21.7136],[-45.27523,-21.71397],[-45.27576,-21.71441],[-45.27633,-21.71497],[-45.2764,-21.71517],[-45.27667,-21.71564],[-45.27677,-21.71604],[-45.27694,-21.71629],[-45.27702,-21.71668],[-45.2769,-21.71699],[-45.27687,-21.71741],[-45.27661,-21.71771],[-45.27654,-21.71818],[-45.27663,-21.71865],[-45.27658,-21.71903],[-45.27706,-21.71961],[-45.27773,-21.71916],[-45.27829,-21.71981],[-45.27824,-21.72],[-45.27822,-21.72018],[-45.27814,-21.72039],[-45.27788,-21.72065],[-45.2776,-21.72086],[-45.27694,-21.72121],[-45.27672,-21.72128],[-45.27644,-21.72133],[-45.27584,-21.72141],[-45.27554,-21.72148],[-45.27482,-21.72157],[-45.27449,-21.72158],[-45.27413,-21.72147],[-45.27411,-21.72171],[-45.27407,-21.72197],[-45.27393,-21.72226],[-45.27379,-21.72247],[-45.27332,-21.723],[-45.27294,-21.72352],[-45.2725,-21.72417],[-45.27219,-21.72468],[-45.27212,-21.72484],[-45.27214,-21.72535],[-45.27222,-21.72578],[-45.27231,-21.72648],[-45.27227,-21.72727],[-45.27231,-21.72776],[-45.27228,-21.72817],[-45.27208,-21.72877],[-45.27197,-21.72925],[-45.27168,-21.72937],[-45.27157,-21.72938],[-45.27125,-21.72953],[-45.26887,-21.73058],[-45.2687,-21.73062],[-45.26843,-21.73063],[-45.26765,-21.73049],[-45.26758,-21.73052],[-45.26741,-21.73063],[-45.26683,-21.73103],[-45.26674,-21.73115],[-45.2671,-21.73128],[-45.26743,-21.73146],[-45.26776,-21.73174],[-45.26894,-21.73283],[-45.26918,-21.7331],[-45.26942,-21.73346],[-45.26965,-21.73393],[-45.26976,-21.73436],[-45.26977,-21.73484],[-45.26975,-21.73525],[-45.26967,-21.73562],[-45.26937,-21.73634],[-45.26914,-21.737],[-45.26903,-21.73745],[-45.269,-21.73796],[-45.26903,-21.73849],[-45.26935,-21.74026],[-45.26934,-21.74087],[-45.2693,-21.74121],[-45.26923,-21.74155],[-45.26841,-21.74393],[-45.26782,-21.74574],[-45.26689,-21.74842],[-45.26668,-21.7489],[-45.26637,-21.74952],[-45.26564,-21.75068],[-45.26542,-21.75114],[-45.26532,-21.75155],[-45.26528,-21.75191],[-45.26537,-21.7541],[-45.26532,-21.75466],[-45.26519,-21.75509],[-45.26498,-21.7555],[-45.26402,-21.75675],[-45.2637,-21.75741],[-45.26363,-21.75786],[-45.26365,-21.75819],[-45.26382,-21.75865],[-45.26404,-21.759],[-45.26432,-21.75929],[-45.26494,-21.75978],[-45.26599,-21.76055],[-45.26639,-21.7609],[-45.26682,-21.76135],[-45.27187,-21.76744],[-45.27214,-21.76752],[-45.2726,-21.76779],[-45.27276,-21.76783],[-45.27297,-21.76782],[-45.27313,-21.76778],[-45.27444,-21.76723],[-45.2748,-21.7671],[-45.27512,-21.76707],[-45.27564,-21.76684],[-45.27646,-21.76667],[-45.2771,-21.76659],[-45.27743,-21.76662],[-45.27878,-21.76716],[-45.27931,-21.76727],[-45.27984,-21.76717],[-45.28046,-21.76708],[-45.28086,-21.76693],[-45.2816,-21.76648],[-45.28194,-21.76619],[-45.28246,-21.76572],[-45.28313,-21.76537],[-45.28406,-21.76515],[-45.28442,-21.7651],[-45.28521,-21.76524],[-45.28866,-21.76554],[-45.28939,-21.76546],[-45.29,-21.76546],[-45.29056,-21.76551],[-45.29083,-21.76559],[-45.29115,-21.76592],[-45.29132,-21.766],[-45.29179,-21.76606],[-45.29196,-21.76605],[-45.29221,-21.76613],[-45.29253,-21.76614],[-45.29276,-21.76611],[-45.29302,-21.76617],[-45.29328,-21.76629],[-45.29352,-21.76635],[-45.29371,-21.76632],[-45.29423,-21.76608],[-45.29447,-21.76606],[-45.29481,-21.76607],[-45.29517,-21.76613],[-45.29549,-21.76625],[-45.2957,-21.76635],[-45.29585,-21.76638],[-45.29636,-21.76629],[-45.29662,-21.76659],[-45.29689,-21.7667],[-45.29741,-21.76672],[-45.29848,-21.76672],[-45.2992,-21.76676],[-45.29966,-21.76674],[-45.30021,-21.76677],[-45.30079,-21.76689],[-45.30152,-21.7671],[-45.30178,-21.76721],[-45.30209,-21.76731],[-45.3024,-21.76639],[-45.30259,-21.76621],[-45.30317,-21.7661],[-45.30367,-21.76612],[-45.30406,-21.76621],[-45.30423,-21.76628],[-45.30448,-21.76629],[-45.305,-21.76639],[-45.30538,-21.76652],[-45.30564,-21.7667],[-45.30638,-21.76758],[-45.30659,-21.76787],[-45.30689,-21.76834],[-45.30749,-21.76872],[-45.30822,-21.76914],[-45.30854,-21.76913],[-45.30887,-21.76905],[-45.31101,-21.76848],[-45.31209,-21.76816],[-45.31204,-21.76753],[-45.31193,-21.76727],[-45.31158,-21.7667],[-45.31108,-21.76617],[-45.31086,-21.76602],[-45.31062,-21.76581],[-45.31013,-21.76505],[-45.30979,-21.76438],[-45.30946,-21.76356],[-45.30927,-21.76303],[-45.30928,-21.76257],[-45.30949,-21.76203],[-45.30968,-21.76171],[-45.30996,-21.76133],[-45.31002,-21.76107],[-45.30986,-21.7607],[-45.3095,-21.76005],[-45.3093,-21.75976],[-45.30892,-21.75947],[-45.30894,-21.7594],[-45.30949,-21.7591],[-45.30978,-21.75891],[-45.31007,-21.75864],[-45.31035,-21.75829],[-45.31061,-21.75803],[-45.31081,-21.75767],[-45.31094,-21.75749],[-45.31161,-21.75711],[-45.31174,-21.75711],[-45.3119,-21.75716],[-45.31243,-21.75755],[-45.31296,-21.75789],[-45.31325,-21.75806],[-45.31431,-21.75858],[-45.31462,-21.75866],[-45.31513,-21.75872],[-45.31539,-21.75855],[-45.31598,-21.75827],[-45.31623,-21.7582],[-45.31646,-21.75815],[-45.31679,-21.7581],[-45.31705,-21.75804],[-45.3176,-21.75778],[-45.31783,-21.7577],[-45.31824,-21.75773],[-45.3185,-21.75769],[-45.31867,-21.75765],[-45.31912,-21.75722],[-45.31935,-21.75705],[-45.31952,-21.75694],[-45.31988,-21.75637],[-45.32002,-21.75608],[-45.32052,-21.75426],[-45.32051,-21.75397],[-45.32003,-21.75251],[-45.31996,-21.75219],[-45.32023,-21.75088],[-45.32026,-21.75044],[-45.32031,-21.74999],[-45.32036,-21.7498],[-45.3205,-21.74944],[-45.32054,-21.74922],[-45.32055,-21.74898],[-45.32062,-21.74861],[-45.3209,-21.74785],[-45.32089,-21.74761],[-45.32078,-21.74669],[-45.32071,-21.74627],[-45.32057,-21.74589],[-45.32029,-21.74539],[-45.31997,-21.74501],[-45.31967,-21.7446],[-45.31963,-21.74437],[-45.31954,-21.74403],[-45.31942,-21.7438],[-45.31927,-21.74359],[-45.3191,-21.74317],[-45.31897,-21.74279],[-45.31871,-21.74244],[-45.31624,-21.74048],[-45.31593,-21.74015],[-45.31521,-21.73902],[-45.31507,-21.73874],[-45.3149,-21.73854],[-45.31471,-21.7384],[-45.31463,-21.73826],[-45.3146,-21.73807],[-45.31463,-21.73763],[-45.31463,-21.73717],[-45.31468,-21.73696],[-45.31468,-21.73686],[-45.34532,-21.76364],[-45.3457,-21.767]],[[-45.27413,-21.72147],[-45.27411,-21.7212],[-45.27404,-21.72095],[-45.27394,-21.7208],[-45.27305,-21.71974],[-45.27294,-21.71955],[-45.27284,-21.71937],[-45.2727,-21.71901],[-45.2726,-21.71852],[-45.27253,-21.7183],[-45.27243,-21.71806],[-45.27212,-21.7177],[-45.27184,-21.71753],[-45.27151,-21.71739],[-45.27074,-21.71715],[-45.27018,-21.71686],[-45.2691,-21.71588],[-45.2688,-21.71555],[-45.26734,-21.71512],[-45.26764,-21.71416],[-45.26604,-21.71362],[-45.26516,-21.71343],[-45.26451,-21.71313],[-45.26442,-21.713],[-45.26395,-21.71237],[-45.26352,-21.71165],[-45.26354,-21.71191],[-45.26344,-21.71233],[-45.26337,-21.71255],[-45.26308,-21.71328],[-45.263,-21.71354],[-45.26295,-21.71381],[-45.26278,-21.71548],[-45.26276,-21.71618],[-45.2626,-21.71672],[-45.26259,-21.71686],[-45.2627,-21.71778],[-45.26266,-21.71801],[-45.26271,-21.71802],[-45.26307,-21.7183],[-45.26346,-21.71851],[-45.26358,-21.71867],[-45.26376,-21.71876],[-45.26407,-21.71924],[-45.26414,-21.7194],[-45.26443,-21.71975],[-45.26467,-21.71991],[-45.26476,-21.72],[-45.26489,-21.72009],[-45.26503,-21.72027],[-45.26506,-21.72039],[-45.26518,-21.72059],[-45.26533,-21.72076],[-45.26534,-21.72073],[-45.26549,-21.72083],[-45.26625,-21.72058],[-45.26656,-21.72053],[-45.26682,-21.72046],[-45.26709,-21.72028],[-45.26744,-21.72012],[-45.26769,-21.7199],[-45.26802,-21.71983],[-45.2682,-21.71983],[-45.26833,-21.71966],[-45.26861,-21.71957],[-45.269,-21.71941],[-45.26926,-21.71912],[-45.26948,-21.71899],[-45.27022,-21.71903],[-45.27051,-21.71901],[-45.27071,-21.71895],[-45.27214,-21.71867],[-45.27219,-21.71892],[-45.27235,-21.71925],[-45.27243,-21.71956],[-45.27271,-21.72002],[-45.27357,-21.72091],[-45.27384,-21.72145],[-45.27407,-21.72148],[-45.27413,-21.72147]],[[-45.26553,-21.70327],[-45.26537,-21.703],[-45.26517,-21.70278],[-45.2649,-21.70259],[-45.26422,-21.70214],[-45.26384,-21.70186],[-45.26364,-21.70168],[-45.26258,-21.70253],[-45.26192,-21.70308],[-45.26202,-21.70345],[-45.26205,-21.7035],[-45.26228,-21.70438],[-45.2624,-21.70476],[-45.26276,-21.70464],[-45.2628,-21.70459],[-45.26355,-21.70391],[-45.26466,-21.70295],[-45.26509,-21.70338],[-45.26509,-21.70347],[-45.26546,-21.70331],[-45.26553,-21.70327]],[[-45.26311,-21.72659],[-45.26291,-21.72522],[-45.26282,-21.72427],[-45.26268,-21.72351],[-45.26258,-21.72257],[-45.26246,-21.72171],[-45.26084,-21.7218],[-45.26076,-21.72186],[-45.26014,-21.72266],[-45.26,-21.72273],[-45.25959,-21.72289],[-45.25878,-21.72329],[-45.25873,-21.72338],[-45.25862,-21.72363],[-45.25869,-21.72367],[-45.25888,-21.72387],[-45.25914,-21.72397],[-45.25924,-21.72398],[-45.25937,-21.72409],[-45.25937,-21.72425],[-45.25926,-21.72441],[-45.25935,-21.72453],[-45.25948,-21.72466],[-45.25959,-21.72467],[-45.25967,-21.72483],[-45.25969,-21.725],[-45.25985,-21.72509],[-45.25995,-21.72539],[-45.26009,-21.72545],[-45.26019,-21.72551],[-45.26013,-21.72573],[-45.25996,-21.72613],[-45.26011,-21.72614],[-45.26172,-21.72639],[-45.26195,-21.7264],[-45.26243,-21.72647],[-45.26311,-21.72659]],[[-45.26161,-21.69688],[-45.2616,-21.69664],[-45.26157,-21.69643],[-45.26142,-21.69608],[-45.26131,-21.69591],[-45.26117,-21.69577],[-45.26094,-21.69558],[-45.26081,-21.69548],[-45.26042,-21.69541],[-45.26011,-21.69539],[-45.25994,-21.6954],[-45.25977,-21.69543],[-45.25958,-21.6955],[-45.2593,-21.69564],[-45.25918,-21.69575],[-45.25915,-21.69565],[-45.25905,-21.69547],[-45.25948,-21.69507],[-45.25921,-21.69487],[-45.25813,-21.69417],[-45.25876,-21.69343],[-45.2589,-21.69309],[-45.2584,-21.69252],[-45.2578,-21.6918],[-45.25756,-21.69153],[-45.25747,-21.69147],[-45.25577,-21.69076],[-45.25578,-21.69206],[-45.25583,-21.69395],[-45.25476,-21.69406],[-45.25472,-21.69409],[-45.25402,-21.69417],[-45.25415,-21.69415],[-45.25392,-21.69285],[-45.25384,-21.69207],[-45.25365,-21.69103],[-45.25363,-21.69078],[-45.25331,-21.68888],[-45.25282,-21.68886],[-45.25252,-21.68889],[-45.25222,-21.68895],[-45.25217,-21.68865],[-45.25202,-21.68715],[-45.25237,-21.68604],[-45.25234,-21.68576],[-45.25211,-21.68576],[-45.25107,-21.68548],[-45.2516,-21.68366],[-45.25172,-21.68358],[-45.25196,-21.68355],[-45.252,-21.68344],[-45.25205,-21.68315],[-45.25194,-21.68312],[-45.25194,-21.68307],[-45.25201,-21.68282],[-45.25215,-21.68249],[-45.25219,-21.68227],[-45.25225,-21.68213],[-45.25227,-21.68187],[-45.25236,-21.68157],[-45.25244,-21.68145],[-45.25264,-21.68081],[-45.25261,-21.68043],[-45.25246,-21.68036],[-45.25241,-21.68019],[-45.25241,-21.68002],[-45.2523,-21.67992],[-45.2521,-21.67992],[-45.25184,-21.68003],[-45.25169,-21.68019],[-45.2515,-21.68048],[-45.25138,-21.68072],[-45.25115,-21.68096],[-45.2509,-21.68115],[-45.25047,-21.68139],[-45.25005,-21.68169],[-45.24979,-21.68181],[-45.24957,-21.68188],[-45.24944,-21.68186],[-45.24919,-21.68175],[-45.24908,-21.68159],[-45.24906,-21.68139],[-45.249,-21.68127],[-45.24887,-21.68117],[-45.24875,-21.68109],[-45.24848,-21.68111],[-45.2484,-21.68122],[-45.24829,-21.68126],[-45.24818,-21.6812],[-45.24808,-21.68122],[-45.24801,-21.68118],[-45.24793,-21.68107],[-45.24775,-21.68101],[-45.24763,-21.68106],[-45.2476,-21.6811],[-45.2488,-21.68332],[-45.24958,-21.68357],[-45.24873,-21.68578],[-45.24918,-21.68594],[-45.24917,-21.68598],[-45.24901,-21.68606],[-45.24867,-21.68616],[-45.24846,-21.68624],[-45.24825,-21.68638],[-45.2479,-21.68665],[-45.24775,-21.68693],[-45.2477,-21.68711],[-45.24753,-21.68728],[-45.24729,-21.68741],[-45.24716,-21.68752],[-45.24677,-21.68794],[-45.2467,-21.68815],[-45.24651,-21.6883],[-45.24621,-21.6884],[-45.24608,-21.68858],[-45.2459,-21.6887],[-45.24574,-21.68868],[-45.24574,-21.68899],[-45.24588,-21.68943],[-45.24608,-21.69031],[-45.24562,-21.69039],[-45.24508,-21.68714],[-45.24552,-21.68708],[-45.24541,-21.68612],[-45.24493,-21.68618],[-45.24245,-21.68659],[-45.24238,-21.6869],[-45.24227,-21.68706],[-45.24219,-21.68728],[-45.24224,-21.68745],[-45.24231,-21.6876],[-45.24247,-21.68773],[-45.2425,-21.68793],[-45.2425,-21.68814],[-45.24258,-21.68869],[-45.24262,-21.68884],[-45.24271,-21.68906],[-45.24268,-21.68937],[-45.24271,-21.68967],[-45.24286,-21.69009],[-45.24298,-21.69014],[-45.24311,-21.69013],[-45.24323,-21.69027],[-45.24333,-21.69044],[-45.24334,-21.69065],[-45.24364,-21.69092],[-45.2439,-21.69131],[-45.2441,-21.69222],[-45.24422,-21.69259],[-45.24461,-21.69251],[-45.2455,-21.69212],[-45.24571,-21.69263],[-45.24605,-21.69242],[-45.24636,-21.69226],[-45.2466,-21.69222],[-45.24679,-21.69223],[-45.24671,-21.69217],[-45.24638,-21.69202],[-45.2462,-21.69106],[-45.24668,-21.69083],[-45.24663,-21.69061],[-45.24744,-21.69002],[-45.24772,-21.68923],[-45.24797,-21.68871],[-45.24817,-21.68824],[-45.24828,-21.68769],[-45.24836,-21.68756],[-45.24938,-21.6869],[-45.24959,-21.68675],[-45.24976,-21.68643],[-45.2499,-21.68631],[-45.25007,-21.68625],[-45.25025,-21.68629],[-45.25039,-21.68636],[-45.25055,-21.6865],[-45.25061,-21.68661],[-45.25064,-21.68674],[-45.25068,-21.68678],[-45.25077,-21.68741],[-45.25079,-21.68785],[-45.25065,-21.68833],[-45.25053,-21.68866],[-45.25179,-21.68923],[-45.25224,-21.69123],[-45.25178,-21.69129],[-45.25135,-21.69136],[-45.25089,-21.69142],[-45.25093,-21.69164],[-45.25086,-21.69173],[-45.25051,-21.69176],[-45.25039,-21.69123],[-45.24978,-21.69138],[-45.24966,-21.69194],[-45.24958,-21.69218],[-45.24939,-21.6925],[-45.24908,-21.69283],[-45.24874,-21.69314],[-45.24949,-21.69389],[-45.25043,-21.6947],[-45.25053,-21.6947],[-45.25063,-21.69475],[-45.25081,-21.69504],[-45.25139,-21.6961],[-45.25116,-21.69626],[-45.25105,-21.69643],[-45.25092,-21.69654],[-45.25038,-21.69707],[-45.2503,-21.69717],[-45.25028,-21.69723],[-45.2503,-21.69727],[-45.25054,-21.69743],[-45.25052,-21.69748],[-45.2505,-21.69748],[-45.2505,-21.69752],[-45.25048,-21.69752],[-45.25047,-21.69755],[-45.25046,-21.69755],[-45.25045,-21.69758],[-45.25043,-21.69758],[-45.25043,-21.69761],[-45.25041,-21.69761],[-45.25041,-21.69764],[-45.25037,-21.69762],[-45.25035,-21.69763],[-45.25032,-21.69761],[-45.25025,-21.69761],[-45.25023,-21.69759],[-45.25021,-21.6976],[-45.25018,-21.69758],[-45.25016,-21.69759],[-45.25014,-21.69757],[-45.25012,-21.69759],[-45.25008,-21.69759],[-45.25007,-21.6976],[-45.25002,-21.6976],[-45.25002,-21.69761],[-45.24994,-21.69761],[-45.24994,-21.69762],[-45.24989,-21.69762],[-45.24977,-21.6977],[-45.24987,-21.6977],[-45.25008,-21.69775],[-45.25086,-21.69818],[-45.25179,-21.6987],[-45.25201,-21.69888],[-45.25218,-21.69909],[-45.2525,-21.69954],[-45.2527,-21.69972],[-45.2529,-21.69984],[-45.25313,-21.69995],[-45.25326,-21.69996],[-45.25366,-21.70007],[-45.25411,-21.70025],[-45.25433,-21.6995],[-45.25648,-21.70004],[-45.25719,-21.70019],[-45.25808,-21.70045],[-45.25825,-21.69992],[-45.2584,-21.69953],[-45.25851,-21.69934],[-45.2591,-21.69956],[-45.25944,-21.69877],[-45.26017,-21.69803],[-45.26088,-21.69751],[-45.26148,-21.69751],[-45.26158,-21.69709],[-45.26161,-21.69688]],[[-45.24138,-21.71105],[-45.24012,-21.71104],[-45.24008,-21.71223],[-45.24006,-21.7125],[-45.24007,-21.71354],[-45.24133,-21.71389],[-45.24138,-21.71225],[-45.24138,-21.71105]],[[-45.23818,-21.70161],[-45.23771,-21.70161],[-45.23746,-21.70215],[-45.23685,-21.70344],[-45.23607,-21.70313],[-45.23622,-21.70218],[-45.23623,-21.70182],[-45.23573,-21.7019],[-45.23507,-21.70197],[-45.23486,-21.70202],[-45.23447,-21.70213],[-45.23398,-21.70243],[-45.23283,-21.70323],[-45.23265,-21.70333],[-45.23149,-21.70382],[-45.23024,-21.70427],[-45.22999,-21.70439],[-45.22999,-21.70445],[-45.23007,-21.70447],[-45.23241,-21.70414],[-45.2328,-21.70395],[-45.23349,-21.70489],[-45.23368,-21.70477],[-45.23488,-21.70619],[-45.23536,-21.70679],[-45.23584,-21.70733],[-45.23599,-21.70747],[-45.2362,-21.70759],[-45.2363,-21.70733],[-45.23675,-21.70676],[-45.237,-21.70618],[-45.2365,-21.70563],[-45.23702,-21.70448],[-45.23741,-21.70366],[-45.23799,-21.70238],[-45.23803,-21.70233],[-45.23818,-21.70161]]],[[[-45.25319,-21.69428],[-45.25123,-21.69457],[-45.2522,-21.69442],[-45.25293,-21.69432],[-45.25319,-21.69428]]]]}},{"type":"Feature","properties":{"territory_id":"mg-3169307-santo-afonso","name":"Santo Afonso","municipality_id":"mg-3169307","polling_places":1,"approx":false,"official":true,"method":"official-ibge-cd2022","whole_municipality":false,"approx_coords_only":false,"official_name":"Santo Afonso","official_code":"3169307104","match":"direct"},"geometry":{"type":"MultiPolygon","coordinates":[[[[-45.26442,-21.713],[-45.26395,-21.71237],[-45.26352,-21.71165],[-45.26354,-21.71191],[-45.26344,-21.71233],[-45.26337,-21.71255],[-45.26308,-21.71328],[-45.263,-21.71354],[-45.26295,-21.71381],[-45.26278,-21.71548],[-45.26276,-21.71618],[-45.2626,-21.71672],[-45.26259,-21.71686],[-45.2627,-21.71778],[-45.26266,-21.71801],[-45.26271,-21.71802],[-45.26307,-21.7183],[-45.26346,-21.71851],[-45.26358,-21.71867],[-45.26376,-21.71876],[-45.26407,-21.71924],[-45.26414,-21.7194],[-45.26443,-21.71975],[-45.26467,-21.71991],[-45.26476,-21.72],[-45.26489,-21.72009],[-45.26503,-21.72027],[-45.26506,-21.72039],[-45.26518,-21.72059],[-45.26533,-21.72076],[-45.26534,-21.72073],[-45.26549,-21.72083],[-45.26625,-21.72058],[-45.26656,-21.72053],[-45.26682,-21.72046],[-45.26709,-21.72028],[-45.26744,-21.72012],[-45.26769,-21.7199],[-45.26802,-21.71983],[-45.2682,-21.71983],[-45.26833,-21.71966],[-45.26861,-21.71957],[-45.269,-21.71941],[-45.26926,-21.71912],[-45.26948,-21.71899],[-45.27022,-21.71903],[-45.27051,-21.71901],[-45.27071,-21.71895],[-45.27214,-21.71867],[-45.27219,-21.71892],[-45.27235,-21.71925],[-45.27243,-21.71956],[-45.27271,-21.72002],[-45.27357,-21.72091],[-45.27384,-21.72145],[-45.27407,-21.72148],[-45.27413,-21.72147],[-45.27411,-21.7212],[-45.27404,-21.72095],[-45.27394,-21.7208],[-45.27305,-21.71974],[-45.27294,-21.71955],[-45.27284,-21.71937],[-45.2727,-21.71901],[-45.2726,-21.71852],[-45.27253,-21.7183],[-45.27243,-21.71806],[-45.27212,-21.7177],[-45.27184,-21.71753],[-45.27151,-21.71739],[-45.27074,-21.71715],[-45.27018,-21.71686],[-45.2691,-21.71588],[-45.2688,-21.71555],[-45.26734,-21.71512],[-45.26764,-21.71416],[-45.26604,-21.71362],[-45.26516,-21.71343],[-45.26451,-21.71313],[-45.26442,-21.713]]]]}},{"type":"Feature","properties":{"territory_id":"mg-3169307-sao-conrado","name":"São Conrado","municipality_id":"mg-3169307","polling_places":1,"approx":false,"official":true,"method":"official-ibge-cd2022","whole_municipality":false,"approx_coords_only":false,"official_name":"São Conrado","official_code":"3169307081","match":"direct"},"geometry":{"type":"MultiPolygon","coordinates":[[[[-45.27272,-21.67132],[-45.27254,-21.67194],[-45.27229,-21.67266],[-45.2722,-21.67279],[-45.27213,-21.67283],[-45.27138,-21.67374],[-45.27064,-21.67442],[-45.27172,-21.67459],[-45.27473,-21.675],[-45.27496,-21.675],[-45.2763,-21.67487],[-45.27797,-21.67475],[-45.27807,-21.67478],[-45.27813,-21.67486],[-45.27847,-21.67491],[-45.27881,-21.67348],[-45.27908,-21.67265],[-45.27894,-21.67191],[-45.27859,-21.67203],[-45.27854,-21.6718],[-45.27825,-21.67146],[-45.27805,-21.67139],[-45.27746,-21.67126],[-45.27667,-21.67113],[-45.27591,-21.67082],[-45.27573,-21.67073],[-45.27547,-21.67069],[-45.27525,-21.67068],[-45.27445,-21.67088],[-45.27362,-21.67111],[-45.27272,-21.67132]]]]}},{"type":"Feature","properties":{"territory_id":"mg-3169307-vila-jesse","name":"Vila Jessé","municipality_id":"mg-3169307","polling_places":1,"approx":false,"official":true,"method":"official-ibge-cd2022","whole_municipality":false,"approx_coords_only":false,"official_name":"Vila Jessé","official_code":"3169307116","match":"direct"},"geometry":{"type":"MultiPolygon","coordinates":[[[[-45.25293,-21.69432],[-45.25415,-21.69415],[-45.25392,-21.69285],[-45.25384,-21.69207],[-45.25365,-21.69103],[-45.25363,-21.69078],[-45.25331,-21.68888],[-45.25282,-21.68886],[-45.25252,-21.68889],[-45.25222,-21.68895],[-45.25195,-21.68907],[-45.25185,-21.68915],[-45.25179,-21.68923],[-45.25224,-21.69123],[-45.25178,-21.69129],[-45.25135,-21.69136],[-45.25089,-21.69142],[-45.25093,-21.69164],[-45.25086,-21.69173],[-45.25051,-21.69176],[-45.25039,-21.69123],[-45.24978,-21.69138],[-45.24966,-21.69194],[-45.24958,-21.69218],[-45.24939,-21.6925],[-45.24908,-21.69283],[-45.24874,-21.69314],[-45.24949,-21.69389],[-45.25043,-21.6947],[-45.25053,-21.6947],[-45.25063,-21.69475],[-45.25084,-21.69461],[-45.25107,-21.69462],[-45.25108,-21.69466],[-45.2511,-21.6947],[-45.25114,-21.69472],[-45.25118,-21.69472],[-45.25123,-21.6947],[-45.25126,-21.69466],[-45.25126,-21.69461],[-45.25123,-21.69457],[-45.2522,-21.69442],[-45.25293,-21.69432]]]]}},{"type":"Feature","properties":{"territory_id":"mg-3169307-vilas-boas","name":"Vilas Boas","municipality_id":"mg-3169307","polling_places":1,"approx":false,"official":true,"method":"official-ibge-cd2022","whole_municipality":false,"approx_coords_only":false,"official_name":"Vilas Boas","official_code":"3169307105","match":"direct"},"geometry":{"type":"MultiPolygon","coordinates":[[[[-45.25007,-21.68625],[-45.25025,-21.68629],[-45.25039,-21.68636],[-45.25055,-21.6865],[-45.25061,-21.68661],[-45.25064,-21.68674],[-45.25068,-21.68678],[-45.25087,-21.68603],[-45.25107,-21.68548],[-45.2516,-21.68366],[-45.25172,-21.68358],[-45.25196,-21.68355],[-45.252,-21.68344],[-45.25205,-21.68315],[-45.25194,-21.68312],[-45.25194,-21.68307],[-45.25201,-21.68282],[-45.25215,-21.68249],[-45.25219,-21.68227],[-45.25225,-21.68213],[-45.25227,-21.68187],[-45.25236,-21.68157],[-45.25244,-21.68145],[-45.25264,-21.68081],[-45.25261,-21.68043],[-45.25246,-21.68036],[-45.25241,-21.68019],[-45.25241,-21.68002],[-45.2523,-21.67992],[-45.2521,-21.67992],[-45.25184,-21.68003],[-45.25169,-21.68019],[-45.2515,-21.68048],[-45.25138,-21.68072],[-45.25115,-21.68096],[-45.2509,-21.68115],[-45.25047,-21.68139],[-45.25005,-21.68169],[-45.24979,-21.68181],[-45.24957,-21.68188],[-45.24944,-21.68186],[-45.24919,-21.68175],[-45.24908,-21.68159],[-45.24906,-21.68139],[-45.249,-21.68127],[-45.24887,-21.68117],[-45.24875,-21.68109],[-45.24848,-21.68111],[-45.2484,-21.68122],[-45.24829,-21.68126],[-45.24818,-21.6812],[-45.24808,-21.68122],[-45.24801,-21.68118],[-45.24793,-21.68107],[-45.24775,-21.68101],[-45.24763,-21.68106],[-45.2476,-21.6811],[-45.2488,-21.68332],[-45.24958,-21.68357],[-45.24873,-21.68578],[-45.24918,-21.68594],[-45.24917,-21.68598],[-45.24901,-21.68606],[-45.24867,-21.68616],[-45.24846,-21.68624],[-45.24825,-21.68638],[-45.2479,-21.68665],[-45.24775,-21.68693],[-45.2477,-21.68711],[-45.24753,-21.68728],[-45.24729,-21.68741],[-45.24716,-21.68752],[-45.24677,-21.68794],[-45.2467,-21.68815],[-45.24651,-21.6883],[-45.24621,-21.6884],[-45.24608,-21.68858],[-45.2459,-21.6887],[-45.24574,-21.68868],[-45.24574,-21.68899],[-45.24588,-21.68943],[-45.24608,-21.69031],[-45.24632,-21.69026],[-45.24652,-21.69014],[-45.24726,-21.68954],[-45.24772,-21.68923],[-45.24797,-21.68871],[-45.24817,-21.68824],[-45.24828,-21.68769],[-45.24836,-21.68756],[-45.24938,-21.6869],[-45.24959,-21.68675],[-45.24976,-21.68643],[-45.2499,-21.68631],[-45.25007,-21.68625]]]]}},{"type":"Feature","properties":{"territory_id":"mg-3169307-zona-rural","name":"Zona Rural","municipality_id":"mg-3169307","polling_places":1,"approx":true,"official":false,"method":"voronoi-polling-places","whole_municipality":false,"approx_coords_only":true},"geometry":{"type":"MultiPolygon","coordinates":[[[[-45.23166,-21.65555],[-45.22654,-21.72517],[-45.21878,-21.78298],[-45.2085,-21.7754],[-45.1898,-21.8162],[-45.1417,-21.8677],[-45.1166,-21.8518],[-45.1171,-21.7837],[-45.0831,-21.7725],[-45.0432,-21.7778],[-45.0672,-21.7398],[-45.0369,-21.6319],[-45.0929,-21.612],[-45.1124,-21.5424],[-45.1791,-21.5376],[-45.20405,-21.54305],[-45.23166,-21.65555]]]]}}]}