{"type":"FeatureCollection","features":[{"type":"Feature","properties":{"territory_id":"mg-3169059-centro","name":"Centro","municipality_id":"mg-3169059","polling_places":1,"approx":true,"official":false,"method":"voronoi-polling-places","whole_municipality":false,"approx_coords_only":false},"geometry":{"type":"MultiPolygon","coordinates":[[[[-46.12713,-22.33179],[-46.11294,-22.395],[-46.0972,-22.3952],[-46.08334,-22.40148],[-46.08475,-22.34868],[-46.098,-22.3381],[-46.12713,-22.33179]]]]}},{"type":"Feature","properties":{"territory_id":"mg-3169059-distrito-do-sertao-da-bernardina","name":"Distrito do Sertão da Bernardina","municipality_id":"mg-3169059","polling_places":1,"approx":true,"official":false,"method":"voronoi-polling-places","whole_municipality":false,"approx_coords_only":false},"geometry":{"type":"MultiPolygon","coordinates":[[[[-46.17494,-22.37479],[-46.1625,-22.3768],[-46.1615,-22.3944],[-46.11294,-22.395],[-46.12713,-22.33179],[-46.1428,-22.3284],[-46.15368,-22.32095],[-46.17194,-22.3486],[-46.17494,-22.37479]]]]}},{"type":"Feature","properties":{"territory_id":"mg-3169059-distrito-dos-fernandes","name":"Distrito dos Fernandes","municipality_id":"mg-3169059","polling_places":1,"approx":true,"official":false,"method":"voronoi-polling-places","whole_municipality":false,"approx_coords_only":false},"geometry":{"type":"MultiPolygon","coordinates":[[[[-46.08475,-22.34868],[-46.08334,-22.40148],[-46.0674,-22.4087],[-46.0548,-22.3726],[-46.08475,-22.34868]]]]}},{"type":"Feature","properties":{"territory_id":"mg-3169059-espraiado","name":"Espraiado","municipality_id":"mg-3169059","polling_places":1,"approx":true,"official":false,"method":"voronoi-polling-places","whole_municipality":false,"approx_coords_only":false},"geometry":{"type":"MultiPolygon","coordinates":[[[[-46.2443,-22.3636],[-46.17494,-22.37479],[-46.17194,-22.3486],[-46.24063,-22.35471],[-46.2443,-22.3636]]]]}},{"type":"Feature","properties":{"territory_id":"mg-3169059-paredes","name":"Paredes","municipality_id":"mg-3169059","polling_places":1,"approx":true,"official":false,"method":"voronoi-polling-places","whole_municipality":false,"approx_coords_only":false},"geometry":{"type":"MultiPolygon","coordinates":[[[[-46.24063,-22.35471],[-46.17194,-22.3486],[-46.15368,-22.32095],[-46.1726,-22.308],[-46.2207,-22.3064],[-46.24063,-22.35471]]]]}}]}