{"type":"FeatureCollection","features":[{"type":"Feature","properties":{"territory_id":"mg-3169901-aeroporto","name":"Aeroporto","municipality_id":"mg-3169901","polling_places":1,"approx":true,"official":false,"method":"voronoi-polling-places","whole_municipality":false,"approx_coords_only":false},"geometry":{"type":"MultiPolygon","coordinates":[[[[-42.89213,-21.13255],[-42.86206,-21.15721],[-42.8619,-21.1569],[-42.8457,-21.107],[-42.85706,-21.08116],[-42.88961,-21.09431],[-42.89188,-21.11639],[-42.89213,-21.13255]]]]}},{"type":"Feature","properties":{"territory_id":"mg-3169901-agroceres","name":"Agroceres","municipality_id":"mg-3169901","polling_places":1,"approx":true,"official":false,"method":"voronoi-polling-places","whole_municipality":false,"approx_coords_only":false},"geometry":{"type":"MultiPolygon","coordinates":[[[[-42.92714,-21.11486],[-42.91758,-21.11685],[-42.9157,-21.11659],[-42.90559,-21.09268],[-42.92159,-21.08472],[-42.92238,-21.08528],[-42.92714,-21.11486]]]]}},{"type":"Feature","properties":{"territory_id":"mg-3169901-antonio-maranhao","name":"Antônio Maranhão","municipality_id":"mg-3169901","polling_places":1,"approx":true,"official":false,"method":"voronoi-polling-places","whole_municipality":false,"approx_coords_only":false},"geometry":{"type":"MultiPolygon","coordinates":[[[[-42.9883,-21.12598],[-42.97989,-21.11981],[-42.96448,-21.10697],[-42.96025,-21.10104],[-42.96029,-21.10033],[-42.96033,-21.09976],[-42.97243,-21.09917],[-42.9874,-21.11295],[-42.9883,-21.12598]]]]}},{"type":"Feature","properties":{"territory_id":"mg-3169901-bom-pastor","name":"Bom Pastor","municipality_id":"mg-3169901","polling_places":1,"approx":true,"official":false,"method":"voronoi-polling-places","whole_municipality":false,"approx_coords_only":false},"geometry":{"type":"MultiPolygon","coordinates":[[[[-42.93469,-21.10296],[-42.93382,-21.11334],[-42.93362,-21.11453],[-42.93002,-21.11639],[-42.92714,-21.11486],[-42.92238,-21.08528],[-42.93346,-21.09172],[-42.93469,-21.10296]]]]}},{"type":"Feature","properties":{"territory_id":"mg-3169901-centro","name":"Centro","municipality_id":"mg-3169901","polling_places":15,"approx":true,"official":false,"method":"voronoi-polling-places","whole_municipality":false,"approx_coords_only":false},"geometry":{"type":"MultiPolygon","coordinates":[[[[-42.95521,-21.11151],[-42.95518,-21.11817],[-42.95498,-21.11817],[-42.95478,-21.11809],[-42.95235,-21.11757],[-42.94738,-21.11727],[-42.94875,-21.11377],[-42.94801,-21.11092],[-42.9485,-21.11063],[-42.94862,-21.11049],[-42.95521,-21.11151]]],[[[-42.94727,-21.11728],[-42.94624,-21.12125],[-42.94689,-21.12351],[-42.94336,-21.12503],[-42.94255,-21.1256],[-42.9421,-21.126],[-42.93748,-21.12452],[-42.93211,-21.12781],[-42.93097,-21.12254],[-42.9372,-21.1184],[-42.93726,-21.11764],[-42.93774,-21.11751],[-42.94027,-21.11667],[-42.94285,-21.11506],[-42.94323,-21.11465],[-42.94338,-21.1146],[-42.94727,-21.11728]],[[-42.94217,-21.12053],[-42.94188,-21.12005],[-42.94101,-21.12028],[-42.94136,-21.12109],[-42.94137,-21.12109],[-42.94217,-21.12053]]]]}},{"type":"Feature","properties":{"territory_id":"mg-3169901-copacabana","name":"Copacabana","municipality_id":"mg-3169901","polling_places":1,"approx":true,"official":false,"method":"voronoi-polling-places","whole_municipality":false,"approx_coords_only":false},"geometry":{"type":"MultiPolygon","coordinates":[[[[-42.93726,-21.11764],[-42.9372,-21.1184],[-42.93097,-21.12254],[-42.92934,-21.11939],[-42.93002,-21.11639],[-42.93362,-21.11453],[-42.93726,-21.11764]]]]}},{"type":"Feature","properties":{"territory_id":"mg-3169901-diamante-de-uba","name":"Diamante de Ubá","municipality_id":"mg-3169901","polling_places":1,"approx":true,"official":false,"method":"voronoi-polling-places","whole_municipality":false,"approx_coords_only":false},"geometry":{"type":"MultiPolygon","coordinates":[[[[-42.9704,-21.257],[-42.9552,-21.2646],[-42.909,-21.2466],[-42.8837,-21.2605],[-42.8614,-21.242],[-42.8836,-21.1998],[-42.87168,-21.17623],[-42.92536,-21.18469],[-42.93502,-21.1954],[-42.923,-21.2126],[-42.9704,-21.257]]]]}},{"type":"Feature","properties":{"territory_id":"mg-3169901-distrito-ubari","name":"Distrito Ubari","municipality_id":"mg-3169901","polling_places":1,"approx":true,"official":false,"method":"voronoi-polling-places","whole_municipality":false,"approx_coords_only":false},"geometry":{"type":"MultiPolygon","coordinates":[[[[-43.107,-20.9963],[-43.0837,-21.0298],[-43.0871,-21.083],[-43.102,-21.1107],[-43.07462,-21.11756],[-43.03026,-21.06803],[-43.03536,-21.01049],[-43.0688,-20.98],[-43.0688,-20.9647],[-43.1024,-20.9558],[-43.107,-20.9963]]]]}},{"type":"Feature","properties":{"territory_id":"mg-3169901-eldorado","name":"Eldorado","municipality_id":"mg-3169901","polling_places":2,"approx":true,"official":false,"method":"voronoi-polling-places","whole_municipality":false,"approx_coords_only":false},"geometry":{"type":"MultiPolygon","coordinates":[[[[-42.94323,-21.11465],[-42.94285,-21.11506],[-42.94027,-21.11667],[-42.93774,-21.11751],[-42.93726,-21.11764],[-42.93362,-21.11453],[-42.93382,-21.11334],[-42.93469,-21.10296],[-42.94139,-21.11272],[-42.94323,-21.11465]]]]}},{"type":"Feature","properties":{"territory_id":"mg-3169901-industrial","name":"Industrial","municipality_id":"mg-3169901","polling_places":3,"approx":true,"official":false,"method":"voronoi-polling-places","whole_municipality":false,"approx_coords_only":false},"geometry":{"type":"MultiPolygon","coordinates":[[[[-42.93211,-21.12781],[-42.93182,-21.12836],[-42.93056,-21.12871],[-42.92533,-21.12355],[-42.92323,-21.12471],[-42.91415,-21.13049],[-42.91435,-21.12386],[-42.9157,-21.11659],[-42.91758,-21.11685],[-42.92269,-21.11969],[-42.92533,-21.12104],[-42.92934,-21.11939],[-42.93097,-21.12254],[-42.93211,-21.12781]]]]}},{"type":"Feature","properties":{"territory_id":"mg-3169901-ines-groppo","name":"Inês Grôppo","municipality_id":"mg-3169901","polling_places":1,"approx":true,"official":false,"method":"voronoi-polling-places","whole_municipality":false,"approx_coords_only":false},"geometry":{"type":"MultiPolygon","coordinates":[[[[-42.93002,-21.11639],[-42.92934,-21.11939],[-42.92533,-21.12104],[-42.92269,-21.11969],[-42.91758,-21.11685],[-42.92714,-21.11486],[-42.93002,-21.11639]]]]}},{"type":"Feature","properties":{"territory_id":"mg-3169901-joao-teixeira-tanquinho","name":"João Teixeira ( Tanquinho )","municipality_id":"mg-3169901","polling_places":1,"approx":true,"official":false,"method":"voronoi-polling-places","whole_municipality":false,"approx_coords_only":false},"geometry":{"type":"MultiPolygon","coordinates":[[[[-42.97318,-21.05785],[-42.96133,-21.08391],[-42.95668,-21.08826],[-42.93894,-21.09222],[-42.93397,-21.09182],[-42.93346,-21.09172],[-42.92238,-21.08528],[-42.92159,-21.08472],[-42.93706,-21.0245],[-42.96293,-21.04292],[-42.97318,-21.05785]]]]}},{"type":"Feature","properties":{"territory_id":"mg-3169901-lourical","name":"Louriçal","municipality_id":"mg-3169901","polling_places":1,"approx":true,"official":false,"method":"voronoi-polling-places","whole_municipality":false,"approx_coords_only":false},"geometry":{"type":"MultiPolygon","coordinates":[[[[-42.9502,-21.10478],[-42.94862,-21.11049],[-42.9485,-21.11063],[-42.94801,-21.11092],[-42.94563,-21.11152],[-42.93397,-21.09182],[-42.93894,-21.09222],[-42.94786,-21.10206],[-42.9502,-21.10478]]]]}},{"type":"Feature","properties":{"territory_id":"mg-3169901-meu-sonho","name":"Meu Sonho","municipality_id":"mg-3169901","polling_places":1,"approx":true,"official":false,"method":"voronoi-polling-places","whole_municipality":false,"approx_coords_only":false},"geometry":{"type":"MultiPolygon","coordinates":[[[[-42.91435,-21.12386],[-42.91415,-21.13049],[-42.91281,-21.13812],[-42.89213,-21.13255],[-42.89188,-21.11639],[-42.91435,-21.12386]]]]}},{"type":"Feature","properties":{"territory_id":"mg-3169901-miragaia","name":"Miragaia","municipality_id":"mg-3169901","polling_places":1,"approx":true,"official":false,"method":"voronoi-polling-places","whole_municipality":false,"approx_coords_only":false},"geometry":{"type":"MultiPolygon","coordinates":[[[[-43.03536,-21.01049],[-43.03026,-21.06803],[-42.99714,-21.07131],[-42.97318,-21.05785],[-42.96293,-21.04292],[-42.9667,-21.0456],[-43.0075,-21.0359],[-43.03536,-21.01049]]]]}},{"type":"Feature","properties":{"territory_id":"mg-3169901-palmeiras","name":"Palmeiras","municipality_id":"mg-3169901","polling_places":1,"approx":true,"official":false,"method":"voronoi-polling-places","whole_municipality":false,"approx_coords_only":false},"geometry":{"type":"MultiPolygon","coordinates":[[[[-42.93781,-21.15162],[-42.92616,-21.16958],[-42.91406,-21.13955],[-42.93056,-21.12871],[-42.93182,-21.12836],[-42.93649,-21.13398],[-42.93781,-21.15162]]]]}},{"type":"Feature","properties":{"territory_id":"mg-3169901-peluso","name":"Peluso","municipality_id":"mg-3169901","polling_places":1,"approx":true,"official":false,"method":"voronoi-polling-places","whole_municipality":false,"approx_coords_only":false},"geometry":{"type":"MultiPolygon","coordinates":[[[[-42.97822,-21.13337],[-42.97773,-21.13389],[-42.96196,-21.13622],[-42.95295,-21.13143],[-42.94745,-21.12368],[-42.95498,-21.11817],[-42.95518,-21.11817],[-42.97822,-21.13337]]]]}},{"type":"Feature","properties":{"territory_id":"mg-3169901-pires-da-luz","name":"Pires da Luz","municipality_id":"mg-3169901","polling_places":2,"approx":true,"official":false,"method":"voronoi-polling-places","whole_municipality":false,"approx_coords_only":false},"geometry":{"type":"MultiPolygon","coordinates":[[[[-42.99714,-21.07131],[-42.99196,-21.08875],[-42.9874,-21.11295],[-42.97243,-21.09917],[-42.96922,-21.09217],[-42.96133,-21.08391],[-42.97318,-21.05785],[-42.99714,-21.07131]]]]}},{"type":"Feature","properties":{"territory_id":"mg-3169901-ponte-preta","name":"Ponte Preta","municipality_id":"mg-3169901","polling_places":1,"approx":true,"official":false,"method":"voronoi-polling-places","whole_municipality":false,"approx_coords_only":false},"geometry":{"type":"MultiPolygon","coordinates":[[[[-42.9157,-21.11659],[-42.91435,-21.12386],[-42.89188,-21.11639],[-42.88961,-21.09431],[-42.90559,-21.09268],[-42.9157,-21.11659]]]]}},{"type":"Feature","properties":{"territory_id":"mg-3169901-povoado-ligacao","name":"Povoado Ligação","municipality_id":"mg-3169901","polling_places":1,"approx":true,"official":false,"method":"voronoi-polling-places","whole_municipality":false,"approx_coords_only":false},"geometry":{"type":"MultiPolygon","coordinates":[[[[-42.97773,-21.13389],[-42.96948,-21.167],[-42.9567,-21.1644],[-42.93502,-21.1954],[-42.92536,-21.18469],[-42.92616,-21.16958],[-42.93781,-21.15162],[-42.94365,-21.14696],[-42.96196,-21.13622],[-42.97773,-21.13389]]]]}},{"type":"Feature","properties":{"territory_id":"mg-3169901-povoado-sao-domingos","name":"Povoado São Domingos","municipality_id":"mg-3169901","polling_places":1,"approx":true,"official":false,"method":"voronoi-polling-places","whole_municipality":false,"approx_coords_only":false},"geometry":{"type":"MultiPolygon","coordinates":[[[[-43.01166,-21.13333],[-42.9986,-21.1366],[-42.9862,-21.1704],[-42.96948,-21.167],[-42.97773,-21.13389],[-42.97822,-21.13337],[-42.98851,-21.12673],[-43.01166,-21.13333]]]]}},{"type":"Feature","properties":{"territory_id":"mg-3169901-primavera","name":"Primavera","municipality_id":"mg-3169901","polling_places":2,"approx":true,"official":false,"method":"voronoi-polling-places","whole_municipality":false,"approx_coords_only":false},"geometry":{"type":"MultiPolygon","coordinates":[[[[-42.96033,-21.09976],[-42.96029,-21.10033],[-42.96025,-21.10104],[-42.95474,-21.10577],[-42.9502,-21.10478],[-42.94786,-21.10206],[-42.95202,-21.10142],[-42.96027,-21.09959],[-42.96033,-21.09976]]]]}},{"type":"Feature","properties":{"territory_id":"mg-3169901-san-raphael","name":"San Raphael","municipality_id":"mg-3169901","polling_places":1,"approx":true,"official":false,"method":"voronoi-polling-places","whole_municipality":false,"approx_coords_only":false},"geometry":{"type":"MultiPolygon","coordinates":[[[[-42.98851,-21.12673],[-42.97822,-21.13337],[-42.95518,-21.11817],[-42.95521,-21.11151],[-42.95596,-21.10988],[-42.956,-21.10988],[-42.97989,-21.11981],[-42.9883,-21.12598],[-42.98851,-21.12673]]]]}},{"type":"Feature","properties":{"territory_id":"mg-3169901-santa-alice","name":"Santa Alice","municipality_id":"mg-3169901","polling_places":1,"approx":true,"official":false,"method":"voronoi-polling-places","whole_municipality":false,"approx_coords_only":false},"geometry":{"type":"MultiPolygon","coordinates":[[[[-42.97243,-21.09917],[-42.96033,-21.09976],[-42.96027,-21.09959],[-42.95668,-21.08826],[-42.96133,-21.08391],[-42.96922,-21.09217],[-42.97243,-21.09917]]]]}},{"type":"Feature","properties":{"territory_id":"mg-3169901-santa-bernadete","name":"Santa Bernadete","municipality_id":"mg-3169901","polling_places":1,"approx":true,"official":false,"method":"voronoi-polling-places","whole_municipality":false,"approx_coords_only":false},"geometry":{"type":"MultiPolygon","coordinates":[[[[-42.93056,-21.12871],[-42.91406,-21.13955],[-42.91281,-21.13812],[-42.91415,-21.13049],[-42.92323,-21.12471],[-42.92533,-21.12355],[-42.93056,-21.12871]]]]}},{"type":"Feature","properties":{"territory_id":"mg-3169901-santa-cruz","name":"Santa Cruz","municipality_id":"mg-3169901","polling_places":1,"approx":true,"official":false,"method":"voronoi-polling-places","whole_municipality":false,"approx_coords_only":false},"geometry":{"type":"MultiPolygon","coordinates":[[[[-42.95498,-21.11817],[-42.94745,-21.12368],[-42.94689,-21.12351],[-42.94624,-21.12125],[-42.94727,-21.11728],[-42.94738,-21.11727],[-42.95235,-21.11757],[-42.95478,-21.11809],[-42.95498,-21.11817]]]]}},{"type":"Feature","properties":{"territory_id":"mg-3169901-santa-edwiges","name":"Santa Edwiges","municipality_id":"mg-3169901","polling_places":1,"approx":true,"official":false,"method":"voronoi-polling-places","whole_municipality":false,"approx_coords_only":false},"geometry":{"type":"MultiPolygon","coordinates":[[[[-42.96027,-21.09959],[-42.95202,-21.10142],[-42.94786,-21.10206],[-42.93894,-21.09222],[-42.95668,-21.08826],[-42.96027,-21.09959]]]]}},{"type":"Feature","properties":{"territory_id":"mg-3169901-santana","name":"Santana","municipality_id":"mg-3169901","polling_places":1,"approx":true,"official":false,"method":"voronoi-polling-places","whole_municipality":false,"approx_coords_only":false},"geometry":{"type":"MultiPolygon","coordinates":[[[[-42.97989,-21.11981],[-42.956,-21.10988],[-42.96448,-21.10697],[-42.97989,-21.11981]]]]}},{"type":"Feature","properties":{"territory_id":"mg-3169901-santo-antonio","name":"Santo Antônio","municipality_id":"mg-3169901","polling_places":1,"approx":true,"official":false,"method":"voronoi-polling-places","whole_municipality":false,"approx_coords_only":false},"geometry":{"type":"MultiPolygon","coordinates":[[[[-42.94217,-21.12053],[-42.94137,-21.12109],[-42.94136,-21.12109],[-42.94101,-21.12028],[-42.94188,-21.12005],[-42.94217,-21.12053]]]]}},{"type":"Feature","properties":{"territory_id":"mg-3169901-sao-domingos","name":"São Domingos","municipality_id":"mg-3169901","polling_places":1,"approx":true,"official":false,"method":"voronoi-polling-places","whole_municipality":false,"approx_coords_only":false},"geometry":{"type":"MultiPolygon","coordinates":[[[[-42.94563,-21.11152],[-42.94338,-21.1146],[-42.94323,-21.11465],[-42.94139,-21.11272],[-42.93469,-21.10296],[-42.93346,-21.09172],[-42.93397,-21.09182],[-42.94563,-21.11152]]]]}},{"type":"Feature","properties":{"territory_id":"mg-3169901-sao-jose","name":"São José","municipality_id":"mg-3169901","polling_places":1,"approx":true,"official":false,"method":"voronoi-polling-places","whole_municipality":false,"approx_coords_only":false},"geometry":{"type":"MultiPolygon","coordinates":[[[[-42.94403,-21.13088],[-42.94365,-21.14696],[-42.93781,-21.15162],[-42.93649,-21.13398],[-42.94282,-21.13018],[-42.94403,-21.13088]]]]}},{"type":"Feature","properties":{"territory_id":"mg-3169901-sao-sebastiao","name":"São Sebastião","municipality_id":"mg-3169901","polling_places":2,"approx":true,"official":false,"method":"voronoi-polling-places","whole_municipality":false,"approx_coords_only":false},"geometry":{"type":"MultiPolygon","coordinates":[[[[-42.95596,-21.10988],[-42.95521,-21.11151],[-42.94862,-21.11049],[-42.9502,-21.10478],[-42.95474,-21.10577],[-42.95596,-21.10988]]],[[[-42.94875,-21.11377],[-42.94738,-21.11727],[-42.94727,-21.11728],[-42.94338,-21.1146],[-42.94563,-21.11152],[-42.94801,-21.11092],[-42.94875,-21.11377]]]]}},{"type":"Feature","properties":{"territory_id":"mg-3169901-seminario","name":"Seminário","municipality_id":"mg-3169901","polling_places":1,"approx":true,"official":false,"method":"voronoi-polling-places","whole_municipality":false,"approx_coords_only":false},"geometry":{"type":"MultiPolygon","coordinates":[[[[-42.96448,-21.10697],[-42.956,-21.10988],[-42.95596,-21.10988],[-42.95474,-21.10577],[-42.96025,-21.10104],[-42.96448,-21.10697]]]]}},{"type":"Feature","properties":{"territory_id":"mg-3169901-vila-casal","name":"Vila Casal","municipality_id":"mg-3169901","polling_places":1,"approx":true,"official":false,"method":"voronoi-polling-places","whole_municipality":false,"approx_coords_only":false},"geometry":{"type":"MultiPolygon","coordinates":[[[[-42.94282,-21.13018],[-42.93649,-21.13398],[-42.93182,-21.12836],[-42.93211,-21.12781],[-42.93748,-21.12452],[-42.9421,-21.126],[-42.94282,-21.13018]]]]}},{"type":"Feature","properties":{"territory_id":"mg-3169901-vila-regina","name":"Vila Regina","municipality_id":"mg-3169901","polling_places":1,"approx":true,"official":false,"method":"voronoi-polling-places","whole_municipality":false,"approx_coords_only":false},"geometry":{"type":"MultiPolygon","coordinates":[[[[-42.96196,-21.13622],[-42.94365,-21.14696],[-42.94403,-21.13088],[-42.95295,-21.13143],[-42.96196,-21.13622]]]]}},{"type":"Feature","properties":{"territory_id":"mg-3169901-vitoria","name":"Vitória","municipality_id":"mg-3169901","polling_places":1,"approx":true,"official":false,"method":"voronoi-polling-places","whole_municipality":false,"approx_coords_only":false},"geometry":{"type":"MultiPolygon","coordinates":[[[[-42.95295,-21.13143],[-42.94403,-21.13088],[-42.94282,-21.13018],[-42.9421,-21.126],[-42.94255,-21.1256],[-42.94336,-21.12503],[-42.94689,-21.12351],[-42.94745,-21.12368],[-42.95295,-21.13143]]]]}},{"type":"Feature","properties":{"territory_id":"mg-3169901-zona-rural","name":"Zona Rural","municipality_id":"mg-3169901","polling_places":3,"approx":true,"official":false,"method":"voronoi-polling-places","whole_municipality":false,"approx_coords_only":false},"geometry":{"type":"MultiPolygon","coordinates":[[[[-43.07462,-21.11756],[-43.01166,-21.13333],[-42.98851,-21.12673],[-42.9883,-21.12598],[-42.9874,-21.11295],[-42.99196,-21.08875],[-42.99714,-21.07131],[-43.03026,-21.06803],[-43.07462,-21.11756]]],[[[-42.93706,-21.0245],[-42.92159,-21.08472],[-42.90559,-21.09268],[-42.88961,-21.09431],[-42.85706,-21.08116],[-42.8687,-21.0547],[-42.9226,-21.0142],[-42.93706,-21.0245]]],[[[-42.92616,-21.16958],[-42.92536,-21.18469],[-42.87168,-21.17623],[-42.86206,-21.15721],[-42.89213,-21.13255],[-42.91281,-21.13812],[-42.91406,-21.13955],[-42.92616,-21.16958]]]]}}]}