{"type":"FeatureCollection","features":[{"type":"Feature","properties":{"territory_id":"mg-3169000-boa-vista","name":"Boa Vista","municipality_id":"mg-3169000","polling_places":2,"approx":true,"official":false,"method":"voronoi-polling-places","whole_municipality":false,"approx_coords_only":false},"geometry":{"type":"MultiPolygon","coordinates":[[[[-43.038,-21.12791],[-43.02598,-21.16362],[-43.02465,-21.17059],[-43.01764,-21.17202],[-43.01419,-21.171],[-43.0119,-21.17023],[-42.988,-21.16548],[-42.9986,-21.1366],[-43.03787,-21.12676],[-43.038,-21.12791]]]]}},{"type":"Feature","properties":{"territory_id":"mg-3169000-centro","name":"Centro","municipality_id":"mg-3169000","polling_places":3,"approx":true,"official":false,"method":"voronoi-polling-places","whole_municipality":false,"approx_coords_only":false},"geometry":{"type":"MultiPolygon","coordinates":[[[[-43.0278,-21.17604],[-43.02035,-21.17958],[-43.01893,-21.1816],[-43.00657,-21.20092],[-42.9568,-21.16442],[-42.9862,-21.1704],[-42.988,-21.16548],[-43.0119,-21.17023],[-43.01419,-21.171],[-43.01764,-21.17202],[-43.02465,-21.17059],[-43.0278,-21.17604]]]]}},{"type":"Feature","properties":{"territory_id":"mg-3169000-patrimonio","name":"Patrimônio","municipality_id":"mg-3169000","polling_places":1,"approx":true,"official":false,"method":"voronoi-polling-places","whole_municipality":false,"approx_coords_only":false},"geometry":{"type":"MultiPolygon","coordinates":[[[[-43.04954,-21.18723],[-43.03332,-21.20833],[-43.0242,-21.2063],[-43.01762,-21.2125],[-43.00657,-21.20092],[-43.01893,-21.1816],[-43.02035,-21.17958],[-43.0278,-21.17604],[-43.04954,-21.18723]]]]}},{"type":"Feature","properties":{"territory_id":"mg-3169000-vargem-da-grama","name":"Vargem da Grama","municipality_id":"mg-3169000","polling_places":1,"approx":true,"official":false,"method":"voronoi-polling-places","whole_municipality":false,"approx_coords_only":false},"geometry":{"type":"MultiPolygon","coordinates":[[[[-43.05321,-21.18442],[-43.04954,-21.18723],[-43.0278,-21.17604],[-43.02465,-21.17059],[-43.02598,-21.16362],[-43.038,-21.12791],[-43.05321,-21.18442]]]]}},{"type":"Feature","properties":{"territory_id":"mg-3169000-zona-rural","name":"Zona Rural","municipality_id":"mg-3169000","polling_places":3,"approx":true,"official":false,"method":"voronoi-polling-places","whole_municipality":false,"approx_coords_only":false},"geometry":{"type":"MultiPolygon","coordinates":[[[[-43.1198,-21.1191],[-43.0927,-21.174],[-43.1038,-21.2011],[-43.0746,-21.2175],[-43.03332,-21.20833],[-43.04954,-21.18723],[-43.05321,-21.18442],[-43.038,-21.12791],[-43.03787,-21.12676],[-43.102,-21.1107],[-43.1198,-21.1191]]],[[[-43.01762,-21.2125],[-42.9704,-21.257],[-42.923,-21.2126],[-42.9567,-21.1644],[-42.9568,-21.16442],[-43.00657,-21.20092],[-43.01762,-21.2125]]]]}}]}