{"type":"FeatureCollection","features":[{"type":"Feature","properties":{"territory_id":"mg-3169109-centro","name":"Centro","municipality_id":"mg-3169109","polling_places":1,"approx":true,"official":false,"method":"voronoi-polling-places","whole_municipality":false,"approx_coords_only":false},"geometry":{"type":"MultiPolygon","coordinates":[[[[-46.37853,-22.74542],[-46.3728,-22.7468],[-46.3326,-22.7661],[-46.2997,-22.7217],[-46.3082,-22.692],[-46.31292,-22.68942],[-46.37853,-22.74542]]]]}},{"type":"Feature","properties":{"territory_id":"mg-3169109-jardim-bom-jesus","name":"Jardim Bom Jesus","municipality_id":"mg-3169109","polling_places":1,"approx":true,"official":false,"method":"voronoi-polling-places","whole_municipality":false,"approx_coords_only":false},"geometry":{"type":"MultiPolygon","coordinates":[[[[-46.41021,-22.73781],[-46.37853,-22.74542],[-46.31292,-22.68942],[-46.33363,-22.67809],[-46.41021,-22.73781]]]]}},{"type":"Feature","properties":{"territory_id":"mg-3169109-pereiras","name":"Pereiras","municipality_id":"mg-3169109","polling_places":1,"approx":true,"official":false,"method":"voronoi-polling-places","whole_municipality":false,"approx_coords_only":false},"geometry":{"type":"MultiPolygon","coordinates":[[[[-46.4731,-22.705],[-46.4527,-22.7276],[-46.41021,-22.73781],[-46.33363,-22.67809],[-46.351,-22.6686],[-46.3931,-22.663],[-46.4691,-22.6732],[-46.4731,-22.705]]]]}}]}