{"type":"FeatureCollection","features":[{"type":"Feature","properties":{"territory_id":"mg-3169406-alcides-mesquita","name":"Alcides Mesquita","municipality_id":"mg-3169406","polling_places":1,"approx":true,"official":false,"method":"voronoi-polling-places","whole_municipality":false,"approx_coords_only":false},"geometry":{"type":"MultiPolygon","coordinates":[[[[-45.56309,-21.4793],[-45.55843,-21.48857],[-45.51702,-21.37623],[-45.51877,-21.37398],[-45.52235,-21.37492],[-45.56309,-21.4793]]]]}},{"type":"Feature","properties":{"territory_id":"mg-3169406-antonio-de-brito-mendonca","name":"Antonio de Brito Mendonça","municipality_id":"mg-3169406","polling_places":1,"approx":true,"official":false,"method":"voronoi-polling-places","whole_municipality":false,"approx_coords_only":false},"geometry":{"type":"MultiPolygon","coordinates":[[[[-45.59186,-21.35506],[-45.57716,-21.45305],[-45.56309,-21.4793],[-45.52235,-21.37492],[-45.59186,-21.35506]]]]}},{"type":"Feature","properties":{"territory_id":"mg-3169406-botafogo","name":"Botafogo","municipality_id":"mg-3169406","polling_places":2,"approx":true,"official":false,"method":"voronoi-polling-places","whole_municipality":false,"approx_coords_only":false},"geometry":{"type":"MultiPolygon","coordinates":[[[[-45.5105,-21.36919],[-45.50875,-21.37699],[-45.50903,-21.38004],[-45.44738,-21.4616],[-45.4428,-21.4597],[-45.40305,-21.47066],[-45.44513,-21.4257],[-45.50231,-21.37132],[-45.5053,-21.37122],[-45.50872,-21.36809],[-45.50973,-21.36822],[-45.5105,-21.36919]]]]}},{"type":"Feature","properties":{"territory_id":"mg-3169406-catumbi","name":"Catumbi","municipality_id":"mg-3169406","polling_places":1,"approx":true,"official":false,"method":"voronoi-polling-places","whole_municipality":false,"approx_coords_only":false},"geometry":{"type":"MultiPolygon","coordinates":[[[[-45.60045,-21.31549],[-45.59186,-21.35506],[-45.52235,-21.37492],[-45.51877,-21.37398],[-45.51852,-21.37302],[-45.5344,-21.35474],[-45.60045,-21.31549]]]]}},{"type":"Feature","properties":{"territory_id":"mg-3169406-centro","name":"Centro","municipality_id":"mg-3169406","polling_places":5,"approx":true,"official":false,"method":"voronoi-polling-places","whole_municipality":false,"approx_coords_only":false},"geometry":{"type":"MultiPolygon","coordinates":[[[[-45.51978,-21.36121],[-45.51847,-21.37295],[-45.51852,-21.37302],[-45.51877,-21.37398],[-45.51702,-21.37623],[-45.50903,-21.38004],[-45.50875,-21.37699],[-45.5105,-21.36919],[-45.50973,-21.36822],[-45.50872,-21.36809],[-45.5053,-21.37122],[-45.50231,-21.37132],[-45.50248,-21.36771],[-45.50502,-21.36509],[-45.50206,-21.35033],[-45.50213,-21.34956],[-45.51364,-21.36142],[-45.51477,-21.36169],[-45.51978,-21.36121]]]]}},{"type":"Feature","properties":{"territory_id":"mg-3169406-cidade-jardim","name":"Cidade Jardim","municipality_id":"mg-3169406","polling_places":1,"approx":true,"official":false,"method":"voronoi-polling-places","whole_municipality":false,"approx_coords_only":false},"geometry":{"type":"MultiPolygon","coordinates":[[[[-45.60047,-21.31542],[-45.60045,-21.31549],[-45.5344,-21.35474],[-45.51978,-21.36121],[-45.51477,-21.36169],[-45.51364,-21.36142],[-45.50213,-21.34956],[-45.48824,-21.29679],[-45.5615,-21.3136],[-45.6004,-21.3154],[-45.60047,-21.31542]]]]}},{"type":"Feature","properties":{"territory_id":"mg-3169406-da-mina","name":"Da Mina","municipality_id":"mg-3169406","polling_places":1,"approx":true,"official":false,"method":"voronoi-polling-places","whole_municipality":false,"approx_coords_only":false},"geometry":{"type":"MultiPolygon","coordinates":[[[[-45.55843,-21.48857],[-45.5527,-21.50065],[-45.5451,-21.4982],[-45.4854,-21.5125],[-45.4897,-21.4791],[-45.44738,-21.4616],[-45.50903,-21.38004],[-45.51702,-21.37623],[-45.55843,-21.48857]]]]}},{"type":"Feature","properties":{"territory_id":"mg-3169406-ouro-verde","name":"Ouro Verde","municipality_id":"mg-3169406","polling_places":1,"approx":true,"official":false,"method":"voronoi-polling-places","whole_municipality":false,"approx_coords_only":false},"geometry":{"type":"MultiPolygon","coordinates":[[[[-45.5344,-21.35474],[-45.51852,-21.37302],[-45.51847,-21.37295],[-45.51978,-21.36121],[-45.5344,-21.35474]]]]}},{"type":"Feature","properties":{"territory_id":"mg-3169406-pontalete","name":"Pontalete","municipality_id":"mg-3169406","polling_places":1,"approx":true,"official":false,"method":"voronoi-polling-places","whole_municipality":false,"approx_coords_only":false},"geometry":{"type":"MultiPolygon","coordinates":[[[[-45.6953,-21.4369],[-45.664,-21.4593],[-45.6283,-21.4468],[-45.5899,-21.4628],[-45.5609,-21.5033],[-45.5527,-21.50065],[-45.55843,-21.48857],[-45.56309,-21.4793],[-45.57716,-21.45305],[-45.6796,-21.4173],[-45.6953,-21.4369]]]]}},{"type":"Feature","properties":{"territory_id":"mg-3169406-quilombo-nossa-senhora-do-rosario","name":"Quilombo Nossa Senhora do Rosario","municipality_id":"mg-3169406","polling_places":1,"approx":true,"official":false,"method":"voronoi-polling-places","whole_municipality":false,"approx_coords_only":false},"geometry":{"type":"MultiPolygon","coordinates":[[[[-45.7008,-21.3773],[-45.6764,-21.4133],[-45.6796,-21.4173],[-45.57716,-21.45305],[-45.59186,-21.35506],[-45.60045,-21.31549],[-45.60047,-21.31542],[-45.6868,-21.3354],[-45.7008,-21.3773]]]]}},{"type":"Feature","properties":{"territory_id":"mg-3169406-santa-edwirges","name":"Santa Edwirges","municipality_id":"mg-3169406","polling_places":2,"approx":true,"official":false,"method":"voronoi-polling-places","whole_municipality":false,"approx_coords_only":false},"geometry":{"type":"MultiPolygon","coordinates":[[[[-45.50502,-21.36509],[-45.50248,-21.36771],[-45.50231,-21.37132],[-45.44513,-21.4257],[-45.49667,-21.36558],[-45.50206,-21.35033],[-45.50502,-21.36509]]]]}},{"type":"Feature","properties":{"territory_id":"mg-3169406-santa-margarida","name":"Santa Margarida","municipality_id":"mg-3169406","polling_places":1,"approx":true,"official":false,"method":"voronoi-polling-places","whole_municipality":false,"approx_coords_only":false},"geometry":{"type":"MultiPolygon","coordinates":[[[[-45.50213,-21.34956],[-45.50206,-21.35033],[-45.49667,-21.36558],[-45.44513,-21.4257],[-45.40305,-21.47066],[-45.3648,-21.4812],[-45.3349,-21.4526],[-45.3341,-21.4202],[-45.2726,-21.3767],[-45.2745,-21.3605],[-45.3266,-21.3286],[-45.3778,-21.3105],[-45.4826,-21.2955],[-45.48824,-21.29679],[-45.50213,-21.34956]]]]}}]}