{"type":"FeatureCollection","features":[{"type":"Feature","properties":{"territory_id":"mg-3169703-centro","name":"Centro","municipality_id":"mg-3169703","polling_places":1,"approx":true,"official":false,"method":"voronoi-polling-places","whole_municipality":false,"approx_coords_only":false},"geometry":{"type":"MultiPolygon","coordinates":[[[[-42.73395,-17.28509],[-42.73318,-17.29387],[-42.72823,-17.28532],[-42.73033,-17.28309],[-42.73395,-17.28509]]]]}},{"type":"Feature","properties":{"territory_id":"mg-3169703-distrito-cacaratiba","name":"Distrito Caçaratiba","municipality_id":"mg-3169703","polling_places":1,"approx":true,"official":false,"method":"voronoi-polling-places","whole_municipality":false,"approx_coords_only":false},"geometry":{"type":"MultiPolygon","coordinates":[[[[-43.0835,-17.2531],[-43.0416,-17.3081],[-43.0068,-17.3313],[-42.9964,-17.3592],[-42.97325,-17.34232],[-42.965,-17.27122],[-42.99263,-17.16977],[-43.0255,-17.186],[-43.0696,-17.2244],[-43.0835,-17.2531]]]]}},{"type":"Feature","properties":{"territory_id":"mg-3169703-distrito-poco-d-antas","name":"Distrito Poço D'antas","municipality_id":"mg-3169703","polling_places":1,"approx":true,"official":false,"method":"voronoi-polling-places","whole_municipality":false,"approx_coords_only":false},"geometry":{"type":"MultiPolygon","coordinates":[[[[-42.97325,-17.34232],[-42.9447,-17.3215],[-42.87936,-17.36227],[-42.82804,-17.27916],[-42.84788,-17.23294],[-42.965,-17.27122],[-42.97325,-17.34232]]]]}},{"type":"Feature","properties":{"territory_id":"mg-3169703-manga-da-roda","name":"Manga da Roda","municipality_id":"mg-3169703","polling_places":1,"approx":true,"official":false,"method":"voronoi-polling-places","whole_municipality":false,"approx_coords_only":false},"geometry":{"type":"MultiPolygon","coordinates":[[[[-42.78241,-17.28379],[-42.77779,-17.29069],[-42.73395,-17.28509],[-42.73033,-17.28309],[-42.73759,-17.23504],[-42.74418,-17.23514],[-42.78241,-17.28379]]]]}},{"type":"Feature","properties":{"territory_id":"mg-3169703-nova-turmalina","name":"Nova Turmalina","municipality_id":"mg-3169703","polling_places":1,"approx":true,"official":false,"method":"voronoi-polling-places","whole_municipality":false,"approx_coords_only":false},"geometry":{"type":"MultiPolygon","coordinates":[[[[-42.72581,-17.32993],[-42.69378,-17.38077],[-42.68646,-17.3753],[-42.67132,-17.34808],[-42.6986,-17.322],[-42.69443,-17.25917],[-42.71634,-17.28861],[-42.72581,-17.32993]]]]}},{"type":"Feature","properties":{"territory_id":"mg-3169703-pau-d-oleo","name":"Pau D'óleo","municipality_id":"mg-3169703","polling_places":1,"approx":true,"official":false,"method":"voronoi-polling-places","whole_municipality":false,"approx_coords_only":false},"geometry":{"type":"MultiPolygon","coordinates":[[[[-42.74957,-17.33905],[-42.74307,-17.35213],[-42.7262,-17.3293],[-42.72581,-17.32993],[-42.71634,-17.28861],[-42.72823,-17.28532],[-42.73318,-17.29387],[-42.74957,-17.33905]]]]}},{"type":"Feature","properties":{"territory_id":"mg-3169703-sao-joao-batista","name":"São João Batista","municipality_id":"mg-3169703","polling_places":1,"approx":true,"official":false,"method":"voronoi-polling-places","whole_municipality":false,"approx_coords_only":false},"geometry":{"type":"MultiPolygon","coordinates":[[[[-42.73759,-17.23504],[-42.73033,-17.28309],[-42.72823,-17.28532],[-42.71634,-17.28861],[-42.69443,-17.25917],[-42.69247,-17.22958],[-42.73759,-17.23504]]]]}},{"type":"Feature","properties":{"territory_id":"mg-3169703-saudade","name":"Saudade","municipality_id":"mg-3169703","polling_places":1,"approx":true,"official":false,"method":"voronoi-polling-places","whole_municipality":false,"approx_coords_only":false},"geometry":{"type":"MultiPolygon","coordinates":[[[[-42.77779,-17.29069],[-42.74957,-17.33905],[-42.73318,-17.29387],[-42.73395,-17.28509],[-42.77779,-17.29069]]]]}},{"type":"Feature","properties":{"territory_id":"mg-3169703-zona-rural","name":"Zona Rural","municipality_id":"mg-3169703","polling_places":9,"approx":true,"official":false,"method":"voronoi-polling-places","whole_municipality":false,"approx_coords_only":false},"geometry":{"type":"MultiPolygon","coordinates":[[[[-42.99263,-17.16977],[-42.965,-17.27122],[-42.84788,-17.23294],[-42.82804,-17.27916],[-42.87936,-17.36227],[-42.8785,-17.3628],[-42.869,-17.4013],[-42.744,-17.3534],[-42.74307,-17.35213],[-42.74957,-17.33905],[-42.77779,-17.29069],[-42.78241,-17.28379],[-42.74418,-17.23514],[-42.73759,-17.23504],[-42.69247,-17.22958],[-42.6906,-17.2014],[-42.659,-17.1627],[-42.6919,-17.1262],[-42.7416,-17.1356],[-42.7644,-17.171],[-42.8257,-17.1808],[-42.8089,-17.1259],[-42.8209,-17.107],[-42.7942,-17.0513],[-42.796,-17.0196],[-42.8353,-17.0424],[-42.8988,-17.0396],[-42.9698,-17.1056],[-42.9852,-17.1661],[-42.99263,-17.16977]]],[[[-42.69378,-17.38077],[-42.6787,-17.4047],[-42.6325,-17.422],[-42.5992,-17.501],[-42.5587,-17.4845],[-42.5831,-17.417],[-42.5739,-17.3457],[-42.6019,-17.3419],[-42.6098,-17.3827],[-42.6554,-17.3633],[-42.67132,-17.34808],[-42.68646,-17.3753],[-42.69378,-17.38077]]]]}}]}