{"type":"FeatureCollection","features":[{"type":"Feature","properties":{"territory_id":"mg-3169356-andrequice","name":"Andrequicé","municipality_id":"mg-3169356","polling_places":1,"approx":true,"official":false,"method":"voronoi-polling-places","whole_municipality":false,"approx_coords_only":false},"geometry":{"type":"MultiPolygon","coordinates":[[[[-45.13115,-18.57242],[-45.0964,-18.5351],[-45.0442,-18.5019],[-44.9989,-18.5206],[-44.9227,-18.5038],[-44.9034,-18.5265],[-44.8496,-18.5459],[-44.848,-18.474],[-44.8656,-18.436],[-44.8376,-18.3872],[-44.83,-18.3154],[-44.8111,-18.2969],[-44.8335,-18.2299],[-44.813,-18.2128],[-44.8054,-18.1712],[-44.749,-18.17],[-44.7336,-18.1395],[-44.7495,-18.1518],[-44.801,-18.132],[-44.8476,-18.13],[-44.8741,-18.097],[-44.92598,-18.08306],[-45.07354,-18.15482],[-45.13115,-18.57242]]]]}},{"type":"Feature","properties":{"territory_id":"mg-3169356-centro","name":"Centro","municipality_id":"mg-3169356","polling_places":10,"approx":true,"official":false,"method":"voronoi-polling-places","whole_municipality":false,"approx_coords_only":false},"geometry":{"type":"MultiPolygon","coordinates":[[[[-45.24988,-18.19492],[-45.24164,-18.2015],[-45.2315,-18.2065],[-45.23021,-18.21094],[-45.2281,-18.20845],[-45.22619,-18.2082],[-45.22665,-18.2159],[-45.22292,-18.21273],[-45.22182,-18.21154],[-45.22182,-18.20868],[-45.21991,-18.20492],[-45.22598,-18.20333],[-45.22696,-18.20186],[-45.22715,-18.20182],[-45.22846,-18.20194],[-45.24857,-18.19297],[-45.24988,-18.19492]]],[[[-45.21789,-18.21229],[-45.18738,-18.21807],[-45.07777,-18.15343],[-45.10447,-18.13977],[-45.21617,-18.20197],[-45.21789,-18.20332],[-45.21789,-18.21229]]]]}},{"type":"Feature","properties":{"territory_id":"mg-3169356-j-k","name":"J.k.","municipality_id":"mg-3169356","polling_places":1,"approx":true,"official":false,"method":"voronoi-polling-places","whole_municipality":false,"approx_coords_only":false},"geometry":{"type":"MultiPolygon","coordinates":[[[[-45.23031,-18.21216],[-45.22755,-18.21679],[-45.22665,-18.2159],[-45.22619,-18.2082],[-45.2281,-18.20845],[-45.23021,-18.21094],[-45.23031,-18.21216]]]]}},{"type":"Feature","properties":{"territory_id":"mg-3169356-jardim-dos-pescadores","name":"Jardim dos Pescadores","municipality_id":"mg-3169356","polling_places":1,"approx":true,"official":false,"method":"voronoi-polling-places","whole_municipality":false,"approx_coords_only":false},"geometry":{"type":"MultiPolygon","coordinates":[[[[-45.32527,-18.48236],[-45.295,-18.4915],[-45.2203,-18.542],[-45.2375,-18.5934],[-45.2139,-18.6446],[-45.1624,-18.6673],[-45.1447,-18.6455],[-45.1559,-18.599],[-45.13115,-18.57242],[-45.07354,-18.15482],[-45.07777,-18.15343],[-45.18738,-18.21807],[-45.20306,-18.22956],[-45.22065,-18.24315],[-45.32527,-18.48236]]]]}},{"type":"Feature","properties":{"territory_id":"mg-3169356-jardim-ipiranga","name":"Jardim Ipiranga","municipality_id":"mg-3169356","polling_places":2,"approx":true,"official":false,"method":"voronoi-polling-places","whole_municipality":false,"approx_coords_only":false},"geometry":{"type":"MultiPolygon","coordinates":[[[[-45.22905,-18.22654],[-45.22065,-18.24315],[-45.20306,-18.22956],[-45.18738,-18.21807],[-45.21789,-18.21229],[-45.22182,-18.21154],[-45.22292,-18.21273],[-45.22665,-18.2159],[-45.22755,-18.21679],[-45.22905,-18.22654]]]]}},{"type":"Feature","properties":{"territory_id":"mg-3169356-joaquim-de-lima","name":"Joaquim de Lima","municipality_id":"mg-3169356","polling_places":3,"approx":true,"official":false,"method":"voronoi-polling-places","whole_municipality":false,"approx_coords_only":false},"geometry":{"type":"MultiPolygon","coordinates":[[[[-45.26128,-18.21193],[-45.2426,-18.21864],[-45.22905,-18.22654],[-45.22755,-18.21679],[-45.23031,-18.21216],[-45.23109,-18.21195],[-45.23458,-18.21069],[-45.24164,-18.2015],[-45.24988,-18.19492],[-45.26128,-18.21193]]]]}},{"type":"Feature","properties":{"territory_id":"mg-3169356-jose-ermirio-de-morais","name":"José Ermírio de Morais","municipality_id":"mg-3169356","polling_places":2,"approx":true,"official":false,"method":"voronoi-polling-places","whole_municipality":false,"approx_coords_only":false},"geometry":{"type":"MultiPolygon","coordinates":[[[[-45.24857,-18.19297],[-45.22846,-18.20194],[-45.22715,-18.20182],[-45.22696,-18.20186],[-45.22552,-18.20048],[-45.19751,-18.12036],[-45.2318,-18.1082],[-45.2388,-18.1784],[-45.24857,-18.19297]]]]}},{"type":"Feature","properties":{"territory_id":"mg-3169356-maraba","name":"Marabá","municipality_id":"mg-3169356","polling_places":1,"approx":true,"official":false,"method":"voronoi-polling-places","whole_municipality":false,"approx_coords_only":false},"geometry":{"type":"MultiPolygon","coordinates":[[[[-45.22182,-18.20868],[-45.22182,-18.21154],[-45.21789,-18.21229],[-45.21789,-18.20332],[-45.21991,-18.20492],[-45.22182,-18.20868]]]]}},{"type":"Feature","properties":{"territory_id":"mg-3169356-novo-horizonte","name":"Novo Horizonte","municipality_id":"mg-3169356","polling_places":1,"approx":true,"official":false,"method":"voronoi-polling-places","whole_municipality":false,"approx_coords_only":false},"geometry":{"type":"MultiPolygon","coordinates":[[[[-45.24164,-18.2015],[-45.23458,-18.21069],[-45.23109,-18.21195],[-45.23031,-18.21216],[-45.23021,-18.21094],[-45.2315,-18.2065],[-45.24164,-18.2015]]]]}},{"type":"Feature","properties":{"territory_id":"mg-3169356-parque-das-nacoes","name":"Parque das Nações","municipality_id":"mg-3169356","polling_places":1,"approx":true,"official":false,"method":"voronoi-polling-places","whole_municipality":false,"approx_coords_only":false},"geometry":{"type":"MultiPolygon","coordinates":[[[[-45.3582,-18.447],[-45.3523,-18.4742],[-45.32527,-18.48236],[-45.22065,-18.24315],[-45.22905,-18.22654],[-45.2426,-18.21864],[-45.26128,-18.21193],[-45.2673,-18.2209],[-45.2631,-18.2603],[-45.287,-18.27],[-45.3159,-18.3088],[-45.2837,-18.3535],[-45.3035,-18.4126],[-45.3582,-18.447]]]]}},{"type":"Feature","properties":{"territory_id":"mg-3169356-sao-jorge","name":"São Jorge","municipality_id":"mg-3169356","polling_places":2,"approx":true,"official":false,"method":"voronoi-polling-places","whole_municipality":false,"approx_coords_only":false},"geometry":{"type":"MultiPolygon","coordinates":[[[[-45.22696,-18.20186],[-45.22598,-18.20333],[-45.21991,-18.20492],[-45.21789,-18.20332],[-45.21617,-18.20197],[-45.10447,-18.13977],[-45.18402,-18.09494],[-45.1878,-18.1238],[-45.19751,-18.12036],[-45.22552,-18.20048],[-45.22696,-18.20186]]]]}},{"type":"Feature","properties":{"territory_id":"mg-3169356-zona-rural","name":"Zona Rural","municipality_id":"mg-3169356","polling_places":1,"approx":true,"official":false,"method":"voronoi-polling-places","whole_municipality":false,"approx_coords_only":false},"geometry":{"type":"MultiPolygon","coordinates":[[[[-45.2088,-18.0578],[-45.1834,-18.0902],[-45.18402,-18.09494],[-45.10447,-18.13977],[-45.07777,-18.15343],[-45.07354,-18.15482],[-44.92598,-18.08306],[-44.9318,-18.0815],[-44.9521,-18.0863],[-45.0099,-18.0602],[-45.0203,-18.0076],[-45.0733,-17.9684],[-45.0993,-17.9631],[-45.1164,-17.9308],[-45.1797,-17.9583],[-45.1984,-17.9878],[-45.18,-18.0293],[-45.2088,-18.0578]]]]}}]}