{"type":"FeatureCollection","features":[{"type":"Feature","properties":{"territory_id":"mg-3169208-distrito-de-agua-santa-de-minas","name":"Distrito de Água Santa de Minas","municipality_id":"mg-3169208","polling_places":1,"approx":true,"official":false,"method":"voronoi-polling-places","whole_municipality":false,"approx_coords_only":false},"geometry":{"type":"MultiPolygon","coordinates":[[[[-42.1873,-20.8699],[-42.1696,-20.8956],[-42.16927,-20.90082],[-42.09346,-20.88862],[-42.07369,-20.80599],[-42.1024,-20.805],[-42.0974,-20.8384],[-42.1706,-20.8541],[-42.1873,-20.8699]]]]}},{"type":"Feature","properties":{"territory_id":"mg-3169208-distrito-de-catune","name":"Distrito de Catuné","municipality_id":"mg-3169208","polling_places":1,"approx":true,"official":false,"method":"voronoi-polling-places","whole_municipality":false,"approx_coords_only":false},"geometry":{"type":"MultiPolygon","coordinates":[[[[-42.16927,-20.90082],[-42.1647,-20.9737],[-42.1509,-20.974],[-42.138,-20.96],[-42.08708,-20.94337],[-42.08775,-20.93296],[-42.09346,-20.88862],[-42.16927,-20.90082]]]]}},{"type":"Feature","properties":{"territory_id":"mg-3169208-niteroi","name":"Niteroi","municipality_id":"mg-3169208","polling_places":1,"approx":true,"official":false,"method":"voronoi-polling-places","whole_municipality":false,"approx_coords_only":false},"geometry":{"type":"MultiPolygon","coordinates":[[[[-42.09346,-20.88862],[-42.08775,-20.93296],[-41.96059,-20.88411],[-41.9602,-20.883],[-41.9297,-20.8436],[-42.0386,-20.8072],[-42.07369,-20.80599],[-42.09346,-20.88862]]]]}},{"type":"Feature","properties":{"territory_id":"mg-3169208-quebra-copos","name":"Quebra-copos","municipality_id":"mg-3169208","polling_places":2,"approx":true,"official":false,"method":"voronoi-polling-places","whole_municipality":false,"approx_coords_only":false},"geometry":{"type":"MultiPolygon","coordinates":[[[[-42.08775,-20.93296],[-42.08708,-20.94337],[-42.0385,-20.9275],[-41.9786,-20.9349],[-41.96059,-20.88411],[-42.08775,-20.93296]]]]}}]}