{"type":"FeatureCollection","features":[{"type":"Feature","properties":{"territory_id":"mg-3170107-abadia","name":"Abadia","municipality_id":"mg-3170107","polling_places":8,"approx":false,"official":true,"method":"official-ibge-cd2022","whole_municipality":false,"approx_coords_only":false,"official_name":"Abadia","official_code":"3170107023","match":"direct"},"geometry":{"type":"MultiPolygon","coordinates":[[[[-47.92485,-19.76598],[-47.92607,-19.76535],[-47.92788,-19.7645],[-47.93,-19.76374],[-47.9312,-19.76334],[-47.93191,-19.76317],[-47.93262,-19.76302],[-47.93467,-19.76265],[-47.93485,-19.76258],[-47.935,-19.76248],[-47.9351,-19.76239],[-47.93527,-19.76242],[-47.9354,-19.76238],[-47.93552,-19.7623],[-47.93558,-19.76222],[-47.9356,-19.7621],[-47.93554,-19.76191],[-47.9354,-19.76181],[-47.93529,-19.76179],[-47.93542,-19.76053],[-47.93547,-19.75981],[-47.93546,-19.75968],[-47.93486,-19.75771],[-47.93443,-19.75613],[-47.9341,-19.75487],[-47.93384,-19.75378],[-47.9331,-19.75394],[-47.93272,-19.75273],[-47.93234,-19.7514],[-47.93175,-19.75147],[-47.93021,-19.75158],[-47.92929,-19.7517],[-47.92907,-19.75077],[-47.92797,-19.75102],[-47.92738,-19.7512],[-47.92569,-19.75176],[-47.92437,-19.75218],[-47.9238,-19.7523],[-47.92318,-19.75246],[-47.92256,-19.75257],[-47.92196,-19.75275],[-47.92143,-19.75304],[-47.92041,-19.75367],[-47.91871,-19.75468],[-47.91834,-19.75491],[-47.91807,-19.75515],[-47.91771,-19.75529],[-47.91674,-19.75548],[-47.91485,-19.75595],[-47.91392,-19.75624],[-47.91331,-19.75651],[-47.9106,-19.75763],[-47.90969,-19.75795],[-47.90936,-19.75805],[-47.90898,-19.75813],[-47.90899,-19.75825],[-47.90898,-19.75834],[-47.90894,-19.75842],[-47.90887,-19.75851],[-47.90873,-19.75859],[-47.90884,-19.75877],[-47.90907,-19.75895],[-47.90918,-19.75901],[-47.91002,-19.75921],[-47.91027,-19.75936],[-47.91061,-19.75963],[-47.91055,-19.75964],[-47.91046,-19.75976],[-47.91048,-19.75988],[-47.91052,-19.75994],[-47.91065,-19.75998],[-47.91079,-19.7599],[-47.91087,-19.75999],[-47.91107,-19.76014],[-47.9118,-19.76051],[-47.91385,-19.76149],[-47.91452,-19.7618],[-47.91577,-19.76227],[-47.91589,-19.76228],[-47.91605,-19.76235],[-47.91626,-19.76251],[-47.91696,-19.76322],[-47.91825,-19.76446],[-47.91969,-19.76579],[-47.92134,-19.76706],[-47.92222,-19.76762],[-47.92282,-19.76783],[-47.92453,-19.76827],[-47.92469,-19.76714],[-47.92475,-19.76653],[-47.92485,-19.76598]]]]}},{"type":"Feature","properties":{"territory_id":"mg-3170107-alfredo-freire","name":"Alfredo Freire","municipality_id":"mg-3170107","polling_places":2,"approx":false,"official":true,"method":"official-ibge-cd2022","whole_municipality":false,"approx_coords_only":false,"official_name":"Alfredo Freire","official_code":"3170107011","match":"direct"},"geometry":{"type":"MultiPolygon","coordinates":[[[[-47.99127,-19.74004],[-47.99145,-19.73954],[-47.99186,-19.73916],[-47.9921,-19.73831],[-47.99274,-19.73675],[-47.9932,-19.736],[-47.99395,-19.73462],[-47.99493,-19.73404],[-47.99533,-19.73341],[-47.99539,-19.73243],[-47.99591,-19.73173],[-47.99683,-19.73081],[-47.99718,-19.73018],[-47.99809,-19.72934],[-47.99714,-19.72829],[-47.99624,-19.72713],[-47.99607,-19.72618],[-47.99555,-19.72549],[-47.99494,-19.72563],[-47.99405,-19.72609],[-47.9937,-19.72676],[-47.99287,-19.72713],[-47.99261,-19.72716],[-47.99203,-19.72661],[-47.99108,-19.72641],[-47.9892,-19.72705],[-47.98727,-19.72762],[-47.98675,-19.72745],[-47.98684,-19.72606],[-47.98629,-19.72491],[-47.9849,-19.72329],[-47.98398,-19.72292],[-47.9834,-19.72456],[-47.98343,-19.72606],[-47.98294,-19.72681],[-47.98213,-19.72731],[-47.98125,-19.72756],[-47.98356,-19.73956],[-47.98394,-19.74157],[-47.98405,-19.74233],[-47.98413,-19.74341],[-47.98409,-19.74418],[-47.98404,-19.74468],[-47.98394,-19.74531],[-47.98373,-19.74611],[-47.98344,-19.747],[-47.98331,-19.74732],[-47.98351,-19.74723],[-47.98366,-19.74718],[-47.98421,-19.74675],[-47.98467,-19.74609],[-47.9856,-19.74519],[-47.9873,-19.74412],[-47.98808,-19.74332],[-47.98848,-19.74271],[-47.98923,-19.74199],[-47.98992,-19.74127],[-47.99065,-19.74089],[-47.99116,-19.74035],[-47.99127,-19.74004]]]]}},{"type":"Feature","properties":{"territory_id":"mg-3170107-amoroso-costa","name":"Amoroso Costa","municipality_id":"mg-3170107","polling_places":1,"approx":false,"official":true,"method":"official-ibge-cd2022","whole_municipality":false,"approx_coords_only":false,"official_name":"Amoroso Costa","official_code":"3170107009","match":"direct"},"geometry":{"type":"MultiPolygon","coordinates":[[[[-47.88756,-19.73961],[-47.88875,-19.73915],[-47.88906,-19.73905],[-47.88952,-19.73894],[-47.89484,-19.738],[-47.89941,-19.73726],[-47.90042,-19.73707],[-47.90059,-19.73706],[-47.90096,-19.73708],[-47.9012,-19.73704],[-47.90514,-19.73732],[-47.90555,-19.73727],[-47.90585,-19.73721],[-47.90851,-19.73608],[-47.90702,-19.73393],[-47.90625,-19.73309],[-47.9057,-19.7328],[-47.90545,-19.73272],[-47.90505,-19.73264],[-47.90474,-19.73248],[-47.90442,-19.73247],[-47.90435,-19.7325],[-47.90429,-19.73266],[-47.90392,-19.73297],[-47.90363,-19.73291],[-47.90236,-19.73299],[-47.90189,-19.73299],[-47.90089,-19.73287],[-47.90038,-19.73276],[-47.89973,-19.73238],[-47.89934,-19.73185],[-47.89927,-19.73174],[-47.89929,-19.731],[-47.89951,-19.73035],[-47.89985,-19.7295],[-47.90014,-19.72842],[-47.90019,-19.72724],[-47.89958,-19.72372],[-47.89929,-19.72315],[-47.89852,-19.72216],[-47.89744,-19.72185],[-47.89681,-19.7211],[-47.89665,-19.72043],[-47.89693,-19.71973],[-47.89737,-19.71939],[-47.89802,-19.7186],[-47.89833,-19.71773],[-47.8984,-19.71655],[-47.89838,-19.71523],[-47.89831,-19.71405],[-47.89776,-19.71256],[-47.89631,-19.71233],[-47.89672,-19.71326],[-47.89597,-19.71401],[-47.89487,-19.71435],[-47.89343,-19.71504],[-47.89297,-19.7147],[-47.8921,-19.71447],[-47.8917,-19.71452],[-47.891,-19.71452],[-47.89008,-19.71516],[-47.88962,-19.71689],[-47.88864,-19.71631],[-47.88737,-19.71631],[-47.8863,-19.71641],[-47.8862,-19.71686],[-47.88548,-19.71929],[-47.88528,-19.72004],[-47.88471,-19.72205],[-47.8844,-19.72308],[-47.88405,-19.72396],[-47.88215,-19.72687],[-47.88192,-19.72748],[-47.88188,-19.72765],[-47.88185,-19.72797],[-47.88185,-19.72845],[-47.88196,-19.73189],[-47.88201,-19.7326],[-47.88209,-19.73302],[-47.88227,-19.73349],[-47.88297,-19.73462],[-47.88306,-19.73487],[-47.88314,-19.73584],[-47.88341,-19.74045],[-47.8836,-19.74048],[-47.88378,-19.7406],[-47.88383,-19.7407],[-47.88386,-19.7409],[-47.88409,-19.74092],[-47.88427,-19.7409],[-47.88561,-19.74036],[-47.88736,-19.73969],[-47.88756,-19.73961]]]]}},{"type":"Feature","properties":{"territory_id":"mg-3170107-baixa","name":"Baixa","municipality_id":"mg-3170107","polling_places":1,"approx":true,"official":false,"method":"voronoi-polling-places","whole_municipality":false,"approx_coords_only":false},"geometry":{"type":"MultiPolygon","coordinates":[[[[-48.04042,-19.87465],[-48.0146,-19.8952],[-48.0092,-19.911],[-48.0351,-19.9541],[-47.9944,-19.9935],[-47.9812,-20.0364],[-47.946,-20.0605],[-47.9315,-20.1104],[-47.8994,-20.1257],[-47.8698,-20.0762],[-47.8615,-20.045],[-47.8752,-20.0186],[-47.8509,-19.9898],[-47.8397,-19.9286],[-47.8601,-19.9108],[-47.85038,-19.88761],[-47.9989,-19.86219],[-48.00243,-19.86264],[-48.04042,-19.87465]]],[[[-47.80907,-19.89468],[-47.7973,-19.9047],[-47.77922,-19.90402],[-47.80055,-19.89614],[-47.80907,-19.89468]]]]}},{"type":"Feature","properties":{"territory_id":"mg-3170107-boa-vista","name":"Boa Vista","municipality_id":"mg-3170107","polling_places":3,"approx":false,"official":true,"method":"official-ibge-cd2022","whole_municipality":false,"approx_coords_only":false,"official_name":"Boa Vista","official_code":"3170107007","match":"direct"},"geometry":{"type":"MultiPolygon","coordinates":[[[[-47.91065,-19.71579],[-47.91083,-19.72058],[-47.91068,-19.7206],[-47.9105,-19.72017],[-47.90984,-19.71916],[-47.90919,-19.71828],[-47.90812,-19.71696],[-47.90691,-19.71559],[-47.90629,-19.71505],[-47.90324,-19.71277],[-47.90147,-19.71148],[-47.90043,-19.71181],[-47.89971,-19.71225],[-47.8993,-19.71225],[-47.89869,-19.71231],[-47.89776,-19.71256],[-47.89831,-19.71405],[-47.89838,-19.71523],[-47.8984,-19.71655],[-47.89833,-19.71773],[-47.89802,-19.7186],[-47.89737,-19.71939],[-47.89693,-19.71973],[-47.89665,-19.72043],[-47.89681,-19.7211],[-47.89744,-19.72185],[-47.89852,-19.72216],[-47.89929,-19.72315],[-47.89958,-19.72372],[-47.90019,-19.72724],[-47.90014,-19.72842],[-47.89985,-19.7295],[-47.89951,-19.73035],[-47.89929,-19.731],[-47.89927,-19.73174],[-47.89934,-19.73185],[-47.89973,-19.73238],[-47.90038,-19.73276],[-47.90089,-19.73287],[-47.90189,-19.73299],[-47.90236,-19.73299],[-47.90363,-19.73291],[-47.90392,-19.73297],[-47.90429,-19.73266],[-47.90435,-19.7325],[-47.90442,-19.73247],[-47.90474,-19.73248],[-47.90505,-19.73264],[-47.90545,-19.73272],[-47.9057,-19.7328],[-47.90625,-19.73309],[-47.90702,-19.73393],[-47.90851,-19.73608],[-47.90862,-19.73622],[-47.90939,-19.73655],[-47.91002,-19.73664],[-47.911,-19.73668],[-47.91193,-19.73675],[-47.9126,-19.73675],[-47.91369,-19.73671],[-47.91432,-19.73675],[-47.91751,-19.73723],[-47.91874,-19.73746],[-47.92136,-19.73737],[-47.92198,-19.73732],[-47.92619,-19.73711],[-47.92686,-19.73691],[-47.92713,-19.73679],[-47.92746,-19.7366],[-47.92781,-19.73634],[-47.92822,-19.73595],[-47.92845,-19.73568],[-47.92865,-19.73539],[-47.92883,-19.73505],[-47.92892,-19.73484],[-47.92906,-19.73415],[-47.92885,-19.73278],[-47.92886,-19.73242],[-47.92845,-19.73147],[-47.92803,-19.73074],[-47.92731,-19.72939],[-47.92706,-19.72828],[-47.92711,-19.72746],[-47.92715,-19.72713],[-47.92751,-19.72658],[-47.92821,-19.72527],[-47.92888,-19.72451],[-47.92928,-19.72394],[-47.92959,-19.72313],[-47.92944,-19.72164],[-47.92956,-19.72125],[-47.92956,-19.72042],[-47.92969,-19.7198],[-47.93012,-19.71906],[-47.93074,-19.71857],[-47.93226,-19.71769],[-47.93265,-19.71729],[-47.93304,-19.71658],[-47.93315,-19.71583],[-47.93299,-19.71512],[-47.93256,-19.71445],[-47.93178,-19.71393],[-47.93066,-19.71371],[-47.92923,-19.71354],[-47.92864,-19.71326],[-47.92796,-19.71257],[-47.92758,-19.71175],[-47.92764,-19.71093],[-47.92796,-19.71007],[-47.92829,-19.70863],[-47.92819,-19.70788],[-47.9281,-19.70677],[-47.92829,-19.70601],[-47.92866,-19.70521],[-47.92825,-19.70521],[-47.92833,-19.70418],[-47.92728,-19.70421],[-47.92715,-19.70515],[-47.9261,-19.70582],[-47.92437,-19.7064],[-47.92376,-19.70649],[-47.92329,-19.70649],[-47.92127,-19.70679],[-47.91856,-19.70885],[-47.91448,-19.71054],[-47.91039,-19.71235],[-47.9106,-19.71445],[-47.91065,-19.71579]]]]}},{"type":"Feature","properties":{"territory_id":"mg-3170107-candida-borges","name":"Candida Borges","municipality_id":"mg-3170107","polling_places":2,"approx":true,"official":false,"method":"voronoi-polling-places","whole_municipality":false,"approx_coords_only":false},"geometry":{"type":"MultiPolygon","coordinates":[[[[-48.13044,-19.56482],[-48.09558,-19.70912],[-47.99953,-19.76073],[-47.99751,-19.7622],[-47.99272,-19.7639],[-47.98578,-19.74508],[-47.9873,-19.74412],[-47.98808,-19.74332],[-47.98848,-19.74271],[-47.98923,-19.74199],[-47.98992,-19.74127],[-47.99065,-19.74089],[-47.99116,-19.74035],[-47.99127,-19.74004],[-47.99145,-19.73954],[-47.99186,-19.73916],[-47.9921,-19.73831],[-47.99274,-19.73675],[-47.9932,-19.736],[-47.99395,-19.73462],[-47.99493,-19.73404],[-47.99533,-19.73341],[-47.99539,-19.73243],[-47.99591,-19.73173],[-47.99683,-19.73081],[-47.99718,-19.73018],[-47.99809,-19.72934],[-47.99714,-19.72829],[-47.99624,-19.72713],[-47.99609,-19.72632],[-48.13044,-19.56482]]]]}},{"type":"Feature","properties":{"territory_id":"mg-3170107-centro","name":"Centro","municipality_id":"mg-3170107","polling_places":5,"approx":false,"official":true,"method":"official-ibge-cd2022","whole_municipality":false,"approx_coords_only":false,"official_name":"Centro","official_code":"3170107015","match":"direct"},"geometry":{"type":"MultiPolygon","coordinates":[[[[-47.9345,-19.75364],[-47.93485,-19.75357],[-47.93748,-19.75299],[-47.93768,-19.75298],[-47.93847,-19.75282],[-47.93878,-19.75272],[-47.93904,-19.75252],[-47.93881,-19.75225],[-47.93936,-19.75177],[-47.93985,-19.75241],[-47.94196,-19.75106],[-47.94267,-19.75052],[-47.94318,-19.74985],[-47.94197,-19.74872],[-47.94154,-19.74826],[-47.94081,-19.74744],[-47.94033,-19.74685],[-47.94015,-19.74622],[-47.94024,-19.74505],[-47.94034,-19.74465],[-47.94071,-19.74371],[-47.93953,-19.74249],[-47.93897,-19.74196],[-47.93614,-19.74423],[-47.93526,-19.74329],[-47.93445,-19.7424],[-47.93347,-19.74311],[-47.93256,-19.74103],[-47.93233,-19.74054],[-47.93229,-19.7404],[-47.93056,-19.74175],[-47.92979,-19.74196],[-47.92857,-19.74222],[-47.92869,-19.74246],[-47.92877,-19.74296],[-47.92913,-19.74293],[-47.92922,-19.74422],[-47.9304,-19.74546],[-47.93148,-19.74668],[-47.92871,-19.74911],[-47.92893,-19.75019],[-47.92929,-19.7517],[-47.93021,-19.75158],[-47.93175,-19.75147],[-47.93234,-19.7514],[-47.93272,-19.75273],[-47.9331,-19.75394],[-47.93384,-19.75378],[-47.9345,-19.75364]]]]}},{"type":"Feature","properties":{"territory_id":"mg-3170107-chica-ferreira","name":"Chica Ferreira","municipality_id":"mg-3170107","polling_places":1,"approx":true,"official":false,"method":"voronoi-polling-places","whole_municipality":false,"approx_coords_only":false},"geometry":{"type":"MultiPolygon","coordinates":[[[[-47.91828,-19.7967],[-47.84238,-19.85281],[-47.88726,-19.79133],[-47.9159,-19.7858],[-47.91828,-19.7967]]]]}},{"type":"Feature","properties":{"territory_id":"mg-3170107-conjunto-costa-teles-i","name":"Conjunto Costa Teles I","municipality_id":"mg-3170107","polling_places":2,"approx":true,"official":false,"method":"voronoi-polling-places","whole_municipality":false,"approx_coords_only":false},"geometry":{"type":"MultiPolygon","coordinates":[[[[-47.91791,-19.76413],[-47.91671,-19.76554],[-47.91252,-19.76505],[-47.90583,-19.76624],[-47.90468,-19.76391],[-47.90462,-19.76253],[-47.90463,-19.76199],[-47.90462,-19.76052],[-47.9045,-19.75864],[-47.90495,-19.75864],[-47.90817,-19.75828],[-47.90817,-19.75832],[-47.90823,-19.75844],[-47.90832,-19.75854],[-47.9085,-19.75862],[-47.90858,-19.75862],[-47.90873,-19.75859],[-47.90884,-19.75877],[-47.90907,-19.75895],[-47.90918,-19.75901],[-47.91002,-19.75921],[-47.91027,-19.75936],[-47.91061,-19.75963],[-47.91055,-19.75964],[-47.91046,-19.75976],[-47.91048,-19.75988],[-47.91052,-19.75994],[-47.91065,-19.75998],[-47.91079,-19.7599],[-47.91087,-19.75999],[-47.91107,-19.76014],[-47.9118,-19.76051],[-47.91385,-19.76149],[-47.91452,-19.7618],[-47.91577,-19.76227],[-47.91589,-19.76228],[-47.91605,-19.76235],[-47.91626,-19.76251],[-47.91696,-19.76322],[-47.91791,-19.76413]]],[[[-47.9045,-19.75864],[-47.90394,-19.75866],[-47.90392,-19.75852],[-47.90387,-19.75847],[-47.90381,-19.75844],[-47.90373,-19.75843],[-47.90362,-19.75844],[-47.90352,-19.7585],[-47.9035,-19.75855],[-47.9035,-19.75865],[-47.90281,-19.75864],[-47.9044,-19.75525],[-47.9045,-19.75864]]]]}},{"type":"Feature","properties":{"territory_id":"mg-3170107-conjunto-manoel-mendes","name":"Conjunto Manoel Mendes","municipality_id":"mg-3170107","polling_places":1,"approx":true,"official":false,"method":"voronoi-polling-places","whole_municipality":false,"approx_coords_only":false},"geometry":{"type":"MultiPolygon","coordinates":[[[[-47.9044,-19.75525],[-47.90281,-19.75864],[-47.90094,-19.7586],[-47.90056,-19.75858],[-47.90026,-19.75852],[-47.89888,-19.7585],[-47.89817,-19.75848],[-47.89784,-19.75845],[-47.89745,-19.75838],[-47.89367,-19.75744],[-47.89237,-19.75717],[-47.89129,-19.75691],[-47.89067,-19.7568],[-47.89054,-19.75679],[-47.89018,-19.75682],[-47.88987,-19.75687],[-47.88942,-19.75698],[-47.88919,-19.75704],[-47.88843,-19.75743],[-47.88602,-19.75922],[-47.88047,-19.75406],[-47.88619,-19.75074],[-47.8953,-19.74855],[-47.90438,-19.75462],[-47.9044,-19.75525]]]]}},{"type":"Feature","properties":{"territory_id":"mg-3170107-conjunto-margarida-rosa-azevedo","name":"Conjunto Margarida Rosa Azevedo","municipality_id":"mg-3170107","polling_places":1,"approx":true,"official":false,"method":"voronoi-polling-places","whole_municipality":false,"approx_coords_only":false},"geometry":{"type":"MultiPolygon","coordinates":[[[[-47.99822,-19.8613],[-47.95023,-19.80061],[-47.95075,-19.79391],[-47.95343,-19.77922],[-47.95663,-19.77921],[-47.95773,-19.77923],[-47.95865,-19.77921],[-47.96118,-19.77923],[-47.96184,-19.77928],[-47.96223,-19.77929],[-47.96261,-19.77928],[-47.96529,-19.77926],[-47.96634,-19.77928],[-47.9666,-19.77928],[-47.99822,-19.8613]]],[[[-47.96314,-19.77033],[-47.96301,-19.77037],[-47.96264,-19.77056],[-47.96238,-19.7708],[-47.96128,-19.77251],[-47.9609,-19.77313],[-47.95928,-19.7722],[-47.95922,-19.77211],[-47.95889,-19.77119],[-47.95858,-19.77004],[-47.95903,-19.76934],[-47.96023,-19.7674],[-47.96166,-19.76741],[-47.96196,-19.76767],[-47.96279,-19.76942],[-47.96314,-19.77033]]],[[[-47.95798,-19.77037],[-47.95515,-19.77048],[-47.95679,-19.77041],[-47.95798,-19.77037]]]]}},{"type":"Feature","properties":{"territory_id":"mg-3170107-conjunto-silverio-cartafina","name":"Conjunto Silvério Cartafina","municipality_id":"mg-3170107","polling_places":1,"approx":true,"official":false,"method":"voronoi-polling-places","whole_municipality":false,"approx_coords_only":false},"geometry":{"type":"MultiPolygon","coordinates":[[[[-47.91671,-19.76554],[-47.91646,-19.76766],[-47.9128,-19.7718],[-47.90288,-19.77519],[-47.90447,-19.77038],[-47.90488,-19.77044],[-47.90485,-19.76921],[-47.90583,-19.76624],[-47.91252,-19.76505],[-47.91671,-19.76554]]]]}},{"type":"Feature","properties":{"territory_id":"mg-3170107-conjunto-uberaba","name":"Conjunto Uberaba","municipality_id":"mg-3170107","polling_places":1,"approx":true,"official":false,"method":"voronoi-polling-places","whole_municipality":false,"approx_coords_only":false},"geometry":{"type":"MultiPolygon","coordinates":[[[[-47.88948,-19.73987],[-47.88619,-19.75074],[-47.88047,-19.75406],[-47.79291,-19.74773],[-47.85551,-19.69746],[-47.88191,-19.73042],[-47.88196,-19.73189],[-47.88201,-19.7326],[-47.88209,-19.73302],[-47.88227,-19.73349],[-47.88297,-19.73462],[-47.88306,-19.73487],[-47.88314,-19.73584],[-47.88341,-19.74045],[-47.8836,-19.74048],[-47.88378,-19.7406],[-47.88383,-19.7407],[-47.88386,-19.7409],[-47.88409,-19.74092],[-47.88427,-19.7409],[-47.88561,-19.74036],[-47.88736,-19.73969],[-47.88756,-19.73961],[-47.88875,-19.73915],[-47.88887,-19.73911],[-47.88948,-19.73987]]]]}},{"type":"Feature","properties":{"territory_id":"mg-3170107-conjunto-volta-grande","name":"Conjunto Volta Grande","municipality_id":"mg-3170107","polling_places":2,"approx":true,"official":false,"method":"voronoi-polling-places","whole_municipality":false,"approx_coords_only":false},"geometry":{"type":"MultiPolygon","coordinates":[[[[-48.00243,-19.86264],[-47.9989,-19.86219],[-47.99822,-19.8613],[-47.9666,-19.77928],[-47.96801,-19.77929],[-47.96835,-19.77924],[-47.96913,-19.77905],[-47.96953,-19.77888],[-47.9699,-19.77866],[-47.97043,-19.77823],[-47.97096,-19.77761],[-47.97137,-19.7769],[-47.97181,-19.77587],[-47.97247,-19.77409],[-47.97288,-19.77311],[-47.98528,-19.77929],[-47.98979,-19.80254],[-48.00243,-19.86264]]],[[[-47.96683,-19.7701],[-47.96558,-19.77],[-47.96495,-19.77003],[-47.96435,-19.77009],[-47.96376,-19.77019],[-47.96326,-19.77029],[-47.96314,-19.77033],[-47.96279,-19.76942],[-47.96196,-19.76767],[-47.96683,-19.7701]]]]}},{"type":"Feature","properties":{"territory_id":"mg-3170107-estados-unidos","name":"Estados Unidos","municipality_id":"mg-3170107","polling_places":3,"approx":false,"official":true,"method":"official-ibge-cd2022","whole_municipality":false,"approx_coords_only":false,"official_name":"Estados Unidos","official_code":"3170107017","match":"direct"},"geometry":{"type":"MultiPolygon","coordinates":[[[[-47.91834,-19.75491],[-47.92143,-19.75304],[-47.92196,-19.75275],[-47.92256,-19.75257],[-47.92318,-19.75246],[-47.9238,-19.7523],[-47.92437,-19.75218],[-47.92569,-19.75176],[-47.92738,-19.7512],[-47.92797,-19.75102],[-47.92907,-19.75077],[-47.92886,-19.74988],[-47.92871,-19.74911],[-47.93148,-19.74668],[-47.9304,-19.74546],[-47.92922,-19.74422],[-47.92913,-19.74293],[-47.92877,-19.74296],[-47.927,-19.7432],[-47.92622,-19.74326],[-47.92569,-19.74321],[-47.92501,-19.74311],[-47.92485,-19.74305],[-47.92417,-19.7427],[-47.92393,-19.74256],[-47.92378,-19.74247],[-47.92367,-19.74234],[-47.92322,-19.74238],[-47.92255,-19.74241],[-47.92055,-19.74246],[-47.91954,-19.74252],[-47.91641,-19.73952],[-47.91621,-19.73923],[-47.91591,-19.73894],[-47.91574,-19.73886],[-47.91495,-19.73815],[-47.91418,-19.73743],[-47.91393,-19.73735],[-47.91358,-19.73719],[-47.91312,-19.73673],[-47.9126,-19.73675],[-47.91141,-19.73699],[-47.91035,-19.7373],[-47.90896,-19.73788],[-47.90756,-19.73881],[-47.90623,-19.7401],[-47.90575,-19.74068],[-47.90523,-19.74161],[-47.90481,-19.7426],[-47.90459,-19.74324],[-47.90451,-19.74343],[-47.90431,-19.74428],[-47.9042,-19.74505],[-47.90419,-19.74698],[-47.90432,-19.75078],[-47.90431,-19.75212],[-47.9045,-19.75864],[-47.90495,-19.75864],[-47.90817,-19.75828],[-47.90817,-19.75832],[-47.90823,-19.75844],[-47.90832,-19.75854],[-47.9085,-19.75862],[-47.90858,-19.75862],[-47.90873,-19.75859],[-47.90887,-19.75851],[-47.90894,-19.75842],[-47.90898,-19.75834],[-47.90899,-19.75825],[-47.90898,-19.75813],[-47.90936,-19.75805],[-47.90969,-19.75795],[-47.9106,-19.75763],[-47.91331,-19.75651],[-47.91392,-19.75624],[-47.91485,-19.75595],[-47.91674,-19.75548],[-47.91771,-19.75529],[-47.91807,-19.75515],[-47.91834,-19.75491]]]]}},{"type":"Feature","properties":{"territory_id":"mg-3170107-fabricio","name":"Fabrício","municipality_id":"mg-3170107","polling_places":6,"approx":false,"official":true,"method":"official-ibge-cd2022","whole_municipality":false,"approx_coords_only":false,"official_name":"Fabrício","official_code":"3170107006","match":"direct"},"geometry":{"type":"MultiPolygon","coordinates":[[[[-47.93897,-19.74196],[-47.93953,-19.74249],[-47.93997,-19.74293],[-47.94079,-19.742],[-47.94115,-19.74166],[-47.94191,-19.74086],[-47.94198,-19.74073],[-47.94201,-19.74062],[-47.94212,-19.74049],[-47.94206,-19.74043],[-47.94211,-19.7402],[-47.94224,-19.74003],[-47.94281,-19.73951],[-47.94339,-19.73901],[-47.94363,-19.73904],[-47.94372,-19.73907],[-47.94409,-19.73872],[-47.94453,-19.73847],[-47.94493,-19.73816],[-47.94519,-19.73785],[-47.94534,-19.73757],[-47.94553,-19.73707],[-47.94575,-19.73659],[-47.94628,-19.73588],[-47.94651,-19.73563],[-47.94716,-19.73504],[-47.94767,-19.73462],[-47.94807,-19.73433],[-47.9479,-19.73312],[-47.94786,-19.73254],[-47.94778,-19.73195],[-47.94787,-19.73149],[-47.94803,-19.73119],[-47.94841,-19.73074],[-47.94869,-19.73052],[-47.94869,-19.73042],[-47.94937,-19.73009],[-47.94993,-19.72954],[-47.94998,-19.72905],[-47.94989,-19.72862],[-47.94967,-19.72823],[-47.95031,-19.72657],[-47.95041,-19.72601],[-47.95049,-19.72542],[-47.94857,-19.72501],[-47.94867,-19.72483],[-47.94893,-19.72462],[-47.94897,-19.72461],[-47.94898,-19.72413],[-47.94904,-19.72409],[-47.94971,-19.72288],[-47.94945,-19.72288],[-47.94902,-19.72293],[-47.94859,-19.72273],[-47.94804,-19.72207],[-47.94763,-19.72146],[-47.94784,-19.72109],[-47.94833,-19.72063],[-47.94861,-19.7204],[-47.9483,-19.71982],[-47.94752,-19.71924],[-47.94694,-19.71904],[-47.94659,-19.7189],[-47.94596,-19.71855],[-47.94541,-19.71797],[-47.94489,-19.71751],[-47.94437,-19.71734],[-47.94342,-19.71667],[-47.94296,-19.71613],[-47.94232,-19.71598],[-47.94126,-19.71561],[-47.94082,-19.71543],[-47.94031,-19.71535],[-47.93996,-19.71564],[-47.93988,-19.71604],[-47.93969,-19.716],[-47.93901,-19.71602],[-47.93826,-19.71537],[-47.93716,-19.71465],[-47.93901,-19.71286],[-47.94002,-19.71205],[-47.94068,-19.71104],[-47.9409,-19.71019],[-47.94097,-19.70968],[-47.94081,-19.70915],[-47.9402,-19.7087],[-47.93928,-19.70855],[-47.93876,-19.7087],[-47.93849,-19.70918],[-47.93842,-19.71],[-47.93722,-19.71097],[-47.9367,-19.7113],[-47.93651,-19.71126],[-47.93619,-19.70961],[-47.93596,-19.70816],[-47.9358,-19.70777],[-47.93547,-19.70767],[-47.93438,-19.70817],[-47.93373,-19.70844],[-47.93338,-19.70862],[-47.93315,-19.70882],[-47.93285,-19.70875],[-47.93262,-19.70855],[-47.93226,-19.70833],[-47.9319,-19.70827],[-47.93149,-19.70862],[-47.93104,-19.70914],[-47.93057,-19.7096],[-47.93029,-19.7097],[-47.92985,-19.70958],[-47.92969,-19.70921],[-47.92966,-19.70863],[-47.92985,-19.70777],[-47.92972,-19.70761],[-47.92939,-19.70746],[-47.92915,-19.70723],[-47.9291,-19.707],[-47.92907,-19.70641],[-47.92921,-19.70598],[-47.92954,-19.70527],[-47.92866,-19.70521],[-47.92829,-19.70601],[-47.9281,-19.70677],[-47.92819,-19.70788],[-47.92829,-19.70863],[-47.92796,-19.71007],[-47.92764,-19.71093],[-47.92758,-19.71175],[-47.92796,-19.71257],[-47.92864,-19.71326],[-47.92923,-19.71354],[-47.93066,-19.71371],[-47.93178,-19.71393],[-47.93256,-19.71445],[-47.93299,-19.71512],[-47.93315,-19.71583],[-47.93304,-19.71658],[-47.93265,-19.71729],[-47.93226,-19.71769],[-47.93074,-19.71857],[-47.93012,-19.71906],[-47.92969,-19.7198],[-47.92956,-19.72042],[-47.92956,-19.72125],[-47.92944,-19.72164],[-47.92959,-19.72313],[-47.92928,-19.72394],[-47.92888,-19.72451],[-47.92821,-19.72527],[-47.92751,-19.72658],[-47.92715,-19.72713],[-47.92711,-19.72746],[-47.92706,-19.72828],[-47.92731,-19.72939],[-47.92803,-19.73074],[-47.92845,-19.73147],[-47.92886,-19.73242],[-47.92885,-19.73278],[-47.92906,-19.73415],[-47.92892,-19.73484],[-47.92883,-19.73505],[-47.92865,-19.73539],[-47.92845,-19.73568],[-47.92822,-19.73595],[-47.92781,-19.73634],[-47.92746,-19.7366],[-47.92778,-19.73703],[-47.92793,-19.73706],[-47.9279,-19.73712],[-47.92793,-19.73717],[-47.92798,-19.73721],[-47.92804,-19.73722],[-47.92808,-19.73739],[-47.93111,-19.74132],[-47.93229,-19.7404],[-47.93233,-19.74054],[-47.93256,-19.74103],[-47.93347,-19.74311],[-47.93445,-19.7424],[-47.93526,-19.74329],[-47.93614,-19.74423],[-47.93791,-19.74281],[-47.93897,-19.74196]]]]}},{"type":"Feature","properties":{"territory_id":"mg-3170107-guanabara","name":"Guanabara","municipality_id":"mg-3170107","polling_places":1,"approx":true,"official":false,"method":"voronoi-polling-places","whole_municipality":false,"approx_coords_only":false},"geometry":{"type":"MultiPolygon","coordinates":[[[[-47.92822,-19.74303],[-47.927,-19.7432],[-47.92622,-19.74326],[-47.92569,-19.74321],[-47.92501,-19.74311],[-47.92485,-19.74305],[-47.92417,-19.7427],[-47.92393,-19.74256],[-47.92378,-19.74247],[-47.92367,-19.74234],[-47.92322,-19.74238],[-47.92255,-19.74241],[-47.92055,-19.74246],[-47.91954,-19.74252],[-47.91641,-19.73952],[-47.91621,-19.73923],[-47.91591,-19.73894],[-47.91574,-19.73886],[-47.91495,-19.73815],[-47.91418,-19.73743],[-47.91393,-19.73735],[-47.91358,-19.73719],[-47.91313,-19.73673],[-47.91369,-19.73671],[-47.91432,-19.73675],[-47.91751,-19.73723],[-47.91874,-19.73746],[-47.92136,-19.73737],[-47.92198,-19.73732],[-47.92619,-19.73711],[-47.92686,-19.73691],[-47.92713,-19.73679],[-47.92746,-19.7366],[-47.92778,-19.73703],[-47.92793,-19.73706],[-47.9279,-19.73712],[-47.92793,-19.73717],[-47.92798,-19.73721],[-47.92804,-19.73722],[-47.92808,-19.73739],[-47.92809,-19.7374],[-47.92822,-19.74303]]],[[[-47.92143,-19.75304],[-47.92041,-19.75367],[-47.91967,-19.75411],[-47.92143,-19.75304]]],[[[-47.9126,-19.73675],[-47.91141,-19.73699],[-47.91035,-19.7373],[-47.91032,-19.73732],[-47.9104,-19.73666],[-47.911,-19.73668],[-47.91193,-19.73675],[-47.9126,-19.73675]]]]}},{"type":"Feature","properties":{"territory_id":"mg-3170107-jardim-america","name":"Jardim América","municipality_id":"mg-3170107","polling_places":1,"approx":true,"official":false,"method":"voronoi-polling-places","whole_municipality":false,"approx_coords_only":false},"geometry":{"type":"MultiPolygon","coordinates":[[[[-47.93262,-19.76302],[-47.9312,-19.76334],[-47.93191,-19.76317],[-47.93262,-19.76302]]],[[[-47.93,-19.76374],[-47.92899,-19.7641],[-47.92788,-19.7645],[-47.93,-19.76374]]],[[[-47.92453,-19.76827],[-47.92419,-19.77016],[-47.92396,-19.77139],[-47.92395,-19.77143],[-47.91859,-19.77132],[-47.91646,-19.76766],[-47.91671,-19.76554],[-47.91791,-19.76413],[-47.91825,-19.76446],[-47.91969,-19.76579],[-47.92134,-19.76706],[-47.92222,-19.76762],[-47.92282,-19.76783],[-47.92453,-19.76827]]]]}},{"type":"Feature","properties":{"territory_id":"mg-3170107-jardim-california","name":"Jardim Califórnia","municipality_id":"mg-3170107","polling_places":1,"approx":true,"official":false,"method":"voronoi-polling-places","whole_municipality":false,"approx_coords_only":false},"geometry":{"type":"MultiPolygon","coordinates":[[[[-47.90583,-19.76624],[-47.90485,-19.76921],[-47.90482,-19.76762],[-47.90468,-19.76391],[-47.90583,-19.76624]]],[[[-47.90447,-19.77038],[-47.90288,-19.77519],[-47.90053,-19.77791],[-47.89505,-19.77997],[-47.89263,-19.76855],[-47.89679,-19.76922],[-47.90142,-19.76988],[-47.90232,-19.77008],[-47.90447,-19.77038]]]]}},{"type":"Feature","properties":{"territory_id":"mg-3170107-jardim-copacabana","name":"Jardim Copacabana","municipality_id":"mg-3170107","polling_places":2,"approx":true,"official":false,"method":"voronoi-polling-places","whole_municipality":false,"approx_coords_only":false},"geometry":{"type":"MultiPolygon","coordinates":[[[[-48.09558,-19.70912],[-48.07013,-19.85223],[-48.068,-19.8527],[-48.04042,-19.87465],[-48.00243,-19.86264],[-47.98979,-19.80254],[-47.98528,-19.77929],[-47.98538,-19.77484],[-47.99272,-19.7639],[-47.99751,-19.7622],[-47.99953,-19.76073],[-48.09558,-19.70912]]]]}},{"type":"Feature","properties":{"territory_id":"mg-3170107-jardim-elza-amui-i","name":"Jardim Elza Amuí I","municipality_id":"mg-3170107","polling_places":1,"approx":true,"official":false,"method":"voronoi-polling-places","whole_municipality":false,"approx_coords_only":false},"geometry":{"type":"MultiPolygon","coordinates":[[[[-47.90127,-19.73704],[-47.8953,-19.74855],[-47.88619,-19.75074],[-47.88948,-19.73987],[-47.89127,-19.73863],[-47.89484,-19.738],[-47.89941,-19.73726],[-47.90042,-19.73707],[-47.90059,-19.73706],[-47.90096,-19.73708],[-47.9012,-19.73704],[-47.90127,-19.73704]]]]}},{"type":"Feature","properties":{"territory_id":"mg-3170107-jardim-espirito-santo","name":"Jardim Espírito Santo","municipality_id":"mg-3170107","polling_places":1,"approx":true,"official":false,"method":"voronoi-polling-places","whole_municipality":false,"approx_coords_only":false},"geometry":{"type":"MultiPolygon","coordinates":[[[[-48.01519,-19.45125],[-47.95534,-19.72148],[-47.94997,-19.72908],[-47.94998,-19.72905],[-47.94989,-19.72862],[-47.94967,-19.72823],[-47.95031,-19.72657],[-47.95041,-19.72601],[-47.95049,-19.72542],[-47.94857,-19.72501],[-47.94867,-19.72483],[-47.94893,-19.72462],[-47.94897,-19.72461],[-47.94898,-19.72413],[-47.94904,-19.72409],[-47.94971,-19.72288],[-47.94945,-19.72288],[-47.94902,-19.72293],[-47.94859,-19.72273],[-47.94804,-19.72207],[-47.94763,-19.72146],[-47.94784,-19.72109],[-47.94833,-19.72063],[-47.94861,-19.7204],[-47.9483,-19.71982],[-47.94752,-19.71924],[-47.94694,-19.71904],[-47.94659,-19.7189],[-47.94596,-19.71855],[-47.94541,-19.71797],[-47.94489,-19.71751],[-47.94437,-19.71734],[-47.94342,-19.71667],[-47.94296,-19.71613],[-47.94232,-19.71598],[-47.94126,-19.71561],[-47.94082,-19.71543],[-47.94031,-19.71535],[-47.93996,-19.71564],[-47.93988,-19.71604],[-47.93969,-19.716],[-47.93901,-19.71602],[-47.93826,-19.71537],[-47.93716,-19.71465],[-47.93901,-19.71286],[-47.94002,-19.71205],[-47.94068,-19.71104],[-47.9409,-19.71019],[-47.94097,-19.70968],[-47.94081,-19.70915],[-47.9402,-19.7087],[-47.93928,-19.70855],[-47.93876,-19.7087],[-47.93849,-19.70918],[-47.93842,-19.71],[-47.93722,-19.71097],[-47.9367,-19.7113],[-47.93651,-19.71126],[-47.93619,-19.70961],[-47.93596,-19.70816],[-47.9358,-19.70777],[-47.93547,-19.70767],[-47.93438,-19.70817],[-47.93373,-19.70844],[-47.93338,-19.70862],[-47.93315,-19.70882],[-47.93285,-19.70875],[-47.93262,-19.70855],[-47.93226,-19.70833],[-47.9319,-19.70827],[-47.93149,-19.70862],[-47.93104,-19.70914],[-47.93057,-19.7096],[-47.93029,-19.7097],[-47.92985,-19.70958],[-47.92969,-19.70921],[-47.92966,-19.70863],[-47.92985,-19.70777],[-47.92972,-19.70761],[-47.92939,-19.70746],[-47.92915,-19.70723],[-47.9291,-19.707],[-47.92907,-19.70641],[-47.92921,-19.70598],[-47.92954,-19.70527],[-47.92866,-19.70521],[-47.92825,-19.70521],[-47.92833,-19.70418],[-47.92804,-19.70419],[-47.93359,-19.59702],[-48.01519,-19.45125]]],[[[-47.9492,-19.73017],[-47.94781,-19.73215],[-47.94778,-19.73195],[-47.94787,-19.73149],[-47.94803,-19.73119],[-47.94841,-19.73074],[-47.94869,-19.73052],[-47.94869,-19.73042],[-47.9492,-19.73017]]]]}},{"type":"Feature","properties":{"territory_id":"mg-3170107-jardim-induberaba","name":"Jardim Induberaba","municipality_id":"mg-3170107","polling_places":2,"approx":true,"official":false,"method":"voronoi-polling-places","whole_municipality":false,"approx_coords_only":false},"geometry":{"type":"MultiPolygon","coordinates":[[[[-47.95343,-19.77922],[-47.95075,-19.79391],[-47.95023,-19.80061],[-47.94181,-19.79641],[-47.94214,-19.79477],[-47.94241,-19.79355],[-47.94295,-19.79071],[-47.94383,-19.78619],[-47.94396,-19.78557],[-47.94435,-19.7844],[-47.94444,-19.78401],[-47.94458,-19.78281],[-47.94461,-19.78169],[-47.94471,-19.77951],[-47.94403,-19.77949],[-47.94343,-19.77944],[-47.94282,-19.77935],[-47.94168,-19.77908],[-47.94146,-19.77905],[-47.93838,-19.77886],[-47.93639,-19.77866],[-47.93369,-19.77851],[-47.93096,-19.77829],[-47.93086,-19.77812],[-47.93156,-19.77361],[-47.93253,-19.773],[-47.9329,-19.77284],[-47.93298,-19.77275],[-47.93353,-19.77242],[-47.93421,-19.77207],[-47.93501,-19.77179],[-47.93551,-19.7717],[-47.93602,-19.77164],[-47.93664,-19.77161],[-47.93786,-19.77166],[-47.93907,-19.77175],[-47.94097,-19.77184],[-47.94099,-19.77189],[-47.94108,-19.77196],[-47.94118,-19.77196],[-47.94128,-19.772],[-47.94154,-19.77194],[-47.94239,-19.77159],[-47.94338,-19.77098],[-47.94455,-19.77029],[-47.94483,-19.77012],[-47.94487,-19.77018],[-47.945,-19.77024],[-47.94493,-19.77072],[-47.94477,-19.77654],[-47.94471,-19.77949],[-47.94595,-19.7795],[-47.94705,-19.77927],[-47.94767,-19.77919],[-47.95275,-19.77922],[-47.95343,-19.77922]]]]}},{"type":"Feature","properties":{"territory_id":"mg-3170107-jardim-maracana","name":"Jardim Maracanã","municipality_id":"mg-3170107","polling_places":1,"approx":true,"official":false,"method":"voronoi-polling-places","whole_municipality":false,"approx_coords_only":false},"geometry":{"type":"MultiPolygon","coordinates":[[[[-47.93096,-19.77829],[-47.92955,-19.77818],[-47.93086,-19.77812],[-47.93096,-19.77829]]],[[[-47.92944,-19.7895],[-47.92895,-19.79314],[-47.92857,-19.79567],[-47.92848,-19.79631],[-47.91828,-19.7967],[-47.9159,-19.7858],[-47.91553,-19.78286],[-47.91654,-19.78162],[-47.9209,-19.77858],[-47.92843,-19.77823],[-47.9284,-19.77863],[-47.92836,-19.78046],[-47.92835,-19.78196],[-47.92843,-19.7822],[-47.92855,-19.78244],[-47.92858,-19.78258],[-47.92898,-19.7856],[-47.92938,-19.78889],[-47.92944,-19.7895]]]]}},{"type":"Feature","properties":{"territory_id":"mg-3170107-jardim-uberaba","name":"Jardim Uberaba","municipality_id":"mg-3170107","polling_places":1,"approx":true,"official":false,"method":"voronoi-polling-places","whole_municipality":false,"approx_coords_only":false},"geometry":{"type":"MultiPolygon","coordinates":[[[[-48.24194,-19.22507],[-48.13044,-19.56482],[-47.99609,-19.72632],[-47.99607,-19.72618],[-47.99555,-19.72549],[-47.99494,-19.72563],[-47.99405,-19.72609],[-47.9937,-19.72676],[-47.99287,-19.72713],[-47.99261,-19.72716],[-47.99203,-19.72661],[-47.99108,-19.72641],[-47.9892,-19.72705],[-47.98727,-19.72762],[-47.98675,-19.72745],[-47.98684,-19.72606],[-47.98629,-19.72491],[-47.9849,-19.72329],[-47.98398,-19.72292],[-47.9834,-19.72456],[-47.98343,-19.72606],[-47.98294,-19.72681],[-47.98213,-19.72731],[-47.98125,-19.72756],[-47.98356,-19.73956],[-47.98379,-19.7408],[-47.9773,-19.74483],[-47.96621,-19.73998],[-47.95534,-19.72148],[-48.01519,-19.45125],[-48.15831,-19.16193],[-48.2291,-19.1903],[-48.2253,-19.2169],[-48.24194,-19.22507]]]]}},{"type":"Feature","properties":{"territory_id":"mg-3170107-jose-valim-de-melo","name":"José Valim de Melo","municipality_id":"mg-3170107","polling_places":1,"approx":true,"official":false,"method":"voronoi-polling-places","whole_municipality":false,"approx_coords_only":false},"geometry":{"type":"MultiPolygon","coordinates":[[[[-47.9159,-19.7858],[-47.88726,-19.79133],[-47.89505,-19.77997],[-47.90053,-19.77791],[-47.91553,-19.78286],[-47.9159,-19.7858]]]]}},{"type":"Feature","properties":{"territory_id":"mg-3170107-leblon","name":"Leblon","municipality_id":"mg-3170107","polling_places":4,"approx":false,"official":true,"method":"official-ibge-cd2022","whole_municipality":false,"approx_coords_only":false,"official_name":"Leblon","official_code":"3170107024","match":"direct"},"geometry":{"type":"MultiPolygon","coordinates":[[[[-47.92899,-19.7641],[-47.92788,-19.7645],[-47.92607,-19.76535],[-47.92485,-19.76598],[-47.92475,-19.76653],[-47.92469,-19.76714],[-47.92453,-19.76827],[-47.92419,-19.77016],[-47.92396,-19.77139],[-47.92385,-19.77179],[-47.92373,-19.77195],[-47.92536,-19.77241],[-47.92845,-19.77326],[-47.92941,-19.77354],[-47.93033,-19.77379],[-47.93075,-19.77394],[-47.93082,-19.77394],[-47.93087,-19.77398],[-47.93118,-19.77384],[-47.93253,-19.773],[-47.9329,-19.77284],[-47.93298,-19.77275],[-47.93353,-19.77242],[-47.93421,-19.77207],[-47.93501,-19.77179],[-47.93551,-19.7717],[-47.93602,-19.77164],[-47.93664,-19.77161],[-47.93786,-19.77166],[-47.93907,-19.77175],[-47.94097,-19.77184],[-47.94098,-19.7717],[-47.94102,-19.77165],[-47.94095,-19.7711],[-47.94079,-19.76939],[-47.94075,-19.7691],[-47.94064,-19.76879],[-47.94056,-19.76866],[-47.94043,-19.76851],[-47.9398,-19.76784],[-47.93874,-19.76675],[-47.93749,-19.76578],[-47.93725,-19.76555],[-47.9354,-19.76238],[-47.93527,-19.76242],[-47.9351,-19.76239],[-47.935,-19.76248],[-47.93485,-19.76258],[-47.93467,-19.76265],[-47.93262,-19.76302],[-47.9312,-19.76334],[-47.93,-19.76374],[-47.92899,-19.7641]]]]}},{"type":"Feature","properties":{"territory_id":"mg-3170107-lourdes","name":"Lourdes","municipality_id":"mg-3170107","polling_places":1,"approx":false,"official":true,"method":"official-ibge-cd2022","whole_municipality":false,"approx_coords_only":false,"official_name":"Lourdes","official_code":"3170107026","match":"direct"},"geometry":{"type":"MultiPolygon","coordinates":[[[[-47.88453,-19.76034],[-47.88454,-19.76016],[-47.8842,-19.75965],[-47.88306,-19.75827],[-47.88207,-19.75903],[-47.88181,-19.7587],[-47.8804,-19.75924],[-47.88021,-19.75936],[-47.88066,-19.76023],[-47.88131,-19.76111],[-47.88206,-19.76191],[-47.88238,-19.76217],[-47.88251,-19.76225],[-47.88288,-19.76254],[-47.88487,-19.7639],[-47.88537,-19.76437],[-47.88734,-19.76659],[-47.88759,-19.76691],[-47.88792,-19.76724],[-47.88849,-19.76791],[-47.89002,-19.76813],[-47.89679,-19.76922],[-47.90142,-19.76988],[-47.90232,-19.77008],[-47.90488,-19.77044],[-47.90482,-19.76762],[-47.90462,-19.76253],[-47.90463,-19.76199],[-47.90462,-19.76052],[-47.9045,-19.75864],[-47.90394,-19.75866],[-47.90392,-19.75852],[-47.90387,-19.75847],[-47.90381,-19.75844],[-47.90373,-19.75843],[-47.90362,-19.75844],[-47.90352,-19.7585],[-47.9035,-19.75855],[-47.9035,-19.75865],[-47.90094,-19.7586],[-47.90056,-19.75858],[-47.90026,-19.75852],[-47.89888,-19.7585],[-47.89817,-19.75848],[-47.89784,-19.75845],[-47.89745,-19.75838],[-47.89367,-19.75744],[-47.89237,-19.75717],[-47.89129,-19.75691],[-47.89067,-19.7568],[-47.89054,-19.75679],[-47.89018,-19.75682],[-47.88987,-19.75687],[-47.88942,-19.75698],[-47.88919,-19.75704],[-47.88843,-19.75743],[-47.88589,-19.75931],[-47.88453,-19.76034]]]]}},{"type":"Feature","properties":{"territory_id":"mg-3170107-merces","name":"Mercês","municipality_id":"mg-3170107","polling_places":1,"approx":false,"official":true,"method":"official-ibge-cd2022","whole_municipality":false,"approx_coords_only":false,"official_name":"Mercês","official_code":"3170107014","match":"direct"},"geometry":{"type":"MultiPolygon","coordinates":[[[[-47.94081,-19.74744],[-47.94154,-19.74826],[-47.94197,-19.74872],[-47.94318,-19.74985],[-47.94275,-19.75041],[-47.94419,-19.75124],[-47.94702,-19.75278],[-47.94752,-19.75308],[-47.94762,-19.75319],[-47.94772,-19.75316],[-47.94803,-19.75325],[-47.94823,-19.75305],[-47.9484,-19.75297],[-47.94917,-19.75269],[-47.95046,-19.75241],[-47.95075,-19.75236],[-47.95113,-19.75232],[-47.95169,-19.7523],[-47.95363,-19.7523],[-47.95369,-19.75222],[-47.95378,-19.75219],[-47.95388,-19.7522],[-47.95395,-19.75225],[-47.95401,-19.75231],[-47.95401,-19.75239],[-47.95399,-19.75248],[-47.95426,-19.75278],[-47.95469,-19.75366],[-47.95476,-19.75365],[-47.95487,-19.75368],[-47.9565,-19.7525],[-47.95933,-19.75036],[-47.95979,-19.75003],[-47.95999,-19.74973],[-47.96019,-19.74919],[-47.96181,-19.74983],[-47.96376,-19.75069],[-47.96353,-19.75016],[-47.9632,-19.74955],[-47.96286,-19.74894],[-47.9625,-19.74835],[-47.96175,-19.74704],[-47.96157,-19.7467],[-47.96134,-19.74611],[-47.96066,-19.74412],[-47.96043,-19.7435],[-47.96037,-19.74326],[-47.95927,-19.74268],[-47.959,-19.74257],[-47.95784,-19.74187],[-47.95719,-19.74151],[-47.95629,-19.74028],[-47.95631,-19.74027],[-47.9558,-19.73964],[-47.95531,-19.73934],[-47.95477,-19.73865],[-47.95426,-19.73786],[-47.95381,-19.73732],[-47.95372,-19.73722],[-47.95379,-19.7371],[-47.9537,-19.73695],[-47.95311,-19.73774],[-47.9526,-19.73838],[-47.95126,-19.74017],[-47.95038,-19.73939],[-47.9499,-19.73984],[-47.95052,-19.74071],[-47.94991,-19.74107],[-47.94923,-19.74152],[-47.94834,-19.74129],[-47.94789,-19.74115],[-47.94767,-19.74104],[-47.94687,-19.74025],[-47.9463,-19.7396],[-47.94703,-19.73913],[-47.94707,-19.73769],[-47.94706,-19.73745],[-47.94711,-19.73741],[-47.94714,-19.73734],[-47.94711,-19.73724],[-47.94807,-19.73628],[-47.9499,-19.73459],[-47.94989,-19.73442],[-47.94992,-19.73432],[-47.9497,-19.73413],[-47.94922,-19.7345],[-47.94858,-19.73473],[-47.94806,-19.73482],[-47.94769,-19.73507],[-47.94716,-19.73504],[-47.94651,-19.73563],[-47.94628,-19.73588],[-47.94575,-19.73659],[-47.94553,-19.73707],[-47.94534,-19.73757],[-47.94519,-19.73785],[-47.94493,-19.73816],[-47.94453,-19.73847],[-47.94409,-19.73872],[-47.94372,-19.73907],[-47.94363,-19.73904],[-47.94339,-19.73901],[-47.94281,-19.73951],[-47.94224,-19.74003],[-47.94211,-19.7402],[-47.94206,-19.74043],[-47.94212,-19.74049],[-47.94201,-19.74062],[-47.94198,-19.74073],[-47.94191,-19.74086],[-47.94115,-19.74166],[-47.94079,-19.742],[-47.93997,-19.74293],[-47.94071,-19.74371],[-47.94034,-19.74465],[-47.94024,-19.74505],[-47.94015,-19.74622],[-47.94033,-19.74685],[-47.94081,-19.74744]]]]}},{"type":"Feature","properties":{"territory_id":"mg-3170107-olinda","name":"Olinda","municipality_id":"mg-3170107","polling_places":1,"approx":true,"official":false,"method":"voronoi-polling-places","whole_municipality":false,"approx_coords_only":false},"geometry":{"type":"MultiPolygon","coordinates":[[[[-47.97529,-19.74904],[-47.97478,-19.75774],[-47.96166,-19.76741],[-47.96023,-19.7674],[-47.96151,-19.76534],[-47.96202,-19.76459],[-47.96353,-19.76221],[-47.96445,-19.76068],[-47.96459,-19.76064],[-47.96479,-19.7603],[-47.96479,-19.76018],[-47.96532,-19.75939],[-47.96551,-19.75894],[-47.96553,-19.75866],[-47.96535,-19.75768],[-47.96462,-19.75446],[-47.96415,-19.7522],[-47.97529,-19.74904]]]]}},{"type":"Feature","properties":{"territory_id":"mg-3170107-pacaembu","name":"Pacaembu","municipality_id":"mg-3170107","polling_places":1,"approx":true,"official":false,"method":"voronoi-polling-places","whole_municipality":false,"approx_coords_only":false},"geometry":{"type":"MultiPolygon","coordinates":[[[[-47.99272,-19.7639],[-47.98538,-19.77484],[-47.97478,-19.75774],[-47.97529,-19.74904],[-47.9773,-19.74483],[-47.98379,-19.7408],[-47.98394,-19.74157],[-47.98405,-19.74233],[-47.98413,-19.74341],[-47.98409,-19.74418],[-47.98404,-19.74468],[-47.98394,-19.74531],[-47.98373,-19.74611],[-47.98344,-19.747],[-47.98331,-19.74732],[-47.98351,-19.74723],[-47.98366,-19.74718],[-47.98421,-19.74675],[-47.98467,-19.74609],[-47.9856,-19.74519],[-47.98578,-19.74508],[-47.99272,-19.7639]]]]}},{"type":"Feature","properties":{"territory_id":"mg-3170107-parque-das-americas","name":"Parque das Américas","municipality_id":"mg-3170107","polling_places":2,"approx":false,"official":true,"method":"official-ibge-cd2022","whole_municipality":false,"approx_coords_only":false,"official_name":"Parque das Américas","official_code":"3170107028","match":"direct"},"geometry":{"type":"MultiPolygon","coordinates":[[[[-47.96261,-19.77928],[-47.96529,-19.77926],[-47.96634,-19.77928],[-47.96801,-19.77929],[-47.96835,-19.77924],[-47.96913,-19.77905],[-47.96953,-19.77888],[-47.9699,-19.77866],[-47.97043,-19.77823],[-47.97096,-19.77761],[-47.97137,-19.7769],[-47.97181,-19.77587],[-47.97247,-19.77409],[-47.97318,-19.77237],[-47.97381,-19.77075],[-47.97218,-19.77064],[-47.97174,-19.77058],[-47.97136,-19.77058],[-47.96776,-19.77019],[-47.96738,-19.77024],[-47.96716,-19.77021],[-47.96699,-19.77011],[-47.96558,-19.77],[-47.96495,-19.77003],[-47.96435,-19.77009],[-47.96376,-19.77019],[-47.96326,-19.77029],[-47.96301,-19.77037],[-47.96264,-19.77056],[-47.96238,-19.7708],[-47.96128,-19.77251],[-47.9609,-19.77313],[-47.95928,-19.7722],[-47.95922,-19.77211],[-47.95889,-19.77119],[-47.95858,-19.77004],[-47.95839,-19.77022],[-47.9582,-19.77033],[-47.95798,-19.77037],[-47.95515,-19.77048],[-47.95268,-19.77053],[-47.95091,-19.77052],[-47.94871,-19.77045],[-47.9456,-19.77028],[-47.94531,-19.77016],[-47.9452,-19.77023],[-47.945,-19.77024],[-47.94493,-19.77072],[-47.94477,-19.77654],[-47.94471,-19.77949],[-47.94595,-19.7795],[-47.94705,-19.77927],[-47.94767,-19.77919],[-47.95275,-19.77922],[-47.95663,-19.77921],[-47.95773,-19.77923],[-47.95865,-19.77921],[-47.96118,-19.77923],[-47.96184,-19.77928],[-47.96223,-19.77929],[-47.96261,-19.77928]]]]}},{"type":"Feature","properties":{"territory_id":"mg-3170107-parque-das-gameleiras","name":"Parque das Gameleiras","municipality_id":"mg-3170107","polling_places":2,"approx":true,"official":false,"method":"voronoi-polling-places","whole_municipality":false,"approx_coords_only":false},"geometry":{"type":"MultiPolygon","coordinates":[[[[-47.93156,-19.77361],[-47.93086,-19.77812],[-47.92955,-19.77818],[-47.92843,-19.77809],[-47.92843,-19.77823],[-47.9209,-19.77858],[-47.91654,-19.78162],[-47.9128,-19.7718],[-47.91646,-19.76766],[-47.91859,-19.77132],[-47.92395,-19.77143],[-47.92385,-19.77179],[-47.92373,-19.77195],[-47.92536,-19.77241],[-47.92845,-19.77326],[-47.92941,-19.77354],[-47.93033,-19.77379],[-47.93075,-19.77394],[-47.93082,-19.77394],[-47.93087,-19.77398],[-47.93118,-19.77384],[-47.93156,-19.77361]]]]}},{"type":"Feature","properties":{"territory_id":"mg-3170107-parque-gameleiras","name":"Parque Gameleiras","municipality_id":"mg-3170107","polling_places":1,"approx":true,"official":false,"method":"voronoi-polling-places","whole_municipality":false,"approx_coords_only":false},"geometry":{"type":"MultiPolygon","coordinates":[[[[-47.91654,-19.78162],[-47.91553,-19.78286],[-47.90053,-19.77791],[-47.90288,-19.77519],[-47.9128,-19.7718],[-47.91654,-19.78162]]]]}},{"type":"Feature","properties":{"territory_id":"mg-3170107-parque-sao-jose","name":"Parque São José","municipality_id":"mg-3170107","polling_places":1,"approx":true,"official":false,"method":"voronoi-polling-places","whole_municipality":false,"approx_coords_only":false},"geometry":{"type":"MultiPolygon","coordinates":[[[[-47.9104,-19.73666],[-47.91032,-19.73732],[-47.90896,-19.73788],[-47.90756,-19.73881],[-47.90623,-19.7401],[-47.90575,-19.74068],[-47.90523,-19.74161],[-47.90481,-19.7426],[-47.90459,-19.74324],[-47.90451,-19.74343],[-47.90431,-19.74428],[-47.9042,-19.74505],[-47.90419,-19.74698],[-47.90432,-19.75078],[-47.90431,-19.75212],[-47.90438,-19.75462],[-47.8953,-19.74855],[-47.90127,-19.73704],[-47.90514,-19.73732],[-47.90555,-19.73727],[-47.90585,-19.73721],[-47.90851,-19.73608],[-47.90862,-19.73622],[-47.90939,-19.73655],[-47.91002,-19.73664],[-47.9104,-19.73666]]]]}},{"type":"Feature","properties":{"territory_id":"mg-3170107-planalto","name":"Planalto","municipality_id":"mg-3170107","polling_places":1,"approx":true,"official":false,"method":"voronoi-polling-places","whole_municipality":false,"approx_coords_only":false},"geometry":{"type":"MultiPolygon","coordinates":[[[[-47.98538,-19.77484],[-47.98528,-19.77929],[-47.97288,-19.77311],[-47.97318,-19.77237],[-47.97381,-19.77075],[-47.97218,-19.77064],[-47.97174,-19.77058],[-47.97136,-19.77058],[-47.96776,-19.77019],[-47.96738,-19.77024],[-47.96716,-19.77021],[-47.96699,-19.77011],[-47.96683,-19.7701],[-47.96196,-19.76767],[-47.96166,-19.76741],[-47.97478,-19.75774],[-47.98538,-19.77484]]]]}},{"type":"Feature","properties":{"territory_id":"mg-3170107-recreio-dos-bandeirantes","name":"Recreio dos Bandeirantes","municipality_id":"mg-3170107","polling_places":1,"approx":false,"official":true,"method":"official-ibge-cd2022","whole_municipality":false,"approx_coords_only":false,"official_name":"Recreio dos Bandeirantes","official_code":"3170107034","match":"direct"},"geometry":{"type":"MultiPolygon","coordinates":[[[[-47.92791,-19.80023],[-47.92673,-19.80848],[-47.92696,-19.81069],[-47.92777,-19.81685],[-47.92855,-19.82393],[-47.92888,-19.82267],[-47.92898,-19.82178],[-47.92948,-19.82043],[-47.93052,-19.8188],[-47.93124,-19.81795],[-47.9318,-19.81748],[-47.93479,-19.81422],[-47.93736,-19.81198],[-47.93888,-19.80986],[-47.93948,-19.80782],[-47.94037,-19.80369],[-47.94091,-19.80091],[-47.94214,-19.79477],[-47.94241,-19.79355],[-47.94295,-19.79071],[-47.94383,-19.78619],[-47.94396,-19.78557],[-47.94435,-19.7844],[-47.94444,-19.78401],[-47.94458,-19.78281],[-47.94461,-19.78169],[-47.94471,-19.77951],[-47.94403,-19.77949],[-47.94343,-19.77944],[-47.94282,-19.77935],[-47.94168,-19.77908],[-47.94146,-19.77905],[-47.93838,-19.77886],[-47.93639,-19.77866],[-47.93369,-19.77851],[-47.92843,-19.77809],[-47.9284,-19.77863],[-47.92836,-19.78046],[-47.92835,-19.78196],[-47.92843,-19.7822],[-47.92855,-19.78244],[-47.92858,-19.78258],[-47.92898,-19.7856],[-47.92938,-19.78889],[-47.92944,-19.7895],[-47.92895,-19.79314],[-47.92857,-19.79567],[-47.92791,-19.80023]]]]}},{"type":"Feature","properties":{"territory_id":"mg-3170107-residencial-antonia-candida","name":"Residencial Antônia Cândida","municipality_id":"mg-3170107","polling_places":1,"approx":true,"official":false,"method":"voronoi-polling-places","whole_municipality":false,"approx_coords_only":false},"geometry":{"type":"MultiPolygon","coordinates":[[[[-47.89382,-19.71485],[-47.89343,-19.71504],[-47.89297,-19.7147],[-47.8921,-19.71447],[-47.8917,-19.71452],[-47.891,-19.71452],[-47.89008,-19.71516],[-47.88962,-19.71689],[-47.88864,-19.71631],[-47.88737,-19.71631],[-47.8863,-19.71641],[-47.8862,-19.71686],[-47.88548,-19.71929],[-47.88528,-19.72004],[-47.88471,-19.72205],[-47.8844,-19.72308],[-47.88405,-19.72396],[-47.88215,-19.72687],[-47.88192,-19.72748],[-47.88188,-19.72765],[-47.88185,-19.72797],[-47.88185,-19.72845],[-47.88191,-19.73042],[-47.85551,-19.69746],[-47.8754,-19.68012],[-47.89382,-19.71485]]],[[[-47.89127,-19.73863],[-47.88948,-19.73987],[-47.88887,-19.73911],[-47.88906,-19.73905],[-47.88952,-19.73894],[-47.89127,-19.73863]]]]}},{"type":"Feature","properties":{"territory_id":"mg-3170107-residencial-dois-mil","name":"Residencial Dois Mil","municipality_id":"mg-3170107","polling_places":1,"approx":true,"official":false,"method":"voronoi-polling-places","whole_municipality":false,"approx_coords_only":false},"geometry":{"type":"MultiPolygon","coordinates":[[[[-47.89505,-19.77997],[-47.88726,-19.79133],[-47.84238,-19.85281],[-47.80055,-19.89614],[-47.77922,-19.90402],[-47.7575,-19.9032],[-47.7241,-19.88153],[-47.76007,-19.76621],[-47.79291,-19.74773],[-47.88047,-19.75406],[-47.88602,-19.75922],[-47.88589,-19.75931],[-47.88453,-19.76034],[-47.88454,-19.76016],[-47.8842,-19.75965],[-47.88306,-19.75827],[-47.88207,-19.75903],[-47.88181,-19.7587],[-47.8804,-19.75924],[-47.88021,-19.75936],[-47.88066,-19.76023],[-47.88131,-19.76111],[-47.88206,-19.76191],[-47.88238,-19.76217],[-47.88251,-19.76225],[-47.88288,-19.76254],[-47.88487,-19.7639],[-47.88537,-19.76437],[-47.88734,-19.76659],[-47.88759,-19.76691],[-47.88792,-19.76724],[-47.88849,-19.76791],[-47.89002,-19.76813],[-47.89263,-19.76855],[-47.89505,-19.77997]]]]}},{"type":"Feature","properties":{"territory_id":"mg-3170107-residencial-rio-de-janeiro","name":"Residencial Rio de Janeiro","municipality_id":"mg-3170107","polling_places":1,"approx":true,"official":false,"method":"voronoi-polling-places","whole_municipality":false,"approx_coords_only":false},"geometry":{"type":"MultiPolygon","coordinates":[[[[-47.9989,-19.86219],[-47.85038,-19.88761],[-47.8417,-19.8669],[-47.80907,-19.89468],[-47.80055,-19.89614],[-47.84238,-19.85281],[-47.91828,-19.7967],[-47.92848,-19.79631],[-47.92791,-19.80023],[-47.92673,-19.80848],[-47.92696,-19.81069],[-47.92777,-19.81685],[-47.92855,-19.82393],[-47.92888,-19.82267],[-47.92898,-19.82178],[-47.92948,-19.82043],[-47.93052,-19.8188],[-47.93124,-19.81795],[-47.9318,-19.81748],[-47.93479,-19.81422],[-47.93736,-19.81198],[-47.93888,-19.80986],[-47.93948,-19.80782],[-47.94037,-19.80369],[-47.94091,-19.80091],[-47.94181,-19.79641],[-47.95023,-19.80061],[-47.99822,-19.8613],[-47.9989,-19.86219]]]]}},{"type":"Feature","properties":{"territory_id":"mg-3170107-santa-maria","name":"Santa Maria","municipality_id":"mg-3170107","polling_places":4,"approx":false,"official":true,"method":"official-ibge-cd2022","whole_municipality":false,"approx_coords_only":false,"official_name":"Santa Maria","official_code":"3170107021","match":"direct"},"geometry":{"type":"MultiPolygon","coordinates":[[[[-47.94976,-19.76108],[-47.95013,-19.76338],[-47.95029,-19.7637],[-47.95094,-19.7646],[-47.95224,-19.76628],[-47.95265,-19.7667],[-47.953,-19.76701],[-47.95296,-19.76708],[-47.95298,-19.76718],[-47.95303,-19.76728],[-47.95319,-19.7674],[-47.95331,-19.76739],[-47.9534,-19.76733],[-47.954,-19.76774],[-47.9552,-19.76864],[-47.95571,-19.76913],[-47.95657,-19.77012],[-47.95679,-19.77041],[-47.95798,-19.77037],[-47.9582,-19.77033],[-47.95839,-19.77022],[-47.95858,-19.77004],[-47.95903,-19.76934],[-47.96151,-19.76534],[-47.96202,-19.76459],[-47.96353,-19.76221],[-47.96445,-19.76068],[-47.96459,-19.76064],[-47.96479,-19.7603],[-47.96479,-19.76018],[-47.96532,-19.75939],[-47.96551,-19.75894],[-47.96553,-19.75866],[-47.96535,-19.75768],[-47.96462,-19.75446],[-47.96407,-19.75177],[-47.96402,-19.75149],[-47.96376,-19.75069],[-47.96181,-19.74983],[-47.96019,-19.74919],[-47.95999,-19.74973],[-47.95979,-19.75003],[-47.95933,-19.75036],[-47.9565,-19.7525],[-47.95487,-19.75368],[-47.95476,-19.75365],[-47.95469,-19.75366],[-47.95426,-19.75278],[-47.95399,-19.75248],[-47.95401,-19.75239],[-47.95401,-19.75231],[-47.95395,-19.75225],[-47.95388,-19.7522],[-47.95378,-19.75219],[-47.95369,-19.75222],[-47.95363,-19.7523],[-47.95169,-19.7523],[-47.95113,-19.75232],[-47.95075,-19.75236],[-47.95009,-19.75248],[-47.94917,-19.75269],[-47.9484,-19.75297],[-47.94823,-19.75305],[-47.94803,-19.75325],[-47.94772,-19.75316],[-47.94762,-19.75319],[-47.94753,-19.75324],[-47.9475,-19.75332],[-47.94752,-19.75357],[-47.94762,-19.75402],[-47.9477,-19.75412],[-47.94782,-19.75646],[-47.94788,-19.75677],[-47.94799,-19.7572],[-47.9484,-19.75827],[-47.9488,-19.75876],[-47.94948,-19.75964],[-47.94957,-19.75988],[-47.94966,-19.76032],[-47.94976,-19.76108]]]]}},{"type":"Feature","properties":{"territory_id":"mg-3170107-santa-marta","name":"Santa Marta","municipality_id":"mg-3170107","polling_places":2,"approx":true,"official":false,"method":"voronoi-polling-places","whole_municipality":false,"approx_coords_only":false},"geometry":{"type":"MultiPolygon","coordinates":[[[[-47.9773,-19.74483],[-47.97529,-19.74904],[-47.96415,-19.7522],[-47.96407,-19.75177],[-47.96402,-19.75149],[-47.96376,-19.75069],[-47.96353,-19.75016],[-47.9632,-19.74955],[-47.96286,-19.74894],[-47.9625,-19.74835],[-47.96175,-19.74704],[-47.96157,-19.7467],[-47.96134,-19.74611],[-47.96066,-19.74412],[-47.96043,-19.7435],[-47.96037,-19.74326],[-47.95927,-19.74268],[-47.959,-19.74257],[-47.95879,-19.74244],[-47.96621,-19.73998],[-47.9773,-19.74483]]],[[[-47.95075,-19.75236],[-47.95026,-19.75245],[-47.95046,-19.75241],[-47.95075,-19.75236]]],[[[-47.95052,-19.74071],[-47.94991,-19.74107],[-47.94923,-19.74152],[-47.94834,-19.74129],[-47.94789,-19.74115],[-47.94767,-19.74104],[-47.94687,-19.74025],[-47.9463,-19.7396],[-47.94703,-19.73913],[-47.94707,-19.73769],[-47.94706,-19.73745],[-47.94711,-19.73741],[-47.94714,-19.73734],[-47.94711,-19.73724],[-47.94733,-19.73703],[-47.95026,-19.7395],[-47.9499,-19.73984],[-47.95052,-19.74071]]],[[[-47.94762,-19.75402],[-47.9476,-19.75394],[-47.94752,-19.75357],[-47.94762,-19.75402]]]]}},{"type":"Feature","properties":{"territory_id":"mg-3170107-sao-benedito","name":"São Benedito","municipality_id":"mg-3170107","polling_places":9,"approx":false,"official":true,"method":"official-ibge-cd2022","whole_municipality":false,"approx_coords_only":false,"official_name":"São Benedito","official_code":"3170107022","match":"direct"},"geometry":{"type":"MultiPolygon","coordinates":[[[[-47.94483,-19.77012],[-47.94487,-19.77018],[-47.945,-19.77024],[-47.9452,-19.77023],[-47.94531,-19.77016],[-47.9456,-19.77028],[-47.94871,-19.77045],[-47.95009,-19.7705],[-47.95091,-19.77052],[-47.95268,-19.77053],[-47.95515,-19.77048],[-47.95679,-19.77041],[-47.95657,-19.77012],[-47.95571,-19.76913],[-47.9552,-19.76864],[-47.954,-19.76774],[-47.9534,-19.76733],[-47.95331,-19.76739],[-47.95319,-19.7674],[-47.95303,-19.76728],[-47.95298,-19.76718],[-47.95296,-19.76708],[-47.953,-19.76701],[-47.95265,-19.7667],[-47.95224,-19.76628],[-47.95094,-19.7646],[-47.95029,-19.7637],[-47.95013,-19.76338],[-47.94976,-19.76108],[-47.94966,-19.76032],[-47.94957,-19.75988],[-47.94948,-19.75964],[-47.9488,-19.75876],[-47.9484,-19.75827],[-47.94799,-19.7572],[-47.94788,-19.75677],[-47.94782,-19.75646],[-47.9477,-19.75412],[-47.94762,-19.75402],[-47.9476,-19.75394],[-47.94752,-19.75357],[-47.9475,-19.75332],[-47.94753,-19.75324],[-47.94762,-19.75319],[-47.94752,-19.75308],[-47.94702,-19.75278],[-47.94419,-19.75124],[-47.94275,-19.75041],[-47.94267,-19.75052],[-47.94196,-19.75106],[-47.93985,-19.75241],[-47.93936,-19.75177],[-47.93881,-19.75225],[-47.93904,-19.75252],[-47.93878,-19.75272],[-47.93847,-19.75282],[-47.93768,-19.75298],[-47.93748,-19.75299],[-47.93485,-19.75357],[-47.93384,-19.75378],[-47.9341,-19.75487],[-47.93443,-19.75613],[-47.93486,-19.75771],[-47.93546,-19.75968],[-47.93547,-19.75981],[-47.93542,-19.76053],[-47.93529,-19.76179],[-47.9354,-19.76181],[-47.93554,-19.76191],[-47.9356,-19.7621],[-47.93558,-19.76222],[-47.93552,-19.7623],[-47.9354,-19.76238],[-47.93725,-19.76555],[-47.93749,-19.76578],[-47.93874,-19.76675],[-47.9398,-19.76784],[-47.94043,-19.76851],[-47.94056,-19.76866],[-47.94064,-19.76879],[-47.94075,-19.7691],[-47.94079,-19.76939],[-47.94095,-19.7711],[-47.94102,-19.77165],[-47.94098,-19.7717],[-47.94097,-19.77175],[-47.94097,-19.77184],[-47.94099,-19.77189],[-47.94108,-19.77196],[-47.94118,-19.77196],[-47.94128,-19.772],[-47.94154,-19.77194],[-47.94239,-19.77159],[-47.94338,-19.77098],[-47.94455,-19.77029],[-47.94483,-19.77012]]]]}},{"type":"Feature","properties":{"territory_id":"mg-3170107-sao-sebastiao","name":"São Sebastião","municipality_id":"mg-3170107","polling_places":1,"approx":true,"official":false,"method":"voronoi-polling-places","whole_municipality":false,"approx_coords_only":false},"geometry":{"type":"MultiPolygon","coordinates":[[[[-47.94071,-19.74371],[-47.93953,-19.74249],[-47.93997,-19.74293],[-47.94071,-19.74371]]],[[[-47.93897,-19.74196],[-47.93614,-19.74423],[-47.93791,-19.74281],[-47.93897,-19.74196]]],[[[-47.93485,-19.75357],[-47.93384,-19.75378],[-47.9345,-19.75364],[-47.93485,-19.75357]]],[[[-47.93111,-19.74132],[-47.93056,-19.74175],[-47.92979,-19.74196],[-47.92857,-19.74222],[-47.92869,-19.74246],[-47.92877,-19.74296],[-47.92822,-19.74303],[-47.92809,-19.7374],[-47.93111,-19.74132]]],[[[-47.92929,-19.7517],[-47.92907,-19.75077],[-47.92907,-19.75075],[-47.92929,-19.7517]]],[[[-47.92891,-19.75006],[-47.92886,-19.74988],[-47.92871,-19.74911],[-47.92891,-19.75006]]]]}},{"type":"Feature","properties":{"territory_id":"mg-3170107-tutunas","name":"Tutunas","municipality_id":"mg-3170107","polling_places":1,"approx":true,"official":false,"method":"voronoi-polling-places","whole_municipality":false,"approx_coords_only":false},"geometry":{"type":"MultiPolygon","coordinates":[[[[-47.96621,-19.73998],[-47.95879,-19.74244],[-47.95784,-19.74187],[-47.95719,-19.74151],[-47.95629,-19.74028],[-47.95631,-19.74027],[-47.9558,-19.73964],[-47.95531,-19.73934],[-47.95477,-19.73865],[-47.95426,-19.73786],[-47.95381,-19.73732],[-47.95372,-19.73722],[-47.95379,-19.7371],[-47.9537,-19.73695],[-47.95311,-19.73774],[-47.9526,-19.73838],[-47.95126,-19.74017],[-47.95038,-19.73939],[-47.95026,-19.7395],[-47.94733,-19.73703],[-47.94807,-19.73628],[-47.9499,-19.73459],[-47.94989,-19.73442],[-47.94992,-19.73432],[-47.9497,-19.73413],[-47.94922,-19.7345],[-47.94858,-19.73473],[-47.94806,-19.73482],[-47.94769,-19.73507],[-47.94716,-19.73504],[-47.94767,-19.73462],[-47.94807,-19.73433],[-47.9479,-19.73312],[-47.94786,-19.73254],[-47.94781,-19.73215],[-47.9492,-19.73017],[-47.94937,-19.73009],[-47.94993,-19.72954],[-47.94997,-19.72908],[-47.95534,-19.72148],[-47.96621,-19.73998]]]]}},{"type":"Feature","properties":{"territory_id":"mg-3170107-vila-arquelau","name":"Vila Arquelau","municipality_id":"mg-3170107","polling_places":1,"approx":true,"official":false,"method":"voronoi-polling-places","whole_municipality":false,"approx_coords_only":false},"geometry":{"type":"MultiPolygon","coordinates":[[[[-47.93359,-19.59702],[-47.92804,-19.70419],[-47.92728,-19.70421],[-47.92715,-19.70515],[-47.9261,-19.70582],[-47.92437,-19.7064],[-47.92376,-19.70649],[-47.92329,-19.70649],[-47.92127,-19.70679],[-47.91856,-19.70885],[-47.91448,-19.71054],[-47.91039,-19.71235],[-47.9106,-19.71445],[-47.91065,-19.71579],[-47.91083,-19.72058],[-47.91068,-19.7206],[-47.9105,-19.72017],[-47.90984,-19.71916],[-47.90919,-19.71828],[-47.90812,-19.71696],[-47.90691,-19.71559],[-47.90629,-19.71505],[-47.90324,-19.71277],[-47.90147,-19.71148],[-47.90043,-19.71181],[-47.89971,-19.71225],[-47.8993,-19.71225],[-47.89869,-19.71231],[-47.89776,-19.71256],[-47.89631,-19.71233],[-47.89672,-19.71326],[-47.89597,-19.71401],[-47.89487,-19.71435],[-47.89382,-19.71485],[-47.8754,-19.68012],[-47.93359,-19.59702]]]]}},{"type":"Feature","properties":{"territory_id":"mg-3170107-zona-rural-capelinha-barreiro","name":"Zona Rural - Capelinha Barreiro","municipality_id":"mg-3170107","polling_places":1,"approx":true,"official":false,"method":"voronoi-polling-places","whole_municipality":false,"approx_coords_only":false},"geometry":{"type":"MultiPolygon","coordinates":[[[[-48.3552,-19.4118],[-48.3065,-19.4478],[-48.2724,-19.4391],[-48.2494,-19.474],[-48.2205,-19.4903],[-48.1474,-19.5791],[-48.1681,-19.601],[-48.1685,-19.6461],[-48.1845,-19.6946],[-48.2136,-19.6947],[-48.3272,-19.7406],[-48.2729,-19.7738],[-48.231,-19.8456],[-48.1545,-19.8828],[-48.1064,-19.8443],[-48.07013,-19.85223],[-48.09558,-19.70912],[-48.13044,-19.56482],[-48.24194,-19.22507],[-48.2679,-19.2378],[-48.3092,-19.2843],[-48.3475,-19.3684],[-48.3552,-19.4118]]]]}},{"type":"Feature","properties":{"territory_id":"mg-3170107-zona-rural-ponte-alta","name":"Zona Rural - Ponte Alta","municipality_id":"mg-3170107","polling_places":1,"approx":true,"official":false,"method":"voronoi-polling-places","whole_municipality":false,"approx_coords_only":false},"geometry":{"type":"MultiPolygon","coordinates":[[[[-47.76007,-19.76621],[-47.7241,-19.88153],[-47.686,-19.8568],[-47.6936,-19.8171],[-47.6519,-19.7571],[-47.6374,-19.681],[-47.6038,-19.6698],[-47.5851,-19.6232],[-47.6125,-19.5987],[-47.615,-19.5653],[-47.686,-19.5671],[-47.70858,-19.55398],[-47.76007,-19.76621]]]]}},{"type":"Feature","properties":{"territory_id":"mg-3170107-zona-rural-santa-rosa","name":"Zona Rural - Santa Rosa","municipality_id":"mg-3170107","polling_places":1,"approx":true,"official":false,"method":"voronoi-polling-places","whole_municipality":false,"approx_coords_only":false},"geometry":{"type":"MultiPolygon","coordinates":[[[[-48.15831,-19.16193],[-48.01519,-19.45125],[-47.93359,-19.59702],[-47.8754,-19.68012],[-47.85551,-19.69746],[-47.79291,-19.74773],[-47.76007,-19.76621],[-47.70858,-19.55398],[-47.765,-19.5212],[-47.7859,-19.4391],[-47.7763,-19.4212],[-47.7962,-19.38],[-47.7991,-19.3071],[-47.7879,-19.2541],[-47.8069,-19.2237],[-47.8093,-19.1785],[-47.8345,-19.1564],[-47.8526,-19.0939],[-47.8905,-19.1071],[-47.9135,-19.0966],[-47.9206,-19.1347],[-47.9034,-19.2106],[-47.903,-19.2642],[-47.9485,-19.2938],[-47.9592,-19.337],[-47.9887,-19.3112],[-48.0031,-19.2535],[-48.0889,-19.2394],[-48.0893,-19.2151],[-48.1495,-19.1584],[-48.15831,-19.16193]]]]}}]}