{"type":"FeatureCollection","features":[{"type":"Feature","properties":{"territory_id":"mg-3170800-caicara-i","name":"Caiçara I","municipality_id":"mg-3170800","polling_places":1,"approx":true,"official":false,"method":"voronoi-polling-places","whole_municipality":false,"approx_coords_only":false},"geometry":{"type":"MultiPolygon","coordinates":[[[[-44.81338,-17.69592],[-44.70553,-17.60855],[-44.72508,-17.60342],[-44.7358,-17.60658],[-44.81338,-17.69592]]]]}},{"type":"Feature","properties":{"territory_id":"mg-3170800-centro","name":"Centro","municipality_id":"mg-3170800","polling_places":3,"approx":true,"official":false,"method":"voronoi-polling-places","whole_municipality":false,"approx_coords_only":false},"geometry":{"type":"MultiPolygon","coordinates":[[[[-44.73861,-17.5868],[-44.73854,-17.59344],[-44.73728,-17.59608],[-44.73645,-17.59676],[-44.7358,-17.60658],[-44.72508,-17.60342],[-44.72938,-17.59699],[-44.73155,-17.596],[-44.72936,-17.58087],[-44.73596,-17.58515],[-44.73861,-17.5868]]]]}},{"type":"Feature","properties":{"territory_id":"mg-3170800-conjunto-palmas","name":"Conjunto Palmas","municipality_id":"mg-3170800","polling_places":1,"approx":true,"official":false,"method":"voronoi-polling-places","whole_municipality":false,"approx_coords_only":false},"geometry":{"type":"MultiPolygon","coordinates":[[[[-44.86485,-17.73803],[-44.85532,-17.73431],[-44.81338,-17.69592],[-44.7358,-17.60658],[-44.73645,-17.59676],[-44.73728,-17.59608],[-44.86355,-17.67401],[-44.86485,-17.73803]]]]}},{"type":"Feature","properties":{"territory_id":"mg-3170800-distrito-de-guaicui","name":"Distrito de Guaicuí","municipality_id":"mg-3170800","polling_places":1,"approx":true,"official":false,"method":"voronoi-polling-places","whole_municipality":false,"approx_coords_only":false},"geometry":{"type":"MultiPolygon","coordinates":[[[[-44.8552,-17.1745],[-44.8297,-17.2036],[-44.81972,-17.24112],[-44.76486,-17.06288],[-44.7699,-17.0535],[-44.8061,-17.0513],[-44.7895,-17.1019],[-44.8305,-17.1227],[-44.8552,-17.1745]]]]}},{"type":"Feature","properties":{"territory_id":"mg-3170800-lameirao-ii","name":"Lameirao Ii","municipality_id":"mg-3170800","polling_places":1,"approx":true,"official":false,"method":"voronoi-polling-places","whole_municipality":false,"approx_coords_only":false},"geometry":{"type":"MultiPolygon","coordinates":[[[[-44.84285,-17.56708],[-44.73861,-17.5868],[-44.73596,-17.58515],[-44.72936,-17.58087],[-44.68561,-17.53968],[-44.71594,-17.51927],[-44.84285,-17.56708]]]]}},{"type":"Feature","properties":{"territory_id":"mg-3170800-novo-progresso","name":"Novo Progresso","municipality_id":"mg-3170800","polling_places":1,"approx":true,"official":false,"method":"voronoi-polling-places","whole_municipality":false,"approx_coords_only":false},"geometry":{"type":"MultiPolygon","coordinates":[[[[-44.72938,-17.59699],[-44.72508,-17.60342],[-44.70553,-17.60855],[-44.62296,-17.57759],[-44.63818,-17.56139],[-44.68485,-17.54006],[-44.72938,-17.59699]]]]}},{"type":"Feature","properties":{"territory_id":"mg-3170800-paulo-vi","name":"Paulo Vi","municipality_id":"mg-3170800","polling_places":1,"approx":true,"official":false,"method":"voronoi-polling-places","whole_municipality":false,"approx_coords_only":false},"geometry":{"type":"MultiPolygon","coordinates":[[[[-44.864,-17.57355],[-44.86333,-17.62349],[-44.73854,-17.59344],[-44.73861,-17.5868],[-44.84285,-17.56708],[-44.864,-17.57355]]]]}},{"type":"Feature","properties":{"territory_id":"mg-3170800-pedras-grandes","name":"Pedras Grandes","municipality_id":"mg-3170800","polling_places":1,"approx":true,"official":false,"method":"voronoi-polling-places","whole_municipality":false,"approx_coords_only":false},"geometry":{"type":"MultiPolygon","coordinates":[[[[-44.85532,-17.73431],[-44.8489,-17.7318],[-44.8232,-17.7446],[-44.7598,-17.75596],[-44.75009,-17.74969],[-44.7372,-17.7053],[-44.7039,-17.6901],[-44.65857,-17.69068],[-44.55812,-17.62591],[-44.55811,-17.62501],[-44.62296,-17.57759],[-44.70553,-17.60855],[-44.81338,-17.69592],[-44.85532,-17.73431]]]]}},{"type":"Feature","properties":{"territory_id":"mg-3170800-planalto","name":"Planalto","municipality_id":"mg-3170800","polling_places":1,"approx":true,"official":false,"method":"voronoi-polling-places","whole_municipality":false,"approx_coords_only":false},"geometry":{"type":"MultiPolygon","coordinates":[[[[-44.73155,-17.596],[-44.72938,-17.59699],[-44.68485,-17.54006],[-44.68561,-17.53968],[-44.72936,-17.58087],[-44.73155,-17.596]]]]}},{"type":"Feature","properties":{"territory_id":"mg-3170800-povoado-buritis-das-mulatas","name":"Povoado Buritis das Mulatas","municipality_id":"mg-3170800","polling_places":1,"approx":true,"official":false,"method":"voronoi-polling-places","whole_municipality":false,"approx_coords_only":false},"geometry":{"type":"MultiPolygon","coordinates":[[[[-44.88568,-17.53045],[-44.864,-17.57355],[-44.84285,-17.56708],[-44.71594,-17.51927],[-44.74475,-17.34557],[-44.78896,-17.34906],[-44.7809,-17.4016],[-44.7564,-17.4099],[-44.7475,-17.4675],[-44.774,-17.4638],[-44.8229,-17.4969],[-44.88,-17.5205],[-44.88568,-17.53045]]]]}},{"type":"Feature","properties":{"territory_id":"mg-3170800-povoado-pedras-de-santana","name":"Povoado Pedras de Santana","municipality_id":"mg-3170800","polling_places":1,"approx":true,"official":false,"method":"voronoi-polling-places","whole_municipality":false,"approx_coords_only":false},"geometry":{"type":"MultiPolygon","coordinates":[[[[-45.0453,-17.6106],[-45.0353,-17.6585],[-45.0138,-17.6858],[-45.0067,-17.7214],[-44.9846,-17.7169],[-44.8791,-17.7436],[-44.86485,-17.73803],[-44.86355,-17.67401],[-44.86333,-17.62349],[-44.864,-17.57355],[-44.88568,-17.53045],[-44.8997,-17.555],[-44.9567,-17.5488],[-44.9875,-17.5189],[-44.9818,-17.551],[-45.0453,-17.6106]]]]}},{"type":"Feature","properties":{"territory_id":"mg-3170800-povoado-porteiras","name":"Povoado Porteiras","municipality_id":"mg-3170800","polling_places":1,"approx":true,"official":false,"method":"voronoi-polling-places","whole_municipality":false,"approx_coords_only":false},"geometry":{"type":"MultiPolygon","coordinates":[[[[-44.81972,-17.24112],[-44.8163,-17.254],[-44.7696,-17.2856],[-44.7939,-17.3169],[-44.78896,-17.34906],[-44.74475,-17.34557],[-44.64185,-17.29616],[-44.6522,-17.2842],[-44.6878,-17.2205],[-44.6789,-17.1816],[-44.6497,-17.1681],[-44.7092,-17.1204],[-44.7115,-17.0874],[-44.757,-17.0775],[-44.76486,-17.06288],[-44.81972,-17.24112]]]]}},{"type":"Feature","properties":{"territory_id":"mg-3170800-princesa-ii","name":"Princesa Ii","municipality_id":"mg-3170800","polling_places":1,"approx":true,"official":false,"method":"voronoi-polling-places","whole_municipality":false,"approx_coords_only":false},"geometry":{"type":"MultiPolygon","coordinates":[[[[-44.86355,-17.67401],[-44.73728,-17.59608],[-44.73854,-17.59344],[-44.86333,-17.62349],[-44.86355,-17.67401]]]]}},{"type":"Feature","properties":{"territory_id":"mg-3170800-zona-rural","name":"Zona Rural","municipality_id":"mg-3170800","polling_places":3,"approx":true,"official":false,"method":"voronoi-polling-places","whole_municipality":false,"approx_coords_only":false},"geometry":{"type":"MultiPolygon","coordinates":[[[[-44.7598,-17.75596],[-44.7523,-17.7573],[-44.75009,-17.74969],[-44.7598,-17.75596]]],[[[-44.74475,-17.34557],[-44.71594,-17.51927],[-44.68561,-17.53968],[-44.68485,-17.54006],[-44.63818,-17.56139],[-44.62296,-17.57759],[-44.55811,-17.62501],[-44.5581,-17.619],[-44.5276,-17.6004],[-44.4682,-17.6048],[-44.4509,-17.5292],[-44.4579,-17.5051],[-44.4338,-17.4559],[-44.4843,-17.4456],[-44.5184,-17.4026],[-44.534,-17.4125],[-44.5775,-17.3677],[-44.5868,-17.3946],[-44.6251,-17.365],[-44.6142,-17.3281],[-44.64185,-17.29616],[-44.74475,-17.34557]]],[[[-44.65857,-17.69068],[-44.6494,-17.6908],[-44.6478,-17.76],[-44.6097,-17.7829],[-44.5961,-17.7315],[-44.5582,-17.6597],[-44.55812,-17.62591],[-44.65857,-17.69068]]]]}}]}