{"type":"FeatureCollection","features":[{"type":"Feature","properties":{"territory_id":"mg-3170651-centro","name":"Centro","municipality_id":"mg-3170651","polling_places":2,"approx":true,"official":false,"method":"voronoi-polling-places","whole_municipality":false,"approx_coords_only":false},"geometry":{"type":"MultiPolygon","coordinates":[[[[-42.37322,-15.37519],[-42.33064,-15.41575],[-42.32844,-15.4183],[-42.28797,-15.41813],[-42.30782,-15.3988],[-42.32378,-15.35546],[-42.37322,-15.37519]]]]}},{"type":"Feature","properties":{"territory_id":"mg-3170651-santo-antonio","name":"Santo Antônio","municipality_id":"mg-3170651","polling_places":1,"approx":true,"official":false,"method":"voronoi-polling-places","whole_municipality":false,"approx_coords_only":false},"geometry":{"type":"MultiPolygon","coordinates":[[[[-42.32378,-15.35546],[-42.30782,-15.3988],[-42.28797,-15.41813],[-42.23379,-15.42877],[-42.2298,-15.4181],[-42.22315,-15.39359],[-42.30355,-15.34445],[-42.32378,-15.35546]]]]}},{"type":"Feature","properties":{"territory_id":"mg-3170651-zona-rural","name":"Zona Rural","municipality_id":"mg-3170651","polling_places":2,"approx":true,"official":false,"method":"voronoi-polling-places","whole_municipality":false,"approx_coords_only":false},"geometry":{"type":"MultiPolygon","coordinates":[[[[-42.421,-15.446],[-42.3843,-15.4716],[-42.3478,-15.47083],[-42.32782,-15.43762],[-42.32844,-15.4183],[-42.33064,-15.41575],[-42.37322,-15.37519],[-42.39843,-15.3754],[-42.407,-15.3895],[-42.4031,-15.4199],[-42.421,-15.446]]],[[[-42.3501,-15.27561],[-42.30259,-15.32854],[-42.26599,-15.27744],[-42.29056,-15.19484],[-42.3367,-15.2016],[-42.3501,-15.27561]]]]}},{"type":"Feature","properties":{"territory_id":"mg-3170651-zonal-rural","name":"Zonal Rural","municipality_id":"mg-3170651","polling_places":5,"approx":true,"official":false,"method":"voronoi-polling-places","whole_municipality":false,"approx_coords_only":false},"geometry":{"type":"MultiPolygon","coordinates":[[[[-42.39843,-15.3754],[-42.37322,-15.37519],[-42.32378,-15.35546],[-42.30355,-15.34445],[-42.22315,-15.39359],[-42.219,-15.3783],[-42.2202,-15.3238],[-42.1976,-15.2574],[-42.2082,-15.2225],[-42.2725,-15.1922],[-42.29056,-15.19484],[-42.26599,-15.27744],[-42.30259,-15.32854],[-42.3501,-15.27561],[-42.3514,-15.2828],[-42.3491,-15.3148],[-42.3788,-15.3431],[-42.39843,-15.3754]]],[[[-42.3478,-15.47083],[-42.3179,-15.4702],[-42.2453,-15.4595],[-42.23379,-15.42877],[-42.28797,-15.41813],[-42.32844,-15.4183],[-42.32782,-15.43762],[-42.3478,-15.47083]]]]}}]}