{"type":"FeatureCollection","features":[{"type":"Feature","properties":{"territory_id":"mg-3170479-centro","name":"Centro","municipality_id":"mg-3170479","polling_places":1,"approx":false,"official":true,"method":"official-ibge-cd2022","whole_municipality":false,"approx_coords_only":false,"official_name":"Centro","official_code":"3170479001","match":"direct"},"geometry":{"type":"MultiPolygon","coordinates":[[[[-46.25659,-16.06166],[-46.25772,-16.06025],[-46.25722,-16.05985],[-46.25586,-16.05874],[-46.25481,-16.05912],[-46.25446,-16.05929],[-46.254,-16.05964],[-46.2518,-16.06234],[-46.25315,-16.06339],[-46.25402,-16.06408],[-46.25441,-16.06437],[-46.25604,-16.06234],[-46.25659,-16.06166]]]]}},{"type":"Feature","properties":{"territory_id":"mg-3170479-cruzeiro","name":"Cruzeiro","municipality_id":"mg-3170479","polling_places":1,"approx":false,"official":true,"method":"official-ibge-cd2022","whole_municipality":false,"approx_coords_only":false,"official_name":"Cruzeiro","official_code":"3170479003","match":"direct"},"geometry":{"type":"MultiPolygon","coordinates":[[[[-46.25296,-16.05771],[-46.25481,-16.05912],[-46.25682,-16.0584],[-46.25557,-16.05765],[-46.25505,-16.05727],[-46.25573,-16.0564],[-46.2552,-16.05598],[-46.25407,-16.05739],[-46.25356,-16.057],[-46.25296,-16.05771]]]]}},{"type":"Feature","properties":{"territory_id":"mg-3170479-distrito-de-cercado","name":"Distrito de Cercado","municipality_id":"mg-3170479","polling_places":1,"approx":true,"official":false,"method":"voronoi-polling-places","whole_municipality":false,"approx_coords_only":false},"geometry":{"type":"MultiPolygon","coordinates":[[[[-46.4617,-15.9037],[-46.3925,-15.9819],[-46.4333,-16.0403],[-46.3821,-16.0875],[-46.3966,-16.105],[-46.3788,-16.1739],[-46.3443,-16.2479],[-46.3148,-16.2528],[-46.3114,-16.2985],[-46.2763,-16.3202],[-46.2647,-16.2929],[-46.2196,-16.2578],[-46.2309,-16.2377],[-46.2629,-16.2246],[-46.2942,-16.1724],[-46.2346,-16.1304],[-46.2323,-16.0892],[-46.188,-16.0312],[-46.2478,-15.9829],[-46.2882,-15.969],[-46.3158,-15.9752],[-46.3739,-15.938],[-46.447,-15.8752],[-46.4617,-15.9037]],[[-46.25772,-16.06025],[-46.25722,-16.05985],[-46.25586,-16.05874],[-46.25682,-16.0584],[-46.25557,-16.05765],[-46.25505,-16.05727],[-46.25573,-16.0564],[-46.2552,-16.05598],[-46.25407,-16.05739],[-46.25356,-16.057],[-46.25296,-16.05771],[-46.25481,-16.05912],[-46.25446,-16.05929],[-46.254,-16.05964],[-46.2518,-16.06234],[-46.25315,-16.06339],[-46.25402,-16.06408],[-46.25441,-16.06437],[-46.25604,-16.06234],[-46.25659,-16.06166],[-46.25772,-16.06025]]]]}}]}