{"type":"FeatureCollection","features":[{"type":"Feature","properties":{"territory_id":"mg-3170008-centro","name":"Centro","municipality_id":"mg-3170008","polling_places":4,"approx":true,"official":false,"method":"voronoi-polling-places","whole_municipality":false,"approx_coords_only":false},"geometry":{"type":"MultiPolygon","coordinates":[[[[-44.83641,-16.26035],[-44.79561,-16.28383],[-44.77773,-16.29838],[-44.71932,-16.36938],[-44.69657,-16.37211],[-44.6666,-16.3364],[-44.6759,-16.3145],[-44.67591,-16.31387],[-44.77859,-16.28725],[-44.78083,-16.28962],[-44.78854,-16.28617],[-44.77861,-16.28723],[-44.80082,-16.23253],[-44.83641,-16.26035]]]]}},{"type":"Feature","properties":{"territory_id":"mg-3170008-distrito-de-bentopolis","name":"Distrito de Bentopolis","municipality_id":"mg-3170008","polling_places":1,"approx":true,"official":false,"method":"voronoi-polling-places","whole_municipality":false,"approx_coords_only":true},"geometry":{"type":"MultiPolygon","coordinates":[[[[-44.89484,-16.30195],[-44.86015,-16.42712],[-44.7708,-16.36561],[-44.8692,-16.28599],[-44.8719,-16.2881],[-44.89484,-16.30195]]]]}},{"type":"Feature","properties":{"territory_id":"mg-3170008-zona-rural","name":"Zona Rural","municipality_id":"mg-3170008","polling_places":22,"approx":true,"official":false,"method":"voronoi-polling-places","whole_municipality":false,"approx_coords_only":false},"geometry":{"type":"MultiPolygon","coordinates":[[[[-45.0671,-16.4722],[-45.0342,-16.4529],[-45.0191,-16.4795],[-44.9625,-16.4933],[-44.9506,-16.5077],[-44.9721,-16.5486],[-44.9293,-16.5328],[-44.857,-16.4809],[-44.7042,-16.3812],[-44.69657,-16.37211],[-44.71932,-16.36938],[-44.77773,-16.29838],[-44.79561,-16.28383],[-44.83641,-16.26035],[-44.8692,-16.28599],[-44.7708,-16.36561],[-44.86015,-16.42712],[-44.89484,-16.30195],[-44.9459,-16.3328],[-44.9607,-16.3538],[-45.0444,-16.3816],[-45.0566,-16.3646],[-45.0658,-16.4084],[-45.0381,-16.4239],[-45.0671,-16.4722]]],[[[-44.80082,-16.23253],[-44.77861,-16.28723],[-44.78854,-16.28617],[-44.78083,-16.28962],[-44.77859,-16.28725],[-44.67591,-16.31387],[-44.6775,-16.2457],[-44.6705,-16.2087],[-44.7197,-16.1789],[-44.7523,-16.1946],[-44.80082,-16.23253]]]]}}]}