{"type":"FeatureCollection","features":[{"type":"Feature","properties":{"territory_id":"mg-3170602-campinopolis","name":"Campinópolis","municipality_id":"mg-3170602","polling_places":2,"approx":true,"official":false,"method":"voronoi-polling-places","whole_municipality":false,"approx_coords_only":false},"geometry":{"type":"MultiPolygon","coordinates":[[[[-46.39082,-20.502],[-46.3463,-20.5321],[-46.3368,-20.5534],[-46.289,-20.5601],[-46.2873,-20.5364],[-46.2481,-20.5079],[-46.2219,-20.5055],[-46.21,-20.4452],[-46.2563,-20.4611],[-46.2883,-20.4332],[-46.2674,-20.4167],[-46.2663,-20.3821],[-46.2243,-20.367],[-46.2149,-20.3381],[-46.2798,-20.3376],[-46.32601,-20.3541],[-46.39082,-20.502]]]]}},{"type":"Feature","properties":{"territory_id":"mg-3170602-centro","name":"Centro","municipality_id":"mg-3170602","polling_places":1,"approx":true,"official":false,"method":"voronoi-polling-places","whole_municipality":false,"approx_coords_only":false},"geometry":{"type":"MultiPolygon","coordinates":[[[[-46.4736,-20.3908],[-46.4223,-20.4148],[-46.4334,-20.4339],[-46.417,-20.4843],[-46.39082,-20.502],[-46.32601,-20.3541],[-46.333,-20.3566],[-46.3881,-20.3189],[-46.4736,-20.3908]]]]}}]}