{"type":"FeatureCollection","features":[{"type":"Feature","properties":{"territory_id":"mg-3170750-campo-belo","name":"Campo Belo","municipality_id":"mg-3170750","polling_places":1,"approx":true,"official":false,"method":"voronoi-polling-places","whole_municipality":false,"approx_coords_only":false},"geometry":{"type":"MultiPolygon","coordinates":[[[[-46.1078,-18.5151],[-46.0944,-18.5283],[-46.0486,-18.53259],[-45.99519,-18.43157],[-46.03864,-18.38771],[-46.0926,-18.4248],[-46.1078,-18.5151]]]]}},{"type":"Feature","properties":{"territory_id":"mg-3170750-centro","name":"Centro","municipality_id":"mg-3170750","polling_places":2,"approx":true,"official":false,"method":"voronoi-polling-places","whole_municipality":false,"approx_coords_only":false},"geometry":{"type":"MultiPolygon","coordinates":[[[[-46.03276,-18.37642],[-45.98338,-18.41618],[-45.98131,-18.41362],[-45.94268,-18.3688],[-46.0097,-18.326],[-46.03276,-18.37642]]]]}},{"type":"Feature","properties":{"territory_id":"mg-3170750-povoado-da-corte","name":"Povoado da Corte","municipality_id":"mg-3170750","polling_places":1,"approx":true,"official":false,"method":"voronoi-polling-places","whole_municipality":false,"approx_coords_only":false},"geometry":{"type":"MultiPolygon","coordinates":[[[[-46.03864,-18.38771],[-45.99519,-18.43157],[-45.98338,-18.41618],[-46.03276,-18.37642],[-46.0376,-18.387],[-46.03864,-18.38771]]]]}},{"type":"Feature","properties":{"territory_id":"mg-3170750-povoado-de-lagoa-seca","name":"Povoado de Lagoa Seca","municipality_id":"mg-3170750","polling_places":1,"approx":true,"official":false,"method":"voronoi-polling-places","whole_municipality":false,"approx_coords_only":false},"geometry":{"type":"MultiPolygon","coordinates":[[[[-45.92078,-18.57183],[-45.8291,-18.5872],[-45.8015,-18.5359],[-45.7944,-18.4859],[-45.7732,-18.467],[-45.7807,-18.4567],[-45.748,-18.4067],[-45.7742,-18.3939],[-45.8031,-18.4034],[-45.8818,-18.3805],[-45.88615,-18.38119],[-45.92078,-18.57183]]]]}},{"type":"Feature","properties":{"territory_id":"mg-3170750-povoado-de-sao-domingos","name":"Povoado de São Domingos","municipality_id":"mg-3170750","polling_places":1,"approx":true,"official":false,"method":"voronoi-polling-places","whole_municipality":false,"approx_coords_only":false},"geometry":{"type":"MultiPolygon","coordinates":[[[[-46.0486,-18.53259],[-46.0367,-18.5337],[-46.0069,-18.5549],[-45.9661,-18.5312],[-45.9365,-18.5692],[-45.92078,-18.57183],[-45.88615,-18.38119],[-45.9159,-18.3859],[-45.94268,-18.3688],[-45.98131,-18.41362],[-45.98338,-18.41618],[-45.99519,-18.43157],[-46.0486,-18.53259]]]]}}]}