{"type":"FeatureCollection","features":[{"type":"Feature","properties":{"territory_id":"mg-3170057-centro","name":"Centro","municipality_id":"mg-3170057","polling_places":2,"approx":true,"official":false,"method":"voronoi-polling-places","whole_municipality":false,"approx_coords_only":false},"geometry":{"type":"MultiPolygon","coordinates":[[[[-42.1618,-19.6154],[-42.16012,-19.62681],[-42.10811,-19.63265],[-42.10657,-19.66415],[-42.07954,-19.65877],[-42.08006,-19.63278],[-42.07531,-19.59841],[-42.1265,-19.6205],[-42.1618,-19.6154]]]]}},{"type":"Feature","properties":{"territory_id":"mg-3170057-distrito-de-sao-jose-do-batatal","name":"Distrito de São José do Batatal","municipality_id":"mg-3170057","polling_places":1,"approx":true,"official":false,"method":"voronoi-polling-places","whole_municipality":false,"approx_coords_only":false},"geometry":{"type":"MultiPolygon","coordinates":[[[[-42.08006,-19.63278],[-42.07954,-19.65877],[-42.06327,-19.67223],[-42.01152,-19.62487],[-42.0384,-19.6337],[-42.0458,-19.5998],[-42.0688,-19.5956],[-42.07531,-19.59841],[-42.08006,-19.63278]]]]}},{"type":"Feature","properties":{"territory_id":"mg-3170057-distrito-de-sao-sebastiao-do-batatal","name":"Distrito de São Sebastião do Batatal","municipality_id":"mg-3170057","polling_places":1,"approx":true,"official":false,"method":"voronoi-polling-places","whole_municipality":false,"approx_coords_only":false},"geometry":{"type":"MultiPolygon","coordinates":[[[[-42.06327,-19.67223],[-42.05564,-19.694],[-42.0184,-19.7089],[-41.9671,-19.6629],[-42.004,-19.6224],[-42.01152,-19.62487],[-42.06327,-19.67223]]]]}},{"type":"Feature","properties":{"territory_id":"mg-3170057-zona-rural","name":"Zona Rural","municipality_id":"mg-3170057","polling_places":2,"approx":true,"official":false,"method":"voronoi-polling-places","whole_municipality":false,"approx_coords_only":false},"geometry":{"type":"MultiPolygon","coordinates":[[[[-42.16012,-19.62681],[-42.1536,-19.6711],[-42.1213,-19.6769],[-42.1137,-19.741],[-42.0959,-19.7394],[-42.0674,-19.6893],[-42.05564,-19.694],[-42.06327,-19.67223],[-42.07954,-19.65877],[-42.10657,-19.66415],[-42.10811,-19.63265],[-42.16012,-19.62681]]]]}}]}