{"type":"FeatureCollection","features":[{"type":"Feature","properties":{"territory_id":"mg-3170438-centro","name":"Centro","municipality_id":"mg-3170438","polling_places":2,"approx":true,"official":false,"method":"voronoi-polling-places","whole_municipality":true,"approx_coords_only":false},"geometry":{"type":"MultiPolygon","coordinates":[[[[-50.4548,-19.5809],[-50.4169,-19.5924],[-50.3638,-19.5803],[-50.3432,-19.5499],[-50.266,-19.593],[-50.2348,-19.5842],[-50.2145,-19.5593],[-50.1903,-19.5118],[-50.1708,-19.4191],[-50.1906,-19.3749],[-50.1733,-19.3048],[-50.2364,-19.2813],[-50.3212,-19.2336],[-50.4012,-19.2223],[-50.4282,-19.2364],[-50.4645,-19.2331],[-50.5168,-19.26],[-50.5147,-19.2737],[-50.4681,-19.322],[-50.4768,-19.3662],[-50.5167,-19.4304],[-50.4879,-19.4693],[-50.4935,-19.5068],[-50.4677,-19.5386],[-50.4548,-19.5809]]]]}}]}