{"type":"FeatureCollection","features":[{"type":"Feature","properties":{"territory_id":"mg-3170305-centro","name":"Centro","municipality_id":"mg-3170305","polling_places":1,"approx":true,"official":false,"method":"voronoi-polling-places","whole_municipality":false,"approx_coords_only":false},"geometry":{"type":"MultiPolygon","coordinates":[[[[-40.7592,-17.1599],[-40.7503,-17.177],[-40.7516,-17.18033],[-40.71795,-17.19391],[-40.7592,-17.1599]]],[[[-40.68284,-17.20807],[-40.57213,-17.25273],[-40.57128,-17.25293],[-40.5539,-17.189],[-40.5787,-17.1496],[-40.6141,-17.1865],[-40.6334,-17.2047],[-40.68284,-17.20807]]]]}},{"type":"Feature","properties":{"territory_id":"mg-3170305-cidade","name":"Cidade","municipality_id":"mg-3170305","polling_places":1,"approx":true,"official":false,"method":"voronoi-polling-places","whole_municipality":false,"approx_coords_only":false},"geometry":{"type":"MultiPolygon","coordinates":[[[[-40.77827,-17.27075],[-40.7478,-17.3208],[-40.7477,-17.3466],[-40.7068,-17.3601],[-40.6871,-17.3888],[-40.6372,-17.3939],[-40.6047,-17.3562],[-40.5948,-17.3236],[-40.5478,-17.2837],[-40.5713,-17.253],[-40.57128,-17.25293],[-40.57213,-17.25273],[-40.77827,-17.27075]]]]}},{"type":"Feature","properties":{"territory_id":"mg-3170305-distrito-de-sao-pedro","name":"Distrito de São Pedro","municipality_id":"mg-3170305","polling_places":1,"approx":true,"official":false,"method":"voronoi-polling-places","whole_municipality":false,"approx_coords_only":false},"geometry":{"type":"MultiPolygon","coordinates":[[[[-40.7836,-17.262],[-40.77827,-17.27075],[-40.57213,-17.25273],[-40.68284,-17.20807],[-40.6994,-17.2092],[-40.71795,-17.19391],[-40.7516,-17.18033],[-40.7836,-17.262]]]]}}]}