{"type":"FeatureCollection","features":[{"type":"Feature","properties":{"territory_id":"mg-3170909-centro","name":"Centro","municipality_id":"mg-3170909","polling_places":7,"approx":true,"official":false,"method":"voronoi-polling-places","whole_municipality":false,"approx_coords_only":false},"geometry":{"type":"MultiPolygon","coordinates":[[[[-44.07989,-15.65303],[-44.07789,-15.67674],[-44.06061,-15.71099],[-44.06678,-15.75508],[-44.0626,-15.7713],[-43.9872,-15.7656],[-43.9266,-15.7694],[-43.87962,-15.74785],[-43.83335,-15.65528],[-43.8408,-15.6453],[-43.83811,-15.63294],[-43.89612,-15.63803],[-43.89799,-15.63892],[-44.00854,-15.6194],[-44.01828,-15.63134],[-44.01436,-15.66639],[-43.96695,-15.68381],[-44.00259,-15.76558],[-44.02008,-15.67768],[-44.02082,-15.6718],[-44.02949,-15.67491],[-44.07989,-15.65303]]]]}},{"type":"Feature","properties":{"territory_id":"mg-3170909-zona-rural","name":"Zona Rural","municipality_id":"mg-3170909","polling_places":10,"approx":true,"official":false,"method":"voronoi-polling-places","whole_municipality":false,"approx_coords_only":false},"geometry":{"type":"MultiPolygon","coordinates":[[[[-44.0799,-15.6529],[-44.07989,-15.65303],[-44.02949,-15.67491],[-44.02082,-15.6718],[-44.02008,-15.67768],[-44.00259,-15.76558],[-43.96695,-15.68381],[-44.01436,-15.66639],[-44.01828,-15.63134],[-44.00854,-15.6194],[-43.89799,-15.63892],[-43.89612,-15.63803],[-43.83811,-15.63294],[-43.8336,-15.6122],[-43.7734,-15.558],[-43.7764,-15.5387],[-43.8373,-15.5236],[-43.8805,-15.4905],[-43.9092,-15.4947],[-43.9174,-15.5122],[-43.9708,-15.5316],[-44.0018,-15.5052],[-44.0298,-15.4873],[-44.058,-15.5186],[-44.0659,-15.5823],[-44.0552,-15.6077],[-44.0799,-15.6529]]],[[[-44.07789,-15.67674],[-44.0735,-15.729],[-44.06678,-15.75508],[-44.06061,-15.71099],[-44.07789,-15.67674]]],[[[-43.87962,-15.74785],[-43.8793,-15.7477],[-43.7937,-15.7893],[-43.7614,-15.7799],[-43.7952,-15.7312],[-43.806,-15.6919],[-43.83335,-15.65528],[-43.87962,-15.74785]]]]}}]}