{"type":"FeatureCollection","features":[{"type":"Feature","properties":{"territory_id":"mg-3170701-belo-horizonte","name":"Belo Horizonte","municipality_id":"mg-3170701","polling_places":1,"approx":true,"official":false,"method":"voronoi-polling-places","whole_municipality":false,"approx_coords_only":false},"geometry":{"type":"MultiPolygon","coordinates":[[[[-45.5475,-21.5451],[-45.5197,-21.6018],[-45.50788,-21.6054],[-45.46501,-21.58263],[-45.45936,-21.56573],[-45.45862,-21.56328],[-45.45906,-21.54904],[-45.46587,-21.54322],[-45.54522,-21.50064],[-45.5475,-21.5451]]]]}},{"type":"Feature","properties":{"territory_id":"mg-3170701-bom-pastor","name":"Bom Pastor","municipality_id":"mg-3170701","polling_places":1,"approx":false,"official":true,"method":"official-ibge-cd2022","whole_municipality":false,"approx_coords_only":false,"official_name":"Bom Pastor","official_code":"3170701012","match":"direct"},"geometry":{"type":"MultiPolygon","coordinates":[[[[-45.4411,-21.55105],[-45.44094,-21.55136],[-45.44013,-21.55308],[-45.43982,-21.55377],[-45.44039,-21.55397],[-45.44076,-21.55423],[-45.44117,-21.55448],[-45.44151,-21.55466],[-45.44196,-21.55411],[-45.44225,-21.55394],[-45.44235,-21.55382],[-45.44269,-21.55371],[-45.44332,-21.55342],[-45.44358,-21.55332],[-45.44409,-21.55347],[-45.44466,-21.55368],[-45.445,-21.55371],[-45.4454,-21.55366],[-45.44547,-21.55361],[-45.44586,-21.55354],[-45.4461,-21.55342],[-45.44632,-21.55319],[-45.44648,-21.55339],[-45.4466,-21.55361],[-45.44678,-21.55408],[-45.44722,-21.55505],[-45.4476,-21.5549],[-45.4479,-21.55472],[-45.44798,-21.55422],[-45.44715,-21.55364],[-45.447,-21.55349],[-45.44695,-21.55333],[-45.44699,-21.55317],[-45.44711,-21.55289],[-45.44765,-21.55318],[-45.44795,-21.55279],[-45.44844,-21.55223],[-45.44854,-21.55209],[-45.44922,-21.55139],[-45.44961,-21.55069],[-45.44986,-21.55029],[-45.45023,-21.55002],[-45.45068,-21.54979],[-45.44991,-21.54863],[-45.44951,-21.54811],[-45.44914,-21.54839],[-45.44809,-21.54785],[-45.44756,-21.54763],[-45.4455,-21.54663],[-45.44476,-21.54624],[-45.44408,-21.54594],[-45.44368,-21.54665],[-45.44308,-21.54766],[-45.44267,-21.54831],[-45.44202,-21.54944],[-45.44183,-21.54939],[-45.44178,-21.54957],[-45.44145,-21.55029],[-45.44139,-21.55046],[-45.4411,-21.55105]]]]}},{"type":"Feature","properties":{"territory_id":"mg-3170701-canaa","name":"Canaã","municipality_id":"mg-3170701","polling_places":1,"approx":false,"official":true,"method":"official-ibge-cd2022","whole_municipality":false,"approx_coords_only":false,"official_name":"Canaã","official_code":"3170701006","match":"direct"},"geometry":{"type":"MultiPolygon","coordinates":[[[[-45.44315,-21.57138],[-45.44368,-21.57191],[-45.44384,-21.57171],[-45.44405,-21.57156],[-45.4445,-21.57139],[-45.44577,-21.57084],[-45.44552,-21.57016],[-45.44562,-21.57007],[-45.44595,-21.56997],[-45.44615,-21.57001],[-45.44731,-21.57014],[-45.44767,-21.5701],[-45.44787,-21.57005],[-45.44812,-21.56987],[-45.44753,-21.56893],[-45.44732,-21.56845],[-45.44723,-21.56816],[-45.44704,-21.56716],[-45.447,-21.56677],[-45.44715,-21.56638],[-45.44741,-21.56586],[-45.44762,-21.56554],[-45.44772,-21.5653],[-45.44775,-21.56497],[-45.44717,-21.56366],[-45.44701,-21.56343],[-45.4466,-21.56322],[-45.44597,-21.56261],[-45.4457,-21.56296],[-45.44546,-21.56334],[-45.44473,-21.56294],[-45.44447,-21.56282],[-45.44289,-21.56491],[-45.443,-21.56554],[-45.44269,-21.56567],[-45.44118,-21.56591],[-45.44068,-21.56601],[-45.44003,-21.56609],[-45.43891,-21.56651],[-45.43815,-21.56683],[-45.43757,-21.56735],[-45.43731,-21.5674],[-45.43694,-21.56741],[-45.43692,-21.56755],[-45.43698,-21.56771],[-45.43722,-21.5681],[-45.43785,-21.56894],[-45.43843,-21.56981],[-45.43917,-21.57082],[-45.43929,-21.57103],[-45.43935,-21.57115],[-45.43957,-21.57219],[-45.44082,-21.57222],[-45.44145,-21.57222],[-45.44289,-21.57149],[-45.44315,-21.57138]]]]}},{"type":"Feature","properties":{"territory_id":"mg-3170701-carvalhos","name":"Carvalhos","municipality_id":"mg-3170701","polling_places":1,"approx":true,"official":false,"method":"voronoi-polling-places","whole_municipality":false,"approx_coords_only":false},"geometry":{"type":"MultiPolygon","coordinates":[[[[-45.42022,-21.55002],[-45.41583,-21.56296],[-45.41524,-21.5632],[-45.41359,-21.56391],[-45.41372,-21.56406],[-45.41471,-21.56443],[-45.41525,-21.56467],[-45.41459,-21.56662],[-45.40575,-21.57217],[-45.33357,-21.59184],[-45.3309,-21.5838],[-45.2848,-21.6005],[-45.2546,-21.5541],[-45.2902,-21.5203],[-45.29316,-21.51875],[-45.42022,-21.55002]]]]}},{"type":"Feature","properties":{"territory_id":"mg-3170701-centenario-ii","name":"Centenário Ii","municipality_id":"mg-3170701","polling_places":1,"approx":true,"official":false,"method":"voronoi-polling-places","whole_municipality":false,"approx_coords_only":false},"geometry":{"type":"MultiPolygon","coordinates":[[[[-45.44183,-21.58102],[-45.40433,-21.64888],[-45.39665,-21.63753],[-45.42416,-21.57977],[-45.4276,-21.57901],[-45.42762,-21.57908],[-45.4278,-21.579],[-45.42793,-21.57904],[-45.42799,-21.57916],[-45.42801,-21.57935],[-45.42822,-21.57954],[-45.42841,-21.57942],[-45.42837,-21.57927],[-45.42845,-21.57911],[-45.42836,-21.57898],[-45.4284,-21.57886],[-45.42843,-21.57882],[-45.43671,-21.57699],[-45.44183,-21.58102]]]]}},{"type":"Feature","properties":{"territory_id":"mg-3170701-centro","name":"Centro","municipality_id":"mg-3170701","polling_places":9,"approx":false,"official":true,"method":"official-ibge-cd2022","whole_municipality":false,"approx_coords_only":false,"official_name":"Centro","official_code":"3170701001","match":"direct"},"geometry":{"type":"MultiPolygon","coordinates":[[[[-45.43966,-21.55411],[-45.44094,-21.55136],[-45.4411,-21.55105],[-45.44139,-21.55046],[-45.44145,-21.55029],[-45.44178,-21.54957],[-45.44183,-21.54939],[-45.44142,-21.54919],[-45.44117,-21.54904],[-45.44101,-21.54916],[-45.44061,-21.54958],[-45.44043,-21.54993],[-45.44036,-21.5502],[-45.44019,-21.55047],[-45.44,-21.55072],[-45.43979,-21.55093],[-45.43917,-21.55144],[-45.43838,-21.55203],[-45.43815,-21.55223],[-45.43782,-21.55249],[-45.43702,-21.55365],[-45.43673,-21.55394],[-45.43645,-21.5541],[-45.43563,-21.55434],[-45.43532,-21.55438],[-45.43471,-21.55459],[-45.43439,-21.55472],[-45.43296,-21.55513],[-45.43249,-21.5553],[-45.43207,-21.55546],[-45.43189,-21.55557],[-45.43036,-21.55673],[-45.43016,-21.55691],[-45.43006,-21.55718],[-45.43003,-21.55751],[-45.43004,-21.55775],[-45.43012,-21.55811],[-45.43019,-21.55822],[-45.43018,-21.55828],[-45.43032,-21.55845],[-45.43048,-21.55862],[-45.43065,-21.55873],[-45.43081,-21.55879],[-45.43099,-21.55888],[-45.43116,-21.55893],[-45.43166,-21.55892],[-45.43182,-21.55886],[-45.43236,-21.55858],[-45.43267,-21.55839],[-45.43309,-21.55816],[-45.43341,-21.55802],[-45.43357,-21.55797],[-45.43392,-21.55797],[-45.43414,-21.55801],[-45.43436,-21.55807],[-45.4346,-21.55819],[-45.43482,-21.55837],[-45.43509,-21.55863],[-45.43514,-21.55846],[-45.43518,-21.55821],[-45.4363,-21.5584],[-45.43669,-21.55846],[-45.43685,-21.55891],[-45.43761,-21.5602],[-45.43767,-21.56042],[-45.43771,-21.56066],[-45.43762,-21.561],[-45.43738,-21.56125],[-45.43647,-21.5621],[-45.43616,-21.56236],[-45.43626,-21.56275],[-45.43639,-21.56298],[-45.43672,-21.56267],[-45.43788,-21.56151],[-45.43882,-21.56056],[-45.43965,-21.55966],[-45.43989,-21.55946],[-45.44023,-21.55912],[-45.4406,-21.55884],[-45.44018,-21.55728],[-45.43994,-21.55654],[-45.43943,-21.55459],[-45.43966,-21.55411]]]]}},{"type":"Feature","properties":{"territory_id":"mg-3170701-conjunto-centenario","name":"Conjunto Centenário","municipality_id":"mg-3170701","polling_places":1,"approx":true,"official":false,"method":"voronoi-polling-places","whole_municipality":false,"approx_coords_only":false},"geometry":{"type":"MultiPolygon","coordinates":[[[[-45.43671,-21.57699],[-45.42843,-21.57882],[-45.4285,-21.57875],[-45.42861,-21.57866],[-45.42886,-21.5784],[-45.42889,-21.57825],[-45.42889,-21.57808],[-45.42881,-21.57799],[-45.4286,-21.57786],[-45.42848,-21.57769],[-45.42849,-21.57755],[-45.42864,-21.57746],[-45.42876,-21.57731],[-45.42871,-21.57717],[-45.42855,-21.57718],[-45.42848,-21.57707],[-45.4286,-21.57691],[-45.42863,-21.57671],[-45.42854,-21.57651],[-45.42867,-21.57634],[-45.42893,-21.57625],[-45.42917,-21.57629],[-45.42934,-21.57629],[-45.42953,-21.57623],[-45.42962,-21.57598],[-45.42962,-21.57568],[-45.42968,-21.57541],[-45.42993,-21.57519],[-45.43029,-21.57504],[-45.4305,-21.57492],[-45.43058,-21.57473],[-45.43054,-21.57453],[-45.43044,-21.57433],[-45.43007,-21.57415],[-45.42998,-21.57406],[-45.43,-21.57387],[-45.43011,-21.57366],[-45.43031,-21.57343],[-45.43057,-21.57323],[-45.43082,-21.57329],[-45.43131,-21.57336],[-45.43184,-21.57324],[-45.4327,-21.57289],[-45.43345,-21.57268],[-45.43399,-21.57266],[-45.43432,-21.57262],[-45.43492,-21.57342],[-45.43671,-21.57699]]],[[[-45.4276,-21.57901],[-45.42416,-21.57977],[-45.41333,-21.5753],[-45.41398,-21.575],[-45.41495,-21.57464],[-45.41562,-21.57455],[-45.4164,-21.57453],[-45.41682,-21.57445],[-45.41727,-21.57429],[-45.41808,-21.57387],[-45.41923,-21.57323],[-45.41992,-21.57287],[-45.4203,-21.57268],[-45.42099,-21.57248],[-45.42125,-21.57256],[-45.42139,-21.57256],[-45.42157,-21.57259],[-45.42187,-21.57268],[-45.42215,-21.57294],[-45.42252,-21.57346],[-45.42291,-21.57327],[-45.42378,-21.57422],[-45.42406,-21.57472],[-45.42423,-21.57507],[-45.42457,-21.57613],[-45.42495,-21.57579],[-45.4253,-21.57599],[-45.42541,-21.57751],[-45.42646,-21.578],[-45.42606,-21.57885],[-45.42753,-21.57874],[-45.4276,-21.57901]]],[[[-45.42304,-21.57122],[-45.42284,-21.57145],[-45.42263,-21.5717],[-45.42304,-21.57122]]],[[[-45.41509,-21.56665],[-45.41507,-21.56683],[-45.41506,-21.56777],[-45.41063,-21.56982],[-45.4105,-21.56989],[-45.41051,-21.56991],[-45.41045,-21.56991],[-45.40986,-21.57019],[-45.40944,-21.57041],[-45.40933,-21.57063],[-45.40924,-21.57109],[-45.40973,-21.57217],[-45.40956,-21.57225],[-45.40793,-21.57307],[-45.40575,-21.57217],[-45.41459,-21.56662],[-45.41509,-21.56665]]]]}},{"type":"Feature","properties":{"territory_id":"mg-3170701-imaculada-conceicao","name":"Imaculada Conceição","municipality_id":"mg-3170701","polling_places":2,"approx":false,"official":true,"method":"official-ibge-cd2022","whole_municipality":false,"approx_coords_only":false,"official_name":"Imaculada Conceição","official_code":"3170701026","match":"direct"},"geometry":{"type":"MultiPolygon","coordinates":[[[[-45.44784,-21.58778],[-45.44661,-21.58844],[-45.44599,-21.58881],[-45.44587,-21.58859],[-45.44451,-21.58946],[-45.44377,-21.58965],[-45.44421,-21.59045],[-45.44448,-21.5911],[-45.44477,-21.59174],[-45.44493,-21.59218],[-45.4452,-21.5926],[-45.44539,-21.59298],[-45.44563,-21.59325],[-45.44572,-21.5934],[-45.44575,-21.5936],[-45.44583,-21.59373],[-45.44584,-21.59386],[-45.44595,-21.59407],[-45.44593,-21.59431],[-45.44585,-21.59437],[-45.44589,-21.5946],[-45.446,-21.59489],[-45.44418,-21.59551],[-45.4451,-21.5982],[-45.44584,-21.59985],[-45.44654,-21.59959],[-45.4467,-21.59944],[-45.44692,-21.59945],[-45.44715,-21.59933],[-45.44737,-21.59925],[-45.44766,-21.59921],[-45.44788,-21.59924],[-45.44822,-21.59916],[-45.4484,-21.59923],[-45.44886,-21.59913],[-45.449,-21.59938],[-45.44912,-21.59977],[-45.44916,-21.60024],[-45.449,-21.60066],[-45.44894,-21.60099],[-45.44883,-21.60138],[-45.44871,-21.6017],[-45.44857,-21.60351],[-45.44871,-21.60393],[-45.44883,-21.60421],[-45.44891,-21.60451],[-45.44936,-21.60488],[-45.44967,-21.60492],[-45.45003,-21.60492],[-45.45034,-21.60508],[-45.45053,-21.6054],[-45.45068,-21.60551],[-45.45102,-21.60584],[-45.45139,-21.60595],[-45.45181,-21.60602],[-45.4524,-21.60589],[-45.45276,-21.60576],[-45.45311,-21.60573],[-45.45338,-21.60556],[-45.45373,-21.60543],[-45.45393,-21.60537],[-45.4542,-21.60523],[-45.4545,-21.60512],[-45.45459,-21.60492],[-45.45458,-21.60474],[-45.45464,-21.6045],[-45.45463,-21.60424],[-45.45469,-21.60397],[-45.45463,-21.60372],[-45.45463,-21.60351],[-45.45457,-21.60328],[-45.45458,-21.60308],[-45.45456,-21.60285],[-45.45449,-21.60226],[-45.45447,-21.60182],[-45.45455,-21.60148],[-45.45455,-21.6012],[-45.4546,-21.60089],[-45.4547,-21.6004],[-45.45479,-21.60017],[-45.45474,-21.5998],[-45.45483,-21.59947],[-45.45477,-21.59927],[-45.45476,-21.5991],[-45.45494,-21.59881],[-45.45456,-21.5981],[-45.45446,-21.598],[-45.45428,-21.59786],[-45.45411,-21.59769],[-45.45403,-21.59752],[-45.45379,-21.59739],[-45.45367,-21.59726],[-45.4536,-21.5971],[-45.45355,-21.59689],[-45.45343,-21.59675],[-45.45281,-21.59619],[-45.45266,-21.59609],[-45.45239,-21.59579],[-45.45208,-21.59547],[-45.45186,-21.59519],[-45.45165,-21.59485],[-45.45146,-21.59445],[-45.4512,-21.5942],[-45.45113,-21.59402],[-45.45107,-21.59382],[-45.45081,-21.59358],[-45.45068,-21.59341],[-45.4506,-21.59322],[-45.45038,-21.59297],[-45.45029,-21.59265],[-45.45016,-21.59245],[-45.45013,-21.59231],[-45.45018,-21.59185],[-45.44982,-21.59197],[-45.44857,-21.59219],[-45.44852,-21.59191],[-45.44849,-21.59098],[-45.44833,-21.58993],[-45.44822,-21.58976],[-45.4483,-21.58944],[-45.44833,-21.58914],[-45.44883,-21.58824],[-45.44823,-21.58758],[-45.44784,-21.58778]]]]}},{"type":"Feature","properties":{"territory_id":"mg-3170701-jardim-andere","name":"Jardim Andere","municipality_id":"mg-3170701","polling_places":1,"approx":false,"official":true,"method":"official-ibge-cd2022","whole_municipality":false,"approx_coords_only":false,"official_name":"Jardim Andere","official_code":"3170701003","match":"direct"},"geometry":{"type":"MultiPolygon","coordinates":[[[[-45.43228,-21.56657],[-45.42973,-21.56742],[-45.42982,-21.56752],[-45.43012,-21.56801],[-45.43042,-21.56855],[-45.43057,-21.56945],[-45.43042,-21.57006],[-45.43033,-21.57069],[-45.43034,-21.57102],[-45.43044,-21.57154],[-45.43064,-21.57195],[-45.43064,-21.5722],[-45.43052,-21.57246],[-45.43067,-21.5729],[-45.43057,-21.57323],[-45.43082,-21.57329],[-45.43131,-21.57336],[-45.43184,-21.57324],[-45.4327,-21.57289],[-45.43345,-21.57268],[-45.43399,-21.57266],[-45.43432,-21.57262],[-45.43492,-21.57342],[-45.43685,-21.57512],[-45.43713,-21.57499],[-45.43776,-21.57405],[-45.4391,-21.57218],[-45.43925,-21.57194],[-45.43947,-21.5717],[-45.43935,-21.57115],[-45.43917,-21.57082],[-45.43843,-21.56981],[-45.43785,-21.56894],[-45.43722,-21.5681],[-45.43698,-21.56771],[-45.43692,-21.56755],[-45.43694,-21.56728],[-45.43691,-21.56712],[-45.4369,-21.56683],[-45.43698,-21.56518],[-45.43597,-21.56514],[-45.43581,-21.56658],[-45.4344,-21.56648],[-45.43323,-21.56646],[-45.4326,-21.56647],[-45.43228,-21.56657]]]]}},{"type":"Feature","properties":{"territory_id":"mg-3170701-jardim-damasco","name":"Jardim Damasco","municipality_id":"mg-3170701","polling_places":1,"approx":true,"official":false,"method":"voronoi-polling-places","whole_municipality":false,"approx_coords_only":false},"geometry":{"type":"MultiPolygon","coordinates":[[[[-45.42416,-21.57977],[-45.39665,-21.63753],[-45.3913,-21.6296],[-45.3468,-21.6317],[-45.33357,-21.59184],[-45.40575,-21.57217],[-45.40793,-21.57307],[-45.40709,-21.5735],[-45.40081,-21.57634],[-45.39893,-21.57731],[-45.3984,-21.57644],[-45.39754,-21.57515],[-45.39497,-21.57718],[-45.39539,-21.57864],[-45.39571,-21.57988],[-45.39587,-21.58028],[-45.39864,-21.57807],[-45.39944,-21.57922],[-45.39965,-21.5788],[-45.39995,-21.57844],[-45.40089,-21.57851],[-45.40189,-21.57866],[-45.40232,-21.57869],[-45.40503,-21.5778],[-45.40833,-21.57777],[-45.41025,-21.57701],[-45.41108,-21.57666],[-45.41167,-21.57634],[-45.41216,-21.57604],[-45.41303,-21.57543],[-45.41333,-21.5753],[-45.42416,-21.57977]]]]}},{"type":"Feature","properties":{"territory_id":"mg-3170701-jardim-das-acacias","name":"Jardim das Acácias","municipality_id":"mg-3170701","polling_places":1,"approx":true,"official":false,"method":"voronoi-polling-places","whole_municipality":false,"approx_coords_only":false},"geometry":{"type":"MultiPolygon","coordinates":[[[[-45.42527,-21.55208],[-45.42456,-21.56347],[-45.42418,-21.56339],[-45.42378,-21.56333],[-45.42338,-21.56316],[-45.42308,-21.56314],[-45.42276,-21.56308],[-45.42234,-21.56301],[-45.42219,-21.56277],[-45.42202,-21.56268],[-45.42187,-21.56247],[-45.42184,-21.56222],[-45.42178,-21.56205],[-45.42158,-21.56187],[-45.42152,-21.56175],[-45.42146,-21.56159],[-45.42104,-21.56166],[-45.4207,-21.56168],[-45.4201,-21.56183],[-45.41997,-21.56181],[-45.41932,-21.56199],[-45.41751,-21.56231],[-45.41704,-21.56243],[-45.41648,-21.5627],[-45.41583,-21.56296],[-45.42022,-21.55002],[-45.4216,-21.54949],[-45.42527,-21.55208]]],[[[-45.41528,-21.56468],[-45.41509,-21.56665],[-45.41459,-21.56662],[-45.41525,-21.56467],[-45.41528,-21.56468]]]]}},{"type":"Feature","properties":{"territory_id":"mg-3170701-jardim-mont-serrat","name":"Jardim Mont Serrat","municipality_id":"mg-3170701","polling_places":1,"approx":true,"official":false,"method":"voronoi-polling-places","whole_municipality":false,"approx_coords_only":false},"geometry":{"type":"MultiPolygon","coordinates":[[[[-45.54522,-21.50064],[-45.46587,-21.54322],[-45.43833,-21.52982],[-45.43254,-21.52469],[-45.43218,-21.52414],[-45.42151,-21.46557],[-45.4428,-21.4597],[-45.4897,-21.4791],[-45.4854,-21.5125],[-45.5451,-21.4982],[-45.54522,-21.50064]]]]}},{"type":"Feature","properties":{"territory_id":"mg-3170701-jardim-primavera","name":"Jardim Primavera","municipality_id":"mg-3170701","polling_places":1,"approx":true,"official":false,"method":"voronoi-polling-places","whole_municipality":false,"approx_coords_only":false},"geometry":{"type":"MultiPolygon","coordinates":[[[[-45.50788,-21.6054],[-45.4566,-21.621],[-45.4618,-21.658],[-45.4169,-21.6675],[-45.40433,-21.64888],[-45.44183,-21.58102],[-45.44249,-21.58094],[-45.46501,-21.58263],[-45.50788,-21.6054]],[[-45.45494,-21.59881],[-45.45456,-21.5981],[-45.45446,-21.598],[-45.45428,-21.59786],[-45.45411,-21.59769],[-45.45403,-21.59752],[-45.45379,-21.59739],[-45.45367,-21.59726],[-45.4536,-21.5971],[-45.45355,-21.59689],[-45.45343,-21.59675],[-45.45281,-21.59619],[-45.45266,-21.59609],[-45.45239,-21.59579],[-45.45208,-21.59547],[-45.45186,-21.59519],[-45.45165,-21.59485],[-45.45146,-21.59445],[-45.4512,-21.5942],[-45.45113,-21.59402],[-45.45107,-21.59382],[-45.45081,-21.59358],[-45.45068,-21.59341],[-45.4506,-21.59322],[-45.45038,-21.59297],[-45.45029,-21.59265],[-45.45016,-21.59245],[-45.45013,-21.59231],[-45.45018,-21.59185],[-45.44982,-21.59197],[-45.44857,-21.59219],[-45.44852,-21.59191],[-45.44849,-21.59098],[-45.44833,-21.58993],[-45.44822,-21.58976],[-45.4483,-21.58944],[-45.44833,-21.58914],[-45.44883,-21.58824],[-45.44823,-21.58758],[-45.44784,-21.58778],[-45.44661,-21.58844],[-45.44599,-21.58881],[-45.44587,-21.58859],[-45.44451,-21.58946],[-45.44377,-21.58965],[-45.44421,-21.59045],[-45.44448,-21.5911],[-45.44477,-21.59174],[-45.44493,-21.59218],[-45.4452,-21.5926],[-45.44539,-21.59298],[-45.44563,-21.59325],[-45.44572,-21.5934],[-45.44575,-21.5936],[-45.44583,-21.59373],[-45.44584,-21.59386],[-45.44595,-21.59407],[-45.44593,-21.59431],[-45.44585,-21.59437],[-45.44589,-21.5946],[-45.446,-21.59489],[-45.44418,-21.59551],[-45.4451,-21.5982],[-45.44584,-21.59985],[-45.44654,-21.59959],[-45.4467,-21.59944],[-45.44692,-21.59945],[-45.44715,-21.59933],[-45.44737,-21.59925],[-45.44766,-21.59921],[-45.44788,-21.59924],[-45.44822,-21.59916],[-45.4484,-21.59923],[-45.44886,-21.59913],[-45.449,-21.59938],[-45.44912,-21.59977],[-45.44916,-21.60024],[-45.449,-21.60066],[-45.44894,-21.60099],[-45.44883,-21.60138],[-45.44871,-21.6017],[-45.44857,-21.60351],[-45.44871,-21.60393],[-45.44883,-21.60421],[-45.44891,-21.60451],[-45.44936,-21.60488],[-45.44967,-21.60492],[-45.45003,-21.60492],[-45.45034,-21.60508],[-45.45053,-21.6054],[-45.45068,-21.60551],[-45.45102,-21.60584],[-45.45139,-21.60595],[-45.45181,-21.60602],[-45.4524,-21.60589],[-45.45276,-21.60576],[-45.45311,-21.60573],[-45.45338,-21.60556],[-45.45373,-21.60543],[-45.45393,-21.60537],[-45.4542,-21.60523],[-45.4545,-21.60512],[-45.45459,-21.60492],[-45.45458,-21.60474],[-45.45464,-21.6045],[-45.45463,-21.60424],[-45.45469,-21.60397],[-45.45463,-21.60372],[-45.45463,-21.60351],[-45.45457,-21.60328],[-45.45458,-21.60308],[-45.45456,-21.60285],[-45.45449,-21.60226],[-45.45447,-21.60182],[-45.45455,-21.60148],[-45.45455,-21.6012],[-45.4546,-21.60089],[-45.4547,-21.6004],[-45.45479,-21.60017],[-45.45474,-21.5998],[-45.45483,-21.59947],[-45.45477,-21.59927],[-45.45476,-21.5991],[-45.45494,-21.59881]]]]}},{"type":"Feature","properties":{"territory_id":"mg-3170701-jardim-sete-de-outubro","name":"Jardim Sete de Outubro","municipality_id":"mg-3170701","polling_places":1,"approx":true,"official":false,"method":"voronoi-polling-places","whole_municipality":false,"approx_coords_only":false},"geometry":{"type":"MultiPolygon","coordinates":[[[[-45.43218,-21.52414],[-45.42562,-21.53986],[-45.42509,-21.53986],[-45.42508,-21.54004],[-45.42527,-21.54057],[-45.42529,-21.54064],[-45.4216,-21.54949],[-45.42022,-21.55002],[-45.29316,-21.51875],[-45.3648,-21.4812],[-45.42151,-21.46557],[-45.43218,-21.52414]]]]}},{"type":"Feature","properties":{"territory_id":"mg-3170701-nossa-senhora-aparecida","name":"Nossa Senhora Aparecida","municipality_id":"mg-3170701","polling_places":1,"approx":true,"official":false,"method":"voronoi-polling-places","whole_municipality":false,"approx_coords_only":false},"geometry":{"type":"MultiPolygon","coordinates":[[[[-45.43189,-21.55557],[-45.43036,-21.55673],[-45.43016,-21.55691],[-45.43006,-21.55718],[-45.43003,-21.55751],[-45.43004,-21.55775],[-45.43012,-21.55811],[-45.43019,-21.55822],[-45.43018,-21.55828],[-45.42992,-21.55853],[-45.42949,-21.55902],[-45.42892,-21.55961],[-45.42854,-21.55997],[-45.42827,-21.56069],[-45.42814,-21.5612],[-45.42835,-21.56119],[-45.4287,-21.56135],[-45.42882,-21.56158],[-45.42889,-21.5618],[-45.42887,-21.56202],[-45.42896,-21.56237],[-45.42904,-21.5625],[-45.42902,-21.56263],[-45.42911,-21.56279],[-45.42924,-21.56286],[-45.42938,-21.56297],[-45.42949,-21.56309],[-45.42946,-21.56347],[-45.42939,-21.56373],[-45.42878,-21.5645],[-45.42842,-21.56475],[-45.42823,-21.56499],[-45.42798,-21.56483],[-45.42776,-21.56478],[-45.42757,-21.56465],[-45.4273,-21.56452],[-45.42706,-21.56433],[-45.42687,-21.56427],[-45.42608,-21.56394],[-45.42537,-21.56376],[-45.42468,-21.5635],[-45.42456,-21.56347],[-45.42527,-21.55208],[-45.42684,-21.55281],[-45.42686,-21.55285],[-45.42762,-21.55357],[-45.42804,-21.55388],[-45.42892,-21.55379],[-45.42895,-21.55379],[-45.42948,-21.55404],[-45.42953,-21.5541],[-45.43025,-21.55533],[-45.43124,-21.55545],[-45.43189,-21.55557]]],[[[-45.42619,-21.56646],[-45.42582,-21.56686],[-45.42546,-21.56722],[-45.42619,-21.56646]]]]}},{"type":"Feature","properties":{"territory_id":"mg-3170701-padre-vitor","name":"Padre Vítor","municipality_id":"mg-3170701","polling_places":1,"approx":false,"official":true,"method":"official-ibge-cd2022","whole_municipality":false,"approx_coords_only":false,"official_name":"Padre Vitor","official_code":"3170701020","match":"direct"},"geometry":{"type":"MultiPolygon","coordinates":[[[[-45.41167,-21.57634],[-45.41216,-21.57604],[-45.41303,-21.57543],[-45.41398,-21.575],[-45.41495,-21.57464],[-45.41562,-21.57455],[-45.4164,-21.57453],[-45.41609,-21.57384],[-45.41584,-21.57341],[-45.41562,-21.57308],[-45.41545,-21.57155],[-45.41544,-21.57097],[-45.41547,-21.57037],[-45.41535,-21.56982],[-45.41518,-21.56941],[-45.41501,-21.56885],[-45.41506,-21.56777],[-45.41063,-21.56982],[-45.4105,-21.56989],[-45.41051,-21.56991],[-45.41045,-21.56991],[-45.40986,-21.57019],[-45.40944,-21.57041],[-45.40933,-21.57063],[-45.40924,-21.57109],[-45.40973,-21.57217],[-45.40956,-21.57225],[-45.40709,-21.5735],[-45.40081,-21.57634],[-45.39893,-21.57731],[-45.3984,-21.57644],[-45.39754,-21.57515],[-45.39497,-21.57718],[-45.39539,-21.57864],[-45.39571,-21.57988],[-45.39587,-21.58028],[-45.39864,-21.57807],[-45.39944,-21.57922],[-45.39965,-21.5788],[-45.39995,-21.57844],[-45.40089,-21.57851],[-45.40189,-21.57866],[-45.40232,-21.57869],[-45.40503,-21.5778],[-45.40833,-21.57777],[-45.41025,-21.57701],[-45.41108,-21.57666],[-45.41167,-21.57634]]]]}},{"type":"Feature","properties":{"territory_id":"mg-3170701-santana","name":"Santana","municipality_id":"mg-3170701","polling_places":1,"approx":false,"official":true,"method":"official-ibge-cd2022","whole_municipality":false,"approx_coords_only":false,"official_name":"Santana","official_code":"3170701018","match":"direct"},"geometry":{"type":"MultiPolygon","coordinates":[[[[-45.42582,-21.56686],[-45.42546,-21.56722],[-45.42514,-21.56763],[-45.42489,-21.5679],[-45.42465,-21.56828],[-45.4245,-21.56867],[-45.42438,-21.56883],[-45.42397,-21.56959],[-45.42304,-21.57122],[-45.42284,-21.57145],[-45.42263,-21.5717],[-45.42187,-21.57228],[-45.42152,-21.57235],[-45.42099,-21.57248],[-45.42125,-21.57256],[-45.42139,-21.57256],[-45.42157,-21.57259],[-45.42187,-21.57268],[-45.42215,-21.57294],[-45.42252,-21.57346],[-45.42291,-21.57327],[-45.42378,-21.57422],[-45.42406,-21.57472],[-45.42423,-21.57507],[-45.42457,-21.57613],[-45.42495,-21.57579],[-45.4253,-21.57599],[-45.42541,-21.57751],[-45.42646,-21.578],[-45.42606,-21.57885],[-45.42753,-21.57874],[-45.42762,-21.57908],[-45.4278,-21.579],[-45.42793,-21.57904],[-45.42799,-21.57916],[-45.42801,-21.57935],[-45.42822,-21.57954],[-45.42841,-21.57942],[-45.42837,-21.57927],[-45.42845,-21.57911],[-45.42836,-21.57898],[-45.4284,-21.57886],[-45.4285,-21.57875],[-45.42861,-21.57866],[-45.42886,-21.5784],[-45.42889,-21.57825],[-45.42889,-21.57808],[-45.42881,-21.57799],[-45.4286,-21.57786],[-45.42848,-21.57769],[-45.42849,-21.57755],[-45.42864,-21.57746],[-45.42876,-21.57731],[-45.42871,-21.57717],[-45.42855,-21.57718],[-45.42848,-21.57707],[-45.4286,-21.57691],[-45.42863,-21.57671],[-45.42854,-21.57651],[-45.42867,-21.57634],[-45.42893,-21.57625],[-45.42917,-21.57629],[-45.42934,-21.57629],[-45.42953,-21.57623],[-45.42962,-21.57598],[-45.42962,-21.57568],[-45.42968,-21.57541],[-45.42993,-21.57519],[-45.43029,-21.57504],[-45.4305,-21.57492],[-45.43058,-21.57473],[-45.43054,-21.57453],[-45.43044,-21.57433],[-45.43007,-21.57415],[-45.42998,-21.57406],[-45.43,-21.57387],[-45.43011,-21.57366],[-45.43031,-21.57343],[-45.43057,-21.57323],[-45.43067,-21.5729],[-45.43052,-21.57246],[-45.43064,-21.5722],[-45.43064,-21.57195],[-45.43044,-21.57154],[-45.43034,-21.57102],[-45.43033,-21.57069],[-45.43042,-21.57006],[-45.43057,-21.56945],[-45.43042,-21.56855],[-45.43012,-21.56801],[-45.42982,-21.56752],[-45.42913,-21.56675],[-45.42893,-21.56641],[-45.42886,-21.56617],[-45.42881,-21.56588],[-45.4287,-21.56546],[-45.4284,-21.56528],[-45.42823,-21.56499],[-45.42798,-21.56483],[-45.42776,-21.56478],[-45.42757,-21.56465],[-45.4273,-21.56452],[-45.42702,-21.56481],[-45.42694,-21.56493],[-45.42678,-21.56503],[-45.42637,-21.56544],[-45.42633,-21.56585],[-45.42619,-21.56646],[-45.42582,-21.56686]]]]}},{"type":"Feature","properties":{"territory_id":"mg-3170701-sion","name":"Sion","municipality_id":"mg-3170701","polling_places":1,"approx":false,"official":true,"method":"official-ibge-cd2022","whole_municipality":false,"approx_coords_only":false,"official_name":"Sion","official_code":"3170701019","match":"direct"},"geometry":{"type":"MultiPolygon","coordinates":[[[[-45.41545,-21.57155],[-45.41562,-21.57308],[-45.41584,-21.57341],[-45.41609,-21.57384],[-45.4164,-21.57453],[-45.41682,-21.57445],[-45.41727,-21.57429],[-45.41808,-21.57387],[-45.41923,-21.57323],[-45.41992,-21.57287],[-45.4203,-21.57268],[-45.42099,-21.57248],[-45.42152,-21.57235],[-45.42187,-21.57228],[-45.42263,-21.5717],[-45.42304,-21.57122],[-45.42397,-21.56959],[-45.42438,-21.56883],[-45.4245,-21.56867],[-45.42465,-21.56828],[-45.42489,-21.5679],[-45.42514,-21.56763],[-45.42546,-21.56722],[-45.42619,-21.56646],[-45.42633,-21.56585],[-45.42637,-21.56544],[-45.42678,-21.56503],[-45.42694,-21.56493],[-45.42702,-21.56481],[-45.4273,-21.56452],[-45.42706,-21.56433],[-45.42687,-21.56427],[-45.42608,-21.56394],[-45.42537,-21.56376],[-45.42468,-21.5635],[-45.42418,-21.56339],[-45.42378,-21.56333],[-45.42338,-21.56316],[-45.42308,-21.56314],[-45.42276,-21.56308],[-45.42234,-21.56301],[-45.42219,-21.56277],[-45.42202,-21.56268],[-45.42187,-21.56247],[-45.42184,-21.56222],[-45.42178,-21.56205],[-45.42158,-21.56187],[-45.42152,-21.56175],[-45.42146,-21.56159],[-45.42104,-21.56166],[-45.4207,-21.56168],[-45.4201,-21.56183],[-45.41997,-21.56181],[-45.41932,-21.56199],[-45.41751,-21.56231],[-45.41704,-21.56243],[-45.41648,-21.5627],[-45.41524,-21.5632],[-45.41359,-21.56391],[-45.41372,-21.56406],[-45.41471,-21.56443],[-45.41528,-21.56468],[-45.41507,-21.56683],[-45.41506,-21.56777],[-45.41501,-21.56885],[-45.41518,-21.56941],[-45.41535,-21.56982],[-45.41547,-21.57037],[-45.41544,-21.57097],[-45.41545,-21.57155]]]]}},{"type":"Feature","properties":{"territory_id":"mg-3170701-vila-adelaide","name":"Vila Adelaide","municipality_id":"mg-3170701","polling_places":1,"approx":true,"official":false,"method":"voronoi-polling-places","whole_municipality":false,"approx_coords_only":false},"geometry":{"type":"MultiPolygon","coordinates":[[[[-45.46501,-21.58263],[-45.44249,-21.58094],[-45.44442,-21.57142],[-45.4445,-21.57139],[-45.44577,-21.57084],[-45.44552,-21.57016],[-45.44562,-21.57007],[-45.44595,-21.56997],[-45.44615,-21.57001],[-45.44731,-21.57014],[-45.44767,-21.5701],[-45.44787,-21.57005],[-45.44812,-21.56987],[-45.44753,-21.56893],[-45.44732,-21.56845],[-45.44723,-21.56816],[-45.44704,-21.56716],[-45.447,-21.56677],[-45.44715,-21.56638],[-45.44741,-21.56586],[-45.44762,-21.56554],[-45.44772,-21.5653],[-45.44775,-21.56497],[-45.44755,-21.56452],[-45.45936,-21.56573],[-45.46501,-21.58263]]]]}},{"type":"Feature","properties":{"territory_id":"mg-3170701-vila-barcelona","name":"Vila Barcelona","municipality_id":"mg-3170701","polling_places":2,"approx":false,"official":true,"method":"official-ibge-cd2022","whole_municipality":false,"approx_coords_only":false,"official_name":"Barcelona","official_code":"3170701014","match":"prefix"},"geometry":{"type":"MultiPolygon","coordinates":[[[[-45.4316,-21.54591],[-45.43192,-21.54457],[-45.43206,-21.54382],[-45.43222,-21.54324],[-45.43238,-21.54296],[-45.43254,-21.54274],[-45.43337,-21.54192],[-45.4332,-21.54183],[-45.43304,-21.54183],[-45.43296,-21.54177],[-45.43294,-21.54168],[-45.4328,-21.54158],[-45.43269,-21.54148],[-45.43273,-21.54126],[-45.43197,-21.54155],[-45.43165,-21.54162],[-45.4313,-21.54152],[-45.43106,-21.54138],[-45.43086,-21.54114],[-45.43093,-21.54086],[-45.43099,-21.54069],[-45.43008,-21.53999],[-45.42996,-21.54002],[-45.42993,-21.54037],[-45.42943,-21.5403],[-45.42739,-21.54006],[-45.42585,-21.53985],[-45.42509,-21.53986],[-45.42508,-21.54004],[-45.42527,-21.54057],[-45.42535,-21.54091],[-45.42528,-21.54124],[-45.42513,-21.54162],[-45.42507,-21.54187],[-45.42505,-21.54216],[-45.42507,-21.54248],[-45.42512,-21.54278],[-45.42511,-21.54304],[-45.42498,-21.54338],[-45.42494,-21.54364],[-45.42459,-21.54387],[-45.42425,-21.54417],[-45.42422,-21.54447],[-45.42443,-21.54477],[-45.42465,-21.54516],[-45.4247,-21.54539],[-45.42459,-21.54581],[-45.42447,-21.54611],[-45.42446,-21.54638],[-45.42449,-21.54683],[-45.42445,-21.54795],[-45.42433,-21.54838],[-45.42421,-21.54886],[-45.42418,-21.54941],[-45.4242,-21.54975],[-45.42485,-21.55065],[-45.42517,-21.55103],[-45.42535,-21.55119],[-45.42617,-21.55189],[-45.4266,-21.55228],[-45.42661,-21.55256],[-45.42667,-21.55264],[-45.42675,-21.55265],[-45.42686,-21.55285],[-45.42762,-21.55357],[-45.42804,-21.55388],[-45.42892,-21.55379],[-45.42921,-21.55382],[-45.42932,-21.55381],[-45.42953,-21.5541],[-45.43025,-21.55533],[-45.43124,-21.55545],[-45.43189,-21.55557],[-45.43207,-21.55546],[-45.43249,-21.5553],[-45.43296,-21.55513],[-45.43439,-21.55472],[-45.43471,-21.55459],[-45.4349,-21.55334],[-45.43503,-21.55283],[-45.43495,-21.55203],[-45.43489,-21.55165],[-45.43479,-21.55136],[-45.4346,-21.55154],[-45.43374,-21.55174],[-45.43372,-21.55156],[-45.43344,-21.55011],[-45.4333,-21.54955],[-45.43328,-21.54935],[-45.43299,-21.54786],[-45.43297,-21.54736],[-45.43302,-21.54717],[-45.43321,-21.54668],[-45.43299,-21.54668],[-45.43261,-21.54655],[-45.43153,-21.54611],[-45.4316,-21.54591]]]]}},{"type":"Feature","properties":{"territory_id":"mg-3170701-vila-bueno","name":"Vila Bueno","municipality_id":"mg-3170701","polling_places":2,"approx":true,"official":false,"method":"voronoi-polling-places","whole_municipality":false,"approx_coords_only":false},"geometry":{"type":"MultiPolygon","coordinates":[[[[-45.44676,-21.56075],[-45.44603,-21.56253],[-45.44602,-21.56265],[-45.44597,-21.56261],[-45.4457,-21.56296],[-45.44546,-21.56334],[-45.44473,-21.56294],[-45.44447,-21.56282],[-45.44289,-21.56491],[-45.443,-21.56554],[-45.44269,-21.56567],[-45.44118,-21.56591],[-45.44068,-21.56601],[-45.44003,-21.56609],[-45.43891,-21.56651],[-45.43876,-21.56658],[-45.44098,-21.56278],[-45.44091,-21.55956],[-45.4414,-21.55977],[-45.44176,-21.55997],[-45.44347,-21.56107],[-45.44403,-21.56148],[-45.44452,-21.56081],[-45.44513,-21.55988],[-45.44528,-21.5596],[-45.44544,-21.55904],[-45.44585,-21.55859],[-45.44676,-21.56075]]],[[[-45.44442,-21.57142],[-45.44249,-21.58094],[-45.44183,-21.58102],[-45.43671,-21.57699],[-45.43492,-21.57342],[-45.43685,-21.57512],[-45.43713,-21.57499],[-45.43776,-21.57405],[-45.4391,-21.57218],[-45.43925,-21.57194],[-45.43947,-21.5717],[-45.43957,-21.57219],[-45.44082,-21.57222],[-45.44145,-21.57222],[-45.44289,-21.57149],[-45.44315,-21.57138],[-45.44368,-21.57191],[-45.44384,-21.57171],[-45.44405,-21.57156],[-45.44442,-21.57142]]],[[[-45.43935,-21.57115],[-45.43917,-21.57082],[-45.43929,-21.57103],[-45.43935,-21.57115]]]]}},{"type":"Feature","properties":{"territory_id":"mg-3170701-vila-floresta","name":"Vila Floresta","municipality_id":"mg-3170701","polling_places":1,"approx":false,"official":true,"method":"official-ibge-cd2022","whole_municipality":false,"approx_coords_only":false,"official_name":"Floresta","official_code":"3170701002","match":"prefix"},"geometry":{"type":"MultiPolygon","coordinates":[[[[-45.4344,-21.56648],[-45.43581,-21.56658],[-45.43597,-21.56514],[-45.43698,-21.56518],[-45.43689,-21.56462],[-45.43679,-21.56382],[-45.43668,-21.56335],[-45.43639,-21.56298],[-45.43626,-21.56275],[-45.43616,-21.56236],[-45.43647,-21.5621],[-45.43738,-21.56125],[-45.43762,-21.561],[-45.43771,-21.56066],[-45.43767,-21.56042],[-45.43761,-21.5602],[-45.43685,-21.55891],[-45.43669,-21.55846],[-45.4363,-21.5584],[-45.43518,-21.55821],[-45.43514,-21.55846],[-45.43509,-21.55863],[-45.43482,-21.55837],[-45.4346,-21.55819],[-45.43436,-21.55807],[-45.43414,-21.55801],[-45.43392,-21.55797],[-45.43357,-21.55797],[-45.43341,-21.55802],[-45.43309,-21.55816],[-45.43267,-21.55839],[-45.43236,-21.55858],[-45.43182,-21.55886],[-45.43166,-21.55892],[-45.43116,-21.55893],[-45.43099,-21.55888],[-45.43081,-21.55879],[-45.43065,-21.55873],[-45.43048,-21.55862],[-45.43032,-21.55845],[-45.43018,-21.55828],[-45.42992,-21.55853],[-45.42949,-21.55902],[-45.42892,-21.55961],[-45.42854,-21.55997],[-45.42827,-21.56069],[-45.42814,-21.5612],[-45.42835,-21.56119],[-45.4287,-21.56135],[-45.42882,-21.56158],[-45.42889,-21.5618],[-45.42887,-21.56202],[-45.42896,-21.56237],[-45.42904,-21.5625],[-45.42902,-21.56263],[-45.42911,-21.56279],[-45.42924,-21.56286],[-45.42938,-21.56297],[-45.42949,-21.56309],[-45.42946,-21.56347],[-45.42939,-21.56373],[-45.42878,-21.5645],[-45.42842,-21.56475],[-45.42823,-21.56499],[-45.4284,-21.56528],[-45.4287,-21.56546],[-45.42881,-21.56588],[-45.42886,-21.56617],[-45.42893,-21.56641],[-45.42913,-21.56675],[-45.42973,-21.56742],[-45.4326,-21.56647],[-45.43323,-21.56646],[-45.43381,-21.56648],[-45.4344,-21.56648]]]]}},{"type":"Feature","properties":{"territory_id":"mg-3170701-vila-murad","name":"Vila Murad","municipality_id":"mg-3170701","polling_places":1,"approx":true,"official":false,"method":"voronoi-polling-places","whole_municipality":false,"approx_coords_only":false},"geometry":{"type":"MultiPolygon","coordinates":[[[[-45.45906,-21.54904],[-45.45862,-21.56328],[-45.44676,-21.56075],[-45.44585,-21.55859],[-45.44594,-21.55848],[-45.44649,-21.55783],[-45.44742,-21.55674],[-45.44833,-21.55575],[-45.44858,-21.55589],[-45.44923,-21.55511],[-45.44969,-21.55545],[-45.45002,-21.55484],[-45.44947,-21.55452],[-45.44765,-21.55318],[-45.44795,-21.55279],[-45.44844,-21.55223],[-45.44854,-21.55209],[-45.44922,-21.55139],[-45.44961,-21.55069],[-45.44986,-21.55029],[-45.45023,-21.55002],[-45.45068,-21.54979],[-45.45065,-21.54974],[-45.45227,-21.54897],[-45.45906,-21.54904]]]]}},{"type":"Feature","properties":{"territory_id":"mg-3170701-vila-nogueira","name":"Vila Nogueira","municipality_id":"mg-3170701","polling_places":1,"approx":true,"official":false,"method":"voronoi-polling-places","whole_municipality":false,"approx_coords_only":false},"geometry":{"type":"MultiPolygon","coordinates":[[[[-45.44098,-21.56278],[-45.43876,-21.56658],[-45.43815,-21.56683],[-45.43757,-21.56735],[-45.43731,-21.5674],[-45.43694,-21.56741],[-45.43692,-21.56755],[-45.43694,-21.56728],[-45.43691,-21.56712],[-45.4369,-21.56683],[-45.43698,-21.56518],[-45.43689,-21.56462],[-45.43679,-21.56382],[-45.43668,-21.56335],[-45.43639,-21.56298],[-45.43672,-21.56267],[-45.43788,-21.56151],[-45.43882,-21.56056],[-45.43965,-21.55966],[-45.43989,-21.55946],[-45.44023,-21.55912],[-45.4406,-21.55884],[-45.44078,-21.55951],[-45.44091,-21.55956],[-45.44098,-21.56278]]],[[[-45.43988,-21.55364],[-45.43982,-21.55377],[-45.43973,-21.55395],[-45.43988,-21.55364]]]]}},{"type":"Feature","properties":{"territory_id":"mg-3170701-vila-paiva","name":"Vila Paiva","municipality_id":"mg-3170701","polling_places":1,"approx":true,"official":false,"method":"voronoi-polling-places","whole_municipality":false,"approx_coords_only":false},"geometry":{"type":"MultiPolygon","coordinates":[[[[-45.45227,-21.54897],[-45.45065,-21.54974],[-45.44991,-21.54863],[-45.44951,-21.54811],[-45.44914,-21.54839],[-45.44809,-21.54785],[-45.44756,-21.54763],[-45.4455,-21.54663],[-45.44476,-21.54624],[-45.44408,-21.54594],[-45.44368,-21.54665],[-45.44308,-21.54766],[-45.44267,-21.54831],[-45.44202,-21.54944],[-45.44183,-21.54939],[-45.44142,-21.54919],[-45.44117,-21.54904],[-45.44101,-21.54916],[-45.44061,-21.54958],[-45.44043,-21.54993],[-45.44036,-21.5502],[-45.44019,-21.55047],[-45.44,-21.55072],[-45.43979,-21.55093],[-45.43945,-21.55121],[-45.43254,-21.52469],[-45.43833,-21.52982],[-45.45227,-21.54897]]]]}},{"type":"Feature","properties":{"territory_id":"mg-3170701-vila-pinto","name":"Vila Pinto","municipality_id":"mg-3170701","polling_places":2,"approx":false,"official":true,"method":"official-ibge-cd2022","whole_municipality":false,"approx_coords_only":false,"official_name":"Vila Pinto","official_code":"3170701009","match":"direct"},"geometry":{"type":"MultiPolygon","coordinates":[[[[-45.44513,-21.55988],[-45.44528,-21.5596],[-45.44544,-21.55904],[-45.44594,-21.55848],[-45.44649,-21.55783],[-45.44742,-21.55674],[-45.44833,-21.55575],[-45.44858,-21.55589],[-45.44923,-21.55511],[-45.44969,-21.55545],[-45.45002,-21.55484],[-45.44947,-21.55452],[-45.44765,-21.55318],[-45.44711,-21.55289],[-45.44699,-21.55317],[-45.44695,-21.55333],[-45.447,-21.55349],[-45.44715,-21.55364],[-45.44798,-21.55422],[-45.4479,-21.55472],[-45.4476,-21.5549],[-45.44722,-21.55505],[-45.44678,-21.55408],[-45.4466,-21.55361],[-45.44648,-21.55339],[-45.44632,-21.55319],[-45.4461,-21.55342],[-45.44586,-21.55354],[-45.44547,-21.55361],[-45.4454,-21.55366],[-45.445,-21.55371],[-45.44466,-21.55368],[-45.44409,-21.55347],[-45.44358,-21.55332],[-45.44332,-21.55342],[-45.44269,-21.55371],[-45.44235,-21.55382],[-45.44225,-21.55394],[-45.44196,-21.55411],[-45.44151,-21.55466],[-45.44117,-21.55448],[-45.44076,-21.55423],[-45.44039,-21.55397],[-45.43982,-21.55377],[-45.43943,-21.55459],[-45.43994,-21.55654],[-45.44018,-21.55728],[-45.44078,-21.55951],[-45.4414,-21.55977],[-45.44176,-21.55997],[-45.44347,-21.56107],[-45.44403,-21.56148],[-45.44452,-21.56081],[-45.44513,-21.55988]]]]}},{"type":"Feature","properties":{"territory_id":"mg-3170701-vila-registanea","name":"Vila Registânea","municipality_id":"mg-3170701","polling_places":1,"approx":true,"official":false,"method":"voronoi-polling-places","whole_municipality":false,"approx_coords_only":false},"geometry":{"type":"MultiPolygon","coordinates":[[[[-45.43945,-21.55121],[-45.43917,-21.55144],[-45.43838,-21.55203],[-45.43815,-21.55223],[-45.43782,-21.55249],[-45.43702,-21.55365],[-45.43673,-21.55394],[-45.43645,-21.5541],[-45.43563,-21.55434],[-45.43532,-21.55438],[-45.43471,-21.55459],[-45.4349,-21.55334],[-45.43503,-21.55283],[-45.43495,-21.55203],[-45.43489,-21.55165],[-45.43479,-21.55136],[-45.4346,-21.55154],[-45.43374,-21.55174],[-45.43372,-21.55156],[-45.43344,-21.55011],[-45.4333,-21.54955],[-45.43328,-21.54935],[-45.43299,-21.54786],[-45.43297,-21.54736],[-45.43302,-21.54717],[-45.43321,-21.54668],[-45.43299,-21.54668],[-45.43261,-21.54655],[-45.43153,-21.54611],[-45.4316,-21.54591],[-45.43192,-21.54457],[-45.43206,-21.54382],[-45.43222,-21.54324],[-45.43238,-21.54296],[-45.43254,-21.54274],[-45.43337,-21.54192],[-45.4332,-21.54183],[-45.43304,-21.54183],[-45.43296,-21.54177],[-45.43294,-21.54168],[-45.4328,-21.54158],[-45.43269,-21.54148],[-45.43273,-21.54126],[-45.43197,-21.54155],[-45.43165,-21.54162],[-45.4313,-21.54152],[-45.43106,-21.54138],[-45.43086,-21.54114],[-45.43093,-21.54086],[-45.43099,-21.54069],[-45.43008,-21.53999],[-45.42996,-21.54002],[-45.42993,-21.54037],[-45.42943,-21.5403],[-45.42739,-21.54006],[-45.42585,-21.53985],[-45.42562,-21.53986],[-45.43218,-21.52414],[-45.43254,-21.52469],[-45.43945,-21.55121]]],[[[-45.42948,-21.55404],[-45.42895,-21.55379],[-45.42921,-21.55382],[-45.42932,-21.55381],[-45.42948,-21.55404]]],[[[-45.42684,-21.55281],[-45.42527,-21.55208],[-45.4216,-21.54949],[-45.42529,-21.54064],[-45.42535,-21.54091],[-45.42528,-21.54124],[-45.42513,-21.54162],[-45.42507,-21.54187],[-45.42505,-21.54216],[-45.42507,-21.54248],[-45.42512,-21.54278],[-45.42511,-21.54304],[-45.42498,-21.54338],[-45.42494,-21.54364],[-45.42459,-21.54387],[-45.42425,-21.54417],[-45.42422,-21.54447],[-45.42443,-21.54477],[-45.42465,-21.54516],[-45.4247,-21.54539],[-45.42459,-21.54581],[-45.42447,-21.54611],[-45.42446,-21.54638],[-45.42449,-21.54683],[-45.42445,-21.54795],[-45.42433,-21.54838],[-45.42421,-21.54886],[-45.42418,-21.54941],[-45.4242,-21.54975],[-45.42485,-21.55065],[-45.42517,-21.55103],[-45.42535,-21.55119],[-45.42617,-21.55189],[-45.4266,-21.55228],[-45.42661,-21.55256],[-45.42667,-21.55264],[-45.42675,-21.55265],[-45.42684,-21.55281]]]]}},{"type":"Feature","properties":{"territory_id":"mg-3170701-vila-sao-geraldo","name":"Vila São Geraldo","municipality_id":"mg-3170701","polling_places":1,"approx":true,"official":false,"method":"voronoi-polling-places","whole_municipality":false,"approx_coords_only":false},"geometry":{"type":"MultiPolygon","coordinates":[[[[-45.46587,-21.54322],[-45.45906,-21.54904],[-45.45227,-21.54897],[-45.43833,-21.52982],[-45.46587,-21.54322]]]]}},{"type":"Feature","properties":{"territory_id":"mg-3170701-vila-verde","name":"Vila Verde","municipality_id":"mg-3170701","polling_places":1,"approx":true,"official":false,"method":"voronoi-polling-places","whole_municipality":false,"approx_coords_only":false},"geometry":{"type":"MultiPolygon","coordinates":[[[[-45.45936,-21.56573],[-45.44755,-21.56452],[-45.44717,-21.56366],[-45.44701,-21.56343],[-45.4466,-21.56322],[-45.44602,-21.56265],[-45.44603,-21.56253],[-45.44676,-21.56075],[-45.45862,-21.56328],[-45.45936,-21.56573]]]]}}]}