{"type":"FeatureCollection","features":[{"type":"Feature","properties":{"territory_id":"mg-3170503-bom-jesus-de-cardosos","name":"Bom Jesus de Cardosos","municipality_id":"mg-3170503","polling_places":1,"approx":true,"official":false,"method":"voronoi-polling-places","whole_municipality":false,"approx_coords_only":false},"geometry":{"type":"MultiPolygon","coordinates":[[[[-42.8068,-20.3178],[-42.7873,-20.3655],[-42.76686,-20.38126],[-42.75783,-20.33946],[-42.75265,-20.2718],[-42.7626,-20.2693],[-42.8068,-20.3178]]]]}},{"type":"Feature","properties":{"territory_id":"mg-3170503-centro","name":"Centro","municipality_id":"mg-3170503","polling_places":3,"approx":true,"official":false,"method":"voronoi-polling-places","whole_municipality":false,"approx_coords_only":false},"geometry":{"type":"MultiPolygon","coordinates":[[[[-42.76686,-20.38126],[-42.7458,-20.3975],[-42.7162,-20.3849],[-42.6892,-20.3444],[-42.6643,-20.327],[-42.6512,-20.2767],[-42.6653,-20.2677],[-42.6778,-20.2906],[-42.75265,-20.2718],[-42.75783,-20.33946],[-42.76686,-20.38126]]]]}}]}