{"type":"FeatureCollection","features":[{"type":"Feature","properties":{"territory_id":"mg-3170529-centro","name":"Centro","municipality_id":"mg-3170529","polling_places":3,"approx":true,"official":false,"method":"voronoi-polling-places","whole_municipality":false,"approx_coords_only":false},"geometry":{"type":"MultiPolygon","coordinates":[[[[-45.9061,-16.107],[-45.8964,-16.1473],[-45.8628,-16.1693],[-45.832,-16.1524],[-45.7998,-16.1744],[-45.7516,-16.1293],[-45.6935,-16.1499],[-45.6552,-16.1827],[-45.6147,-16.1774],[-45.57473,-16.21651],[-45.56728,-16.19657],[-45.55847,-16.17514],[-45.64296,-16.03357],[-45.78757,-15.99263],[-45.8057,-16.0621],[-45.80706,-16.06305],[-45.74095,-16.12137],[-45.73216,-16.12913],[-45.73945,-16.12889],[-45.74095,-16.12774],[-45.81694,-16.06995],[-45.8422,-16.0876],[-45.9061,-16.107]]]]}},{"type":"Feature","properties":{"territory_id":"mg-3170529-comunidade","name":"Comunidade","municipality_id":"mg-3170529","polling_places":4,"approx":true,"official":false,"method":"voronoi-polling-places","whole_municipality":false,"approx_coords_only":false},"geometry":{"type":"MultiPolygon","coordinates":[[[[-45.74095,-16.12774],[-45.73945,-16.12889],[-45.73216,-16.12913],[-45.74095,-16.12137],[-45.74095,-16.12774]]],[[[-45.64296,-16.03357],[-45.55847,-16.17514],[-45.56728,-16.19657],[-45.57473,-16.21651],[-45.5682,-16.2229],[-45.5053,-16.2579],[-45.4838,-16.3008],[-45.4233,-16.2793],[-45.3659,-16.325],[-45.3039,-16.2679],[-45.3173,-16.2693],[-45.3616,-16.2232],[-45.3621,-16.1521],[-45.3942,-16.1238],[-45.3668,-16.0875],[-45.3863,-16.0461],[-45.4207,-16.0165],[-45.4376,-15.982],[-45.4151,-15.9267],[-45.366,-15.8894],[-45.3867,-15.8886],[-45.45548,-15.79425],[-45.56502,-15.88668],[-45.64296,-16.03357]]]]}},{"type":"Feature","properties":{"territory_id":"mg-3170529-distrito","name":"Distrito","municipality_id":"mg-3170529","polling_places":1,"approx":true,"official":false,"method":"voronoi-polling-places","whole_municipality":false,"approx_coords_only":false},"geometry":{"type":"MultiPolygon","coordinates":[[[[-45.78757,-15.99263],[-45.64296,-16.03357],[-45.56502,-15.88668],[-45.71687,-15.85976],[-45.7221,-15.8659],[-45.7374,-15.9103],[-45.7767,-15.951],[-45.78757,-15.99263]]]]}},{"type":"Feature","properties":{"territory_id":"mg-3170529-zona-rural","name":"Zona Rural","municipality_id":"mg-3170529","polling_places":2,"approx":true,"official":false,"method":"voronoi-polling-places","whole_municipality":false,"approx_coords_only":false},"geometry":{"type":"MultiPolygon","coordinates":[[[[-45.81694,-16.06995],[-45.74095,-16.12774],[-45.74095,-16.12137],[-45.80706,-16.06305],[-45.81694,-16.06995]]],[[[-45.71687,-15.85976],[-45.56502,-15.88668],[-45.45548,-15.79425],[-45.4655,-15.7805],[-45.5084,-15.7658],[-45.5861,-15.7184],[-45.6583,-15.791],[-45.71687,-15.85976]]]]}}]}