{"type":"FeatureCollection","features":[{"type":"Feature","properties":{"territory_id":"mg-3171154-centro","name":"Centro","municipality_id":"mg-3171154","polling_places":3,"approx":true,"official":false,"method":"voronoi-polling-places","whole_municipality":true,"approx_coords_only":false},"geometry":{"type":"MultiPolygon","coordinates":[[[[-42.1974,-20.0035],[-42.25,-19.9831],[-42.2644,-19.9996],[-42.3108,-20.0077],[-42.324,-20.053],[-42.2842,-20.0781],[-42.2478,-20.0838],[-42.2099,-20.0894],[-42.1974,-20.0035]]]]}}]}