{"type":"FeatureCollection","features":[{"type":"Feature","properties":{"territory_id":"mg-3171006-centro","name":"Centro","municipality_id":"mg-3171006","polling_places":2,"approx":true,"official":false,"method":"voronoi-polling-places","whole_municipality":false,"approx_coords_only":false},"geometry":{"type":"MultiPolygon","coordinates":[[[[-47.09088,-18.1763],[-46.90692,-17.99223],[-46.90531,-17.98984],[-46.90458,-17.98939],[-46.89737,-17.9816],[-46.86841,-17.8767],[-46.8927,-17.87081],[-46.93851,-17.94539],[-47.09088,-18.1763]]]]}},{"type":"Feature","properties":{"territory_id":"mg-3171006-distrito-de-claro-de-minas","name":"Distrito de Claro de Minas","municipality_id":"mg-3171006","polling_places":1,"approx":true,"official":false,"method":"voronoi-polling-places","whole_municipality":false,"approx_coords_only":false},"geometry":{"type":"MultiPolygon","coordinates":[[[[-47.1742,-18.0002],[-47.157,-18.0132],[-47.0881,-18.1202],[-47.103,-18.1508],[-47.09422,-18.18119],[-47.09088,-18.1763],[-46.93851,-17.94539],[-46.8927,-17.87081],[-46.94118,-17.83227],[-46.9401,-17.8428],[-46.9697,-17.8959],[-46.9956,-17.8993],[-47.0309,-17.9343],[-47.0898,-17.9212],[-47.1626,-17.9645],[-47.1742,-18.0002]]]]}},{"type":"Feature","properties":{"territory_id":"mg-3171006-distrito-de-vazamor","name":"Distrito de Vazamor","municipality_id":"mg-3171006","polling_places":1,"approx":true,"official":false,"method":"voronoi-polling-places","whole_municipality":false,"approx_coords_only":false},"geometry":{"type":"MultiPolygon","coordinates":[[[[-46.9454,-17.7909],[-46.94118,-17.83227],[-46.8927,-17.87081],[-46.86841,-17.8767],[-46.75874,-17.89597],[-46.87988,-17.64748],[-46.8806,-17.6486],[-46.9001,-17.7035],[-46.92,-17.7157],[-46.9226,-17.7671],[-46.9454,-17.7909]]]]}},{"type":"Feature","properties":{"territory_id":"mg-3171006-independencia","name":"Independencia","municipality_id":"mg-3171006","polling_places":2,"approx":true,"official":false,"method":"voronoi-polling-places","whole_municipality":false,"approx_coords_only":false},"geometry":{"type":"MultiPolygon","coordinates":[[[[-46.90692,-17.99223],[-46.89752,-17.99444],[-46.89593,-17.99519],[-46.89737,-17.9816],[-46.90458,-17.98939],[-46.90531,-17.98984],[-46.90692,-17.99223]]]]}},{"type":"Feature","properties":{"territory_id":"mg-3171006-jardim-vitoria","name":"Jardim Vitoria","municipality_id":"mg-3171006","polling_places":1,"approx":true,"official":false,"method":"voronoi-polling-places","whole_municipality":false,"approx_coords_only":false},"geometry":{"type":"MultiPolygon","coordinates":[[[[-46.89737,-17.9816],[-46.89593,-17.99519],[-46.87116,-18.05451],[-46.8703,-18.0538],[-46.8397,-18.0017],[-46.81,-17.9703],[-46.7749,-17.9524],[-46.74571,-17.90042],[-46.75874,-17.89597],[-46.86841,-17.8767],[-46.89737,-17.9816]]]]}},{"type":"Feature","properties":{"territory_id":"mg-3171006-novo-horizonte","name":"Novo Horizonte","municipality_id":"mg-3171006","polling_places":1,"approx":true,"official":false,"method":"voronoi-polling-places","whole_municipality":false,"approx_coords_only":false},"geometry":{"type":"MultiPolygon","coordinates":[[[[-47.09422,-18.18119],[-47.0881,-18.2024],[-47.0349,-18.2124],[-47.0005,-18.1936],[-46.99,-18.2254],[-46.9506,-18.2051],[-46.9522,-18.1743],[-46.9247,-18.0674],[-46.8915,-18.0712],[-46.87116,-18.05451],[-46.89593,-17.99519],[-46.89752,-17.99444],[-46.90692,-17.99223],[-47.09088,-18.1763],[-47.09422,-18.18119]]]]}},{"type":"Feature","properties":{"territory_id":"mg-3171006-povoado-de-cabeludo","name":"Povoado de Cabeludo","municipality_id":"mg-3171006","polling_places":1,"approx":true,"official":false,"method":"voronoi-polling-places","whole_municipality":false,"approx_coords_only":false},"geometry":{"type":"MultiPolygon","coordinates":[[[[-46.84567,-17.60935],[-46.71896,-17.85277],[-46.7183,-17.8516],[-46.6869,-17.8357],[-46.6637,-17.7943],[-46.6715,-17.7706],[-46.6128,-17.7394],[-46.5743,-17.7472],[-46.6078,-17.7138],[-46.6118,-17.6537],[-46.5876,-17.5993],[-46.5852,-17.5151],[-46.6101,-17.5117],[-46.6647,-17.5379],[-46.6739,-17.5713],[-46.736,-17.6183],[-46.7793,-17.6114],[-46.797,-17.5927],[-46.84567,-17.60935]]]]}},{"type":"Feature","properties":{"territory_id":"mg-3171006-povoado-dos-bagres","name":"Povoado dos Bagres","municipality_id":"mg-3171006","polling_places":1,"approx":true,"official":false,"method":"voronoi-polling-places","whole_municipality":false,"approx_coords_only":false},"geometry":{"type":"MultiPolygon","coordinates":[[[[-46.87988,-17.64748],[-46.75874,-17.89597],[-46.74571,-17.90042],[-46.71896,-17.85277],[-46.84567,-17.60935],[-46.8581,-17.6136],[-46.87988,-17.64748]]]]}}]}