{"type":"FeatureCollection","features":[{"type":"Feature","properties":{"territory_id":"mg-3171808-bom-jesus-da-boa-vista","name":"Bom Jesus da Boa Vista","municipality_id":"mg-3171808","polling_places":1,"approx":true,"official":false,"method":"voronoi-polling-places","whole_municipality":false,"approx_coords_only":false},"geometry":{"type":"MultiPolygon","coordinates":[[[[-42.77647,-18.70738],[-42.70991,-18.74261],[-42.63821,-18.7795],[-42.6396,-18.7711],[-42.5569,-18.7262],[-42.5349,-18.7247],[-42.5743,-18.7044],[-42.6206,-18.7033],[-42.6328,-18.6643],[-42.6856,-18.6673],[-42.718,-18.6549],[-42.7201,-18.688],[-42.77647,-18.70738]]]]}},{"type":"Feature","properties":{"territory_id":"mg-3171808-centro","name":"Centro","municipality_id":"mg-3171808","polling_places":4,"approx":true,"official":false,"method":"voronoi-polling-places","whole_municipality":false,"approx_coords_only":false},"geometry":{"type":"MultiPolygon","coordinates":[[[[-42.7771,-18.7076],[-42.7598,-18.8028],[-42.7632,-18.8436],[-42.735,-18.8932],[-42.7005,-18.8882],[-42.6298,-18.9057],[-42.6004,-18.9263],[-42.5559,-18.9368],[-42.5679,-18.9136],[-42.5443,-18.8702],[-42.5754,-18.8365],[-42.6065,-18.8764],[-42.6231,-18.8711],[-42.63821,-18.7795],[-42.70991,-18.74261],[-42.77647,-18.70738],[-42.7771,-18.7076]]]]}}]}