{"type":"FeatureCollection","features":[{"type":"Feature","properties":{"territory_id":"mg-3171030-barreiro-do-rio-verde","name":"Barreiro do Rio Verde","municipality_id":"mg-3171030","polling_places":1,"approx":true,"official":false,"method":"voronoi-polling-places","whole_municipality":false,"approx_coords_only":false},"geometry":{"type":"MultiPolygon","coordinates":[[[[-43.69283,-15.63454],[-43.5248,-15.67248],[-43.5085,-15.6624],[-43.46172,-15.60898],[-43.61363,-15.60435],[-43.69283,-15.63454]]]]}},{"type":"Feature","properties":{"territory_id":"mg-3171030-cachoeirinha","name":"Cachoeirinha","municipality_id":"mg-3171030","polling_places":1,"approx":true,"official":false,"method":"voronoi-polling-places","whole_municipality":false,"approx_coords_only":false},"geometry":{"type":"MultiPolygon","coordinates":[[[[-43.72862,-15.62723],[-43.72106,-15.63241],[-43.69283,-15.63454],[-43.61363,-15.60435],[-43.59814,-15.58139],[-43.63963,-15.55264],[-43.72862,-15.62723]]]]}},{"type":"Feature","properties":{"territory_id":"mg-3171030-comunidade-agreste","name":"Comunidade Agreste","municipality_id":"mg-3171030","polling_places":1,"approx":true,"official":false,"method":"voronoi-polling-places","whole_municipality":false,"approx_coords_only":true},"geometry":{"type":"MultiPolygon","coordinates":[[[[-43.63963,-15.55264],[-43.59814,-15.58139],[-43.45582,-15.60223],[-43.3931,-15.5306],[-43.3879,-15.4997],[-43.3632,-15.467],[-43.3836,-15.4403],[-43.401,-15.3897],[-43.40903,-15.38377],[-43.61769,-15.52015],[-43.63963,-15.55264]]]]}},{"type":"Feature","properties":{"territory_id":"mg-3171030-comunidade-amargoso","name":"Comunidade Amargoso","municipality_id":"mg-3171030","polling_places":1,"approx":true,"official":false,"method":"voronoi-polling-places","whole_municipality":false,"approx_coords_only":false},"geometry":{"type":"MultiPolygon","coordinates":[[[[-43.82066,-15.42302],[-43.61769,-15.52015],[-43.40903,-15.38377],[-43.4426,-15.359],[-43.6463,-15.4008],[-43.6605,-15.3775],[-43.7336,-15.3778],[-43.7631,-15.4143],[-43.8038,-15.4146],[-43.82066,-15.42302]]]]}},{"type":"Feature","properties":{"territory_id":"mg-3171030-comunidade-limeira","name":"Comunidade Limeira","municipality_id":"mg-3171030","polling_places":1,"approx":true,"official":false,"method":"voronoi-polling-places","whole_municipality":false,"approx_coords_only":false},"geometry":{"type":"MultiPolygon","coordinates":[[[[-43.8408,-15.6453],[-43.806,-15.6919],[-43.7952,-15.7312],[-43.7614,-15.7799],[-43.6981,-15.7301],[-43.6663,-15.7312],[-43.66542,-15.73041],[-43.72106,-15.63241],[-43.72862,-15.62723],[-43.82608,-15.60543],[-43.8336,-15.6122],[-43.8408,-15.6453]]]]}},{"type":"Feature","properties":{"territory_id":"mg-3171030-janaiba","name":"Janaíba","municipality_id":"mg-3171030","polling_places":1,"approx":true,"official":false,"method":"voronoi-polling-places","whole_municipality":false,"approx_coords_only":false},"geometry":{"type":"MultiPolygon","coordinates":[[[[-43.61363,-15.60435],[-43.46172,-15.60898],[-43.45582,-15.60223],[-43.59814,-15.58139],[-43.61363,-15.60435]]]]}},{"type":"Feature","properties":{"territory_id":"mg-3171030-zona-rural","name":"Zona Rural","municipality_id":"mg-3171030","polling_places":3,"approx":true,"official":false,"method":"voronoi-polling-places","whole_municipality":false,"approx_coords_only":false},"geometry":{"type":"MultiPolygon","coordinates":[[[[-43.9092,-15.4947],[-43.8805,-15.4905],[-43.8373,-15.5236],[-43.7764,-15.5387],[-43.7734,-15.558],[-43.82608,-15.60543],[-43.72862,-15.62723],[-43.63963,-15.55264],[-43.61769,-15.52015],[-43.82066,-15.42302],[-43.8633,-15.4443],[-43.9092,-15.4947]]],[[[-43.72106,-15.63241],[-43.66542,-15.73041],[-43.6435,-15.7107],[-43.6026,-15.7206],[-43.5248,-15.67248],[-43.69283,-15.63454],[-43.72106,-15.63241]]]]}}]}