{"type":"FeatureCollection","features":[{"type":"Feature","properties":{"territory_id":"mg-3171303-barrinha","name":"Barrinha","municipality_id":"mg-3171303","polling_places":1,"approx":true,"official":false,"method":"voronoi-polling-places","whole_municipality":false,"approx_coords_only":false},"geometry":{"type":"MultiPolygon","coordinates":[[[[-42.89387,-20.76129],[-42.89278,-20.7628],[-42.88502,-20.7633],[-42.88352,-20.76076],[-42.88457,-20.75828],[-42.89387,-20.76129]]]]}},{"type":"Feature","properties":{"territory_id":"mg-3171303-bela-vista","name":"Bela Vista","municipality_id":"mg-3171303","polling_places":1,"approx":true,"official":false,"method":"voronoi-polling-places","whole_municipality":false,"approx_coords_only":false},"geometry":{"type":"MultiPolygon","coordinates":[[[[-42.87912,-20.76244],[-42.87907,-20.76302],[-42.87421,-20.7708],[-42.86752,-20.77725],[-42.87024,-20.7573],[-42.87321,-20.75781],[-42.87912,-20.76244]]]]}},{"type":"Feature","properties":{"territory_id":"mg-3171303-bom-jesus","name":"Bom Jesus","municipality_id":"mg-3171303","polling_places":1,"approx":true,"official":false,"method":"voronoi-polling-places","whole_municipality":false,"approx_coords_only":false},"geometry":{"type":"MultiPolygon","coordinates":[[[[-42.89063,-20.78357],[-42.86654,-20.77969],[-42.86752,-20.77725],[-42.87421,-20.7708],[-42.88276,-20.76647],[-42.88402,-20.76649],[-42.88986,-20.77573],[-42.89063,-20.78357]]]]}},{"type":"Feature","properties":{"territory_id":"mg-3171303-cachoeira-de-santa-cruz","name":"Cachoeira de Santa Cruz","municipality_id":"mg-3171303","polling_places":1,"approx":true,"official":false,"method":"voronoi-polling-places","whole_municipality":false,"approx_coords_only":false},"geometry":{"type":"MultiPolygon","coordinates":[[[[-42.80417,-20.71712],[-42.80326,-20.7511],[-42.80269,-20.7597],[-42.7918,-20.7613],[-42.7536,-20.7452],[-42.7927,-20.7045],[-42.7823,-20.6732],[-42.78513,-20.67322],[-42.80417,-20.71712]]]]}},{"type":"Feature","properties":{"territory_id":"mg-3171303-centro","name":"Centro","municipality_id":"mg-3171303","polling_places":10,"approx":true,"official":false,"method":"voronoi-polling-places","whole_municipality":false,"approx_coords_only":false},"geometry":{"type":"MultiPolygon","coordinates":[[[[-42.89153,-20.74302],[-42.88752,-20.75113],[-42.88685,-20.75418],[-42.88558,-20.7553],[-42.88446,-20.75689],[-42.8828,-20.75636],[-42.88171,-20.75269],[-42.88099,-20.75231],[-42.87975,-20.75068],[-42.87993,-20.75011],[-42.88018,-20.74715],[-42.89153,-20.74302]]],[[[-42.88502,-20.7633],[-42.88402,-20.76649],[-42.88276,-20.76647],[-42.87421,-20.7708],[-42.87907,-20.76302],[-42.87912,-20.76244],[-42.87321,-20.75781],[-42.87024,-20.7573],[-42.86752,-20.77725],[-42.86654,-20.77969],[-42.83409,-20.7942],[-42.84502,-20.75283],[-42.86942,-20.75573],[-42.8699,-20.75444],[-42.8794,-20.75099],[-42.87853,-20.75651],[-42.87873,-20.75654],[-42.88157,-20.76102],[-42.88352,-20.76076],[-42.88502,-20.7633]]]]}},{"type":"Feature","properties":{"territory_id":"mg-3171303-fatima","name":"Fatima","municipality_id":"mg-3171303","polling_places":1,"approx":true,"official":false,"method":"voronoi-polling-places","whole_municipality":false,"approx_coords_only":false},"geometry":{"type":"MultiPolygon","coordinates":[[[[-42.89278,-20.7628],[-42.88986,-20.77573],[-42.88402,-20.76649],[-42.88502,-20.7633],[-42.89278,-20.7628]]]]}},{"type":"Feature","properties":{"territory_id":"mg-3171303-jk","name":"Jk","municipality_id":"mg-3171303","polling_places":1,"approx":true,"official":false,"method":"voronoi-polling-places","whole_municipality":false,"approx_coords_only":false},"geometry":{"type":"MultiPolygon","coordinates":[[[[-42.9205,-20.73981],[-42.90069,-20.75772],[-42.8952,-20.76015],[-42.88685,-20.75418],[-42.88752,-20.75113],[-42.89153,-20.74302],[-42.89432,-20.74056],[-42.90766,-20.73548],[-42.9205,-20.73981]]]]}},{"type":"Feature","properties":{"territory_id":"mg-3171303-lourdes","name":"Lourdes","municipality_id":"mg-3171303","polling_places":1,"approx":true,"official":false,"method":"voronoi-polling-places","whole_municipality":false,"approx_coords_only":false},"geometry":{"type":"MultiPolygon","coordinates":[[[[-42.8952,-20.76015],[-42.89387,-20.76129],[-42.88457,-20.75828],[-42.88446,-20.75689],[-42.88558,-20.7553],[-42.88685,-20.75418],[-42.8952,-20.76015]]]]}},{"type":"Feature","properties":{"territory_id":"mg-3171303-nova-era","name":"Nova Era","municipality_id":"mg-3171303","polling_places":1,"approx":true,"official":false,"method":"voronoi-polling-places","whole_municipality":false,"approx_coords_only":false},"geometry":{"type":"MultiPolygon","coordinates":[[[[-42.89432,-20.74056],[-42.89153,-20.74302],[-42.88018,-20.74715],[-42.87125,-20.74255],[-42.86984,-20.73883],[-42.87257,-20.7358],[-42.89432,-20.74056]]]]}},{"type":"Feature","properties":{"territory_id":"mg-3171303-nova-vicosa","name":"Nova Vicosa","municipality_id":"mg-3171303","polling_places":1,"approx":true,"official":false,"method":"voronoi-polling-places","whole_municipality":false,"approx_coords_only":false},"geometry":{"type":"MultiPolygon","coordinates":[[[[-42.90069,-20.75772],[-42.8982,-20.78888],[-42.89063,-20.78357],[-42.88986,-20.77573],[-42.89278,-20.7628],[-42.89387,-20.76129],[-42.8952,-20.76015],[-42.90069,-20.75772]]]]}},{"type":"Feature","properties":{"territory_id":"mg-3171303-novo-silvestre","name":"Novo Silvestre","municipality_id":"mg-3171303","polling_places":1,"approx":true,"official":false,"method":"voronoi-polling-places","whole_municipality":false,"approx_coords_only":false},"geometry":{"type":"MultiPolygon","coordinates":[[[[-42.8828,-20.75636],[-42.88072,-20.75607],[-42.88099,-20.75231],[-42.88171,-20.75269],[-42.8828,-20.75636]]]]}},{"type":"Feature","properties":{"territory_id":"mg-3171303-posses","name":"Posses","municipality_id":"mg-3171303","polling_places":1,"approx":true,"official":false,"method":"voronoi-polling-places","whole_municipality":false,"approx_coords_only":false},"geometry":{"type":"MultiPolygon","coordinates":[[[[-42.9533,-20.75253],[-42.89891,-20.78957],[-42.8982,-20.78888],[-42.90069,-20.75772],[-42.9205,-20.73981],[-42.93432,-20.7403],[-42.9533,-20.75253]]]]}},{"type":"Feature","properties":{"territory_id":"mg-3171303-ramos","name":"Ramos","municipality_id":"mg-3171303","polling_places":1,"approx":true,"official":false,"method":"voronoi-polling-places","whole_municipality":false,"approx_coords_only":false},"geometry":{"type":"MultiPolygon","coordinates":[[[[-42.88457,-20.75828],[-42.88352,-20.76076],[-42.88157,-20.76102],[-42.87873,-20.75654],[-42.88072,-20.75607],[-42.8828,-20.75636],[-42.88446,-20.75689],[-42.88457,-20.75828]]]]}},{"type":"Feature","properties":{"territory_id":"mg-3171303-santo-antonio","name":"Santo Antonio","municipality_id":"mg-3171303","polling_places":2,"approx":true,"official":false,"method":"voronoi-polling-places","whole_municipality":false,"approx_coords_only":false},"geometry":{"type":"MultiPolygon","coordinates":[[[[-42.88018,-20.74715],[-42.87993,-20.75011],[-42.87975,-20.75068],[-42.8794,-20.75099],[-42.8699,-20.75444],[-42.86942,-20.75573],[-42.84502,-20.75283],[-42.84483,-20.75029],[-42.84459,-20.74268],[-42.85007,-20.73819],[-42.86984,-20.73883],[-42.87125,-20.74255],[-42.88018,-20.74715]]]]}},{"type":"Feature","properties":{"territory_id":"mg-3171303-sao-jose","name":"Sao Jose","municipality_id":"mg-3171303","polling_places":1,"approx":true,"official":false,"method":"voronoi-polling-places","whole_municipality":false,"approx_coords_only":false},"geometry":{"type":"MultiPolygon","coordinates":[[[[-42.90766,-20.73548],[-42.89432,-20.74056],[-42.87257,-20.7358],[-42.87441,-20.72814],[-42.8855,-20.71312],[-42.90766,-20.73548]]]]}},{"type":"Feature","properties":{"territory_id":"mg-3171303-sao-jose-do-triunfo","name":"Sao Jose do Triunfo","municipality_id":"mg-3171303","polling_places":2,"approx":true,"official":false,"method":"voronoi-polling-places","whole_municipality":false,"approx_coords_only":false},"geometry":{"type":"MultiPolygon","coordinates":[[[[-42.84502,-20.75283],[-42.83409,-20.7942],[-42.82929,-20.80005],[-42.8258,-20.7563],[-42.80269,-20.7597],[-42.80326,-20.7511],[-42.80417,-20.71712],[-42.84459,-20.74268],[-42.84483,-20.75029],[-42.84502,-20.75283]]]]}},{"type":"Feature","properties":{"territory_id":"mg-3171303-silvestre","name":"Silvestre","municipality_id":"mg-3171303","polling_places":2,"approx":true,"official":false,"method":"voronoi-polling-places","whole_municipality":false,"approx_coords_only":false},"geometry":{"type":"MultiPolygon","coordinates":[[[[-42.8855,-20.71312],[-42.87441,-20.72814],[-42.87257,-20.7358],[-42.86984,-20.73883],[-42.85007,-20.73819],[-42.85508,-20.72137],[-42.85466,-20.67893],[-42.87937,-20.69303],[-42.8855,-20.71312]]]]}},{"type":"Feature","properties":{"territory_id":"mg-3171303-zona-rural","name":"Zona Rural","municipality_id":"mg-3171303","polling_places":6,"approx":true,"official":false,"method":"voronoi-polling-places","whole_municipality":false,"approx_coords_only":false},"geometry":{"type":"MultiPolygon","coordinates":[[[[-43.0024,-20.7076],[-42.9969,-20.7564],[-42.8861,-20.8248],[-42.8451,-20.8362],[-42.83,-20.8089],[-42.82929,-20.80005],[-42.83409,-20.7942],[-42.86654,-20.77969],[-42.89063,-20.78357],[-42.8982,-20.78888],[-42.89891,-20.78957],[-42.9533,-20.75253],[-42.93432,-20.7403],[-42.9205,-20.73981],[-42.90766,-20.73548],[-42.8855,-20.71312],[-42.87937,-20.69303],[-42.883,-20.6951],[-42.911,-20.69],[-42.9296,-20.6614],[-42.9672,-20.6781],[-43.0024,-20.7076]]],[[[-42.88099,-20.75231],[-42.88072,-20.75607],[-42.87873,-20.75654],[-42.87853,-20.75651],[-42.8794,-20.75099],[-42.87975,-20.75068],[-42.88099,-20.75231]]],[[[-42.85508,-20.72137],[-42.85007,-20.73819],[-42.84459,-20.74268],[-42.80417,-20.71712],[-42.78513,-20.67322],[-42.8455,-20.6737],[-42.85466,-20.67893],[-42.85508,-20.72137]]]]}}]}