{"type":"FeatureCollection","features":[{"type":"Feature","properties":{"territory_id":"mg-3171600-barra-do-limoeiro","name":"Barra do Limoeiro","municipality_id":"mg-3171600","polling_places":1,"approx":true,"official":false,"method":"voronoi-polling-places","whole_municipality":false,"approx_coords_only":false},"geometry":{"type":"MultiPolygon","coordinates":[[[[-42.41583,-16.8045],[-42.3401,-16.8045],[-42.33992,-16.80418],[-42.4052,-16.78102],[-42.41583,-16.8045]]]]}},{"type":"Feature","properties":{"territory_id":"mg-3171600-centro","name":"Centro","municipality_id":"mg-3171600","polling_places":2,"approx":true,"official":false,"method":"voronoi-polling-places","whole_municipality":false,"approx_coords_only":false},"geometry":{"type":"MultiPolygon","coordinates":[[[[-42.36421,-16.78791],[-42.33876,-16.80427],[-42.33992,-16.80418],[-42.3401,-16.8045],[-42.33818,-16.80784],[-42.33788,-16.80455],[-42.33725,-16.80293],[-42.33943,-16.801],[-42.36421,-16.78791]]]]}},{"type":"Feature","properties":{"territory_id":"mg-3171600-povoadao-capim-branco","name":"Povoadao Capim Branco","municipality_id":"mg-3171600","polling_places":1,"approx":true,"official":false,"method":"voronoi-polling-places","whole_municipality":false,"approx_coords_only":false},"geometry":{"type":"MultiPolygon","coordinates":[[[[-42.42096,-16.77219],[-42.4004,-16.7704],[-42.4052,-16.78102],[-42.33992,-16.80418],[-42.33876,-16.80427],[-42.36421,-16.78791],[-42.41157,-16.76228],[-42.42096,-16.77219]]]]}},{"type":"Feature","properties":{"territory_id":"mg-3171600-povoado-de-cansancao","name":"Povoado de Cansancao","municipality_id":"mg-3171600","polling_places":1,"approx":true,"official":false,"method":"voronoi-polling-places","whole_municipality":false,"approx_coords_only":false},"geometry":{"type":"MultiPolygon","coordinates":[[[[-42.4228,-16.8577],[-42.3911,-16.914],[-42.3507,-16.8921],[-42.34257,-16.87373],[-42.33818,-16.80784],[-42.3401,-16.8045],[-42.41583,-16.8045],[-42.4176,-16.8084],[-42.4228,-16.8577]]]]}},{"type":"Feature","properties":{"territory_id":"mg-3171600-povoado-de-lavrinha","name":"Povoado de Lavrinha","municipality_id":"mg-3171600","polling_places":1,"approx":true,"official":false,"method":"voronoi-polling-places","whole_municipality":false,"approx_coords_only":false},"geometry":{"type":"MultiPolygon","coordinates":[[[[-42.34257,-16.87373],[-42.3369,-16.8609],[-42.28413,-16.86308],[-42.24652,-16.77538],[-42.33725,-16.80293],[-42.33788,-16.80455],[-42.33818,-16.80784],[-42.34257,-16.87373]]]]}},{"type":"Feature","properties":{"territory_id":"mg-3171600-povoado-de-santana","name":"Povoado de Santana","municipality_id":"mg-3171600","polling_places":1,"approx":true,"official":false,"method":"voronoi-polling-places","whole_municipality":false,"approx_coords_only":false},"geometry":{"type":"MultiPolygon","coordinates":[[[[-42.4838,-16.7304],[-42.4658,-16.7761],[-42.42096,-16.77219],[-42.41157,-16.76228],[-42.30972,-16.64823],[-42.30973,-16.64315],[-42.42489,-16.61067],[-42.4246,-16.6254],[-42.454,-16.6602],[-42.4687,-16.6727],[-42.4838,-16.7304]]]]}},{"type":"Feature","properties":{"territory_id":"mg-3171600-povoado-de-sao-joao-do-vacaria","name":"Povoado de Sao Joao do Vacaria","municipality_id":"mg-3171600","polling_places":1,"approx":true,"official":false,"method":"voronoi-polling-places","whole_municipality":false,"approx_coords_only":false},"geometry":{"type":"MultiPolygon","coordinates":[[[[-42.4679,-16.4885],[-42.4639,-16.5251],[-42.4253,-16.5895],[-42.42489,-16.61067],[-42.30973,-16.64315],[-42.3098,-16.6006],[-42.2893,-16.5527],[-42.322,-16.5147],[-42.3706,-16.5051],[-42.3779,-16.4738],[-42.4472,-16.4959],[-42.4679,-16.4885]]]]}},{"type":"Feature","properties":{"territory_id":"mg-3171600-povoado-de-tum-tum","name":"Povoado de Tum-tum","municipality_id":"mg-3171600","polling_places":1,"approx":true,"official":false,"method":"voronoi-polling-places","whole_municipality":false,"approx_coords_only":false},"geometry":{"type":"MultiPolygon","coordinates":[[[[-42.28413,-16.86308],[-42.274,-16.8635],[-42.2145,-16.8832],[-42.187,-16.8649],[-42.1922,-16.8518],[-42.1422,-16.8159],[-42.1401,-16.7846],[-42.1739,-16.7675],[-42.2089,-16.7641],[-42.2148,-16.7136],[-42.21897,-16.71569],[-42.23527,-16.75083],[-42.24652,-16.77538],[-42.28413,-16.86308]]]]}},{"type":"Feature","properties":{"territory_id":"mg-3171600-sao-vicente","name":"Sao Vicente","municipality_id":"mg-3171600","polling_places":1,"approx":true,"official":false,"method":"voronoi-polling-places","whole_municipality":false,"approx_coords_only":false},"geometry":{"type":"MultiPolygon","coordinates":[[[[-42.41157,-16.76228],[-42.36421,-16.78791],[-42.33943,-16.801],[-42.23527,-16.75083],[-42.21897,-16.71569],[-42.2549,-16.7337],[-42.2923,-16.6672],[-42.3097,-16.6586],[-42.30972,-16.64823],[-42.41157,-16.76228]]]]}},{"type":"Feature","properties":{"territory_id":"mg-3171600-turmalina","name":"Turmalina","municipality_id":"mg-3171600","polling_places":1,"approx":true,"official":false,"method":"voronoi-polling-places","whole_municipality":false,"approx_coords_only":false},"geometry":{"type":"MultiPolygon","coordinates":[[[[-42.33943,-16.801],[-42.33725,-16.80293],[-42.24652,-16.77538],[-42.23527,-16.75083],[-42.33943,-16.801]]]]}}]}