{"type":"FeatureCollection","features":[{"type":"Feature","properties":{"territory_id":"mg-3171402-centro","name":"Centro","municipality_id":"mg-3171402","polling_places":1,"approx":true,"official":false,"method":"voronoi-polling-places","whole_municipality":false,"approx_coords_only":false},"geometry":{"type":"MultiPolygon","coordinates":[[[[-42.31488,-20.89778],[-42.26851,-20.91774],[-42.26334,-20.91996],[-42.2598,-20.9055],[-42.2331,-20.8903],[-42.2098,-20.8544],[-42.21,-20.8223],[-42.2598,-20.8421],[-42.2666,-20.8615],[-42.31488,-20.89778]]]]}},{"type":"Feature","properties":{"territory_id":"mg-3171402-santo-antonio-do-gloria","name":"Santo Antônio do Glória","municipality_id":"mg-3171402","polling_places":1,"approx":true,"official":false,"method":"voronoi-polling-places","whole_municipality":false,"approx_coords_only":false},"geometry":{"type":"MultiPolygon","coordinates":[[[[-42.3481,-20.9588],[-42.2987,-21.0001],[-42.2742,-20.9644],[-42.26334,-20.91996],[-42.26851,-20.91774],[-42.31488,-20.89778],[-42.3229,-20.9038],[-42.3481,-20.9588]]]]}}]}