{"type":"FeatureCollection","features":[{"type":"Feature","properties":{"territory_id":"mg-3171071-centro","name":"Centro","municipality_id":"mg-3171071","polling_places":1,"approx":true,"official":false,"method":"voronoi-polling-places","whole_municipality":false,"approx_coords_only":false},"geometry":{"type":"MultiPolygon","coordinates":[[[[-42.80434,-17.37652],[-42.71937,-17.46653],[-42.69507,-17.45703],[-42.64459,-17.41747],[-42.6787,-17.4047],[-42.7262,-17.3293],[-42.744,-17.3534],[-42.80434,-17.37652]]]]}},{"type":"Feature","properties":{"territory_id":"mg-3171071-distrito-mendonca","name":"Distrito Mendonça","municipality_id":"mg-3171071","polling_places":1,"approx":true,"official":false,"method":"voronoi-polling-places","whole_municipality":false,"approx_coords_only":false},"geometry":{"type":"MultiPolygon","coordinates":[[[[-42.85633,-17.52867],[-42.8376,-17.5547],[-42.8054,-17.5475],[-42.772,-17.5841],[-42.7602,-17.6251],[-42.7214,-17.588],[-42.7238,-17.5473],[-42.71407,-17.54796],[-42.73022,-17.48037],[-42.85633,-17.52867]]]]}},{"type":"Feature","properties":{"territory_id":"mg-3171071-zona-rural","name":"Zona Rural","municipality_id":"mg-3171071","polling_places":4,"approx":true,"official":false,"method":"voronoi-polling-places","whole_municipality":false,"approx_coords_only":false},"geometry":{"type":"MultiPolygon","coordinates":[[[[-42.8844,-17.449],[-42.8602,-17.4789],[-42.8797,-17.4962],[-42.85633,-17.52867],[-42.73022,-17.48037],[-42.71407,-17.54796],[-42.6842,-17.55],[-42.6525,-17.5537],[-42.6628,-17.5862],[-42.6133,-17.6013],[-42.5888,-17.6308],[-42.5402,-17.6208],[-42.5512,-17.5884],[-42.5809,-17.5662],[-42.5992,-17.501],[-42.6325,-17.422],[-42.64459,-17.41747],[-42.69507,-17.45703],[-42.71937,-17.46653],[-42.80434,-17.37652],[-42.869,-17.4013],[-42.8844,-17.449]]]]}}]}