{"type":"FeatureCollection","features":[{"type":"Feature","properties":{"territory_id":"mg-3171501-centro","name":"Centro","municipality_id":"mg-3171501","polling_places":2,"approx":true,"official":false,"method":"voronoi-polling-places","whole_municipality":true,"approx_coords_only":false},"geometry":{"type":"MultiPolygon","coordinates":[[[[-41.8289,-18.6612],[-41.82,-18.6394],[-41.8411,-18.6058],[-41.886,-18.5732],[-41.9349,-18.58],[-41.972,-18.5343],[-42.008,-18.5525],[-41.9976,-18.6107],[-42.018,-18.6425],[-41.8289,-18.6612]]]]}}]}