{"type":"FeatureCollection","features":[{"type":"Feature","properties":{"territory_id":"mg-3171105-centro","name":"Centro","municipality_id":"mg-3171105","polling_places":1,"approx":true,"official":false,"method":"voronoi-polling-places","whole_municipality":false,"approx_coords_only":false},"geometry":{"type":"MultiPolygon","coordinates":[[[[-48.53315,-19.53312],[-48.30862,-19.73309],[-48.2136,-19.6947],[-48.1845,-19.6946],[-48.1685,-19.6461],[-48.1681,-19.601],[-48.1474,-19.5791],[-48.2205,-19.4903],[-48.2494,-19.474],[-48.2724,-19.4391],[-48.3065,-19.4478],[-48.3552,-19.4118],[-48.3993,-19.4103],[-48.4174,-19.4598],[-48.4092,-19.4833],[-48.4438,-19.5161],[-48.4945,-19.5294],[-48.5152,-19.5198],[-48.53315,-19.53312]]]]}},{"type":"Feature","properties":{"territory_id":"mg-3171105-distrito-de-rufinopolis","name":"Distrito de Rufinópolis","municipality_id":"mg-3171105","polling_places":1,"approx":true,"official":false,"method":"voronoi-polling-places","whole_municipality":false,"approx_coords_only":false},"geometry":{"type":"MultiPolygon","coordinates":[[[[-48.5458,-19.5425],[-48.4843,-19.6044],[-48.4891,-19.6297],[-48.4617,-19.6498],[-48.4732,-19.6789],[-48.448,-19.7071],[-48.4545,-19.7774],[-48.388,-19.796],[-48.3452,-19.8236],[-48.3457,-19.7838],[-48.3272,-19.7406],[-48.30862,-19.73309],[-48.53315,-19.53312],[-48.5458,-19.5425]]]]}}]}