{"type":"FeatureCollection","features":[{"type":"Feature","properties":{"territory_id":"mg-3171907-centro","name":"Centro","municipality_id":"mg-3171907","polling_places":3,"approx":true,"official":false,"method":"voronoi-polling-places","whole_municipality":false,"approx_coords_only":false},"geometry":{"type":"MultiPolygon","coordinates":[[[[-42.37529,-18.51475],[-42.3707,-18.5192],[-42.3441,-18.5134],[-42.2861,-18.5385],[-42.2787,-18.5641],[-42.2313,-18.5356],[-42.2354,-18.5102],[-42.2766,-18.4876],[-42.26964,-18.43831],[-42.27661,-18.43263],[-42.32677,-18.45489],[-42.32989,-18.45595],[-42.33227,-18.45952],[-42.37529,-18.51475]]]]}},{"type":"Feature","properties":{"territory_id":"mg-3171907-divino-de-virgolandia","name":"Divino de Virgolândia","municipality_id":"mg-3171907","polling_places":1,"approx":true,"official":false,"method":"voronoi-polling-places","whole_municipality":false,"approx_coords_only":false},"geometry":{"type":"MultiPolygon","coordinates":[[[[-42.30103,-18.37641],[-42.27661,-18.43263],[-42.26964,-18.43831],[-42.2684,-18.4295],[-42.2031,-18.411],[-42.2132,-18.3832],[-42.2854,-18.3846],[-42.30103,-18.37641]]]]}},{"type":"Feature","properties":{"territory_id":"mg-3171907-zona-rural","name":"Zona Rural","municipality_id":"mg-3171907","polling_places":2,"approx":true,"official":false,"method":"voronoi-polling-places","whole_municipality":false,"approx_coords_only":false},"geometry":{"type":"MultiPolygon","coordinates":[[[[-42.4087,-18.4824],[-42.37529,-18.51475],[-42.33227,-18.45952],[-42.32989,-18.45595],[-42.32677,-18.45489],[-42.27661,-18.43263],[-42.30103,-18.37641],[-42.3392,-18.3564],[-42.3845,-18.3732],[-42.4087,-18.4824]]]]}}]}