{"type":"FeatureCollection","features":[{"type":"Feature","properties":{"territory_id":"mg-3171709-centro","name":"Centro","municipality_id":"mg-3171709","polling_places":2,"approx":true,"official":false,"method":"voronoi-polling-places","whole_municipality":false,"approx_coords_only":false},"geometry":{"type":"MultiPolygon","coordinates":[[[[-45.21961,-22.36143],[-45.10634,-22.37762],[-45.10607,-22.37766],[-45.05619,-22.37619],[-45.0567,-22.3736],[-45.0154,-22.3398],[-45.0148,-22.2759],[-45.0736,-22.2369],[-45.0825,-22.2315],[-45.1632,-22.2718],[-45.1741,-22.2882],[-45.1989,-22.3118],[-45.21961,-22.36143]]]]}},{"type":"Feature","properties":{"territory_id":"mg-3171709-serra-verde","name":"Serra Verde","municipality_id":"mg-3171709","polling_places":1,"approx":true,"official":false,"method":"voronoi-polling-places","whole_municipality":false,"approx_coords_only":false},"geometry":{"type":"MultiPolygon","coordinates":[[[[-45.10607,-22.37766],[-45.08947,-22.4516],[-45.0485,-22.415],[-45.05619,-22.37619],[-45.10607,-22.37766]]]]}},{"type":"Feature","properties":{"territory_id":"mg-3171709-vargem-alegre","name":"Vargem Alegre","municipality_id":"mg-3171709","polling_places":1,"approx":true,"official":false,"method":"voronoi-polling-places","whole_municipality":false,"approx_coords_only":false},"geometry":{"type":"MultiPolygon","coordinates":[[[[-45.2231,-22.3698],[-45.17,-22.4006],[-45.1609,-22.4319],[-45.0982,-22.4594],[-45.08947,-22.4516],[-45.10607,-22.37766],[-45.10634,-22.37762],[-45.21961,-22.36143],[-45.2231,-22.3698]]]]}}]}