{"type":"FeatureCollection","features":[{"type":"Feature","properties":{"territory_id":"mg-3171204-angicos","name":"Angicos","municipality_id":"mg-3171204","polling_places":1,"approx":true,"official":false,"method":"voronoi-polling-places","whole_municipality":false,"approx_coords_only":false},"geometry":{"type":"MultiPolygon","coordinates":[[[[-43.95126,-19.71027],[-43.95029,-19.72927],[-43.9443,-19.73464],[-43.94069,-19.73544],[-43.93187,-19.73618],[-43.92329,-19.71257],[-43.93055,-19.70885],[-43.94883,-19.7083],[-43.95126,-19.71027]]]]}},{"type":"Feature","properties":{"territory_id":"mg-3171204-bernardo-de-souza","name":"Bernardo de Souza","municipality_id":"mg-3171204","polling_places":2,"approx":true,"official":false,"method":"voronoi-polling-places","whole_municipality":false,"approx_coords_only":false},"geometry":{"type":"MultiPolygon","coordinates":[[[[-43.94069,-19.73544],[-43.93938,-19.74737],[-43.94005,-19.75205],[-43.93699,-19.75388],[-43.92781,-19.7487],[-43.92191,-19.74565],[-43.93187,-19.73618],[-43.94069,-19.73544]]]]}},{"type":"Feature","properties":{"territory_id":"mg-3171204-bonsucesso","name":"Bonsucesso","municipality_id":"mg-3171204","polling_places":1,"approx":true,"official":false,"method":"voronoi-polling-places","whole_municipality":false,"approx_coords_only":false},"geometry":{"type":"MultiPolygon","coordinates":[[[[-43.98365,-19.76995],[-43.9754,-19.7823],[-43.96904,-19.78119],[-43.97944,-19.76622],[-43.98365,-19.76995]]]]}},{"type":"Feature","properties":{"territory_id":"mg-3171204-caieiras","name":"Caieiras","municipality_id":"mg-3171204","polling_places":4,"approx":true,"official":false,"method":"voronoi-polling-places","whole_municipality":false,"approx_coords_only":false},"geometry":{"type":"MultiPolygon","coordinates":[[[[-43.92363,-19.68385],[-43.92257,-19.69098],[-43.91877,-19.6921],[-43.90997,-19.71263],[-43.88976,-19.71616],[-43.8975,-19.6989],[-43.92363,-19.68385]]]]}},{"type":"Feature","properties":{"territory_id":"mg-3171204-celvia","name":"Célvia","municipality_id":"mg-3171204","polling_places":2,"approx":true,"official":false,"method":"voronoi-polling-places","whole_municipality":false,"approx_coords_only":false},"geometry":{"type":"MultiPolygon","coordinates":[[[[-43.9571,-19.6699],[-43.938,-19.6995],[-43.94883,-19.7083],[-43.93055,-19.70885],[-43.92839,-19.6965],[-43.93003,-19.69307],[-43.92636,-19.68228],[-43.9449,-19.6716],[-43.9571,-19.6699]]]]}},{"type":"Feature","properties":{"territory_id":"mg-3171204-gavea-ii","name":"Gávea Ii","municipality_id":"mg-3171204","polling_places":1,"approx":true,"official":false,"method":"voronoi-polling-places","whole_municipality":false,"approx_coords_only":false},"geometry":{"type":"MultiPolygon","coordinates":[[[[-43.93766,-19.75765],[-43.93555,-19.76757],[-43.91468,-19.74853],[-43.92191,-19.74565],[-43.92781,-19.7487],[-43.93699,-19.75388],[-43.93766,-19.75765]]]]}},{"type":"Feature","properties":{"territory_id":"mg-3171204-imperial","name":"Imperial","municipality_id":"mg-3171204","polling_places":1,"approx":true,"official":false,"method":"voronoi-polling-places","whole_municipality":false,"approx_coords_only":false},"geometry":{"type":"MultiPolygon","coordinates":[[[[-43.93187,-19.73618],[-43.92191,-19.74565],[-43.91468,-19.74853],[-43.8867,-19.723],[-43.88976,-19.71616],[-43.90997,-19.71263],[-43.92329,-19.71257],[-43.93187,-19.73618]]]]}},{"type":"Feature","properties":{"territory_id":"mg-3171204-jardim-da-gloria","name":"Jardim da Glória","municipality_id":"mg-3171204","polling_places":2,"approx":true,"official":false,"method":"voronoi-polling-places","whole_municipality":false,"approx_coords_only":false},"geometry":{"type":"MultiPolygon","coordinates":[[[[-43.95981,-19.75199],[-43.95353,-19.75326],[-43.95052,-19.7518],[-43.94913,-19.74701],[-43.94872,-19.74474],[-43.94618,-19.74166],[-43.9443,-19.73464],[-43.95029,-19.72927],[-43.95884,-19.73466],[-43.95866,-19.74882],[-43.95981,-19.75199]]]]}},{"type":"Feature","properties":{"territory_id":"mg-3171204-jardim-daliana","name":"Jardim Daliana","municipality_id":"mg-3171204","polling_places":1,"approx":true,"official":false,"method":"voronoi-polling-places","whole_municipality":false,"approx_coords_only":false},"geometry":{"type":"MultiPolygon","coordinates":[[[[-43.94618,-19.74166],[-43.94317,-19.75141],[-43.94315,-19.75142],[-43.94005,-19.75205],[-43.93938,-19.74737],[-43.94069,-19.73544],[-43.9443,-19.73464],[-43.94618,-19.74166]]]]}},{"type":"Feature","properties":{"territory_id":"mg-3171204-jardim-encantado","name":"Jardim Encantado","municipality_id":"mg-3171204","polling_places":1,"approx":true,"official":false,"method":"voronoi-polling-places","whole_municipality":false,"approx_coords_only":false},"geometry":{"type":"MultiPolygon","coordinates":[[[[-43.98899,-19.72749],[-43.98001,-19.73613],[-43.95884,-19.73466],[-43.95029,-19.72927],[-43.95126,-19.71027],[-43.9769,-19.7311],[-43.98899,-19.72749]]]]}},{"type":"Feature","properties":{"territory_id":"mg-3171204-lourdes","name":"Lourdes","municipality_id":"mg-3171204","polling_places":1,"approx":true,"official":false,"method":"voronoi-polling-places","whole_municipality":false,"approx_coords_only":false},"geometry":{"type":"MultiPolygon","coordinates":[[[[-43.93003,-19.69307],[-43.92839,-19.6965],[-43.92257,-19.69098],[-43.92363,-19.68385],[-43.92636,-19.68228],[-43.93003,-19.69307]]]]}},{"type":"Feature","properties":{"territory_id":"mg-3171204-morro-alto","name":"Morro Alto","municipality_id":"mg-3171204","polling_places":5,"approx":true,"official":false,"method":"voronoi-polling-places","whole_municipality":false,"approx_coords_only":false},"geometry":{"type":"MultiPolygon","coordinates":[[[[-43.97386,-19.76086],[-43.96388,-19.76951],[-43.95936,-19.76972],[-43.95468,-19.77119],[-43.95271,-19.77835],[-43.9461,-19.7772],[-43.93945,-19.77113],[-43.948,-19.76319],[-43.9485,-19.76185],[-43.95656,-19.76101],[-43.96746,-19.75753],[-43.97345,-19.75985],[-43.97386,-19.76086]]]]}},{"type":"Feature","properties":{"territory_id":"mg-3171204-nazia","name":"Názia","municipality_id":"mg-3171204","polling_places":1,"approx":true,"official":false,"method":"voronoi-polling-places","whole_municipality":false,"approx_coords_only":false},"geometry":{"type":"MultiPolygon","coordinates":[[[[-43.93055,-19.70885],[-43.92329,-19.71257],[-43.90997,-19.71263],[-43.91877,-19.6921],[-43.92257,-19.69098],[-43.92839,-19.6965],[-43.93055,-19.70885]]]]}},{"type":"Feature","properties":{"territory_id":"mg-3171204-nova-pampulha","name":"Nova Pampulha","municipality_id":"mg-3171204","polling_places":2,"approx":true,"official":false,"method":"voronoi-polling-places","whole_municipality":false,"approx_coords_only":false},"geometry":{"type":"MultiPolygon","coordinates":[[[[-43.97944,-19.76622],[-43.96904,-19.78119],[-43.95271,-19.77835],[-43.95468,-19.77119],[-43.95936,-19.76972],[-43.96388,-19.76951],[-43.97386,-19.76086],[-43.97796,-19.76431],[-43.97944,-19.76622]]]]}},{"type":"Feature","properties":{"territory_id":"mg-3171204-novo-horizonte","name":"Novo Horizonte","municipality_id":"mg-3171204","polling_places":1,"approx":true,"official":false,"method":"voronoi-polling-places","whole_municipality":false,"approx_coords_only":false},"geometry":{"type":"MultiPolygon","coordinates":[[[[-43.96746,-19.75753],[-43.95656,-19.76101],[-43.9485,-19.76185],[-43.94832,-19.76063],[-43.95353,-19.75326],[-43.95981,-19.75199],[-43.96746,-19.75753]]]]}},{"type":"Feature","properties":{"territory_id":"mg-3171204-santa-clara","name":"Santa Clara","municipality_id":"mg-3171204","polling_places":3,"approx":true,"official":false,"method":"voronoi-polling-places","whole_municipality":false,"approx_coords_only":false},"geometry":{"type":"MultiPolygon","coordinates":[[[[-43.9492,-19.75207],[-43.94609,-19.75727],[-43.94623,-19.75806],[-43.94832,-19.76063],[-43.9485,-19.76185],[-43.948,-19.76319],[-43.93945,-19.77113],[-43.93555,-19.76757],[-43.93766,-19.75765],[-43.93699,-19.75388],[-43.94005,-19.75205],[-43.94315,-19.75142],[-43.94317,-19.75141],[-43.94626,-19.75153],[-43.9492,-19.75207]]]]}},{"type":"Feature","properties":{"territory_id":"mg-3171204-santa-clara-ii","name":"Santa Clara Ii","municipality_id":"mg-3171204","polling_places":1,"approx":true,"official":false,"method":"voronoi-polling-places","whole_municipality":false,"approx_coords_only":false},"geometry":{"type":"MultiPolygon","coordinates":[[[[-43.95353,-19.75326],[-43.94832,-19.76063],[-43.94623,-19.75806],[-43.94609,-19.75727],[-43.9492,-19.75207],[-43.95052,-19.7518],[-43.95353,-19.75326]]]]}},{"type":"Feature","properties":{"territory_id":"mg-3171204-santa-cruz","name":"Santa Cruz","municipality_id":"mg-3171204","polling_places":1,"approx":true,"official":false,"method":"voronoi-polling-places","whole_municipality":false,"approx_coords_only":false},"geometry":{"type":"MultiPolygon","coordinates":[[[[-43.98001,-19.73613],[-43.97345,-19.75985],[-43.96746,-19.75753],[-43.95981,-19.75199],[-43.95866,-19.74882],[-43.95884,-19.73466],[-43.98001,-19.73613]]]]}},{"type":"Feature","properties":{"territory_id":"mg-3171204-suely","name":"Suely","municipality_id":"mg-3171204","polling_places":2,"approx":true,"official":false,"method":"voronoi-polling-places","whole_municipality":false,"approx_coords_only":false},"geometry":{"type":"MultiPolygon","coordinates":[[[[-44.007,-19.7221],[-44.0056,-19.7371],[-43.98365,-19.76995],[-43.97944,-19.76622],[-43.97796,-19.76431],[-43.97386,-19.76086],[-43.97345,-19.75985],[-43.98001,-19.73613],[-43.98899,-19.72749],[-44.007,-19.7221]]]]}},{"type":"Feature","properties":{"territory_id":"mg-3171204-vila-esportiva","name":"Vila Esportiva","municipality_id":"mg-3171204","polling_places":2,"approx":true,"official":false,"method":"voronoi-polling-places","whole_municipality":false,"approx_coords_only":false},"geometry":{"type":"MultiPolygon","coordinates":[[[[-43.95052,-19.7518],[-43.9492,-19.75207],[-43.94626,-19.75153],[-43.94317,-19.75141],[-43.94618,-19.74166],[-43.94872,-19.74474],[-43.94913,-19.74701],[-43.95052,-19.7518]]]]}}]}