{"type":"FeatureCollection","features":[{"type":"Feature","properties":{"territory_id":"mg-3172004-barra-dos-coutos","name":"Barra dos Coutos","municipality_id":"mg-3172004","polling_places":1,"approx":true,"official":false,"method":"voronoi-polling-places","whole_municipality":false,"approx_coords_only":false},"geometry":{"type":"MultiPolygon","coordinates":[[[[-42.88814,-21.04009],[-42.8687,-21.0547],[-42.8457,-21.107],[-42.7901,-21.0959],[-42.78502,-21.08955],[-42.84081,-21.02106],[-42.85895,-21.02314],[-42.88814,-21.04009]]]]}},{"type":"Feature","properties":{"territory_id":"mg-3172004-centro","name":"Centro","municipality_id":"mg-3172004","polling_places":8,"approx":true,"official":false,"method":"voronoi-polling-places","whole_municipality":false,"approx_coords_only":false},"geometry":{"type":"MultiPolygon","coordinates":[[[[-42.85895,-21.02314],[-42.84081,-21.02106],[-42.84015,-21.02071],[-42.83844,-21.01928],[-42.83816,-21.01696],[-42.83623,-21.01391],[-42.82765,-21.01417],[-42.82849,-21.00954],[-42.83073,-21.00807],[-42.83535,-21.00649],[-42.83727,-21.00516],[-42.83872,-21.00516],[-42.84405,-21.00373],[-42.84743,-21.01281],[-42.84746,-21.01284],[-42.85895,-21.02314]]]]}},{"type":"Feature","properties":{"territory_id":"mg-3172004-cohab","name":"Cohab","municipality_id":"mg-3172004","polling_places":1,"approx":true,"official":false,"method":"voronoi-polling-places","whole_municipality":false,"approx_coords_only":false},"geometry":{"type":"MultiPolygon","coordinates":[[[[-42.88912,-20.99365],[-42.8443,-21.00302],[-42.83111,-20.94395],[-42.8484,-20.9514],[-42.85552,-20.94974],[-42.88369,-20.97868],[-42.88912,-20.99365]]]]}},{"type":"Feature","properties":{"territory_id":"mg-3172004-colonia","name":"Colonia","municipality_id":"mg-3172004","polling_places":1,"approx":true,"official":false,"method":"voronoi-polling-places","whole_municipality":false,"approx_coords_only":false},"geometry":{"type":"MultiPolygon","coordinates":[[[[-42.83727,-21.00516],[-42.83535,-21.00649],[-42.83073,-21.00807],[-42.83323,-20.99795],[-42.83727,-21.00516]]]]}},{"type":"Feature","properties":{"territory_id":"mg-3172004-coronel-joaquim-lopes","name":"Coronel Joaquim Lopes","municipality_id":"mg-3172004","polling_places":1,"approx":true,"official":false,"method":"voronoi-polling-places","whole_municipality":false,"approx_coords_only":false},"geometry":{"type":"MultiPolygon","coordinates":[[[[-42.83323,-20.99795],[-42.83073,-21.00807],[-42.82849,-21.00954],[-42.80988,-20.97604],[-42.81471,-20.93688],[-42.81814,-20.93836],[-42.83323,-20.99795]]]]}},{"type":"Feature","properties":{"territory_id":"mg-3172004-ducilia-carone","name":"Ducilia Carone","municipality_id":"mg-3172004","polling_places":2,"approx":true,"official":false,"method":"voronoi-polling-places","whole_municipality":false,"approx_coords_only":false},"geometry":{"type":"MultiPolygon","coordinates":[[[[-42.84081,-21.02106],[-42.78502,-21.08955],[-42.77659,-21.07901],[-42.78548,-21.06077],[-42.8084,-21.03707],[-42.82258,-21.02166],[-42.83844,-21.01928],[-42.84015,-21.02071],[-42.84081,-21.02106]]]]}},{"type":"Feature","properties":{"territory_id":"mg-3172004-jardim-alice","name":"Jardim Alice","municipality_id":"mg-3172004","polling_places":1,"approx":true,"official":false,"method":"voronoi-polling-places","whole_municipality":false,"approx_coords_only":false},"geometry":{"type":"MultiPolygon","coordinates":[[[[-42.83844,-21.01928],[-42.82258,-21.02166],[-42.82765,-21.01417],[-42.83623,-21.01391],[-42.83816,-21.01696],[-42.83844,-21.01928]]]]}},{"type":"Feature","properties":{"territory_id":"mg-3172004-lourdes","name":"Lourdes","municipality_id":"mg-3172004","polling_places":1,"approx":true,"official":false,"method":"voronoi-polling-places","whole_municipality":false,"approx_coords_only":false},"geometry":{"type":"MultiPolygon","coordinates":[[[[-42.8443,-21.00302],[-42.84405,-21.00373],[-42.83872,-21.00516],[-42.83727,-21.00516],[-42.83323,-20.99795],[-42.81814,-20.93836],[-42.83111,-20.94395],[-42.8443,-21.00302]]]]}},{"type":"Feature","properties":{"territory_id":"mg-3172004-novo-horizonte","name":"Novo Horizonte","municipality_id":"mg-3172004","polling_places":1,"approx":true,"official":false,"method":"voronoi-polling-places","whole_municipality":false,"approx_coords_only":false},"geometry":{"type":"MultiPolygon","coordinates":[[[[-42.82849,-21.00954],[-42.82765,-21.01417],[-42.82258,-21.02166],[-42.8084,-21.03707],[-42.78548,-21.06077],[-42.80988,-20.97604],[-42.82849,-21.00954]]]]}},{"type":"Feature","properties":{"territory_id":"mg-3172004-piedade","name":"Piedade","municipality_id":"mg-3172004","polling_places":1,"approx":true,"official":false,"method":"voronoi-polling-places","whole_municipality":false,"approx_coords_only":false},"geometry":{"type":"MultiPolygon","coordinates":[[[[-42.90501,-21.02741],[-42.88814,-21.04009],[-42.85895,-21.02314],[-42.84746,-21.01284],[-42.84743,-21.01281],[-42.84405,-21.00373],[-42.8443,-21.00302],[-42.88912,-20.99365],[-42.90501,-21.02741]]]]}},{"type":"Feature","properties":{"territory_id":"mg-3172004-piedade-de-cima","name":"Piedade de Cima","municipality_id":"mg-3172004","polling_places":1,"approx":true,"official":false,"method":"voronoi-polling-places","whole_municipality":false,"approx_coords_only":false},"geometry":{"type":"MultiPolygon","coordinates":[[[[-42.93104,-20.94609],[-42.88369,-20.97868],[-42.85552,-20.94974],[-42.915,-20.9359],[-42.93104,-20.94609]]]]}},{"type":"Feature","properties":{"territory_id":"mg-3172004-santa-maria-zona-rural","name":"Santa Maria - Zona Rural","municipality_id":"mg-3172004","polling_places":1,"approx":true,"official":false,"method":"voronoi-polling-places","whole_municipality":false,"approx_coords_only":false},"geometry":{"type":"MultiPolygon","coordinates":[[[[-42.9426,-20.9845],[-42.9226,-21.0142],[-42.90501,-21.02741],[-42.88912,-20.99365],[-42.88369,-20.97868],[-42.93104,-20.94609],[-42.9331,-20.9474],[-42.9426,-20.9845]]]]}},{"type":"Feature","properties":{"territory_id":"mg-3172004-zona-rural","name":"Zona Rural","municipality_id":"mg-3172004","polling_places":1,"approx":true,"official":false,"method":"voronoi-polling-places","whole_municipality":false,"approx_coords_only":false},"geometry":{"type":"MultiPolygon","coordinates":[[[[-42.81471,-20.93688],[-42.80988,-20.97604],[-42.78548,-21.06077],[-42.77659,-21.07901],[-42.7637,-21.0629],[-42.7581,-20.9662],[-42.8129,-20.9361],[-42.81471,-20.93688]]]]}}]}