{"type":"FeatureCollection","features":[{"type":"Feature","properties":{"territory_id":"mg-3172202-centro","name":"Centro","municipality_id":"mg-3172202","polling_places":1,"approx":true,"official":false,"method":"voronoi-polling-places","whole_municipality":false,"approx_coords_only":false},"geometry":{"type":"MultiPolygon","coordinates":[[[[-45.39102,-22.49883],[-45.38658,-22.53013],[-45.36614,-22.54958],[-45.3371,-22.5194],[-45.3593,-22.4672],[-45.39102,-22.49883]]]]}},{"type":"Feature","properties":{"territory_id":"mg-3172202-quilombo","name":"Quilombo","municipality_id":"mg-3172202","polling_places":1,"approx":true,"official":false,"method":"voronoi-polling-places","whole_municipality":false,"approx_coords_only":false},"geometry":{"type":"MultiPolygon","coordinates":[[[[-45.4065,-22.57268],[-45.3895,-22.6002],[-45.3727,-22.5564],[-45.36614,-22.54958],[-45.38658,-22.53013],[-45.4065,-22.57268]]]]}},{"type":"Feature","properties":{"territory_id":"mg-3172202-roseta","name":"Roseta","municipality_id":"mg-3172202","polling_places":1,"approx":true,"official":false,"method":"voronoi-polling-places","whole_municipality":false,"approx_coords_only":false},"geometry":{"type":"MultiPolygon","coordinates":[[[[-45.44622,-22.60799],[-45.4204,-22.6212],[-45.3951,-22.6148],[-45.3895,-22.6002],[-45.4065,-22.57268],[-45.44227,-22.55619],[-45.44622,-22.60799]]]]}},{"type":"Feature","properties":{"territory_id":"mg-3172202-salao","name":"Salão","municipality_id":"mg-3172202","polling_places":1,"approx":true,"official":false,"method":"voronoi-polling-places","whole_municipality":false,"approx_coords_only":false},"geometry":{"type":"MultiPolygon","coordinates":[[[[-45.44433,-22.55407],[-45.44227,-22.55619],[-45.4065,-22.57268],[-45.38658,-22.53013],[-45.39102,-22.49883],[-45.3921,-22.4999],[-45.3932,-22.524],[-45.4301,-22.5397],[-45.44433,-22.55407]]]]}},{"type":"Feature","properties":{"territory_id":"mg-3172202-sao-bernardo","name":"São Bernardo","municipality_id":"mg-3172202","polling_places":1,"approx":true,"official":false,"method":"voronoi-polling-places","whole_municipality":false,"approx_coords_only":false},"geometry":{"type":"MultiPolygon","coordinates":[[[[-45.4804,-22.5905],[-45.44622,-22.60799],[-45.44227,-22.55619],[-45.44433,-22.55407],[-45.4804,-22.5905]]]]}}]}