{"type":"FeatureCollection","features":[{"type":"Feature","properties":{"territory_id":"mg-3172103-bonsucesso","name":"Bonsucesso","municipality_id":"mg-3172103","polling_places":1,"approx":true,"official":false,"method":"voronoi-polling-places","whole_municipality":false,"approx_coords_only":false},"geometry":{"type":"MultiPolygon","coordinates":[[[[-42.58197,-21.83627],[-42.51357,-21.80743],[-42.54078,-21.77194],[-42.55329,-21.76819],[-42.58197,-21.83627]]]]}},{"type":"Feature","properties":{"territory_id":"mg-3172103-centro","name":"Centro","municipality_id":"mg-3172103","polling_places":3,"approx":true,"official":false,"method":"voronoi-polling-places","whole_municipality":false,"approx_coords_only":false},"geometry":{"type":"MultiPolygon","coordinates":[[[[-42.54078,-21.77194],[-42.51357,-21.80743],[-42.4632,-21.7862],[-42.4823,-21.7162],[-42.52356,-21.70419],[-42.54064,-21.71947],[-42.54064,-21.77178],[-42.54078,-21.77194]]]]}},{"type":"Feature","properties":{"territory_id":"mg-3172103-centro-de-volta-grande","name":"Centro de Volta Grande","municipality_id":"mg-3172103","polling_places":1,"approx":true,"official":false,"method":"voronoi-polling-places","whole_municipality":false,"approx_coords_only":false},"geometry":{"type":"MultiPolygon","coordinates":[[[[-42.55329,-21.76819],[-42.54078,-21.77194],[-42.54064,-21.77178],[-42.54064,-21.71947],[-42.54106,-21.71984],[-42.55329,-21.76819]]]]}},{"type":"Feature","properties":{"territory_id":"mg-3172103-sao-geraldo","name":"Sao Geraldo","municipality_id":"mg-3172103","polling_places":1,"approx":true,"official":false,"method":"voronoi-polling-places","whole_municipality":false,"approx_coords_only":true},"geometry":{"type":"MultiPolygon","coordinates":[[[[-42.6354,-21.76817],[-42.6027,-21.8177],[-42.606,-21.8464],[-42.58197,-21.83627],[-42.55329,-21.76819],[-42.54106,-21.71984],[-42.6354,-21.76817]]]]}},{"type":"Feature","properties":{"territory_id":"mg-3172103-trimonte","name":"Trimonte","municipality_id":"mg-3172103","polling_places":1,"approx":true,"official":false,"method":"voronoi-polling-places","whole_municipality":false,"approx_coords_only":false},"geometry":{"type":"MultiPolygon","coordinates":[[[[-42.6404,-21.7606],[-42.6354,-21.76817],[-42.54106,-21.71984],[-42.54064,-21.71947],[-42.52356,-21.70419],[-42.5266,-21.7033],[-42.5589,-21.6807],[-42.6227,-21.7021],[-42.6404,-21.7606]]]]}}]}